{"type":"FeatureCollection","features":[{"type":"Feature","properties":{"val":170.09,"field":"tp"},"geometry":{"type":"Polygon","coordinates":[[[36.88,3.75],[37.56,3.75],[37.56,3.69],[37.25,3.69],[37.25,3.62],[36.94,3.62],[36.94,3.56],[36.81,3.56],[36.81,3.5],[36.56,3.5],[36.56,3.62],[36.75,3.62],[36.75,3.69],[36.88,3.69],[36.88,3.75]]]}},{"type":"Feature","properties":{"val":170.09,"field":"tp"},"geometry":{"type":"Polygon","coordinates":[[[-5.38,-7.12],[-5.31,-7.12],[-5.31,-7.31],[-5.38,-7.31],[-5.38,-7.25],[-5.44,-7.25],[-5.44,-7.19],[-5.38,-7.19],[-5.38,-7.12]]]}},{"type":"Feature","properties":{"val":170.09,"field":"tp"},"geometry":{"type":"Polygon","coordinates":[[[1.62,-7.94],[1.62,-8.0],[1.69,-8.0],[1.69,-7.94],[1.62,-7.94]]]}},{"type":"Feature","properties":{"val":170.09,"field":"tp"},"geometry":{"type":"Polygon","coordinates":[[[-2.5,-8.06],[-2.5,-8.12],[-2.44,-8.12],[-2.44,-8.06],[-2.5,-8.06]]]}},{"type":"Feature","properties":{"val":170.09,"field":"tp"},"geometry":{"type":"Polygon","coordinates":[[[19.0,-8.0],[19.19,-8.0],[19.19,-8.06],[19.75,-8.06],[19.75,-8.12],[19.88,-8.12],[19.88,-8.19],[20.0,-8.19],[20.0,-8.25],[20.38,-8.25],[20.38,-8.38],[19.75,-8.38],[19.75,-8.31],[19.62,-8.31],[19.62,-8.25],[18.88,-8.25],[18.88,-8.19],[18.69,-8.19],[18.69,-8.06],[19.0,-8.06],[19.0,-8.0]]]}},{"type":"Feature","properties":{"val":170.09,"field":"tp"},"geometry":{"type":"Polygon","coordinates":[[[22.0,-8.5],[22.0,-8.62],[22.56,-8.62],[22.56,-8.56],[22.5,-8.56],[22.5,-8.5],[22.0,-8.5]]]}},{"type":"Feature","properties":{"val":170.09,"field":"tp"},"geometry":{"type":"Polygon","coordinates":[[[23.25,-8.5],[23.88,-8.5],[23.88,-8.56],[24.06,-8.56],[24.06,-8.62],[24.12,-8.62],[24.12,-8.69],[24.06,-8.69],[24.06,-8.75],[23.81,-8.75],[23.81,-8.81],[23.38,-8.81],[23.38,-8.75],[23.19,-8.75],[23.19,-8.69],[23.12,-8.69],[23.12,-8.56],[23.25,-8.56],[23.25,-8.5]]]}},{"type":"Feature","properties":{"val":170.09,"field":"tp"},"geometry":{"type":"Polygon","coordinates":[[[25.38,-8.81],[25.75,-8.81],[25.75,-8.88],[25.81,-8.88],[25.81,-8.94],[25.88,-8.94],[25.88,-9.0],[25.94,-9.0],[25.94,-9.12],[25.88,-9.12],[25.88,-9.19],[25.75,-9.19],[25.75,-9.25],[25.25,-9.25],[25.25,-9.19],[25.12,-9.19],[25.12,-9.12],[24.69,-9.12],[24.69,-9.06],[24.44,-9.06],[24.44,-8.94],[25.19,-8.94],[25.19,-8.88],[25.38,-8.88],[25.38,-8.81]]]}},{"type":"Feature","properties":{"val":170.09,"field":"tp"},"geometry":{"type":"Polygon","coordinates":[[[-7.69,-9.5],[-7.69,-9.75],[-7.62,-9.75],[-7.62,-9.81],[-7.56,-9.81],[-7.56,-9.75],[-7.5,-9.75],[-7.5,-9.69],[-7.44,-9.69],[-7.44,-9.62],[-7.5,-9.62],[-7.5,-9.5],[-7.69,-9.5]]]}},{"type":"Feature","properties":{"val":170.09,"field":"tp"},"geometry":{"type":"Polygon","coordinates":[[[-7.56,-10.56],[-7.56,-10.75],[-7.5,-10.75],[-7.5,-10.81],[-7.38,-10.81],[-7.38,-10.75],[-7.31,-10.75],[-7.31,-10.56],[-7.56,-10.56]]]}},{"type":"Feature","properties":{"val":170.09,"field":"tp"},"geometry":{"type":"Polygon","coordinates":[[[-0.5,-7.12],[-0.44,-7.12],[-0.44,-7.19],[-0.38,-7.19],[-0.38,-7.38],[-0.44,-7.38],[-0.44,-7.5],[-0.5,-7.5],[-0.5,-7.62],[-0.56,-7.62],[-0.56,-7.81],[-0.62,-7.81],[-0.62,-7.94],[-0.69,-7.94],[-0.69,-8.06],[-0.75,-8.06],[-0.75,-8.19],[-0.81,-8.19],[-0.81,-8.31],[-0.88,-8.31],[-0.88,-8.44],[-0.94,-8.44],[-0.94,-8.69],[-0.88,-8.69],[-0.88,-9.25],[-0.81,-9.25],[-0.81,-9.5],[-0.75,-9.5],[-0.75,-9.56],[-0.69,-9.56],[-0.69,-9.62],[-0.5,-9.62],[-0.5,-9.69],[-0.38,-9.69],[-0.38,-9.62],[-0.31,-9.62],[-0.31,-9.44],[-0.25,-9.44],[-0.25,-9.19],[-0.19,-9.19],[-0.19,-9.06],[-0.06,-9.06],[-0.06,-9.0],[0.12,-9.0],[0.12,-9.06],[0.19,-9.06],[0.19,-9.12],[0.25,-9.12],[0.25,-9.19],[0.31,-9.19],[0.31,-9.25],[0.81,-9.25],[0.81,-9.19],[0.94,-9.19],[0.94,-9.12],[1.06,-9.12],[1.06,-9.06],[1.25,-9.06],[1.25,-9.0],[1.44,-9.0],[1.44,-8.94],[2.0,-8.94],[2.0,-9.0],[2.62,-9.0],[2.62,-8.94],[2.94,-8.94],[2.94,-8.88],[3.19,-8.88],[3.19,-8.94],[3.44,-8.94],[3.44,-9.0],[3.56,-9.0],[3.56,-8.94],[3.69,-8.94],[3.69,-8.88],[3.75,-8.88],[3.75,-8.75],[3.81,-8.75],[3.81,-8.69],[3.88,-8.69],[3.88,-8.62],[3.94,-8.62],[3.94,-8.56],[4.0,-8.56],[4.0,-8.5],[4.06,-8.5],[4.06,-8.44],[4.19,-8.44],[4.19,-8.75],[4.12,-8.75],[4.12,-8.94],[4.06,-8.94],[4.06,-9.0],[4.0,-9.0],[4.0,-9.06],[3.94,-9.06],[3.94,-9.12],[3.75,-9.12],[3.75,-9.19],[3.31,-9.19],[3.31,-9.25],[3.19,-9.25],[3.19,-9.31],[3.06,-9.31],[3.06,-9.38],[2.94,-9.38],[2.94,-9.44],[2.81,-9.44],[2.81,-9.5],[2.62,-9.5],[2.62,-9.56],[2.25,-9.56],[2.25,-9.62],[2.06,-9.62],[2.06,-9.69],[2.0,-9.69],[2.0,-9.75],[1.94,-9.75],[1.94,-9.81],[1.88,-9.81],[1.88,-9.94],[1.81,-9.94],[1.81,-10.06],[1.75,-10.06],[1.75,-10.25],[1.69,-10.25],[1.69,-10.38],[1.62,-10.38],[1.62,-10.44],[1.56,-10.44],[1.56,-10.5],[1.44,-10.5],[1.44,-10.56],[1.19,-10.56],[1.19,-10.62],[1.0,-10.62],[1.0,-10.56],[0.94,-10.56],[0.94,-10.62],[0.81,-10.62],[0.81,-10.69],[0.75,-10.69],[0.75,-10.81],[0.69,-10.81],[0.69,-10.94],[0.62,-10.94],[0.62,-11.19],[0.56,-11.19],[0.56,-11.38],[0.5,-11.38],[0.5,-11.56],[0.44,-11.56],[0.44,-11.62],[0.38,-11.62],[0.38,-11.69],[0.25,-11.69],[0.25,-11.62],[0.19,-11.62],[0.19,-11.56],[0.12,-11.56],[0.12,-11.5],[0.06,-11.5],[0.06,-11.44],[0.0,-11.44],[0.0,-11.5],[-0.06,-11.5],[-0.06,-11.56],[-0.19,-11.56],[-0.19,-11.62],[-0.31,-11.62],[-0.31,-11.56],[-0.38,-11.56],[-0.38,-11.25],[-0.31,-11.25],[-0.31,-11.19],[-0.25,-11.19],[-0.25,-11.06],[-0.19,-11.06],[-0.19,-11.0],[-0.12,-11.0],[-0.12,-10.81],[-0.19,-10.81],[-0.19,-10.75],[-0.25,-10.75],[-0.25,-10.69],[-0.31,-10.69],[-0.31,-10.44],[-0.25,-10.44],[-0.25,-10.38],[-0.31,-10.38],[-0.31,-10.25],[-0.38,-10.25],[-0.38,-10.12],[-0.44,-10.12],[-0.44,-10.06],[-0.62,-10.06],[-0.62,-10.12],[-0.69,-10.12],[-0.69,-10.25],[-0.75,-10.25],[-0.75,-10.44],[-0.81,-10.44],[-0.81,-10.62],[-0.88,-10.62],[-0.88,-10.81],[-0.81,-10.81],[-0.81,-10.94],[-0.75,-10.94],[-0.75,-11.0],[-0.69,-11.0],[-0.69,-11.06],[-0.62,-11.06],[-0.62,-11.38],[-0.69,-11.38],[-0.69,-11.5],[-0.75,-11.5],[-0.75,-11.56],[-0.81,-11.56],[-0.81,-11.62],[-0.88,-11.62],[-0.88,-11.69],[-0.94,-11.69],[-0.94,-11.75],[-1.06,-11.75],[-1.06,-11.81],[-1.12,-11.81],[-1.12,-11.88],[-1.38,-11.88],[-1.38,-11.81],[-1.5,-11.81],[-1.5,-11.88],[-1.56,-11.88],[-1.56,-11.94],[-1.62,-11.94],[-1.62,-12.0],[-1.69,-12.0],[-1.69,-12.06],[-1.75,-12.06],[-1.75,-12.12],[-1.81,-12.12],[-1.81,-12.19],[-1.88,-12.19],[-1.88,-12.25],[-2.0,-12.25],[-2.0,-12.31],[-2.31,-12.31],[-2.31,-12.25],[-2.69,-12.25],[-2.69,-12.31],[-2.81,-12.31],[-2.81,-12.38],[-3.0,-12.38],[-3.0,-12.44],[-3.19,-12.44],[-3.19,-12.38],[-3.56,-12.38],[-3.56,-12.44],[-3.94,-12.44],[-3.94,-12.38],[-4.06,-12.38],[-4.06,-12.31],[-4.12,-12.31],[-4.12,-12.25],[-4.19,-12.25],[-4.19,-12.19],[-4.25,-12.19],[-4.25,-12.25],[-4.31,-12.25],[-4.31,-12.31],[-4.38,-12.31],[-4.38,-12.38],[-4.69,-12.38],[-4.69,-12.44],[-4.81,-12.44],[-4.81,-12.5],[-4.94,-12.5],[-4.94,-12.56],[-5.06,-12.56],[-5.06,-12.62],[-5.12,-12.62],[-5.12,-12.81],[-5.06,-12.81],[-5.06,-12.94],[-5.0,-12.94],[-5.0,-13.0],[-4.94,-13.0],[-4.94,-13.12],[-4.88,-13.12],[-4.88,-13.25],[-4.81,-13.25],[-4.81,-13.56],[-4.88,-13.56],[-4.88,-13.69],[-4.94,-13.69],[-4.94,-13.81],[-5.0,-13.81],[-5.0,-13.94],[-5.06,-13.94],[-5.06,-14.19],[-5.0,-14.19],[-5.0,-14.25],[-4.88,-14.25],[-4.88,-14.31],[-4.62,-14.31],[-4.62,-14.38],[-4.5,-14.38],[-4.5,-14.44],[-4.44,-14.44],[-4.44,-14.5],[-4.31,-14.5],[-4.31,-14.62],[-4.25,-14.62],[-4.25,-14.88],[-4.31,-14.88],[-4.31,-15.0],[-4.38,-15.0],[-4.38,-15.06],[-4.56,-15.06],[-4.56,-15.0],[-5.12,-15.0],[-5.12,-15.06],[-5.19,-15.06],[-5.19,-15.12],[-5.25,-15.12],[-5.25,-15.19],[-5.31,-15.19],[-5.31,-15.25],[-5.5,-15.25],[-5.5,-15.19],[-5.56,-15.19],[-5.56,-15.12],[-5.62,-15.12],[-5.62,-15.06],[-5.69,-15.06],[-5.69,-15.0],[-5.75,-15.0],[-5.75,-14.94],[-5.88,-14.94],[-5.88,-14.88],[-6.0,-14.88],[-6.0,-14.81],[-6.25,-14.81],[-6.25,-14.75],[-6.38,-14.75],[-6.38,-14.69],[-6.44,-14.69],[-6.44,-14.62],[-6.69,-14.62],[-6.69,-14.69],[-6.88,-14.69],[-6.88,-14.62],[-7.0,-14.62],[-7.0,-14.56],[-7.06,-14.56],[-7.06,-14.5],[-7.12,-14.5],[-7.12,-14.38],[-7.19,-14.38],[-7.19,-14.31],[-7.25,-14.31],[-7.25,-14.25],[-7.44,-14.25],[-7.44,-14.19],[-7.56,-14.19],[-7.56,-14.12],[-7.62,-14.12],[-7.62,-14.06],[-7.75,-14.06],[-7.75,-14.0],[-7.94,-14.0],[-7.94,-13.94],[-8.06,-13.94],[-8.06,-13.88],[-8.12,-13.88],[-8.12,-13.81],[-8.19,-13.81],[-8.19,-13.75],[-8.25,-13.75],[-8.25,-13.81],[-8.44,-13.81],[-8.44,-13.75],[-8.56,-13.75],[-8.56,-13.69],[-8.69,-13.69],[-8.69,-13.56],[-8.75,-13.56],[-8.75,-13.5],[-8.81,-13.5],[-8.81,-13.44],[-8.88,-13.44],[-8.88,-13.38],[-8.94,-13.38],[-8.94,-13.31],[-9.06,-13.31],[-9.06,-13.38],[-9.19,-13.38],[-9.19,-13.31],[-9.25,-13.31],[-9.25,-13.25],[-9.31,-13.25],[-9.31,-13.19],[-9.44,-13.19],[-9.44,-13.12],[-9.5,-13.12],[-9.5,-13.06],[-9.62,-13.06],[-9.62,-13.0],[-9.69,-13.0],[-9.69,-12.94],[-9.75,-12.94],[-9.75,-12.81],[-9.81,-12.81],[-9.81,-12.75],[-9.88,-12.75],[-9.88,-12.56],[-9.81,-12.56],[-9.81,-12.5],[-9.75,-12.5],[-9.75,-12.38],[-9.69,-12.38],[-9.69,-12.19],[-9.62,-12.19],[-9.62,-12.0],[-9.56,-12.0],[-9.56,-11.81],[-9.5,-11.81],[-9.5,-11.75],[-9.25,-11.75],[-9.25,-11.81],[-9.12,-11.81],[-9.12,-11.88],[-9.06,-11.88],[-9.06,-11.94],[-9.0,-11.94],[-9.0,-12.12],[-8.94,-12.12],[-8.94,-12.25],[-8.69,-12.25],[-8.69,-12.19],[-8.56,-12.19],[-8.56,-12.12],[-8.44,-12.12],[-8.44,-12.06],[-8.38,-12.06],[-8.38,-11.94],[-8.31,-11.94],[-8.31,-11.81],[-8.25,-11.81],[-8.25,-11.75],[-8.12,-11.75],[-8.12,-11.69],[-7.81,-11.69],[-7.81,-11.62],[-7.69,-11.62],[-7.69,-11.56],[-7.62,-11.56],[-7.62,-11.31],[-7.69,-11.31],[-7.69,-11.25],[-7.62,-11.25],[-7.62,-11.12],[-7.56,-11.12],[-7.56,-11.06],[-7.44,-11.06],[-7.44,-11.12],[-7.31,-11.12],[-7.31,-11.19],[-7.25,-11.19],[-7.25,-11.12],[-7.12,-11.12],[-7.12,-11.06],[-7.06,-11.06],[-7.06,-11.0],[-6.88,-11.0],[-6.88,-10.94],[-6.44,-10.94],[-6.44,-11.0],[-6.19,-11.0],[-6.19,-10.94],[-6.0,-10.94],[-6.0,-10.88],[-5.81,-10.88],[-5.81,-10.81],[-5.75,-10.81],[-5.75,-10.75],[-5.69,-10.75],[-5.69,-10.56],[-5.62,-10.56],[-5.62,-10.44],[-5.56,-10.44],[-5.56,-10.38],[-5.44,-10.38],[-5.44,-10.31],[-5.38,-10.31],[-5.38,-10.25],[-5.31,-10.25],[-5.31,-10.12],[-5.38,-10.12],[-5.38,-9.88],[-5.44,-9.88],[-5.44,-9.75],[-5.5,-9.75],[-5.5,-9.69],[-5.56,-9.69],[-5.56,-9.62],[-5.62,-9.62],[-5.62,-9.56],[-5.69,-9.56],[-5.69,-9.44],[-5.75,-9.44],[-5.75,-8.94],[-5.69,-8.94],[-5.69,-8.81],[-5.5,-8.81],[-5.5,-8.75],[-5.25,-8.75],[-5.25,-8.81],[-5.19,-8.81],[-5.19,-9.12],[-5.12,-9.12],[-5.12,-9.19],[-5.06,-9.19],[-5.06,-9.25],[-4.94,-9.25],[-4.94,-9.31],[-4.88,-9.31],[-4.88,-9.44],[-4.81,-9.44],[-4.81,-9.5],[-4.75,-9.5],[-4.75,-9.62],[-4.69,-9.62],[-4.69,-9.81],[-4.62,-9.81],[-4.62,-9.88],[-4.56,-9.88],[-4.56,-9.94],[-4.44,-9.94],[-4.44,-10.0],[-4.38,-10.0],[-4.38,-10.06],[-4.31,-10.06],[-4.31,-10.25],[-4.38,-10.25],[-4.38,-10.31],[-4.44,-10.31],[-4.44,-10.38],[-4.56,-10.38],[-4.56,-10.44],[-4.62,-10.44],[-4.62,-10.69],[-4.5,-10.69],[-4.5,-10.75],[-4.31,-10.75],[-4.31,-10.81],[-3.69,-10.81],[-3.69,-10.88],[-3.62,-10.88],[-3.62,-10.94],[-3.44,-10.94],[-3.44,-10.81],[-3.38,-10.81],[-3.38,-10.44],[-3.31,-10.44],[-3.31,-10.25],[-3.38,-10.25],[-3.38,-9.75],[-3.31,-9.75],[-3.31,-9.62],[-3.25,-9.62],[-3.25,-9.56],[-3.19,-9.56],[-3.19,-9.44],[-3.12,-9.44],[-3.12,-9.38],[-3.06,-9.38],[-3.06,-9.31],[-3.0,-9.31],[-3.0,-9.25],[-2.94,-9.25],[-2.94,-9.19],[-2.81,-9.19],[-2.81,-9.12],[-2.44,-9.12],[-2.44,-9.06],[-2.31,-9.06],[-2.31,-9.0],[-2.25,-9.0],[-2.25,-8.81],[-2.19,-8.81],[-2.19,-8.75],[-2.12,-8.75],[-2.12,-8.69],[-2.06,-8.69],[-2.06,-8.62],[-1.88,-8.62],[-1.88,-8.56],[-1.81,-8.56],[-1.81,-8.5],[-1.75,-8.5],[-1.75,-8.44],[-1.69,-8.44],[-1.69,-8.38],[-1.62,-8.38],[-1.62,-8.31],[-1.56,-8.31],[-1.56,-8.0],[-1.81,-8.0],[-1.81,-7.94],[-1.88,-7.94],[-1.88,-7.88],[-1.94,-7.88],[-1.94,-7.81],[-1.88,-7.81],[-1.88,-7.62],[-1.81,-7.62],[-1.81,-7.56],[-1.25,-7.56],[-1.25,-7.5],[-1.19,-7.5],[-1.19,-7.44],[-1.06,-7.44],[-1.06,-7.38],[-0.88,-7.38],[-0.88,-7.31],[-0.75,-7.31],[-0.75,-7.25],[-0.62,-7.25],[-0.62,-7.19],[-0.5,-7.19],[-0.5,-7.12]],[[-1.69,-8.88],[-1.69,-8.94],[-1.75,-8.94],[-1.75,-9.0],[-1.81,-9.0],[-1.81,-9.06],[-1.88,-9.06],[-1.88,-9.19],[-1.81,-9.19],[-1.81,-9.38],[-1.88,-9.38],[-1.88,-9.5],[-1.94,-9.5],[-1.94,-9.56],[-2.06,-9.56],[-2.06,-9.62],[-2.19,-9.62],[-2.19,-9.31],[-2.88,-9.31],[-2.88,-9.38],[-3.0,-9.38],[-3.0,-9.44],[-3.06,-9.44],[-3.06,-9.56],[-3.12,-9.56],[-3.12,-9.62],[-3.19,-9.62],[-3.19,-9.81],[-3.25,-9.81],[-3.25,-9.94],[-3.19,-9.94],[-3.19,-10.0],[-3.12,-10.0],[-3.12,-10.06],[-2.88,-10.06],[-2.88,-10.31],[-2.94,-10.31],[-2.94,-10.69],[-3.0,-10.69],[-3.0,-10.81],[-3.06,-10.81],[-3.06,-10.94],[-3.12,-10.94],[-3.12,-11.06],[-3.19,-11.06],[-3.19,-11.12],[-3.25,-11.12],[-3.25,-11.19],[-3.31,-11.19],[-3.31,-11.25],[-3.38,-11.25],[-3.38,-11.31],[-3.62,-11.31],[-3.62,-11.38],[-3.69,-11.38],[-3.69,-11.44],[-3.75,-11.44],[-3.75,-11.56],[-3.81,-11.56],[-3.81,-11.94],[-3.75,-11.94],[-3.75,-12.0],[-3.06,-12.0],[-3.06,-12.06],[-3.0,-12.06],[-3.0,-12.12],[-2.81,-12.12],[-2.81,-12.06],[-2.5,-12.06],[-2.5,-12.0],[-2.19,-12.0],[-2.19,-11.94],[-1.94,-11.94],[-1.94,-11.88],[-1.88,-11.88],[-1.88,-11.81],[-1.81,-11.81],[-1.81,-11.75],[-1.75,-11.75],[-1.75,-11.69],[-1.69,-11.69],[-1.69,-11.56],[-1.62,-11.56],[-1.62,-11.25],[-1.56,-11.25],[-1.56,-11.12],[-1.5,-11.12],[-1.5,-11.0],[-1.44,-11.0],[-1.44,-10.88],[-1.38,-10.88],[-1.38,-10.5],[-1.44,-10.5],[-1.44,-10.44],[-1.5,-10.44],[-1.5,-10.19],[-1.44,-10.19],[-1.44,-10.06],[-1.38,-10.06],[-1.38,-9.75],[-1.44,-9.75],[-1.44,-9.62],[-1.5,-9.62],[-1.5,-9.44],[-1.44,-9.44],[-1.44,-9.38],[-1.38,-9.38],[-1.38,-9.19],[-1.44,-9.19],[-1.44,-9.0],[-1.5,-9.0],[-1.5,-8.94],[-1.56,-8.94],[-1.56,-8.88],[-1.69,-8.88]]]}},{"type":"Feature","properties":{"val":170.09,"field":"tp"},"geometry":{"type":"Polygon","coordinates":[[[-8.75,-22.56],[-8.5,-22.56],[-8.5,-22.62],[-8.44,-22.62],[-8.44,-22.69],[-8.31,-22.69],[-8.31,-22.81],[-8.25,-22.81],[-8.25,-22.94],[-8.19,-22.94],[-8.19,-23.06],[-8.06,-23.06],[-8.06,-23.12],[-7.75,-23.12],[-7.75,-23.19],[-7.62,-23.19],[-7.62,-23.25],[-7.56,-23.25],[-7.56,-23.31],[-7.5,-23.31],[-7.5,-23.38],[-7.25,-23.38],[-7.25,-23.44],[-7.12,-23.44],[-7.12,-23.5],[-7.06,-23.5],[-7.06,-23.56],[-7.0,-23.56],[-7.0,-23.62],[-6.94,-23.62],[-6.94,-23.81],[-7.38,-23.81],[-7.38,-23.75],[-7.44,-23.75],[-7.44,-23.69],[-7.62,-23.69],[-7.62,-23.75],[-7.69,-23.75],[-7.69,-23.81],[-7.75,-23.81],[-7.75,-23.94],[-7.81,-23.94],[-7.81,-24.12],[-7.88,-24.12],[-7.88,-24.19],[-8.0,-24.19],[-8.0,-24.25],[-8.06,-24.25],[-8.06,-24.5],[-8.0,-24.5],[-8.0,-24.56],[-7.94,-24.56],[-7.94,-24.62],[-7.81,-24.62],[-7.81,-24.69],[-7.69,-24.69],[-7.69,-24.56],[-7.75,-24.56],[-7.75,-24.31],[-7.62,-24.31],[-7.62,-24.38],[-7.56,-24.38],[-7.56,-24.44],[-7.5,-24.44],[-7.5,-24.5],[-7.44,-24.5],[-7.44,-24.56],[-7.38,-24.56],[-7.38,-24.62],[-7.31,-24.62],[-7.31,-24.75],[-7.25,-24.75],[-7.25,-25.12],[-7.19,-25.12],[-7.19,-25.25],[-7.12,-25.25],[-7.12,-25.31],[-7.06,-25.31],[-7.06,-25.38],[-7.0,-25.38],[-7.0,-25.44],[-6.94,-25.44],[-6.94,-25.5],[-6.88,-25.5],[-6.88,-25.62],[-6.81,-25.62],[-6.81,-25.81],[-6.88,-25.81],[-6.88,-25.88],[-6.94,-25.88],[-6.94,-25.94],[-7.12,-25.94],[-7.12,-26.0],[-7.44,-26.0],[-7.44,-25.94],[-7.5,-25.94],[-7.5,-26.0],[-7.69,-26.0],[-7.69,-26.06],[-7.81,-26.06],[-7.81,-26.12],[-8.25,-26.12],[-8.25,-26.06],[-8.38,-26.06],[-8.38,-26.0],[-8.44,-26.0],[-8.44,-25.94],[-8.62,-25.94],[-8.62,-25.88],[-8.75,-25.88],[-8.75,-25.81],[-8.81,-25.81],[-8.81,-25.75],[-8.88,-25.75],[-8.88,-25.56],[-8.94,-25.56],[-8.94,-25.44],[-9.0,-25.44],[-9.0,-25.38],[-9.06,-25.38],[-9.06,-25.31],[-9.44,-25.31],[-9.44,-25.25],[-9.62,-25.25],[-9.62,-25.19],[-9.75,-25.19],[-9.75,-25.12],[-9.88,-25.12],[-9.88,-25.06],[-9.94,-25.06],[-9.94,-25.0],[-10.12,-25.0],[-10.12,-24.94],[-10.25,-24.94],[-10.25,-24.88],[-10.38,-24.88],[-10.38,-24.81],[-10.44,-24.81],[-10.44,-24.75],[-10.5,-24.75],[-10.5,-24.69],[-10.56,-24.69],[-10.56,-24.62],[-10.62,-24.62],[-10.62,-24.38],[-10.56,-24.38],[-10.56,-24.25],[-10.25,-24.25],[-10.25,-24.31],[-10.12,-24.31],[-10.12,-24.25],[-10.06,-24.25],[-10.06,-24.12],[-10.12,-24.12],[-10.12,-23.75],[-10.06,-23.75],[-10.06,-23.69],[-9.88,-23.69],[-9.88,-23.75],[-9.81,-23.75],[-9.81,-23.81],[-9.69,-23.81],[-9.69,-23.88],[-9.5,-23.88],[-9.5,-23.75],[-9.44,-23.75],[-9.44,-23.44],[-9.5,-23.44],[-9.5,-23.38],[-9.56,-23.38],[-9.56,-23.31],[-9.94,-23.31],[-9.94,-23.25],[-10.0,-23.25],[-10.0,-23.12],[-10.06,-23.12],[-10.06,-22.81],[-10.0,-22.81],[-10.0,-22.75],[-9.94,-22.75],[-9.94,-22.69],[-9.81,-22.69],[-9.81,-22.75],[-9.62,-22.75],[-9.62,-22.81],[-9.56,-22.81],[-9.56,-22.88],[-9.5,-22.88],[-9.5,-22.94],[-9.44,-22.94],[-9.44,-23.0],[-9.38,-23.0],[-9.38,-23.06],[-9.31,-23.06],[-9.31,-23.12],[-9.25,-23.12],[-9.25,-23.19],[-9.12,-23.19],[-9.12,-23.25],[-8.75,-23.25],[-8.75,-23.06],[-8.81,-23.06],[-8.81,-22.62],[-8.75,-22.62],[-8.75,-22.56]],[[-8.62,-24.19],[-8.62,-24.25],[-8.75,-24.25],[-8.75,-24.38],[-8.81,-24.38],[-8.81,-24.88],[-8.88,-24.88],[-8.88,-25.25],[-8.81,-25.25],[-8.81,-25.38],[-8.75,-25.38],[-8.75,-25.44],[-8.69,-25.44],[-8.69,-25.5],[-8.62,-25.5],[-8.62,-25.56],[-8.56,-25.56],[-8.56,-25.62],[-8.44,-25.62],[-8.44,-25.69],[-8.19,-25.69],[-8.19,-25.5],[-8.12,-25.5],[-8.12,-25.38],[-7.94,-25.38],[-7.94,-25.44],[-7.75,-25.44],[-7.75,-25.5],[-7.38,-25.5],[-7.38,-25.38],[-7.44,-25.38],[-7.44,-25.25],[-7.5,-25.25],[-7.5,-25.19],[-7.56,-25.19],[-7.56,-25.12],[-7.75,-25.12],[-7.75,-25.06],[-7.81,-25.06],[-7.81,-25.0],[-7.88,-25.0],[-7.88,-24.94],[-7.94,-24.94],[-7.94,-24.88],[-8.06,-24.88],[-8.06,-24.81],[-8.12,-24.81],[-8.12,-24.75],[-8.25,-24.75],[-8.25,-24.69],[-8.31,-24.69],[-8.31,-24.62],[-8.38,-24.62],[-8.38,-24.25],[-8.44,-24.25],[-8.44,-24.19],[-8.62,-24.19]]]}},{"type":"Feature","properties":{"val":170.09,"field":"tp"},"geometry":{"type":"Polygon","coordinates":[[[60.0,-25.81],[60.75,-25.81],[60.75,-25.88],[60.81,-25.88],[60.81,-25.94],[60.88,-25.94],[60.88,-26.06],[61.25,-26.06],[61.25,-26.12],[61.38,-26.12],[61.38,-26.25],[61.44,-26.25],[61.44,-26.31],[61.06,-26.31],[61.06,-26.25],[60.94,-26.25],[60.94,-26.12],[60.62,-26.12],[60.62,-26.19],[60.31,-26.19],[60.31,-26.12],[60.19,-26.12],[60.19,-26.06],[60.06,-26.06],[60.06,-26.0],[60.0,-26.0],[60.0,-25.94],[59.94,-25.94],[59.94,-25.88],[60.0,-25.88],[60.0,-25.81]]]}},{"type":"Feature","properties":{"val":170.09,"field":"tp"},"geometry":{"type":"Polygon","coordinates":[[[-9.12,-25.94],[-8.69,-25.94],[-8.69,-26.0],[-8.62,-26.0],[-8.62,-26.06],[-8.5,-26.06],[-8.5,-26.12],[-8.44,-26.12],[-8.44,-26.38],[-8.5,-26.38],[-8.5,-26.5],[-8.62,-26.5],[-8.62,-26.56],[-8.75,-26.56],[-8.75,-26.5],[-8.94,-26.5],[-8.94,-26.44],[-9.06,-26.44],[-9.06,-26.38],[-9.12,-26.38],[-9.12,-26.31],[-9.19,-26.31],[-9.19,-26.0],[-9.12,-26.0],[-9.12,-25.94]]]}},{"type":"Feature","properties":{"val":170.09,"field":"tp"},"geometry":{"type":"Polygon","coordinates":[[[-12.69,-25.25],[-12.44,-25.25],[-12.44,-25.31],[-12.38,-25.31],[-12.38,-25.38],[-12.25,-25.38],[-12.25,-25.44],[-12.12,-25.44],[-12.12,-25.5],[-12.0,-25.5],[-12.0,-25.56],[-11.94,-25.56],[-11.94,-25.69],[-11.88,-25.69],[-11.88,-25.81],[-11.81,-25.81],[-11.81,-26.0],[-11.88,-26.0],[-11.88,-26.31],[-11.81,-26.31],[-11.81,-26.56],[-11.75,-26.56],[-11.75,-26.69],[-11.69,-26.69],[-11.69,-26.75],[-11.62,-26.75],[-11.62,-26.81],[-11.56,-26.81],[-11.56,-26.94],[-11.5,-26.94],[-11.5,-27.0],[-11.44,-27.0],[-11.44,-27.12],[-11.38,-27.12],[-11.38,-27.19],[-11.31,-27.19],[-11.31,-27.25],[-11.25,-27.25],[-11.25,-27.31],[-11.19,-27.31],[-11.19,-27.38],[-11.12,-27.38],[-11.12,-27.5],[-11.06,-27.5],[-11.06,-27.81],[-11.12,-27.81],[-11.12,-27.94],[-11.19,-27.94],[-11.19,-28.06],[-11.25,-28.06],[-11.25,-28.12],[-11.31,-28.12],[-11.31,-28.19],[-11.38,-28.19],[-11.38,-28.25],[-11.44,-28.25],[-11.44,-28.31],[-11.62,-28.31],[-11.62,-28.38],[-11.88,-28.38],[-11.88,-28.44],[-12.0,-28.44],[-12.0,-28.38],[-12.56,-28.38],[-12.56,-28.44],[-12.75,-28.44],[-12.75,-28.5],[-13.06,-28.5],[-13.06,-28.44],[-13.12,-28.44],[-13.12,-27.88],[-13.19,-27.88],[-13.19,-27.81],[-13.25,-27.81],[-13.25,-27.19],[-13.12,-27.19],[-13.12,-27.06],[-13.06,-27.06],[-13.06,-26.75],[-13.0,-26.75],[-13.0,-26.38],[-12.94,-26.38],[-12.94,-26.25],[-13.0,-26.25],[-13.0,-25.69],[-12.94,-25.69],[-12.94,-25.5],[-12.88,-25.5],[-12.88,-25.38],[-12.81,-25.38],[-12.81,-25.31],[-12.69,-25.31],[-12.69,-25.25]],[[-12.56,-25.56],[-12.56,-25.62],[-12.81,-25.62],[-12.81,-25.69],[-12.88,-25.69],[-12.88,-25.81],[-12.94,-25.81],[-12.94,-26.06],[-12.88,-26.06],[-12.88,-27.19],[-12.94,-27.19],[-12.94,-27.25],[-13.0,-27.25],[-13.0,-27.38],[-13.06,-27.38],[-13.06,-27.56],[-13.0,-27.56],[-13.0,-27.69],[-12.94,-27.69],[-12.94,-27.81],[-12.88,-27.81],[-12.88,-27.94],[-12.81,-27.94],[-12.81,-28.06],[-12.44,-28.06],[-12.44,-28.0],[-11.94,-28.0],[-11.94,-28.06],[-11.62,-28.06],[-11.62,-28.0],[-11.5,-28.0],[-11.5,-27.94],[-11.44,-27.94],[-11.44,-27.81],[-11.38,-27.81],[-11.38,-27.44],[-11.44,-27.44],[-11.44,-27.31],[-11.5,-27.31],[-11.5,-27.25],[-11.56,-27.25],[-11.56,-27.19],[-11.62,-27.19],[-11.62,-27.06],[-11.69,-27.06],[-11.69,-27.0],[-11.75,-27.0],[-11.75,-26.88],[-11.81,-26.88],[-11.81,-26.81],[-11.88,-26.81],[-11.88,-26.62],[-11.94,-26.62],[-11.94,-25.88],[-12.0,-25.88],[-12.0,-25.69],[-12.06,-25.69],[-12.06,-25.62],[-12.12,-25.62],[-12.12,-25.56],[-12.56,-25.56]]]}},{"type":"Feature","properties":{"val":170.09,"field":"tp"},"geometry":{"type":"Polygon","coordinates":[[[62.69,-26.62],[63.0,-26.62],[63.0,-26.69],[63.12,-26.69],[63.12,-26.75],[63.19,-26.75],[63.19,-26.81],[63.31,-26.81],[63.31,-26.88],[63.44,-26.88],[63.44,-26.81],[63.75,-26.81],[63.75,-26.75],[63.94,-26.75],[63.94,-26.81],[64.12,-26.81],[64.12,-26.88],[64.19,-26.88],[64.19,-26.94],[64.25,-26.94],[64.25,-27.0],[64.31,-27.0],[64.31,-27.06],[64.38,-27.06],[64.38,-27.12],[64.5,-27.12],[64.5,-27.19],[64.94,-27.19],[64.94,-27.12],[65.0,-27.12],[65.0,-27.06],[65.06,-27.06],[65.06,-26.94],[65.12,-26.94],[65.12,-26.88],[65.19,-26.88],[65.19,-26.81],[65.25,-26.81],[65.25,-26.75],[65.31,-26.75],[65.31,-26.69],[65.38,-26.69],[65.38,-26.62],[65.75,-26.62],[65.75,-26.69],[65.88,-26.69],[65.88,-26.75],[66.0,-26.75],[66.0,-26.81],[66.06,-26.81],[66.06,-27.0],[66.0,-27.0],[66.0,-27.06],[65.94,-27.06],[65.94,-27.12],[65.81,-27.12],[65.81,-27.19],[65.75,-27.19],[65.75,-27.25],[65.69,-27.25],[65.69,-27.38],[65.62,-27.38],[65.62,-27.44],[65.56,-27.44],[65.56,-27.69],[65.62,-27.69],[65.62,-27.75],[65.75,-27.75],[65.75,-27.81],[65.88,-27.81],[65.88,-27.88],[66.12,-27.88],[66.12,-27.94],[66.19,-27.94],[66.19,-27.88],[66.44,-27.88],[66.44,-27.81],[66.62,-27.81],[66.62,-27.88],[66.94,-27.88],[66.94,-27.94],[67.19,-27.94],[67.19,-28.0],[67.62,-28.0],[67.62,-28.06],[67.88,-28.06],[67.88,-28.12],[68.06,-28.12],[68.06,-28.19],[68.31,-28.19],[68.31,-28.25],[68.62,-28.25],[68.62,-28.31],[68.94,-28.31],[68.94,-28.38],[69.25,-28.38],[69.25,-28.44],[69.56,-28.44],[69.56,-28.5],[69.94,-28.5],[69.94,-28.56],[70.25,-28.56],[70.25,-28.62],[70.5,-28.62],[70.5,-28.69],[70.81,-28.69],[70.81,-28.75],[71.25,-28.75],[71.25,-28.81],[72.88,-28.81],[72.88,-28.88],[73.0,-28.88],[73.0,-29.06],[72.88,-29.06],[72.88,-29.12],[72.81,-29.12],[72.81,-29.31],[72.88,-29.31],[72.88,-29.5],[72.94,-29.5],[72.94,-29.56],[73.0,-29.56],[73.0,-29.62],[73.12,-29.62],[73.12,-29.69],[73.38,-29.69],[73.38,-29.75],[73.62,-29.75],[73.62,-29.81],[73.75,-29.81],[73.75,-29.88],[73.88,-29.88],[73.88,-29.94],[74.0,-29.94],[74.0,-30.0],[74.31,-30.0],[74.31,-30.06],[74.44,-30.06],[74.44,-30.19],[74.5,-30.19],[74.5,-30.31],[74.56,-30.31],[74.56,-30.44],[74.19,-30.44],[74.19,-30.38],[73.69,-30.38],[73.69,-30.44],[73.31,-30.44],[73.31,-30.38],[73.19,-30.38],[73.19,-30.31],[73.06,-30.31],[73.06,-30.25],[72.81,-30.25],[72.81,-30.31],[72.75,-30.31],[72.75,-30.38],[72.69,-30.38],[72.69,-30.44],[72.62,-30.44],[72.62,-30.5],[72.56,-30.5],[72.56,-30.56],[72.44,-30.56],[72.44,-30.62],[71.56,-30.62],[71.56,-30.69],[71.38,-30.69],[71.38,-30.75],[71.06,-30.75],[71.06,-30.81],[70.75,-30.81],[70.75,-30.88],[70.62,-30.88],[70.62,-30.94],[70.5,-30.94],[70.5,-31.0],[70.31,-31.0],[70.31,-30.94],[70.12,-30.94],[70.12,-30.88],[70.0,-30.88],[70.0,-30.81],[69.88,-30.81],[69.88,-30.75],[69.75,-30.75],[69.75,-30.69],[69.56,-30.69],[69.56,-30.62],[69.38,-30.62],[69.38,-30.56],[69.25,-30.56],[69.25,-30.5],[69.12,-30.5],[69.12,-30.44],[69.0,-30.44],[69.0,-30.38],[68.94,-30.38],[68.94,-30.31],[68.81,-30.31],[68.81,-30.25],[68.75,-30.25],[68.75,-30.19],[68.62,-30.19],[68.62,-30.12],[68.44,-30.12],[68.44,-30.06],[68.25,-30.06],[68.25,-30.0],[67.88,-30.0],[67.88,-30.06],[67.69,-30.06],[67.69,-30.12],[67.5,-30.12],[67.5,-30.19],[67.38,-30.19],[67.38,-30.12],[67.0,-30.12],[67.0,-30.06],[66.75,-30.06],[66.75,-30.0],[66.5,-30.0],[66.5,-29.94],[66.31,-29.94],[66.31,-29.88],[66.25,-29.88],[66.25,-29.81],[66.19,-29.81],[66.19,-29.75],[66.12,-29.75],[66.12,-29.69],[66.0,-29.69],[66.0,-29.62],[65.88,-29.62],[65.88,-29.56],[65.75,-29.56],[65.75,-29.5],[65.62,-29.5],[65.62,-29.44],[65.5,-29.44],[65.5,-29.38],[65.38,-29.38],[65.38,-29.31],[65.19,-29.31],[65.19,-29.25],[65.06,-29.25],[65.06,-29.19],[64.88,-29.19],[64.88,-29.12],[64.75,-29.12],[64.75,-29.06],[64.62,-29.06],[64.62,-29.0],[64.5,-29.0],[64.5,-28.94],[64.38,-28.94],[64.38,-28.88],[64.25,-28.88],[64.25,-28.81],[64.19,-28.81],[64.19,-28.75],[64.06,-28.75],[64.06,-28.69],[63.94,-28.69],[63.94,-28.62],[63.75,-28.62],[63.75,-28.56],[63.56,-28.56],[63.56,-28.5],[63.38,-28.5],[63.38,-28.44],[63.25,-28.44],[63.25,-28.38],[63.12,-28.38],[63.12,-28.31],[63.0,-28.31],[63.0,-28.25],[62.88,-28.25],[62.88,-28.19],[62.75,-28.19],[62.75,-28.12],[62.69,-28.12],[62.69,-28.06],[62.56,-28.06],[62.56,-28.0],[62.5,-28.0],[62.5,-27.94],[62.44,-27.94],[62.44,-27.88],[62.38,-27.88],[62.38,-27.81],[62.31,-27.81],[62.31,-27.75],[62.19,-27.75],[62.19,-27.69],[62.12,-27.69],[62.12,-27.62],[62.0,-27.62],[62.0,-27.56],[61.94,-27.56],[61.94,-27.5],[61.81,-27.5],[61.81,-27.44],[61.62,-27.44],[61.62,-27.38],[61.5,-27.38],[61.5,-27.25],[61.44,-27.25],[61.44,-27.19],[61.38,-27.19],[61.38,-27.06],[61.31,-27.06],[61.31,-26.88],[61.38,-26.88],[61.38,-26.81],[61.62,-26.81],[61.62,-26.88],[62.12,-26.88],[62.12,-26.81],[62.25,-26.81],[62.25,-26.75],[62.44,-26.75],[62.44,-26.69],[62.69,-26.69],[62.69,-26.62]],[[62.62,-26.88],[62.62,-26.94],[62.56,-26.94],[62.56,-27.0],[62.5,-27.0],[62.5,-27.06],[62.44,-27.06],[62.44,-27.12],[61.81,-27.12],[61.81,-27.19],[61.88,-27.19],[61.88,-27.25],[61.94,-27.25],[61.94,-27.31],[62.06,-27.31],[62.06,-27.38],[62.19,-27.38],[62.19,-27.44],[62.25,-27.44],[62.25,-27.5],[62.38,-27.5],[62.38,-27.56],[62.62,-27.56],[62.62,-27.5],[63.06,-27.5],[63.06,-27.56],[63.31,-27.56],[63.31,-27.62],[64.0,-27.62],[64.0,-27.69],[64.06,-27.69],[64.06,-27.75],[64.19,-27.75],[64.19,-27.81],[64.25,-27.81],[64.25,-27.88],[64.38,-27.88],[64.38,-27.94],[64.62,-27.94],[64.62,-27.88],[64.75,-27.88],[64.75,-27.81],[64.81,-27.81],[64.81,-27.75],[64.94,-27.75],[64.94,-27.69],[65.0,-27.69],[65.0,-27.62],[65.06,-27.62],[65.06,-27.44],[64.94,-27.44],[64.94,-27.38],[64.75,-27.38],[64.75,-27.44],[64.44,-27.44],[64.44,-27.38],[64.19,-27.38],[64.19,-27.31],[64.12,-27.31],[64.12,-27.25],[64.06,-27.25],[64.06,-27.19],[64.0,-27.19],[64.0,-27.06],[63.94,-27.06],[63.94,-27.0],[63.88,-27.0],[63.88,-26.94],[63.56,-26.94],[63.56,-27.0],[63.12,-27.0],[63.12,-26.94],[63.0,-26.94],[63.0,-26.88],[62.62,-26.88]]]}},{"type":"Feature","properties":{"val":266.57,"field":"tp"},"geometry":{"type":"Polygon","coordinates":[[[1.12,-9.81],[1.44,-9.81],[1.44,-9.88],[1.5,-9.88],[1.5,-10.12],[1.44,-10.12],[1.44,-10.25],[1.38,-10.25],[1.38,-10.31],[1.12,-10.31],[1.12,-10.38],[0.81,-10.38],[0.81,-10.44],[0.75,-10.44],[0.75,-10.5],[0.69,-10.5],[0.69,-10.56],[0.62,-10.56],[0.62,-10.62],[0.56,-10.62],[0.56,-10.69],[0.5,-10.69],[0.5,-10.75],[0.44,-10.75],[0.44,-10.81],[0.38,-10.81],[0.38,-10.88],[0.19,-10.88],[0.19,-10.81],[0.12,-10.81],[0.12,-10.75],[0.0,-10.75],[0.0,-10.69],[-0.06,-10.69],[-0.06,-10.62],[-0.12,-10.62],[-0.12,-10.38],[-0.19,-10.38],[-0.19,-10.0],[-0.12,-10.0],[-0.12,-9.94],[-0.06,-9.94],[-0.06,-9.88],[0.25,-9.88],[0.25,-9.94],[0.44,-9.94],[0.44,-10.0],[0.69,-10.0],[0.69,-9.94],[0.81,-9.94],[0.81,-9.88],[1.12,-9.88],[1.12,-9.81]],[[0.06,-10.0],[0.06,-10.06],[-0.06,-10.06],[-0.06,-10.5],[0.0,-10.5],[0.0,-10.56],[0.06,-10.56],[0.06,-10.62],[0.25,-10.62],[0.25,-10.69],[0.31,-10.69],[0.31,-10.62],[0.44,-10.62],[0.44,-10.56],[0.5,-10.56],[0.5,-10.5],[0.56,-10.5],[0.56,-10.44],[0.62,-10.44],[0.62,-10.19],[0.5,-10.19],[0.5,-10.12],[0.44,-10.12],[0.44,-10.06],[0.31,-10.06],[0.31,-10.0],[0.06,-10.0]]]}},{"type":"Feature","properties":{"val":266.57,"field":"tp"},"geometry":{"type":"Polygon","coordinates":[[[-1.69,-8.88],[-1.56,-8.88],[-1.56,-8.94],[-1.5,-8.94],[-1.5,-9.0],[-1.44,-9.0],[-1.44,-9.19],[-1.38,-9.19],[-1.38,-9.38],[-1.44,-9.38],[-1.44,-9.44],[-1.5,-9.44],[-1.5,-9.62],[-1.44,-9.62],[-1.44,-9.75],[-1.38,-9.75],[-1.38,-10.06],[-1.44,-10.06],[-1.44,-10.19],[-1.5,-10.19],[-1.5,-10.44],[-1.44,-10.44],[-1.44,-10.5],[-1.38,-10.5],[-1.38,-10.88],[-1.44,-10.88],[-1.44,-11.0],[-1.5,-11.0],[-1.5,-11.12],[-1.56,-11.12],[-1.56,-11.25],[-1.62,-11.25],[-1.62,-11.56],[-1.69,-11.56],[-1.69,-11.69],[-1.75,-11.69],[-1.75,-11.75],[-1.81,-11.75],[-1.81,-11.81],[-1.88,-11.81],[-1.88,-11.88],[-1.94,-11.88],[-1.94,-11.94],[-2.19,-11.94],[-2.19,-12.0],[-2.5,-12.0],[-2.5,-12.06],[-2.81,-12.06],[-2.81,-12.12],[-3.0,-12.12],[-3.0,-12.06],[-3.06,-12.06],[-3.06,-12.0],[-3.75,-12.0],[-3.75,-11.94],[-3.81,-11.94],[-3.81,-11.56],[-3.75,-11.56],[-3.75,-11.44],[-3.69,-11.44],[-3.69,-11.38],[-3.62,-11.38],[-3.62,-11.31],[-3.38,-11.31],[-3.38,-11.25],[-3.31,-11.25],[-3.31,-11.19],[-3.25,-11.19],[-3.25,-11.12],[-3.19,-11.12],[-3.19,-11.06],[-3.12,-11.06],[-3.12,-10.94],[-3.06,-10.94],[-3.06,-10.81],[-3.0,-10.81],[-3.0,-10.69],[-2.94,-10.69],[-2.94,-10.31],[-2.88,-10.31],[-2.88,-10.06],[-3.12,-10.06],[-3.12,-10.0],[-3.19,-10.0],[-3.19,-9.94],[-3.25,-9.94],[-3.25,-9.81],[-3.19,-9.81],[-3.19,-9.62],[-3.12,-9.62],[-3.12,-9.56],[-3.06,-9.56],[-3.06,-9.44],[-3.0,-9.44],[-3.0,-9.38],[-2.88,-9.38],[-2.88,-9.31],[-2.19,-9.31],[-2.19,-9.62],[-2.06,-9.62],[-2.06,-9.56],[-1.94,-9.56],[-1.94,-9.5],[-1.88,-9.5],[-1.88,-9.38],[-1.81,-9.38],[-1.81,-9.19],[-1.88,-9.19],[-1.88,-9.06],[-1.81,-9.06],[-1.81,-9.0],[-1.75,-9.0],[-1.75,-8.94],[-1.69,-8.94],[-1.69,-8.88]],[[-2.88,-9.44],[-2.88,-9.5],[-3.0,-9.5],[-3.0,-9.62],[-3.06,-9.62],[-3.06,-9.75],[-3.12,-9.75],[-3.12,-9.88],[-3.06,-9.88],[-3.06,-9.94],[-2.88,-9.94],[-2.88,-9.88],[-2.81,-9.88],[-2.81,-9.81],[-2.75,-9.81],[-2.75,-9.75],[-2.69,-9.75],[-2.69,-9.69],[-2.62,-9.69],[-2.62,-9.44],[-2.88,-9.44]]]}},{"type":"Feature","properties":{"val":266.57,"field":"tp"},"geometry":{"type":"Polygon","coordinates":[[[-5.75,-11.12],[-5.5,-11.12],[-5.5,-11.19],[-5.31,-11.19],[-5.31,-11.25],[-5.25,-11.25],[-5.25,-11.31],[-5.19,-11.31],[-5.19,-11.5],[-5.12,-11.5],[-5.12,-11.69],[-5.06,-11.69],[-5.06,-11.81],[-5.0,-11.81],[-5.0,-11.88],[-5.06,-11.88],[-5.06,-12.0],[-5.19,-12.0],[-5.19,-12.06],[-5.44,-12.06],[-5.44,-12.12],[-5.56,-12.12],[-5.56,-12.19],[-5.62,-12.19],[-5.62,-12.38],[-5.75,-12.38],[-5.75,-12.44],[-5.81,-12.44],[-5.81,-12.88],[-5.75,-12.88],[-5.75,-12.94],[-5.69,-12.94],[-5.69,-13.0],[-5.62,-13.0],[-5.62,-13.06],[-5.56,-13.06],[-5.56,-13.12],[-5.5,-13.12],[-5.5,-13.19],[-5.44,-13.19],[-5.44,-13.25],[-5.38,-13.25],[-5.38,-13.31],[-5.31,-13.31],[-5.31,-13.38],[-5.25,-13.38],[-5.25,-13.5],[-5.19,-13.5],[-5.19,-13.75],[-5.25,-13.75],[-5.25,-13.88],[-5.31,-13.88],[-5.31,-14.0],[-5.38,-14.0],[-5.38,-14.12],[-5.44,-14.12],[-5.44,-14.25],[-5.38,-14.25],[-5.38,-14.44],[-5.31,-14.44],[-5.31,-14.69],[-5.38,-14.69],[-5.38,-14.75],[-5.69,-14.75],[-5.69,-14.69],[-5.88,-14.69],[-5.88,-14.62],[-6.06,-14.62],[-6.06,-14.56],[-6.19,-14.56],[-6.19,-14.5],[-6.25,-14.5],[-6.25,-14.44],[-6.31,-14.44],[-6.31,-14.38],[-6.38,-14.38],[-6.38,-14.31],[-6.88,-14.31],[-6.88,-14.25],[-7.0,-14.25],[-7.0,-14.19],[-7.06,-14.19],[-7.06,-14.12],[-7.19,-14.12],[-7.19,-14.06],[-7.31,-14.06],[-7.31,-14.0],[-7.44,-14.0],[-7.44,-13.94],[-7.5,-13.94],[-7.5,-13.81],[-7.56,-13.81],[-7.56,-13.69],[-7.62,-13.69],[-7.62,-13.62],[-7.69,-13.62],[-7.69,-13.5],[-7.75,-13.5],[-7.75,-13.44],[-7.81,-13.44],[-7.81,-13.38],[-8.12,-13.38],[-8.12,-13.44],[-8.25,-13.44],[-8.25,-13.5],[-8.31,-13.5],[-8.31,-13.56],[-8.5,-13.56],[-8.5,-13.5],[-8.56,-13.5],[-8.56,-13.44],[-8.62,-13.44],[-8.62,-13.38],[-8.69,-13.38],[-8.69,-13.25],[-8.75,-13.25],[-8.75,-13.19],[-8.81,-13.19],[-8.81,-13.12],[-8.94,-13.12],[-8.94,-13.06],[-9.12,-13.06],[-9.12,-13.12],[-9.25,-13.12],[-9.25,-13.06],[-9.44,-13.06],[-9.44,-13.0],[-9.56,-13.0],[-9.56,-12.94],[-9.62,-12.94],[-9.62,-12.88],[-9.69,-12.88],[-9.69,-12.44],[-9.62,-12.44],[-9.62,-12.31],[-9.56,-12.31],[-9.56,-12.19],[-9.5,-12.19],[-9.5,-12.12],[-9.44,-12.12],[-9.44,-12.0],[-9.31,-12.0],[-9.31,-11.94],[-9.19,-11.94],[-9.19,-12.0],[-9.12,-12.0],[-9.12,-12.06],[-9.06,-12.06],[-9.06,-12.19],[-9.0,-12.19],[-9.0,-12.31],[-8.94,-12.31],[-8.94,-12.38],[-8.62,-12.38],[-8.62,-12.31],[-8.5,-12.31],[-8.5,-12.25],[-8.38,-12.25],[-8.38,-12.19],[-8.31,-12.19],[-8.31,-12.12],[-8.25,-12.12],[-8.25,-12.06],[-8.19,-12.06],[-8.19,-12.0],[-8.12,-12.0],[-8.12,-11.94],[-8.0,-11.94],[-8.0,-11.88],[-7.5,-11.88],[-7.5,-11.94],[-7.38,-11.94],[-7.38,-12.0],[-7.19,-12.0],[-7.19,-11.94],[-7.06,-11.94],[-7.06,-11.88],[-6.94,-11.88],[-6.94,-11.81],[-6.81,-11.81],[-6.81,-11.88],[-6.69,-11.88],[-6.69,-11.81],[-6.62,-11.81],[-6.62,-11.69],[-6.56,-11.69],[-6.56,-11.62],[-6.5,-11.62],[-6.5,-11.56],[-6.44,-11.56],[-6.44,-11.5],[-6.38,-11.5],[-6.38,-11.44],[-6.19,-11.44],[-6.19,-11.38],[-6.06,-11.38],[-6.06,-11.31],[-6.0,-11.31],[-6.0,-11.25],[-5.88,-11.25],[-5.88,-11.19],[-5.75,-11.19],[-5.75,-11.12]],[[-5.75,-11.31],[-5.75,-11.38],[-5.81,-11.38],[-5.81,-11.44],[-5.88,-11.44],[-5.88,-11.56],[-5.94,-11.56],[-5.94,-11.75],[-6.31,-11.75],[-6.31,-11.81],[-6.38,-11.81],[-6.38,-11.94],[-6.44,-11.94],[-6.44,-12.06],[-6.5,-12.06],[-6.5,-12.19],[-6.56,-12.19],[-6.56,-12.25],[-6.62,-12.25],[-6.62,-12.31],[-6.75,-12.31],[-6.75,-12.25],[-6.81,-12.25],[-6.81,-12.19],[-6.88,-12.19],[-6.88,-12.12],[-7.25,-12.12],[-7.25,-12.19],[-7.5,-12.19],[-7.5,-12.12],[-7.56,-12.12],[-7.56,-12.06],[-7.69,-12.06],[-7.69,-12.0],[-7.88,-12.0],[-7.88,-12.06],[-8.0,-12.06],[-8.0,-12.12],[-8.06,-12.12],[-8.06,-12.19],[-8.19,-12.19],[-8.19,-12.25],[-8.31,-12.25],[-8.31,-12.31],[-8.44,-12.31],[-8.44,-12.38],[-8.56,-12.38],[-8.56,-12.44],[-8.69,-12.44],[-8.69,-12.5],[-8.88,-12.5],[-8.88,-12.44],[-9.0,-12.44],[-9.0,-12.38],[-9.06,-12.38],[-9.06,-12.19],[-9.12,-12.19],[-9.12,-12.12],[-9.19,-12.12],[-9.19,-12.06],[-9.31,-12.06],[-9.31,-12.12],[-9.38,-12.12],[-9.38,-12.19],[-9.44,-12.19],[-9.44,-12.25],[-9.5,-12.25],[-9.5,-12.38],[-9.56,-12.38],[-9.56,-12.5],[-9.62,-12.5],[-9.62,-12.81],[-9.56,-12.81],[-9.56,-12.88],[-9.5,-12.88],[-9.5,-12.94],[-9.44,-12.94],[-9.44,-13.0],[-8.88,-13.0],[-8.88,-13.06],[-8.75,-13.06],[-8.75,-13.12],[-8.69,-13.12],[-8.69,-13.19],[-8.62,-13.19],[-8.62,-13.25],[-8.56,-13.25],[-8.56,-13.31],[-8.5,-13.31],[-8.5,-13.38],[-8.31,-13.38],[-8.31,-13.31],[-8.19,-13.31],[-8.19,-13.25],[-8.12,-13.25],[-8.12,-13.19],[-7.94,-13.19],[-7.94,-13.25],[-7.81,-13.25],[-7.81,-13.31],[-7.75,-13.31],[-7.75,-13.38],[-7.69,-13.38],[-7.69,-13.44],[-7.62,-13.44],[-7.62,-13.5],[-7.56,-13.5],[-7.56,-13.56],[-7.5,-13.56],[-7.5,-13.69],[-7.44,-13.69],[-7.44,-13.75],[-7.38,-13.75],[-7.38,-13.88],[-7.31,-13.88],[-7.31,-13.94],[-7.19,-13.94],[-7.19,-14.0],[-7.0,-14.0],[-7.0,-14.06],[-6.81,-14.06],[-6.81,-14.12],[-6.44,-14.12],[-6.44,-14.19],[-6.31,-14.19],[-6.31,-14.25],[-6.25,-14.25],[-6.25,-14.31],[-6.12,-14.31],[-6.12,-14.38],[-6.06,-14.38],[-6.06,-14.44],[-5.75,-14.44],[-5.75,-13.94],[-5.69,-13.94],[-5.69,-13.88],[-5.5,-13.88],[-5.5,-13.81],[-5.38,-13.81],[-5.38,-13.69],[-5.31,-13.69],[-5.31,-13.56],[-5.38,-13.56],[-5.38,-13.44],[-5.44,-13.44],[-5.44,-13.38],[-5.5,-13.38],[-5.5,-13.31],[-5.56,-13.31],[-5.56,-13.25],[-5.69,-13.25],[-5.69,-13.19],[-5.81,-13.19],[-5.81,-13.12],[-5.94,-13.12],[-5.94,-12.25],[-5.88,-12.25],[-5.88,-12.06],[-5.81,-12.06],[-5.81,-12.0],[-5.88,-12.0],[-5.88,-11.88],[-5.81,-11.88],[-5.81,-11.81],[-5.62,-11.81],[-5.62,-11.88],[-5.44,-11.88],[-5.44,-11.81],[-5.38,-11.81],[-5.38,-11.56],[-5.44,-11.56],[-5.44,-11.44],[-5.5,-11.44],[-5.5,-11.38],[-5.62,-11.38],[-5.62,-11.31],[-5.75,-11.31]]]}},{"type":"Feature","properties":{"val":266.57,"field":"tp"},"geometry":{"type":"Polygon","coordinates":[[[-8.62,-24.19],[-8.44,-24.19],[-8.44,-24.25],[-8.38,-24.25],[-8.38,-24.62],[-8.31,-24.62],[-8.31,-24.69],[-8.25,-24.69],[-8.25,-24.75],[-8.12,-24.75],[-8.12,-24.81],[-8.06,-24.81],[-8.06,-24.88],[-7.94,-24.88],[-7.94,-24.94],[-7.88,-24.94],[-7.88,-25.0],[-7.81,-25.0],[-7.81,-25.06],[-7.75,-25.06],[-7.75,-25.12],[-7.56,-25.12],[-7.56,-25.19],[-7.5,-25.19],[-7.5,-25.25],[-7.44,-25.25],[-7.44,-25.38],[-7.38,-25.38],[-7.38,-25.5],[-7.75,-25.5],[-7.75,-25.44],[-7.94,-25.44],[-7.94,-25.38],[-8.12,-25.38],[-8.12,-25.5],[-8.19,-25.5],[-8.19,-25.69],[-8.44,-25.69],[-8.44,-25.62],[-8.56,-25.62],[-8.56,-25.56],[-8.62,-25.56],[-8.62,-25.5],[-8.69,-25.5],[-8.69,-25.44],[-8.75,-25.44],[-8.75,-25.38],[-8.81,-25.38],[-8.81,-25.25],[-8.88,-25.25],[-8.88,-24.88],[-8.81,-24.88],[-8.81,-24.38],[-8.75,-24.38],[-8.75,-24.25],[-8.62,-24.25],[-8.62,-24.19]],[[-8.62,-25.06],[-8.62,-25.31],[-8.56,-25.31],[-8.56,-25.38],[-8.44,-25.38],[-8.44,-25.31],[-8.38,-25.31],[-8.38,-25.06],[-8.62,-25.06]]]}},{"type":"Feature","properties":{"val":266.57,"field":"tp"},"geometry":{"type":"Polygon","coordinates":[[[62.62,-26.88],[63.0,-26.88],[63.0,-26.94],[63.12,-26.94],[63.12,-27.0],[63.56,-27.0],[63.56,-26.94],[63.88,-26.94],[63.88,-27.0],[63.94,-27.0],[63.94,-27.06],[64.0,-27.06],[64.0,-27.19],[64.06,-27.19],[64.06,-27.25],[64.12,-27.25],[64.12,-27.31],[64.19,-27.31],[64.19,-27.38],[64.44,-27.38],[64.44,-27.44],[64.75,-27.44],[64.75,-27.38],[64.94,-27.38],[64.94,-27.44],[65.06,-27.44],[65.06,-27.62],[65.0,-27.62],[65.0,-27.69],[64.94,-27.69],[64.94,-27.75],[64.81,-27.75],[64.81,-27.81],[64.75,-27.81],[64.75,-27.88],[64.62,-27.88],[64.62,-27.94],[64.38,-27.94],[64.38,-27.88],[64.25,-27.88],[64.25,-27.81],[64.19,-27.81],[64.19,-27.75],[64.06,-27.75],[64.06,-27.69],[64.0,-27.69],[64.0,-27.62],[63.31,-27.62],[63.31,-27.56],[63.06,-27.56],[63.06,-27.5],[62.62,-27.5],[62.62,-27.56],[62.38,-27.56],[62.38,-27.5],[62.25,-27.5],[62.25,-27.44],[62.19,-27.44],[62.19,-27.38],[62.06,-27.38],[62.06,-27.31],[61.94,-27.31],[61.94,-27.25],[61.88,-27.25],[61.88,-27.19],[61.81,-27.19],[61.81,-27.12],[62.44,-27.12],[62.44,-27.06],[62.5,-27.06],[62.5,-27.0],[62.56,-27.0],[62.56,-26.94],[62.62,-26.94],[62.62,-26.88]],[[63.31,-27.12],[63.31,-27.19],[63.12,-27.19],[63.12,-27.25],[63.19,-27.25],[63.19,-27.31],[63.25,-27.31],[63.25,-27.38],[63.69,-27.38],[63.69,-27.31],[63.75,-27.31],[63.75,-27.19],[63.69,-27.19],[63.69,-27.12],[63.31,-27.12]]]}},{"type":"Feature","properties":{"val":266.57,"field":"tp"},"geometry":{"type":"Polygon","coordinates":[[[-12.56,-25.56],[-12.12,-25.56],[-12.12,-25.62],[-12.06,-25.62],[-12.06,-25.69],[-12.0,-25.69],[-12.0,-25.88],[-11.94,-25.88],[-11.94,-26.62],[-11.88,-26.62],[-11.88,-26.81],[-11.81,-26.81],[-11.81,-26.88],[-11.75,-26.88],[-11.75,-27.0],[-11.69,-27.0],[-11.69,-27.06],[-11.62,-27.06],[-11.62,-27.19],[-11.56,-27.19],[-11.56,-27.25],[-11.5,-27.25],[-11.5,-27.31],[-11.44,-27.31],[-11.44,-27.44],[-11.38,-27.44],[-11.38,-27.81],[-11.44,-27.81],[-11.44,-27.94],[-11.5,-27.94],[-11.5,-28.0],[-11.62,-28.0],[-11.62,-28.06],[-11.94,-28.06],[-11.94,-28.0],[-12.44,-28.0],[-12.44,-28.06],[-12.81,-28.06],[-12.81,-27.94],[-12.88,-27.94],[-12.88,-27.81],[-12.94,-27.81],[-12.94,-27.69],[-13.0,-27.69],[-13.0,-27.56],[-13.06,-27.56],[-13.06,-27.38],[-13.0,-27.38],[-13.0,-27.25],[-12.94,-27.25],[-12.94,-27.19],[-12.88,-27.19],[-12.88,-26.06],[-12.94,-26.06],[-12.94,-25.81],[-12.88,-25.81],[-12.88,-25.69],[-12.81,-25.69],[-12.81,-25.62],[-12.56,-25.62],[-12.56,-25.56]],[[-12.44,-25.69],[-12.44,-25.75],[-12.81,-25.75],[-12.81,-25.81],[-12.88,-25.81],[-12.88,-26.0],[-12.81,-26.0],[-12.81,-26.12],[-12.75,-26.12],[-12.75,-26.38],[-12.81,-26.38],[-12.81,-26.69],[-12.75,-26.69],[-12.75,-26.81],[-12.69,-26.81],[-12.69,-26.88],[-12.62,-26.88],[-12.62,-26.94],[-12.56,-26.94],[-12.56,-27.0],[-12.5,-27.0],[-12.5,-27.12],[-12.62,-27.12],[-12.62,-27.19],[-12.69,-27.19],[-12.69,-27.25],[-12.75,-27.25],[-12.75,-27.38],[-12.81,-27.38],[-12.81,-27.62],[-12.75,-27.62],[-12.75,-27.75],[-12.69,-27.75],[-12.69,-27.81],[-12.56,-27.81],[-12.56,-27.88],[-12.5,-27.88],[-12.5,-27.81],[-12.31,-27.81],[-12.31,-27.75],[-12.19,-27.75],[-12.19,-27.69],[-12.06,-27.69],[-12.06,-27.62],[-11.94,-27.62],[-11.94,-27.56],[-11.69,-27.56],[-11.69,-27.38],[-11.75,-27.38],[-11.75,-27.19],[-11.81,-27.19],[-11.81,-27.06],[-11.88,-27.06],[-11.88,-27.0],[-11.94,-27.0],[-11.94,-26.88],[-12.0,-26.88],[-12.0,-26.62],[-12.06,-26.62],[-12.06,-26.38],[-12.0,-26.38],[-12.0,-25.88],[-12.06,-25.88],[-12.06,-25.75],[-12.12,-25.75],[-12.12,-25.69],[-12.44,-25.69]]]}},{"type":"Feature","properties":{"val":266.57,"field":"tp"},"geometry":{"type":"Polygon","coordinates":[[[64.44,-28.0],[64.69,-28.0],[64.69,-28.06],[64.81,-28.06],[64.81,-28.12],[64.94,-28.12],[64.94,-28.19],[65.38,-28.19],[65.38,-28.12],[65.56,-28.12],[65.56,-28.19],[65.69,-28.19],[65.69,-28.25],[65.81,-28.25],[65.81,-28.31],[65.88,-28.31],[65.88,-28.38],[66.0,-28.38],[66.0,-28.44],[66.38,-28.44],[66.38,-28.38],[66.5,-28.38],[66.5,-28.31],[66.94,-28.31],[66.94,-28.25],[67.56,-28.25],[67.56,-28.31],[68.0,-28.31],[68.0,-28.38],[68.44,-28.38],[68.44,-28.44],[68.75,-28.44],[68.75,-28.5],[69.0,-28.5],[69.0,-28.56],[69.25,-28.56],[69.25,-28.62],[69.44,-28.62],[69.44,-28.69],[69.69,-28.69],[69.69,-28.75],[69.81,-28.75],[69.81,-28.81],[69.94,-28.81],[69.94,-28.88],[70.0,-28.88],[70.0,-29.06],[69.94,-29.06],[69.94,-29.12],[69.81,-29.12],[69.81,-29.19],[69.56,-29.19],[69.56,-29.25],[68.88,-29.25],[68.88,-29.19],[68.56,-29.19],[68.56,-29.25],[68.38,-29.25],[68.38,-29.31],[67.62,-29.31],[67.62,-29.38],[67.19,-29.38],[67.19,-29.44],[67.06,-29.44],[67.06,-29.5],[66.25,-29.5],[66.25,-29.44],[66.12,-29.44],[66.12,-29.38],[66.0,-29.38],[66.0,-29.31],[65.88,-29.31],[65.88,-29.25],[65.75,-29.25],[65.75,-29.19],[65.69,-29.19],[65.69,-29.12],[65.62,-29.12],[65.62,-29.06],[65.56,-29.06],[65.56,-29.0],[65.5,-29.0],[65.5,-28.88],[65.44,-28.88],[65.44,-28.75],[65.38,-28.75],[65.38,-28.69],[65.31,-28.69],[65.31,-28.62],[65.19,-28.62],[65.19,-28.56],[65.06,-28.56],[65.06,-28.5],[64.88,-28.5],[64.88,-28.44],[64.69,-28.44],[64.69,-28.38],[64.44,-28.38],[64.44,-28.31],[64.38,-28.31],[64.38,-28.25],[64.31,-28.25],[64.31,-28.12],[64.38,-28.12],[64.38,-28.06],[64.44,-28.06],[64.44,-28.0]],[[66.69,-28.44],[66.69,-28.5],[66.5,-28.5],[66.5,-28.56],[66.38,-28.56],[66.38,-28.62],[66.31,-28.62],[66.31,-28.94],[66.38,-28.94],[66.38,-29.0],[66.5,-29.0],[66.5,-29.06],[66.88,-29.06],[66.88,-29.0],[67.06,-29.0],[67.06,-28.94],[67.31,-28.94],[67.31,-28.88],[67.62,-28.88],[67.62,-28.94],[67.69,-28.94],[67.69,-29.0],[67.81,-29.0],[67.81,-29.06],[67.88,-29.06],[67.88,-29.12],[68.12,-29.12],[68.12,-29.19],[68.19,-29.19],[68.19,-29.12],[68.5,-29.12],[68.5,-29.06],[69.12,-29.06],[69.12,-29.0],[69.25,-29.0],[69.25,-28.81],[69.12,-28.81],[69.12,-28.75],[69.0,-28.75],[69.0,-28.69],[68.88,-28.69],[68.88,-28.62],[68.69,-28.62],[68.69,-28.56],[68.44,-28.56],[68.44,-28.5],[67.94,-28.5],[67.94,-28.56],[67.56,-28.56],[67.56,-28.5],[67.38,-28.5],[67.38,-28.44],[66.69,-28.44]]]}},{"type":"Feature","properties":{"val":266.57,"field":"tp"},"geometry":{"type":"Polygon","coordinates":[[[69.75,-29.94],[70.19,-29.94],[70.19,-30.0],[70.56,-30.0],[70.56,-30.06],[70.69,-30.06],[70.69,-30.12],[70.75,-30.12],[70.75,-30.19],[70.81,-30.19],[70.81,-30.25],[70.88,-30.25],[70.88,-30.44],[70.75,-30.44],[70.75,-30.5],[70.06,-30.5],[70.06,-30.44],[69.81,-30.44],[69.81,-30.38],[69.69,-30.38],[69.69,-30.31],[69.62,-30.31],[69.62,-30.25],[69.56,-30.25],[69.56,-30.12],[69.62,-30.12],[69.62,-30.0],[69.75,-30.0],[69.75,-29.94]]]}},{"type":"Feature","properties":{"val":266.57,"field":"tp"},"geometry":{"type":"Polygon","coordinates":[[[71.56,-30.06],[72.25,-30.06],[72.25,-30.12],[72.31,-30.12],[72.31,-30.25],[71.5,-30.25],[71.5,-30.19],[71.44,-30.19],[71.44,-30.12],[71.56,-30.12],[71.56,-30.06]]]}},{"type":"Feature","properties":{"val":363.04,"field":"tp"},"geometry":{"type":"Polygon","coordinates":[[[-2.88,-9.44],[-2.62,-9.44],[-2.62,-9.69],[-2.69,-9.69],[-2.69,-9.75],[-2.75,-9.75],[-2.75,-9.81],[-2.81,-9.81],[-2.81,-9.88],[-2.88,-9.88],[-2.88,-9.94],[-3.06,-9.94],[-3.06,-9.88],[-3.12,-9.88],[-3.12,-9.75],[-3.06,-9.75],[-3.06,-9.62],[-3.0,-9.62],[-3.0,-9.5],[-2.88,-9.5],[-2.88,-9.44]]]}},{"type":"Feature","properties":{"val":363.04,"field":"tp"},"geometry":{"type":"Polygon","coordinates":[[[0.94,-10.0],[1.19,-10.0],[1.19,-10.06],[1.25,-10.06],[1.25,-10.12],[1.19,-10.12],[1.19,-10.19],[0.88,-10.19],[0.88,-10.06],[0.94,-10.06],[0.94,-10.0]]]}},{"type":"Feature","properties":{"val":363.04,"field":"tp"},"geometry":{"type":"Polygon","coordinates":[[[0.06,-10.0],[0.31,-10.0],[0.31,-10.06],[0.44,-10.06],[0.44,-10.12],[0.5,-10.12],[0.5,-10.19],[0.62,-10.19],[0.62,-10.44],[0.56,-10.44],[0.56,-10.5],[0.5,-10.5],[0.5,-10.56],[0.44,-10.56],[0.44,-10.62],[0.31,-10.62],[0.31,-10.69],[0.25,-10.69],[0.25,-10.62],[0.06,-10.62],[0.06,-10.56],[0.0,-10.56],[0.0,-10.5],[-0.06,-10.5],[-0.06,-10.06],[0.06,-10.06],[0.06,-10.0]],[[0.06,-10.12],[0.06,-10.19],[0.0,-10.19],[0.0,-10.44],[0.06,-10.44],[0.06,-10.5],[0.44,-10.5],[0.44,-10.38],[0.5,-10.38],[0.5,-10.31],[0.44,-10.31],[0.44,-10.19],[0.31,-10.19],[0.31,-10.12],[0.06,-10.12]]]}},{"type":"Feature","properties":{"val":363.04,"field":"tp"},"geometry":{"type":"Polygon","coordinates":[[[-2.31,-9.88],[-1.75,-9.88],[-1.75,-9.94],[-1.69,-9.94],[-1.69,-10.0],[-1.62,-10.0],[-1.62,-10.12],[-1.69,-10.12],[-1.69,-10.25],[-1.81,-10.25],[-1.81,-10.31],[-1.88,-10.31],[-1.88,-10.38],[-1.94,-10.38],[-1.94,-10.5],[-2.0,-10.5],[-2.0,-10.56],[-2.06,-10.56],[-2.06,-10.62],[-2.19,-10.62],[-2.19,-10.69],[-2.31,-10.69],[-2.31,-10.75],[-2.56,-10.75],[-2.56,-10.69],[-2.62,-10.69],[-2.62,-10.62],[-2.69,-10.62],[-2.69,-10.5],[-2.75,-10.5],[-2.75,-10.31],[-2.69,-10.31],[-2.69,-10.19],[-2.62,-10.19],[-2.62,-10.12],[-2.56,-10.12],[-2.56,-10.06],[-2.5,-10.06],[-2.5,-10.0],[-2.44,-10.0],[-2.44,-9.94],[-2.31,-9.94],[-2.31,-9.88]],[[-2.25,-9.94],[-2.25,-10.0],[-2.38,-10.0],[-2.38,-10.06],[-2.44,-10.06],[-2.44,-10.12],[-2.5,-10.12],[-2.5,-10.19],[-2.56,-10.19],[-2.56,-10.25],[-2.62,-10.25],[-2.62,-10.5],[-2.56,-10.5],[-2.56,-10.56],[-2.5,-10.56],[-2.5,-10.62],[-2.31,-10.62],[-2.31,-10.56],[-2.19,-10.56],[-2.19,-10.5],[-2.06,-10.5],[-2.06,-10.38],[-2.0,-10.38],[-2.0,-10.31],[-1.94,-10.31],[-1.94,-10.25],[-1.88,-10.25],[-1.88,-10.12],[-1.81,-10.12],[-1.81,-10.06],[-1.88,-10.06],[-1.88,-10.0],[-2.0,-10.0],[-2.0,-9.94],[-2.25,-9.94]]]}},{"type":"Feature","properties":{"val":363.04,"field":"tp"},"geometry":{"type":"Polygon","coordinates":[[[-1.94,-10.81],[-1.94,-10.94],[-1.88,-10.94],[-1.88,-10.81],[-1.94,-10.81]]]}},{"type":"Feature","properties":{"val":363.04,"field":"tp"},"geometry":{"type":"Polygon","coordinates":[[[-2.38,-11.5],[-2.12,-11.5],[-2.12,-11.62],[-2.19,-11.62],[-2.19,-11.69],[-2.25,-11.69],[-2.25,-11.75],[-2.31,-11.75],[-2.31,-11.81],[-2.38,-11.81],[-2.38,-11.88],[-2.56,-11.88],[-2.56,-11.81],[-2.62,-11.81],[-2.62,-11.69],[-2.56,-11.69],[-2.56,-11.62],[-2.5,-11.62],[-2.5,-11.56],[-2.38,-11.56],[-2.38,-11.5]]]}},{"type":"Feature","properties":{"val":363.04,"field":"tp"},"geometry":{"type":"Polygon","coordinates":[[[-5.75,-11.31],[-5.62,-11.31],[-5.62,-11.38],[-5.5,-11.38],[-5.5,-11.44],[-5.44,-11.44],[-5.44,-11.56],[-5.38,-11.56],[-5.38,-11.81],[-5.44,-11.81],[-5.44,-11.88],[-5.62,-11.88],[-5.62,-11.81],[-5.81,-11.81],[-5.81,-11.88],[-5.88,-11.88],[-5.88,-12.0],[-5.81,-12.0],[-5.81,-12.06],[-5.88,-12.06],[-5.88,-12.25],[-5.94,-12.25],[-5.94,-13.12],[-5.81,-13.12],[-5.81,-13.19],[-5.69,-13.19],[-5.69,-13.25],[-5.56,-13.25],[-5.56,-13.31],[-5.5,-13.31],[-5.5,-13.38],[-5.44,-13.38],[-5.44,-13.44],[-5.38,-13.44],[-5.38,-13.56],[-5.31,-13.56],[-5.31,-13.69],[-5.38,-13.69],[-5.38,-13.81],[-5.5,-13.81],[-5.5,-13.88],[-5.69,-13.88],[-5.69,-13.94],[-5.75,-13.94],[-5.75,-14.44],[-6.06,-14.44],[-6.06,-14.38],[-6.12,-14.38],[-6.12,-14.31],[-6.25,-14.31],[-6.25,-14.25],[-6.31,-14.25],[-6.31,-14.19],[-6.44,-14.19],[-6.44,-14.12],[-6.81,-14.12],[-6.81,-14.06],[-7.0,-14.06],[-7.0,-14.0],[-7.19,-14.0],[-7.19,-13.94],[-7.31,-13.94],[-7.31,-13.88],[-7.38,-13.88],[-7.38,-13.75],[-7.44,-13.75],[-7.44,-13.69],[-7.5,-13.69],[-7.5,-13.56],[-7.56,-13.56],[-7.56,-13.5],[-7.62,-13.5],[-7.62,-13.44],[-7.69,-13.44],[-7.69,-13.38],[-7.75,-13.38],[-7.75,-13.31],[-7.81,-13.31],[-7.81,-13.25],[-7.94,-13.25],[-7.94,-13.19],[-8.12,-13.19],[-8.12,-13.25],[-8.19,-13.25],[-8.19,-13.31],[-8.31,-13.31],[-8.31,-13.38],[-8.5,-13.38],[-8.5,-13.31],[-8.56,-13.31],[-8.56,-13.25],[-8.62,-13.25],[-8.62,-13.19],[-8.69,-13.19],[-8.69,-13.12],[-8.75,-13.12],[-8.75,-13.06],[-8.88,-13.06],[-8.88,-13.0],[-9.44,-13.0],[-9.44,-12.94],[-9.5,-12.94],[-9.5,-12.88],[-9.56,-12.88],[-9.56,-12.81],[-9.62,-12.81],[-9.62,-12.5],[-9.56,-12.5],[-9.56,-12.38],[-9.5,-12.38],[-9.5,-12.25],[-9.44,-12.25],[-9.44,-12.19],[-9.38,-12.19],[-9.38,-12.12],[-9.31,-12.12],[-9.31,-12.06],[-9.19,-12.06],[-9.19,-12.12],[-9.12,-12.12],[-9.12,-12.19],[-9.06,-12.19],[-9.06,-12.38],[-9.0,-12.38],[-9.0,-12.44],[-8.88,-12.44],[-8.88,-12.5],[-8.69,-12.5],[-8.69,-12.44],[-8.56,-12.44],[-8.56,-12.38],[-8.44,-12.38],[-8.44,-12.31],[-8.31,-12.31],[-8.31,-12.25],[-8.19,-12.25],[-8.19,-12.19],[-8.06,-12.19],[-8.06,-12.12],[-8.0,-12.12],[-8.0,-12.06],[-7.88,-12.06],[-7.88,-12.0],[-7.69,-12.0],[-7.69,-12.06],[-7.56,-12.06],[-7.56,-12.12],[-7.5,-12.12],[-7.5,-12.19],[-7.25,-12.19],[-7.25,-12.12],[-6.88,-12.12],[-6.88,-12.19],[-6.81,-12.19],[-6.81,-12.25],[-6.75,-12.25],[-6.75,-12.31],[-6.62,-12.31],[-6.62,-12.25],[-6.56,-12.25],[-6.56,-12.19],[-6.5,-12.19],[-6.5,-12.06],[-6.44,-12.06],[-6.44,-11.94],[-6.38,-11.94],[-6.38,-11.81],[-6.31,-11.81],[-6.31,-11.75],[-5.94,-11.75],[-5.94,-11.56],[-5.88,-11.56],[-5.88,-11.44],[-5.81,-11.44],[-5.81,-11.38],[-5.75,-11.38],[-5.75,-11.31]],[[-6.25,-11.94],[-6.25,-12.0],[-6.31,-12.0],[-6.31,-12.06],[-6.38,-12.06],[-6.38,-12.19],[-6.44,-12.19],[-6.44,-12.25],[-6.5,-12.25],[-6.5,-12.31],[-6.56,-12.31],[-6.56,-12.38],[-6.62,-12.38],[-6.62,-12.44],[-6.75,-12.44],[-6.75,-12.38],[-6.81,-12.38],[-6.81,-12.31],[-6.88,-12.31],[-6.88,-12.25],[-6.94,-12.25],[-6.94,-12.19],[-7.12,-12.19],[-7.12,-12.25],[-7.25,-12.25],[-7.25,-12.31],[-7.5,-12.31],[-7.5,-12.25],[-7.56,-12.25],[-7.56,-12.19],[-7.69,-12.19],[-7.69,-12.12],[-7.81,-12.12],[-7.81,-12.19],[-7.94,-12.19],[-7.94,-12.25],[-8.0,-12.25],[-8.0,-12.31],[-8.25,-12.31],[-8.25,-12.38],[-8.44,-12.38],[-8.44,-12.44],[-8.5,-12.44],[-8.5,-12.5],[-8.62,-12.5],[-8.62,-12.56],[-8.88,-12.56],[-8.88,-12.5],[-9.0,-12.5],[-9.0,-12.44],[-9.06,-12.44],[-9.06,-12.38],[-9.12,-12.38],[-9.12,-12.25],[-9.19,-12.25],[-9.19,-12.19],[-9.38,-12.19],[-9.38,-12.25],[-9.44,-12.25],[-9.44,-12.38],[-9.5,-12.38],[-9.5,-12.56],[-9.56,-12.56],[-9.56,-12.75],[-9.5,-12.75],[-9.5,-12.88],[-9.44,-12.88],[-9.44,-12.94],[-8.81,-12.94],[-8.81,-13.0],[-8.75,-13.0],[-8.75,-13.06],[-8.69,-13.06],[-8.69,-13.12],[-8.62,-13.12],[-8.62,-13.19],[-8.5,-13.19],[-8.5,-13.25],[-8.31,-13.25],[-8.31,-13.19],[-8.25,-13.19],[-8.25,-13.12],[-8.12,-13.12],[-8.12,-13.06],[-7.94,-13.06],[-7.94,-13.12],[-7.88,-13.12],[-7.88,-13.19],[-7.81,-13.19],[-7.81,-13.25],[-7.69,-13.25],[-7.69,-13.31],[-7.62,-13.31],[-7.62,-13.38],[-7.56,-13.38],[-7.56,-13.44],[-7.5,-13.44],[-7.5,-13.5],[-7.44,-13.5],[-7.44,-13.56],[-7.38,-13.56],[-7.38,-13.69],[-7.31,-13.69],[-7.31,-13.75],[-7.25,-13.75],[-7.25,-13.81],[-7.19,-13.81],[-7.19,-13.88],[-7.06,-13.88],[-7.06,-13.94],[-6.75,-13.94],[-6.75,-14.0],[-6.38,-14.0],[-6.38,-14.06],[-6.19,-14.06],[-6.19,-14.12],[-6.06,-14.12],[-6.06,-14.0],[-6.0,-14.0],[-6.0,-13.69],[-5.56,-13.69],[-5.56,-13.62],[-5.5,-13.62],[-5.5,-13.5],[-5.56,-13.5],[-5.56,-13.44],[-5.69,-13.44],[-5.69,-13.38],[-5.81,-13.38],[-5.81,-13.31],[-6.06,-13.31],[-6.06,-13.25],[-6.12,-13.25],[-6.12,-13.0],[-6.06,-13.0],[-6.06,-12.75],[-6.0,-12.75],[-6.0,-12.06],[-6.06,-12.06],[-6.06,-11.94],[-6.25,-11.94]]]}},{"type":"Feature","properties":{"val":363.04,"field":"tp"},"geometry":{"type":"Polygon","coordinates":[[[-8.62,-25.06],[-8.62,-25.31],[-8.56,-25.31],[-8.56,-25.38],[-8.44,-25.38],[-8.44,-25.31],[-8.38,-25.31],[-8.38,-25.06],[-8.62,-25.06]]]}},{"type":"Feature","properties":{"val":363.04,"field":"tp"},"geometry":{"type":"Polygon","coordinates":[[[63.31,-27.12],[63.69,-27.12],[63.69,-27.19],[63.75,-27.19],[63.75,-27.31],[63.69,-27.31],[63.69,-27.38],[63.25,-27.38],[63.25,-27.31],[63.19,-27.31],[63.19,-27.25],[63.12,-27.25],[63.12,-27.19],[63.31,-27.19],[63.31,-27.12]]]}},{"type":"Feature","properties":{"val":363.04,"field":"tp"},"geometry":{"type":"Polygon","coordinates":[[[-12.44,-25.69],[-12.12,-25.69],[-12.12,-25.75],[-12.06,-25.75],[-12.06,-25.88],[-12.0,-25.88],[-12.0,-26.38],[-12.06,-26.38],[-12.06,-26.62],[-12.0,-26.62],[-12.0,-26.88],[-11.94,-26.88],[-11.94,-27.0],[-11.88,-27.0],[-11.88,-27.06],[-11.81,-27.06],[-11.81,-27.19],[-11.75,-27.19],[-11.75,-27.38],[-11.69,-27.38],[-11.69,-27.56],[-11.94,-27.56],[-11.94,-27.62],[-12.06,-27.62],[-12.06,-27.69],[-12.19,-27.69],[-12.19,-27.75],[-12.31,-27.75],[-12.31,-27.81],[-12.5,-27.81],[-12.5,-27.88],[-12.56,-27.88],[-12.56,-27.81],[-12.69,-27.81],[-12.69,-27.75],[-12.75,-27.75],[-12.75,-27.62],[-12.81,-27.62],[-12.81,-27.38],[-12.75,-27.38],[-12.75,-27.25],[-12.69,-27.25],[-12.69,-27.19],[-12.62,-27.19],[-12.62,-27.12],[-12.5,-27.12],[-12.5,-27.0],[-12.56,-27.0],[-12.56,-26.94],[-12.62,-26.94],[-12.62,-26.88],[-12.69,-26.88],[-12.69,-26.81],[-12.75,-26.81],[-12.75,-26.69],[-12.81,-26.69],[-12.81,-26.38],[-12.75,-26.38],[-12.75,-26.12],[-12.81,-26.12],[-12.81,-26.0],[-12.88,-26.0],[-12.88,-25.81],[-12.81,-25.81],[-12.81,-25.75],[-12.44,-25.75],[-12.44,-25.69]],[[-12.38,-25.75],[-12.38,-25.81],[-12.44,-25.81],[-12.44,-25.88],[-12.62,-25.88],[-12.62,-25.81],[-12.75,-25.81],[-12.75,-26.06],[-12.62,-26.06],[-12.62,-26.25],[-12.69,-26.25],[-12.69,-26.44],[-12.75,-26.44],[-12.75,-26.56],[-12.69,-26.56],[-12.69,-26.75],[-12.62,-26.75],[-12.62,-26.81],[-12.5,-26.81],[-12.5,-26.88],[-12.38,-26.88],[-12.38,-26.94],[-12.25,-26.94],[-12.25,-27.0],[-12.19,-27.0],[-12.19,-26.94],[-12.12,-26.94],[-12.12,-26.38],[-12.06,-26.38],[-12.06,-25.88],[-12.12,-25.88],[-12.12,-25.75],[-12.38,-25.75]]]}},{"type":"Feature","properties":{"val":363.04,"field":"tp"},"geometry":{"type":"Polygon","coordinates":[[[66.69,-28.44],[67.38,-28.44],[67.38,-28.5],[67.56,-28.5],[67.56,-28.56],[67.94,-28.56],[67.94,-28.5],[68.44,-28.5],[68.44,-28.56],[68.69,-28.56],[68.69,-28.62],[68.88,-28.62],[68.88,-28.69],[69.0,-28.69],[69.0,-28.75],[69.12,-28.75],[69.12,-28.81],[69.25,-28.81],[69.25,-29.0],[69.12,-29.0],[69.12,-29.06],[68.5,-29.06],[68.5,-29.12],[68.19,-29.12],[68.19,-29.19],[68.12,-29.19],[68.12,-29.12],[67.88,-29.12],[67.88,-29.06],[67.81,-29.06],[67.81,-29.0],[67.69,-29.0],[67.69,-28.94],[67.62,-28.94],[67.62,-28.88],[67.31,-28.88],[67.31,-28.94],[67.06,-28.94],[67.06,-29.0],[66.88,-29.0],[66.88,-29.06],[66.5,-29.06],[66.5,-29.0],[66.38,-29.0],[66.38,-28.94],[66.31,-28.94],[66.31,-28.62],[66.38,-28.62],[66.38,-28.56],[66.5,-28.56],[66.5,-28.5],[66.69,-28.5],[66.69,-28.44]],[[66.69,-28.56],[66.69,-28.62],[66.56,-28.62],[66.56,-28.81],[66.62,-28.81],[66.62,-28.88],[66.88,-28.88],[66.88,-28.81],[67.12,-28.81],[67.12,-28.75],[67.25,-28.75],[67.25,-28.62],[67.19,-28.62],[67.19,-28.56],[66.69,-28.56]]]}},{"type":"Feature","properties":{"val":459.51,"field":"tp"},"geometry":{"type":"Polygon","coordinates":[[[0.06,-10.12],[0.31,-10.12],[0.31,-10.19],[0.44,-10.19],[0.44,-10.31],[0.5,-10.31],[0.5,-10.38],[0.44,-10.38],[0.44,-10.5],[0.06,-10.5],[0.06,-10.44],[0.0,-10.44],[0.0,-10.19],[0.06,-10.19],[0.06,-10.12]],[[0.12,-10.25],[0.12,-10.38],[0.19,-10.38],[0.19,-10.44],[0.25,-10.44],[0.25,-10.38],[0.31,-10.38],[0.31,-10.25],[0.12,-10.25]]]}},{"type":"Feature","properties":{"val":459.51,"field":"tp"},"geometry":{"type":"Polygon","coordinates":[[[-2.25,-9.94],[-2.0,-9.94],[-2.0,-10.0],[-1.88,-10.0],[-1.88,-10.06],[-1.81,-10.06],[-1.81,-10.12],[-1.88,-10.12],[-1.88,-10.25],[-1.94,-10.25],[-1.94,-10.31],[-2.0,-10.31],[-2.0,-10.38],[-2.06,-10.38],[-2.06,-10.5],[-2.19,-10.5],[-2.19,-10.56],[-2.31,-10.56],[-2.31,-10.62],[-2.5,-10.62],[-2.5,-10.56],[-2.56,-10.56],[-2.56,-10.5],[-2.62,-10.5],[-2.62,-10.25],[-2.56,-10.25],[-2.56,-10.19],[-2.5,-10.19],[-2.5,-10.12],[-2.44,-10.12],[-2.44,-10.06],[-2.38,-10.06],[-2.38,-10.0],[-2.25,-10.0],[-2.25,-9.94]],[[-2.31,-10.06],[-2.31,-10.12],[-2.44,-10.12],[-2.44,-10.19],[-2.5,-10.19],[-2.5,-10.31],[-2.56,-10.31],[-2.56,-10.38],[-2.5,-10.38],[-2.5,-10.5],[-2.25,-10.5],[-2.25,-10.44],[-2.12,-10.44],[-2.12,-10.38],[-2.06,-10.38],[-2.06,-10.25],[-2.0,-10.25],[-2.0,-10.06],[-2.31,-10.06]]]}},{"type":"Feature","properties":{"val":459.51,"field":"tp"},"geometry":{"type":"Polygon","coordinates":[[[-6.25,-11.94],[-6.06,-11.94],[-6.06,-12.06],[-6.0,-12.06],[-6.0,-12.75],[-6.06,-12.75],[-6.06,-13.0],[-6.12,-13.0],[-6.12,-13.25],[-6.06,-13.25],[-6.06,-13.31],[-5.81,-13.31],[-5.81,-13.38],[-5.69,-13.38],[-5.69,-13.44],[-5.56,-13.44],[-5.56,-13.5],[-5.5,-13.5],[-5.5,-13.62],[-5.56,-13.62],[-5.56,-13.69],[-6.0,-13.69],[-6.0,-14.0],[-6.06,-14.0],[-6.06,-14.12],[-6.19,-14.12],[-6.19,-14.06],[-6.38,-14.06],[-6.38,-14.0],[-6.75,-14.0],[-6.75,-13.94],[-7.06,-13.94],[-7.06,-13.88],[-7.19,-13.88],[-7.19,-13.81],[-7.25,-13.81],[-7.25,-13.75],[-7.31,-13.75],[-7.31,-13.69],[-7.38,-13.69],[-7.38,-13.56],[-7.44,-13.56],[-7.44,-13.5],[-7.5,-13.5],[-7.5,-13.44],[-7.56,-13.44],[-7.56,-13.38],[-7.62,-13.38],[-7.62,-13.31],[-7.69,-13.31],[-7.69,-13.25],[-7.81,-13.25],[-7.81,-13.19],[-7.88,-13.19],[-7.88,-13.12],[-7.94,-13.12],[-7.94,-13.06],[-8.12,-13.06],[-8.12,-13.12],[-8.25,-13.12],[-8.25,-13.19],[-8.31,-13.19],[-8.31,-13.25],[-8.5,-13.25],[-8.5,-13.19],[-8.62,-13.19],[-8.62,-13.12],[-8.69,-13.12],[-8.69,-13.06],[-8.75,-13.06],[-8.75,-13.0],[-8.81,-13.0],[-8.81,-12.94],[-9.44,-12.94],[-9.44,-12.88],[-9.5,-12.88],[-9.5,-12.75],[-9.56,-12.75],[-9.56,-12.56],[-9.5,-12.56],[-9.5,-12.38],[-9.44,-12.38],[-9.44,-12.25],[-9.38,-12.25],[-9.38,-12.19],[-9.19,-12.19],[-9.19,-12.25],[-9.12,-12.25],[-9.12,-12.38],[-9.06,-12.38],[-9.06,-12.44],[-9.0,-12.44],[-9.0,-12.5],[-8.88,-12.5],[-8.88,-12.56],[-8.62,-12.56],[-8.62,-12.5],[-8.5,-12.5],[-8.5,-12.44],[-8.44,-12.44],[-8.44,-12.38],[-8.25,-12.38],[-8.25,-12.31],[-8.0,-12.31],[-8.0,-12.25],[-7.94,-12.25],[-7.94,-12.19],[-7.81,-12.19],[-7.81,-12.12],[-7.69,-12.12],[-7.69,-12.19],[-7.56,-12.19],[-7.56,-12.25],[-7.5,-12.25],[-7.5,-12.31],[-7.25,-12.31],[-7.25,-12.25],[-7.12,-12.25],[-7.12,-12.19],[-6.94,-12.19],[-6.94,-12.25],[-6.88,-12.25],[-6.88,-12.31],[-6.81,-12.31],[-6.81,-12.38],[-6.75,-12.38],[-6.75,-12.44],[-6.62,-12.44],[-6.62,-12.38],[-6.56,-12.38],[-6.56,-12.31],[-6.5,-12.31],[-6.5,-12.25],[-6.44,-12.25],[-6.44,-12.19],[-6.38,-12.19],[-6.38,-12.06],[-6.31,-12.06],[-6.31,-12.0],[-6.25,-12.0],[-6.25,-11.94]],[[-6.25,-12.12],[-6.25,-12.19],[-6.38,-12.19],[-6.38,-12.31],[-6.44,-12.31],[-6.44,-12.38],[-6.5,-12.38],[-6.5,-12.44],[-6.56,-12.44],[-6.56,-12.5],[-6.75,-12.5],[-6.75,-12.44],[-6.81,-12.44],[-6.81,-12.38],[-6.88,-12.38],[-6.88,-12.31],[-7.0,-12.31],[-7.0,-12.25],[-7.06,-12.25],[-7.06,-12.31],[-7.19,-12.31],[-7.19,-12.38],[-7.31,-12.38],[-7.31,-12.44],[-7.56,-12.44],[-7.56,-12.31],[-7.62,-12.31],[-7.62,-12.25],[-7.81,-12.25],[-7.81,-12.31],[-7.88,-12.31],[-7.88,-12.38],[-7.94,-12.38],[-7.94,-12.44],[-8.06,-12.44],[-8.06,-12.38],[-8.25,-12.38],[-8.25,-12.44],[-8.44,-12.44],[-8.44,-12.5],[-8.5,-12.5],[-8.5,-12.56],[-8.62,-12.56],[-8.62,-12.62],[-8.69,-12.62],[-8.69,-12.69],[-8.81,-12.69],[-8.81,-12.62],[-8.94,-12.62],[-8.94,-12.56],[-9.06,-12.56],[-9.06,-12.5],[-9.12,-12.5],[-9.12,-12.44],[-9.19,-12.44],[-9.19,-12.31],[-9.31,-12.31],[-9.31,-12.38],[-9.38,-12.38],[-9.38,-12.44],[-9.44,-12.44],[-9.44,-12.81],[-9.38,-12.81],[-9.38,-12.88],[-8.75,-12.88],[-8.75,-12.94],[-8.69,-12.94],[-8.69,-13.0],[-8.62,-13.0],[-8.62,-13.06],[-8.56,-13.06],[-8.56,-13.12],[-8.5,-13.12],[-8.5,-13.19],[-8.38,-13.19],[-8.38,-13.12],[-8.31,-13.12],[-8.31,-13.06],[-8.19,-13.06],[-8.19,-13.0],[-8.12,-13.0],[-8.12,-12.94],[-7.88,-12.94],[-7.88,-13.06],[-7.81,-13.06],[-7.81,-13.12],[-7.75,-13.12],[-7.75,-13.19],[-7.69,-13.19],[-7.69,-13.25],[-7.62,-13.25],[-7.62,-13.31],[-7.56,-13.31],[-7.56,-13.38],[-7.5,-13.38],[-7.5,-13.44],[-7.44,-13.44],[-7.44,-13.5],[-7.38,-13.5],[-7.38,-13.56],[-7.31,-13.56],[-7.31,-13.62],[-7.25,-13.62],[-7.25,-13.69],[-7.19,-13.69],[-7.19,-13.75],[-7.0,-13.75],[-7.0,-13.81],[-6.56,-13.81],[-6.56,-13.75],[-6.5,-13.75],[-6.5,-13.56],[-6.62,-13.56],[-6.62,-13.5],[-6.69,-13.5],[-6.69,-13.44],[-6.62,-13.44],[-6.62,-13.38],[-6.56,-13.38],[-6.56,-13.44],[-6.38,-13.44],[-6.38,-13.38],[-6.31,-13.38],[-6.31,-13.25],[-6.25,-13.25],[-6.25,-13.06],[-6.19,-13.06],[-6.19,-12.94],[-6.12,-12.94],[-6.12,-12.75],[-6.06,-12.75],[-6.06,-12.25],[-6.12,-12.25],[-6.12,-12.12],[-6.25,-12.12]]]}},{"type":"Feature","properties":{"val":459.51,"field":"tp"},"geometry":{"type":"Polygon","coordinates":[[[-12.38,-25.75],[-12.12,-25.75],[-12.12,-25.88],[-12.06,-25.88],[-12.06,-26.38],[-12.12,-26.38],[-12.12,-26.94],[-12.19,-26.94],[-12.19,-27.0],[-12.25,-27.0],[-12.25,-26.94],[-12.38,-26.94],[-12.38,-26.88],[-12.5,-26.88],[-12.5,-26.81],[-12.62,-26.81],[-12.62,-26.75],[-12.69,-26.75],[-12.69,-26.56],[-12.75,-26.56],[-12.75,-26.44],[-12.69,-26.44],[-12.69,-26.25],[-12.62,-26.25],[-12.62,-26.06],[-12.75,-26.06],[-12.75,-25.81],[-12.62,-25.81],[-12.62,-25.88],[-12.44,-25.88],[-12.44,-25.81],[-12.38,-25.81],[-12.38,-25.75]],[[-12.31,-25.81],[-12.31,-25.88],[-12.38,-25.88],[-12.38,-25.94],[-12.44,-25.94],[-12.44,-26.19],[-12.5,-26.19],[-12.5,-26.25],[-12.56,-26.25],[-12.56,-26.38],[-12.62,-26.38],[-12.62,-26.69],[-12.56,-26.69],[-12.56,-26.75],[-12.25,-26.75],[-12.25,-26.56],[-12.19,-26.56],[-12.19,-26.31],[-12.12,-26.31],[-12.12,-25.88],[-12.19,-25.88],[-12.19,-25.81],[-12.31,-25.81]]]}},{"type":"Feature","properties":{"val":459.51,"field":"tp"},"geometry":{"type":"Polygon","coordinates":[[[-12.25,-27.25],[-12.12,-27.25],[-12.12,-27.44],[-12.19,-27.44],[-12.19,-27.5],[-12.25,-27.5],[-12.25,-27.56],[-12.31,-27.56],[-12.31,-27.62],[-12.44,-27.62],[-12.44,-27.69],[-12.5,-27.69],[-12.5,-27.62],[-12.56,-27.62],[-12.56,-27.5],[-12.5,-27.5],[-12.5,-27.44],[-12.44,-27.44],[-12.44,-27.38],[-12.31,-27.38],[-12.31,-27.31],[-12.25,-27.31],[-12.25,-27.25]]]}},{"type":"Feature","properties":{"val":459.51,"field":"tp"},"geometry":{"type":"Polygon","coordinates":[[[66.69,-28.56],[67.19,-28.56],[67.19,-28.62],[67.25,-28.62],[67.25,-28.75],[67.12,-28.75],[67.12,-28.81],[66.88,-28.81],[66.88,-28.88],[66.62,-28.88],[66.62,-28.81],[66.56,-28.81],[66.56,-28.62],[66.69,-28.62],[66.69,-28.56]]]}},{"type":"Feature","properties":{"val":459.51,"field":"tp"},"geometry":{"type":"Polygon","coordinates":[[[68.06,-28.69],[68.5,-28.69],[68.5,-28.75],[68.56,-28.75],[68.56,-28.94],[68.44,-28.94],[68.44,-29.0],[68.0,-29.0],[68.0,-28.94],[67.94,-28.94],[67.94,-28.81],[68.0,-28.81],[68.0,-28.75],[68.06,-28.75],[68.06,-28.69]]]}},{"type":"Feature","properties":{"val":555.98,"field":"tp"},"geometry":{"type":"Polygon","coordinates":[[[0.12,-10.25],[0.12,-10.38],[0.19,-10.38],[0.19,-10.44],[0.25,-10.44],[0.25,-10.38],[0.31,-10.38],[0.31,-10.25],[0.12,-10.25]]]}},{"type":"Feature","properties":{"val":555.98,"field":"tp"},"geometry":{"type":"Polygon","coordinates":[[[-2.31,-10.06],[-2.0,-10.06],[-2.0,-10.25],[-2.06,-10.25],[-2.06,-10.38],[-2.12,-10.38],[-2.12,-10.44],[-2.25,-10.44],[-2.25,-10.5],[-2.5,-10.5],[-2.5,-10.38],[-2.56,-10.38],[-2.56,-10.31],[-2.5,-10.31],[-2.5,-10.19],[-2.44,-10.19],[-2.44,-10.12],[-2.31,-10.12],[-2.31,-10.06]],[[-2.38,-10.19],[-2.38,-10.31],[-2.44,-10.31],[-2.44,-10.38],[-2.38,-10.38],[-2.38,-10.44],[-2.31,-10.44],[-2.31,-10.38],[-2.19,-10.38],[-2.19,-10.31],[-2.12,-10.31],[-2.12,-10.19],[-2.38,-10.19]]]}},{"type":"Feature","properties":{"val":555.98,"field":"tp"},"geometry":{"type":"Polygon","coordinates":[[[-6.25,-12.12],[-6.12,-12.12],[-6.12,-12.25],[-6.06,-12.25],[-6.06,-12.75],[-6.12,-12.75],[-6.12,-12.31],[-6.19,-12.31],[-6.19,-12.25],[-6.31,-12.25],[-6.31,-12.31],[-6.38,-12.31],[-6.38,-12.38],[-6.44,-12.38],[-6.44,-12.44],[-6.5,-12.44],[-6.5,-12.5],[-6.56,-12.5],[-6.56,-12.56],[-6.75,-12.56],[-6.75,-12.5],[-6.81,-12.5],[-6.81,-12.44],[-6.88,-12.44],[-6.88,-12.38],[-7.0,-12.38],[-7.0,-12.31],[-7.06,-12.31],[-7.06,-12.38],[-7.19,-12.38],[-7.19,-12.44],[-7.31,-12.44],[-7.31,-12.5],[-7.44,-12.5],[-7.44,-12.56],[-7.62,-12.56],[-7.62,-12.5],[-7.75,-12.5],[-7.75,-12.62],[-7.81,-12.62],[-7.81,-13.0],[-7.75,-13.0],[-7.75,-13.12],[-7.69,-13.12],[-7.69,-13.19],[-7.62,-13.19],[-7.62,-13.25],[-7.56,-13.25],[-7.56,-13.31],[-7.5,-13.31],[-7.5,-13.38],[-7.44,-13.38],[-7.44,-13.44],[-7.38,-13.44],[-7.38,-13.5],[-7.31,-13.5],[-7.31,-13.56],[-7.19,-13.56],[-7.19,-13.62],[-6.88,-13.62],[-6.88,-13.5],[-6.81,-13.5],[-6.81,-13.44],[-6.75,-13.44],[-6.75,-13.38],[-6.69,-13.38],[-6.69,-13.31],[-6.62,-13.31],[-6.62,-13.25],[-6.38,-13.25],[-6.38,-13.12],[-6.31,-13.12],[-6.31,-13.06],[-6.25,-13.06],[-6.25,-12.94],[-6.19,-12.94],[-6.19,-12.81],[-6.12,-12.81],[-6.12,-12.94],[-6.19,-12.94],[-6.19,-13.06],[-6.25,-13.06],[-6.25,-13.25],[-6.31,-13.25],[-6.31,-13.38],[-6.38,-13.38],[-6.38,-13.44],[-6.56,-13.44],[-6.56,-13.38],[-6.62,-13.38],[-6.62,-13.44],[-6.69,-13.44],[-6.69,-13.5],[-6.62,-13.5],[-6.62,-13.56],[-6.5,-13.56],[-6.5,-13.75],[-6.56,-13.75],[-6.56,-13.81],[-7.0,-13.81],[-7.0,-13.75],[-7.19,-13.75],[-7.19,-13.69],[-7.25,-13.69],[-7.25,-13.62],[-7.31,-13.62],[-7.31,-13.56],[-7.38,-13.56],[-7.38,-13.5],[-7.44,-13.5],[-7.44,-13.44],[-7.5,-13.44],[-7.5,-13.38],[-7.56,-13.38],[-7.56,-13.31],[-7.62,-13.31],[-7.62,-13.25],[-7.69,-13.25],[-7.69,-13.19],[-7.75,-13.19],[-7.75,-13.12],[-7.81,-13.12],[-7.81,-13.06],[-7.88,-13.06],[-7.88,-12.94],[-8.12,-12.94],[-8.12,-13.0],[-8.19,-13.0],[-8.19,-13.06],[-8.31,-13.06],[-8.31,-13.12],[-8.38,-13.12],[-8.38,-13.19],[-8.5,-13.19],[-8.5,-13.12],[-8.56,-13.12],[-8.56,-13.06],[-8.62,-13.06],[-8.62,-13.0],[-8.69,-13.0],[-8.69,-12.94],[-8.75,-12.94],[-8.75,-12.88],[-9.38,-12.88],[-9.38,-12.81],[-9.44,-12.81],[-9.44,-12.44],[-9.38,-12.44],[-9.38,-12.38],[-9.31,-12.38],[-9.31,-12.31],[-9.19,-12.31],[-9.19,-12.44],[-9.12,-12.44],[-9.12,-12.5],[-9.06,-12.5],[-9.06,-12.56],[-8.94,-12.56],[-8.94,-12.62],[-8.81,-12.62],[-8.81,-12.69],[-8.69,-12.69],[-8.69,-12.62],[-8.62,-12.62],[-8.62,-12.56],[-8.5,-12.56],[-8.5,-12.5],[-8.44,-12.5],[-8.44,-12.44],[-8.25,-12.44],[-8.25,-12.38],[-8.06,-12.38],[-8.06,-12.44],[-7.94,-12.44],[-7.94,-12.38],[-7.88,-12.38],[-7.88,-12.31],[-7.81,-12.31],[-7.81,-12.25],[-7.62,-12.25],[-7.62,-12.31],[-7.56,-12.31],[-7.56,-12.44],[-7.31,-12.44],[-7.31,-12.38],[-7.19,-12.38],[-7.19,-12.31],[-7.06,-12.31],[-7.06,-12.25],[-7.0,-12.25],[-7.0,-12.31],[-6.88,-12.31],[-6.88,-12.38],[-6.81,-12.38],[-6.81,-12.44],[-6.75,-12.44],[-6.75,-12.5],[-6.56,-12.5],[-6.56,-12.44],[-6.5,-12.44],[-6.5,-12.38],[-6.44,-12.38],[-6.44,-12.31],[-6.38,-12.31],[-6.38,-12.19],[-6.25,-12.19],[-6.25,-12.12]],[[-8.44,-12.5],[-8.44,-12.56],[-8.5,-12.56],[-8.5,-12.62],[-8.56,-12.62],[-8.56,-12.69],[-8.62,-12.69],[-8.62,-12.75],[-8.69,-12.75],[-8.69,-12.88],[-8.62,-12.88],[-8.62,-13.0],[-8.56,-13.0],[-8.56,-13.06],[-8.31,-13.06],[-8.31,-13.0],[-8.25,-13.0],[-8.25,-12.94],[-8.19,-12.94],[-8.19,-12.88],[-8.12,-12.88],[-8.12,-12.81],[-8.06,-12.81],[-8.06,-12.75],[-8.0,-12.75],[-8.0,-12.56],[-8.06,-12.56],[-8.06,-12.5],[-8.44,-12.5]]]}},{"type":"Feature","properties":{"val":555.98,"field":"tp"},"geometry":{"type":"Polygon","coordinates":[[[-12.31,-25.81],[-12.19,-25.81],[-12.19,-25.88],[-12.12,-25.88],[-12.12,-26.0],[-12.19,-26.0],[-12.19,-25.88],[-12.25,-25.88],[-12.25,-25.94],[-12.31,-25.94],[-12.31,-26.0],[-12.38,-26.0],[-12.38,-26.31],[-12.44,-26.31],[-12.44,-26.38],[-12.5,-26.38],[-12.5,-26.44],[-12.56,-26.44],[-12.56,-26.62],[-12.5,-26.62],[-12.5,-26.69],[-12.38,-26.69],[-12.38,-26.56],[-12.31,-26.56],[-12.31,-26.38],[-12.25,-26.38],[-12.25,-26.31],[-12.19,-26.31],[-12.19,-26.12],[-12.12,-26.12],[-12.12,-26.31],[-12.19,-26.31],[-12.19,-26.56],[-12.25,-26.56],[-12.25,-26.75],[-12.56,-26.75],[-12.56,-26.69],[-12.62,-26.69],[-12.62,-26.38],[-12.56,-26.38],[-12.56,-26.25],[-12.5,-26.25],[-12.5,-26.19],[-12.44,-26.19],[-12.44,-25.94],[-12.38,-25.94],[-12.38,-25.88],[-12.31,-25.88],[-12.31,-25.81]]]}},{"type":"Feature","properties":{"val":652.45,"field":"tp"},"geometry":{"type":"Polygon","coordinates":[[[-2.38,-10.19],[-2.12,-10.19],[-2.12,-10.31],[-2.19,-10.31],[-2.19,-10.38],[-2.31,-10.38],[-2.31,-10.44],[-2.38,-10.44],[-2.38,-10.38],[-2.44,-10.38],[-2.44,-10.31],[-2.38,-10.31],[-2.38,-10.19]]]}},{"type":"Feature","properties":{"val":652.45,"field":"tp"},"geometry":{"type":"Polygon","coordinates":[[[-8.44,-12.5],[-8.06,-12.5],[-8.06,-12.56],[-8.0,-12.56],[-8.0,-12.75],[-8.06,-12.75],[-8.06,-12.81],[-8.12,-12.81],[-8.12,-12.88],[-8.19,-12.88],[-8.19,-12.94],[-8.25,-12.94],[-8.25,-13.0],[-8.31,-13.0],[-8.31,-13.06],[-8.56,-13.06],[-8.56,-13.0],[-8.62,-13.0],[-8.62,-12.88],[-8.69,-12.88],[-8.69,-12.75],[-8.62,-12.75],[-8.62,-12.69],[-8.56,-12.69],[-8.56,-12.62],[-8.5,-12.62],[-8.5,-12.56],[-8.44,-12.56],[-8.44,-12.5]],[[-8.38,-12.56],[-8.38,-12.62],[-8.5,-12.62],[-8.5,-12.69],[-8.56,-12.69],[-8.56,-12.94],[-8.5,-12.94],[-8.5,-13.0],[-8.38,-13.0],[-8.38,-12.94],[-8.31,-12.94],[-8.31,-12.88],[-8.25,-12.88],[-8.25,-12.81],[-8.19,-12.81],[-8.19,-12.75],[-8.12,-12.75],[-8.12,-12.56],[-8.38,-12.56]]]}},{"type":"Feature","properties":{"val":652.45,"field":"tp"},"geometry":{"type":"Polygon","coordinates":[[[-6.31,-12.25],[-6.19,-12.25],[-6.19,-12.31],[-6.12,-12.31],[-6.12,-12.81],[-6.19,-12.81],[-6.19,-12.94],[-6.25,-12.94],[-6.25,-13.06],[-6.31,-13.06],[-6.31,-13.12],[-6.38,-13.12],[-6.38,-13.25],[-6.62,-13.25],[-6.62,-13.31],[-6.69,-13.31],[-6.69,-13.38],[-6.75,-13.38],[-6.75,-13.44],[-6.81,-13.44],[-6.81,-13.5],[-6.88,-13.5],[-6.88,-13.62],[-7.19,-13.62],[-7.19,-13.56],[-7.31,-13.56],[-7.31,-13.5],[-7.38,-13.5],[-7.38,-13.44],[-7.44,-13.44],[-7.44,-13.38],[-7.5,-13.38],[-7.5,-13.31],[-7.56,-13.31],[-7.56,-13.25],[-7.62,-13.25],[-7.62,-13.19],[-7.69,-13.19],[-7.69,-13.12],[-7.75,-13.12],[-7.75,-13.0],[-7.81,-13.0],[-7.81,-12.62],[-7.75,-12.62],[-7.75,-12.5],[-7.62,-12.5],[-7.62,-12.56],[-7.44,-12.56],[-7.44,-12.5],[-7.31,-12.5],[-7.31,-12.44],[-7.19,-12.44],[-7.19,-12.38],[-7.06,-12.38],[-7.06,-12.31],[-7.0,-12.31],[-7.0,-12.38],[-7.06,-12.38],[-7.06,-12.44],[-7.19,-12.44],[-7.19,-12.5],[-7.31,-12.5],[-7.31,-12.56],[-7.44,-12.56],[-7.44,-12.62],[-7.62,-12.62],[-7.62,-12.69],[-7.69,-12.69],[-7.69,-12.81],[-7.75,-12.81],[-7.75,-13.0],[-7.69,-13.0],[-7.69,-13.12],[-7.62,-13.12],[-7.62,-13.19],[-7.56,-13.19],[-7.56,-13.25],[-7.5,-13.25],[-7.5,-13.31],[-7.44,-13.31],[-7.44,-13.38],[-7.38,-13.38],[-7.38,-13.44],[-7.31,-13.44],[-7.31,-13.5],[-7.12,-13.5],[-7.12,-13.56],[-7.0,-13.56],[-7.0,-13.5],[-6.88,-13.5],[-6.88,-13.44],[-6.81,-13.44],[-6.81,-13.38],[-6.75,-13.38],[-6.75,-13.31],[-6.69,-13.31],[-6.69,-13.25],[-6.62,-13.25],[-6.62,-13.19],[-6.44,-13.19],[-6.44,-13.12],[-6.38,-13.12],[-6.38,-13.06],[-6.31,-13.06],[-6.31,-12.94],[-6.25,-12.94],[-6.25,-12.81],[-6.19,-12.81],[-6.19,-12.38],[-6.38,-12.38],[-6.38,-12.44],[-6.44,-12.44],[-6.44,-12.5],[-6.5,-12.5],[-6.5,-12.56],[-6.56,-12.56],[-6.56,-12.62],[-6.75,-12.62],[-6.75,-12.56],[-6.81,-12.56],[-6.81,-12.5],[-6.88,-12.5],[-6.88,-12.44],[-6.94,-12.44],[-6.94,-12.38],[-6.88,-12.38],[-6.88,-12.44],[-6.81,-12.44],[-6.81,-12.5],[-6.75,-12.5],[-6.75,-12.56],[-6.56,-12.56],[-6.56,-12.5],[-6.5,-12.5],[-6.5,-12.44],[-6.44,-12.44],[-6.44,-12.38],[-6.38,-12.38],[-6.38,-12.31],[-6.31,-12.31],[-6.31,-12.25]]]}},{"type":"Feature","properties":{"val":652.45,"field":"tp"},"geometry":{"type":"Polygon","coordinates":[[[-12.25,-25.88],[-12.19,-25.88],[-12.19,-26.0],[-12.12,-26.0],[-12.12,-26.12],[-12.19,-26.12],[-12.19,-26.31],[-12.25,-26.31],[-12.25,-26.38],[-12.31,-26.38],[-12.31,-26.56],[-12.38,-26.56],[-12.38,-26.69],[-12.5,-26.69],[-12.5,-26.62],[-12.56,-26.62],[-12.56,-26.44],[-12.5,-26.44],[-12.5,-26.38],[-12.44,-26.38],[-12.44,-26.31],[-12.38,-26.31],[-12.38,-26.0],[-12.31,-26.0],[-12.31,-25.94],[-12.25,-25.94],[-12.25,-25.88]]]}},{"type":"Feature","properties":{"val":748.92,"field":"tp"},"geometry":{"type":"Polygon","coordinates":[[[-7.19,-12.44],[-7.19,-12.5],[-7.12,-12.5],[-7.12,-12.44],[-7.19,-12.44]]]}},{"type":"Feature","properties":{"val":748.92,"field":"tp"},"geometry":{"type":"Polygon","coordinates":[[[-7.31,-12.5],[-7.31,-12.56],[-7.25,-12.56],[-7.25,-12.5],[-7.31,-12.5]]]}},{"type":"Feature","properties":{"val":748.92,"field":"tp"},"geometry":{"type":"Polygon","coordinates":[[[-7.44,-12.56],[-7.44,-12.62],[-7.38,-12.62],[-7.38,-12.56],[-7.44,-12.56]]]}},{"type":"Feature","properties":{"val":748.92,"field":"tp"},"geometry":{"type":"Polygon","coordinates":[[[-8.38,-12.56],[-8.12,-12.56],[-8.12,-12.75],[-8.19,-12.75],[-8.19,-12.81],[-8.25,-12.81],[-8.25,-12.88],[-8.31,-12.88],[-8.31,-12.94],[-8.38,-12.94],[-8.38,-13.0],[-8.5,-13.0],[-8.5,-12.94],[-8.56,-12.94],[-8.56,-12.69],[-8.5,-12.69],[-8.5,-12.62],[-8.38,-12.62],[-8.38,-12.56]],[[-8.38,-12.69],[-8.38,-12.75],[-8.44,-12.75],[-8.44,-12.88],[-8.38,-12.88],[-8.38,-12.81],[-8.31,-12.81],[-8.31,-12.69],[-8.38,-12.69]]]}},{"type":"Feature","properties":{"val":748.92,"field":"tp"},"geometry":{"type":"Polygon","coordinates":[[[-7.62,-12.62],[-7.5,-12.62],[-7.5,-12.69],[-7.62,-12.69],[-7.62,-12.81],[-7.69,-12.81],[-7.69,-13.0],[-7.75,-13.0],[-7.75,-12.81],[-7.69,-12.81],[-7.69,-12.69],[-7.62,-12.69],[-7.62,-12.62]]]}},{"type":"Feature","properties":{"val":748.92,"field":"tp"},"geometry":{"type":"Polygon","coordinates":[[[-7.69,-13.06],[-7.69,-13.12],[-7.62,-13.12],[-7.62,-13.19],[-7.56,-13.19],[-7.56,-13.12],[-7.62,-13.12],[-7.62,-13.06],[-7.69,-13.06]]]}},{"type":"Feature","properties":{"val":748.92,"field":"tp"},"geometry":{"type":"Polygon","coordinates":[[[-7.44,-13.31],[-7.44,-13.38],[-7.38,-13.38],[-7.38,-13.44],[-7.31,-13.44],[-7.31,-13.5],[-7.19,-13.5],[-7.19,-13.44],[-7.31,-13.44],[-7.31,-13.38],[-7.38,-13.38],[-7.38,-13.31],[-7.44,-13.31]]]}},{"type":"Feature","properties":{"val":748.92,"field":"tp"},"geometry":{"type":"Polygon","coordinates":[[[-7.06,-12.38],[-7.06,-12.44],[-6.94,-12.44],[-6.94,-12.5],[-6.88,-12.5],[-6.88,-12.56],[-6.81,-12.56],[-6.81,-12.62],[-6.75,-12.62],[-6.75,-12.69],[-6.56,-12.69],[-6.56,-12.62],[-6.5,-12.62],[-6.5,-12.56],[-6.44,-12.56],[-6.44,-12.5],[-6.25,-12.5],[-6.25,-12.81],[-6.31,-12.81],[-6.31,-12.94],[-6.38,-12.94],[-6.38,-13.0],[-6.44,-13.0],[-6.44,-13.06],[-6.5,-13.06],[-6.5,-13.12],[-6.62,-13.12],[-6.62,-13.19],[-6.69,-13.19],[-6.69,-13.25],[-6.75,-13.25],[-6.75,-13.31],[-6.81,-13.31],[-6.81,-13.38],[-6.88,-13.38],[-6.88,-13.44],[-7.0,-13.44],[-7.0,-13.5],[-7.12,-13.5],[-7.12,-13.56],[-7.0,-13.56],[-7.0,-13.5],[-6.88,-13.5],[-6.88,-13.44],[-6.81,-13.44],[-6.81,-13.38],[-6.75,-13.38],[-6.75,-13.31],[-6.69,-13.31],[-6.69,-13.25],[-6.62,-13.25],[-6.62,-13.19],[-6.44,-13.19],[-6.44,-13.12],[-6.38,-13.12],[-6.38,-13.06],[-6.31,-13.06],[-6.31,-12.94],[-6.25,-12.94],[-6.25,-12.81],[-6.19,-12.81],[-6.19,-12.38],[-6.38,-12.38],[-6.38,-12.44],[-6.44,-12.44],[-6.44,-12.5],[-6.5,-12.5],[-6.5,-12.56],[-6.56,-12.56],[-6.56,-12.62],[-6.75,-12.62],[-6.75,-12.56],[-6.81,-12.56],[-6.81,-12.5],[-6.88,-12.5],[-6.88,-12.44],[-6.94,-12.44],[-6.94,-12.38],[-7.06,-12.38]]]}},{"type":"Feature","properties":{"val":845.39,"field":"tp"},"geometry":{"type":"Polygon","coordinates":[[[-7.12,-12.44],[-7.12,-12.5],[-6.94,-12.5],[-6.94,-12.44],[-7.12,-12.44]]]}},{"type":"Feature","properties":{"val":845.39,"field":"tp"},"geometry":{"type":"Polygon","coordinates":[[[-7.25,-12.5],[-7.25,-12.56],[-7.19,-12.56],[-7.19,-12.5],[-7.25,-12.5]]]}},{"type":"Feature","properties":{"val":845.39,"field":"tp"},"geometry":{"type":"Polygon","coordinates":[[[-7.38,-12.56],[-7.38,-12.62],[-7.31,-12.62],[-7.31,-12.56],[-7.38,-12.56]]]}},{"type":"Feature","properties":{"val":845.39,"field":"tp"},"geometry":{"type":"Polygon","coordinates":[[[-7.5,-12.62],[-7.5,-12.69],[-7.44,-12.69],[-7.44,-12.62],[-7.5,-12.62]]]}},{"type":"Feature","properties":{"val":845.39,"field":"tp"},"geometry":{"type":"Polygon","coordinates":[[[-8.38,-12.69],[-8.31,-12.69],[-8.31,-12.81],[-8.38,-12.81],[-8.38,-12.88],[-8.44,-12.88],[-8.44,-12.75],[-8.38,-12.75],[-8.38,-12.69]]]}},{"type":"Feature","properties":{"val":845.39,"field":"tp"},"geometry":{"type":"Polygon","coordinates":[[[-7.62,-12.69],[-7.62,-12.75],[-7.56,-12.75],[-7.56,-12.69],[-7.62,-12.69]]]}},{"type":"Feature","properties":{"val":845.39,"field":"tp"},"geometry":{"type":"Polygon","coordinates":[[[-7.69,-12.81],[-7.69,-13.06],[-7.62,-13.06],[-7.62,-13.12],[-7.56,-13.12],[-7.56,-13.06],[-7.62,-13.06],[-7.62,-12.81],[-7.69,-12.81]]]}},{"type":"Feature","properties":{"val":845.39,"field":"tp"},"geometry":{"type":"Polygon","coordinates":[[[-6.44,-12.5],[-6.25,-12.5],[-6.25,-12.81],[-6.31,-12.81],[-6.31,-12.94],[-6.38,-12.94],[-6.38,-13.0],[-6.44,-13.0],[-6.44,-13.06],[-6.5,-13.06],[-6.5,-13.12],[-6.62,-13.12],[-6.62,-13.19],[-6.69,-13.19],[-6.69,-13.25],[-6.75,-13.25],[-6.75,-13.31],[-6.81,-13.31],[-6.81,-13.38],[-6.88,-13.38],[-6.88,-13.44],[-6.94,-13.44],[-6.94,-13.38],[-6.88,-13.38],[-6.88,-13.31],[-6.81,-13.31],[-6.81,-13.25],[-6.75,-13.25],[-6.75,-13.19],[-6.69,-13.19],[-6.69,-13.12],[-6.62,-13.12],[-6.62,-13.06],[-6.5,-13.06],[-6.5,-13.0],[-6.44,-13.0],[-6.44,-12.94],[-6.38,-12.94],[-6.38,-12.81],[-6.31,-12.81],[-6.31,-12.62],[-6.5,-12.62],[-6.5,-12.69],[-6.56,-12.69],[-6.56,-12.75],[-6.75,-12.75],[-6.75,-12.69],[-6.81,-12.69],[-6.81,-12.62],[-6.75,-12.62],[-6.75,-12.69],[-6.56,-12.69],[-6.56,-12.62],[-6.5,-12.62],[-6.5,-12.56],[-6.44,-12.56],[-6.44,-12.5]]]}},{"type":"Feature","properties":{"val":845.39,"field":"tp"},"geometry":{"type":"Polygon","coordinates":[[[-7.56,-13.19],[-7.56,-13.25],[-7.5,-13.25],[-7.5,-13.31],[-7.44,-13.31],[-7.44,-13.25],[-7.5,-13.25],[-7.5,-13.19],[-7.56,-13.19]]]}},{"type":"Feature","properties":{"val":845.39,"field":"tp"},"geometry":{"type":"Polygon","coordinates":[[[-7.31,-13.38],[-7.31,-13.44],[-7.25,-13.44],[-7.25,-13.38],[-7.31,-13.38]]]}},{"type":"Feature","properties":{"val":845.39,"field":"tp"},"geometry":{"type":"Polygon","coordinates":[[[-7.19,-13.44],[-7.19,-13.5],[-7.0,-13.5],[-7.0,-13.44],[-7.19,-13.44]]]}},{"type":"Feature","properties":{"val":941.86,"field":"tp"},"geometry":{"type":"Polygon","coordinates":[[[-6.94,-12.5],[-6.94,-12.56],[-6.88,-12.56],[-6.88,-12.62],[-6.81,-12.62],[-6.81,-12.56],[-6.88,-12.56],[-6.88,-12.5],[-6.94,-12.5]]]}},{"type":"Feature","properties":{"val":941.86,"field":"tp"},"geometry":{"type":"Polygon","coordinates":[[[-7.19,-12.5],[-7.06,-12.5],[-7.06,-12.56],[-7.19,-12.56],[-7.19,-12.62],[-7.31,-12.62],[-7.31,-12.56],[-7.19,-12.56],[-7.19,-12.5]]]}},{"type":"Feature","properties":{"val":941.86,"field":"tp"},"geometry":{"type":"Polygon","coordinates":[[[-7.44,-12.62],[-7.44,-12.69],[-7.38,-12.69],[-7.38,-12.62],[-7.44,-12.62]]]}},{"type":"Feature","properties":{"val":941.86,"field":"tp"},"geometry":{"type":"Polygon","coordinates":[[[-7.56,-12.69],[-7.5,-12.69],[-7.5,-12.75],[-7.56,-12.75],[-7.56,-12.88],[-7.62,-12.88],[-7.62,-12.75],[-7.56,-12.75],[-7.56,-12.69]]]}},{"type":"Feature","properties":{"val":941.86,"field":"tp"},"geometry":{"type":"Polygon","coordinates":[[[-7.62,-13.0],[-7.62,-13.06],[-7.56,-13.06],[-7.56,-13.0],[-7.62,-13.0]]]}},{"type":"Feature","properties":{"val":941.86,"field":"tp"},"geometry":{"type":"Polygon","coordinates":[[[-6.5,-12.62],[-6.31,-12.62],[-6.31,-12.81],[-6.38,-12.81],[-6.38,-12.94],[-6.44,-12.94],[-6.44,-13.0],[-6.5,-13.0],[-6.5,-13.06],[-6.62,-13.06],[-6.62,-13.12],[-6.69,-13.12],[-6.69,-13.19],[-6.75,-13.19],[-6.75,-13.12],[-6.69,-13.12],[-6.69,-13.06],[-6.62,-13.06],[-6.62,-12.94],[-6.5,-12.94],[-6.5,-12.88],[-6.44,-12.88],[-6.44,-12.75],[-6.5,-12.75],[-6.5,-12.81],[-6.69,-12.81],[-6.69,-12.75],[-6.56,-12.75],[-6.56,-12.69],[-6.5,-12.69],[-6.5,-12.62]]]}},{"type":"Feature","properties":{"val":941.86,"field":"tp"},"geometry":{"type":"Polygon","coordinates":[[[-7.56,-13.12],[-7.56,-13.19],[-7.5,-13.19],[-7.5,-13.12],[-7.56,-13.12]]]}},{"type":"Feature","properties":{"val":941.86,"field":"tp"},"geometry":{"type":"Polygon","coordinates":[[[-7.38,-13.31],[-7.38,-13.38],[-7.31,-13.38],[-7.31,-13.31],[-7.38,-13.31]]]}},{"type":"Feature","properties":{"val":941.86,"field":"tp"},"geometry":{"type":"Polygon","coordinates":[[[-7.25,-13.38],[-7.25,-13.44],[-7.12,-13.44],[-7.12,-13.38],[-7.25,-13.38]]]}},{"type":"Feature","properties":{"val":941.86,"field":"tp"},"geometry":{"type":"Polygon","coordinates":[[[-6.94,-13.31],[-6.88,-13.31],[-6.88,-13.38],[-6.94,-13.38],[-6.94,-13.44],[-7.06,-13.44],[-7.06,-13.38],[-6.94,-13.38],[-6.94,-13.31]]]}},{"type":"Feature","properties":{"val":1038.33,"field":"tp"},"geometry":{"type":"Polygon","coordinates":[[[-7.06,-12.5],[-7.06,-12.56],[-6.94,-12.56],[-6.94,-12.62],[-6.88,-12.62],[-6.88,-12.69],[-6.81,-12.69],[-6.81,-12.75],[-6.75,-12.75],[-6.75,-12.81],[-6.69,-12.81],[-6.69,-13.06],[-6.62,-13.06],[-6.62,-12.94],[-6.5,-12.94],[-6.5,-12.88],[-6.44,-12.88],[-6.44,-12.75],[-6.5,-12.75],[-6.5,-12.81],[-6.69,-12.81],[-6.69,-12.75],[-6.75,-12.75],[-6.75,-12.69],[-6.81,-12.69],[-6.81,-12.62],[-6.88,-12.62],[-6.88,-12.56],[-6.94,-12.56],[-6.94,-12.5],[-7.06,-12.5]]]}},{"type":"Feature","properties":{"val":1038.33,"field":"tp"},"geometry":{"type":"Polygon","coordinates":[[[-7.19,-12.56],[-7.19,-12.62],[-7.12,-12.62],[-7.12,-12.56],[-7.19,-12.56]]]}},{"type":"Feature","properties":{"val":1038.33,"field":"tp"},"geometry":{"type":"Polygon","coordinates":[[[-7.38,-12.62],[-7.38,-12.69],[-7.31,-12.69],[-7.31,-12.62],[-7.38,-12.62]]]}},{"type":"Feature","properties":{"val":1038.33,"field":"tp"},"geometry":{"type":"Polygon","coordinates":[[[-7.5,-12.69],[-7.44,-12.69],[-7.44,-12.75],[-7.5,-12.75],[-7.5,-12.81],[-7.56,-12.81],[-7.56,-12.75],[-7.5,-12.75],[-7.5,-12.69]]]}},{"type":"Feature","properties":{"val":1038.33,"field":"tp"},"geometry":{"type":"Polygon","coordinates":[[[-7.62,-12.88],[-7.62,-13.0],[-7.56,-13.0],[-7.56,-12.88],[-7.62,-12.88]]]}},{"type":"Feature","properties":{"val":1038.33,"field":"tp"},"geometry":{"type":"Polygon","coordinates":[[[-7.56,-13.06],[-7.56,-13.12],[-7.5,-13.12],[-7.5,-13.06],[-7.56,-13.06]]]}},{"type":"Feature","properties":{"val":1038.33,"field":"tp"},"geometry":{"type":"Polygon","coordinates":[[[-7.5,-13.19],[-7.5,-13.25],[-7.44,-13.25],[-7.44,-13.31],[-7.38,-13.31],[-7.38,-13.25],[-7.44,-13.25],[-7.44,-13.19],[-7.5,-13.19]]]}},{"type":"Feature","properties":{"val":1038.33,"field":"tp"},"geometry":{"type":"Polygon","coordinates":[[[-6.81,-13.19],[-6.75,-13.19],[-6.75,-13.25],[-6.81,-13.25],[-6.81,-13.31],[-6.88,-13.31],[-6.88,-13.25],[-6.81,-13.25],[-6.81,-13.19]]]}},{"type":"Feature","properties":{"val":1038.33,"field":"tp"},"geometry":{"type":"Polygon","coordinates":[[[-7.31,-13.31],[-7.31,-13.38],[-7.25,-13.38],[-7.25,-13.31],[-7.31,-13.31]]]}},{"type":"Feature","properties":{"val":1038.33,"field":"tp"},"geometry":{"type":"Polygon","coordinates":[[[-7.12,-13.38],[-7.12,-13.44],[-7.06,-13.44],[-7.06,-13.38],[-7.12,-13.38]]]}},{"type":"Feature","properties":{"val":1134.81,"field":"tp"},"geometry":{"type":"Polygon","coordinates":[[[-7.12,-12.56],[-7.12,-12.62],[-7.06,-12.62],[-7.06,-12.56],[-7.12,-12.56]]]}},{"type":"Feature","properties":{"val":1134.81,"field":"tp"},"geometry":{"type":"Polygon","coordinates":[[[-7.0,-12.56],[-7.0,-12.62],[-6.94,-12.62],[-6.94,-12.56],[-7.0,-12.56]]]}},{"type":"Feature","properties":{"val":1134.81,"field":"tp"},"geometry":{"type":"Polygon","coordinates":[[[-7.31,-12.62],[-7.31,-12.69],[-7.25,-12.69],[-7.25,-12.62],[-7.31,-12.62]]]}},{"type":"Feature","properties":{"val":1134.81,"field":"tp"},"geometry":{"type":"Polygon","coordinates":[[[-7.44,-12.69],[-7.38,-12.69],[-7.38,-12.75],[-7.44,-12.75],[-7.44,-12.81],[-7.5,-12.81],[-7.5,-12.88],[-7.56,-12.88],[-7.56,-12.81],[-7.5,-12.81],[-7.5,-12.75],[-7.44,-12.75],[-7.44,-12.69]]]}},{"type":"Feature","properties":{"val":1134.81,"field":"tp"},"geometry":{"type":"Polygon","coordinates":[[[-6.81,-12.75],[-6.81,-12.81],[-6.75,-12.81],[-6.75,-12.94],[-6.69,-12.94],[-6.69,-12.81],[-6.75,-12.81],[-6.75,-12.75],[-6.81,-12.75]]]}},{"type":"Feature","properties":{"val":1134.81,"field":"tp"},"geometry":{"type":"Polygon","coordinates":[[[-7.56,-13.0],[-7.56,-13.06],[-7.5,-13.06],[-7.5,-13.0],[-7.56,-13.0]]]}},{"type":"Feature","properties":{"val":1134.81,"field":"tp"},"geometry":{"type":"Polygon","coordinates":[[[-6.75,-13.0],[-6.75,-13.12],[-6.69,-13.12],[-6.69,-13.0],[-6.75,-13.0]]]}},{"type":"Feature","properties":{"val":1134.81,"field":"tp"},"geometry":{"type":"Polygon","coordinates":[[[-7.5,-13.12],[-7.5,-13.19],[-7.44,-13.19],[-7.44,-13.12],[-7.5,-13.12]]]}},{"type":"Feature","properties":{"val":1134.81,"field":"tp"},"geometry":{"type":"Polygon","coordinates":[[[-7.0,-13.31],[-7.0,-13.38],[-6.94,-13.38],[-6.94,-13.31],[-7.0,-13.31]]]}},{"type":"Feature","properties":{"val":1231.28,"field":"tp"},"geometry":{"type":"Polygon","coordinates":[[[-7.06,-12.56],[-7.06,-12.62],[-7.0,-12.62],[-7.0,-12.56],[-7.06,-12.56]]]}},{"type":"Feature","properties":{"val":1231.28,"field":"tp"},"geometry":{"type":"Polygon","coordinates":[[[-7.25,-12.62],[-7.25,-12.69],[-7.19,-12.69],[-7.19,-12.62],[-7.25,-12.62]]]}},{"type":"Feature","properties":{"val":1231.28,"field":"tp"},"geometry":{"type":"Polygon","coordinates":[[[-6.94,-12.62],[-6.94,-12.69],[-6.88,-12.69],[-6.88,-12.75],[-6.81,-12.75],[-6.81,-12.69],[-6.88,-12.69],[-6.88,-12.62],[-6.94,-12.62]]]}},{"type":"Feature","properties":{"val":1231.28,"field":"tp"},"geometry":{"type":"Polygon","coordinates":[[[-7.38,-12.69],[-7.38,-12.75],[-7.31,-12.75],[-7.31,-12.69],[-7.38,-12.69]]]}},{"type":"Feature","properties":{"val":1231.28,"field":"tp"},"geometry":{"type":"Polygon","coordinates":[[[-7.56,-12.88],[-7.56,-13.0],[-7.5,-13.0],[-7.5,-12.88],[-7.56,-12.88]]]}},{"type":"Feature","properties":{"val":1231.28,"field":"tp"},"geometry":{"type":"Polygon","coordinates":[[[-6.75,-12.94],[-6.75,-13.0],[-6.69,-13.0],[-6.69,-12.94],[-6.75,-12.94]]]}},{"type":"Feature","properties":{"val":1231.28,"field":"tp"},"geometry":{"type":"Polygon","coordinates":[[[-6.81,-13.12],[-6.75,-13.12],[-6.75,-13.19],[-6.81,-13.19],[-6.81,-13.25],[-6.88,-13.25],[-6.88,-13.31],[-6.94,-13.31],[-6.94,-13.25],[-6.88,-13.25],[-6.88,-13.19],[-6.81,-13.19],[-6.81,-13.12]]]}},{"type":"Feature","properties":{"val":1231.28,"field":"tp"},"geometry":{"type":"Polygon","coordinates":[[[-7.44,-13.19],[-7.44,-13.25],[-7.38,-13.25],[-7.38,-13.31],[-7.31,-13.31],[-7.31,-13.25],[-7.38,-13.25],[-7.38,-13.19],[-7.44,-13.19]]]}},{"type":"Feature","properties":{"val":1231.28,"field":"tp"},"geometry":{"type":"Polygon","coordinates":[[[-7.25,-13.31],[-7.25,-13.38],[-7.0,-13.38],[-7.0,-13.31],[-7.25,-13.31]]]}},{"type":"Feature","properties":{"val":1327.75,"field":"tp"},"geometry":{"type":"Polygon","coordinates":[[[-7.19,-12.62],[-7.19,-12.69],[-7.06,-12.69],[-7.06,-12.62],[-7.19,-12.62]]]}},{"type":"Feature","properties":{"val":1327.75,"field":"tp"},"geometry":{"type":"Polygon","coordinates":[[[-7.0,-12.62],[-7.0,-12.69],[-6.94,-12.69],[-6.94,-12.62],[-7.0,-12.62]]]}},{"type":"Feature","properties":{"val":1327.75,"field":"tp"},"geometry":{"type":"Polygon","coordinates":[[[-7.31,-12.69],[-7.31,-12.75],[-7.25,-12.75],[-7.25,-12.69],[-7.31,-12.69]]]}},{"type":"Feature","properties":{"val":1327.75,"field":"tp"},"geometry":{"type":"Polygon","coordinates":[[[-7.44,-12.75],[-7.38,-12.75],[-7.38,-12.81],[-7.44,-12.81],[-7.44,-12.88],[-7.5,-12.88],[-7.5,-12.81],[-7.44,-12.81],[-7.44,-12.75]]]}},{"type":"Feature","properties":{"val":1327.75,"field":"tp"},"geometry":{"type":"Polygon","coordinates":[[[-6.88,-12.75],[-6.88,-12.81],[-6.81,-12.81],[-6.81,-12.94],[-6.75,-12.94],[-6.75,-12.81],[-6.81,-12.81],[-6.81,-12.75],[-6.88,-12.75]]]}},{"type":"Feature","properties":{"val":1327.75,"field":"tp"},"geometry":{"type":"Polygon","coordinates":[[[-7.5,-13.06],[-7.5,-13.12],[-7.44,-13.12],[-7.44,-13.06],[-7.5,-13.06]]]}},{"type":"Feature","properties":{"val":1327.75,"field":"tp"},"geometry":{"type":"Polygon","coordinates":[[[-6.81,-13.06],[-6.81,-13.12],[-6.75,-13.12],[-6.75,-13.06],[-6.81,-13.06]]]}},{"type":"Feature","properties":{"val":1327.75,"field":"tp"},"geometry":{"type":"Polygon","coordinates":[[[-7.31,-13.25],[-7.31,-13.31],[-7.25,-13.31],[-7.25,-13.25],[-7.31,-13.25]]]}},{"type":"Feature","properties":{"val":1327.75,"field":"tp"},"geometry":{"type":"Polygon","coordinates":[[[-7.0,-13.25],[-7.0,-13.31],[-6.94,-13.31],[-6.94,-13.25],[-7.0,-13.25]]]}},{"type":"Feature","properties":{"val":1424.22,"field":"tp"},"geometry":{"type":"Polygon","coordinates":[[[-7.06,-12.62],[-7.06,-12.69],[-7.0,-12.69],[-7.0,-12.62],[-7.06,-12.62]]]}},{"type":"Feature","properties":{"val":1424.22,"field":"tp"},"geometry":{"type":"Polygon","coordinates":[[[-7.25,-12.69],[-7.25,-12.75],[-7.19,-12.75],[-7.19,-12.69],[-7.25,-12.69]]]}},{"type":"Feature","properties":{"val":1424.22,"field":"tp"},"geometry":{"type":"Polygon","coordinates":[[[-6.94,-12.69],[-6.94,-12.75],[-6.88,-12.75],[-6.88,-12.69],[-6.94,-12.69]]]}},{"type":"Feature","properties":{"val":1424.22,"field":"tp"},"geometry":{"type":"Polygon","coordinates":[[[-7.38,-12.75],[-7.38,-12.81],[-7.31,-12.81],[-7.31,-12.75],[-7.38,-12.75]]]}},{"type":"Feature","properties":{"val":1424.22,"field":"tp"},"geometry":{"type":"Polygon","coordinates":[[[-7.5,-12.88],[-7.5,-13.06],[-7.44,-13.06],[-7.44,-12.88],[-7.5,-12.88]]]}},{"type":"Feature","properties":{"val":1424.22,"field":"tp"},"geometry":{"type":"Polygon","coordinates":[[[-6.81,-12.94],[-6.81,-13.06],[-6.75,-13.06],[-6.75,-12.94],[-6.81,-12.94]]]}},{"type":"Feature","properties":{"val":1424.22,"field":"tp"},"geometry":{"type":"Polygon","coordinates":[[[-7.44,-13.12],[-7.44,-13.19],[-7.38,-13.19],[-7.38,-13.25],[-7.31,-13.25],[-7.31,-13.19],[-7.38,-13.19],[-7.38,-13.12],[-7.44,-13.12]]]}},{"type":"Feature","properties":{"val":1424.22,"field":"tp"},"geometry":{"type":"Polygon","coordinates":[[[-6.88,-13.12],[-6.81,-13.12],[-6.81,-13.19],[-6.88,-13.19],[-6.88,-13.25],[-6.94,-13.25],[-6.94,-13.19],[-6.88,-13.19],[-6.88,-13.12]]]}},{"type":"Feature","properties":{"val":1520.69,"field":"tp"},"geometry":{"type":"Polygon","coordinates":[[[-7.19,-12.69],[-7.19,-12.75],[-7.12,-12.75],[-7.12,-12.69],[-7.19,-12.69]]]}},{"type":"Feature","properties":{"val":1520.69,"field":"tp"},"geometry":{"type":"Polygon","coordinates":[[[-7.0,-12.69],[-7.0,-12.75],[-6.94,-12.75],[-6.94,-12.81],[-6.88,-12.81],[-6.88,-12.88],[-6.81,-12.88],[-6.81,-12.81],[-6.88,-12.81],[-6.88,-12.75],[-6.94,-12.75],[-6.94,-12.69],[-7.0,-12.69]]]}},{"type":"Feature","properties":{"val":1520.69,"field":"tp"},"geometry":{"type":"Polygon","coordinates":[[[-7.31,-12.75],[-7.31,-12.81],[-7.25,-12.81],[-7.25,-12.75],[-7.31,-12.75]]]}},{"type":"Feature","properties":{"val":1520.69,"field":"tp"},"geometry":{"type":"Polygon","coordinates":[[[-7.44,-12.81],[-7.44,-12.88],[-7.38,-12.88],[-7.38,-12.81],[-7.44,-12.81]]]}},{"type":"Feature","properties":{"val":1520.69,"field":"tp"},"geometry":{"type":"Polygon","coordinates":[[[-7.25,-13.25],[-7.25,-13.31],[-7.0,-13.31],[-7.0,-13.25],[-7.25,-13.25]]]}},{"type":"Feature","properties":{"val":1617.16,"field":"tp"},"geometry":{"type":"Polygon","coordinates":[[[-7.12,-12.69],[-7.12,-12.75],[-7.0,-12.75],[-7.0,-12.69],[-7.12,-12.69]]]}},{"type":"Feature","properties":{"val":1617.16,"field":"tp"},"geometry":{"type":"Polygon","coordinates":[[[-7.38,-12.81],[-7.31,-12.81],[-7.31,-12.88],[-7.38,-12.88],[-7.38,-12.94],[-7.44,-12.94],[-7.44,-12.88],[-7.38,-12.88],[-7.38,-12.81]]]}},{"type":"Feature","properties":{"val":1617.16,"field":"tp"},"geometry":{"type":"Polygon","coordinates":[[[-6.88,-12.88],[-6.88,-13.0],[-6.81,-13.0],[-6.81,-12.88],[-6.88,-12.88]]]}},{"type":"Feature","properties":{"val":1617.16,"field":"tp"},"geometry":{"type":"Polygon","coordinates":[[[-7.44,-13.0],[-7.44,-13.12],[-7.38,-13.12],[-7.38,-13.0],[-7.44,-13.0]]]}},{"type":"Feature","properties":{"val":1617.16,"field":"tp"},"geometry":{"type":"Polygon","coordinates":[[[-6.88,-13.06],[-6.88,-13.12],[-6.81,-13.12],[-6.81,-13.06],[-6.88,-13.06]]]}},{"type":"Feature","properties":{"val":1617.16,"field":"tp"},"geometry":{"type":"Polygon","coordinates":[[[-7.31,-13.19],[-7.31,-13.25],[-7.25,-13.25],[-7.25,-13.19],[-7.31,-13.19]]]}},{"type":"Feature","properties":{"val":1713.63,"field":"tp"},"geometry":{"type":"Polygon","coordinates":[[[-7.25,-12.75],[-7.25,-12.81],[-7.12,-12.81],[-7.12,-12.75],[-7.25,-12.75]]]}},{"type":"Feature","properties":{"val":1713.63,"field":"tp"},"geometry":{"type":"Polygon","coordinates":[[[-7.0,-12.75],[-7.0,-12.81],[-6.94,-12.81],[-6.94,-12.88],[-6.88,-12.88],[-6.88,-12.81],[-6.94,-12.81],[-6.94,-12.75],[-7.0,-12.75]]]}},{"type":"Feature","properties":{"val":1713.63,"field":"tp"},"geometry":{"type":"Polygon","coordinates":[[[-7.44,-12.94],[-7.44,-13.0],[-7.38,-13.0],[-7.38,-12.94],[-7.44,-12.94]]]}},{"type":"Feature","properties":{"val":1713.63,"field":"tp"},"geometry":{"type":"Polygon","coordinates":[[[-6.88,-13.0],[-6.88,-13.06],[-6.81,-13.06],[-6.81,-13.0],[-6.88,-13.0]]]}},{"type":"Feature","properties":{"val":1713.63,"field":"tp"},"geometry":{"type":"Polygon","coordinates":[[[-7.38,-13.12],[-7.38,-13.19],[-7.31,-13.19],[-7.31,-13.12],[-7.38,-13.12]]]}},{"type":"Feature","properties":{"val":1713.63,"field":"tp"},"geometry":{"type":"Polygon","coordinates":[[[-6.94,-13.12],[-6.88,-13.12],[-6.88,-13.19],[-6.94,-13.19],[-6.94,-13.25],[-7.0,-13.25],[-7.0,-13.19],[-6.94,-13.19],[-6.94,-13.12]]]}},{"type":"Feature","properties":{"val":1810.1,"field":"tp"},"geometry":{"type":"Polygon","coordinates":[[[-7.12,-12.75],[-7.12,-12.81],[-7.0,-12.81],[-7.0,-12.75],[-7.12,-12.75]]]}},{"type":"Feature","properties":{"val":1810.1,"field":"tp"},"geometry":{"type":"Polygon","coordinates":[[[-7.31,-12.81],[-7.25,-12.81],[-7.25,-12.88],[-7.31,-12.88],[-7.31,-12.94],[-7.38,-12.94],[-7.38,-12.88],[-7.31,-12.88],[-7.31,-12.81]]]}},{"type":"Feature","properties":{"val":1810.1,"field":"tp"},"geometry":{"type":"Polygon","coordinates":[[[-6.94,-12.88],[-6.94,-12.94],[-6.88,-12.94],[-6.88,-12.88],[-6.94,-12.88]]]}},{"type":"Feature","properties":{"val":1810.1,"field":"tp"},"geometry":{"type":"Polygon","coordinates":[[[-7.38,-13.06],[-7.38,-13.12],[-7.31,-13.12],[-7.31,-13.06],[-7.38,-13.06]]]}},{"type":"Feature","properties":{"val":1810.1,"field":"tp"},"geometry":{"type":"Polygon","coordinates":[[[-7.25,-13.19],[-7.25,-13.25],[-7.19,-13.25],[-7.19,-13.19],[-7.25,-13.19]]]}},{"type":"Feature","properties":{"val":1810.1,"field":"tp"},"geometry":{"type":"Polygon","coordinates":[[[-7.06,-13.19],[-7.06,-13.25],[-7.0,-13.25],[-7.0,-13.19],[-7.06,-13.19]]]}},{"type":"Feature","properties":{"val":1906.57,"field":"tp"},"geometry":{"type":"Polygon","coordinates":[[[-7.25,-12.81],[-7.25,-12.88],[-7.19,-12.88],[-7.19,-12.81],[-7.25,-12.81]]]}},{"type":"Feature","properties":{"val":1906.57,"field":"tp"},"geometry":{"type":"Polygon","coordinates":[[[-7.0,-12.81],[-7.0,-12.88],[-6.94,-12.88],[-6.94,-12.81],[-7.0,-12.81]]]}},{"type":"Feature","properties":{"val":1906.57,"field":"tp"},"geometry":{"type":"Polygon","coordinates":[[[-7.38,-12.94],[-7.38,-13.06],[-7.31,-13.06],[-7.31,-12.94],[-7.38,-12.94]]]}},{"type":"Feature","properties":{"val":1906.57,"field":"tp"},"geometry":{"type":"Polygon","coordinates":[[[-6.94,-12.94],[-6.88,-12.94],[-6.88,-13.12],[-6.94,-13.12],[-6.94,-13.19],[-7.0,-13.19],[-7.0,-13.12],[-6.94,-13.12],[-6.94,-12.94]]]}},{"type":"Feature","properties":{"val":1906.57,"field":"tp"},"geometry":{"type":"Polygon","coordinates":[[[-7.31,-13.12],[-7.31,-13.19],[-7.25,-13.19],[-7.25,-13.12],[-7.31,-13.12]]]}},{"type":"Feature","properties":{"val":1906.57,"field":"tp"},"geometry":{"type":"Polygon","coordinates":[[[-7.19,-13.19],[-7.19,-13.25],[-7.06,-13.25],[-7.06,-13.19],[-7.19,-13.19]]]}},{"type":"Feature","properties":{"val":2003.05,"field":"tp"},"geometry":{"type":"Polygon","coordinates":[[[-7.19,-12.81],[-7.19,-12.88],[-7.0,-12.88],[-7.0,-12.94],[-6.94,-12.94],[-6.94,-12.88],[-7.0,-12.88],[-7.0,-12.81],[-7.19,-12.81]]]}},{"type":"Feature","properties":{"val":2003.05,"field":"tp"},"geometry":{"type":"Polygon","coordinates":[[[-7.31,-12.88],[-7.31,-12.94],[-7.25,-12.94],[-7.25,-12.88],[-7.31,-12.88]]]}},{"type":"Feature","properties":{"val":2099.52,"field":"tp"},"geometry":{"type":"Polygon","coordinates":[[[-7.25,-12.88],[-7.19,-12.88],[-7.19,-12.94],[-7.25,-12.94],[-7.25,-13.0],[-7.31,-13.0],[-7.31,-12.94],[-7.25,-12.94],[-7.25,-12.88]]]}},{"type":"Feature","properties":{"val":2099.52,"field":"tp"},"geometry":{"type":"Polygon","coordinates":[[[-7.0,-12.94],[-7.0,-13.0],[-6.94,-13.0],[-6.94,-12.94],[-7.0,-12.94]]]}},{"type":"Feature","properties":{"val":2099.52,"field":"tp"},"geometry":{"type":"Polygon","coordinates":[[[-7.31,-13.06],[-7.31,-13.12],[-7.25,-13.12],[-7.25,-13.19],[-7.19,-13.19],[-7.19,-13.12],[-7.25,-13.12],[-7.25,-13.06],[-7.31,-13.06]]]}},{"type":"Feature","properties":{"val":2099.52,"field":"tp"},"geometry":{"type":"Polygon","coordinates":[[[-7.0,-13.06],[-6.94,-13.06],[-6.94,-13.12],[-7.0,-13.12],[-7.0,-13.19],[-7.06,-13.19],[-7.06,-13.12],[-7.0,-13.12],[-7.0,-13.06]]]}},{"type":"Feature","properties":{"val":2195.99,"field":"tp"},"geometry":{"type":"Polygon","coordinates":[[[-7.19,-12.88],[-7.19,-12.94],[-7.0,-12.94],[-7.0,-12.88],[-7.19,-12.88]]]}},{"type":"Feature","properties":{"val":2195.99,"field":"tp"},"geometry":{"type":"Polygon","coordinates":[[[-7.31,-13.0],[-7.31,-13.06],[-7.25,-13.06],[-7.25,-13.0],[-7.31,-13.0]]]}},{"type":"Feature","properties":{"val":2195.99,"field":"tp"},"geometry":{"type":"Polygon","coordinates":[[[-7.0,-13.0],[-7.0,-13.06],[-6.94,-13.06],[-6.94,-13.0],[-7.0,-13.0]]]}},{"type":"Feature","properties":{"val":2195.99,"field":"tp"},"geometry":{"type":"Polygon","coordinates":[[[-7.19,-13.12],[-7.19,-13.19],[-7.06,-13.19],[-7.06,-13.12],[-7.19,-13.12]]]}},{"type":"Feature","properties":{"val":2292.46,"field":"tp"},"geometry":{"type":"Polygon","coordinates":[[[-7.25,-12.94],[-7.25,-13.0],[-7.19,-13.0],[-7.19,-12.94],[-7.25,-12.94]]]}},{"type":"Feature","properties":{"val":2292.46,"field":"tp"},"geometry":{"type":"Polygon","coordinates":[[[-7.06,-12.94],[-7.06,-13.0],[-7.0,-13.0],[-7.0,-12.94],[-7.06,-12.94]]]}},{"type":"Feature","properties":{"val":2292.46,"field":"tp"},"geometry":{"type":"Polygon","coordinates":[[[-7.25,-13.06],[-7.25,-13.12],[-7.19,-13.12],[-7.19,-13.06],[-7.25,-13.06]]]}},{"type":"Feature","properties":{"val":2292.46,"field":"tp"},"geometry":{"type":"Polygon","coordinates":[[[-7.06,-13.06],[-7.06,-13.12],[-7.0,-13.12],[-7.0,-13.06],[-7.06,-13.06]]]}},{"type":"Feature","properties":{"val":2388.93,"field":"tp"},"geometry":{"type":"Polygon","coordinates":[[[-7.19,-12.94],[-7.06,-12.94],[-7.06,-13.0],[-7.0,-13.0],[-7.0,-13.06],[-7.06,-13.06],[-7.06,-13.12],[-7.19,-13.12],[-7.19,-13.06],[-7.25,-13.06],[-7.25,-13.0],[-7.19,-13.0],[-7.19,-12.94]]]}}]}