{"type":"FeatureCollection","features":[{"type":"Feature","properties":{"val":241.52,"field":"tp"},"geometry":{"type":"Polygon","coordinates":[[[-2.0,-7.56],[-2.0,-7.69],[-1.81,-7.69],[-1.81,-7.62],[-1.94,-7.62],[-1.94,-7.56],[-2.0,-7.56]]]}},{"type":"Feature","properties":{"val":241.52,"field":"tp"},"geometry":{"type":"Polygon","coordinates":[[[-1.81,-8.31],[-1.56,-8.31],[-1.56,-8.38],[-1.62,-8.38],[-1.62,-8.5],[-1.69,-8.5],[-1.69,-8.56],[-1.75,-8.56],[-1.75,-8.62],[-2.12,-8.62],[-2.12,-8.56],[-2.31,-8.56],[-2.31,-8.5],[-2.25,-8.5],[-2.25,-8.44],[-2.12,-8.44],[-2.12,-8.38],[-1.81,-8.38],[-1.81,-8.31]]]}},{"type":"Feature","properties":{"val":241.52,"field":"tp"},"geometry":{"type":"Polygon","coordinates":[[[-11.31,-10.38],[-10.62,-10.38],[-10.62,-10.44],[-10.5,-10.44],[-10.5,-10.62],[-10.44,-10.62],[-10.44,-10.88],[-10.38,-10.88],[-10.38,-10.94],[-10.31,-10.94],[-10.31,-11.19],[-10.38,-11.19],[-10.38,-11.25],[-10.44,-11.25],[-10.44,-11.31],[-10.5,-11.31],[-10.5,-11.38],[-10.75,-11.38],[-10.75,-11.31],[-10.94,-11.31],[-10.94,-11.25],[-11.06,-11.25],[-11.06,-11.19],[-11.19,-11.19],[-11.19,-11.12],[-11.31,-11.12],[-11.31,-11.06],[-11.44,-11.06],[-11.44,-11.0],[-11.5,-11.0],[-11.5,-10.88],[-11.56,-10.88],[-11.56,-10.75],[-11.62,-10.75],[-11.62,-10.56],[-11.56,-10.56],[-11.56,-10.5],[-11.5,-10.5],[-11.5,-10.44],[-11.31,-10.44],[-11.31,-10.38]],[[-11.19,-10.44],[-11.19,-10.5],[-11.31,-10.5],[-11.31,-10.56],[-11.38,-10.56],[-11.38,-10.62],[-11.44,-10.62],[-11.44,-10.75],[-11.38,-10.75],[-11.38,-10.81],[-11.31,-10.81],[-11.31,-10.94],[-11.19,-10.94],[-11.19,-11.0],[-10.94,-11.0],[-10.94,-11.06],[-10.81,-11.06],[-10.81,-11.12],[-10.69,-11.12],[-10.69,-10.5],[-10.81,-10.5],[-10.81,-10.44],[-11.19,-10.44]]]}},{"type":"Feature","properties":{"val":241.52,"field":"tp"},"geometry":{"type":"Polygon","coordinates":[[[-12.12,-11.0],[-11.88,-11.0],[-11.88,-11.06],[-11.81,-11.06],[-11.81,-11.12],[-11.75,-11.12],[-11.75,-11.31],[-11.81,-11.31],[-11.81,-11.44],[-12.06,-11.44],[-12.06,-11.38],[-12.12,-11.38],[-12.12,-11.25],[-12.19,-11.25],[-12.19,-11.06],[-12.12,-11.06],[-12.12,-11.0]]]}},{"type":"Feature","properties":{"val":241.52,"field":"tp"},"geometry":{"type":"Polygon","coordinates":[[[-4.75,-8.75],[-4.62,-8.75],[-4.62,-8.81],[-4.5,-8.81],[-4.5,-8.88],[-4.19,-8.88],[-4.19,-8.81],[-4.0,-8.81],[-4.0,-8.75],[-3.88,-8.75],[-3.88,-8.81],[-3.81,-8.81],[-3.81,-8.88],[-3.75,-8.88],[-3.75,-9.06],[-3.5,-9.06],[-3.5,-9.0],[-3.31,-9.0],[-3.31,-9.06],[-3.25,-9.06],[-3.25,-9.44],[-3.19,-9.44],[-3.19,-9.56],[-3.12,-9.56],[-3.12,-9.62],[-3.06,-9.62],[-3.06,-9.69],[-3.0,-9.69],[-3.0,-9.81],[-3.06,-9.81],[-3.06,-9.88],[-3.12,-9.88],[-3.12,-9.94],[-3.19,-9.94],[-3.19,-10.0],[-3.25,-10.0],[-3.25,-10.06],[-3.31,-10.06],[-3.31,-10.12],[-3.38,-10.12],[-3.38,-10.19],[-3.44,-10.19],[-3.44,-10.25],[-3.5,-10.25],[-3.5,-10.31],[-3.56,-10.31],[-3.56,-10.38],[-3.62,-10.38],[-3.62,-10.44],[-3.69,-10.44],[-3.69,-10.5],[-3.75,-10.5],[-3.75,-10.56],[-3.81,-10.56],[-3.81,-10.69],[-3.88,-10.69],[-3.88,-10.75],[-3.94,-10.75],[-3.94,-10.88],[-4.0,-10.88],[-4.0,-10.94],[-4.06,-10.94],[-4.06,-11.06],[-4.12,-11.06],[-4.12,-11.12],[-4.19,-11.12],[-4.19,-11.56],[-4.12,-11.56],[-4.12,-11.62],[-4.19,-11.62],[-4.19,-11.88],[-4.25,-11.88],[-4.25,-12.0],[-4.31,-12.0],[-4.31,-12.06],[-4.38,-12.06],[-4.38,-12.12],[-4.44,-12.12],[-4.44,-12.06],[-4.5,-12.06],[-4.5,-12.0],[-4.56,-12.0],[-4.56,-11.88],[-4.62,-11.88],[-4.62,-11.81],[-4.69,-11.81],[-4.69,-11.75],[-4.75,-11.75],[-4.75,-11.69],[-4.81,-11.69],[-4.81,-11.62],[-4.94,-11.62],[-4.94,-11.56],[-5.06,-11.56],[-5.06,-11.5],[-5.19,-11.5],[-5.19,-11.44],[-5.31,-11.44],[-5.31,-11.38],[-5.38,-11.38],[-5.38,-11.31],[-5.75,-11.31],[-5.75,-11.25],[-5.81,-11.25],[-5.81,-11.19],[-5.88,-11.19],[-5.88,-11.12],[-5.94,-11.12],[-5.94,-11.0],[-6.0,-11.0],[-6.0,-10.94],[-6.06,-10.94],[-6.06,-10.88],[-6.12,-10.88],[-6.12,-10.75],[-6.19,-10.75],[-6.19,-10.69],[-6.25,-10.69],[-6.25,-10.56],[-6.31,-10.56],[-6.31,-10.44],[-6.38,-10.44],[-6.38,-10.06],[-6.31,-10.06],[-6.31,-10.0],[-6.25,-10.0],[-6.25,-9.94],[-6.19,-9.94],[-6.19,-9.88],[-6.12,-9.88],[-6.12,-9.81],[-6.06,-9.81],[-6.06,-9.75],[-6.0,-9.75],[-6.0,-9.5],[-5.94,-9.5],[-5.94,-9.31],[-5.88,-9.31],[-5.88,-9.25],[-5.81,-9.25],[-5.81,-9.19],[-5.69,-9.19],[-5.69,-9.12],[-5.56,-9.12],[-5.56,-9.06],[-5.44,-9.06],[-5.44,-9.0],[-5.38,-9.0],[-5.38,-8.94],[-5.25,-8.94],[-5.25,-8.88],[-4.94,-8.88],[-4.94,-8.81],[-4.75,-8.81],[-4.75,-8.75]],[[-5.0,-9.06],[-5.0,-9.12],[-5.19,-9.12],[-5.19,-9.19],[-5.31,-9.19],[-5.31,-9.25],[-5.75,-9.25],[-5.75,-9.31],[-5.81,-9.31],[-5.81,-9.38],[-5.88,-9.38],[-5.88,-9.5],[-5.94,-9.5],[-5.94,-9.75],[-6.0,-9.75],[-6.0,-9.88],[-6.06,-9.88],[-6.06,-9.94],[-6.12,-9.94],[-6.12,-10.0],[-6.19,-10.0],[-6.19,-10.19],[-6.25,-10.19],[-6.25,-10.38],[-6.19,-10.38],[-6.19,-10.5],[-6.12,-10.5],[-6.12,-10.56],[-6.06,-10.56],[-6.06,-10.62],[-6.0,-10.62],[-6.0,-10.69],[-5.94,-10.69],[-5.94,-10.81],[-5.88,-10.81],[-5.88,-10.88],[-5.81,-10.88],[-5.81,-10.94],[-5.75,-10.94],[-5.75,-11.0],[-5.5,-11.0],[-5.5,-11.06],[-5.38,-11.06],[-5.38,-11.12],[-5.31,-11.12],[-5.31,-11.19],[-5.19,-11.19],[-5.19,-11.25],[-5.12,-11.25],[-5.12,-11.31],[-4.88,-11.31],[-4.88,-11.25],[-4.81,-11.25],[-4.81,-11.19],[-4.75,-11.19],[-4.75,-11.0],[-4.69,-11.0],[-4.69,-10.88],[-4.38,-10.88],[-4.38,-10.81],[-4.31,-10.81],[-4.31,-10.75],[-4.25,-10.75],[-4.25,-10.69],[-4.19,-10.69],[-4.19,-10.56],[-4.12,-10.56],[-4.12,-10.5],[-4.06,-10.5],[-4.06,-10.44],[-4.0,-10.44],[-4.0,-10.31],[-3.94,-10.31],[-3.94,-10.25],[-3.88,-10.25],[-3.88,-10.06],[-3.81,-10.06],[-3.81,-9.88],[-3.75,-9.88],[-3.75,-9.69],[-3.69,-9.69],[-3.69,-9.5],[-3.75,-9.5],[-3.75,-9.44],[-3.88,-9.44],[-3.88,-9.38],[-4.0,-9.38],[-4.0,-9.31],[-4.06,-9.31],[-4.06,-9.06],[-4.31,-9.06],[-4.31,-9.12],[-4.62,-9.12],[-4.62,-9.06],[-5.0,-9.06]]]}},{"type":"Feature","properties":{"val":241.52,"field":"tp"},"geometry":{"type":"Polygon","coordinates":[[[-13.19,-12.25],[-12.94,-12.25],[-12.94,-12.31],[-12.88,-12.31],[-12.88,-12.38],[-12.81,-12.38],[-12.81,-12.44],[-12.75,-12.44],[-12.75,-12.5],[-12.69,-12.5],[-12.69,-12.75],[-13.0,-12.75],[-13.0,-12.69],[-13.06,-12.69],[-13.06,-12.62],[-13.12,-12.62],[-13.12,-12.56],[-13.19,-12.56],[-13.19,-12.38],[-13.25,-12.38],[-13.25,-12.31],[-13.19,-12.31],[-13.19,-12.25]]]}},{"type":"Feature","properties":{"val":241.52,"field":"tp"},"geometry":{"type":"Polygon","coordinates":[[[-11.38,-12.38],[-11.31,-12.38],[-11.31,-12.44],[-11.12,-12.44],[-11.12,-12.5],[-11.06,-12.5],[-11.06,-12.69],[-11.31,-12.69],[-11.31,-12.62],[-11.38,-12.62],[-11.38,-12.56],[-11.44,-12.56],[-11.44,-12.44],[-11.38,-12.44],[-11.38,-12.38]]]}},{"type":"Feature","properties":{"val":241.52,"field":"tp"},"geometry":{"type":"Polygon","coordinates":[[[-9.81,-11.81],[-9.56,-11.81],[-9.56,-11.88],[-9.38,-11.88],[-9.38,-11.94],[-9.19,-11.94],[-9.19,-12.0],[-9.12,-12.0],[-9.12,-12.06],[-9.0,-12.06],[-9.0,-12.12],[-8.94,-12.12],[-8.94,-12.25],[-8.88,-12.25],[-8.88,-12.5],[-8.81,-12.5],[-8.81,-12.56],[-8.75,-12.56],[-8.75,-12.62],[-8.5,-12.62],[-8.5,-12.69],[-8.31,-12.69],[-8.31,-12.75],[-8.19,-12.75],[-8.19,-12.81],[-8.12,-12.81],[-8.12,-12.88],[-8.06,-12.88],[-8.06,-13.0],[-8.0,-13.0],[-8.0,-13.12],[-7.94,-13.12],[-7.94,-13.25],[-7.88,-13.25],[-7.88,-13.31],[-7.81,-13.31],[-7.81,-13.44],[-7.75,-13.44],[-7.75,-13.5],[-7.69,-13.5],[-7.69,-13.69],[-7.62,-13.69],[-7.62,-14.19],[-7.56,-14.19],[-7.56,-14.31],[-7.5,-14.31],[-7.5,-14.38],[-7.44,-14.38],[-7.44,-14.44],[-7.38,-14.44],[-7.38,-14.56],[-7.31,-14.56],[-7.31,-14.75],[-7.38,-14.75],[-7.38,-14.94],[-7.31,-14.94],[-7.31,-15.12],[-7.25,-15.12],[-7.25,-15.44],[-7.31,-15.44],[-7.31,-15.75],[-7.38,-15.75],[-7.38,-15.81],[-7.5,-15.81],[-7.5,-15.75],[-7.56,-15.75],[-7.56,-15.69],[-7.62,-15.69],[-7.62,-15.62],[-7.69,-15.62],[-7.69,-15.56],[-7.75,-15.56],[-7.75,-15.5],[-7.81,-15.5],[-7.81,-15.38],[-7.88,-15.38],[-7.88,-15.19],[-7.81,-15.19],[-7.81,-15.06],[-7.75,-15.06],[-7.75,-14.88],[-7.81,-14.88],[-7.81,-14.81],[-7.88,-14.81],[-7.88,-14.75],[-7.94,-14.75],[-7.94,-14.62],[-8.0,-14.62],[-8.0,-14.56],[-8.06,-14.56],[-8.06,-14.5],[-8.12,-14.5],[-8.12,-14.38],[-8.19,-14.38],[-8.19,-14.31],[-8.25,-14.31],[-8.25,-14.25],[-8.31,-14.25],[-8.31,-14.19],[-8.38,-14.19],[-8.38,-14.12],[-8.44,-14.12],[-8.44,-14.06],[-8.56,-14.06],[-8.56,-14.0],[-8.62,-14.0],[-8.62,-13.94],[-8.81,-13.94],[-8.81,-13.88],[-8.94,-13.88],[-8.94,-13.81],[-9.0,-13.81],[-9.0,-13.75],[-9.06,-13.75],[-9.06,-13.69],[-9.12,-13.69],[-9.12,-13.62],[-9.31,-13.62],[-9.31,-13.56],[-9.44,-13.56],[-9.44,-13.5],[-9.5,-13.5],[-9.5,-13.44],[-9.56,-13.44],[-9.56,-13.25],[-9.62,-13.25],[-9.62,-13.06],[-9.69,-13.06],[-9.69,-13.0],[-9.75,-13.0],[-9.75,-12.88],[-9.81,-12.88],[-9.81,-12.75],[-9.88,-12.75],[-9.88,-12.44],[-9.81,-12.44],[-9.81,-12.31],[-9.88,-12.31],[-9.88,-11.94],[-9.81,-11.94],[-9.81,-11.81]],[[-9.56,-12.06],[-9.56,-12.19],[-9.5,-12.19],[-9.5,-12.25],[-9.44,-12.25],[-9.44,-12.31],[-9.31,-12.31],[-9.31,-12.25],[-9.25,-12.25],[-9.25,-12.12],[-9.31,-12.12],[-9.31,-12.06],[-9.56,-12.06]]]}},{"type":"Feature","properties":{"val":241.52,"field":"tp"},"geometry":{"type":"Polygon","coordinates":[[[-7.31,-23.31],[-7.06,-23.31],[-7.06,-23.38],[-7.0,-23.38],[-7.0,-23.44],[-6.94,-23.44],[-6.94,-23.5],[-6.88,-23.5],[-6.88,-23.62],[-6.81,-23.62],[-6.81,-23.75],[-6.75,-23.75],[-6.75,-24.0],[-6.69,-24.0],[-6.69,-24.12],[-6.62,-24.12],[-6.62,-24.19],[-6.56,-24.19],[-6.56,-24.25],[-6.5,-24.25],[-6.5,-24.31],[-6.44,-24.31],[-6.44,-24.44],[-6.38,-24.44],[-6.38,-24.5],[-6.31,-24.5],[-6.31,-24.62],[-6.25,-24.62],[-6.25,-24.75],[-6.19,-24.75],[-6.19,-24.81],[-6.44,-24.81],[-6.44,-24.75],[-6.5,-24.75],[-6.5,-24.69],[-6.56,-24.69],[-6.56,-24.62],[-6.62,-24.62],[-6.62,-24.56],[-6.69,-24.56],[-6.69,-24.5],[-6.81,-24.5],[-6.81,-24.44],[-6.94,-24.44],[-6.94,-24.38],[-7.06,-24.38],[-7.06,-24.31],[-7.19,-24.31],[-7.19,-24.19],[-7.25,-24.19],[-7.25,-24.12],[-7.31,-24.12],[-7.31,-24.0],[-7.38,-24.0],[-7.38,-23.88],[-7.44,-23.88],[-7.44,-23.69],[-7.5,-23.69],[-7.5,-23.62],[-7.44,-23.62],[-7.44,-23.44],[-7.38,-23.44],[-7.38,-23.38],[-7.31,-23.38],[-7.31,-23.31]],[[-7.31,-23.44],[-7.31,-23.5],[-7.38,-23.5],[-7.38,-23.81],[-7.31,-23.81],[-7.31,-23.88],[-7.25,-23.88],[-7.25,-23.94],[-7.19,-23.94],[-7.19,-24.0],[-7.12,-24.0],[-7.12,-24.06],[-6.94,-24.06],[-6.94,-23.62],[-7.0,-23.62],[-7.0,-23.5],[-7.06,-23.5],[-7.06,-23.44],[-7.31,-23.44]]]}},{"type":"Feature","properties":{"val":378.5,"field":"tp"},"geometry":{"type":"Polygon","coordinates":[[[-5.94,-9.5],[-5.94,-9.62],[-5.88,-9.62],[-5.88,-9.5],[-5.94,-9.5]]]}},{"type":"Feature","properties":{"val":378.5,"field":"tp"},"geometry":{"type":"Polygon","coordinates":[[[-6.0,-9.75],[-6.0,-9.81],[-5.94,-9.81],[-5.94,-9.75],[-6.0,-9.75]]]}},{"type":"Feature","properties":{"val":378.5,"field":"tp"},"geometry":{"type":"Polygon","coordinates":[[[-5.0,-9.06],[-4.62,-9.06],[-4.62,-9.12],[-4.31,-9.12],[-4.31,-9.06],[-4.06,-9.06],[-4.06,-9.31],[-4.0,-9.31],[-4.0,-9.38],[-3.88,-9.38],[-3.88,-9.44],[-3.75,-9.44],[-3.75,-9.5],[-3.69,-9.5],[-3.69,-9.69],[-3.75,-9.69],[-3.75,-9.88],[-3.81,-9.88],[-3.81,-10.06],[-3.88,-10.06],[-3.88,-10.25],[-3.94,-10.25],[-3.94,-10.31],[-4.0,-10.31],[-4.0,-10.44],[-4.06,-10.44],[-4.06,-10.5],[-4.12,-10.5],[-4.12,-10.56],[-4.19,-10.56],[-4.19,-10.69],[-4.25,-10.69],[-4.25,-10.75],[-4.31,-10.75],[-4.31,-10.81],[-4.38,-10.81],[-4.38,-10.88],[-4.69,-10.88],[-4.69,-11.0],[-4.75,-11.0],[-4.75,-11.19],[-4.81,-11.19],[-4.81,-11.25],[-4.88,-11.25],[-4.88,-11.31],[-5.12,-11.31],[-5.12,-11.25],[-5.19,-11.25],[-5.19,-11.19],[-5.31,-11.19],[-5.31,-11.12],[-5.38,-11.12],[-5.38,-11.06],[-5.5,-11.06],[-5.5,-11.0],[-5.75,-11.0],[-5.75,-10.94],[-5.81,-10.94],[-5.81,-10.88],[-5.88,-10.88],[-5.88,-10.81],[-5.94,-10.81],[-5.94,-10.69],[-6.0,-10.69],[-6.0,-10.62],[-6.06,-10.62],[-6.06,-10.56],[-6.12,-10.56],[-6.12,-10.5],[-6.19,-10.5],[-6.19,-10.38],[-6.25,-10.38],[-6.25,-10.19],[-6.19,-10.19],[-6.19,-10.0],[-6.12,-10.0],[-6.12,-9.94],[-6.06,-9.94],[-6.06,-9.88],[-6.0,-9.88],[-6.0,-9.94],[-6.06,-9.94],[-6.06,-10.06],[-6.12,-10.06],[-6.12,-10.5],[-6.06,-10.5],[-6.06,-10.56],[-6.0,-10.56],[-6.0,-10.62],[-5.88,-10.62],[-5.88,-10.69],[-5.81,-10.69],[-5.81,-10.75],[-5.75,-10.75],[-5.75,-10.81],[-5.69,-10.81],[-5.69,-10.88],[-5.31,-10.88],[-5.31,-10.94],[-5.19,-10.94],[-5.19,-11.0],[-5.0,-11.0],[-5.0,-10.81],[-4.94,-10.81],[-4.94,-10.69],[-4.88,-10.69],[-4.88,-10.62],[-4.75,-10.62],[-4.75,-10.56],[-4.62,-10.56],[-4.62,-10.5],[-4.5,-10.5],[-4.5,-10.44],[-4.44,-10.44],[-4.44,-10.38],[-4.31,-10.38],[-4.31,-10.31],[-4.19,-10.31],[-4.19,-10.25],[-4.12,-10.25],[-4.12,-10.19],[-4.06,-10.19],[-4.06,-10.12],[-4.0,-10.12],[-4.0,-10.0],[-3.94,-10.0],[-3.94,-9.75],[-3.88,-9.75],[-3.88,-9.62],[-3.94,-9.62],[-3.94,-9.56],[-4.0,-9.56],[-4.0,-9.5],[-4.31,-9.5],[-4.31,-9.56],[-4.38,-9.56],[-4.38,-9.62],[-4.44,-9.62],[-4.44,-9.69],[-4.5,-9.69],[-4.5,-9.75],[-4.69,-9.75],[-4.69,-9.81],[-4.75,-9.81],[-4.75,-9.75],[-4.81,-9.75],[-4.81,-9.56],[-4.75,-9.56],[-4.75,-9.44],[-4.69,-9.44],[-4.69,-9.31],[-4.75,-9.31],[-4.75,-9.25],[-4.88,-9.25],[-4.88,-9.19],[-4.94,-9.19],[-4.94,-9.25],[-5.06,-9.25],[-5.06,-9.31],[-5.19,-9.31],[-5.19,-9.38],[-5.25,-9.38],[-5.25,-9.44],[-5.31,-9.44],[-5.31,-9.38],[-5.5,-9.38],[-5.5,-9.31],[-5.75,-9.31],[-5.75,-9.38],[-5.81,-9.38],[-5.81,-9.44],[-5.88,-9.44],[-5.88,-9.38],[-5.81,-9.38],[-5.81,-9.31],[-5.75,-9.31],[-5.75,-9.25],[-5.31,-9.25],[-5.31,-9.19],[-5.19,-9.19],[-5.19,-9.12],[-5.0,-9.12],[-5.0,-9.06]]]}},{"type":"Feature","properties":{"val":378.5,"field":"tp"},"geometry":{"type":"Polygon","coordinates":[[[-11.19,-10.44],[-10.81,-10.44],[-10.81,-10.5],[-10.69,-10.5],[-10.69,-11.12],[-10.81,-11.12],[-10.81,-11.06],[-10.94,-11.06],[-10.94,-11.0],[-11.19,-11.0],[-11.19,-10.94],[-11.31,-10.94],[-11.31,-10.81],[-11.38,-10.81],[-11.38,-10.75],[-11.44,-10.75],[-11.44,-10.62],[-11.38,-10.62],[-11.38,-10.56],[-11.31,-10.56],[-11.31,-10.5],[-11.19,-10.5],[-11.19,-10.44]],[[-11.06,-10.5],[-11.06,-10.56],[-11.19,-10.56],[-11.19,-10.62],[-11.25,-10.62],[-11.25,-10.75],[-11.19,-10.75],[-11.19,-10.81],[-10.88,-10.81],[-10.88,-10.75],[-10.81,-10.75],[-10.81,-10.56],[-10.94,-10.56],[-10.94,-10.5],[-11.06,-10.5]]]}},{"type":"Feature","properties":{"val":378.5,"field":"tp"},"geometry":{"type":"Polygon","coordinates":[[[-9.56,-12.06],[-9.56,-12.19],[-9.5,-12.19],[-9.5,-12.25],[-9.44,-12.25],[-9.44,-12.31],[-9.31,-12.31],[-9.31,-12.25],[-9.25,-12.25],[-9.25,-12.12],[-9.31,-12.12],[-9.31,-12.06],[-9.56,-12.06]]]}},{"type":"Feature","properties":{"val":378.5,"field":"tp"},"geometry":{"type":"Polygon","coordinates":[[[-9.5,-12.56],[-9.44,-12.56],[-9.44,-12.62],[-9.19,-12.62],[-9.19,-12.69],[-9.06,-12.69],[-9.06,-12.75],[-8.94,-12.75],[-8.94,-12.81],[-8.88,-12.81],[-8.88,-12.88],[-8.62,-12.88],[-8.62,-12.94],[-8.25,-12.94],[-8.25,-13.0],[-8.19,-13.0],[-8.19,-13.06],[-8.12,-13.06],[-8.12,-13.19],[-8.06,-13.19],[-8.06,-13.31],[-8.0,-13.31],[-8.0,-13.38],[-7.94,-13.38],[-7.94,-13.5],[-7.88,-13.5],[-7.88,-13.75],[-7.94,-13.75],[-7.94,-13.81],[-8.0,-13.81],[-8.0,-13.75],[-8.12,-13.75],[-8.12,-13.69],[-8.19,-13.69],[-8.19,-13.62],[-8.38,-13.62],[-8.38,-13.56],[-8.56,-13.56],[-8.56,-13.62],[-8.81,-13.62],[-8.81,-13.56],[-9.0,-13.56],[-9.0,-13.5],[-9.19,-13.5],[-9.19,-13.44],[-9.31,-13.44],[-9.31,-13.38],[-9.38,-13.38],[-9.38,-13.12],[-9.44,-13.12],[-9.44,-13.06],[-9.5,-13.06],[-9.5,-13.0],[-9.56,-13.0],[-9.56,-12.88],[-9.62,-12.88],[-9.62,-12.69],[-9.56,-12.69],[-9.56,-12.62],[-9.5,-12.62],[-9.5,-12.56]],[[-9.38,-12.75],[-9.38,-12.81],[-9.44,-12.81],[-9.44,-12.94],[-9.38,-12.94],[-9.38,-13.0],[-9.25,-13.0],[-9.25,-13.06],[-9.19,-13.06],[-9.19,-13.25],[-9.12,-13.25],[-9.12,-13.31],[-9.06,-13.31],[-9.06,-13.38],[-8.62,-13.38],[-8.62,-13.31],[-8.56,-13.31],[-8.56,-13.12],[-8.62,-13.12],[-8.62,-13.06],[-8.75,-13.06],[-8.75,-13.0],[-8.94,-13.0],[-8.94,-12.94],[-9.0,-12.94],[-9.0,-12.88],[-9.06,-12.88],[-9.06,-12.81],[-9.19,-12.81],[-9.19,-12.75],[-9.38,-12.75]]]}},{"type":"Feature","properties":{"val":378.5,"field":"tp"},"geometry":{"type":"Polygon","coordinates":[[[-7.31,-23.44],[-7.06,-23.44],[-7.06,-23.5],[-7.0,-23.5],[-7.0,-23.62],[-6.94,-23.62],[-6.94,-24.06],[-7.12,-24.06],[-7.12,-24.0],[-7.19,-24.0],[-7.19,-23.94],[-7.25,-23.94],[-7.25,-23.88],[-7.31,-23.88],[-7.31,-23.81],[-7.38,-23.81],[-7.38,-23.5],[-7.31,-23.5],[-7.31,-23.44]],[[-7.25,-23.56],[-7.25,-23.62],[-7.31,-23.62],[-7.31,-23.69],[-7.25,-23.69],[-7.25,-23.81],[-7.06,-23.81],[-7.06,-23.62],[-7.12,-23.62],[-7.12,-23.56],[-7.25,-23.56]]]}},{"type":"Feature","properties":{"val":515.48,"field":"tp"},"geometry":{"type":"Polygon","coordinates":[[[-5.94,-9.62],[-5.94,-9.75],[-5.88,-9.75],[-5.88,-9.62],[-5.94,-9.62]]]}},{"type":"Feature","properties":{"val":515.48,"field":"tp"},"geometry":{"type":"Polygon","coordinates":[[[-6.0,-9.81],[-6.0,-9.88],[-5.94,-9.88],[-5.94,-9.81],[-6.0,-9.81]]]}},{"type":"Feature","properties":{"val":515.48,"field":"tp"},"geometry":{"type":"Polygon","coordinates":[[[-6.06,-9.94],[-6.06,-10.0],[-6.0,-10.0],[-6.0,-9.94],[-6.06,-9.94]]]}},{"type":"Feature","properties":{"val":515.48,"field":"tp"},"geometry":{"type":"Polygon","coordinates":[[[-6.12,-10.06],[-6.12,-10.19],[-6.06,-10.19],[-6.06,-10.06],[-6.12,-10.06]]]}},{"type":"Feature","properties":{"val":515.48,"field":"tp"},"geometry":{"type":"Polygon","coordinates":[[[-4.94,-9.19],[-4.88,-9.19],[-4.88,-9.25],[-4.75,-9.25],[-4.75,-9.31],[-4.69,-9.31],[-4.69,-9.44],[-4.75,-9.44],[-4.75,-9.56],[-4.81,-9.56],[-4.81,-9.75],[-4.75,-9.75],[-4.75,-9.81],[-4.69,-9.81],[-4.69,-9.75],[-4.5,-9.75],[-4.5,-9.69],[-4.44,-9.69],[-4.44,-9.62],[-4.38,-9.62],[-4.38,-9.56],[-4.31,-9.56],[-4.31,-9.5],[-4.0,-9.5],[-4.0,-9.56],[-3.94,-9.56],[-3.94,-9.62],[-3.88,-9.62],[-3.88,-9.75],[-3.94,-9.75],[-3.94,-10.0],[-4.0,-10.0],[-4.0,-10.12],[-4.06,-10.12],[-4.06,-10.19],[-4.12,-10.19],[-4.12,-10.25],[-4.19,-10.25],[-4.19,-10.31],[-4.31,-10.31],[-4.31,-10.38],[-4.44,-10.38],[-4.44,-10.44],[-4.5,-10.44],[-4.5,-10.5],[-4.62,-10.5],[-4.62,-10.56],[-4.75,-10.56],[-4.75,-10.62],[-4.88,-10.62],[-4.88,-10.69],[-4.94,-10.69],[-4.94,-10.81],[-5.0,-10.81],[-5.0,-11.0],[-5.19,-11.0],[-5.19,-10.94],[-5.31,-10.94],[-5.31,-10.88],[-5.69,-10.88],[-5.69,-10.81],[-5.75,-10.81],[-5.75,-10.75],[-5.81,-10.75],[-5.81,-10.69],[-5.88,-10.69],[-5.88,-10.62],[-6.0,-10.62],[-6.0,-10.56],[-6.06,-10.56],[-6.06,-10.5],[-6.12,-10.5],[-6.12,-10.31],[-6.06,-10.31],[-6.06,-10.44],[-6.0,-10.44],[-6.0,-10.5],[-5.94,-10.5],[-5.94,-10.56],[-5.88,-10.56],[-5.88,-10.62],[-5.81,-10.62],[-5.81,-10.69],[-5.69,-10.69],[-5.69,-10.75],[-5.38,-10.75],[-5.38,-10.69],[-5.12,-10.69],[-5.12,-10.62],[-5.0,-10.62],[-5.0,-10.56],[-4.88,-10.56],[-4.88,-10.5],[-4.75,-10.5],[-4.75,-10.44],[-4.69,-10.44],[-4.69,-10.38],[-4.62,-10.38],[-4.62,-10.31],[-4.56,-10.31],[-4.56,-10.25],[-4.44,-10.25],[-4.44,-10.19],[-4.31,-10.19],[-4.31,-10.12],[-4.19,-10.12],[-4.19,-10.06],[-4.12,-10.06],[-4.12,-10.0],[-4.06,-10.0],[-4.06,-9.69],[-4.12,-9.69],[-4.12,-9.62],[-4.19,-9.62],[-4.19,-9.69],[-4.31,-9.69],[-4.31,-9.75],[-4.44,-9.75],[-4.44,-9.81],[-4.5,-9.81],[-4.5,-9.88],[-4.62,-9.88],[-4.62,-9.94],[-4.81,-9.94],[-4.81,-9.88],[-5.0,-9.88],[-5.0,-9.81],[-5.06,-9.81],[-5.06,-9.69],[-5.12,-9.69],[-5.12,-9.62],[-5.25,-9.62],[-5.25,-9.56],[-5.31,-9.56],[-5.31,-9.5],[-5.44,-9.5],[-5.44,-9.44],[-5.56,-9.44],[-5.56,-9.38],[-5.75,-9.38],[-5.75,-9.44],[-5.81,-9.44],[-5.81,-9.5],[-5.88,-9.5],[-5.88,-9.44],[-5.81,-9.44],[-5.81,-9.38],[-5.75,-9.38],[-5.75,-9.31],[-5.5,-9.31],[-5.5,-9.38],[-5.31,-9.38],[-5.31,-9.44],[-5.25,-9.44],[-5.25,-9.38],[-5.19,-9.38],[-5.19,-9.31],[-5.06,-9.31],[-5.06,-9.25],[-4.94,-9.25],[-4.94,-9.19]]]}},{"type":"Feature","properties":{"val":515.48,"field":"tp"},"geometry":{"type":"Polygon","coordinates":[[[-11.06,-10.5],[-10.94,-10.5],[-10.94,-10.56],[-10.81,-10.56],[-10.81,-10.75],[-10.88,-10.75],[-10.88,-10.81],[-11.19,-10.81],[-11.19,-10.75],[-11.25,-10.75],[-11.25,-10.62],[-11.19,-10.62],[-11.19,-10.56],[-11.06,-10.56],[-11.06,-10.5]]]}},{"type":"Feature","properties":{"val":515.48,"field":"tp"},"geometry":{"type":"Polygon","coordinates":[[[-9.38,-12.75],[-9.19,-12.75],[-9.19,-12.81],[-9.06,-12.81],[-9.06,-12.88],[-9.0,-12.88],[-9.0,-12.94],[-8.94,-12.94],[-8.94,-13.0],[-8.75,-13.0],[-8.75,-13.06],[-8.62,-13.06],[-8.62,-13.12],[-8.56,-13.12],[-8.56,-13.31],[-8.62,-13.31],[-8.62,-13.38],[-9.06,-13.38],[-9.06,-13.31],[-9.12,-13.31],[-9.12,-13.25],[-9.19,-13.25],[-9.19,-13.06],[-9.25,-13.06],[-9.25,-13.0],[-9.38,-13.0],[-9.38,-12.94],[-9.44,-12.94],[-9.44,-12.81],[-9.38,-12.81],[-9.38,-12.75]]]}},{"type":"Feature","properties":{"val":515.48,"field":"tp"},"geometry":{"type":"Polygon","coordinates":[[[-7.25,-23.56],[-7.12,-23.56],[-7.12,-23.62],[-7.06,-23.62],[-7.06,-23.81],[-7.25,-23.81],[-7.25,-23.69],[-7.31,-23.69],[-7.31,-23.62],[-7.25,-23.62],[-7.25,-23.56]]]}},{"type":"Feature","properties":{"val":652.46,"field":"tp"},"geometry":{"type":"Polygon","coordinates":[[[-5.75,-9.38],[-5.56,-9.38],[-5.56,-9.44],[-5.75,-9.44],[-5.75,-9.5],[-5.81,-9.5],[-5.81,-9.62],[-5.88,-9.62],[-5.88,-9.5],[-5.81,-9.5],[-5.81,-9.44],[-5.75,-9.44],[-5.75,-9.38]]]}},{"type":"Feature","properties":{"val":652.46,"field":"tp"},"geometry":{"type":"Polygon","coordinates":[[[-5.94,-9.75],[-5.94,-9.81],[-5.88,-9.81],[-5.88,-9.75],[-5.94,-9.75]]]}},{"type":"Feature","properties":{"val":652.46,"field":"tp"},"geometry":{"type":"Polygon","coordinates":[[[-6.0,-9.88],[-6.0,-9.94],[-5.94,-9.94],[-5.94,-9.88],[-6.0,-9.88]]]}},{"type":"Feature","properties":{"val":652.46,"field":"tp"},"geometry":{"type":"Polygon","coordinates":[[[-6.06,-10.0],[-6.06,-10.06],[-6.0,-10.06],[-6.0,-10.0],[-6.06,-10.0]]]}},{"type":"Feature","properties":{"val":652.46,"field":"tp"},"geometry":{"type":"Polygon","coordinates":[[[-6.12,-10.19],[-6.12,-10.31],[-6.06,-10.31],[-6.06,-10.19],[-6.12,-10.19]]]}},{"type":"Feature","properties":{"val":652.46,"field":"tp"},"geometry":{"type":"Polygon","coordinates":[[[-5.5,-9.44],[-5.44,-9.44],[-5.44,-9.5],[-5.31,-9.5],[-5.31,-9.56],[-5.25,-9.56],[-5.25,-9.62],[-5.12,-9.62],[-5.12,-9.69],[-5.06,-9.69],[-5.06,-9.81],[-5.0,-9.81],[-5.0,-9.88],[-4.81,-9.88],[-4.81,-9.94],[-4.62,-9.94],[-4.62,-9.88],[-4.5,-9.88],[-4.5,-9.81],[-4.44,-9.81],[-4.44,-9.75],[-4.31,-9.75],[-4.31,-9.69],[-4.19,-9.69],[-4.19,-9.62],[-4.12,-9.62],[-4.12,-9.69],[-4.06,-9.69],[-4.06,-10.0],[-4.12,-10.0],[-4.12,-10.06],[-4.19,-10.06],[-4.19,-10.12],[-4.31,-10.12],[-4.31,-10.19],[-4.44,-10.19],[-4.44,-10.25],[-4.56,-10.25],[-4.56,-10.31],[-4.62,-10.31],[-4.62,-10.38],[-4.69,-10.38],[-4.69,-10.44],[-4.75,-10.44],[-4.75,-10.5],[-4.88,-10.5],[-4.88,-10.56],[-5.0,-10.56],[-5.0,-10.62],[-5.12,-10.62],[-5.12,-10.69],[-5.38,-10.69],[-5.38,-10.75],[-5.69,-10.75],[-5.69,-10.69],[-5.81,-10.69],[-5.81,-10.62],[-5.88,-10.62],[-5.88,-10.56],[-5.94,-10.56],[-5.94,-10.5],[-6.0,-10.5],[-6.0,-10.44],[-6.06,-10.44],[-6.06,-10.38],[-6.0,-10.38],[-6.0,-10.44],[-5.94,-10.44],[-5.94,-10.5],[-5.88,-10.5],[-5.88,-10.56],[-5.81,-10.56],[-5.81,-10.62],[-5.69,-10.62],[-5.69,-10.69],[-5.56,-10.69],[-5.56,-10.62],[-5.19,-10.62],[-5.19,-10.56],[-5.0,-10.56],[-5.0,-10.5],[-4.88,-10.5],[-4.88,-10.44],[-4.81,-10.44],[-4.81,-10.38],[-4.75,-10.38],[-4.75,-10.25],[-4.69,-10.25],[-4.69,-10.12],[-4.62,-10.12],[-4.62,-10.06],[-4.75,-10.06],[-4.75,-10.0],[-4.94,-10.0],[-4.94,-9.94],[-5.06,-9.94],[-5.06,-9.88],[-5.12,-9.88],[-5.12,-9.81],[-5.19,-9.81],[-5.19,-9.69],[-5.25,-9.69],[-5.25,-9.62],[-5.38,-9.62],[-5.38,-9.56],[-5.44,-9.56],[-5.44,-9.5],[-5.5,-9.5],[-5.5,-9.44]]]}},{"type":"Feature","properties":{"val":789.44,"field":"tp"},"geometry":{"type":"Polygon","coordinates":[[[-5.88,-9.62],[-5.88,-9.75],[-5.81,-9.75],[-5.81,-9.62],[-5.88,-9.62]]]}},{"type":"Feature","properties":{"val":789.44,"field":"tp"},"geometry":{"type":"Polygon","coordinates":[[[-5.94,-9.81],[-5.94,-9.88],[-5.88,-9.88],[-5.88,-9.81],[-5.94,-9.81]]]}},{"type":"Feature","properties":{"val":789.44,"field":"tp"},"geometry":{"type":"Polygon","coordinates":[[[-6.0,-9.94],[-6.0,-10.0],[-5.94,-10.0],[-5.94,-9.94],[-6.0,-9.94]]]}},{"type":"Feature","properties":{"val":789.44,"field":"tp"},"geometry":{"type":"Polygon","coordinates":[[[-6.06,-10.06],[-6.06,-10.38],[-6.0,-10.38],[-6.0,-10.06],[-6.06,-10.06]]]}},{"type":"Feature","properties":{"val":789.44,"field":"tp"},"geometry":{"type":"Polygon","coordinates":[[[-5.75,-9.44],[-5.5,-9.44],[-5.5,-9.5],[-5.44,-9.5],[-5.44,-9.56],[-5.38,-9.56],[-5.38,-9.62],[-5.25,-9.62],[-5.25,-9.69],[-5.19,-9.69],[-5.19,-9.81],[-5.12,-9.81],[-5.12,-9.88],[-5.06,-9.88],[-5.06,-9.94],[-4.94,-9.94],[-4.94,-10.0],[-4.75,-10.0],[-4.75,-10.06],[-4.62,-10.06],[-4.62,-10.12],[-4.69,-10.12],[-4.69,-10.25],[-4.75,-10.25],[-4.75,-10.38],[-4.81,-10.38],[-4.81,-10.44],[-4.88,-10.44],[-4.88,-10.5],[-5.0,-10.5],[-5.0,-10.56],[-5.12,-10.56],[-5.12,-10.5],[-5.0,-10.5],[-5.0,-10.44],[-4.94,-10.44],[-4.94,-10.38],[-4.88,-10.38],[-4.88,-10.31],[-4.81,-10.31],[-4.81,-10.12],[-4.88,-10.12],[-4.88,-10.06],[-5.0,-10.06],[-5.0,-10.0],[-5.06,-10.0],[-5.06,-9.94],[-5.12,-9.94],[-5.12,-9.88],[-5.19,-9.88],[-5.19,-9.81],[-5.25,-9.81],[-5.25,-9.75],[-5.31,-9.75],[-5.31,-9.69],[-5.38,-9.69],[-5.38,-9.62],[-5.44,-9.62],[-5.44,-9.56],[-5.5,-9.56],[-5.5,-9.5],[-5.75,-9.5],[-5.75,-9.56],[-5.81,-9.56],[-5.81,-9.5],[-5.75,-9.5],[-5.75,-9.44]]]}},{"type":"Feature","properties":{"val":789.44,"field":"tp"},"geometry":{"type":"Polygon","coordinates":[[[-5.88,-10.5],[-5.88,-10.56],[-5.81,-10.56],[-5.81,-10.62],[-5.69,-10.62],[-5.69,-10.69],[-5.56,-10.69],[-5.56,-10.62],[-5.19,-10.62],[-5.19,-10.56],[-5.56,-10.56],[-5.56,-10.62],[-5.69,-10.62],[-5.69,-10.56],[-5.81,-10.56],[-5.81,-10.5],[-5.88,-10.5]]]}},{"type":"Feature","properties":{"val":926.42,"field":"tp"},"geometry":{"type":"Polygon","coordinates":[[[-5.75,-9.5],[-5.69,-9.5],[-5.69,-9.56],[-5.75,-9.56],[-5.75,-9.62],[-5.81,-9.62],[-5.81,-9.56],[-5.75,-9.56],[-5.75,-9.5]]]}},{"type":"Feature","properties":{"val":926.42,"field":"tp"},"geometry":{"type":"Polygon","coordinates":[[[-5.88,-9.75],[-5.88,-9.81],[-5.81,-9.81],[-5.81,-9.75],[-5.88,-9.75]]]}},{"type":"Feature","properties":{"val":926.42,"field":"tp"},"geometry":{"type":"Polygon","coordinates":[[[-6.0,-10.0],[-6.0,-10.06],[-5.94,-10.06],[-5.94,-10.0],[-6.0,-10.0]]]}},{"type":"Feature","properties":{"val":926.42,"field":"tp"},"geometry":{"type":"Polygon","coordinates":[[[-6.0,-10.38],[-6.0,-10.44],[-5.94,-10.44],[-5.94,-10.5],[-5.88,-10.5],[-5.88,-10.44],[-5.94,-10.44],[-5.94,-10.38],[-6.0,-10.38]]]}},{"type":"Feature","properties":{"val":926.42,"field":"tp"},"geometry":{"type":"Polygon","coordinates":[[[-5.81,-10.5],[-5.81,-10.56],[-5.75,-10.56],[-5.75,-10.5],[-5.81,-10.5]]]}},{"type":"Feature","properties":{"val":926.42,"field":"tp"},"geometry":{"type":"Polygon","coordinates":[[[-5.62,-9.5],[-5.5,-9.5],[-5.5,-9.56],[-5.44,-9.56],[-5.44,-9.62],[-5.38,-9.62],[-5.38,-9.69],[-5.31,-9.69],[-5.31,-9.75],[-5.25,-9.75],[-5.25,-9.81],[-5.19,-9.81],[-5.19,-9.88],[-5.12,-9.88],[-5.12,-9.94],[-5.06,-9.94],[-5.06,-10.0],[-5.0,-10.0],[-5.0,-10.06],[-4.88,-10.06],[-4.88,-10.12],[-4.81,-10.12],[-4.81,-10.31],[-4.88,-10.31],[-4.88,-10.38],[-4.94,-10.38],[-4.94,-10.44],[-5.0,-10.44],[-5.0,-10.5],[-5.12,-10.5],[-5.12,-10.56],[-5.44,-10.56],[-5.44,-10.5],[-5.12,-10.5],[-5.12,-10.44],[-5.0,-10.44],[-5.0,-10.38],[-4.94,-10.38],[-4.94,-10.12],[-5.06,-10.12],[-5.06,-10.06],[-5.12,-10.06],[-5.12,-9.94],[-5.19,-9.94],[-5.19,-9.88],[-5.25,-9.88],[-5.25,-9.81],[-5.31,-9.81],[-5.31,-9.75],[-5.38,-9.75],[-5.38,-9.69],[-5.44,-9.69],[-5.44,-9.62],[-5.5,-9.62],[-5.5,-9.56],[-5.62,-9.56],[-5.62,-9.5]]]}},{"type":"Feature","properties":{"val":926.42,"field":"tp"},"geometry":{"type":"Polygon","coordinates":[[[-5.69,-10.56],[-5.69,-10.62],[-5.56,-10.62],[-5.56,-10.56],[-5.69,-10.56]]]}},{"type":"Feature","properties":{"val":1063.4,"field":"tp"},"geometry":{"type":"Polygon","coordinates":[[[-5.69,-9.5],[-5.62,-9.5],[-5.62,-9.56],[-5.69,-9.56],[-5.69,-9.62],[-5.75,-9.62],[-5.75,-9.69],[-5.81,-9.69],[-5.81,-9.62],[-5.75,-9.62],[-5.75,-9.56],[-5.69,-9.56],[-5.69,-9.5]]]}},{"type":"Feature","properties":{"val":1063.4,"field":"tp"},"geometry":{"type":"Polygon","coordinates":[[[-5.56,-9.56],[-5.56,-9.62],[-5.5,-9.62],[-5.5,-9.69],[-5.44,-9.69],[-5.44,-9.75],[-5.38,-9.75],[-5.38,-9.69],[-5.44,-9.69],[-5.44,-9.62],[-5.5,-9.62],[-5.5,-9.56],[-5.56,-9.56]]]}},{"type":"Feature","properties":{"val":1063.4,"field":"tp"},"geometry":{"type":"Polygon","coordinates":[[[-5.94,-9.88],[-5.94,-9.94],[-5.88,-9.94],[-5.88,-9.88],[-5.94,-9.88]]]}},{"type":"Feature","properties":{"val":1063.4,"field":"tp"},"geometry":{"type":"Polygon","coordinates":[[[-5.25,-9.88],[-5.19,-9.88],[-5.19,-9.94],[-5.12,-9.94],[-5.12,-10.06],[-5.06,-10.06],[-5.06,-10.12],[-4.94,-10.12],[-4.94,-10.38],[-5.0,-10.38],[-5.0,-10.44],[-5.06,-10.44],[-5.06,-10.38],[-5.0,-10.38],[-5.0,-10.19],[-5.06,-10.19],[-5.06,-10.12],[-5.12,-10.12],[-5.12,-10.06],[-5.19,-10.06],[-5.19,-9.94],[-5.25,-9.94],[-5.25,-9.88]]]}},{"type":"Feature","properties":{"val":1063.4,"field":"tp"},"geometry":{"type":"Polygon","coordinates":[[[-6.0,-10.06],[-6.0,-10.12],[-5.94,-10.12],[-5.94,-10.06],[-6.0,-10.06]]]}},{"type":"Feature","properties":{"val":1063.4,"field":"tp"},"geometry":{"type":"Polygon","coordinates":[[[-6.0,-10.25],[-6.0,-10.38],[-5.94,-10.38],[-5.94,-10.44],[-5.88,-10.44],[-5.88,-10.5],[-5.81,-10.5],[-5.81,-10.44],[-5.88,-10.44],[-5.88,-10.38],[-5.94,-10.38],[-5.94,-10.25],[-6.0,-10.25]]]}},{"type":"Feature","properties":{"val":1063.4,"field":"tp"},"geometry":{"type":"Polygon","coordinates":[[[-5.25,-10.44],[-5.25,-10.5],[-5.12,-10.5],[-5.12,-10.44],[-5.25,-10.44]]]}},{"type":"Feature","properties":{"val":1063.4,"field":"tp"},"geometry":{"type":"Polygon","coordinates":[[[-5.75,-10.5],[-5.75,-10.56],[-5.44,-10.56],[-5.44,-10.5],[-5.75,-10.5]]]}},{"type":"Feature","properties":{"val":1200.38,"field":"tp"},"geometry":{"type":"Polygon","coordinates":[[[-5.69,-9.56],[-5.56,-9.56],[-5.56,-9.62],[-5.5,-9.62],[-5.5,-9.69],[-5.56,-9.69],[-5.56,-9.62],[-5.69,-9.62],[-5.69,-9.69],[-5.75,-9.69],[-5.75,-9.75],[-5.81,-9.75],[-5.81,-9.69],[-5.75,-9.69],[-5.75,-9.62],[-5.69,-9.62],[-5.69,-9.56]]]}},{"type":"Feature","properties":{"val":1200.38,"field":"tp"},"geometry":{"type":"Polygon","coordinates":[[[-5.38,-9.75],[-5.38,-9.81],[-5.31,-9.81],[-5.31,-9.88],[-5.25,-9.88],[-5.25,-9.81],[-5.31,-9.81],[-5.31,-9.75],[-5.38,-9.75]]]}},{"type":"Feature","properties":{"val":1200.38,"field":"tp"},"geometry":{"type":"Polygon","coordinates":[[[-5.88,-9.81],[-5.88,-9.88],[-5.81,-9.88],[-5.81,-9.81],[-5.88,-9.81]]]}},{"type":"Feature","properties":{"val":1200.38,"field":"tp"},"geometry":{"type":"Polygon","coordinates":[[[-5.25,-9.94],[-5.25,-10.0],[-5.19,-10.0],[-5.19,-9.94],[-5.25,-9.94]]]}},{"type":"Feature","properties":{"val":1200.38,"field":"tp"},"geometry":{"type":"Polygon","coordinates":[[[-5.19,-10.06],[-5.12,-10.06],[-5.12,-10.12],[-5.06,-10.12],[-5.06,-10.19],[-5.0,-10.19],[-5.0,-10.38],[-5.06,-10.38],[-5.06,-10.44],[-5.19,-10.44],[-5.19,-10.38],[-5.12,-10.38],[-5.12,-10.31],[-5.06,-10.31],[-5.06,-10.25],[-5.12,-10.25],[-5.12,-10.12],[-5.19,-10.12],[-5.19,-10.06]]]}},{"type":"Feature","properties":{"val":1200.38,"field":"tp"},"geometry":{"type":"Polygon","coordinates":[[[-6.0,-10.12],[-6.0,-10.25],[-5.94,-10.25],[-5.94,-10.12],[-6.0,-10.12]]]}},{"type":"Feature","properties":{"val":1200.38,"field":"tp"},"geometry":{"type":"Polygon","coordinates":[[[-5.81,-10.44],[-5.81,-10.5],[-5.75,-10.5],[-5.75,-10.44],[-5.81,-10.44]]]}},{"type":"Feature","properties":{"val":1200.38,"field":"tp"},"geometry":{"type":"Polygon","coordinates":[[[-5.56,-10.44],[-5.56,-10.5],[-5.25,-10.5],[-5.25,-10.44],[-5.56,-10.44]]]}},{"type":"Feature","properties":{"val":1337.36,"field":"tp"},"geometry":{"type":"Polygon","coordinates":[[[-5.69,-9.62],[-5.56,-9.62],[-5.56,-9.69],[-5.69,-9.69],[-5.69,-9.75],[-5.75,-9.75],[-5.75,-9.81],[-5.81,-9.81],[-5.81,-9.75],[-5.75,-9.75],[-5.75,-9.69],[-5.69,-9.69],[-5.69,-9.62]]]}},{"type":"Feature","properties":{"val":1337.36,"field":"tp"},"geometry":{"type":"Polygon","coordinates":[[[-5.5,-9.69],[-5.5,-9.75],[-5.44,-9.75],[-5.44,-9.81],[-5.38,-9.81],[-5.38,-9.88],[-5.31,-9.88],[-5.31,-9.94],[-5.25,-9.94],[-5.25,-9.88],[-5.31,-9.88],[-5.31,-9.81],[-5.38,-9.81],[-5.38,-9.75],[-5.44,-9.75],[-5.44,-9.69],[-5.5,-9.69]]]}},{"type":"Feature","properties":{"val":1337.36,"field":"tp"},"geometry":{"type":"Polygon","coordinates":[[[-5.94,-9.94],[-5.94,-10.0],[-5.88,-10.0],[-5.88,-9.94],[-5.94,-9.94]]]}},{"type":"Feature","properties":{"val":1337.36,"field":"tp"},"geometry":{"type":"Polygon","coordinates":[[[-5.25,-10.0],[-5.25,-10.06],[-5.19,-10.06],[-5.19,-10.0],[-5.25,-10.0]]]}},{"type":"Feature","properties":{"val":1337.36,"field":"tp"},"geometry":{"type":"Polygon","coordinates":[[[-5.94,-10.31],[-5.94,-10.38],[-5.88,-10.38],[-5.88,-10.44],[-5.81,-10.44],[-5.81,-10.38],[-5.88,-10.38],[-5.88,-10.31],[-5.94,-10.31]]]}},{"type":"Feature","properties":{"val":1337.36,"field":"tp"},"geometry":{"type":"Polygon","coordinates":[[[-5.19,-10.12],[-5.12,-10.12],[-5.12,-10.25],[-5.06,-10.25],[-5.06,-10.31],[-5.12,-10.31],[-5.12,-10.38],[-5.19,-10.38],[-5.19,-10.44],[-5.38,-10.44],[-5.38,-10.38],[-5.19,-10.38],[-5.19,-10.31],[-5.12,-10.31],[-5.12,-10.25],[-5.19,-10.25],[-5.19,-10.12]]]}},{"type":"Feature","properties":{"val":1337.36,"field":"tp"},"geometry":{"type":"Polygon","coordinates":[[[-5.75,-10.44],[-5.75,-10.5],[-5.56,-10.5],[-5.56,-10.44],[-5.75,-10.44]]]}},{"type":"Feature","properties":{"val":1474.34,"field":"tp"},"geometry":{"type":"Polygon","coordinates":[[[-5.69,-9.69],[-5.69,-9.75],[-5.5,-9.75],[-5.5,-9.81],[-5.44,-9.81],[-5.44,-9.75],[-5.5,-9.75],[-5.5,-9.69],[-5.69,-9.69]]]}},{"type":"Feature","properties":{"val":1474.34,"field":"tp"},"geometry":{"type":"Polygon","coordinates":[[[-5.88,-9.88],[-5.88,-9.94],[-5.81,-9.94],[-5.81,-9.88],[-5.88,-9.88]]]}},{"type":"Feature","properties":{"val":1474.34,"field":"tp"},"geometry":{"type":"Polygon","coordinates":[[[-5.31,-9.94],[-5.31,-10.0],[-5.25,-10.0],[-5.25,-9.94],[-5.31,-9.94]]]}},{"type":"Feature","properties":{"val":1474.34,"field":"tp"},"geometry":{"type":"Polygon","coordinates":[[[-5.94,-10.0],[-5.94,-10.06],[-5.88,-10.06],[-5.88,-10.0],[-5.94,-10.0]]]}},{"type":"Feature","properties":{"val":1474.34,"field":"tp"},"geometry":{"type":"Polygon","coordinates":[[[-5.25,-10.06],[-5.25,-10.19],[-5.19,-10.19],[-5.19,-10.06],[-5.25,-10.06]]]}},{"type":"Feature","properties":{"val":1474.34,"field":"tp"},"geometry":{"type":"Polygon","coordinates":[[[-5.94,-10.25],[-5.94,-10.31],[-5.88,-10.31],[-5.88,-10.25],[-5.94,-10.25]]]}},{"type":"Feature","properties":{"val":1474.34,"field":"tp"},"geometry":{"type":"Polygon","coordinates":[[[-5.25,-10.25],[-5.12,-10.25],[-5.12,-10.31],[-5.19,-10.31],[-5.19,-10.38],[-5.31,-10.38],[-5.31,-10.31],[-5.25,-10.31],[-5.25,-10.25]]]}},{"type":"Feature","properties":{"val":1474.34,"field":"tp"},"geometry":{"type":"Polygon","coordinates":[[[-5.81,-10.38],[-5.81,-10.44],[-5.75,-10.44],[-5.75,-10.38],[-5.81,-10.38]]]}},{"type":"Feature","properties":{"val":1474.34,"field":"tp"},"geometry":{"type":"Polygon","coordinates":[[[-5.5,-10.38],[-5.5,-10.44],[-5.38,-10.44],[-5.38,-10.38],[-5.5,-10.38]]]}},{"type":"Feature","properties":{"val":1611.32,"field":"tp"},"geometry":{"type":"Polygon","coordinates":[[[-5.75,-9.75],[-5.69,-9.75],[-5.69,-9.81],[-5.75,-9.81],[-5.75,-9.88],[-5.81,-9.88],[-5.81,-9.81],[-5.75,-9.81],[-5.75,-9.75]]]}},{"type":"Feature","properties":{"val":1611.32,"field":"tp"},"geometry":{"type":"Polygon","coordinates":[[[-5.56,-9.75],[-5.56,-9.81],[-5.5,-9.81],[-5.5,-9.75],[-5.56,-9.75]]]}},{"type":"Feature","properties":{"val":1611.32,"field":"tp"},"geometry":{"type":"Polygon","coordinates":[[[-5.44,-9.81],[-5.44,-9.88],[-5.38,-9.88],[-5.38,-9.94],[-5.31,-9.94],[-5.31,-9.88],[-5.38,-9.88],[-5.38,-9.81],[-5.44,-9.81]]]}},{"type":"Feature","properties":{"val":1611.32,"field":"tp"},"geometry":{"type":"Polygon","coordinates":[[[-5.31,-10.0],[-5.31,-10.06],[-5.25,-10.06],[-5.25,-10.0],[-5.31,-10.0]]]}},{"type":"Feature","properties":{"val":1611.32,"field":"tp"},"geometry":{"type":"Polygon","coordinates":[[[-5.94,-10.06],[-5.94,-10.25],[-5.88,-10.25],[-5.88,-10.06],[-5.94,-10.06]]]}},{"type":"Feature","properties":{"val":1611.32,"field":"tp"},"geometry":{"type":"Polygon","coordinates":[[[-5.25,-10.19],[-5.25,-10.25],[-5.19,-10.25],[-5.19,-10.19],[-5.25,-10.19]]]}},{"type":"Feature","properties":{"val":1611.32,"field":"tp"},"geometry":{"type":"Polygon","coordinates":[[[-5.88,-10.31],[-5.88,-10.38],[-5.81,-10.38],[-5.81,-10.31],[-5.88,-10.31]]]}},{"type":"Feature","properties":{"val":1611.32,"field":"tp"},"geometry":{"type":"Polygon","coordinates":[[[-5.38,-10.31],[-5.38,-10.38],[-5.31,-10.38],[-5.31,-10.31],[-5.38,-10.31]]]}},{"type":"Feature","properties":{"val":1611.32,"field":"tp"},"geometry":{"type":"Polygon","coordinates":[[[-5.75,-10.38],[-5.75,-10.44],[-5.5,-10.44],[-5.5,-10.38],[-5.75,-10.38]]]}},{"type":"Feature","properties":{"val":1748.3,"field":"tp"},"geometry":{"type":"Polygon","coordinates":[[[-5.69,-9.75],[-5.69,-9.81],[-5.56,-9.81],[-5.56,-9.75],[-5.69,-9.75]]]}},{"type":"Feature","properties":{"val":1748.3,"field":"tp"},"geometry":{"type":"Polygon","coordinates":[[[-5.88,-9.94],[-5.88,-10.0],[-5.81,-10.0],[-5.81,-9.94],[-5.88,-9.94]]]}},{"type":"Feature","properties":{"val":1748.3,"field":"tp"},"geometry":{"type":"Polygon","coordinates":[[[-5.31,-10.06],[-5.31,-10.31],[-5.25,-10.31],[-5.25,-10.06],[-5.31,-10.06]]]}},{"type":"Feature","properties":{"val":1748.3,"field":"tp"},"geometry":{"type":"Polygon","coordinates":[[[-5.81,-10.31],[-5.81,-10.38],[-5.75,-10.38],[-5.75,-10.31],[-5.81,-10.31]]]}},{"type":"Feature","properties":{"val":1748.3,"field":"tp"},"geometry":{"type":"Polygon","coordinates":[[[-5.5,-10.31],[-5.5,-10.38],[-5.38,-10.38],[-5.38,-10.31],[-5.5,-10.31]]]}},{"type":"Feature","properties":{"val":1885.28,"field":"tp"},"geometry":{"type":"Polygon","coordinates":[[[-5.75,-9.81],[-5.69,-9.81],[-5.69,-9.88],[-5.75,-9.88],[-5.75,-9.94],[-5.81,-9.94],[-5.81,-9.88],[-5.75,-9.88],[-5.75,-9.81]]]}},{"type":"Feature","properties":{"val":1885.28,"field":"tp"},"geometry":{"type":"Polygon","coordinates":[[[-5.5,-9.81],[-5.5,-9.88],[-5.44,-9.88],[-5.44,-9.94],[-5.38,-9.94],[-5.38,-10.0],[-5.31,-10.0],[-5.31,-9.94],[-5.38,-9.94],[-5.38,-9.88],[-5.44,-9.88],[-5.44,-9.81],[-5.5,-9.81]]]}},{"type":"Feature","properties":{"val":1885.28,"field":"tp"},"geometry":{"type":"Polygon","coordinates":[[[-5.88,-10.25],[-5.88,-10.31],[-5.81,-10.31],[-5.81,-10.25],[-5.88,-10.25]]]}},{"type":"Feature","properties":{"val":1885.28,"field":"tp"},"geometry":{"type":"Polygon","coordinates":[[[-5.38,-10.25],[-5.38,-10.31],[-5.31,-10.31],[-5.31,-10.25],[-5.38,-10.25]]]}},{"type":"Feature","properties":{"val":1885.28,"field":"tp"},"geometry":{"type":"Polygon","coordinates":[[[-5.56,-10.31],[-5.56,-10.38],[-5.5,-10.38],[-5.5,-10.31],[-5.56,-10.31]]]}},{"type":"Feature","properties":{"val":2022.26,"field":"tp"},"geometry":{"type":"Polygon","coordinates":[[[-5.69,-9.81],[-5.69,-9.88],[-5.5,-9.88],[-5.5,-9.81],[-5.69,-9.81]]]}},{"type":"Feature","properties":{"val":2022.26,"field":"tp"},"geometry":{"type":"Polygon","coordinates":[[[-5.88,-10.0],[-5.88,-10.06],[-5.81,-10.06],[-5.81,-10.0],[-5.88,-10.0]]]}},{"type":"Feature","properties":{"val":2022.26,"field":"tp"},"geometry":{"type":"Polygon","coordinates":[[[-5.38,-10.0],[-5.38,-10.06],[-5.31,-10.06],[-5.31,-10.0],[-5.38,-10.0]]]}},{"type":"Feature","properties":{"val":2022.26,"field":"tp"},"geometry":{"type":"Polygon","coordinates":[[[-5.88,-10.19],[-5.88,-10.25],[-5.81,-10.25],[-5.81,-10.19],[-5.88,-10.19]]]}},{"type":"Feature","properties":{"val":2022.26,"field":"tp"},"geometry":{"type":"Polygon","coordinates":[[[-5.38,-10.19],[-5.31,-10.19],[-5.31,-10.25],[-5.38,-10.25],[-5.38,-10.31],[-5.44,-10.31],[-5.44,-10.25],[-5.38,-10.25],[-5.38,-10.19]]]}},{"type":"Feature","properties":{"val":2022.26,"field":"tp"},"geometry":{"type":"Polygon","coordinates":[[[-5.75,-10.31],[-5.75,-10.38],[-5.56,-10.38],[-5.56,-10.31],[-5.75,-10.31]]]}},{"type":"Feature","properties":{"val":2159.24,"field":"tp"},"geometry":{"type":"Polygon","coordinates":[[[-5.5,-9.88],[-5.5,-9.94],[-5.44,-9.94],[-5.44,-10.0],[-5.38,-10.0],[-5.38,-9.94],[-5.44,-9.94],[-5.44,-9.88],[-5.5,-9.88]]]}},{"type":"Feature","properties":{"val":2159.24,"field":"tp"},"geometry":{"type":"Polygon","coordinates":[[[-5.38,-10.06],[-5.38,-10.19],[-5.31,-10.19],[-5.31,-10.06],[-5.38,-10.06]]]}},{"type":"Feature","properties":{"val":2159.24,"field":"tp"},"geometry":{"type":"Polygon","coordinates":[[[-5.88,-10.12],[-5.88,-10.19],[-5.81,-10.19],[-5.81,-10.12],[-5.88,-10.12]]]}},{"type":"Feature","properties":{"val":2159.24,"field":"tp"},"geometry":{"type":"Polygon","coordinates":[[[-5.81,-10.25],[-5.81,-10.31],[-5.75,-10.31],[-5.75,-10.25],[-5.81,-10.25]]]}},{"type":"Feature","properties":{"val":2159.24,"field":"tp"},"geometry":{"type":"Polygon","coordinates":[[[-5.5,-10.25],[-5.5,-10.31],[-5.44,-10.31],[-5.44,-10.25],[-5.5,-10.25]]]}},{"type":"Feature","properties":{"val":2296.22,"field":"tp"},"geometry":{"type":"Polygon","coordinates":[[[-5.75,-9.88],[-5.69,-9.88],[-5.69,-9.94],[-5.75,-9.94],[-5.75,-10.0],[-5.81,-10.0],[-5.81,-9.94],[-5.75,-9.94],[-5.75,-9.88]]]}},{"type":"Feature","properties":{"val":2296.22,"field":"tp"},"geometry":{"type":"Polygon","coordinates":[[[-5.88,-10.06],[-5.88,-10.12],[-5.81,-10.12],[-5.81,-10.06],[-5.88,-10.06]]]}},{"type":"Feature","properties":{"val":2296.22,"field":"tp"},"geometry":{"type":"Polygon","coordinates":[[[-5.44,-10.19],[-5.44,-10.25],[-5.38,-10.25],[-5.38,-10.19],[-5.44,-10.19]]]}},{"type":"Feature","properties":{"val":2296.22,"field":"tp"},"geometry":{"type":"Polygon","coordinates":[[[-5.56,-10.25],[-5.56,-10.31],[-5.5,-10.31],[-5.5,-10.25],[-5.56,-10.25]]]}},{"type":"Feature","properties":{"val":2433.2,"field":"tp"},"geometry":{"type":"Polygon","coordinates":[[[-5.56,-9.88],[-5.56,-9.94],[-5.5,-9.94],[-5.5,-9.88],[-5.56,-9.88]]]}},{"type":"Feature","properties":{"val":2433.2,"field":"tp"},"geometry":{"type":"Polygon","coordinates":[[[-5.44,-10.0],[-5.44,-10.06],[-5.38,-10.06],[-5.38,-10.0],[-5.44,-10.0]]]}},{"type":"Feature","properties":{"val":2433.2,"field":"tp"},"geometry":{"type":"Polygon","coordinates":[[[-5.44,-10.12],[-5.44,-10.19],[-5.38,-10.19],[-5.38,-10.12],[-5.44,-10.12]]]}},{"type":"Feature","properties":{"val":2433.2,"field":"tp"},"geometry":{"type":"Polygon","coordinates":[[[-5.81,-10.19],[-5.81,-10.25],[-5.75,-10.25],[-5.75,-10.31],[-5.69,-10.31],[-5.69,-10.25],[-5.75,-10.25],[-5.75,-10.19],[-5.81,-10.19]]]}},{"type":"Feature","properties":{"val":2433.2,"field":"tp"},"geometry":{"type":"Polygon","coordinates":[[[-5.62,-10.25],[-5.62,-10.31],[-5.56,-10.31],[-5.56,-10.25],[-5.62,-10.25]]]}},{"type":"Feature","properties":{"val":2570.18,"field":"tp"},"geometry":{"type":"Polygon","coordinates":[[[-5.69,-9.88],[-5.69,-9.94],[-5.56,-9.94],[-5.56,-9.88],[-5.69,-9.88]]]}},{"type":"Feature","properties":{"val":2570.18,"field":"tp"},"geometry":{"type":"Polygon","coordinates":[[[-5.5,-9.94],[-5.5,-10.0],[-5.44,-10.0],[-5.44,-9.94],[-5.5,-9.94]]]}},{"type":"Feature","properties":{"val":2570.18,"field":"tp"},"geometry":{"type":"Polygon","coordinates":[[[-5.44,-10.06],[-5.44,-10.12],[-5.38,-10.12],[-5.38,-10.06],[-5.44,-10.06]]]}},{"type":"Feature","properties":{"val":2570.18,"field":"tp"},"geometry":{"type":"Polygon","coordinates":[[[-5.5,-10.19],[-5.5,-10.25],[-5.44,-10.25],[-5.44,-10.19],[-5.5,-10.19]]]}},{"type":"Feature","properties":{"val":2570.18,"field":"tp"},"geometry":{"type":"Polygon","coordinates":[[[-5.69,-10.25],[-5.69,-10.31],[-5.62,-10.31],[-5.62,-10.25],[-5.69,-10.25]]]}},{"type":"Feature","properties":{"val":2707.16,"field":"tp"},"geometry":{"type":"Polygon","coordinates":[[[-5.75,-9.94],[-5.69,-9.94],[-5.69,-10.0],[-5.75,-10.0],[-5.75,-10.06],[-5.81,-10.06],[-5.81,-10.0],[-5.75,-10.0],[-5.75,-9.94]]]}},{"type":"Feature","properties":{"val":2707.16,"field":"tp"},"geometry":{"type":"Polygon","coordinates":[[[-5.81,-10.12],[-5.81,-10.19],[-5.75,-10.19],[-5.75,-10.12],[-5.81,-10.12]]]}},{"type":"Feature","properties":{"val":2844.14,"field":"tp"},"geometry":{"type":"Polygon","coordinates":[[[-5.56,-9.94],[-5.56,-10.0],[-5.5,-10.0],[-5.5,-10.06],[-5.44,-10.06],[-5.44,-10.0],[-5.5,-10.0],[-5.5,-9.94],[-5.56,-9.94]]]}},{"type":"Feature","properties":{"val":2844.14,"field":"tp"},"geometry":{"type":"Polygon","coordinates":[[[-5.81,-10.06],[-5.81,-10.12],[-5.75,-10.12],[-5.75,-10.06],[-5.81,-10.06]]]}},{"type":"Feature","properties":{"val":2844.14,"field":"tp"},"geometry":{"type":"Polygon","coordinates":[[[-5.5,-10.12],[-5.44,-10.12],[-5.44,-10.19],[-5.5,-10.19],[-5.5,-10.25],[-5.56,-10.25],[-5.56,-10.19],[-5.5,-10.19],[-5.5,-10.12]]]}},{"type":"Feature","properties":{"val":2844.14,"field":"tp"},"geometry":{"type":"Polygon","coordinates":[[[-5.75,-10.19],[-5.75,-10.25],[-5.69,-10.25],[-5.69,-10.19],[-5.75,-10.19]]]}},{"type":"Feature","properties":{"val":2981.12,"field":"tp"},"geometry":{"type":"Polygon","coordinates":[[[-5.69,-9.94],[-5.69,-10.0],[-5.56,-10.0],[-5.56,-9.94],[-5.69,-9.94]]]}},{"type":"Feature","properties":{"val":2981.12,"field":"tp"},"geometry":{"type":"Polygon","coordinates":[[[-5.5,-10.06],[-5.5,-10.12],[-5.44,-10.12],[-5.44,-10.06],[-5.5,-10.06]]]}},{"type":"Feature","properties":{"val":2981.12,"field":"tp"},"geometry":{"type":"Polygon","coordinates":[[[-5.69,-10.19],[-5.69,-10.25],[-5.56,-10.25],[-5.56,-10.19],[-5.69,-10.19]]]}},{"type":"Feature","properties":{"val":3118.1,"field":"tp"},"geometry":{"type":"Polygon","coordinates":[[[-5.75,-10.0],[-5.75,-10.06],[-5.69,-10.06],[-5.69,-10.0],[-5.75,-10.0]]]}},{"type":"Feature","properties":{"val":3118.1,"field":"tp"},"geometry":{"type":"Polygon","coordinates":[[[-5.56,-10.0],[-5.56,-10.06],[-5.5,-10.06],[-5.5,-10.0],[-5.56,-10.0]]]}},{"type":"Feature","properties":{"val":3118.1,"field":"tp"},"geometry":{"type":"Polygon","coordinates":[[[-5.75,-10.12],[-5.75,-10.19],[-5.69,-10.19],[-5.69,-10.12],[-5.75,-10.12]]]}},{"type":"Feature","properties":{"val":3118.1,"field":"tp"},"geometry":{"type":"Polygon","coordinates":[[[-5.56,-10.12],[-5.56,-10.19],[-5.5,-10.19],[-5.5,-10.12],[-5.56,-10.12]]]}},{"type":"Feature","properties":{"val":3255.08,"field":"tp"},"geometry":{"type":"Polygon","coordinates":[[[-5.69,-10.0],[-5.56,-10.0],[-5.56,-10.06],[-5.5,-10.06],[-5.5,-10.12],[-5.56,-10.12],[-5.56,-10.19],[-5.69,-10.19],[-5.69,-10.12],[-5.75,-10.12],[-5.75,-10.06],[-5.69,-10.06],[-5.69,-10.0]],[[-5.69,-10.06],[-5.69,-10.12],[-5.56,-10.12],[-5.56,-10.06],[-5.69,-10.06]]]}},{"type":"Feature","properties":{"val":3392.06,"field":"tp"},"geometry":{"type":"Polygon","coordinates":[[[-5.69,-10.06],[-5.69,-10.12],[-5.56,-10.12],[-5.56,-10.06],[-5.69,-10.06]]]}}]}