{"type":"FeatureCollection","features":[{"type":"Feature","properties":{"val":158.41,"field":"tp"},"geometry":{"type":"Polygon","coordinates":[[[85.88,3.75],[85.88,3.69],[86.0,3.69],[86.0,3.62],[86.19,3.62],[86.19,3.69],[86.25,3.69],[86.25,3.75],[85.88,3.75]]]}},{"type":"Feature","properties":{"val":158.41,"field":"tp"},"geometry":{"type":"Polygon","coordinates":[[[90.31,3.69],[90.31,3.62],[90.38,3.62],[90.38,3.56],[90.62,3.56],[90.62,3.69],[90.31,3.69]]]}},{"type":"Feature","properties":{"val":158.41,"field":"tp"},"geometry":{"type":"Polygon","coordinates":[[[36.19,3.44],[36.25,3.44],[36.25,3.38],[36.38,3.38],[36.38,3.31],[36.31,3.31],[36.31,3.25],[36.25,3.25],[36.25,3.19],[35.81,3.19],[35.81,3.25],[35.88,3.25],[35.88,3.31],[35.94,3.31],[35.94,3.38],[36.19,3.38],[36.19,3.44]]]}},{"type":"Feature","properties":{"val":158.41,"field":"tp"},"geometry":{"type":"Polygon","coordinates":[[[-1.5,-8.19],[-1.44,-8.19],[-1.44,-8.5],[-1.5,-8.5],[-1.5,-8.56],[-1.62,-8.56],[-1.62,-8.62],[-1.81,-8.62],[-1.81,-8.56],[-1.88,-8.56],[-1.88,-8.5],[-1.81,-8.5],[-1.81,-8.44],[-1.69,-8.44],[-1.69,-8.38],[-1.62,-8.38],[-1.62,-8.31],[-1.56,-8.31],[-1.56,-8.25],[-1.5,-8.25],[-1.5,-8.19]]]}},{"type":"Feature","properties":{"val":158.41,"field":"tp"},"geometry":{"type":"Polygon","coordinates":[[[0.38,-8.69],[0.62,-8.69],[0.62,-8.75],[0.69,-8.75],[0.69,-8.94],[0.62,-8.94],[0.62,-9.06],[0.56,-9.06],[0.56,-9.19],[0.5,-9.19],[0.5,-9.25],[0.44,-9.25],[0.44,-9.31],[0.31,-9.31],[0.31,-9.44],[0.25,-9.44],[0.25,-9.62],[0.19,-9.62],[0.19,-9.75],[0.12,-9.75],[0.12,-9.88],[0.06,-9.88],[0.06,-10.0],[0.0,-10.0],[0.0,-10.12],[-0.06,-10.12],[-0.06,-10.19],[-0.12,-10.19],[-0.12,-10.25],[-0.31,-10.25],[-0.31,-10.19],[-0.69,-10.19],[-0.69,-10.25],[-0.81,-10.25],[-0.81,-10.31],[-1.0,-10.31],[-1.0,-10.38],[-1.06,-10.38],[-1.06,-10.44],[-1.25,-10.44],[-1.25,-10.25],[-1.19,-10.25],[-1.19,-10.12],[-1.12,-10.12],[-1.12,-9.81],[-1.06,-9.81],[-1.06,-9.69],[-1.0,-9.69],[-1.0,-9.56],[-0.94,-9.56],[-0.94,-9.44],[-0.88,-9.44],[-0.88,-9.38],[-0.75,-9.38],[-0.75,-9.31],[-0.69,-9.31],[-0.69,-9.25],[-0.56,-9.25],[-0.56,-9.19],[-0.44,-9.19],[-0.44,-9.12],[-0.25,-9.12],[-0.25,-9.06],[-0.19,-9.06],[-0.19,-9.0],[-0.12,-9.0],[-0.12,-8.94],[-0.06,-8.94],[-0.06,-8.88],[0.06,-8.88],[0.06,-8.81],[0.19,-8.81],[0.19,-8.75],[0.38,-8.75],[0.38,-8.69]],[[0.12,-9.06],[0.12,-9.12],[0.06,-9.12],[0.06,-9.19],[0.0,-9.19],[0.0,-9.25],[-0.12,-9.25],[-0.12,-9.31],[-0.5,-9.31],[-0.5,-9.38],[-0.62,-9.38],[-0.62,-9.44],[-0.69,-9.44],[-0.69,-9.5],[-0.81,-9.5],[-0.81,-9.81],[-0.75,-9.81],[-0.75,-9.88],[-0.44,-9.88],[-0.44,-9.81],[-0.25,-9.81],[-0.25,-9.75],[-0.12,-9.75],[-0.12,-9.69],[-0.06,-9.69],[-0.06,-9.62],[0.0,-9.62],[0.0,-9.5],[0.06,-9.5],[0.06,-9.38],[0.12,-9.38],[0.12,-9.19],[0.19,-9.19],[0.19,-9.12],[0.25,-9.12],[0.25,-9.06],[0.12,-9.06]]]}},{"type":"Feature","properties":{"val":158.41,"field":"tp"},"geometry":{"type":"Polygon","coordinates":[[[-0.5,-10.81],[-0.25,-10.81],[-0.25,-10.88],[-0.06,-10.88],[-0.06,-10.94],[0.0,-10.94],[0.0,-11.12],[-0.06,-11.12],[-0.06,-11.19],[-0.12,-11.19],[-0.12,-11.25],[-0.38,-11.25],[-0.38,-11.19],[-0.5,-11.19],[-0.5,-11.12],[-0.56,-11.12],[-0.56,-11.06],[-0.62,-11.06],[-0.62,-10.94],[-0.56,-10.94],[-0.56,-10.88],[-0.5,-10.88],[-0.5,-10.81]]]}},{"type":"Feature","properties":{"val":158.41,"field":"tp"},"geometry":{"type":"Polygon","coordinates":[[[0.56,-11.31],[0.62,-11.31],[0.62,-11.44],[0.5,-11.44],[0.5,-11.38],[0.56,-11.38],[0.56,-11.31]]]}},{"type":"Feature","properties":{"val":158.41,"field":"tp"},"geometry":{"type":"Polygon","coordinates":[[[-9.0,-8.06],[-8.75,-8.06],[-8.75,-8.19],[-8.69,-8.19],[-8.69,-8.25],[-8.75,-8.25],[-8.75,-8.38],[-8.81,-8.38],[-8.81,-8.44],[-8.88,-8.44],[-8.88,-8.5],[-9.0,-8.5],[-9.0,-8.56],[-9.12,-8.56],[-9.12,-8.62],[-9.19,-8.62],[-9.19,-8.69],[-9.31,-8.69],[-9.31,-8.75],[-9.38,-8.75],[-9.38,-8.81],[-9.44,-8.81],[-9.44,-8.88],[-9.5,-8.88],[-9.5,-8.94],[-9.56,-8.94],[-9.56,-9.0],[-9.69,-9.0],[-9.69,-9.06],[-9.75,-9.06],[-9.75,-9.12],[-9.81,-9.12],[-9.81,-9.25],[-9.88,-9.25],[-9.88,-9.31],[-9.94,-9.31],[-9.94,-9.44],[-10.06,-9.44],[-10.06,-9.5],[-10.12,-9.5],[-10.12,-9.62],[-10.19,-9.62],[-10.19,-9.88],[-10.12,-9.88],[-10.12,-9.94],[-10.0,-9.94],[-10.0,-10.0],[-9.88,-10.0],[-9.88,-10.06],[-9.81,-10.06],[-9.81,-10.12],[-9.75,-10.12],[-9.75,-10.38],[-9.81,-10.38],[-9.81,-10.44],[-9.88,-10.44],[-9.88,-10.5],[-9.94,-10.5],[-9.94,-10.56],[-10.0,-10.56],[-10.0,-10.81],[-9.94,-10.81],[-9.94,-10.88],[-9.88,-10.88],[-9.88,-11.06],[-9.81,-11.06],[-9.81,-11.31],[-9.75,-11.31],[-9.75,-11.44],[-9.69,-11.44],[-9.69,-11.56],[-9.62,-11.56],[-9.62,-11.75],[-9.56,-11.75],[-9.56,-11.81],[-9.5,-11.81],[-9.5,-11.88],[-9.44,-11.88],[-9.44,-11.94],[-9.38,-11.94],[-9.38,-12.06],[-9.31,-12.06],[-9.31,-12.19],[-9.25,-12.19],[-9.25,-12.31],[-9.31,-12.31],[-9.31,-12.38],[-9.56,-12.38],[-9.56,-12.31],[-9.62,-12.31],[-9.62,-12.25],[-9.69,-12.25],[-9.69,-12.19],[-9.75,-12.19],[-9.75,-12.06],[-9.81,-12.06],[-9.81,-11.81],[-9.88,-11.81],[-9.88,-11.69],[-9.94,-11.69],[-9.94,-11.62],[-10.06,-11.62],[-10.06,-11.69],[-10.44,-11.69],[-10.44,-11.62],[-10.56,-11.62],[-10.56,-11.56],[-10.62,-11.56],[-10.62,-11.5],[-10.81,-11.5],[-10.81,-11.44],[-10.94,-11.44],[-10.94,-11.38],[-11.12,-11.38],[-11.12,-11.31],[-11.31,-11.31],[-11.31,-11.25],[-11.56,-11.25],[-11.56,-11.31],[-11.62,-11.31],[-11.62,-11.44],[-11.69,-11.44],[-11.69,-11.56],[-11.75,-11.56],[-11.75,-11.62],[-12.12,-11.62],[-12.12,-11.56],[-12.19,-11.56],[-12.19,-11.38],[-12.25,-11.38],[-12.25,-11.0],[-12.12,-11.0],[-12.12,-10.94],[-11.75,-10.94],[-11.75,-10.44],[-11.69,-10.44],[-11.69,-10.31],[-11.62,-10.31],[-11.62,-10.25],[-11.56,-10.25],[-11.56,-10.19],[-11.5,-10.19],[-11.5,-9.88],[-11.44,-9.88],[-11.44,-9.81],[-11.38,-9.81],[-11.38,-9.75],[-11.0,-9.75],[-11.0,-9.81],[-10.75,-9.81],[-10.75,-9.75],[-10.62,-9.75],[-10.62,-9.69],[-10.56,-9.69],[-10.56,-9.56],[-10.5,-9.56],[-10.5,-9.44],[-10.44,-9.44],[-10.44,-9.38],[-10.38,-9.38],[-10.38,-9.25],[-10.25,-9.25],[-10.25,-9.19],[-10.19,-9.19],[-10.19,-9.12],[-10.12,-9.12],[-10.12,-9.06],[-10.06,-9.06],[-10.06,-9.0],[-9.94,-9.0],[-9.94,-8.94],[-9.88,-8.94],[-9.88,-8.88],[-9.81,-8.88],[-9.81,-8.81],[-9.75,-8.81],[-9.75,-8.75],[-9.62,-8.75],[-9.62,-8.69],[-9.5,-8.69],[-9.5,-8.62],[-9.44,-8.62],[-9.44,-8.56],[-9.31,-8.56],[-9.31,-8.5],[-9.25,-8.5],[-9.25,-8.44],[-9.19,-8.44],[-9.19,-8.31],[-9.12,-8.31],[-9.12,-8.25],[-9.06,-8.25],[-9.06,-8.12],[-9.0,-8.12],[-9.0,-8.06]],[[-11.31,-10.0],[-11.31,-10.06],[-11.38,-10.06],[-11.38,-10.19],[-11.44,-10.19],[-11.44,-10.25],[-11.5,-10.25],[-11.5,-10.31],[-11.56,-10.31],[-11.56,-10.38],[-11.62,-10.38],[-11.62,-10.44],[-11.69,-10.44],[-11.69,-10.81],[-11.62,-10.81],[-11.62,-10.88],[-11.56,-10.88],[-11.56,-11.0],[-11.5,-11.0],[-11.5,-11.06],[-11.38,-11.06],[-11.38,-11.12],[-11.19,-11.12],[-11.19,-11.19],[-11.0,-11.19],[-11.0,-11.25],[-10.81,-11.25],[-10.81,-11.31],[-10.44,-11.31],[-10.44,-11.25],[-10.38,-11.25],[-10.38,-11.0],[-10.44,-11.0],[-10.44,-10.88],[-10.5,-10.88],[-10.5,-10.5],[-10.56,-10.5],[-10.56,-10.44],[-10.62,-10.44],[-10.62,-10.38],[-10.88,-10.38],[-10.88,-10.31],[-11.0,-10.31],[-11.0,-10.12],[-11.06,-10.12],[-11.06,-10.0],[-11.31,-10.0]]]}},{"type":"Feature","properties":{"val":158.41,"field":"tp"},"geometry":{"type":"Polygon","coordinates":[[[-3.94,-8.69],[-3.88,-8.69],[-3.88,-8.75],[-3.75,-8.75],[-3.75,-8.94],[-3.69,-8.94],[-3.69,-9.0],[-3.5,-9.0],[-3.5,-8.94],[-3.25,-8.94],[-3.25,-8.88],[-3.19,-8.88],[-3.19,-8.94],[-3.12,-8.94],[-3.12,-9.38],[-3.06,-9.38],[-3.06,-9.44],[-2.81,-9.44],[-2.81,-9.5],[-2.75,-9.5],[-2.75,-9.56],[-2.69,-9.56],[-2.69,-9.75],[-2.62,-9.75],[-2.62,-9.94],[-2.56,-9.94],[-2.56,-10.0],[-2.38,-10.0],[-2.38,-9.94],[-2.25,-9.94],[-2.25,-9.88],[-2.19,-9.88],[-2.19,-9.81],[-2.12,-9.81],[-2.12,-9.75],[-2.0,-9.75],[-2.0,-9.69],[-1.94,-9.69],[-1.94,-9.75],[-1.88,-9.75],[-1.88,-9.81],[-1.81,-9.81],[-1.81,-9.88],[-1.44,-9.88],[-1.44,-10.06],[-1.5,-10.06],[-1.5,-10.19],[-1.56,-10.19],[-1.56,-10.25],[-1.69,-10.25],[-1.69,-10.31],[-1.75,-10.31],[-1.75,-10.38],[-1.81,-10.38],[-1.81,-10.44],[-2.12,-10.44],[-2.12,-10.38],[-2.44,-10.38],[-2.44,-10.44],[-2.5,-10.44],[-2.5,-10.5],[-2.56,-10.5],[-2.56,-10.56],[-2.62,-10.56],[-2.62,-10.62],[-2.69,-10.62],[-2.69,-10.69],[-2.75,-10.69],[-2.75,-10.75],[-2.88,-10.75],[-2.88,-10.81],[-3.06,-10.81],[-3.06,-10.88],[-3.12,-10.88],[-3.12,-10.94],[-3.19,-10.94],[-3.19,-11.06],[-3.25,-11.06],[-3.25,-11.31],[-3.31,-11.31],[-3.31,-11.44],[-3.38,-11.44],[-3.38,-11.5],[-3.44,-11.5],[-3.44,-11.62],[-3.5,-11.62],[-3.5,-11.75],[-3.56,-11.75],[-3.56,-11.88],[-3.62,-11.88],[-3.62,-11.94],[-3.69,-11.94],[-3.69,-12.0],[-3.75,-12.0],[-3.75,-12.06],[-3.81,-12.06],[-3.81,-12.31],[-3.88,-12.31],[-3.88,-12.44],[-3.94,-12.44],[-3.94,-12.5],[-4.12,-12.5],[-4.12,-12.56],[-4.19,-12.56],[-4.19,-12.75],[-4.25,-12.75],[-4.25,-12.81],[-4.38,-12.81],[-4.38,-12.75],[-4.5,-12.75],[-4.5,-12.69],[-4.56,-12.69],[-4.56,-12.56],[-4.62,-12.56],[-4.62,-12.5],[-4.69,-12.5],[-4.69,-12.38],[-4.75,-12.38],[-4.75,-12.19],[-4.81,-12.19],[-4.81,-12.12],[-4.88,-12.12],[-4.88,-12.06],[-4.94,-12.06],[-4.94,-12.0],[-5.0,-12.0],[-5.0,-11.94],[-5.06,-11.94],[-5.06,-11.56],[-5.19,-11.56],[-5.19,-11.5],[-5.31,-11.5],[-5.31,-11.44],[-5.75,-11.44],[-5.75,-11.38],[-5.81,-11.38],[-5.81,-11.31],[-5.88,-11.31],[-5.88,-11.19],[-5.94,-11.19],[-5.94,-11.0],[-6.0,-11.0],[-6.0,-10.88],[-6.06,-10.88],[-6.06,-10.81],[-6.12,-10.81],[-6.12,-10.75],[-6.19,-10.75],[-6.19,-10.62],[-6.25,-10.62],[-6.25,-10.5],[-6.31,-10.5],[-6.31,-10.25],[-6.25,-10.25],[-6.25,-10.0],[-6.19,-10.0],[-6.19,-9.88],[-6.12,-9.88],[-6.12,-9.81],[-6.06,-9.81],[-6.06,-9.69],[-6.0,-9.69],[-6.0,-9.81],[-6.06,-9.81],[-6.06,-9.94],[-6.12,-9.94],[-6.12,-10.06],[-6.19,-10.06],[-6.19,-10.5],[-6.12,-10.5],[-6.12,-10.56],[-6.06,-10.56],[-6.06,-10.62],[-6.0,-10.62],[-6.0,-10.75],[-5.94,-10.75],[-5.94,-10.81],[-5.88,-10.81],[-5.88,-10.94],[-5.81,-10.94],[-5.81,-11.06],[-5.75,-11.06],[-5.75,-11.12],[-5.69,-11.12],[-5.69,-11.19],[-5.31,-11.19],[-5.31,-11.25],[-5.12,-11.25],[-5.12,-11.31],[-4.75,-11.31],[-4.75,-11.38],[-4.69,-11.38],[-4.69,-11.5],[-4.62,-11.5],[-4.62,-11.69],[-4.56,-11.69],[-4.56,-11.75],[-4.5,-11.75],[-4.5,-11.88],[-4.44,-11.88],[-4.44,-11.94],[-4.31,-11.94],[-4.31,-11.81],[-4.25,-11.81],[-4.25,-11.25],[-4.31,-11.25],[-4.31,-11.19],[-4.25,-11.19],[-4.25,-11.12],[-4.19,-11.12],[-4.19,-11.06],[-4.06,-11.06],[-4.06,-11.0],[-3.94,-11.0],[-3.94,-10.94],[-3.88,-10.94],[-3.88,-10.81],[-3.81,-10.81],[-3.81,-10.69],[-3.75,-10.69],[-3.75,-10.5],[-3.69,-10.5],[-3.69,-10.44],[-3.62,-10.44],[-3.62,-10.25],[-3.56,-10.25],[-3.56,-10.06],[-3.5,-10.06],[-3.5,-9.5],[-3.44,-9.5],[-3.44,-9.25],[-3.62,-9.25],[-3.62,-9.31],[-3.88,-9.31],[-3.88,-9.25],[-3.94,-9.25],[-3.94,-9.0],[-4.0,-9.0],[-4.0,-8.94],[-4.12,-8.94],[-4.12,-9.0],[-4.38,-9.0],[-4.38,-9.06],[-4.56,-9.06],[-4.56,-9.0],[-4.69,-9.0],[-4.69,-8.94],[-4.81,-8.94],[-4.81,-9.0],[-5.0,-9.0],[-5.0,-9.06],[-5.12,-9.06],[-5.12,-9.12],[-5.25,-9.12],[-5.25,-9.19],[-5.62,-9.19],[-5.62,-9.25],[-5.81,-9.25],[-5.81,-9.31],[-5.88,-9.31],[-5.88,-9.44],[-5.94,-9.44],[-5.94,-9.62],[-6.0,-9.62],[-6.0,-9.44],[-5.94,-9.44],[-5.94,-9.31],[-5.88,-9.31],[-5.88,-9.25],[-5.81,-9.25],[-5.81,-9.19],[-5.69,-9.19],[-5.69,-9.12],[-5.56,-9.12],[-5.56,-9.06],[-5.5,-9.06],[-5.5,-9.0],[-5.44,-9.0],[-5.44,-8.94],[-5.38,-8.94],[-5.38,-8.88],[-5.31,-8.88],[-5.31,-8.81],[-4.5,-8.81],[-4.5,-8.88],[-4.19,-8.88],[-4.19,-8.81],[-4.06,-8.81],[-4.06,-8.75],[-3.94,-8.75],[-3.94,-8.69]]]}},{"type":"Feature","properties":{"val":158.41,"field":"tp"},"geometry":{"type":"Polygon","coordinates":[[[54.94,-21.31],[54.94,-21.44],[55.0,-21.44],[55.0,-21.5],[55.06,-21.5],[55.06,-21.56],[55.12,-21.56],[55.12,-21.62],[55.19,-21.62],[55.19,-21.69],[55.25,-21.69],[55.25,-21.75],[55.38,-21.75],[55.38,-21.81],[55.5,-21.81],[55.5,-21.88],[55.62,-21.88],[55.62,-21.94],[55.88,-21.94],[55.88,-22.0],[56.0,-22.0],[56.0,-22.06],[56.25,-22.06],[56.25,-22.12],[56.38,-22.12],[56.38,-22.19],[56.5,-22.19],[56.5,-21.88],[56.44,-21.88],[56.44,-21.81],[56.31,-21.81],[56.31,-21.75],[56.06,-21.75],[56.06,-21.69],[55.88,-21.69],[55.88,-21.62],[55.69,-21.62],[55.69,-21.56],[55.5,-21.56],[55.5,-21.5],[55.38,-21.5],[55.38,-21.44],[55.31,-21.44],[55.31,-21.38],[55.19,-21.38],[55.19,-21.31],[54.94,-21.31]]]}},{"type":"Feature","properties":{"val":158.41,"field":"tp"},"geometry":{"type":"Polygon","coordinates":[[[58.38,-22.88],[58.38,-23.0],[58.44,-23.0],[58.44,-23.12],[58.5,-23.12],[58.5,-23.19],[58.56,-23.19],[58.56,-23.25],[58.62,-23.25],[58.62,-23.31],[58.69,-23.31],[58.69,-23.38],[58.81,-23.38],[58.81,-23.44],[58.94,-23.44],[58.94,-23.5],[59.06,-23.5],[59.06,-23.31],[59.0,-23.31],[59.0,-23.25],[58.94,-23.25],[58.94,-23.19],[58.88,-23.19],[58.88,-23.12],[58.81,-23.12],[58.81,-23.06],[58.75,-23.06],[58.75,-23.0],[58.69,-23.0],[58.69,-22.94],[58.5,-22.94],[58.5,-22.88],[58.38,-22.88]]]}},{"type":"Feature","properties":{"val":158.41,"field":"tp"},"geometry":{"type":"Polygon","coordinates":[[[-2.75,-24.75],[-2.75,-24.94],[-2.62,-24.94],[-2.62,-25.0],[-2.44,-25.0],[-2.44,-24.81],[-2.56,-24.81],[-2.56,-24.75],[-2.75,-24.75]]]}},{"type":"Feature","properties":{"val":158.41,"field":"tp"},"geometry":{"type":"Polygon","coordinates":[[[-7.38,-23.25],[-7.06,-23.25],[-7.06,-23.31],[-6.94,-23.31],[-6.94,-23.38],[-6.88,-23.38],[-6.88,-23.5],[-6.81,-23.5],[-6.81,-23.56],[-6.75,-23.56],[-6.75,-23.75],[-6.69,-23.75],[-6.69,-23.88],[-6.62,-23.88],[-6.62,-24.0],[-6.56,-24.0],[-6.56,-24.06],[-6.5,-24.06],[-6.5,-24.19],[-6.38,-24.19],[-6.38,-24.25],[-6.31,-24.25],[-6.31,-24.38],[-6.25,-24.38],[-6.25,-24.44],[-6.19,-24.44],[-6.19,-24.5],[-5.88,-24.5],[-5.88,-24.62],[-5.81,-24.62],[-5.81,-24.69],[-5.69,-24.69],[-5.69,-24.75],[-5.56,-24.75],[-5.56,-24.81],[-5.5,-24.81],[-5.5,-24.94],[-5.56,-24.94],[-5.56,-25.0],[-5.62,-25.0],[-5.62,-25.06],[-5.69,-25.06],[-5.69,-25.12],[-5.81,-25.12],[-5.81,-25.25],[-5.88,-25.25],[-5.88,-25.38],[-5.94,-25.38],[-5.94,-25.31],[-6.06,-25.31],[-6.06,-25.25],[-6.25,-25.25],[-6.25,-25.19],[-6.44,-25.19],[-6.44,-25.12],[-6.5,-25.12],[-6.5,-25.06],[-6.62,-25.06],[-6.62,-24.94],[-6.69,-24.94],[-6.69,-24.88],[-6.75,-24.88],[-6.75,-24.75],[-6.81,-24.75],[-6.81,-24.69],[-6.88,-24.69],[-6.88,-24.62],[-7.0,-24.62],[-7.0,-24.56],[-7.06,-24.56],[-7.06,-24.5],[-7.12,-24.5],[-7.12,-24.44],[-7.19,-24.44],[-7.19,-24.38],[-7.25,-24.38],[-7.25,-24.25],[-7.31,-24.25],[-7.31,-24.12],[-7.38,-24.12],[-7.38,-24.0],[-7.44,-24.0],[-7.44,-23.81],[-7.5,-23.81],[-7.5,-23.38],[-7.44,-23.38],[-7.44,-23.31],[-7.38,-23.31],[-7.38,-23.25]],[[-7.25,-23.31],[-7.25,-23.38],[-7.38,-23.38],[-7.38,-23.5],[-7.44,-23.5],[-7.44,-23.81],[-7.38,-23.81],[-7.38,-23.94],[-7.31,-23.94],[-7.31,-24.0],[-7.25,-24.0],[-7.25,-24.12],[-7.19,-24.12],[-7.19,-24.19],[-7.12,-24.19],[-7.12,-24.25],[-7.06,-24.25],[-7.06,-24.31],[-7.0,-24.31],[-7.0,-24.38],[-6.94,-24.38],[-6.94,-24.44],[-6.88,-24.44],[-6.88,-24.5],[-6.75,-24.5],[-6.75,-24.56],[-6.69,-24.56],[-6.69,-24.69],[-6.62,-24.69],[-6.62,-24.75],[-6.56,-24.75],[-6.56,-24.88],[-6.5,-24.88],[-6.5,-24.94],[-6.31,-24.94],[-6.31,-25.0],[-6.25,-25.0],[-6.25,-24.94],[-6.19,-24.94],[-6.19,-24.75],[-6.25,-24.75],[-6.25,-24.62],[-6.31,-24.62],[-6.31,-24.5],[-6.38,-24.5],[-6.38,-24.44],[-6.44,-24.44],[-6.44,-24.38],[-6.5,-24.38],[-6.5,-24.31],[-6.56,-24.31],[-6.56,-24.25],[-6.62,-24.25],[-6.62,-24.19],[-6.69,-24.19],[-6.69,-24.12],[-6.75,-24.12],[-6.75,-24.0],[-6.81,-24.0],[-6.81,-23.81],[-6.88,-23.81],[-6.88,-23.56],[-6.94,-23.56],[-6.94,-23.5],[-7.0,-23.5],[-7.0,-23.44],[-7.06,-23.44],[-7.06,-23.38],[-7.19,-23.38],[-7.19,-23.31],[-7.25,-23.31]]]}},{"type":"Feature","properties":{"val":158.41,"field":"tp"},"geometry":{"type":"Polygon","coordinates":[[[-5.06,-24.75],[-4.75,-24.75],[-4.75,-24.81],[-4.69,-24.81],[-4.69,-24.94],[-4.62,-24.94],[-4.62,-25.0],[-4.69,-25.0],[-4.69,-25.19],[-4.75,-25.19],[-4.75,-25.25],[-4.94,-25.25],[-4.94,-25.19],[-5.0,-25.19],[-5.0,-25.12],[-5.06,-25.12],[-5.06,-25.06],[-5.12,-25.06],[-5.12,-24.81],[-5.06,-24.81],[-5.06,-24.75]]]}},{"type":"Feature","properties":{"val":248.26,"field":"tp"},"geometry":{"type":"Polygon","coordinates":[[[-5.94,-9.44],[-5.94,-9.5],[-5.88,-9.5],[-5.88,-9.44],[-5.94,-9.44]]]}},{"type":"Feature","properties":{"val":248.26,"field":"tp"},"geometry":{"type":"Polygon","coordinates":[[[0.12,-9.06],[0.25,-9.06],[0.25,-9.12],[0.19,-9.12],[0.19,-9.19],[0.12,-9.19],[0.12,-9.38],[0.06,-9.38],[0.06,-9.5],[0.0,-9.5],[0.0,-9.62],[-0.06,-9.62],[-0.06,-9.69],[-0.12,-9.69],[-0.12,-9.75],[-0.25,-9.75],[-0.25,-9.81],[-0.44,-9.81],[-0.44,-9.88],[-0.75,-9.88],[-0.75,-9.81],[-0.81,-9.81],[-0.81,-9.5],[-0.69,-9.5],[-0.69,-9.44],[-0.62,-9.44],[-0.62,-9.38],[-0.5,-9.38],[-0.5,-9.31],[-0.12,-9.31],[-0.12,-9.25],[0.0,-9.25],[0.0,-9.19],[0.06,-9.19],[0.06,-9.12],[0.12,-9.12],[0.12,-9.06]]]}},{"type":"Feature","properties":{"val":248.26,"field":"tp"},"geometry":{"type":"Polygon","coordinates":[[[-6.0,-9.62],[-6.0,-9.75],[-5.94,-9.75],[-5.94,-9.62],[-6.0,-9.62]]]}},{"type":"Feature","properties":{"val":248.26,"field":"tp"},"geometry":{"type":"Polygon","coordinates":[[[-6.06,-9.81],[-6.06,-9.88],[-6.0,-9.88],[-6.0,-9.81],[-6.06,-9.81]]]}},{"type":"Feature","properties":{"val":248.26,"field":"tp"},"geometry":{"type":"Polygon","coordinates":[[[-11.31,-10.0],[-11.06,-10.0],[-11.06,-10.12],[-11.0,-10.12],[-11.0,-10.31],[-10.88,-10.31],[-10.88,-10.38],[-10.62,-10.38],[-10.62,-10.44],[-10.56,-10.44],[-10.56,-10.5],[-10.5,-10.5],[-10.5,-10.88],[-10.44,-10.88],[-10.44,-11.0],[-10.38,-11.0],[-10.38,-11.25],[-10.44,-11.25],[-10.44,-11.31],[-10.81,-11.31],[-10.81,-11.25],[-11.0,-11.25],[-11.0,-11.19],[-11.19,-11.19],[-11.19,-11.12],[-11.38,-11.12],[-11.38,-11.06],[-11.5,-11.06],[-11.5,-11.0],[-11.56,-11.0],[-11.56,-10.88],[-11.62,-10.88],[-11.62,-10.81],[-11.69,-10.81],[-11.69,-10.44],[-11.62,-10.44],[-11.62,-10.38],[-11.56,-10.38],[-11.56,-10.31],[-11.5,-10.31],[-11.5,-10.25],[-11.44,-10.25],[-11.44,-10.19],[-11.38,-10.19],[-11.38,-10.06],[-11.31,-10.06],[-11.31,-10.0]],[[-11.25,-10.12],[-11.25,-10.19],[-11.31,-10.19],[-11.31,-10.25],[-11.38,-10.25],[-11.38,-10.31],[-11.44,-10.31],[-11.44,-10.38],[-11.56,-10.38],[-11.56,-10.44],[-11.62,-10.44],[-11.62,-10.75],[-11.56,-10.75],[-11.56,-10.88],[-11.5,-10.88],[-11.5,-10.94],[-11.38,-10.94],[-11.38,-11.0],[-11.25,-11.0],[-11.25,-11.06],[-10.94,-11.06],[-10.94,-11.12],[-10.81,-11.12],[-10.81,-11.19],[-10.62,-11.19],[-10.62,-11.12],[-10.56,-11.12],[-10.56,-11.0],[-10.62,-11.0],[-10.62,-10.56],[-10.69,-10.56],[-10.69,-10.5],[-10.75,-10.5],[-10.75,-10.44],[-10.94,-10.44],[-10.94,-10.38],[-11.0,-10.38],[-11.0,-10.31],[-11.06,-10.31],[-11.06,-10.25],[-11.12,-10.25],[-11.12,-10.19],[-11.19,-10.19],[-11.19,-10.12],[-11.25,-10.12]]]}},{"type":"Feature","properties":{"val":248.26,"field":"tp"},"geometry":{"type":"Polygon","coordinates":[[[-12.06,-11.12],[-12.06,-11.25],[-12.0,-11.25],[-12.0,-11.31],[-11.94,-11.31],[-11.94,-11.25],[-11.88,-11.25],[-11.88,-11.19],[-11.94,-11.19],[-11.94,-11.12],[-12.06,-11.12]]]}},{"type":"Feature","properties":{"val":248.26,"field":"tp"},"geometry":{"type":"Polygon","coordinates":[[[-4.81,-8.94],[-4.69,-8.94],[-4.69,-9.0],[-4.56,-9.0],[-4.56,-9.06],[-4.38,-9.06],[-4.38,-9.0],[-4.12,-9.0],[-4.12,-8.94],[-4.0,-8.94],[-4.0,-9.0],[-3.94,-9.0],[-3.94,-9.25],[-3.88,-9.25],[-3.88,-9.31],[-3.62,-9.31],[-3.62,-9.25],[-3.44,-9.25],[-3.44,-9.5],[-3.5,-9.5],[-3.5,-10.06],[-3.56,-10.06],[-3.56,-10.25],[-3.62,-10.25],[-3.62,-10.44],[-3.69,-10.44],[-3.69,-10.5],[-3.75,-10.5],[-3.75,-10.69],[-3.81,-10.69],[-3.81,-10.81],[-3.88,-10.81],[-3.88,-10.94],[-3.94,-10.94],[-3.94,-11.0],[-4.06,-11.0],[-4.06,-11.06],[-4.19,-11.06],[-4.19,-11.12],[-4.25,-11.12],[-4.25,-11.19],[-4.31,-11.19],[-4.31,-11.25],[-4.25,-11.25],[-4.25,-11.81],[-4.31,-11.81],[-4.31,-11.94],[-4.44,-11.94],[-4.44,-11.88],[-4.5,-11.88],[-4.5,-11.75],[-4.56,-11.75],[-4.56,-11.69],[-4.62,-11.69],[-4.62,-11.5],[-4.69,-11.5],[-4.69,-11.38],[-4.75,-11.38],[-4.75,-11.31],[-5.12,-11.31],[-5.12,-11.25],[-5.31,-11.25],[-5.31,-11.19],[-5.69,-11.19],[-5.69,-11.12],[-5.75,-11.12],[-5.75,-11.06],[-5.81,-11.06],[-5.81,-10.94],[-5.88,-10.94],[-5.88,-10.81],[-5.94,-10.81],[-5.94,-10.75],[-6.0,-10.75],[-6.0,-10.62],[-6.06,-10.62],[-6.06,-10.56],[-6.12,-10.56],[-6.12,-10.5],[-6.19,-10.5],[-6.19,-10.06],[-6.12,-10.06],[-6.12,-9.94],[-6.06,-9.94],[-6.06,-10.06],[-6.12,-10.06],[-6.12,-10.44],[-6.06,-10.44],[-6.06,-10.56],[-6.0,-10.56],[-6.0,-10.62],[-5.94,-10.62],[-5.94,-10.69],[-5.88,-10.69],[-5.88,-10.75],[-5.81,-10.75],[-5.81,-10.88],[-5.75,-10.88],[-5.75,-10.94],[-5.62,-10.94],[-5.62,-11.0],[-5.44,-11.0],[-5.44,-10.94],[-5.31,-10.94],[-5.31,-10.88],[-5.25,-10.88],[-5.25,-10.81],[-5.19,-10.81],[-5.19,-10.75],[-5.12,-10.75],[-5.12,-10.69],[-5.0,-10.69],[-5.0,-10.62],[-4.88,-10.62],[-4.88,-10.56],[-4.75,-10.56],[-4.75,-10.62],[-4.62,-10.62],[-4.62,-10.69],[-4.56,-10.69],[-4.56,-10.81],[-4.5,-10.81],[-4.5,-10.88],[-4.44,-10.88],[-4.44,-10.94],[-4.19,-10.94],[-4.19,-10.88],[-4.12,-10.88],[-4.12,-10.81],[-4.06,-10.81],[-4.06,-10.75],[-4.0,-10.75],[-4.0,-10.5],[-3.94,-10.5],[-3.94,-10.25],[-3.88,-10.25],[-3.88,-10.12],[-3.81,-10.12],[-3.81,-9.94],[-3.75,-9.94],[-3.75,-9.5],[-3.88,-9.5],[-3.88,-9.44],[-4.06,-9.44],[-4.06,-9.38],[-4.19,-9.38],[-4.19,-9.31],[-4.25,-9.31],[-4.25,-9.19],[-4.56,-9.19],[-4.56,-9.12],[-4.75,-9.12],[-4.75,-9.06],[-4.81,-9.06],[-4.81,-9.12],[-5.06,-9.12],[-5.06,-9.19],[-5.12,-9.19],[-5.12,-9.25],[-5.25,-9.25],[-5.25,-9.31],[-5.81,-9.31],[-5.81,-9.38],[-5.88,-9.38],[-5.88,-9.31],[-5.81,-9.31],[-5.81,-9.25],[-5.62,-9.25],[-5.62,-9.19],[-5.25,-9.19],[-5.25,-9.12],[-5.12,-9.12],[-5.12,-9.06],[-5.0,-9.06],[-5.0,-9.0],[-4.81,-9.0],[-4.81,-8.94]]]}},{"type":"Feature","properties":{"val":248.26,"field":"tp"},"geometry":{"type":"Polygon","coordinates":[[[-7.25,-23.31],[-7.19,-23.31],[-7.19,-23.38],[-7.06,-23.38],[-7.06,-23.44],[-7.0,-23.44],[-7.0,-23.5],[-6.94,-23.5],[-6.94,-23.56],[-6.88,-23.56],[-6.88,-23.81],[-6.81,-23.81],[-6.81,-24.0],[-6.75,-24.0],[-6.75,-24.12],[-6.69,-24.12],[-6.69,-24.19],[-6.62,-24.19],[-6.62,-24.25],[-6.56,-24.25],[-6.56,-24.31],[-6.5,-24.31],[-6.5,-24.38],[-6.44,-24.38],[-6.44,-24.44],[-6.38,-24.44],[-6.38,-24.5],[-6.31,-24.5],[-6.31,-24.62],[-6.25,-24.62],[-6.25,-24.75],[-6.19,-24.75],[-6.19,-24.94],[-6.25,-24.94],[-6.25,-25.0],[-6.31,-25.0],[-6.31,-24.94],[-6.5,-24.94],[-6.5,-24.88],[-6.56,-24.88],[-6.56,-24.75],[-6.62,-24.75],[-6.62,-24.69],[-6.69,-24.69],[-6.69,-24.56],[-6.75,-24.56],[-6.75,-24.5],[-6.88,-24.5],[-6.88,-24.44],[-6.94,-24.44],[-6.94,-24.38],[-7.0,-24.38],[-7.0,-24.31],[-7.06,-24.31],[-7.06,-24.25],[-7.12,-24.25],[-7.12,-24.19],[-7.19,-24.19],[-7.19,-24.12],[-7.25,-24.12],[-7.25,-24.0],[-7.31,-24.0],[-7.31,-23.94],[-7.38,-23.94],[-7.38,-23.81],[-7.44,-23.81],[-7.44,-23.5],[-7.38,-23.5],[-7.38,-23.38],[-7.25,-23.38],[-7.25,-23.31]],[[-7.31,-23.44],[-7.31,-23.5],[-7.38,-23.5],[-7.38,-23.81],[-7.31,-23.81],[-7.31,-23.88],[-7.25,-23.88],[-7.25,-23.94],[-7.19,-23.94],[-7.19,-24.0],[-7.12,-24.0],[-7.12,-24.06],[-7.06,-24.06],[-7.06,-24.12],[-6.94,-24.12],[-6.94,-23.62],[-7.0,-23.62],[-7.0,-23.5],[-7.06,-23.5],[-7.06,-23.44],[-7.31,-23.44]]]}},{"type":"Feature","properties":{"val":338.1,"field":"tp"},"geometry":{"type":"Polygon","coordinates":[[[-5.81,-9.31],[-5.75,-9.31],[-5.75,-9.38],[-5.81,-9.38],[-5.81,-9.44],[-5.88,-9.44],[-5.88,-9.38],[-5.81,-9.38],[-5.81,-9.31]]]}},{"type":"Feature","properties":{"val":338.1,"field":"tp"},"geometry":{"type":"Polygon","coordinates":[[[-5.94,-9.5],[-5.94,-9.62],[-5.88,-9.62],[-5.88,-9.5],[-5.94,-9.5]]]}},{"type":"Feature","properties":{"val":338.1,"field":"tp"},"geometry":{"type":"Polygon","coordinates":[[[-6.0,-9.75],[-6.0,-9.81],[-5.94,-9.81],[-5.94,-9.75],[-6.0,-9.75]]]}},{"type":"Feature","properties":{"val":338.1,"field":"tp"},"geometry":{"type":"Polygon","coordinates":[[[-6.06,-9.88],[-6.06,-10.0],[-6.0,-10.0],[-6.0,-9.88],[-6.06,-9.88]]]}},{"type":"Feature","properties":{"val":338.1,"field":"tp"},"geometry":{"type":"Polygon","coordinates":[[[-11.25,-10.12],[-11.19,-10.12],[-11.19,-10.19],[-11.12,-10.19],[-11.12,-10.25],[-11.06,-10.25],[-11.06,-10.31],[-11.0,-10.31],[-11.0,-10.38],[-10.94,-10.38],[-10.94,-10.44],[-11.0,-10.44],[-11.0,-10.38],[-11.06,-10.38],[-11.06,-10.31],[-11.19,-10.31],[-11.19,-10.25],[-11.31,-10.25],[-11.31,-10.31],[-11.38,-10.31],[-11.38,-10.38],[-11.44,-10.38],[-11.44,-10.31],[-11.38,-10.31],[-11.38,-10.25],[-11.31,-10.25],[-11.31,-10.19],[-11.25,-10.19],[-11.25,-10.12]]]}},{"type":"Feature","properties":{"val":338.1,"field":"tp"},"geometry":{"type":"Polygon","coordinates":[[[-11.56,-10.38],[-11.5,-10.38],[-11.5,-10.44],[-11.56,-10.44],[-11.56,-10.56],[-11.62,-10.56],[-11.62,-10.44],[-11.56,-10.44],[-11.56,-10.38]]]}},{"type":"Feature","properties":{"val":338.1,"field":"tp"},"geometry":{"type":"Polygon","coordinates":[[[-4.81,-9.06],[-4.75,-9.06],[-4.75,-9.12],[-4.56,-9.12],[-4.56,-9.19],[-4.25,-9.19],[-4.25,-9.31],[-4.19,-9.31],[-4.19,-9.38],[-4.06,-9.38],[-4.06,-9.44],[-3.88,-9.44],[-3.88,-9.5],[-3.75,-9.5],[-3.75,-9.94],[-3.81,-9.94],[-3.81,-10.12],[-3.88,-10.12],[-3.88,-10.25],[-3.94,-10.25],[-3.94,-10.5],[-4.0,-10.5],[-4.0,-10.75],[-4.06,-10.75],[-4.06,-10.81],[-4.12,-10.81],[-4.12,-10.88],[-4.19,-10.88],[-4.19,-10.94],[-4.44,-10.94],[-4.44,-10.88],[-4.5,-10.88],[-4.5,-10.81],[-4.56,-10.81],[-4.56,-10.69],[-4.62,-10.69],[-4.62,-10.62],[-4.75,-10.62],[-4.75,-10.56],[-4.88,-10.56],[-4.88,-10.62],[-5.0,-10.62],[-5.0,-10.69],[-5.12,-10.69],[-5.12,-10.75],[-5.19,-10.75],[-5.19,-10.81],[-5.25,-10.81],[-5.25,-10.88],[-5.31,-10.88],[-5.31,-10.94],[-5.44,-10.94],[-5.44,-11.0],[-5.62,-11.0],[-5.62,-10.94],[-5.75,-10.94],[-5.75,-10.88],[-5.81,-10.88],[-5.81,-10.75],[-5.88,-10.75],[-5.88,-10.69],[-5.94,-10.69],[-5.94,-10.62],[-6.0,-10.62],[-6.0,-10.56],[-6.06,-10.56],[-6.06,-10.44],[-6.12,-10.44],[-6.12,-10.06],[-6.06,-10.06],[-6.06,-10.44],[-6.0,-10.44],[-6.0,-10.5],[-5.94,-10.5],[-5.94,-10.62],[-5.88,-10.62],[-5.88,-10.69],[-5.81,-10.69],[-5.81,-10.75],[-5.69,-10.75],[-5.69,-10.81],[-5.44,-10.81],[-5.44,-10.75],[-5.38,-10.75],[-5.38,-10.69],[-5.25,-10.69],[-5.25,-10.62],[-5.12,-10.62],[-5.12,-10.56],[-5.0,-10.56],[-5.0,-10.5],[-4.88,-10.5],[-4.88,-10.44],[-4.62,-10.44],[-4.62,-10.5],[-4.56,-10.5],[-4.56,-10.56],[-4.5,-10.56],[-4.5,-10.62],[-4.25,-10.62],[-4.25,-10.56],[-4.19,-10.56],[-4.19,-10.5],[-4.12,-10.5],[-4.12,-10.38],[-4.06,-10.38],[-4.06,-10.25],[-4.0,-10.25],[-4.0,-10.12],[-3.94,-10.12],[-3.94,-9.94],[-3.88,-9.94],[-3.88,-9.56],[-4.0,-9.56],[-4.0,-9.5],[-4.25,-9.5],[-4.25,-9.56],[-4.31,-9.56],[-4.31,-9.62],[-4.44,-9.62],[-4.44,-9.69],[-4.5,-9.69],[-4.5,-9.75],[-4.81,-9.75],[-4.81,-9.5],[-4.75,-9.5],[-4.75,-9.44],[-4.69,-9.44],[-4.69,-9.25],[-4.81,-9.25],[-4.81,-9.19],[-4.94,-9.19],[-4.94,-9.25],[-5.06,-9.25],[-5.06,-9.31],[-5.12,-9.31],[-5.12,-9.38],[-5.19,-9.38],[-5.19,-9.44],[-5.44,-9.44],[-5.44,-9.38],[-5.56,-9.38],[-5.56,-9.31],[-5.25,-9.31],[-5.25,-9.25],[-5.12,-9.25],[-5.12,-9.19],[-5.06,-9.19],[-5.06,-9.12],[-4.81,-9.12],[-4.81,-9.06]]]}},{"type":"Feature","properties":{"val":338.1,"field":"tp"},"geometry":{"type":"Polygon","coordinates":[[[-10.88,-10.44],[-10.75,-10.44],[-10.75,-10.5],[-10.69,-10.5],[-10.69,-10.56],[-10.62,-10.56],[-10.62,-11.0],[-10.56,-11.0],[-10.56,-11.12],[-10.62,-11.12],[-10.62,-11.19],[-10.81,-11.19],[-10.81,-11.12],[-10.94,-11.12],[-10.94,-11.06],[-11.25,-11.06],[-11.25,-11.0],[-11.38,-11.0],[-11.38,-10.94],[-11.5,-10.94],[-11.5,-10.88],[-11.56,-10.88],[-11.56,-10.75],[-11.62,-10.75],[-11.62,-10.62],[-11.56,-10.62],[-11.56,-10.75],[-11.5,-10.75],[-11.5,-10.81],[-11.44,-10.81],[-11.44,-10.88],[-11.38,-10.88],[-11.38,-10.94],[-11.19,-10.94],[-11.19,-11.0],[-11.12,-11.0],[-11.12,-10.94],[-10.88,-10.94],[-10.88,-10.88],[-10.81,-10.88],[-10.81,-10.81],[-10.75,-10.81],[-10.75,-10.5],[-10.88,-10.5],[-10.88,-10.44]]]}},{"type":"Feature","properties":{"val":338.1,"field":"tp"},"geometry":{"type":"Polygon","coordinates":[[[-7.31,-23.44],[-7.06,-23.44],[-7.06,-23.5],[-7.0,-23.5],[-7.0,-23.62],[-6.94,-23.62],[-6.94,-24.12],[-7.06,-24.12],[-7.06,-24.06],[-7.12,-24.06],[-7.12,-24.0],[-7.19,-24.0],[-7.19,-23.94],[-7.25,-23.94],[-7.25,-23.88],[-7.31,-23.88],[-7.31,-23.81],[-7.38,-23.81],[-7.38,-23.5],[-7.31,-23.5],[-7.31,-23.44]],[[-7.31,-23.5],[-7.31,-23.81],[-7.25,-23.81],[-7.25,-23.88],[-7.06,-23.88],[-7.06,-23.81],[-7.0,-23.81],[-7.0,-23.69],[-7.06,-23.69],[-7.06,-23.56],[-7.12,-23.56],[-7.12,-23.5],[-7.31,-23.5]]]}},{"type":"Feature","properties":{"val":427.95,"field":"tp"},"geometry":{"type":"Polygon","coordinates":[[[-5.75,-9.31],[-5.56,-9.31],[-5.56,-9.38],[-5.75,-9.38],[-5.75,-9.44],[-5.81,-9.44],[-5.81,-9.5],[-5.88,-9.5],[-5.88,-9.44],[-5.81,-9.44],[-5.81,-9.38],[-5.75,-9.38],[-5.75,-9.31]]]}},{"type":"Feature","properties":{"val":427.95,"field":"tp"},"geometry":{"type":"Polygon","coordinates":[[[-5.94,-9.62],[-5.94,-9.69],[-5.88,-9.69],[-5.88,-9.62],[-5.94,-9.62]]]}},{"type":"Feature","properties":{"val":427.95,"field":"tp"},"geometry":{"type":"Polygon","coordinates":[[[-6.0,-9.81],[-6.0,-9.88],[-5.94,-9.88],[-5.94,-9.81],[-6.0,-9.81]]]}},{"type":"Feature","properties":{"val":427.95,"field":"tp"},"geometry":{"type":"Polygon","coordinates":[[[-6.06,-10.0],[-6.06,-10.06],[-6.0,-10.06],[-6.0,-10.0],[-6.06,-10.0]]]}},{"type":"Feature","properties":{"val":427.95,"field":"tp"},"geometry":{"type":"Polygon","coordinates":[[[-6.06,-10.38],[-6.06,-10.44],[-6.0,-10.44],[-6.0,-10.5],[-5.94,-10.5],[-5.94,-10.44],[-6.0,-10.44],[-6.0,-10.38],[-6.06,-10.38]]]}},{"type":"Feature","properties":{"val":427.95,"field":"tp"},"geometry":{"type":"Polygon","coordinates":[[[-11.62,-10.56],[-11.62,-10.62],[-11.56,-10.62],[-11.56,-10.56],[-11.62,-10.56]]]}},{"type":"Feature","properties":{"val":427.95,"field":"tp"},"geometry":{"type":"Polygon","coordinates":[[[-4.94,-9.19],[-4.81,-9.19],[-4.81,-9.25],[-4.69,-9.25],[-4.69,-9.44],[-4.75,-9.44],[-4.75,-9.5],[-4.81,-9.5],[-4.81,-9.75],[-4.5,-9.75],[-4.5,-9.69],[-4.44,-9.69],[-4.44,-9.62],[-4.31,-9.62],[-4.31,-9.56],[-4.25,-9.56],[-4.25,-9.5],[-4.0,-9.5],[-4.0,-9.56],[-3.88,-9.56],[-3.88,-9.94],[-3.94,-9.94],[-3.94,-10.12],[-4.0,-10.12],[-4.0,-10.25],[-4.06,-10.25],[-4.06,-10.38],[-4.12,-10.38],[-4.12,-10.5],[-4.19,-10.5],[-4.19,-10.56],[-4.25,-10.56],[-4.25,-10.62],[-4.5,-10.62],[-4.5,-10.56],[-4.56,-10.56],[-4.56,-10.5],[-4.62,-10.5],[-4.62,-10.44],[-4.88,-10.44],[-4.88,-10.5],[-5.0,-10.5],[-5.0,-10.56],[-5.12,-10.56],[-5.12,-10.62],[-5.25,-10.62],[-5.25,-10.69],[-5.38,-10.69],[-5.38,-10.75],[-5.44,-10.75],[-5.44,-10.81],[-5.69,-10.81],[-5.69,-10.75],[-5.81,-10.75],[-5.81,-10.69],[-5.88,-10.69],[-5.88,-10.62],[-5.94,-10.62],[-5.94,-10.56],[-5.88,-10.56],[-5.88,-10.62],[-5.75,-10.62],[-5.75,-10.69],[-5.44,-10.69],[-5.44,-10.62],[-5.31,-10.62],[-5.31,-10.56],[-5.19,-10.56],[-5.19,-10.5],[-5.06,-10.5],[-5.06,-10.44],[-5.0,-10.44],[-5.0,-10.38],[-4.88,-10.38],[-4.88,-10.31],[-4.81,-10.31],[-4.81,-10.25],[-4.62,-10.25],[-4.62,-10.31],[-4.56,-10.31],[-4.56,-10.38],[-4.5,-10.38],[-4.5,-10.44],[-4.31,-10.44],[-4.31,-10.38],[-4.25,-10.38],[-4.25,-10.31],[-4.19,-10.31],[-4.19,-10.25],[-4.12,-10.25],[-4.12,-10.19],[-4.06,-10.19],[-4.06,-10.06],[-4.0,-10.06],[-4.0,-9.62],[-4.25,-9.62],[-4.25,-9.69],[-4.38,-9.69],[-4.38,-9.75],[-4.44,-9.75],[-4.44,-9.81],[-4.5,-9.81],[-4.5,-9.88],[-4.56,-9.88],[-4.56,-9.94],[-4.88,-9.94],[-4.88,-9.88],[-4.94,-9.88],[-4.94,-9.81],[-5.0,-9.81],[-5.0,-9.75],[-5.06,-9.75],[-5.06,-9.69],[-5.12,-9.69],[-5.12,-9.62],[-5.25,-9.62],[-5.25,-9.56],[-5.31,-9.56],[-5.31,-9.5],[-5.44,-9.5],[-5.44,-9.44],[-5.5,-9.44],[-5.5,-9.38],[-5.44,-9.38],[-5.44,-9.44],[-5.19,-9.44],[-5.19,-9.38],[-5.12,-9.38],[-5.12,-9.31],[-5.06,-9.31],[-5.06,-9.25],[-4.94,-9.25],[-4.94,-9.19]],[[-5.0,-9.38],[-5.0,-9.5],[-4.94,-9.5],[-4.94,-9.44],[-4.88,-9.44],[-4.88,-9.38],[-5.0,-9.38]]]}},{"type":"Feature","properties":{"val":427.95,"field":"tp"},"geometry":{"type":"Polygon","coordinates":[[[-11.31,-10.25],[-11.19,-10.25],[-11.19,-10.31],[-11.06,-10.31],[-11.06,-10.38],[-11.0,-10.38],[-11.0,-10.44],[-10.88,-10.44],[-10.88,-10.5],[-10.75,-10.5],[-10.75,-10.81],[-10.81,-10.81],[-10.81,-10.88],[-10.88,-10.88],[-10.88,-10.94],[-11.12,-10.94],[-11.12,-11.0],[-11.19,-11.0],[-11.19,-10.94],[-11.38,-10.94],[-11.38,-10.88],[-11.44,-10.88],[-11.44,-10.81],[-11.5,-10.81],[-11.5,-10.75],[-11.56,-10.75],[-11.56,-10.69],[-11.5,-10.69],[-11.5,-10.75],[-11.44,-10.75],[-11.44,-10.81],[-11.38,-10.81],[-11.38,-10.88],[-11.0,-10.88],[-11.0,-10.81],[-10.88,-10.81],[-10.88,-10.75],[-10.81,-10.75],[-10.81,-10.56],[-10.88,-10.56],[-10.88,-10.5],[-11.0,-10.5],[-11.0,-10.44],[-11.06,-10.44],[-11.06,-10.38],[-11.19,-10.38],[-11.19,-10.31],[-11.31,-10.31],[-11.31,-10.38],[-11.38,-10.38],[-11.38,-10.44],[-11.5,-10.44],[-11.5,-10.5],[-11.56,-10.5],[-11.56,-10.44],[-11.5,-10.44],[-11.5,-10.38],[-11.38,-10.38],[-11.38,-10.31],[-11.31,-10.31],[-11.31,-10.25]]]}},{"type":"Feature","properties":{"val":427.95,"field":"tp"},"geometry":{"type":"Polygon","coordinates":[[[-7.31,-23.5],[-7.31,-23.81],[-7.25,-23.81],[-7.25,-23.88],[-7.06,-23.88],[-7.06,-23.81],[-7.0,-23.81],[-7.0,-23.69],[-7.06,-23.69],[-7.06,-23.56],[-7.12,-23.56],[-7.12,-23.5],[-7.31,-23.5]],[[-7.25,-23.56],[-7.25,-23.75],[-7.12,-23.75],[-7.12,-23.56],[-7.25,-23.56]]]}},{"type":"Feature","properties":{"val":517.79,"field":"tp"},"geometry":{"type":"Polygon","coordinates":[[[-5.75,-9.38],[-5.75,-9.44],[-5.69,-9.44],[-5.69,-9.38],[-5.75,-9.38]]]}},{"type":"Feature","properties":{"val":517.79,"field":"tp"},"geometry":{"type":"Polygon","coordinates":[[[-5.0,-9.38],[-5.0,-9.5],[-4.94,-9.5],[-4.94,-9.44],[-4.88,-9.44],[-4.88,-9.38],[-5.0,-9.38]]]}},{"type":"Feature","properties":{"val":517.79,"field":"tp"},"geometry":{"type":"Polygon","coordinates":[[[-5.88,-9.5],[-5.88,-9.56],[-5.81,-9.56],[-5.81,-9.5],[-5.88,-9.5]]]}},{"type":"Feature","properties":{"val":517.79,"field":"tp"},"geometry":{"type":"Polygon","coordinates":[[[-5.94,-9.69],[-5.94,-9.81],[-5.88,-9.81],[-5.88,-9.69],[-5.94,-9.69]]]}},{"type":"Feature","properties":{"val":517.79,"field":"tp"},"geometry":{"type":"Polygon","coordinates":[[[-6.0,-9.88],[-6.0,-9.94],[-5.94,-9.94],[-5.94,-9.88],[-6.0,-9.88]]]}},{"type":"Feature","properties":{"val":517.79,"field":"tp"},"geometry":{"type":"Polygon","coordinates":[[[-6.06,-10.06],[-6.06,-10.38],[-6.0,-10.38],[-6.0,-10.44],[-5.94,-10.44],[-5.94,-10.38],[-6.0,-10.38],[-6.0,-10.06],[-6.06,-10.06]]]}},{"type":"Feature","properties":{"val":517.79,"field":"tp"},"geometry":{"type":"Polygon","coordinates":[[[-11.31,-10.31],[-11.19,-10.31],[-11.19,-10.38],[-11.06,-10.38],[-11.06,-10.44],[-11.0,-10.44],[-11.0,-10.5],[-10.88,-10.5],[-10.88,-10.56],[-10.81,-10.56],[-10.81,-10.75],[-10.88,-10.75],[-10.88,-10.81],[-11.0,-10.81],[-11.0,-10.88],[-11.38,-10.88],[-11.38,-10.81],[-11.44,-10.81],[-11.44,-10.75],[-11.5,-10.75],[-11.5,-10.69],[-11.56,-10.69],[-11.56,-10.5],[-11.5,-10.5],[-11.5,-10.44],[-11.44,-10.44],[-11.44,-10.5],[-11.5,-10.5],[-11.5,-10.69],[-11.44,-10.69],[-11.44,-10.75],[-11.38,-10.75],[-11.38,-10.81],[-11.0,-10.81],[-11.0,-10.75],[-10.94,-10.75],[-10.94,-10.56],[-11.0,-10.56],[-11.0,-10.5],[-11.06,-10.5],[-11.06,-10.44],[-11.19,-10.44],[-11.19,-10.38],[-11.31,-10.38],[-11.31,-10.44],[-11.38,-10.44],[-11.38,-10.38],[-11.31,-10.38],[-11.31,-10.31]]]}},{"type":"Feature","properties":{"val":517.79,"field":"tp"},"geometry":{"type":"Polygon","coordinates":[[[-5.62,-9.38],[-5.5,-9.38],[-5.5,-9.44],[-5.44,-9.44],[-5.44,-9.5],[-5.31,-9.5],[-5.31,-9.56],[-5.25,-9.56],[-5.25,-9.62],[-5.12,-9.62],[-5.12,-9.69],[-5.06,-9.69],[-5.06,-9.75],[-5.0,-9.75],[-5.0,-9.81],[-4.94,-9.81],[-4.94,-9.88],[-4.88,-9.88],[-4.88,-9.94],[-4.56,-9.94],[-4.56,-9.88],[-4.5,-9.88],[-4.5,-9.81],[-4.44,-9.81],[-4.44,-9.75],[-4.38,-9.75],[-4.38,-9.69],[-4.25,-9.69],[-4.25,-9.62],[-4.0,-9.62],[-4.0,-10.06],[-4.06,-10.06],[-4.06,-10.19],[-4.12,-10.19],[-4.12,-10.25],[-4.19,-10.25],[-4.19,-10.31],[-4.25,-10.31],[-4.25,-10.38],[-4.31,-10.38],[-4.31,-10.44],[-4.5,-10.44],[-4.5,-10.38],[-4.56,-10.38],[-4.56,-10.31],[-4.62,-10.31],[-4.62,-10.25],[-4.81,-10.25],[-4.81,-10.31],[-4.88,-10.31],[-4.88,-10.38],[-5.0,-10.38],[-5.0,-10.44],[-5.06,-10.44],[-5.06,-10.5],[-5.19,-10.5],[-5.19,-10.56],[-5.31,-10.56],[-5.31,-10.62],[-5.44,-10.62],[-5.44,-10.69],[-5.75,-10.69],[-5.75,-10.62],[-5.88,-10.62],[-5.88,-10.56],[-5.94,-10.56],[-5.94,-10.5],[-5.88,-10.5],[-5.88,-10.56],[-5.75,-10.56],[-5.75,-10.62],[-5.5,-10.62],[-5.5,-10.56],[-5.38,-10.56],[-5.38,-10.5],[-5.19,-10.5],[-5.19,-10.44],[-5.12,-10.44],[-5.12,-10.38],[-5.0,-10.38],[-5.0,-10.25],[-4.94,-10.25],[-4.94,-10.06],[-5.0,-10.06],[-5.0,-9.94],[-5.06,-9.94],[-5.06,-9.81],[-5.12,-9.81],[-5.12,-9.75],[-5.19,-9.75],[-5.19,-9.69],[-5.25,-9.69],[-5.25,-9.62],[-5.31,-9.62],[-5.31,-9.56],[-5.44,-9.56],[-5.44,-9.5],[-5.5,-9.5],[-5.5,-9.44],[-5.62,-9.44],[-5.62,-9.38]],[[-4.31,-9.75],[-4.31,-9.81],[-4.38,-9.81],[-4.38,-10.06],[-4.31,-10.06],[-4.31,-10.12],[-4.19,-10.12],[-4.19,-10.06],[-4.12,-10.06],[-4.12,-9.94],[-4.06,-9.94],[-4.06,-9.81],[-4.12,-9.81],[-4.12,-9.75],[-4.31,-9.75]]]}},{"type":"Feature","properties":{"val":517.79,"field":"tp"},"geometry":{"type":"Polygon","coordinates":[[[-7.25,-23.56],[-7.25,-23.75],[-7.12,-23.75],[-7.12,-23.56],[-7.25,-23.56]]]}},{"type":"Feature","properties":{"val":607.64,"field":"tp"},"geometry":{"type":"Polygon","coordinates":[[[-5.69,-9.38],[-5.69,-9.44],[-5.62,-9.44],[-5.62,-9.38],[-5.69,-9.38]]]}},{"type":"Feature","properties":{"val":607.64,"field":"tp"},"geometry":{"type":"Polygon","coordinates":[[[-5.81,-9.44],[-5.81,-9.5],[-5.75,-9.5],[-5.75,-9.44],[-5.81,-9.44]]]}},{"type":"Feature","properties":{"val":607.64,"field":"tp"},"geometry":{"type":"Polygon","coordinates":[[[-5.56,-9.44],[-5.56,-9.5],[-5.5,-9.5],[-5.5,-9.44],[-5.56,-9.44]]]}},{"type":"Feature","properties":{"val":607.64,"field":"tp"},"geometry":{"type":"Polygon","coordinates":[[[-5.88,-9.56],[-5.88,-9.62],[-5.81,-9.62],[-5.81,-9.56],[-5.88,-9.56]]]}},{"type":"Feature","properties":{"val":607.64,"field":"tp"},"geometry":{"type":"Polygon","coordinates":[[[-6.0,-9.94],[-6.0,-10.0],[-5.94,-10.0],[-5.94,-9.94],[-6.0,-9.94]]]}},{"type":"Feature","properties":{"val":607.64,"field":"tp"},"geometry":{"type":"Polygon","coordinates":[[[-4.31,-9.75],[-4.12,-9.75],[-4.12,-9.81],[-4.06,-9.81],[-4.06,-9.94],[-4.12,-9.94],[-4.12,-10.06],[-4.19,-10.06],[-4.19,-10.12],[-4.31,-10.12],[-4.31,-10.06],[-4.38,-10.06],[-4.38,-9.81],[-4.31,-9.81],[-4.31,-9.75]]]}},{"type":"Feature","properties":{"val":607.64,"field":"tp"},"geometry":{"type":"Polygon","coordinates":[[[-6.0,-10.31],[-6.0,-10.38],[-5.94,-10.38],[-5.94,-10.31],[-6.0,-10.31]]]}},{"type":"Feature","properties":{"val":607.64,"field":"tp"},"geometry":{"type":"Polygon","coordinates":[[[-5.94,-10.44],[-5.94,-10.5],[-5.88,-10.5],[-5.88,-10.56],[-5.81,-10.56],[-5.81,-10.5],[-5.88,-10.5],[-5.88,-10.44],[-5.94,-10.44]]]}},{"type":"Feature","properties":{"val":607.64,"field":"tp"},"geometry":{"type":"Polygon","coordinates":[[[-5.38,-9.56],[-5.31,-9.56],[-5.31,-9.62],[-5.25,-9.62],[-5.25,-9.69],[-5.19,-9.69],[-5.19,-9.75],[-5.12,-9.75],[-5.12,-9.81],[-5.06,-9.81],[-5.06,-9.94],[-5.0,-9.94],[-5.0,-10.06],[-4.94,-10.06],[-4.94,-10.25],[-5.0,-10.25],[-5.0,-10.38],[-5.12,-10.38],[-5.12,-10.44],[-5.19,-10.44],[-5.19,-10.5],[-5.31,-10.5],[-5.31,-10.44],[-5.19,-10.44],[-5.19,-10.38],[-5.12,-10.38],[-5.12,-10.31],[-5.06,-10.31],[-5.06,-10.0],[-5.12,-10.0],[-5.12,-9.88],[-5.19,-9.88],[-5.19,-9.75],[-5.25,-9.75],[-5.25,-9.69],[-5.31,-9.69],[-5.31,-9.62],[-5.38,-9.62],[-5.38,-9.56]]]}},{"type":"Feature","properties":{"val":607.64,"field":"tp"},"geometry":{"type":"Polygon","coordinates":[[[-11.31,-10.38],[-11.19,-10.38],[-11.19,-10.44],[-11.06,-10.44],[-11.06,-10.5],[-11.0,-10.5],[-11.0,-10.56],[-10.94,-10.56],[-10.94,-10.75],[-11.0,-10.75],[-11.0,-10.81],[-11.38,-10.81],[-11.38,-10.75],[-11.44,-10.75],[-11.44,-10.69],[-11.5,-10.69],[-11.5,-10.5],[-11.44,-10.5],[-11.44,-10.44],[-11.31,-10.44],[-11.31,-10.38]],[[-11.31,-10.44],[-11.31,-10.5],[-11.44,-10.5],[-11.44,-10.69],[-11.38,-10.69],[-11.38,-10.75],[-11.06,-10.75],[-11.06,-10.69],[-11.0,-10.69],[-11.0,-10.56],[-11.06,-10.56],[-11.06,-10.5],[-11.19,-10.5],[-11.19,-10.44],[-11.31,-10.44]]]}},{"type":"Feature","properties":{"val":607.64,"field":"tp"},"geometry":{"type":"Polygon","coordinates":[[[-5.5,-10.5],[-5.38,-10.5],[-5.38,-10.56],[-5.5,-10.56],[-5.5,-10.62],[-5.75,-10.62],[-5.75,-10.56],[-5.5,-10.56],[-5.5,-10.5]]]}},{"type":"Feature","properties":{"val":697.48,"field":"tp"},"geometry":{"type":"Polygon","coordinates":[[[-5.75,-9.44],[-5.69,-9.44],[-5.69,-9.5],[-5.75,-9.5],[-5.75,-9.56],[-5.81,-9.56],[-5.81,-9.5],[-5.75,-9.5],[-5.75,-9.44]]]}},{"type":"Feature","properties":{"val":697.48,"field":"tp"},"geometry":{"type":"Polygon","coordinates":[[[-5.62,-9.44],[-5.62,-9.5],[-5.56,-9.5],[-5.56,-9.44],[-5.62,-9.44]]]}},{"type":"Feature","properties":{"val":697.48,"field":"tp"},"geometry":{"type":"Polygon","coordinates":[[[-5.5,-9.5],[-5.5,-9.56],[-5.44,-9.56],[-5.44,-9.62],[-5.38,-9.62],[-5.38,-9.69],[-5.31,-9.69],[-5.31,-9.75],[-5.25,-9.75],[-5.25,-9.81],[-5.19,-9.81],[-5.19,-9.75],[-5.25,-9.75],[-5.25,-9.69],[-5.31,-9.69],[-5.31,-9.62],[-5.38,-9.62],[-5.38,-9.56],[-5.44,-9.56],[-5.44,-9.5],[-5.5,-9.5]]]}},{"type":"Feature","properties":{"val":697.48,"field":"tp"},"geometry":{"type":"Polygon","coordinates":[[[-5.88,-9.62],[-5.88,-9.69],[-5.81,-9.69],[-5.81,-9.62],[-5.88,-9.62]]]}},{"type":"Feature","properties":{"val":697.48,"field":"tp"},"geometry":{"type":"Polygon","coordinates":[[[-5.94,-9.81],[-5.94,-9.88],[-5.88,-9.88],[-5.88,-9.81],[-5.94,-9.81]]]}},{"type":"Feature","properties":{"val":697.48,"field":"tp"},"geometry":{"type":"Polygon","coordinates":[[[-6.0,-10.0],[-6.0,-10.06],[-5.94,-10.06],[-5.94,-10.0],[-6.0,-10.0]]]}},{"type":"Feature","properties":{"val":697.48,"field":"tp"},"geometry":{"type":"Polygon","coordinates":[[[-6.0,-10.25],[-6.0,-10.31],[-5.94,-10.31],[-5.94,-10.25],[-6.0,-10.25]]]}},{"type":"Feature","properties":{"val":697.48,"field":"tp"},"geometry":{"type":"Polygon","coordinates":[[[-5.94,-10.38],[-5.94,-10.44],[-5.88,-10.44],[-5.88,-10.5],[-5.81,-10.5],[-5.81,-10.56],[-5.69,-10.56],[-5.69,-10.5],[-5.81,-10.5],[-5.81,-10.44],[-5.88,-10.44],[-5.88,-10.38],[-5.94,-10.38]]]}},{"type":"Feature","properties":{"val":697.48,"field":"tp"},"geometry":{"type":"Polygon","coordinates":[[[-5.19,-9.88],[-5.12,-9.88],[-5.12,-10.0],[-5.06,-10.0],[-5.06,-10.31],[-5.12,-10.31],[-5.12,-10.38],[-5.19,-10.38],[-5.19,-10.44],[-5.31,-10.44],[-5.31,-10.5],[-5.44,-10.5],[-5.44,-10.44],[-5.31,-10.44],[-5.31,-10.38],[-5.19,-10.38],[-5.19,-10.25],[-5.12,-10.25],[-5.12,-10.0],[-5.19,-10.0],[-5.19,-9.88]]]}},{"type":"Feature","properties":{"val":697.48,"field":"tp"},"geometry":{"type":"Polygon","coordinates":[[[-5.62,-10.5],[-5.62,-10.56],[-5.5,-10.56],[-5.5,-10.5],[-5.62,-10.5]]]}},{"type":"Feature","properties":{"val":697.48,"field":"tp"},"geometry":{"type":"Polygon","coordinates":[[[-11.31,-10.44],[-11.19,-10.44],[-11.19,-10.5],[-11.06,-10.5],[-11.06,-10.56],[-11.0,-10.56],[-11.0,-10.69],[-11.06,-10.69],[-11.06,-10.75],[-11.38,-10.75],[-11.38,-10.69],[-11.44,-10.69],[-11.44,-10.5],[-11.31,-10.5],[-11.31,-10.44]],[[-11.31,-10.5],[-11.31,-10.56],[-11.38,-10.56],[-11.38,-10.62],[-11.31,-10.62],[-11.31,-10.69],[-11.12,-10.69],[-11.12,-10.56],[-11.19,-10.56],[-11.19,-10.5],[-11.31,-10.5]]]}},{"type":"Feature","properties":{"val":787.32,"field":"tp"},"geometry":{"type":"Polygon","coordinates":[[[-5.69,-9.44],[-5.69,-9.5],[-5.62,-9.5],[-5.62,-9.44],[-5.69,-9.44]]]}},{"type":"Feature","properties":{"val":787.32,"field":"tp"},"geometry":{"type":"Polygon","coordinates":[[[-5.56,-9.5],[-5.56,-9.56],[-5.5,-9.56],[-5.5,-9.62],[-5.44,-9.62],[-5.44,-9.69],[-5.38,-9.69],[-5.38,-9.75],[-5.31,-9.75],[-5.31,-9.81],[-5.25,-9.81],[-5.25,-9.94],[-5.19,-9.94],[-5.19,-9.81],[-5.25,-9.81],[-5.25,-9.75],[-5.31,-9.75],[-5.31,-9.69],[-5.38,-9.69],[-5.38,-9.62],[-5.44,-9.62],[-5.44,-9.56],[-5.5,-9.56],[-5.5,-9.5],[-5.56,-9.5]]]}},{"type":"Feature","properties":{"val":787.32,"field":"tp"},"geometry":{"type":"Polygon","coordinates":[[[-5.88,-9.69],[-5.88,-9.75],[-5.81,-9.75],[-5.81,-9.69],[-5.88,-9.69]]]}},{"type":"Feature","properties":{"val":787.32,"field":"tp"},"geometry":{"type":"Polygon","coordinates":[[[-5.94,-9.88],[-5.94,-9.94],[-5.88,-9.94],[-5.88,-9.88],[-5.94,-9.88]]]}},{"type":"Feature","properties":{"val":787.32,"field":"tp"},"geometry":{"type":"Polygon","coordinates":[[[-6.0,-10.06],[-6.0,-10.25],[-5.94,-10.25],[-5.94,-10.06],[-6.0,-10.06]]]}},{"type":"Feature","properties":{"val":787.32,"field":"tp"},"geometry":{"type":"Polygon","coordinates":[[[-5.94,-10.31],[-5.94,-10.38],[-5.88,-10.38],[-5.88,-10.31],[-5.94,-10.31]]]}},{"type":"Feature","properties":{"val":787.32,"field":"tp"},"geometry":{"type":"Polygon","coordinates":[[[-5.81,-10.44],[-5.81,-10.5],[-5.75,-10.5],[-5.75,-10.44],[-5.81,-10.44]]]}},{"type":"Feature","properties":{"val":787.32,"field":"tp"},"geometry":{"type":"Polygon","coordinates":[[[-5.19,-10.0],[-5.12,-10.0],[-5.12,-10.25],[-5.19,-10.25],[-5.19,-10.38],[-5.31,-10.38],[-5.31,-10.44],[-5.44,-10.44],[-5.44,-10.5],[-5.56,-10.5],[-5.56,-10.44],[-5.44,-10.44],[-5.44,-10.38],[-5.31,-10.38],[-5.31,-10.31],[-5.25,-10.31],[-5.25,-10.25],[-5.19,-10.25],[-5.19,-10.0]]]}},{"type":"Feature","properties":{"val":787.32,"field":"tp"},"geometry":{"type":"Polygon","coordinates":[[[-5.69,-10.5],[-5.69,-10.56],[-5.62,-10.56],[-5.62,-10.5],[-5.69,-10.5]]]}},{"type":"Feature","properties":{"val":787.32,"field":"tp"},"geometry":{"type":"Polygon","coordinates":[[[-11.31,-10.5],[-11.19,-10.5],[-11.19,-10.56],[-11.12,-10.56],[-11.12,-10.69],[-11.31,-10.69],[-11.31,-10.62],[-11.38,-10.62],[-11.38,-10.56],[-11.31,-10.56],[-11.31,-10.5]]]}},{"type":"Feature","properties":{"val":877.17,"field":"tp"},"geometry":{"type":"Polygon","coordinates":[[[-5.75,-9.5],[-5.56,-9.5],[-5.56,-9.56],[-5.5,-9.56],[-5.5,-9.62],[-5.56,-9.62],[-5.56,-9.56],[-5.75,-9.56],[-5.75,-9.62],[-5.81,-9.62],[-5.81,-9.56],[-5.75,-9.56],[-5.75,-9.5]]]}},{"type":"Feature","properties":{"val":877.17,"field":"tp"},"geometry":{"type":"Polygon","coordinates":[[[-5.88,-9.75],[-5.88,-9.81],[-5.81,-9.81],[-5.81,-9.75],[-5.88,-9.75]]]}},{"type":"Feature","properties":{"val":877.17,"field":"tp"},"geometry":{"type":"Polygon","coordinates":[[[-5.31,-9.81],[-5.31,-9.88],[-5.25,-9.88],[-5.25,-9.81],[-5.31,-9.81]]]}},{"type":"Feature","properties":{"val":877.17,"field":"tp"},"geometry":{"type":"Polygon","coordinates":[[[-5.25,-9.94],[-5.19,-9.94],[-5.19,-10.25],[-5.25,-10.25],[-5.25,-10.31],[-5.31,-10.31],[-5.31,-10.38],[-5.38,-10.38],[-5.38,-10.31],[-5.31,-10.31],[-5.31,-10.25],[-5.25,-10.25],[-5.25,-9.94]]]}},{"type":"Feature","properties":{"val":877.17,"field":"tp"},"geometry":{"type":"Polygon","coordinates":[[[-5.88,-10.38],[-5.88,-10.44],[-5.81,-10.44],[-5.81,-10.38],[-5.88,-10.38]]]}},{"type":"Feature","properties":{"val":877.17,"field":"tp"},"geometry":{"type":"Polygon","coordinates":[[[-5.5,-10.38],[-5.5,-10.44],[-5.44,-10.44],[-5.44,-10.38],[-5.5,-10.38]]]}},{"type":"Feature","properties":{"val":877.17,"field":"tp"},"geometry":{"type":"Polygon","coordinates":[[[-5.75,-10.44],[-5.75,-10.5],[-5.56,-10.5],[-5.56,-10.44],[-5.75,-10.44]]]}},{"type":"Feature","properties":{"val":967.01,"field":"tp"},"geometry":{"type":"Polygon","coordinates":[[[-5.81,-9.62],[-5.81,-9.69],[-5.75,-9.69],[-5.75,-9.62],[-5.81,-9.62]]]}},{"type":"Feature","properties":{"val":967.01,"field":"tp"},"geometry":{"type":"Polygon","coordinates":[[[-5.5,-9.62],[-5.5,-9.69],[-5.44,-9.69],[-5.44,-9.75],[-5.38,-9.75],[-5.38,-9.81],[-5.31,-9.81],[-5.31,-9.75],[-5.38,-9.75],[-5.38,-9.69],[-5.44,-9.69],[-5.44,-9.62],[-5.5,-9.62]]]}},{"type":"Feature","properties":{"val":967.01,"field":"tp"},"geometry":{"type":"Polygon","coordinates":[[[-5.88,-9.81],[-5.88,-9.88],[-5.81,-9.88],[-5.81,-9.81],[-5.88,-9.81]]]}},{"type":"Feature","properties":{"val":967.01,"field":"tp"},"geometry":{"type":"Polygon","coordinates":[[[-5.31,-9.88],[-5.31,-9.94],[-5.25,-9.94],[-5.25,-9.88],[-5.31,-9.88]]]}},{"type":"Feature","properties":{"val":967.01,"field":"tp"},"geometry":{"type":"Polygon","coordinates":[[[-5.94,-9.94],[-5.94,-10.0],[-5.88,-10.0],[-5.88,-9.94],[-5.94,-9.94]]]}},{"type":"Feature","properties":{"val":967.01,"field":"tp"},"geometry":{"type":"Polygon","coordinates":[[[-5.31,-10.19],[-5.31,-10.25],[-5.25,-10.25],[-5.25,-10.19],[-5.31,-10.19]]]}},{"type":"Feature","properties":{"val":967.01,"field":"tp"},"geometry":{"type":"Polygon","coordinates":[[[-5.94,-10.25],[-5.94,-10.31],[-5.88,-10.31],[-5.88,-10.25],[-5.94,-10.25]]]}},{"type":"Feature","properties":{"val":967.01,"field":"tp"},"geometry":{"type":"Polygon","coordinates":[[[-5.44,-10.31],[-5.44,-10.38],[-5.38,-10.38],[-5.38,-10.31],[-5.44,-10.31]]]}},{"type":"Feature","properties":{"val":967.01,"field":"tp"},"geometry":{"type":"Polygon","coordinates":[[[-5.81,-10.38],[-5.81,-10.44],[-5.75,-10.44],[-5.75,-10.38],[-5.81,-10.38]]]}},{"type":"Feature","properties":{"val":967.01,"field":"tp"},"geometry":{"type":"Polygon","coordinates":[[[-5.56,-10.38],[-5.56,-10.44],[-5.5,-10.44],[-5.5,-10.38],[-5.56,-10.38]]]}},{"type":"Feature","properties":{"val":1056.86,"field":"tp"},"geometry":{"type":"Polygon","coordinates":[[[-5.75,-9.56],[-5.75,-9.62],[-5.56,-9.62],[-5.56,-9.69],[-5.5,-9.69],[-5.5,-9.75],[-5.44,-9.75],[-5.44,-9.81],[-5.38,-9.81],[-5.38,-9.88],[-5.31,-9.88],[-5.31,-9.81],[-5.38,-9.81],[-5.38,-9.75],[-5.44,-9.75],[-5.44,-9.69],[-5.5,-9.69],[-5.5,-9.62],[-5.56,-9.62],[-5.56,-9.56],[-5.75,-9.56]]]}},{"type":"Feature","properties":{"val":1056.86,"field":"tp"},"geometry":{"type":"Polygon","coordinates":[[[-5.81,-9.69],[-5.81,-9.75],[-5.75,-9.75],[-5.75,-9.69],[-5.81,-9.69]]]}},{"type":"Feature","properties":{"val":1056.86,"field":"tp"},"geometry":{"type":"Polygon","coordinates":[[[-5.94,-10.0],[-5.94,-10.06],[-5.88,-10.06],[-5.88,-10.0],[-5.94,-10.0]]]}},{"type":"Feature","properties":{"val":1056.86,"field":"tp"},"geometry":{"type":"Polygon","coordinates":[[[-5.31,-9.94],[-5.31,-10.19],[-5.25,-10.19],[-5.25,-9.94],[-5.31,-9.94]]]}},{"type":"Feature","properties":{"val":1056.86,"field":"tp"},"geometry":{"type":"Polygon","coordinates":[[[-5.94,-10.19],[-5.94,-10.25],[-5.88,-10.25],[-5.88,-10.19],[-5.94,-10.19]]]}},{"type":"Feature","properties":{"val":1056.86,"field":"tp"},"geometry":{"type":"Polygon","coordinates":[[[-5.38,-10.25],[-5.38,-10.31],[-5.31,-10.31],[-5.31,-10.25],[-5.38,-10.25]]]}},{"type":"Feature","properties":{"val":1056.86,"field":"tp"},"geometry":{"type":"Polygon","coordinates":[[[-5.88,-10.31],[-5.88,-10.38],[-5.81,-10.38],[-5.81,-10.31],[-5.88,-10.31]]]}},{"type":"Feature","properties":{"val":1056.86,"field":"tp"},"geometry":{"type":"Polygon","coordinates":[[[-5.5,-10.31],[-5.5,-10.38],[-5.44,-10.38],[-5.44,-10.31],[-5.5,-10.31]]]}},{"type":"Feature","properties":{"val":1056.86,"field":"tp"},"geometry":{"type":"Polygon","coordinates":[[[-5.75,-10.38],[-5.75,-10.44],[-5.56,-10.44],[-5.56,-10.38],[-5.75,-10.38]]]}},{"type":"Feature","properties":{"val":1146.7,"field":"tp"},"geometry":{"type":"Polygon","coordinates":[[[-5.75,-9.62],[-5.75,-9.69],[-5.69,-9.69],[-5.69,-9.62],[-5.75,-9.62]]]}},{"type":"Feature","properties":{"val":1146.7,"field":"tp"},"geometry":{"type":"Polygon","coordinates":[[[-5.62,-9.62],[-5.62,-9.69],[-5.56,-9.69],[-5.56,-9.62],[-5.62,-9.62]]]}},{"type":"Feature","properties":{"val":1146.7,"field":"tp"},"geometry":{"type":"Polygon","coordinates":[[[-5.81,-9.75],[-5.81,-9.81],[-5.75,-9.81],[-5.75,-9.75],[-5.81,-9.75]]]}},{"type":"Feature","properties":{"val":1146.7,"field":"tp"},"geometry":{"type":"Polygon","coordinates":[[[-5.88,-9.88],[-5.88,-9.94],[-5.81,-9.94],[-5.81,-9.88],[-5.88,-9.88]]]}},{"type":"Feature","properties":{"val":1146.7,"field":"tp"},"geometry":{"type":"Polygon","coordinates":[[[-5.38,-9.88],[-5.38,-9.94],[-5.31,-9.94],[-5.31,-9.88],[-5.38,-9.88]]]}},{"type":"Feature","properties":{"val":1146.7,"field":"tp"},"geometry":{"type":"Polygon","coordinates":[[[-5.94,-10.06],[-5.94,-10.19],[-5.88,-10.19],[-5.88,-10.06],[-5.94,-10.06]]]}},{"type":"Feature","properties":{"val":1146.7,"field":"tp"},"geometry":{"type":"Polygon","coordinates":[[[-5.38,-10.19],[-5.31,-10.19],[-5.31,-10.25],[-5.38,-10.25],[-5.38,-10.31],[-5.44,-10.31],[-5.44,-10.25],[-5.38,-10.25],[-5.38,-10.19]]]}},{"type":"Feature","properties":{"val":1146.7,"field":"tp"},"geometry":{"type":"Polygon","coordinates":[[[-5.81,-10.31],[-5.81,-10.38],[-5.75,-10.38],[-5.75,-10.31],[-5.81,-10.31]]]}},{"type":"Feature","properties":{"val":1146.7,"field":"tp"},"geometry":{"type":"Polygon","coordinates":[[[-5.56,-10.31],[-5.56,-10.38],[-5.5,-10.38],[-5.5,-10.31],[-5.56,-10.31]]]}},{"type":"Feature","properties":{"val":1236.55,"field":"tp"},"geometry":{"type":"Polygon","coordinates":[[[-5.69,-9.62],[-5.62,-9.62],[-5.62,-9.69],[-5.69,-9.69],[-5.69,-9.75],[-5.75,-9.75],[-5.75,-9.69],[-5.69,-9.69],[-5.69,-9.62]]]}},{"type":"Feature","properties":{"val":1236.55,"field":"tp"},"geometry":{"type":"Polygon","coordinates":[[[-5.56,-9.69],[-5.56,-9.75],[-5.5,-9.75],[-5.5,-9.81],[-5.44,-9.81],[-5.44,-9.88],[-5.38,-9.88],[-5.38,-9.81],[-5.44,-9.81],[-5.44,-9.75],[-5.5,-9.75],[-5.5,-9.69],[-5.56,-9.69]]]}},{"type":"Feature","properties":{"val":1236.55,"field":"tp"},"geometry":{"type":"Polygon","coordinates":[[[-5.38,-9.94],[-5.38,-10.0],[-5.31,-10.0],[-5.31,-9.94],[-5.38,-9.94]]]}},{"type":"Feature","properties":{"val":1236.55,"field":"tp"},"geometry":{"type":"Polygon","coordinates":[[[-5.38,-10.12],[-5.38,-10.19],[-5.31,-10.19],[-5.31,-10.12],[-5.38,-10.12]]]}},{"type":"Feature","properties":{"val":1236.55,"field":"tp"},"geometry":{"type":"Polygon","coordinates":[[[-5.88,-10.25],[-5.88,-10.31],[-5.81,-10.31],[-5.81,-10.25],[-5.88,-10.25]]]}},{"type":"Feature","properties":{"val":1236.55,"field":"tp"},"geometry":{"type":"Polygon","coordinates":[[[-5.62,-10.31],[-5.62,-10.38],[-5.56,-10.38],[-5.56,-10.31],[-5.62,-10.31]]]}},{"type":"Feature","properties":{"val":1326.39,"field":"tp"},"geometry":{"type":"Polygon","coordinates":[[[-5.69,-9.69],[-5.56,-9.69],[-5.56,-9.75],[-5.5,-9.75],[-5.5,-9.81],[-5.56,-9.81],[-5.56,-9.75],[-5.69,-9.75],[-5.69,-9.81],[-5.75,-9.81],[-5.75,-9.88],[-5.81,-9.88],[-5.81,-9.81],[-5.75,-9.81],[-5.75,-9.75],[-5.69,-9.75],[-5.69,-9.69]]]}},{"type":"Feature","properties":{"val":1326.39,"field":"tp"},"geometry":{"type":"Polygon","coordinates":[[[-5.44,-9.88],[-5.44,-9.94],[-5.38,-9.94],[-5.38,-9.88],[-5.44,-9.88]]]}},{"type":"Feature","properties":{"val":1326.39,"field":"tp"},"geometry":{"type":"Polygon","coordinates":[[[-5.88,-9.94],[-5.88,-10.0],[-5.81,-10.0],[-5.81,-9.94],[-5.88,-9.94]]]}},{"type":"Feature","properties":{"val":1326.39,"field":"tp"},"geometry":{"type":"Polygon","coordinates":[[[-5.38,-10.0],[-5.38,-10.12],[-5.31,-10.12],[-5.31,-10.0],[-5.38,-10.0]]]}},{"type":"Feature","properties":{"val":1326.39,"field":"tp"},"geometry":{"type":"Polygon","coordinates":[[[-5.88,-10.19],[-5.88,-10.25],[-5.81,-10.25],[-5.81,-10.19],[-5.88,-10.19]]]}},{"type":"Feature","properties":{"val":1326.39,"field":"tp"},"geometry":{"type":"Polygon","coordinates":[[[-5.44,-10.19],[-5.38,-10.19],[-5.38,-10.25],[-5.44,-10.25],[-5.44,-10.31],[-5.5,-10.31],[-5.5,-10.25],[-5.44,-10.25],[-5.44,-10.19]]]}},{"type":"Feature","properties":{"val":1326.39,"field":"tp"},"geometry":{"type":"Polygon","coordinates":[[[-5.75,-10.31],[-5.75,-10.38],[-5.62,-10.38],[-5.62,-10.31],[-5.75,-10.31]]]}},{"type":"Feature","properties":{"val":1416.24,"field":"tp"},"geometry":{"type":"Polygon","coordinates":[[[-5.62,-9.75],[-5.62,-9.81],[-5.56,-9.81],[-5.56,-9.75],[-5.62,-9.75]]]}},{"type":"Feature","properties":{"val":1416.24,"field":"tp"},"geometry":{"type":"Polygon","coordinates":[[[-5.5,-9.81],[-5.5,-9.88],[-5.44,-9.88],[-5.44,-9.81],[-5.5,-9.81]]]}},{"type":"Feature","properties":{"val":1416.24,"field":"tp"},"geometry":{"type":"Polygon","coordinates":[[[-5.88,-10.0],[-5.88,-10.06],[-5.81,-10.06],[-5.81,-10.0],[-5.88,-10.0]]]}},{"type":"Feature","properties":{"val":1416.24,"field":"tp"},"geometry":{"type":"Polygon","coordinates":[[[-5.81,-10.25],[-5.81,-10.31],[-5.75,-10.31],[-5.75,-10.25],[-5.81,-10.25]]]}},{"type":"Feature","properties":{"val":1416.24,"field":"tp"},"geometry":{"type":"Polygon","coordinates":[[[-5.56,-10.25],[-5.56,-10.31],[-5.5,-10.31],[-5.5,-10.25],[-5.56,-10.25]]]}},{"type":"Feature","properties":{"val":1506.08,"field":"tp"},"geometry":{"type":"Polygon","coordinates":[[[-5.69,-9.75],[-5.62,-9.75],[-5.62,-9.81],[-5.69,-9.81],[-5.69,-9.88],[-5.75,-9.88],[-5.75,-9.94],[-5.81,-9.94],[-5.81,-9.88],[-5.75,-9.88],[-5.75,-9.81],[-5.69,-9.81],[-5.69,-9.75]]]}},{"type":"Feature","properties":{"val":1506.08,"field":"tp"},"geometry":{"type":"Polygon","coordinates":[[[-5.56,-9.81],[-5.56,-9.88],[-5.5,-9.88],[-5.5,-9.81],[-5.56,-9.81]]]}},{"type":"Feature","properties":{"val":1506.08,"field":"tp"},"geometry":{"type":"Polygon","coordinates":[[[-5.44,-9.94],[-5.38,-9.94],[-5.38,-10.19],[-5.44,-10.19],[-5.44,-10.25],[-5.5,-10.25],[-5.5,-10.19],[-5.44,-10.19],[-5.44,-9.94]]]}},{"type":"Feature","properties":{"val":1506.08,"field":"tp"},"geometry":{"type":"Polygon","coordinates":[[[-5.88,-10.06],[-5.88,-10.19],[-5.81,-10.19],[-5.81,-10.06],[-5.88,-10.06]]]}},{"type":"Feature","properties":{"val":1595.93,"field":"tp"},"geometry":{"type":"Polygon","coordinates":[[[-5.62,-9.81],[-5.62,-9.88],[-5.56,-9.88],[-5.56,-9.81],[-5.62,-9.81]]]}},{"type":"Feature","properties":{"val":1595.93,"field":"tp"},"geometry":{"type":"Polygon","coordinates":[[[-5.5,-9.88],[-5.5,-9.94],[-5.44,-9.94],[-5.44,-9.88],[-5.5,-9.88]]]}},{"type":"Feature","properties":{"val":1595.93,"field":"tp"},"geometry":{"type":"Polygon","coordinates":[[[-5.75,-10.25],[-5.75,-10.31],[-5.56,-10.31],[-5.56,-10.25],[-5.75,-10.25]]]}},{"type":"Feature","properties":{"val":1685.77,"field":"tp"},"geometry":{"type":"Polygon","coordinates":[[[-5.69,-9.81],[-5.69,-9.88],[-5.62,-9.88],[-5.62,-9.81],[-5.69,-9.81]]]}},{"type":"Feature","properties":{"val":1685.77,"field":"tp"},"geometry":{"type":"Polygon","coordinates":[[[-5.81,-9.94],[-5.81,-10.0],[-5.75,-10.0],[-5.75,-9.94],[-5.81,-9.94]]]}},{"type":"Feature","properties":{"val":1685.77,"field":"tp"},"geometry":{"type":"Polygon","coordinates":[[[-5.5,-9.94],[-5.5,-10.0],[-5.44,-10.0],[-5.44,-9.94],[-5.5,-9.94]]]}},{"type":"Feature","properties":{"val":1685.77,"field":"tp"},"geometry":{"type":"Polygon","coordinates":[[[-5.5,-10.12],[-5.44,-10.12],[-5.44,-10.19],[-5.5,-10.19],[-5.5,-10.25],[-5.56,-10.25],[-5.56,-10.19],[-5.5,-10.19],[-5.5,-10.12]]]}},{"type":"Feature","properties":{"val":1685.77,"field":"tp"},"geometry":{"type":"Polygon","coordinates":[[[-5.81,-10.19],[-5.81,-10.25],[-5.75,-10.25],[-5.75,-10.19],[-5.81,-10.19]]]}},{"type":"Feature","properties":{"val":1775.62,"field":"tp"},"geometry":{"type":"Polygon","coordinates":[[[-5.75,-9.88],[-5.75,-9.94],[-5.69,-9.94],[-5.69,-9.88],[-5.75,-9.88]]]}},{"type":"Feature","properties":{"val":1775.62,"field":"tp"},"geometry":{"type":"Polygon","coordinates":[[[-5.56,-9.88],[-5.56,-9.94],[-5.5,-9.94],[-5.5,-9.88],[-5.56,-9.88]]]}},{"type":"Feature","properties":{"val":1775.62,"field":"tp"},"geometry":{"type":"Polygon","coordinates":[[[-5.5,-10.0],[-5.5,-10.12],[-5.44,-10.12],[-5.44,-10.0],[-5.5,-10.0]]]}},{"type":"Feature","properties":{"val":1865.46,"field":"tp"},"geometry":{"type":"Polygon","coordinates":[[[-5.69,-9.88],[-5.69,-9.94],[-5.56,-9.94],[-5.56,-9.88],[-5.69,-9.88]]]}},{"type":"Feature","properties":{"val":1865.46,"field":"tp"},"geometry":{"type":"Polygon","coordinates":[[[-5.81,-10.0],[-5.81,-10.19],[-5.75,-10.19],[-5.75,-10.25],[-5.56,-10.25],[-5.56,-10.19],[-5.5,-10.19],[-5.5,-10.12],[-5.56,-10.12],[-5.56,-10.19],[-5.75,-10.19],[-5.75,-10.0],[-5.81,-10.0]]]}},{"type":"Feature","properties":{"val":1955.31,"field":"tp"},"geometry":{"type":"Polygon","coordinates":[[[-5.75,-9.94],[-5.75,-10.0],[-5.69,-10.0],[-5.69,-9.94],[-5.75,-9.94]]]}},{"type":"Feature","properties":{"val":1955.31,"field":"tp"},"geometry":{"type":"Polygon","coordinates":[[[-5.56,-9.94],[-5.56,-10.0],[-5.5,-10.0],[-5.5,-9.94],[-5.56,-9.94]]]}},{"type":"Feature","properties":{"val":2045.15,"field":"tp"},"geometry":{"type":"Polygon","coordinates":[[[-5.69,-9.94],[-5.56,-9.94],[-5.56,-10.0],[-5.5,-10.0],[-5.5,-10.12],[-5.56,-10.12],[-5.56,-10.19],[-5.62,-10.19],[-5.62,-10.12],[-5.56,-10.12],[-5.56,-10.0],[-5.69,-10.0],[-5.69,-9.94]]]}},{"type":"Feature","properties":{"val":2045.15,"field":"tp"},"geometry":{"type":"Polygon","coordinates":[[[-5.75,-10.12],[-5.75,-10.19],[-5.69,-10.19],[-5.69,-10.12],[-5.75,-10.12]]]}},{"type":"Feature","properties":{"val":2135.0,"field":"tp"},"geometry":{"type":"Polygon","coordinates":[[[-5.75,-10.0],[-5.75,-10.12],[-5.69,-10.12],[-5.69,-10.19],[-5.62,-10.19],[-5.62,-10.12],[-5.69,-10.12],[-5.69,-10.0],[-5.75,-10.0]]]}},{"type":"Feature","properties":{"val":2224.84,"field":"tp"},"geometry":{"type":"Polygon","coordinates":[[[-5.69,-10.0],[-5.69,-10.12],[-5.56,-10.12],[-5.56,-10.0],[-5.69,-10.0]]]}}]}