{"type":"FeatureCollection","features":[{"type":"Feature","properties":{"val":108.24,"field":"tp"},"geometry":{"type":"Polygon","coordinates":[[[-9.31,3.75],[-9.31,3.69],[-9.19,3.69],[-9.19,3.75],[-9.31,3.75]]]}},{"type":"Feature","properties":{"val":108.24,"field":"tp"},"geometry":{"type":"Polygon","coordinates":[[[87.31,3.75],[87.31,3.69],[87.56,3.69],[87.56,3.75],[87.31,3.75]]]}},{"type":"Feature","properties":{"val":108.24,"field":"tp"},"geometry":{"type":"Polygon","coordinates":[[[89.5,3.75],[89.5,3.69],[89.56,3.69],[89.56,3.56],[89.75,3.56],[89.75,3.62],[89.81,3.62],[89.81,3.69],[89.88,3.69],[89.88,3.75],[89.5,3.75]]]}},{"type":"Feature","properties":{"val":108.24,"field":"tp"},"geometry":{"type":"Polygon","coordinates":[[[34.0,3.75],[34.0,3.69],[34.12,3.69],[34.12,3.62],[34.19,3.62],[34.19,3.56],[34.31,3.56],[34.31,3.25],[34.38,3.25],[34.38,3.38],[34.44,3.38],[34.44,3.44],[34.5,3.44],[34.5,3.5],[35.12,3.5],[35.12,3.56],[35.19,3.56],[35.19,3.62],[35.25,3.62],[35.25,3.69],[35.31,3.69],[35.31,3.75],[34.0,3.75]]]}},{"type":"Feature","properties":{"val":108.24,"field":"tp"},"geometry":{"type":"Polygon","coordinates":[[[50.25,3.75],[51.25,3.75],[51.25,3.62],[51.31,3.62],[51.31,3.44],[51.25,3.44],[51.25,3.31],[51.19,3.31],[51.19,3.25],[51.12,3.25],[51.12,3.19],[51.06,3.19],[51.06,3.12],[51.0,3.12],[51.0,3.06],[50.94,3.06],[50.94,3.0],[50.75,3.0],[50.75,2.94],[50.38,2.94],[50.38,3.0],[50.31,3.0],[50.31,3.06],[50.25,3.06],[50.25,3.12],[50.19,3.12],[50.19,3.25],[50.12,3.25],[50.12,3.56],[50.19,3.56],[50.19,3.69],[50.25,3.69],[50.25,3.75]]]}},{"type":"Feature","properties":{"val":108.24,"field":"tp"},"geometry":{"type":"Polygon","coordinates":[[[87.88,3.75],[87.88,3.69],[88.06,3.69],[88.06,3.62],[88.12,3.62],[88.12,3.44],[88.19,3.44],[88.19,3.38],[88.25,3.38],[88.25,3.44],[88.44,3.44],[88.44,3.5],[88.5,3.5],[88.5,3.56],[88.62,3.56],[88.62,3.62],[88.75,3.62],[88.75,3.69],[88.81,3.69],[88.81,3.75],[87.88,3.75]]]}},{"type":"Feature","properties":{"val":108.24,"field":"tp"},"geometry":{"type":"Polygon","coordinates":[[[25.06,3.75],[26.31,3.75],[26.31,3.69],[26.25,3.69],[26.25,3.62],[25.88,3.62],[25.88,3.69],[25.75,3.69],[25.75,3.62],[25.5,3.62],[25.5,3.69],[25.06,3.69],[25.06,3.38],[25.0,3.38],[25.0,3.31],[24.75,3.31],[24.75,3.62],[24.81,3.62],[24.81,3.69],[25.06,3.69],[25.06,3.75]]]}},{"type":"Feature","properties":{"val":108.24,"field":"tp"},"geometry":{"type":"Polygon","coordinates":[[[29.56,3.62],[29.69,3.62],[29.69,3.56],[29.75,3.56],[29.75,3.38],[29.62,3.38],[29.62,3.31],[29.56,3.31],[29.56,3.38],[29.5,3.38],[29.5,3.56],[29.56,3.56],[29.56,3.62]]]}},{"type":"Feature","properties":{"val":108.24,"field":"tp"},"geometry":{"type":"Polygon","coordinates":[[[31.5,3.75],[33.38,3.75],[33.38,3.69],[33.69,3.69],[33.69,3.75],[33.88,3.75],[33.88,3.69],[33.81,3.69],[33.81,3.62],[33.69,3.62],[33.69,3.56],[33.56,3.56],[33.56,3.5],[33.5,3.5],[33.5,3.31],[33.56,3.31],[33.56,3.25],[33.62,3.25],[33.62,3.19],[33.31,3.19],[33.31,3.25],[33.12,3.25],[33.12,3.31],[32.56,3.31],[32.56,3.25],[32.31,3.25],[32.31,3.31],[32.06,3.31],[32.06,3.25],[32.0,3.25],[32.0,3.19],[31.81,3.19],[31.81,3.12],[31.44,3.12],[31.44,3.06],[31.25,3.06],[31.25,3.19],[31.19,3.19],[31.19,3.38],[31.25,3.38],[31.25,3.56],[31.31,3.56],[31.31,3.62],[31.44,3.62],[31.44,3.69],[31.5,3.69],[31.5,3.75]]]}},{"type":"Feature","properties":{"val":108.24,"field":"tp"},"geometry":{"type":"Polygon","coordinates":[[[87.62,3.5],[87.69,3.5],[87.69,3.44],[87.81,3.44],[87.81,3.38],[87.88,3.38],[87.88,3.31],[87.94,3.31],[87.94,3.12],[87.81,3.12],[87.81,3.06],[87.75,3.06],[87.75,3.12],[87.62,3.12],[87.62,3.19],[87.56,3.19],[87.56,3.25],[87.5,3.25],[87.5,3.38],[87.56,3.38],[87.56,3.44],[87.62,3.44],[87.62,3.5]]]}},{"type":"Feature","properties":{"val":108.24,"field":"tp"},"geometry":{"type":"Polygon","coordinates":[[[51.88,3.75],[53.94,3.75],[53.94,3.69],[53.81,3.69],[53.81,3.62],[53.75,3.62],[53.75,3.56],[53.62,3.56],[53.62,3.5],[53.44,3.5],[53.44,3.56],[53.25,3.56],[53.25,3.5],[53.12,3.5],[53.12,3.44],[53.0,3.44],[53.0,3.38],[52.94,3.38],[52.94,3.25],[52.88,3.25],[52.88,3.19],[52.81,3.19],[52.81,3.0],[52.75,3.0],[52.75,2.88],[52.69,2.88],[52.69,2.81],[52.62,2.81],[52.62,2.75],[52.5,2.75],[52.5,2.81],[52.44,2.81],[52.44,2.94],[52.38,2.94],[52.38,3.0],[52.31,3.0],[52.31,2.94],[52.25,2.94],[52.25,2.88],[51.94,2.88],[51.94,2.94],[51.81,2.94],[51.81,3.06],[51.69,3.06],[51.69,3.12],[51.56,3.12],[51.56,3.19],[51.5,3.19],[51.5,3.38],[51.56,3.38],[51.56,3.44],[51.62,3.44],[51.62,3.5],[51.75,3.5],[51.75,3.56],[51.88,3.56],[51.88,3.75]]]}},{"type":"Feature","properties":{"val":108.24,"field":"tp"},"geometry":{"type":"Polygon","coordinates":[[[40.81,3.44],[41.0,3.44],[41.0,3.38],[41.06,3.38],[41.06,3.31],[41.19,3.31],[41.19,3.25],[41.25,3.25],[41.25,3.0],[41.19,3.0],[41.19,2.69],[41.06,2.69],[41.06,2.75],[41.0,2.75],[41.0,2.88],[40.88,2.88],[40.88,2.94],[40.81,2.94],[40.81,3.0],[40.75,3.0],[40.75,3.06],[40.69,3.06],[40.69,3.25],[40.75,3.25],[40.75,3.38],[40.81,3.38],[40.81,3.44]]]}},{"type":"Feature","properties":{"val":108.24,"field":"tp"},"geometry":{"type":"Polygon","coordinates":[[[21.31,3.25],[21.38,3.25],[21.38,3.19],[21.5,3.19],[21.5,3.12],[21.56,3.12],[21.56,3.0],[21.62,3.0],[21.62,2.94],[21.56,2.94],[21.56,2.88],[21.5,2.88],[21.5,2.81],[21.38,2.81],[21.38,2.75],[21.25,2.75],[21.25,2.88],[21.31,2.88],[21.31,3.25]]]}},{"type":"Feature","properties":{"val":108.24,"field":"tp"},"geometry":{"type":"Polygon","coordinates":[[[29.06,3.19],[29.19,3.19],[29.19,3.12],[29.25,3.12],[29.25,2.94],[29.19,2.94],[29.19,2.88],[29.06,2.88],[29.06,3.0],[29.0,3.0],[29.0,3.12],[29.06,3.12],[29.06,3.19]]]}},{"type":"Feature","properties":{"val":108.24,"field":"tp"},"geometry":{"type":"Polygon","coordinates":[[[85.56,3.25],[85.81,3.25],[85.81,3.12],[85.75,3.12],[85.75,3.0],[85.69,3.0],[85.69,2.94],[85.62,2.94],[85.62,2.88],[85.56,2.88],[85.56,2.81],[85.5,2.81],[85.5,2.75],[85.44,2.75],[85.44,2.69],[85.31,2.69],[85.31,2.62],[85.06,2.62],[85.06,2.69],[85.0,2.69],[85.0,2.81],[85.06,2.81],[85.06,2.88],[85.12,2.88],[85.12,2.94],[85.19,2.94],[85.19,3.0],[85.31,3.0],[85.31,3.06],[85.38,3.06],[85.38,3.12],[85.5,3.12],[85.5,3.19],[85.56,3.19],[85.56,3.25]]]}},{"type":"Feature","properties":{"val":108.24,"field":"tp"},"geometry":{"type":"Polygon","coordinates":[[[27.38,2.94],[27.5,2.94],[27.5,2.88],[27.56,2.88],[27.56,2.75],[27.5,2.75],[27.5,2.56],[27.44,2.56],[27.44,2.5],[27.31,2.5],[27.31,2.56],[27.19,2.56],[27.19,2.69],[27.12,2.69],[27.12,2.75],[27.19,2.75],[27.19,2.81],[27.25,2.81],[27.25,2.88],[27.38,2.88],[27.38,2.94]]]}},{"type":"Feature","properties":{"val":108.24,"field":"tp"},"geometry":{"type":"Polygon","coordinates":[[[23.69,3.75],[23.88,3.75],[23.88,3.69],[23.94,3.69],[23.94,3.62],[24.0,3.62],[24.0,3.56],[24.06,3.56],[24.06,3.5],[24.12,3.5],[24.12,3.44],[24.19,3.44],[24.19,3.38],[24.25,3.38],[24.25,3.31],[24.38,3.31],[24.38,3.25],[24.5,3.25],[24.5,3.19],[24.56,3.19],[24.56,3.12],[24.62,3.12],[24.62,2.94],[24.56,2.94],[24.56,3.0],[24.5,3.0],[24.5,3.06],[24.44,3.06],[24.44,3.12],[24.38,3.12],[24.38,3.19],[24.0,3.19],[24.0,3.12],[23.88,3.12],[23.88,3.06],[23.81,3.06],[23.81,3.0],[23.88,3.0],[23.88,2.94],[23.94,2.94],[23.94,2.88],[24.0,2.88],[24.0,2.81],[24.12,2.81],[24.12,2.75],[24.19,2.75],[24.19,2.69],[24.31,2.69],[24.31,2.62],[24.38,2.62],[24.38,2.5],[24.44,2.5],[24.44,2.25],[24.5,2.25],[24.5,2.19],[24.44,2.19],[24.44,2.12],[24.12,2.12],[24.12,2.19],[24.0,2.19],[24.0,2.25],[23.88,2.25],[23.88,2.31],[23.75,2.31],[23.75,2.38],[23.62,2.38],[23.62,2.44],[23.56,2.44],[23.56,2.5],[23.44,2.5],[23.44,2.56],[23.38,2.56],[23.38,2.62],[23.31,2.62],[23.31,2.75],[23.25,2.75],[23.25,2.81],[23.19,2.81],[23.19,2.88],[23.06,2.88],[23.06,2.94],[23.0,2.94],[23.0,3.0],[22.94,3.0],[22.94,3.06],[22.88,3.06],[22.88,3.12],[22.81,3.12],[22.81,3.25],[22.75,3.25],[22.75,3.56],[23.06,3.56],[23.06,3.5],[23.12,3.5],[23.12,3.44],[23.19,3.44],[23.19,3.38],[23.25,3.38],[23.25,3.25],[23.31,3.25],[23.31,3.19],[23.38,3.19],[23.38,3.12],[23.69,3.12],[23.69,3.75]]]}},{"type":"Feature","properties":{"val":108.24,"field":"tp"},"geometry":{"type":"Polygon","coordinates":[[[25.06,3.06],[25.12,3.06],[25.12,3.0],[25.19,3.0],[25.19,2.94],[25.25,2.94],[25.25,2.88],[25.31,2.88],[25.31,2.75],[25.38,2.75],[25.38,2.44],[25.31,2.44],[25.31,2.38],[25.25,2.38],[25.25,2.44],[25.19,2.44],[25.19,2.5],[25.06,2.5],[25.06,2.56],[24.94,2.56],[24.94,2.62],[24.88,2.62],[24.88,2.69],[24.81,2.69],[24.81,2.88],[24.88,2.88],[24.88,2.94],[24.94,2.94],[24.94,3.0],[25.06,3.0],[25.06,3.06]]]}},{"type":"Feature","properties":{"val":108.24,"field":"tp"},"geometry":{"type":"Polygon","coordinates":[[[30.31,2.94],[30.5,2.94],[30.5,2.88],[30.62,2.88],[30.62,2.81],[30.81,2.81],[30.81,2.88],[31.12,2.88],[31.12,2.75],[31.19,2.75],[31.19,2.62],[31.25,2.62],[31.25,2.56],[31.31,2.56],[31.31,2.5],[31.38,2.5],[31.38,2.44],[31.31,2.44],[31.31,2.38],[31.25,2.38],[31.25,2.31],[31.12,2.31],[31.12,2.25],[30.94,2.25],[30.94,2.31],[30.75,2.31],[30.75,2.19],[30.69,2.19],[30.69,2.12],[30.62,2.12],[30.62,2.06],[30.5,2.06],[30.5,2.0],[30.19,2.0],[30.19,2.06],[30.0,2.06],[30.0,2.12],[29.81,2.12],[29.81,2.19],[29.75,2.19],[29.75,2.31],[29.81,2.31],[29.81,2.44],[29.88,2.44],[29.88,2.56],[29.94,2.56],[29.94,2.69],[30.0,2.69],[30.0,2.75],[30.12,2.75],[30.12,2.81],[30.25,2.81],[30.25,2.88],[30.31,2.88],[30.31,2.94]]]}},{"type":"Feature","properties":{"val":108.24,"field":"tp"},"geometry":{"type":"Polygon","coordinates":[[[49.62,2.25],[49.62,2.19],[49.75,2.19],[49.75,2.25],[49.62,2.25]]]}},{"type":"Feature","properties":{"val":108.24,"field":"tp"},"geometry":{"type":"Polygon","coordinates":[[[27.69,2.31],[27.88,2.31],[27.88,2.25],[28.0,2.25],[28.0,1.88],[27.75,1.88],[27.75,1.94],[27.62,1.94],[27.62,2.25],[27.69,2.25],[27.69,2.31]]]}},{"type":"Feature","properties":{"val":108.24,"field":"tp"},"geometry":{"type":"Polygon","coordinates":[[[41.06,1.69],[41.25,1.69],[41.25,1.56],[41.19,1.56],[41.19,1.5],[41.12,1.5],[41.12,1.44],[40.94,1.44],[40.94,1.56],[41.0,1.56],[41.0,1.62],[41.06,1.62],[41.06,1.69]]]}},{"type":"Feature","properties":{"val":108.24,"field":"tp"},"geometry":{"type":"Polygon","coordinates":[[[26.56,2.25],[26.75,2.25],[26.75,2.12],[26.69,2.12],[26.69,2.06],[26.62,2.06],[26.62,1.94],[26.56,1.94],[26.56,1.81],[26.5,1.81],[26.5,1.75],[26.38,1.75],[26.38,1.69],[26.31,1.69],[26.31,1.62],[26.25,1.62],[26.25,1.56],[26.06,1.56],[26.06,1.62],[25.81,1.62],[25.81,1.56],[25.75,1.56],[25.75,1.5],[25.62,1.5],[25.62,1.44],[25.5,1.44],[25.5,1.38],[25.38,1.38],[25.38,1.31],[25.25,1.31],[25.25,1.25],[25.19,1.25],[25.19,1.19],[25.0,1.19],[25.0,1.25],[24.94,1.25],[24.94,1.44],[24.88,1.44],[24.88,1.56],[24.81,1.56],[24.81,1.62],[24.75,1.62],[24.75,1.69],[24.69,1.69],[24.69,2.0],[24.88,2.0],[24.88,2.06],[24.94,2.06],[24.94,2.0],[25.12,2.0],[25.12,1.94],[25.19,1.94],[25.19,1.88],[25.5,1.88],[25.5,1.94],[25.69,1.94],[25.69,2.0],[25.75,2.0],[25.75,2.06],[25.81,2.06],[25.81,2.12],[26.38,2.12],[26.38,2.19],[26.56,2.19],[26.56,2.25]]]}},{"type":"Feature","properties":{"val":108.24,"field":"tp"},"geometry":{"type":"Polygon","coordinates":[[[75.06,1.88],[75.31,1.88],[75.31,1.56],[75.25,1.56],[75.25,1.5],[75.19,1.5],[75.19,1.44],[75.06,1.44],[75.06,1.38],[75.0,1.38],[75.0,1.31],[74.94,1.31],[74.94,1.25],[74.88,1.25],[74.88,1.19],[74.75,1.19],[74.75,1.12],[74.69,1.12],[74.69,1.06],[74.38,1.06],[74.38,1.25],[74.44,1.25],[74.44,1.31],[74.5,1.31],[74.5,1.38],[74.56,1.38],[74.56,1.44],[74.62,1.44],[74.62,1.5],[74.69,1.5],[74.69,1.56],[74.75,1.56],[74.75,1.62],[74.81,1.62],[74.81,1.69],[74.88,1.69],[74.88,1.75],[74.94,1.75],[74.94,1.81],[75.06,1.81],[75.06,1.88]]]}},{"type":"Feature","properties":{"val":108.24,"field":"tp"},"geometry":{"type":"Polygon","coordinates":[[[18.44,1.69],[18.69,1.69],[18.69,1.62],[18.75,1.62],[18.75,1.44],[18.69,1.44],[18.69,1.25],[18.62,1.25],[18.62,1.12],[18.38,1.12],[18.38,1.19],[18.31,1.19],[18.31,1.56],[18.38,1.56],[18.38,1.62],[18.44,1.62],[18.44,1.69]]]}},{"type":"Feature","properties":{"val":108.24,"field":"tp"},"geometry":{"type":"Polygon","coordinates":[[[10.0,1.44],[10.12,1.44],[10.12,1.38],[10.19,1.38],[10.19,1.19],[10.12,1.19],[10.12,1.06],[10.0,1.06],[10.0,1.19],[9.94,1.19],[9.94,1.31],[10.0,1.31],[10.0,1.44]]]}},{"type":"Feature","properties":{"val":108.24,"field":"tp"},"geometry":{"type":"Polygon","coordinates":[[[40.12,1.25],[40.12,1.19],[40.25,1.19],[40.25,1.25],[40.12,1.25]]]}},{"type":"Feature","properties":{"val":108.24,"field":"tp"},"geometry":{"type":"Polygon","coordinates":[[[37.38,3.75],[38.06,3.75],[38.06,3.56],[38.12,3.56],[38.12,3.5],[38.19,3.5],[38.19,3.44],[38.56,3.44],[38.56,3.5],[38.62,3.5],[38.62,3.56],[39.19,3.56],[39.19,3.75],[39.75,3.75],[39.75,3.69],[40.12,3.69],[40.12,3.62],[40.25,3.62],[40.25,3.56],[40.31,3.56],[40.31,3.19],[40.25,3.19],[40.25,3.06],[40.19,3.06],[40.19,3.0],[40.12,3.0],[40.12,2.69],[40.19,2.69],[40.19,2.5],[40.12,2.5],[40.12,2.38],[40.06,2.38],[40.06,2.25],[40.0,2.25],[40.0,2.19],[39.69,2.19],[39.69,2.25],[39.62,2.25],[39.62,2.38],[39.56,2.38],[39.56,2.94],[39.5,2.94],[39.5,2.69],[39.38,2.69],[39.38,2.62],[39.31,2.62],[39.31,2.56],[39.25,2.56],[39.25,2.44],[39.19,2.44],[39.19,2.38],[39.25,2.38],[39.25,2.06],[39.19,2.06],[39.19,2.0],[39.12,2.0],[39.12,1.94],[39.06,1.94],[39.06,1.88],[38.94,1.88],[38.94,1.81],[38.88,1.81],[38.88,1.75],[38.81,1.75],[38.81,1.81],[38.69,1.81],[38.69,1.88],[38.38,1.88],[38.38,1.56],[38.62,1.56],[38.62,1.62],[38.88,1.62],[38.88,1.56],[38.94,1.56],[38.94,1.44],[39.0,1.44],[39.0,1.38],[39.06,1.38],[39.06,1.06],[38.94,1.06],[38.94,1.0],[38.88,1.0],[38.88,0.94],[38.81,0.94],[38.81,0.88],[38.75,0.88],[38.75,0.81],[38.69,0.81],[38.69,0.69],[38.62,0.69],[38.62,0.62],[38.19,0.62],[38.19,0.69],[38.12,0.69],[38.12,0.75],[38.0,0.75],[38.0,0.88],[37.94,0.88],[37.94,1.5],[37.88,1.5],[37.88,1.62],[37.81,1.62],[37.81,1.75],[37.88,1.75],[37.88,1.81],[37.94,1.81],[37.94,1.88],[38.0,1.88],[38.0,2.0],[38.06,2.0],[38.06,2.38],[38.12,2.38],[38.12,2.56],[38.06,2.56],[38.06,2.75],[38.0,2.75],[38.0,2.81],[37.94,2.81],[37.94,2.88],[37.88,2.88],[37.88,2.94],[37.81,2.94],[37.81,3.0],[37.75,3.0],[37.75,3.12],[37.69,3.12],[37.69,3.44],[37.62,3.44],[37.62,3.5],[37.56,3.5],[37.56,3.62],[37.5,3.62],[37.5,3.69],[37.38,3.69],[37.38,3.75]],[[39.81,3.5],[39.81,3.44],[39.75,3.44],[39.75,3.38],[39.69,3.38],[39.69,3.12],[39.75,3.12],[39.75,3.0],[39.94,3.0],[39.94,3.06],[40.0,3.06],[40.0,3.12],[40.06,3.12],[40.06,3.5],[39.81,3.5]]]}},{"type":"Feature","properties":{"val":108.24,"field":"tp"},"geometry":{"type":"Polygon","coordinates":[[[39.31,0.88],[39.44,0.88],[39.44,0.81],[39.56,0.81],[39.56,0.75],[39.69,0.75],[39.69,0.69],[40.44,0.69],[40.44,0.56],[40.38,0.56],[40.38,0.5],[40.31,0.5],[40.31,0.44],[40.25,0.44],[40.25,0.38],[40.19,0.38],[40.19,0.31],[40.12,0.31],[40.12,0.25],[40.06,0.25],[40.06,0.19],[39.94,0.19],[39.94,0.12],[39.5,0.12],[39.5,0.38],[39.56,0.38],[39.56,0.5],[39.5,0.5],[39.5,0.56],[39.38,0.56],[39.38,0.62],[39.25,0.62],[39.25,0.81],[39.31,0.81],[39.31,0.88]]]}},{"type":"Feature","properties":{"val":108.24,"field":"tp"},"geometry":{"type":"Polygon","coordinates":[[[24.38,0.62],[24.69,0.62],[24.69,0.44],[24.62,0.44],[24.62,0.38],[24.56,0.38],[24.56,0.31],[24.5,0.31],[24.5,0.25],[24.44,0.25],[24.44,0.19],[24.38,0.19],[24.38,0.12],[24.06,0.12],[24.06,0.19],[24.0,0.19],[24.0,0.25],[24.06,0.25],[24.06,0.38],[24.12,0.38],[24.12,0.44],[24.19,0.44],[24.19,0.5],[24.25,0.5],[24.25,0.56],[24.38,0.56],[24.38,0.62]]]}},{"type":"Feature","properties":{"val":108.24,"field":"tp"},"geometry":{"type":"Polygon","coordinates":[[[21.12,0.44],[21.38,0.44],[21.38,0.38],[21.62,0.38],[21.62,0.31],[21.69,0.31],[21.69,0.19],[21.62,0.19],[21.62,0.12],[21.56,0.12],[21.56,0.06],[21.5,0.06],[21.5,0.0],[21.44,0.0],[21.44,-0.12],[21.38,-0.12],[21.38,-0.19],[21.25,-0.19],[21.25,-0.12],[21.19,-0.12],[21.19,-0.06],[21.12,-0.06],[21.12,0.06],[21.06,0.06],[21.06,0.12],[21.0,0.12],[21.0,0.31],[21.06,0.31],[21.06,0.38],[21.12,0.38],[21.12,0.44]]]}},{"type":"Feature","properties":{"val":108.24,"field":"tp"},"geometry":{"type":"Polygon","coordinates":[[[19.31,3.25],[19.5,3.25],[19.5,3.19],[19.56,3.19],[19.56,3.12],[19.62,3.12],[19.62,3.06],[19.69,3.06],[19.69,2.88],[19.62,2.88],[19.62,2.75],[19.56,2.75],[19.56,2.44],[19.62,2.44],[19.62,2.38],[19.69,2.38],[19.69,2.5],[19.75,2.5],[19.75,2.62],[19.81,2.62],[19.81,2.69],[19.94,2.69],[19.94,2.75],[20.12,2.75],[20.12,2.81],[20.5,2.81],[20.5,2.75],[20.62,2.75],[20.62,2.69],[20.69,2.69],[20.69,2.62],[20.75,2.62],[20.75,2.56],[20.81,2.56],[20.81,2.5],[20.88,2.5],[20.88,2.44],[20.94,2.44],[20.94,2.31],[21.0,2.31],[21.0,2.25],[21.12,2.25],[21.12,2.19],[21.25,2.19],[21.25,2.12],[21.5,2.12],[21.5,2.19],[21.56,2.19],[21.56,2.25],[21.62,2.25],[21.62,2.31],[21.88,2.31],[21.88,2.38],[21.94,2.38],[21.94,2.44],[22.0,2.44],[22.0,2.5],[22.06,2.5],[22.06,2.56],[22.19,2.56],[22.19,2.62],[22.5,2.62],[22.5,2.69],[22.56,2.69],[22.56,2.62],[22.69,2.62],[22.69,2.56],[22.75,2.56],[22.75,2.5],[22.81,2.5],[22.81,2.38],[22.88,2.38],[22.88,2.19],[22.81,2.19],[22.81,1.81],[23.12,1.81],[23.12,1.88],[23.25,1.88],[23.25,1.94],[23.31,1.94],[23.31,1.88],[23.44,1.88],[23.44,1.81],[23.56,1.81],[23.56,1.75],[23.62,1.75],[23.62,1.69],[23.75,1.69],[23.75,1.62],[23.81,1.62],[23.81,1.56],[23.88,1.56],[23.88,1.31],[23.44,1.31],[23.44,1.25],[23.38,1.25],[23.38,1.06],[23.31,1.06],[23.31,0.81],[23.19,0.81],[23.19,0.75],[23.0,0.75],[23.0,0.69],[22.81,0.69],[22.81,0.62],[22.44,0.62],[22.44,0.69],[22.38,0.69],[22.38,0.75],[22.31,0.75],[22.31,0.81],[22.19,0.81],[22.19,0.88],[21.81,0.88],[21.81,0.81],[21.69,0.81],[21.69,0.75],[21.5,0.75],[21.5,0.81],[21.44,0.81],[21.44,0.94],[21.38,0.94],[21.38,1.0],[21.19,1.0],[21.19,0.94],[21.06,0.94],[21.06,0.88],[20.44,0.88],[20.44,0.94],[20.38,0.94],[20.38,1.0],[20.31,1.0],[20.31,1.06],[20.25,1.06],[20.25,1.12],[20.19,1.12],[20.19,1.19],[20.12,1.19],[20.12,1.25],[20.06,1.25],[20.06,1.19],[20.0,1.19],[20.0,1.12],[19.94,1.12],[19.94,0.81],[20.0,0.81],[20.0,0.5],[19.94,0.5],[19.94,0.38],[19.88,0.38],[19.88,0.25],[19.94,0.25],[19.94,0.19],[20.19,0.19],[20.19,0.25],[20.25,0.25],[20.25,0.31],[20.38,0.31],[20.38,0.38],[20.62,0.38],[20.62,0.31],[20.69,0.31],[20.69,0.25],[20.75,0.25],[20.75,0.12],[20.56,0.12],[20.56,0.06],[20.44,0.06],[20.44,0.0],[20.38,0.0],[20.38,-0.12],[20.44,-0.12],[20.44,-0.25],[20.5,-0.25],[20.5,-0.5],[20.31,-0.5],[20.31,-0.56],[20.25,-0.56],[20.25,-0.62],[20.19,-0.62],[20.19,-0.75],[20.12,-0.75],[20.12,-0.81],[20.06,-0.81],[20.06,-0.88],[19.81,-0.88],[19.81,-0.81],[19.88,-0.81],[19.88,-0.69],[19.94,-0.69],[19.94,-0.62],[20.0,-0.62],[20.0,-0.5],[19.94,-0.5],[19.94,-0.38],[19.88,-0.38],[19.88,-0.31],[19.75,-0.31],[19.75,-0.25],[19.62,-0.25],[19.62,-0.19],[19.44,-0.19],[19.44,-0.25],[19.06,-0.25],[19.06,-0.19],[18.94,-0.19],[18.94,-0.06],[18.88,-0.06],[18.88,0.06],[18.94,0.06],[18.94,0.31],[19.0,0.31],[19.0,0.44],[19.06,0.44],[19.06,0.62],[19.0,0.62],[19.0,0.88],[19.06,0.88],[19.06,1.38],[19.12,1.38],[19.12,1.62],[19.0,1.62],[19.0,1.69],[18.88,1.69],[18.88,1.88],[18.81,1.88],[18.81,2.31],[18.88,2.31],[18.88,2.38],[18.94,2.38],[18.94,2.5],[19.0,2.5],[19.0,2.75],[19.06,2.75],[19.06,2.94],[19.12,2.94],[19.12,3.06],[19.19,3.06],[19.19,3.19],[19.31,3.19],[19.31,3.25]],[[20.19,2.62],[20.19,2.56],[20.12,2.56],[20.12,2.5],[20.06,2.5],[20.06,2.25],[20.12,2.25],[20.12,2.19],[20.38,2.19],[20.38,2.25],[20.5,2.25],[20.5,2.38],[20.56,2.38],[20.56,2.5],[20.5,2.5],[20.5,2.56],[20.44,2.56],[20.44,2.62],[20.19,2.62]]]}},{"type":"Feature","properties":{"val":108.24,"field":"tp"},"geometry":{"type":"Polygon","coordinates":[[[38.62,-0.5],[38.88,-0.5],[38.88,-0.56],[38.94,-0.56],[38.94,-0.69],[39.0,-0.69],[39.0,-0.81],[38.94,-0.81],[38.94,-1.0],[38.88,-1.0],[38.88,-1.06],[38.81,-1.06],[38.81,-1.0],[38.69,-1.0],[38.69,-0.88],[38.62,-0.88],[38.62,-0.75],[38.56,-0.75],[38.56,-0.56],[38.62,-0.56],[38.62,-0.5]]]}},{"type":"Feature","properties":{"val":108.24,"field":"tp"},"geometry":{"type":"Polygon","coordinates":[[[19.25,-0.94],[19.75,-0.94],[19.75,-1.0],[19.69,-1.0],[19.69,-1.12],[19.25,-1.12],[19.25,-1.19],[19.12,-1.19],[19.12,-1.25],[19.06,-1.25],[19.06,-1.31],[19.0,-1.31],[19.0,-1.38],[18.94,-1.38],[18.94,-1.44],[18.81,-1.44],[18.81,-1.38],[18.75,-1.38],[18.75,-1.19],[18.88,-1.19],[18.88,-1.12],[19.0,-1.12],[19.0,-1.06],[19.12,-1.06],[19.12,-1.0],[19.25,-1.0],[19.25,-0.94]]]}},{"type":"Feature","properties":{"val":108.24,"field":"tp"},"geometry":{"type":"Polygon","coordinates":[[[40.12,-0.62],[40.44,-0.62],[40.44,-0.69],[40.56,-0.69],[40.56,-0.88],[40.44,-0.88],[40.44,-0.94],[40.38,-0.94],[40.38,-1.12],[40.44,-1.12],[40.44,-1.19],[40.62,-1.19],[40.62,-1.25],[40.69,-1.25],[40.69,-1.19],[41.06,-1.19],[41.06,-1.5],[41.0,-1.5],[41.0,-1.56],[40.88,-1.56],[40.88,-1.62],[40.5,-1.62],[40.5,-1.69],[39.44,-1.69],[39.44,-1.62],[39.31,-1.62],[39.31,-1.56],[39.25,-1.56],[39.25,-1.44],[39.31,-1.44],[39.31,-1.38],[39.44,-1.38],[39.44,-1.31],[39.5,-1.31],[39.5,-1.25],[39.62,-1.25],[39.62,-1.19],[39.69,-1.19],[39.69,-1.12],[39.75,-1.12],[39.75,-0.88],[39.69,-0.88],[39.69,-0.81],[39.75,-0.81],[39.75,-0.75],[39.81,-0.75],[39.81,-0.69],[40.12,-0.69],[40.12,-0.62]]]}},{"type":"Feature","properties":{"val":108.24,"field":"tp"},"geometry":{"type":"Polygon","coordinates":[[[12.38,-5.88],[12.56,-5.88],[12.56,-5.94],[12.69,-5.94],[12.69,-6.12],[12.62,-6.12],[12.62,-6.19],[12.12,-6.19],[12.12,-6.12],[12.06,-6.12],[12.06,-6.06],[12.12,-6.06],[12.12,-6.0],[12.19,-6.0],[12.19,-5.94],[12.38,-5.94],[12.38,-5.88]]]}},{"type":"Feature","properties":{"val":108.24,"field":"tp"},"geometry":{"type":"Polygon","coordinates":[[[-6.0,-5.75],[-5.88,-5.75],[-5.88,-5.81],[-5.81,-5.81],[-5.81,-5.88],[-5.88,-5.88],[-5.88,-6.0],[-5.94,-6.0],[-5.94,-6.06],[-6.0,-6.06],[-6.0,-6.19],[-5.94,-6.19],[-5.94,-6.31],[-6.19,-6.31],[-6.19,-6.19],[-6.25,-6.19],[-6.25,-6.06],[-6.06,-6.06],[-6.06,-5.81],[-6.0,-5.81],[-6.0,-5.75]]]}},{"type":"Feature","properties":{"val":108.24,"field":"tp"},"geometry":{"type":"Polygon","coordinates":[[[10.5,-7.0],[10.81,-7.0],[10.81,-7.06],[10.88,-7.06],[10.88,-7.12],[10.94,-7.12],[10.94,-7.31],[10.88,-7.31],[10.88,-7.38],[10.69,-7.38],[10.69,-7.44],[10.56,-7.44],[10.56,-7.38],[10.44,-7.38],[10.44,-7.31],[10.38,-7.31],[10.38,-7.12],[10.44,-7.12],[10.44,-7.06],[10.5,-7.06],[10.5,-7.0]]]}},{"type":"Feature","properties":{"val":108.24,"field":"tp"},"geometry":{"type":"Polygon","coordinates":[[[-8.25,-7.19],[-8.12,-7.19],[-8.12,-7.25],[-8.06,-7.25],[-8.06,-7.44],[-8.19,-7.44],[-8.19,-7.5],[-8.25,-7.5],[-8.25,-7.44],[-8.31,-7.44],[-8.31,-7.25],[-8.25,-7.25],[-8.25,-7.19]]]}},{"type":"Feature","properties":{"val":108.24,"field":"tp"},"geometry":{"type":"Polygon","coordinates":[[[-0.31,-7.56],[-0.25,-7.56],[-0.25,-7.75],[-0.31,-7.75],[-0.31,-7.81],[-0.38,-7.81],[-0.38,-7.62],[-0.31,-7.62],[-0.31,-7.56]]]}},{"type":"Feature","properties":{"val":108.24,"field":"tp"},"geometry":{"type":"Polygon","coordinates":[[[-7.25,-7.88],[-7.12,-7.88],[-7.12,-7.94],[-6.94,-7.94],[-6.94,-8.0],[-6.81,-8.0],[-6.81,-8.06],[-6.75,-8.06],[-6.75,-8.19],[-6.81,-8.19],[-6.81,-8.25],[-7.0,-8.25],[-7.0,-8.19],[-7.19,-8.19],[-7.19,-8.12],[-7.38,-8.12],[-7.38,-7.94],[-7.25,-7.94],[-7.25,-7.88]]]}},{"type":"Feature","properties":{"val":108.24,"field":"tp"},"geometry":{"type":"Polygon","coordinates":[[[-0.62,-7.88],[-0.38,-7.88],[-0.38,-8.0],[-0.44,-8.0],[-0.44,-8.12],[-0.5,-8.12],[-0.5,-8.25],[-0.56,-8.25],[-0.56,-8.31],[-0.62,-8.31],[-0.62,-8.38],[-0.69,-8.38],[-0.69,-8.44],[-0.81,-8.44],[-0.81,-8.5],[-0.88,-8.5],[-0.88,-8.44],[-0.94,-8.44],[-0.94,-8.19],[-0.88,-8.19],[-0.88,-8.06],[-0.81,-8.06],[-0.81,-8.0],[-0.75,-8.0],[-0.75,-7.94],[-0.62,-7.94],[-0.62,-7.88]]]}},{"type":"Feature","properties":{"val":108.24,"field":"tp"},"geometry":{"type":"Polygon","coordinates":[[[3.19,-8.5],[3.19,-8.56],[3.25,-8.56],[3.25,-8.5],[3.19,-8.5]]]}},{"type":"Feature","properties":{"val":108.24,"field":"tp"},"geometry":{"type":"Polygon","coordinates":[[[32.5,-8.56],[32.56,-8.56],[32.56,-8.62],[32.62,-8.62],[32.62,-8.75],[32.56,-8.75],[32.56,-8.81],[32.5,-8.81],[32.5,-8.88],[32.44,-8.88],[32.44,-8.94],[32.25,-8.94],[32.25,-8.75],[32.31,-8.75],[32.31,-8.69],[32.38,-8.69],[32.38,-8.62],[32.5,-8.62],[32.5,-8.56]]]}},{"type":"Feature","properties":{"val":108.24,"field":"tp"},"geometry":{"type":"Polygon","coordinates":[[[-5.94,-8.69],[-5.69,-8.69],[-5.69,-8.75],[-5.62,-8.75],[-5.62,-8.94],[-5.94,-8.94],[-5.94,-8.88],[-6.0,-8.88],[-6.0,-8.75],[-5.94,-8.75],[-5.94,-8.69]]]}},{"type":"Feature","properties":{"val":108.24,"field":"tp"},"geometry":{"type":"Polygon","coordinates":[[[22.69,-9.06],[22.69,-9.12],[22.75,-9.12],[22.75,-9.06],[22.69,-9.06]]]}},{"type":"Feature","properties":{"val":108.24,"field":"tp"},"geometry":{"type":"Polygon","coordinates":[[[-1.19,-9.38],[-1.19,-9.62],[-1.12,-9.62],[-1.12,-9.69],[-1.06,-9.69],[-1.06,-9.62],[-1.0,-9.62],[-1.0,-9.38],[-1.19,-9.38]]]}},{"type":"Feature","properties":{"val":108.24,"field":"tp"},"geometry":{"type":"Polygon","coordinates":[[[3.56,-9.44],[3.75,-9.44],[3.75,-9.5],[3.81,-9.5],[3.81,-9.62],[3.88,-9.62],[3.88,-9.81],[3.69,-9.81],[3.69,-9.75],[3.62,-9.75],[3.62,-9.62],[3.56,-9.62],[3.56,-9.56],[3.5,-9.56],[3.5,-9.5],[3.56,-9.5],[3.56,-9.44]]]}},{"type":"Feature","properties":{"val":108.24,"field":"tp"},"geometry":{"type":"Polygon","coordinates":[[[16.0,-6.56],[16.12,-6.56],[16.12,-6.88],[16.06,-6.88],[16.06,-6.94],[16.0,-6.94],[16.0,-7.06],[15.94,-7.06],[15.94,-7.25],[15.88,-7.25],[15.88,-7.38],[15.81,-7.38],[15.81,-7.5],[15.75,-7.5],[15.75,-7.75],[15.69,-7.75],[15.69,-8.06],[15.75,-8.06],[15.75,-8.12],[15.81,-8.12],[15.81,-8.38],[15.75,-8.38],[15.75,-8.44],[15.69,-8.44],[15.69,-8.5],[15.62,-8.5],[15.62,-8.56],[15.56,-8.56],[15.56,-8.62],[15.5,-8.62],[15.5,-8.75],[15.44,-8.75],[15.44,-8.81],[15.38,-8.81],[15.38,-8.88],[15.31,-8.88],[15.31,-9.38],[15.38,-9.38],[15.38,-9.5],[15.31,-9.5],[15.31,-9.56],[15.25,-9.56],[15.25,-9.62],[15.06,-9.62],[15.06,-9.69],[15.0,-9.69],[15.0,-9.75],[14.94,-9.75],[14.94,-9.88],[14.88,-9.88],[14.88,-9.94],[14.81,-9.94],[14.81,-10.0],[14.75,-10.0],[14.75,-10.12],[14.69,-10.12],[14.69,-10.19],[14.56,-10.19],[14.56,-10.25],[14.5,-10.25],[14.5,-10.31],[14.38,-10.31],[14.38,-10.38],[14.12,-10.38],[14.12,-10.25],[14.19,-10.25],[14.19,-10.12],[14.25,-10.12],[14.25,-10.06],[14.31,-10.06],[14.31,-9.94],[14.38,-9.94],[14.38,-9.69],[14.44,-9.69],[14.44,-9.56],[14.38,-9.56],[14.38,-9.44],[14.31,-9.44],[14.31,-9.38],[14.06,-9.38],[14.06,-9.44],[14.0,-9.44],[14.0,-9.5],[13.69,-9.5],[13.69,-9.19],[13.81,-9.19],[13.81,-9.12],[13.94,-9.12],[13.94,-9.06],[14.0,-9.06],[14.0,-8.94],[14.06,-8.94],[14.06,-8.88],[14.12,-8.88],[14.12,-8.81],[14.25,-8.81],[14.25,-8.75],[14.31,-8.75],[14.31,-8.69],[14.38,-8.69],[14.38,-8.25],[14.31,-8.25],[14.31,-8.19],[14.06,-8.19],[14.06,-8.25],[14.0,-8.25],[14.0,-8.31],[13.94,-8.31],[13.94,-8.38],[13.56,-8.38],[13.56,-8.19],[13.94,-8.19],[13.94,-8.12],[14.06,-8.12],[14.06,-8.06],[14.12,-8.06],[14.12,-7.94],[14.19,-7.94],[14.19,-7.88],[14.25,-7.88],[14.25,-7.81],[14.31,-7.81],[14.31,-7.75],[14.56,-7.75],[14.56,-7.69],[14.69,-7.69],[14.69,-7.62],[14.75,-7.62],[14.75,-7.56],[14.81,-7.56],[14.81,-7.38],[14.88,-7.38],[14.88,-7.12],[14.94,-7.12],[14.94,-7.06],[15.06,-7.06],[15.06,-7.0],[15.12,-7.0],[15.12,-6.94],[15.19,-6.94],[15.19,-6.88],[15.62,-6.88],[15.62,-6.81],[15.69,-6.81],[15.69,-6.75],[15.81,-6.75],[15.81,-6.69],[15.88,-6.69],[15.88,-6.62],[16.0,-6.62],[16.0,-6.56]],[[14.88,-7.75],[14.88,-7.81],[14.81,-7.81],[14.81,-7.88],[14.75,-7.88],[14.75,-7.94],[14.69,-7.94],[14.69,-8.12],[14.62,-8.12],[14.62,-8.25],[14.56,-8.25],[14.56,-8.38],[14.5,-8.38],[14.5,-8.88],[14.56,-8.88],[14.56,-8.94],[14.62,-8.94],[14.62,-9.0],[14.75,-9.0],[14.75,-8.94],[14.81,-8.94],[14.81,-8.81],[14.88,-8.81],[14.88,-8.62],[14.94,-8.62],[14.94,-8.5],[15.0,-8.5],[15.0,-8.31],[15.06,-8.31],[15.06,-8.12],[15.12,-8.12],[15.12,-7.94],[15.19,-7.94],[15.19,-7.75],[14.88,-7.75]]]}},{"type":"Feature","properties":{"val":108.24,"field":"tp"},"geometry":{"type":"Polygon","coordinates":[[[8.69,-8.12],[9.0,-8.12],[9.0,-8.25],[9.06,-8.25],[9.06,-8.62],[9.0,-8.62],[9.0,-8.69],[8.94,-8.69],[8.94,-8.75],[8.88,-8.75],[8.88,-9.0],[8.94,-9.0],[8.94,-9.12],[9.0,-9.12],[9.0,-9.19],[9.19,-9.19],[9.19,-9.12],[9.25,-9.12],[9.25,-9.06],[9.31,-9.06],[9.31,-9.0],[9.38,-9.0],[9.38,-8.94],[9.44,-8.94],[9.44,-8.88],[9.5,-8.88],[9.5,-8.81],[9.56,-8.81],[9.56,-8.75],[9.62,-8.75],[9.62,-8.62],[9.69,-8.62],[9.69,-8.56],[9.75,-8.56],[9.75,-8.5],[10.38,-8.5],[10.38,-8.44],[10.5,-8.44],[10.5,-8.38],[10.75,-8.38],[10.75,-8.31],[10.94,-8.31],[10.94,-8.25],[11.31,-8.25],[11.31,-8.31],[11.38,-8.31],[11.38,-8.44],[11.31,-8.44],[11.31,-8.5],[11.12,-8.5],[11.12,-8.62],[11.19,-8.62],[11.19,-8.69],[11.69,-8.69],[11.69,-8.75],[11.81,-8.75],[11.81,-8.81],[11.88,-8.81],[11.88,-8.88],[11.94,-8.88],[11.94,-8.94],[12.0,-8.94],[12.0,-9.0],[12.06,-9.0],[12.06,-9.06],[12.12,-9.06],[12.12,-9.31],[12.06,-9.31],[12.06,-9.38],[12.0,-9.38],[12.0,-9.31],[11.75,-9.31],[11.75,-9.38],[11.69,-9.38],[11.69,-9.44],[11.56,-9.44],[11.56,-9.5],[11.44,-9.5],[11.44,-9.56],[11.38,-9.56],[11.38,-9.62],[11.31,-9.62],[11.31,-9.75],[11.25,-9.75],[11.25,-9.94],[11.31,-9.94],[11.31,-10.19],[11.38,-10.19],[11.38,-10.38],[11.44,-10.38],[11.44,-10.44],[11.5,-10.44],[11.5,-10.5],[11.69,-10.5],[11.69,-10.44],[11.75,-10.44],[11.75,-10.38],[11.88,-10.38],[11.88,-10.31],[12.12,-10.31],[12.12,-10.25],[12.19,-10.25],[12.19,-10.19],[12.25,-10.19],[12.25,-10.06],[12.31,-10.06],[12.31,-10.0],[12.38,-10.0],[12.38,-9.94],[12.69,-9.94],[12.69,-10.0],[12.75,-10.0],[12.75,-10.06],[12.88,-10.06],[12.88,-10.19],[13.0,-10.19],[13.0,-10.25],[13.06,-10.25],[13.06,-10.31],[13.25,-10.31],[13.25,-10.38],[13.31,-10.38],[13.31,-10.56],[13.25,-10.56],[13.25,-10.62],[13.19,-10.62],[13.19,-10.75],[13.12,-10.75],[13.12,-10.81],[13.06,-10.81],[13.06,-10.88],[13.0,-10.88],[13.0,-10.94],[12.94,-10.94],[12.94,-11.0],[12.88,-11.0],[12.88,-11.06],[12.75,-11.06],[12.75,-11.12],[12.56,-11.12],[12.56,-11.19],[12.38,-11.19],[12.38,-11.12],[12.12,-11.12],[12.12,-11.06],[11.81,-11.06],[11.81,-11.12],[11.75,-11.12],[11.75,-11.19],[11.69,-11.19],[11.69,-11.25],[11.62,-11.25],[11.62,-11.31],[11.44,-11.31],[11.44,-11.25],[11.38,-11.25],[11.38,-11.19],[11.44,-11.19],[11.44,-10.94],[11.5,-10.94],[11.5,-10.81],[11.44,-10.81],[11.44,-10.75],[11.12,-10.75],[11.12,-11.0],[11.06,-11.0],[11.06,-11.31],[10.94,-11.31],[10.94,-11.38],[10.69,-11.38],[10.69,-11.31],[10.19,-11.31],[10.19,-11.38],[10.12,-11.38],[10.12,-11.44],[10.06,-11.44],[10.06,-11.5],[9.81,-11.5],[9.81,-11.56],[9.56,-11.56],[9.56,-11.62],[9.5,-11.62],[9.5,-11.69],[9.44,-11.69],[9.44,-11.75],[9.38,-11.75],[9.38,-11.81],[9.31,-11.81],[9.31,-11.94],[9.25,-11.94],[9.25,-12.12],[9.19,-12.12],[9.19,-12.19],[9.12,-12.19],[9.12,-12.25],[9.0,-12.25],[9.0,-12.19],[8.94,-12.19],[8.94,-12.12],[8.88,-12.12],[8.88,-12.06],[8.81,-12.06],[8.81,-12.0],[8.75,-12.0],[8.75,-12.06],[8.69,-12.06],[8.69,-12.25],[8.62,-12.25],[8.62,-12.38],[8.56,-12.38],[8.56,-12.44],[8.5,-12.44],[8.5,-12.5],[8.44,-12.5],[8.44,-12.56],[8.38,-12.56],[8.38,-12.62],[8.31,-12.62],[8.31,-12.75],[8.19,-12.75],[8.19,-12.81],[8.06,-12.81],[8.06,-12.75],[7.94,-12.75],[7.94,-12.69],[7.81,-12.69],[7.81,-12.62],[7.69,-12.62],[7.69,-12.56],[7.56,-12.56],[7.56,-12.44],[7.5,-12.44],[7.5,-12.38],[7.44,-12.38],[7.44,-12.31],[7.38,-12.31],[7.38,-12.25],[7.31,-12.25],[7.31,-12.19],[7.25,-12.19],[7.25,-12.12],[7.12,-12.12],[7.12,-12.06],[7.06,-12.06],[7.06,-12.0],[7.0,-12.0],[7.0,-11.94],[6.94,-11.94],[6.94,-11.81],[6.88,-11.81],[6.88,-11.75],[6.81,-11.75],[6.81,-11.69],[6.69,-11.69],[6.69,-11.62],[6.5,-11.62],[6.5,-11.19],[6.44,-11.19],[6.44,-11.12],[6.38,-11.12],[6.38,-11.06],[6.31,-11.06],[6.31,-11.0],[6.25,-11.0],[6.25,-10.94],[6.19,-10.94],[6.19,-10.88],[6.12,-10.88],[6.12,-10.81],[6.06,-10.81],[6.06,-10.5],[6.12,-10.5],[6.12,-10.0],[6.06,-10.0],[6.06,-9.75],[6.12,-9.75],[6.12,-9.62],[6.19,-9.62],[6.19,-9.56],[6.38,-9.56],[6.38,-9.69],[6.44,-9.69],[6.44,-9.75],[6.5,-9.75],[6.5,-9.81],[6.62,-9.81],[6.62,-9.75],[6.75,-9.75],[6.75,-9.69],[6.81,-9.69],[6.81,-9.62],[6.88,-9.62],[6.88,-9.56],[6.94,-9.56],[6.94,-9.38],[7.0,-9.38],[7.0,-9.25],[7.06,-9.25],[7.06,-9.12],[7.12,-9.12],[7.12,-9.06],[7.19,-9.06],[7.19,-9.0],[7.25,-9.0],[7.25,-8.94],[7.31,-8.94],[7.31,-8.88],[7.38,-8.88],[7.38,-8.75],[7.44,-8.75],[7.44,-8.69],[7.5,-8.69],[7.5,-8.62],[7.62,-8.62],[7.62,-8.69],[7.81,-8.69],[7.81,-8.62],[8.0,-8.62],[8.0,-8.56],[8.12,-8.56],[8.12,-8.5],[8.25,-8.5],[8.25,-8.44],[8.31,-8.44],[8.31,-8.38],[8.44,-8.38],[8.44,-8.31],[8.5,-8.31],[8.5,-8.25],[8.62,-8.25],[8.62,-8.19],[8.69,-8.19],[8.69,-8.12]],[[8.0,-8.75],[8.0,-8.81],[7.88,-8.81],[7.88,-8.88],[7.69,-8.88],[7.69,-8.94],[7.56,-8.94],[7.56,-9.0],[7.5,-9.0],[7.5,-9.06],[7.44,-9.06],[7.44,-9.12],[7.38,-9.12],[7.38,-9.25],[7.31,-9.25],[7.31,-9.31],[7.25,-9.31],[7.25,-9.5],[7.19,-9.5],[7.19,-9.62],[7.12,-9.62],[7.12,-9.75],[7.06,-9.75],[7.06,-9.81],[7.0,-9.81],[7.0,-9.88],[6.94,-9.88],[6.94,-9.94],[6.88,-9.94],[6.88,-10.0],[6.75,-10.0],[6.75,-10.06],[6.62,-10.06],[6.62,-10.25],[6.5,-10.25],[6.5,-10.31],[6.38,-10.31],[6.38,-10.38],[6.25,-10.38],[6.25,-10.5],[6.19,-10.5],[6.19,-10.62],[6.25,-10.62],[6.25,-10.75],[6.31,-10.75],[6.31,-10.81],[6.38,-10.81],[6.38,-10.88],[6.44,-10.88],[6.44,-10.94],[6.5,-10.94],[6.5,-11.0],[6.62,-11.0],[6.62,-11.19],[6.69,-11.19],[6.69,-11.38],[6.75,-11.38],[6.75,-11.44],[6.81,-11.44],[6.81,-11.5],[6.88,-11.5],[6.88,-11.56],[6.94,-11.56],[6.94,-11.62],[7.0,-11.62],[7.0,-11.75],[7.06,-11.75],[7.06,-11.81],[7.12,-11.81],[7.12,-11.88],[7.19,-11.88],[7.19,-11.94],[7.25,-11.94],[7.25,-12.0],[7.31,-12.0],[7.31,-12.06],[7.38,-12.06],[7.38,-12.12],[7.5,-12.12],[7.5,-12.19],[7.56,-12.19],[7.56,-12.25],[7.62,-12.25],[7.62,-12.31],[7.69,-12.31],[7.69,-12.38],[7.81,-12.38],[7.81,-12.44],[8.0,-12.44],[8.0,-12.38],[8.19,-12.38],[8.19,-12.31],[8.31,-12.31],[8.31,-12.25],[8.44,-12.25],[8.44,-12.12],[8.5,-12.12],[8.5,-11.81],[8.56,-11.81],[8.56,-11.75],[8.62,-11.75],[8.62,-11.69],[9.06,-11.69],[9.06,-11.62],[9.12,-11.62],[9.12,-11.0],[9.19,-11.0],[9.19,-10.94],[9.25,-10.94],[9.25,-10.88],[9.5,-10.88],[9.5,-10.94],[9.56,-10.94],[9.56,-11.0],[9.62,-11.0],[9.62,-11.06],[9.75,-11.06],[9.75,-11.12],[9.94,-11.12],[9.94,-11.06],[10.0,-11.06],[10.0,-11.0],[10.12,-11.0],[10.12,-10.94],[10.38,-10.94],[10.38,-11.0],[10.5,-11.0],[10.5,-11.06],[10.62,-11.06],[10.62,-11.0],[10.75,-11.0],[10.75,-10.94],[10.81,-10.94],[10.81,-10.75],[10.88,-10.75],[10.88,-10.25],[10.81,-10.25],[10.81,-10.12],[10.75,-10.12],[10.75,-9.94],[10.81,-9.94],[10.81,-9.81],[10.75,-9.81],[10.75,-9.69],[10.69,-9.69],[10.69,-9.62],[10.62,-9.62],[10.62,-9.44],[10.69,-9.44],[10.69,-9.38],[10.75,-9.38],[10.75,-9.44],[10.88,-9.44],[10.88,-9.56],[10.94,-9.56],[10.94,-9.62],[11.06,-9.62],[11.06,-9.56],[11.12,-9.56],[11.12,-9.5],[11.19,-9.5],[11.19,-9.25],[11.06,-9.25],[11.06,-9.19],[11.0,-9.19],[11.0,-8.94],[10.94,-8.94],[10.94,-8.81],[10.81,-8.81],[10.81,-8.75],[10.75,-8.75],[10.75,-8.81],[10.69,-8.81],[10.69,-8.94],[10.62,-8.94],[10.62,-9.19],[10.56,-9.19],[10.56,-9.31],[10.44,-9.31],[10.44,-9.44],[10.38,-9.44],[10.38,-9.5],[10.31,-9.5],[10.31,-9.56],[10.06,-9.56],[10.06,-9.5],[10.0,-9.5],[10.0,-9.44],[9.94,-9.44],[9.94,-9.38],[9.56,-9.38],[9.56,-9.44],[9.44,-9.44],[9.44,-9.5],[9.38,-9.5],[9.38,-9.81],[9.19,-9.81],[9.19,-9.75],[9.12,-9.75],[9.12,-9.69],[8.81,-9.69],[8.81,-9.62],[8.62,-9.62],[8.62,-9.56],[8.56,-9.56],[8.56,-9.5],[8.5,-9.5],[8.5,-9.38],[8.44,-9.38],[8.44,-9.12],[8.38,-9.12],[8.38,-9.06],[8.31,-9.06],[8.31,-8.94],[8.25,-8.94],[8.25,-8.88],[8.19,-8.88],[8.19,-8.81],[8.12,-8.81],[8.12,-8.75],[8.0,-8.75]]]}},{"type":"Feature","properties":{"val":108.24,"field":"tp"},"geometry":{"type":"Polygon","coordinates":[[[63.62,-21.12],[64.0,-21.12],[64.0,-21.19],[64.06,-21.19],[64.06,-21.38],[63.94,-21.38],[63.94,-21.44],[63.56,-21.44],[63.56,-21.38],[63.5,-21.38],[63.5,-21.19],[63.62,-21.19],[63.62,-21.12]]]}},{"type":"Feature","properties":{"val":108.24,"field":"tp"},"geometry":{"type":"Polygon","coordinates":[[[64.31,-21.44],[64.44,-21.44],[64.44,-21.5],[64.75,-21.5],[64.75,-21.56],[64.88,-21.56],[64.88,-21.62],[65.0,-21.62],[65.0,-21.69],[65.12,-21.69],[65.12,-21.75],[65.25,-21.75],[65.25,-21.81],[65.31,-21.81],[65.31,-21.88],[65.38,-21.88],[65.38,-22.19],[64.88,-22.19],[64.88,-22.12],[64.69,-22.12],[64.69,-22.06],[64.56,-22.06],[64.56,-22.0],[64.44,-22.0],[64.44,-21.94],[64.38,-21.94],[64.38,-21.88],[64.31,-21.88],[64.31,-21.81],[64.25,-21.81],[64.25,-21.5],[64.31,-21.5],[64.31,-21.44]],[[64.62,-21.75],[64.62,-21.81],[64.69,-21.81],[64.69,-21.88],[64.88,-21.88],[64.88,-21.81],[64.75,-21.81],[64.75,-21.75],[64.62,-21.75]]]}},{"type":"Feature","properties":{"val":108.24,"field":"tp"},"geometry":{"type":"Polygon","coordinates":[[[1.56,-29.31],[1.56,-29.38],[1.62,-29.38],[1.62,-29.44],[1.69,-29.44],[1.69,-29.5],[1.81,-29.5],[1.81,-29.38],[1.75,-29.38],[1.75,-29.31],[1.56,-29.31]]]}},{"type":"Feature","properties":{"val":108.24,"field":"tp"},"geometry":{"type":"Polygon","coordinates":[[[2.62,-29.31],[2.62,-29.44],[2.69,-29.44],[2.69,-29.5],[2.81,-29.5],[2.81,-29.38],[2.75,-29.38],[2.75,-29.31],[2.62,-29.31]]]}},{"type":"Feature","properties":{"val":108.24,"field":"tp"},"geometry":{"type":"Polygon","coordinates":[[[-1.69,-30.75],[-1.69,-31.0],[-1.62,-31.0],[-1.62,-31.06],[-1.5,-31.06],[-1.5,-31.12],[-1.38,-31.12],[-1.38,-31.06],[-1.31,-31.06],[-1.31,-31.0],[-1.25,-31.0],[-1.25,-30.88],[-1.31,-30.88],[-1.31,-30.81],[-1.38,-30.81],[-1.38,-30.75],[-1.69,-30.75]]]}},{"type":"Feature","properties":{"val":108.24,"field":"tp"},"geometry":{"type":"Polygon","coordinates":[[[1.06,-32.38],[1.06,-32.5],[1.19,-32.5],[1.19,-32.38],[1.06,-32.38]]]}},{"type":"Feature","properties":{"val":108.24,"field":"tp"},"geometry":{"type":"Polygon","coordinates":[[[2.75,-30.0],[3.0,-30.0],[3.0,-30.06],[3.06,-30.06],[3.06,-30.19],[3.12,-30.19],[3.12,-30.25],[3.19,-30.25],[3.19,-30.38],[3.25,-30.38],[3.25,-30.44],[3.31,-30.44],[3.31,-30.5],[3.38,-30.5],[3.38,-30.56],[3.44,-30.56],[3.44,-30.62],[3.5,-30.62],[3.5,-30.69],[3.62,-30.69],[3.62,-30.62],[3.69,-30.62],[3.69,-30.56],[3.75,-30.56],[3.75,-30.5],[3.88,-30.5],[3.88,-30.56],[4.0,-30.56],[4.0,-30.62],[4.06,-30.62],[4.06,-30.56],[4.19,-30.56],[4.19,-30.5],[4.38,-30.5],[4.38,-30.62],[4.44,-30.62],[4.44,-30.94],[4.5,-30.94],[4.5,-31.06],[4.56,-31.06],[4.56,-31.12],[4.69,-31.12],[4.69,-31.19],[4.75,-31.19],[4.75,-31.25],[4.81,-31.25],[4.81,-31.31],[4.88,-31.31],[4.88,-31.44],[4.94,-31.44],[4.94,-31.62],[4.88,-31.62],[4.88,-31.81],[4.81,-31.81],[4.81,-32.12],[4.75,-32.12],[4.75,-32.19],[4.69,-32.19],[4.69,-32.25],[4.56,-32.25],[4.56,-32.31],[4.5,-32.31],[4.5,-32.38],[4.44,-32.38],[4.44,-32.94],[4.38,-32.94],[4.38,-33.06],[4.31,-33.06],[4.31,-33.19],[4.19,-33.19],[4.19,-33.25],[4.12,-33.25],[4.12,-33.19],[4.06,-33.19],[4.06,-33.06],[4.0,-33.06],[4.0,-32.94],[3.94,-32.94],[3.94,-32.81],[3.88,-32.81],[3.88,-32.75],[3.75,-32.75],[3.75,-32.81],[3.69,-32.81],[3.69,-32.88],[3.62,-32.88],[3.62,-33.19],[3.56,-33.19],[3.56,-33.25],[3.5,-33.25],[3.5,-33.31],[3.38,-33.31],[3.38,-33.38],[3.25,-33.38],[3.25,-33.44],[3.12,-33.44],[3.12,-33.5],[2.81,-33.5],[2.81,-33.44],[2.62,-33.44],[2.62,-33.0],[2.69,-33.0],[2.69,-32.5],[2.62,-32.5],[2.62,-31.5],[2.56,-31.5],[2.56,-31.31],[2.5,-31.31],[2.5,-31.19],[2.44,-31.19],[2.44,-30.94],[2.5,-30.94],[2.5,-30.88],[2.56,-30.88],[2.56,-30.81],[2.62,-30.81],[2.62,-30.75],[2.69,-30.75],[2.69,-30.38],[2.62,-30.38],[2.62,-30.12],[2.69,-30.12],[2.69,-30.06],[2.75,-30.06],[2.75,-30.0]],[[2.75,-31.06],[2.75,-31.12],[2.69,-31.12],[2.69,-31.75],[2.75,-31.75],[2.75,-32.25],[2.81,-32.25],[2.81,-32.44],[2.88,-32.44],[2.88,-32.56],[2.94,-32.56],[2.94,-32.69],[3.0,-32.69],[3.0,-32.75],[3.06,-32.75],[3.06,-32.69],[3.12,-32.69],[3.12,-32.5],[3.19,-32.5],[3.19,-32.38],[3.25,-32.38],[3.25,-32.25],[3.31,-32.25],[3.31,-32.06],[3.25,-32.06],[3.25,-31.56],[3.19,-31.56],[3.19,-31.38],[3.12,-31.38],[3.12,-31.31],[3.06,-31.31],[3.06,-31.25],[3.0,-31.25],[3.0,-31.19],[2.94,-31.19],[2.94,-31.12],[2.81,-31.12],[2.81,-31.06],[2.75,-31.06]]]}},{"type":"Feature","properties":{"val":108.24,"field":"tp"},"geometry":{"type":"Polygon","coordinates":[[[98.25,-34.19],[98.88,-34.19],[98.88,-34.25],[98.94,-34.25],[98.94,-34.31],[99.0,-34.31],[99.0,-34.62],[98.94,-34.62],[98.94,-34.75],[98.88,-34.75],[98.88,-35.06],[98.94,-35.06],[98.94,-35.12],[99.12,-35.12],[99.12,-35.06],[99.25,-35.06],[99.25,-36.12],[99.19,-36.12],[99.19,-36.0],[99.06,-36.0],[99.06,-36.06],[99.0,-36.06],[99.0,-36.12],[98.94,-36.12],[98.94,-36.19],[98.56,-36.19],[98.56,-36.12],[98.38,-36.12],[98.38,-36.06],[98.19,-36.06],[98.19,-36.0],[98.06,-36.0],[98.06,-36.06],[97.81,-36.06],[97.81,-36.12],[97.06,-36.12],[97.06,-36.06],[96.31,-36.06],[96.31,-36.12],[96.0,-36.12],[96.0,-36.19],[95.62,-36.19],[95.62,-36.12],[95.69,-36.12],[95.69,-36.06],[95.81,-36.06],[95.81,-36.0],[95.94,-36.0],[95.94,-35.94],[96.06,-35.94],[96.06,-35.88],[96.12,-35.88],[96.12,-35.81],[96.19,-35.81],[96.19,-35.75],[96.25,-35.75],[96.25,-35.69],[96.38,-35.69],[96.38,-35.62],[96.75,-35.62],[96.75,-35.56],[96.94,-35.56],[96.94,-35.5],[97.0,-35.5],[97.0,-35.31],[96.94,-35.31],[96.94,-35.25],[96.81,-35.25],[96.81,-35.19],[96.69,-35.19],[96.69,-35.0],[96.75,-35.0],[96.75,-34.94],[96.88,-34.94],[96.88,-34.88],[97.0,-34.88],[97.0,-34.81],[97.12,-34.81],[97.12,-34.75],[97.19,-34.75],[97.19,-34.62],[97.12,-34.62],[97.12,-34.38],[97.25,-34.38],[97.25,-34.31],[98.06,-34.31],[98.06,-34.25],[98.25,-34.25],[98.25,-34.19]],[[97.38,-35.19],[97.38,-35.25],[97.25,-35.25],[97.25,-35.38],[97.31,-35.38],[97.31,-35.44],[97.44,-35.44],[97.44,-35.5],[97.75,-35.5],[97.75,-35.44],[97.81,-35.44],[97.81,-35.31],[97.75,-35.31],[97.75,-35.25],[97.69,-35.25],[97.69,-35.19],[97.38,-35.19]]]}},{"type":"Feature","properties":{"val":108.24,"field":"tp"},"geometry":{"type":"Polygon","coordinates":[[[92.75,-38.25],[93.06,-38.25],[93.06,-38.5],[93.0,-38.5],[93.0,-38.56],[92.94,-38.56],[92.94,-38.62],[92.88,-38.62],[92.88,-38.69],[92.75,-38.69],[92.75,-38.75],[92.62,-38.75],[92.62,-38.81],[92.44,-38.81],[92.44,-38.88],[92.0,-38.88],[92.0,-38.81],[91.88,-38.81],[91.88,-38.75],[91.81,-38.75],[91.81,-38.62],[91.88,-38.62],[91.88,-38.56],[91.94,-38.56],[91.94,-38.5],[92.06,-38.5],[92.06,-38.44],[92.19,-38.44],[92.19,-38.38],[92.38,-38.38],[92.38,-38.31],[92.75,-38.31],[92.75,-38.25]]]}},{"type":"Feature","properties":{"val":108.24,"field":"tp"},"geometry":{"type":"Polygon","coordinates":[[[97.94,-39.12],[98.12,-39.12],[98.12,-39.19],[98.19,-39.19],[98.19,-39.31],[98.12,-39.31],[98.12,-39.38],[98.0,-39.38],[98.0,-39.31],[97.94,-39.31],[97.94,-39.25],[97.88,-39.25],[97.88,-39.19],[97.94,-39.19],[97.94,-39.12]]]}},{"type":"Feature","properties":{"val":108.24,"field":"tp"},"geometry":{"type":"Polygon","coordinates":[[[93.69,-38.88],[93.94,-38.88],[93.94,-38.94],[94.0,-38.94],[94.0,-39.0],[94.06,-39.0],[94.06,-39.06],[94.12,-39.06],[94.12,-39.12],[94.19,-39.12],[94.19,-39.25],[94.25,-39.25],[94.25,-39.31],[94.19,-39.31],[94.19,-39.44],[94.12,-39.44],[94.12,-39.5],[94.0,-39.5],[94.0,-39.56],[93.81,-39.56],[93.81,-39.62],[93.38,-39.62],[93.38,-39.69],[93.12,-39.69],[93.12,-39.62],[93.0,-39.62],[93.0,-39.56],[92.94,-39.56],[92.94,-39.44],[93.0,-39.44],[93.0,-39.38],[93.06,-39.38],[93.06,-39.31],[93.44,-39.31],[93.44,-39.25],[93.5,-39.25],[93.5,-39.12],[93.56,-39.12],[93.56,-39.06],[93.62,-39.06],[93.62,-38.94],[93.69,-38.94],[93.69,-38.88]]]}},{"type":"Feature","properties":{"val":108.24,"field":"tp"},"geometry":{"type":"Polygon","coordinates":[[[97.25,-39.56],[97.5,-39.56],[97.5,-39.62],[97.69,-39.62],[97.69,-39.69],[97.75,-39.69],[97.75,-39.88],[97.69,-39.88],[97.69,-39.94],[97.62,-39.94],[97.62,-40.0],[97.31,-40.0],[97.31,-39.94],[97.25,-39.94],[97.25,-39.81],[97.19,-39.81],[97.19,-39.62],[97.25,-39.62],[97.25,-39.56]]]}},{"type":"Feature","properties":{"val":108.24,"field":"tp"},"geometry":{"type":"Polygon","coordinates":[[[95.88,-39.12],[96.19,-39.12],[96.19,-39.19],[96.12,-39.19],[96.12,-39.25],[96.06,-39.25],[96.06,-39.31],[95.94,-39.31],[95.94,-39.38],[95.88,-39.38],[95.88,-39.56],[95.94,-39.56],[95.94,-39.62],[96.0,-39.62],[96.0,-39.69],[96.19,-39.69],[96.19,-39.62],[96.31,-39.62],[96.31,-39.56],[96.38,-39.56],[96.38,-39.5],[96.44,-39.5],[96.44,-39.44],[96.56,-39.44],[96.56,-39.38],[96.75,-39.38],[96.75,-39.44],[96.81,-39.44],[96.81,-39.5],[96.88,-39.5],[96.88,-39.62],[96.81,-39.62],[96.81,-39.69],[96.69,-39.69],[96.69,-39.75],[96.56,-39.75],[96.56,-39.81],[96.25,-39.81],[96.25,-39.75],[96.06,-39.75],[96.06,-39.81],[96.0,-39.81],[96.0,-39.88],[95.88,-39.88],[95.88,-39.94],[95.38,-39.94],[95.38,-39.88],[94.81,-39.88],[94.81,-39.81],[94.75,-39.81],[94.75,-39.69],[94.81,-39.69],[94.81,-39.62],[95.0,-39.62],[95.0,-39.56],[95.31,-39.56],[95.31,-39.5],[95.44,-39.5],[95.44,-39.44],[95.56,-39.44],[95.56,-39.38],[95.62,-39.38],[95.62,-39.31],[95.69,-39.31],[95.69,-39.25],[95.75,-39.25],[95.75,-39.19],[95.88,-39.19],[95.88,-39.12]]]}},{"type":"Feature","properties":{"val":108.24,"field":"tp"},"geometry":{"type":"Polygon","coordinates":[[[96.75,-37.62],[96.75,-38.5],[96.81,-38.5],[96.81,-38.56],[96.88,-38.56],[96.88,-38.69],[96.94,-38.69],[96.94,-38.75],[97.0,-38.75],[97.0,-38.88],[97.06,-38.88],[97.06,-38.94],[97.12,-38.94],[97.12,-39.0],[97.19,-39.0],[97.19,-39.06],[97.25,-39.06],[97.25,-39.12],[97.31,-39.12],[97.31,-39.19],[97.38,-39.19],[97.38,-39.25],[97.56,-39.25],[97.56,-39.19],[97.62,-39.19],[97.62,-38.88],[97.69,-38.88],[97.69,-38.81],[97.75,-38.81],[97.75,-38.75],[97.81,-38.75],[97.81,-38.69],[98.0,-38.69],[98.0,-38.62],[98.31,-38.62],[98.31,-38.69],[98.38,-38.69],[98.38,-38.75],[98.44,-38.75],[98.44,-38.88],[98.62,-38.88],[98.62,-38.81],[98.69,-38.81],[98.69,-38.75],[98.75,-38.75],[98.75,-38.69],[98.81,-38.69],[98.81,-39.12],[98.88,-39.12],[98.88,-39.19],[98.94,-39.19],[98.94,-39.25],[99.0,-39.25],[99.0,-39.31],[99.06,-39.31],[99.06,-39.44],[99.12,-39.44],[99.12,-39.62],[99.06,-39.62],[99.06,-39.69],[99.0,-39.69],[99.0,-39.62],[98.81,-39.62],[98.81,-39.69],[98.69,-39.69],[98.69,-39.75],[98.62,-39.75],[98.62,-39.81],[98.56,-39.81],[98.56,-39.88],[98.5,-39.88],[98.5,-39.94],[98.44,-39.94],[98.44,-40.0],[98.5,-40.0],[98.5,-40.06],[98.81,-40.06],[98.81,-40.0],[99.0,-40.0],[99.0,-39.94],[99.06,-39.94],[99.06,-39.88],[99.25,-39.88],[99.25,-38.06],[99.19,-38.06],[99.19,-38.12],[99.06,-38.12],[99.06,-38.19],[98.88,-38.19],[98.88,-38.25],[98.75,-38.25],[98.75,-38.19],[98.62,-38.19],[98.62,-38.12],[98.5,-38.12],[98.5,-38.06],[98.0,-38.06],[98.0,-38.0],[97.62,-38.0],[97.62,-37.94],[97.44,-37.94],[97.44,-37.88],[97.25,-37.88],[97.25,-37.81],[97.12,-37.81],[97.12,-37.75],[97.06,-37.75],[97.06,-37.69],[96.88,-37.69],[96.88,-37.62],[96.75,-37.62]]]}},{"type":"Feature","properties":{"val":108.24,"field":"tp"},"geometry":{"type":"Polygon","coordinates":[[[91.12,-40.0],[91.31,-40.0],[91.31,-40.06],[91.38,-40.06],[91.38,-40.12],[91.44,-40.12],[91.44,-40.25],[91.38,-40.25],[91.38,-40.38],[91.31,-40.38],[91.31,-40.44],[91.12,-40.44],[91.12,-40.38],[91.06,-40.38],[91.06,-40.12],[91.12,-40.12],[91.12,-40.0]]]}},{"type":"Feature","properties":{"val":108.24,"field":"tp"},"geometry":{"type":"Polygon","coordinates":[[[88.81,-40.19],[89.06,-40.19],[89.06,-40.25],[89.19,-40.25],[89.19,-40.31],[89.31,-40.31],[89.31,-40.38],[89.38,-40.38],[89.38,-40.44],[89.44,-40.44],[89.44,-40.5],[89.5,-40.5],[89.5,-40.56],[89.56,-40.56],[89.56,-40.62],[89.62,-40.62],[89.62,-40.69],[89.69,-40.69],[89.69,-40.88],[89.62,-40.88],[89.62,-40.94],[89.5,-40.94],[89.5,-41.0],[89.38,-41.0],[89.38,-40.94],[89.31,-40.94],[89.31,-40.88],[89.25,-40.88],[89.25,-40.81],[89.12,-40.81],[89.12,-40.75],[89.0,-40.75],[89.0,-40.69],[88.88,-40.69],[88.88,-40.56],[88.81,-40.56],[88.81,-40.38],[88.75,-40.38],[88.75,-40.25],[88.81,-40.25],[88.81,-40.19]]]}},{"type":"Feature","properties":{"val":108.24,"field":"tp"},"geometry":{"type":"Polygon","coordinates":[[[87.19,-40.31],[87.44,-40.31],[87.44,-40.38],[87.5,-40.38],[87.5,-40.56],[87.44,-40.56],[87.44,-40.62],[87.38,-40.62],[87.38,-40.69],[87.25,-40.69],[87.25,-40.75],[87.19,-40.75],[87.19,-40.69],[87.12,-40.69],[87.12,-40.56],[87.06,-40.56],[87.06,-40.5],[87.12,-40.5],[87.12,-40.38],[87.19,-40.38],[87.19,-40.31]]]}},{"type":"Feature","properties":{"val":108.24,"field":"tp"},"geometry":{"type":"Polygon","coordinates":[[[88.12,-40.25],[88.25,-40.25],[88.25,-40.31],[88.38,-40.31],[88.38,-40.44],[88.44,-40.44],[88.44,-40.69],[88.38,-40.69],[88.38,-40.75],[88.25,-40.75],[88.25,-40.69],[88.12,-40.69],[88.12,-40.62],[88.06,-40.62],[88.06,-40.56],[88.0,-40.56],[88.0,-40.31],[88.12,-40.31],[88.12,-40.25]]]}},{"type":"Feature","properties":{"val":169.63,"field":"tp"},"geometry":{"type":"Polygon","coordinates":[[[33.38,3.75],[33.38,3.69],[33.69,3.69],[33.69,3.75],[33.38,3.75]]]}},{"type":"Feature","properties":{"val":169.63,"field":"tp"},"geometry":{"type":"Polygon","coordinates":[[[39.81,3.5],[40.06,3.5],[40.06,3.12],[40.0,3.12],[40.0,3.06],[39.94,3.06],[39.94,3.0],[39.75,3.0],[39.75,3.12],[39.69,3.12],[39.69,3.38],[39.75,3.38],[39.75,3.44],[39.81,3.44],[39.81,3.5]]]}},{"type":"Feature","properties":{"val":169.63,"field":"tp"},"geometry":{"type":"Polygon","coordinates":[[[39.0,3.44],[39.12,3.44],[39.12,3.38],[39.25,3.38],[39.25,3.12],[39.19,3.12],[39.19,3.06],[39.12,3.06],[39.12,3.0],[38.75,3.0],[38.75,3.25],[38.81,3.25],[38.81,3.31],[38.88,3.31],[38.88,3.38],[39.0,3.38],[39.0,3.44]]]}},{"type":"Feature","properties":{"val":169.63,"field":"tp"},"geometry":{"type":"Polygon","coordinates":[[[20.19,2.62],[20.44,2.62],[20.44,2.56],[20.5,2.56],[20.5,2.5],[20.56,2.5],[20.56,2.38],[20.5,2.38],[20.5,2.25],[20.38,2.25],[20.38,2.19],[20.12,2.19],[20.12,2.25],[20.06,2.25],[20.06,2.5],[20.12,2.5],[20.12,2.56],[20.19,2.56],[20.19,2.62]]]}},{"type":"Feature","properties":{"val":169.63,"field":"tp"},"geometry":{"type":"Polygon","coordinates":[[[19.56,0.75],[19.69,0.75],[19.69,0.62],[19.5,0.62],[19.5,0.69],[19.56,0.69],[19.56,0.75]]]}},{"type":"Feature","properties":{"val":169.63,"field":"tp"},"geometry":{"type":"Polygon","coordinates":[[[14.88,-7.75],[15.19,-7.75],[15.19,-7.94],[15.12,-7.94],[15.12,-8.12],[15.06,-8.12],[15.06,-8.31],[15.0,-8.31],[15.0,-8.5],[14.94,-8.5],[14.94,-8.62],[14.88,-8.62],[14.88,-8.81],[14.81,-8.81],[14.81,-8.94],[14.75,-8.94],[14.75,-9.0],[14.62,-9.0],[14.62,-8.94],[14.56,-8.94],[14.56,-8.88],[14.5,-8.88],[14.5,-8.38],[14.56,-8.38],[14.56,-8.25],[14.62,-8.25],[14.62,-8.12],[14.69,-8.12],[14.69,-7.94],[14.75,-7.94],[14.75,-7.88],[14.81,-7.88],[14.81,-7.81],[14.88,-7.81],[14.88,-7.75]]]}},{"type":"Feature","properties":{"val":169.63,"field":"tp"},"geometry":{"type":"Polygon","coordinates":[[[14.75,-9.19],[14.75,-9.56],[14.88,-9.56],[14.88,-9.5],[14.94,-9.5],[14.94,-9.44],[15.0,-9.44],[15.0,-9.25],[14.94,-9.25],[14.94,-9.19],[14.75,-9.19]]]}},{"type":"Feature","properties":{"val":169.63,"field":"tp"},"geometry":{"type":"Polygon","coordinates":[[[12.62,-10.5],[12.81,-10.5],[12.81,-10.69],[12.75,-10.69],[12.75,-10.75],[12.69,-10.75],[12.69,-10.81],[12.62,-10.81],[12.62,-10.88],[12.38,-10.88],[12.38,-10.75],[12.44,-10.75],[12.44,-10.69],[12.5,-10.69],[12.5,-10.56],[12.62,-10.56],[12.62,-10.5]]]}},{"type":"Feature","properties":{"val":169.63,"field":"tp"},"geometry":{"type":"Polygon","coordinates":[[[8.0,-8.75],[8.12,-8.75],[8.12,-8.81],[8.19,-8.81],[8.19,-8.88],[8.25,-8.88],[8.25,-8.94],[8.31,-8.94],[8.31,-9.06],[8.38,-9.06],[8.38,-9.12],[8.44,-9.12],[8.44,-9.38],[8.5,-9.38],[8.5,-9.5],[8.56,-9.5],[8.56,-9.56],[8.62,-9.56],[8.62,-9.62],[8.81,-9.62],[8.81,-9.69],[9.12,-9.69],[9.12,-9.75],[9.19,-9.75],[9.19,-9.81],[9.38,-9.81],[9.38,-9.5],[9.44,-9.5],[9.44,-9.44],[9.56,-9.44],[9.56,-9.38],[9.94,-9.38],[9.94,-9.44],[10.0,-9.44],[10.0,-9.5],[10.06,-9.5],[10.06,-9.56],[10.31,-9.56],[10.31,-9.5],[10.38,-9.5],[10.38,-9.44],[10.44,-9.44],[10.44,-9.31],[10.56,-9.31],[10.56,-9.19],[10.62,-9.19],[10.62,-8.94],[10.69,-8.94],[10.69,-8.81],[10.75,-8.81],[10.75,-8.75],[10.81,-8.75],[10.81,-8.81],[10.94,-8.81],[10.94,-8.94],[11.0,-8.94],[11.0,-9.19],[11.06,-9.19],[11.06,-9.25],[11.19,-9.25],[11.19,-9.5],[11.12,-9.5],[11.12,-9.56],[11.06,-9.56],[11.06,-9.62],[10.94,-9.62],[10.94,-9.56],[10.88,-9.56],[10.88,-9.44],[10.75,-9.44],[10.75,-9.38],[10.69,-9.38],[10.69,-9.44],[10.62,-9.44],[10.62,-9.62],[10.69,-9.62],[10.69,-9.69],[10.75,-9.69],[10.75,-9.81],[10.81,-9.81],[10.81,-9.94],[10.75,-9.94],[10.75,-10.12],[10.81,-10.12],[10.81,-10.25],[10.88,-10.25],[10.88,-10.75],[10.81,-10.75],[10.81,-10.94],[10.75,-10.94],[10.75,-11.0],[10.62,-11.0],[10.62,-11.06],[10.5,-11.06],[10.5,-11.0],[10.38,-11.0],[10.38,-10.94],[10.12,-10.94],[10.12,-11.0],[10.0,-11.0],[10.0,-11.06],[9.94,-11.06],[9.94,-11.12],[9.75,-11.12],[9.75,-11.06],[9.62,-11.06],[9.62,-11.0],[9.56,-11.0],[9.56,-10.94],[9.5,-10.94],[9.5,-10.88],[9.25,-10.88],[9.25,-10.94],[9.19,-10.94],[9.19,-11.0],[9.12,-11.0],[9.12,-11.62],[9.06,-11.62],[9.06,-11.69],[8.62,-11.69],[8.62,-11.75],[8.56,-11.75],[8.56,-11.81],[8.5,-11.81],[8.5,-12.12],[8.44,-12.12],[8.44,-12.25],[8.31,-12.25],[8.31,-12.31],[8.19,-12.31],[8.19,-12.38],[8.0,-12.38],[8.0,-12.44],[7.81,-12.44],[7.81,-12.38],[7.69,-12.38],[7.69,-12.31],[7.62,-12.31],[7.62,-12.25],[7.56,-12.25],[7.56,-12.19],[7.5,-12.19],[7.5,-12.12],[7.38,-12.12],[7.38,-12.06],[7.31,-12.06],[7.31,-12.0],[7.25,-12.0],[7.25,-11.94],[7.19,-11.94],[7.19,-11.88],[7.12,-11.88],[7.12,-11.81],[7.06,-11.81],[7.06,-11.75],[7.0,-11.75],[7.0,-11.62],[6.94,-11.62],[6.94,-11.56],[6.88,-11.56],[6.88,-11.5],[6.81,-11.5],[6.81,-11.44],[6.75,-11.44],[6.75,-11.38],[6.69,-11.38],[6.69,-11.19],[6.62,-11.19],[6.62,-11.0],[6.5,-11.0],[6.5,-10.94],[6.44,-10.94],[6.44,-10.88],[6.38,-10.88],[6.38,-10.81],[6.31,-10.81],[6.31,-10.75],[6.25,-10.75],[6.25,-10.62],[6.19,-10.62],[6.19,-10.5],[6.25,-10.5],[6.25,-10.38],[6.38,-10.38],[6.38,-10.31],[6.5,-10.31],[6.5,-10.25],[6.62,-10.25],[6.62,-10.06],[6.75,-10.06],[6.75,-10.0],[6.88,-10.0],[6.88,-9.94],[6.94,-9.94],[6.94,-9.88],[7.0,-9.88],[7.0,-9.81],[7.06,-9.81],[7.06,-9.75],[7.12,-9.75],[7.12,-9.62],[7.19,-9.62],[7.19,-9.5],[7.25,-9.5],[7.25,-9.31],[7.31,-9.31],[7.31,-9.25],[7.38,-9.25],[7.38,-9.12],[7.44,-9.12],[7.44,-9.06],[7.5,-9.06],[7.5,-9.0],[7.56,-9.0],[7.56,-8.94],[7.69,-8.94],[7.69,-8.88],[7.88,-8.88],[7.88,-8.81],[8.0,-8.81],[8.0,-8.75]],[[7.75,-9.06],[7.75,-9.12],[7.62,-9.12],[7.62,-9.19],[7.56,-9.19],[7.56,-9.25],[7.5,-9.25],[7.5,-9.38],[7.44,-9.38],[7.44,-9.44],[7.5,-9.44],[7.5,-9.56],[7.56,-9.56],[7.56,-9.62],[7.62,-9.62],[7.62,-9.69],[7.69,-9.69],[7.69,-9.75],[7.44,-9.75],[7.44,-9.81],[7.31,-9.81],[7.31,-9.88],[7.19,-9.88],[7.19,-9.94],[7.12,-9.94],[7.12,-10.06],[7.06,-10.06],[7.06,-10.25],[7.0,-10.25],[7.0,-10.31],[6.94,-10.31],[6.94,-10.38],[6.44,-10.38],[6.44,-10.44],[6.38,-10.44],[6.38,-10.5],[6.31,-10.5],[6.31,-10.69],[6.38,-10.69],[6.38,-10.75],[6.44,-10.75],[6.44,-10.81],[6.5,-10.81],[6.5,-10.88],[6.69,-10.88],[6.69,-10.94],[6.75,-10.94],[6.75,-11.25],[6.81,-11.25],[6.81,-11.31],[6.88,-11.31],[6.88,-11.38],[6.94,-11.38],[6.94,-11.44],[7.0,-11.44],[7.0,-11.5],[7.06,-11.5],[7.06,-11.62],[7.12,-11.62],[7.12,-11.69],[7.19,-11.69],[7.19,-11.81],[7.25,-11.81],[7.25,-11.88],[7.31,-11.88],[7.31,-11.94],[7.38,-11.94],[7.38,-12.0],[7.5,-12.0],[7.5,-12.06],[7.62,-12.06],[7.62,-12.12],[7.75,-12.12],[7.75,-12.19],[7.88,-12.19],[7.88,-12.25],[8.12,-12.25],[8.12,-12.19],[8.25,-12.19],[8.25,-12.12],[8.31,-12.12],[8.31,-11.69],[8.25,-11.69],[8.25,-11.56],[8.19,-11.56],[8.19,-11.44],[8.25,-11.44],[8.25,-11.12],[8.19,-11.12],[8.19,-10.88],[8.25,-10.88],[8.25,-10.56],[8.31,-10.56],[8.31,-10.5],[9.0,-10.5],[9.0,-10.44],[9.12,-10.44],[9.12,-10.38],[9.19,-10.38],[9.19,-10.25],[9.12,-10.25],[9.12,-10.19],[9.0,-10.19],[9.0,-10.25],[8.94,-10.25],[8.94,-10.19],[8.81,-10.19],[8.81,-10.06],[8.75,-10.06],[8.75,-9.94],[8.62,-9.94],[8.62,-9.88],[8.5,-9.88],[8.5,-9.81],[8.44,-9.81],[8.44,-9.56],[8.38,-9.56],[8.38,-9.44],[8.31,-9.44],[8.31,-9.38],[8.19,-9.38],[8.19,-9.31],[8.0,-9.31],[8.0,-9.25],[7.94,-9.25],[7.94,-9.12],[7.88,-9.12],[7.88,-9.06],[7.75,-9.06]]]}},{"type":"Feature","properties":{"val":169.63,"field":"tp"},"geometry":{"type":"Polygon","coordinates":[[[64.62,-21.75],[64.62,-21.81],[64.69,-21.81],[64.69,-21.88],[64.88,-21.88],[64.88,-21.81],[64.75,-21.81],[64.75,-21.75],[64.62,-21.75]]]}},{"type":"Feature","properties":{"val":169.63,"field":"tp"},"geometry":{"type":"Polygon","coordinates":[[[3.56,-31.31],[3.56,-31.5],[3.69,-31.5],[3.69,-31.31],[3.56,-31.31]]]}},{"type":"Feature","properties":{"val":169.63,"field":"tp"},"geometry":{"type":"Polygon","coordinates":[[[2.75,-31.06],[2.81,-31.06],[2.81,-31.12],[2.94,-31.12],[2.94,-31.19],[3.0,-31.19],[3.0,-31.25],[3.06,-31.25],[3.06,-31.31],[3.12,-31.31],[3.12,-31.38],[3.19,-31.38],[3.19,-31.56],[3.25,-31.56],[3.25,-32.06],[3.31,-32.06],[3.31,-32.25],[3.25,-32.25],[3.25,-32.38],[3.19,-32.38],[3.19,-32.5],[3.12,-32.5],[3.12,-32.69],[3.06,-32.69],[3.06,-32.75],[3.0,-32.75],[3.0,-32.69],[2.94,-32.69],[2.94,-32.56],[2.88,-32.56],[2.88,-32.44],[2.81,-32.44],[2.81,-32.25],[2.75,-32.25],[2.75,-31.75],[2.69,-31.75],[2.69,-31.12],[2.75,-31.12],[2.75,-31.06]],[[2.81,-31.31],[2.81,-31.44],[2.75,-31.44],[2.75,-31.5],[2.81,-31.5],[2.81,-31.94],[2.88,-31.94],[2.88,-32.06],[3.06,-32.06],[3.06,-32.0],[3.12,-32.0],[3.12,-31.81],[3.19,-31.81],[3.19,-31.69],[3.12,-31.69],[3.12,-31.5],[3.06,-31.5],[3.06,-31.44],[3.0,-31.44],[3.0,-31.38],[2.94,-31.38],[2.94,-31.31],[2.81,-31.31]]]}},{"type":"Feature","properties":{"val":231.01,"field":"tp"},"geometry":{"type":"Polygon","coordinates":[[[9.56,-9.56],[9.56,-9.88],[9.62,-9.88],[9.62,-9.94],[9.75,-9.94],[9.75,-10.0],[9.94,-10.0],[9.94,-10.06],[10.0,-10.06],[10.0,-10.12],[10.19,-10.12],[10.19,-9.94],[10.12,-9.94],[10.12,-9.88],[10.06,-9.88],[10.06,-9.75],[10.0,-9.75],[10.0,-9.69],[9.94,-9.69],[9.94,-9.62],[9.88,-9.62],[9.88,-9.56],[9.56,-9.56]]]}},{"type":"Feature","properties":{"val":231.01,"field":"tp"},"geometry":{"type":"Polygon","coordinates":[[[7.75,-9.06],[7.88,-9.06],[7.88,-9.12],[7.94,-9.12],[7.94,-9.25],[8.0,-9.25],[8.0,-9.31],[8.19,-9.31],[8.19,-9.38],[8.31,-9.38],[8.31,-9.44],[8.38,-9.44],[8.38,-9.56],[8.44,-9.56],[8.44,-9.81],[8.5,-9.81],[8.5,-9.88],[8.62,-9.88],[8.62,-9.94],[8.75,-9.94],[8.75,-10.06],[8.81,-10.06],[8.81,-10.19],[8.94,-10.19],[8.94,-10.25],[9.0,-10.25],[9.0,-10.19],[9.12,-10.19],[9.12,-10.25],[9.19,-10.25],[9.19,-10.38],[9.12,-10.38],[9.12,-10.44],[9.0,-10.44],[9.0,-10.5],[8.31,-10.5],[8.31,-10.56],[8.25,-10.56],[8.25,-10.88],[8.19,-10.88],[8.19,-11.12],[8.25,-11.12],[8.25,-11.44],[8.19,-11.44],[8.19,-11.56],[8.25,-11.56],[8.25,-11.69],[8.31,-11.69],[8.31,-12.12],[8.25,-12.12],[8.25,-12.19],[8.12,-12.19],[8.12,-12.25],[7.88,-12.25],[7.88,-12.19],[7.75,-12.19],[7.75,-12.12],[7.62,-12.12],[7.62,-12.06],[7.5,-12.06],[7.5,-12.0],[7.38,-12.0],[7.38,-11.94],[7.31,-11.94],[7.31,-11.88],[7.25,-11.88],[7.25,-11.81],[7.19,-11.81],[7.19,-11.69],[7.12,-11.69],[7.12,-11.62],[7.06,-11.62],[7.06,-11.5],[7.0,-11.5],[7.0,-11.44],[6.94,-11.44],[6.94,-11.38],[6.88,-11.38],[6.88,-11.31],[6.81,-11.31],[6.81,-11.25],[6.75,-11.25],[6.75,-10.94],[6.69,-10.94],[6.69,-10.88],[6.5,-10.88],[6.5,-10.81],[6.44,-10.81],[6.44,-10.75],[6.38,-10.75],[6.38,-10.69],[6.31,-10.69],[6.31,-10.5],[6.38,-10.5],[6.38,-10.44],[6.44,-10.44],[6.44,-10.38],[6.94,-10.38],[6.94,-10.31],[7.0,-10.31],[7.0,-10.25],[7.06,-10.25],[7.06,-10.06],[7.12,-10.06],[7.12,-9.94],[7.19,-9.94],[7.19,-9.88],[7.31,-9.88],[7.31,-9.81],[7.44,-9.81],[7.44,-9.75],[7.69,-9.75],[7.69,-9.69],[7.62,-9.69],[7.62,-9.62],[7.56,-9.62],[7.56,-9.56],[7.5,-9.56],[7.5,-9.44],[7.44,-9.44],[7.44,-9.38],[7.5,-9.38],[7.5,-9.25],[7.56,-9.25],[7.56,-9.19],[7.62,-9.19],[7.62,-9.12],[7.75,-9.12],[7.75,-9.06]],[[7.75,-9.44],[7.75,-9.62],[7.81,-9.62],[7.81,-9.75],[7.75,-9.75],[7.75,-9.81],[7.5,-9.81],[7.5,-9.88],[7.31,-9.88],[7.31,-9.94],[7.25,-9.94],[7.25,-10.0],[7.19,-10.0],[7.19,-10.12],[7.12,-10.12],[7.12,-10.31],[7.06,-10.31],[7.06,-10.38],[7.0,-10.38],[7.0,-10.44],[6.5,-10.44],[6.5,-10.5],[6.44,-10.5],[6.44,-10.56],[6.38,-10.56],[6.38,-10.69],[6.44,-10.69],[6.44,-10.75],[6.56,-10.75],[6.56,-10.81],[6.81,-10.81],[6.81,-10.88],[6.88,-10.88],[6.88,-11.25],[6.94,-11.25],[6.94,-11.31],[7.0,-11.31],[7.0,-11.38],[7.06,-11.38],[7.06,-11.44],[7.12,-11.44],[7.12,-11.5],[7.19,-11.5],[7.19,-11.62],[7.25,-11.62],[7.25,-11.69],[7.31,-11.69],[7.31,-11.75],[7.38,-11.75],[7.38,-11.88],[7.5,-11.88],[7.5,-11.94],[7.56,-11.94],[7.56,-12.0],[7.81,-12.0],[7.81,-12.06],[8.19,-12.06],[8.19,-11.88],[8.12,-11.88],[8.12,-11.75],[8.06,-11.75],[8.06,-11.69],[8.0,-11.69],[8.0,-11.5],[8.06,-11.5],[8.06,-11.38],[8.12,-11.38],[8.12,-11.25],[8.06,-11.25],[8.06,-10.88],[8.12,-10.88],[8.12,-10.44],[8.19,-10.44],[8.19,-10.38],[8.25,-10.38],[8.25,-10.31],[8.31,-10.31],[8.31,-9.94],[8.38,-9.94],[8.38,-9.75],[8.31,-9.75],[8.31,-9.5],[8.25,-9.5],[8.25,-9.44],[7.75,-9.44]]]}},{"type":"Feature","properties":{"val":231.01,"field":"tp"},"geometry":{"type":"Polygon","coordinates":[[[2.81,-31.31],[2.94,-31.31],[2.94,-31.38],[3.0,-31.38],[3.0,-31.44],[3.06,-31.44],[3.06,-31.5],[3.12,-31.5],[3.12,-31.69],[3.19,-31.69],[3.19,-31.81],[3.12,-31.81],[3.12,-32.0],[3.06,-32.0],[3.06,-32.06],[2.88,-32.06],[2.88,-31.94],[2.81,-31.94],[2.81,-31.5],[2.75,-31.5],[2.75,-31.44],[2.81,-31.44],[2.81,-31.31]]]}},{"type":"Feature","properties":{"val":292.4,"field":"tp"},"geometry":{"type":"Polygon","coordinates":[[[7.75,-9.44],[8.25,-9.44],[8.25,-9.5],[8.31,-9.5],[8.31,-9.69],[8.25,-9.69],[8.25,-9.56],[8.19,-9.56],[8.19,-9.5],[7.88,-9.5],[7.88,-9.75],[7.81,-9.75],[7.81,-9.81],[7.75,-9.81],[7.75,-9.75],[7.81,-9.75],[7.81,-9.62],[7.75,-9.62],[7.75,-9.44]]]}},{"type":"Feature","properties":{"val":292.4,"field":"tp"},"geometry":{"type":"Polygon","coordinates":[[[8.31,-9.75],[8.31,-9.94],[8.38,-9.94],[8.38,-9.75],[8.31,-9.75]]]}},{"type":"Feature","properties":{"val":292.4,"field":"tp"},"geometry":{"type":"Polygon","coordinates":[[[7.5,-9.81],[7.5,-9.88],[7.69,-9.88],[7.69,-9.81],[7.5,-9.81]]]}},{"type":"Feature","properties":{"val":292.4,"field":"tp"},"geometry":{"type":"Polygon","coordinates":[[[7.31,-9.88],[7.44,-9.88],[7.44,-9.94],[7.31,-9.94],[7.31,-10.0],[7.25,-10.0],[7.25,-10.12],[7.19,-10.12],[7.19,-10.25],[7.12,-10.25],[7.12,-10.12],[7.19,-10.12],[7.19,-10.0],[7.25,-10.0],[7.25,-9.94],[7.31,-9.94],[7.31,-9.88]]]}},{"type":"Feature","properties":{"val":292.4,"field":"tp"},"geometry":{"type":"Polygon","coordinates":[[[8.25,-10.0],[8.31,-10.0],[8.31,-10.31],[8.25,-10.31],[8.25,-10.38],[8.19,-10.38],[8.19,-10.44],[8.12,-10.44],[8.12,-10.88],[8.06,-10.88],[8.06,-11.25],[8.12,-11.25],[8.12,-11.38],[8.06,-11.38],[8.06,-11.5],[8.0,-11.5],[8.0,-11.69],[8.06,-11.69],[8.06,-11.75],[8.12,-11.75],[8.12,-11.88],[8.19,-11.88],[8.19,-12.06],[7.81,-12.06],[7.81,-12.0],[7.56,-12.0],[7.56,-11.94],[7.5,-11.94],[7.5,-11.88],[7.38,-11.88],[7.38,-11.75],[7.31,-11.75],[7.31,-11.69],[7.25,-11.69],[7.25,-11.62],[7.19,-11.62],[7.19,-11.5],[7.12,-11.5],[7.12,-11.44],[7.06,-11.44],[7.06,-11.38],[7.0,-11.38],[7.0,-11.31],[6.94,-11.31],[6.94,-11.25],[6.88,-11.25],[6.88,-10.88],[6.81,-10.88],[6.81,-10.81],[6.56,-10.81],[6.56,-10.75],[6.44,-10.75],[6.44,-10.69],[6.38,-10.69],[6.38,-10.56],[6.44,-10.56],[6.44,-10.5],[6.5,-10.5],[6.5,-10.44],[7.0,-10.44],[7.0,-10.38],[7.06,-10.38],[7.06,-10.31],[7.12,-10.31],[7.12,-10.38],[7.06,-10.38],[7.06,-10.44],[7.0,-10.44],[7.0,-10.5],[6.94,-10.5],[6.94,-10.56],[6.75,-10.56],[6.75,-10.5],[6.56,-10.5],[6.56,-10.56],[6.5,-10.56],[6.5,-10.69],[6.88,-10.69],[6.88,-10.75],[6.94,-10.75],[6.94,-11.19],[7.0,-11.19],[7.0,-11.25],[7.06,-11.25],[7.06,-11.31],[7.19,-11.31],[7.19,-11.38],[7.25,-11.38],[7.25,-11.44],[7.31,-11.44],[7.31,-11.56],[7.38,-11.56],[7.38,-11.69],[7.44,-11.69],[7.44,-11.75],[7.5,-11.75],[7.5,-11.81],[7.56,-11.81],[7.56,-11.88],[7.81,-11.88],[7.81,-11.81],[7.88,-11.81],[7.88,-11.5],[7.94,-11.5],[7.94,-11.38],[8.0,-11.38],[8.0,-11.19],[7.94,-11.19],[7.94,-11.0],[8.0,-11.0],[8.0,-10.69],[8.06,-10.69],[8.06,-10.38],[8.12,-10.38],[8.12,-10.31],[8.19,-10.31],[8.19,-10.19],[8.25,-10.19],[8.25,-10.0]]]}},{"type":"Feature","properties":{"val":353.79,"field":"tp"},"geometry":{"type":"Polygon","coordinates":[[[7.88,-9.5],[7.88,-9.69],[7.94,-9.69],[7.94,-9.56],[8.19,-9.56],[8.19,-9.62],[8.25,-9.62],[8.25,-9.56],[8.19,-9.56],[8.19,-9.5],[7.88,-9.5]]]}},{"type":"Feature","properties":{"val":353.79,"field":"tp"},"geometry":{"type":"Polygon","coordinates":[[[8.25,-9.69],[8.25,-10.0],[8.31,-10.0],[8.31,-9.69],[8.25,-9.69]]]}},{"type":"Feature","properties":{"val":353.79,"field":"tp"},"geometry":{"type":"Polygon","coordinates":[[[7.81,-9.75],[7.88,-9.75],[7.88,-9.81],[7.81,-9.81],[7.81,-9.88],[7.69,-9.88],[7.69,-9.81],[7.81,-9.81],[7.81,-9.75]]]}},{"type":"Feature","properties":{"val":353.79,"field":"tp"},"geometry":{"type":"Polygon","coordinates":[[[7.44,-9.88],[7.44,-9.94],[7.5,-9.94],[7.5,-9.88],[7.44,-9.88]]]}},{"type":"Feature","properties":{"val":353.79,"field":"tp"},"geometry":{"type":"Polygon","coordinates":[[[7.31,-9.94],[7.38,-9.94],[7.38,-10.0],[7.31,-10.0],[7.31,-10.06],[7.25,-10.06],[7.25,-10.0],[7.31,-10.0],[7.31,-9.94]]]}},{"type":"Feature","properties":{"val":353.79,"field":"tp"},"geometry":{"type":"Polygon","coordinates":[[[7.19,-10.12],[7.19,-10.19],[7.25,-10.19],[7.25,-10.12],[7.19,-10.12]]]}},{"type":"Feature","properties":{"val":353.79,"field":"tp"},"geometry":{"type":"Polygon","coordinates":[[[8.19,-10.12],[8.25,-10.12],[8.25,-10.19],[8.19,-10.19],[8.19,-10.31],[8.12,-10.31],[8.12,-10.38],[8.06,-10.38],[8.06,-10.69],[8.0,-10.69],[8.0,-11.0],[7.94,-11.0],[7.94,-11.19],[8.0,-11.19],[8.0,-11.38],[7.94,-11.38],[7.94,-11.5],[7.88,-11.5],[7.88,-11.81],[7.81,-11.81],[7.81,-11.88],[7.56,-11.88],[7.56,-11.81],[7.5,-11.81],[7.5,-11.75],[7.44,-11.75],[7.44,-11.69],[7.38,-11.69],[7.38,-11.56],[7.31,-11.56],[7.31,-11.44],[7.25,-11.44],[7.25,-11.38],[7.19,-11.38],[7.19,-11.31],[7.06,-11.31],[7.06,-11.25],[7.0,-11.25],[7.0,-11.19],[6.94,-11.19],[6.94,-10.75],[6.88,-10.75],[6.88,-10.69],[6.5,-10.69],[6.5,-10.56],[6.56,-10.56],[6.56,-10.5],[6.75,-10.5],[6.75,-10.56],[6.94,-10.56],[6.94,-10.5],[7.0,-10.5],[7.0,-10.44],[7.06,-10.44],[7.06,-10.38],[7.12,-10.38],[7.12,-10.25],[7.19,-10.25],[7.19,-10.38],[7.12,-10.38],[7.12,-10.44],[7.06,-10.44],[7.06,-10.56],[7.0,-10.56],[7.0,-11.12],[7.06,-11.12],[7.06,-11.19],[7.12,-11.19],[7.12,-11.25],[7.25,-11.25],[7.25,-11.31],[7.38,-11.31],[7.38,-11.38],[7.44,-11.38],[7.44,-11.5],[7.5,-11.5],[7.5,-11.56],[7.75,-11.56],[7.75,-11.5],[7.81,-11.5],[7.81,-11.38],[7.88,-11.38],[7.88,-11.0],[7.94,-11.0],[7.94,-10.5],[8.0,-10.5],[8.0,-10.38],[8.06,-10.38],[8.06,-10.31],[8.12,-10.31],[8.12,-10.19],[8.19,-10.19],[8.19,-10.12]]]}},{"type":"Feature","properties":{"val":415.18,"field":"tp"},"geometry":{"type":"Polygon","coordinates":[[[7.94,-9.56],[8.19,-9.56],[8.19,-9.62],[8.25,-9.62],[8.25,-9.81],[8.19,-9.81],[8.19,-9.62],[8.0,-9.62],[8.0,-9.69],[7.94,-9.69],[7.94,-9.81],[7.88,-9.81],[7.88,-9.69],[7.94,-9.69],[7.94,-9.56]]]}},{"type":"Feature","properties":{"val":415.18,"field":"tp"},"geometry":{"type":"Polygon","coordinates":[[[7.5,-9.88],[7.5,-9.94],[7.62,-9.94],[7.62,-9.88],[7.5,-9.88]]]}},{"type":"Feature","properties":{"val":415.18,"field":"tp"},"geometry":{"type":"Polygon","coordinates":[[[8.19,-9.88],[8.25,-9.88],[8.25,-10.12],[8.19,-10.12],[8.19,-10.19],[8.12,-10.19],[8.12,-10.12],[8.19,-10.12],[8.19,-9.88]]]}},{"type":"Feature","properties":{"val":415.18,"field":"tp"},"geometry":{"type":"Polygon","coordinates":[[[7.38,-9.94],[7.44,-9.94],[7.44,-10.0],[7.38,-10.0],[7.38,-10.06],[7.31,-10.06],[7.31,-10.12],[7.25,-10.12],[7.25,-10.06],[7.31,-10.06],[7.31,-10.0],[7.38,-10.0],[7.38,-9.94]]]}},{"type":"Feature","properties":{"val":415.18,"field":"tp"},"geometry":{"type":"Polygon","coordinates":[[[7.19,-10.19],[7.19,-10.31],[7.25,-10.31],[7.25,-10.19],[7.19,-10.19]]]}},{"type":"Feature","properties":{"val":415.18,"field":"tp"},"geometry":{"type":"Polygon","coordinates":[[[8.06,-10.25],[8.12,-10.25],[8.12,-10.31],[8.06,-10.31],[8.06,-10.38],[8.0,-10.38],[8.0,-10.31],[8.06,-10.31],[8.06,-10.25]]]}},{"type":"Feature","properties":{"val":415.18,"field":"tp"},"geometry":{"type":"Polygon","coordinates":[[[7.06,-10.44],[7.06,-10.5],[7.12,-10.5],[7.12,-10.44],[7.06,-10.44]]]}},{"type":"Feature","properties":{"val":415.18,"field":"tp"},"geometry":{"type":"Polygon","coordinates":[[[7.94,-10.44],[7.94,-10.5],[8.0,-10.5],[8.0,-10.44],[7.94,-10.44]]]}},{"type":"Feature","properties":{"val":415.18,"field":"tp"},"geometry":{"type":"Polygon","coordinates":[[[7.0,-10.56],[7.0,-11.12],[7.06,-11.12],[7.06,-11.19],[7.12,-11.19],[7.12,-11.25],[7.25,-11.25],[7.25,-11.31],[7.38,-11.31],[7.38,-11.38],[7.44,-11.38],[7.44,-11.5],[7.5,-11.5],[7.5,-11.56],[7.75,-11.56],[7.75,-11.5],[7.81,-11.5],[7.81,-11.38],[7.88,-11.38],[7.88,-11.0],[7.94,-11.0],[7.94,-10.56],[7.88,-10.56],[7.88,-10.94],[7.81,-10.94],[7.81,-11.12],[7.75,-11.12],[7.75,-11.38],[7.5,-11.38],[7.5,-11.31],[7.38,-11.31],[7.38,-11.25],[7.25,-11.25],[7.25,-11.19],[7.12,-11.19],[7.12,-11.12],[7.06,-11.12],[7.06,-10.56],[7.0,-10.56]]]}},{"type":"Feature","properties":{"val":476.57,"field":"tp"},"geometry":{"type":"Polygon","coordinates":[[[8.0,-9.62],[8.19,-9.62],[8.19,-9.75],[8.12,-9.75],[8.12,-9.69],[8.0,-9.69],[8.0,-9.75],[7.94,-9.75],[7.94,-9.69],[8.0,-9.69],[8.0,-9.62]]]}},{"type":"Feature","properties":{"val":476.57,"field":"tp"},"geometry":{"type":"Polygon","coordinates":[[[7.81,-9.81],[7.81,-9.88],[7.88,-9.88],[7.88,-9.81],[7.81,-9.81]]]}},{"type":"Feature","properties":{"val":476.57,"field":"tp"},"geometry":{"type":"Polygon","coordinates":[[[8.19,-9.81],[8.19,-9.88],[8.25,-9.88],[8.25,-9.81],[8.19,-9.81]]]}},{"type":"Feature","properties":{"val":476.57,"field":"tp"},"geometry":{"type":"Polygon","coordinates":[[[7.62,-9.88],[7.62,-9.94],[7.69,-9.94],[7.69,-9.88],[7.62,-9.88]]]}},{"type":"Feature","properties":{"val":476.57,"field":"tp"},"geometry":{"type":"Polygon","coordinates":[[[7.44,-9.94],[7.44,-10.0],[7.5,-10.0],[7.5,-9.94],[7.44,-9.94]]]}},{"type":"Feature","properties":{"val":476.57,"field":"tp"},"geometry":{"type":"Polygon","coordinates":[[[8.12,-10.06],[8.12,-10.12],[8.19,-10.12],[8.19,-10.06],[8.12,-10.06]]]}},{"type":"Feature","properties":{"val":476.57,"field":"tp"},"geometry":{"type":"Polygon","coordinates":[[[7.25,-10.12],[7.25,-10.19],[7.31,-10.19],[7.31,-10.12],[7.25,-10.12]]]}},{"type":"Feature","properties":{"val":476.57,"field":"tp"},"geometry":{"type":"Polygon","coordinates":[[[8.06,-10.19],[8.12,-10.19],[8.12,-10.25],[8.06,-10.25],[8.06,-10.31],[8.0,-10.31],[8.0,-10.25],[8.06,-10.25],[8.06,-10.19]]]}},{"type":"Feature","properties":{"val":476.57,"field":"tp"},"geometry":{"type":"Polygon","coordinates":[[[7.19,-10.31],[7.25,-10.31],[7.25,-10.38],[7.19,-10.38],[7.19,-10.44],[7.12,-10.44],[7.12,-10.38],[7.19,-10.38],[7.19,-10.31]]]}},{"type":"Feature","properties":{"val":476.57,"field":"tp"},"geometry":{"type":"Polygon","coordinates":[[[7.94,-10.38],[7.94,-10.44],[8.0,-10.44],[8.0,-10.38],[7.94,-10.38]]]}},{"type":"Feature","properties":{"val":476.57,"field":"tp"},"geometry":{"type":"Polygon","coordinates":[[[7.06,-10.5],[7.06,-10.56],[7.12,-10.56],[7.12,-10.5],[7.06,-10.5]]]}},{"type":"Feature","properties":{"val":476.57,"field":"tp"},"geometry":{"type":"Polygon","coordinates":[[[7.88,-10.5],[7.88,-10.56],[7.94,-10.56],[7.94,-10.5],[7.88,-10.5]]]}},{"type":"Feature","properties":{"val":476.57,"field":"tp"},"geometry":{"type":"Polygon","coordinates":[[[7.81,-10.81],[7.88,-10.81],[7.88,-10.94],[7.81,-10.94],[7.81,-11.12],[7.75,-11.12],[7.75,-11.38],[7.5,-11.38],[7.5,-11.31],[7.38,-11.31],[7.38,-11.25],[7.25,-11.25],[7.25,-11.19],[7.12,-11.19],[7.12,-11.12],[7.06,-11.12],[7.06,-11.0],[7.12,-11.0],[7.12,-11.12],[7.25,-11.12],[7.25,-11.19],[7.44,-11.19],[7.44,-11.25],[7.62,-11.25],[7.62,-11.19],[7.69,-11.19],[7.69,-11.06],[7.75,-11.06],[7.75,-10.94],[7.81,-10.94],[7.81,-10.81]]]}},{"type":"Feature","properties":{"val":537.96,"field":"tp"},"geometry":{"type":"Polygon","coordinates":[[[8.0,-9.69],[8.12,-9.69],[8.12,-9.75],[8.19,-9.75],[8.19,-10.06],[8.12,-10.06],[8.12,-9.75],[8.0,-9.75],[8.0,-9.81],[7.94,-9.81],[7.94,-9.88],[7.88,-9.88],[7.88,-9.81],[7.94,-9.81],[7.94,-9.75],[8.0,-9.75],[8.0,-9.69]]]}},{"type":"Feature","properties":{"val":537.96,"field":"tp"},"geometry":{"type":"Polygon","coordinates":[[[7.69,-9.88],[7.69,-9.94],[7.81,-9.94],[7.81,-9.88],[7.69,-9.88]]]}},{"type":"Feature","properties":{"val":537.96,"field":"tp"},"geometry":{"type":"Polygon","coordinates":[[[7.5,-9.94],[7.5,-10.0],[7.56,-10.0],[7.56,-9.94],[7.5,-9.94]]]}},{"type":"Feature","properties":{"val":537.96,"field":"tp"},"geometry":{"type":"Polygon","coordinates":[[[7.38,-10.0],[7.44,-10.0],[7.44,-10.06],[7.38,-10.06],[7.38,-10.12],[7.31,-10.12],[7.31,-10.06],[7.38,-10.06],[7.38,-10.0]]]}},{"type":"Feature","properties":{"val":537.96,"field":"tp"},"geometry":{"type":"Polygon","coordinates":[[[8.06,-10.12],[8.06,-10.19],[8.12,-10.19],[8.12,-10.12],[8.06,-10.12]]]}},{"type":"Feature","properties":{"val":537.96,"field":"tp"},"geometry":{"type":"Polygon","coordinates":[[[7.25,-10.19],[7.25,-10.25],[7.31,-10.25],[7.31,-10.19],[7.25,-10.19]]]}},{"type":"Feature","properties":{"val":537.96,"field":"tp"},"geometry":{"type":"Polygon","coordinates":[[[7.94,-10.31],[7.94,-10.38],[8.0,-10.38],[8.0,-10.31],[7.94,-10.31]]]}},{"type":"Feature","properties":{"val":537.96,"field":"tp"},"geometry":{"type":"Polygon","coordinates":[[[7.12,-10.44],[7.12,-10.5],[7.19,-10.5],[7.19,-10.44],[7.12,-10.44]]]}},{"type":"Feature","properties":{"val":537.96,"field":"tp"},"geometry":{"type":"Polygon","coordinates":[[[7.88,-10.44],[7.88,-10.5],[7.94,-10.5],[7.94,-10.44],[7.88,-10.44]]]}},{"type":"Feature","properties":{"val":537.96,"field":"tp"},"geometry":{"type":"Polygon","coordinates":[[[7.81,-10.56],[7.81,-10.81],[7.88,-10.81],[7.88,-10.56],[7.81,-10.56]]]}},{"type":"Feature","properties":{"val":537.96,"field":"tp"},"geometry":{"type":"Polygon","coordinates":[[[7.75,-10.88],[7.75,-10.94],[7.81,-10.94],[7.81,-10.88],[7.75,-10.88]]]}},{"type":"Feature","properties":{"val":537.96,"field":"tp"},"geometry":{"type":"Polygon","coordinates":[[[7.06,-10.56],[7.06,-11.0],[7.12,-11.0],[7.12,-11.12],[7.25,-11.12],[7.25,-11.19],[7.38,-11.19],[7.38,-11.12],[7.25,-11.12],[7.25,-11.06],[7.19,-11.06],[7.19,-11.0],[7.12,-11.0],[7.12,-10.56],[7.06,-10.56]]]}},{"type":"Feature","properties":{"val":537.96,"field":"tp"},"geometry":{"type":"Polygon","coordinates":[[[7.69,-11.0],[7.75,-11.0],[7.75,-11.06],[7.69,-11.06],[7.69,-11.19],[7.62,-11.19],[7.62,-11.25],[7.44,-11.25],[7.44,-11.19],[7.5,-11.19],[7.5,-11.12],[7.62,-11.12],[7.62,-11.06],[7.69,-11.06],[7.69,-11.0]]]}},{"type":"Feature","properties":{"val":599.34,"field":"tp"},"geometry":{"type":"Polygon","coordinates":[[[8.0,-9.75],[8.12,-9.75],[8.12,-9.88],[8.06,-9.88],[8.06,-9.81],[8.0,-9.81],[8.0,-9.88],[7.94,-9.88],[7.94,-9.81],[8.0,-9.81],[8.0,-9.75]]]}},{"type":"Feature","properties":{"val":599.34,"field":"tp"},"geometry":{"type":"Polygon","coordinates":[[[7.81,-9.88],[7.81,-9.94],[7.88,-9.94],[7.88,-9.88],[7.81,-9.88]]]}},{"type":"Feature","properties":{"val":599.34,"field":"tp"},"geometry":{"type":"Polygon","coordinates":[[[7.56,-9.94],[7.56,-10.0],[7.62,-10.0],[7.62,-9.94],[7.56,-9.94]]]}},{"type":"Feature","properties":{"val":599.34,"field":"tp"},"geometry":{"type":"Polygon","coordinates":[[[7.44,-10.0],[7.44,-10.06],[7.5,-10.06],[7.5,-10.0],[7.44,-10.0]]]}},{"type":"Feature","properties":{"val":599.34,"field":"tp"},"geometry":{"type":"Polygon","coordinates":[[[8.06,-10.06],[8.06,-10.12],[8.12,-10.12],[8.12,-10.06],[8.06,-10.06]]]}},{"type":"Feature","properties":{"val":599.34,"field":"tp"},"geometry":{"type":"Polygon","coordinates":[[[7.31,-10.12],[7.31,-10.19],[7.38,-10.19],[7.38,-10.12],[7.31,-10.12]]]}},{"type":"Feature","properties":{"val":599.34,"field":"tp"},"geometry":{"type":"Polygon","coordinates":[[[8.0,-10.19],[8.06,-10.19],[8.06,-10.25],[8.0,-10.25],[8.0,-10.31],[7.94,-10.31],[7.94,-10.25],[8.0,-10.25],[8.0,-10.19]]]}},{"type":"Feature","properties":{"val":599.34,"field":"tp"},"geometry":{"type":"Polygon","coordinates":[[[7.25,-10.25],[7.25,-10.31],[7.31,-10.31],[7.31,-10.25],[7.25,-10.25]]]}},{"type":"Feature","properties":{"val":599.34,"field":"tp"},"geometry":{"type":"Polygon","coordinates":[[[7.19,-10.38],[7.19,-10.44],[7.25,-10.44],[7.25,-10.38],[7.19,-10.38]]]}},{"type":"Feature","properties":{"val":599.34,"field":"tp"},"geometry":{"type":"Polygon","coordinates":[[[7.88,-10.38],[7.88,-10.44],[7.94,-10.44],[7.94,-10.38],[7.88,-10.38]]]}},{"type":"Feature","properties":{"val":599.34,"field":"tp"},"geometry":{"type":"Polygon","coordinates":[[[7.12,-10.5],[7.12,-10.56],[7.19,-10.56],[7.19,-10.5],[7.12,-10.5]]]}},{"type":"Feature","properties":{"val":599.34,"field":"tp"},"geometry":{"type":"Polygon","coordinates":[[[7.81,-10.5],[7.81,-10.56],[7.88,-10.56],[7.88,-10.5],[7.81,-10.5]]]}},{"type":"Feature","properties":{"val":599.34,"field":"tp"},"geometry":{"type":"Polygon","coordinates":[[[7.75,-10.75],[7.81,-10.75],[7.81,-10.88],[7.75,-10.88],[7.75,-11.0],[7.69,-11.0],[7.69,-11.06],[7.62,-11.06],[7.62,-11.12],[7.5,-11.12],[7.5,-11.19],[7.38,-11.19],[7.38,-11.12],[7.25,-11.12],[7.25,-11.06],[7.19,-11.06],[7.19,-11.0],[7.12,-11.0],[7.12,-10.94],[7.19,-10.94],[7.19,-11.0],[7.25,-11.0],[7.25,-11.06],[7.38,-11.06],[7.38,-11.12],[7.5,-11.12],[7.5,-11.06],[7.56,-11.06],[7.56,-11.0],[7.69,-11.0],[7.69,-10.88],[7.75,-10.88],[7.75,-10.75]]]}},{"type":"Feature","properties":{"val":660.73,"field":"tp"},"geometry":{"type":"Polygon","coordinates":[[[8.0,-9.81],[8.06,-9.81],[8.06,-9.88],[8.12,-9.88],[8.12,-10.06],[8.06,-10.06],[8.06,-9.94],[7.88,-9.94],[7.88,-9.88],[8.0,-9.88],[8.0,-9.81]]]}},{"type":"Feature","properties":{"val":660.73,"field":"tp"},"geometry":{"type":"Polygon","coordinates":[[[7.62,-9.94],[7.62,-10.0],[7.69,-10.0],[7.69,-9.94],[7.62,-9.94]]]}},{"type":"Feature","properties":{"val":660.73,"field":"tp"},"geometry":{"type":"Polygon","coordinates":[[[7.38,-10.06],[7.38,-10.12],[7.44,-10.12],[7.44,-10.06],[7.38,-10.06]]]}},{"type":"Feature","properties":{"val":660.73,"field":"tp"},"geometry":{"type":"Polygon","coordinates":[[[8.0,-10.12],[8.0,-10.19],[8.06,-10.19],[8.06,-10.12],[8.0,-10.12]]]}},{"type":"Feature","properties":{"val":660.73,"field":"tp"},"geometry":{"type":"Polygon","coordinates":[[[7.31,-10.19],[7.31,-10.25],[7.38,-10.25],[7.38,-10.19],[7.31,-10.19]]]}},{"type":"Feature","properties":{"val":660.73,"field":"tp"},"geometry":{"type":"Polygon","coordinates":[[[7.25,-10.31],[7.25,-10.38],[7.31,-10.38],[7.31,-10.31],[7.25,-10.31]]]}},{"type":"Feature","properties":{"val":660.73,"field":"tp"},"geometry":{"type":"Polygon","coordinates":[[[7.88,-10.31],[7.88,-10.38],[7.94,-10.38],[7.94,-10.31],[7.88,-10.31]]]}},{"type":"Feature","properties":{"val":660.73,"field":"tp"},"geometry":{"type":"Polygon","coordinates":[[[7.19,-10.44],[7.19,-10.5],[7.25,-10.5],[7.25,-10.44],[7.19,-10.44]]]}},{"type":"Feature","properties":{"val":660.73,"field":"tp"},"geometry":{"type":"Polygon","coordinates":[[[7.81,-10.44],[7.81,-10.5],[7.88,-10.5],[7.88,-10.44],[7.81,-10.44]]]}},{"type":"Feature","properties":{"val":660.73,"field":"tp"},"geometry":{"type":"Polygon","coordinates":[[[7.12,-10.56],[7.12,-10.94],[7.19,-10.94],[7.19,-11.0],[7.25,-11.0],[7.25,-11.06],[7.31,-11.06],[7.31,-11.0],[7.25,-11.0],[7.25,-10.94],[7.19,-10.94],[7.19,-10.56],[7.12,-10.56]]]}},{"type":"Feature","properties":{"val":660.73,"field":"tp"},"geometry":{"type":"Polygon","coordinates":[[[7.75,-10.69],[7.75,-10.75],[7.81,-10.75],[7.81,-10.69],[7.75,-10.69]]]}},{"type":"Feature","properties":{"val":660.73,"field":"tp"},"geometry":{"type":"Polygon","coordinates":[[[7.69,-10.81],[7.69,-10.88],[7.75,-10.88],[7.75,-10.81],[7.69,-10.81]]]}},{"type":"Feature","properties":{"val":660.73,"field":"tp"},"geometry":{"type":"Polygon","coordinates":[[[7.56,-10.94],[7.69,-10.94],[7.69,-11.0],[7.56,-11.0],[7.56,-11.06],[7.5,-11.06],[7.5,-11.12],[7.38,-11.12],[7.38,-11.06],[7.5,-11.06],[7.5,-11.0],[7.56,-11.0],[7.56,-10.94]]]}},{"type":"Feature","properties":{"val":722.12,"field":"tp"},"geometry":{"type":"Polygon","coordinates":[[[7.69,-9.94],[7.69,-10.0],[7.75,-10.0],[7.75,-9.94],[7.69,-9.94]]]}},{"type":"Feature","properties":{"val":722.12,"field":"tp"},"geometry":{"type":"Polygon","coordinates":[[[8.0,-9.94],[8.0,-10.0],[8.06,-10.0],[8.06,-9.94],[8.0,-9.94]]]}},{"type":"Feature","properties":{"val":722.12,"field":"tp"},"geometry":{"type":"Polygon","coordinates":[[[7.5,-10.0],[7.5,-10.06],[7.56,-10.06],[7.56,-10.0],[7.5,-10.0]]]}},{"type":"Feature","properties":{"val":722.12,"field":"tp"},"geometry":{"type":"Polygon","coordinates":[[[8.0,-10.06],[8.0,-10.12],[8.06,-10.12],[8.06,-10.06],[8.0,-10.06]]]}},{"type":"Feature","properties":{"val":722.12,"field":"tp"},"geometry":{"type":"Polygon","coordinates":[[[7.94,-10.19],[7.94,-10.25],[8.0,-10.25],[8.0,-10.19],[7.94,-10.19]]]}},{"type":"Feature","properties":{"val":722.12,"field":"tp"},"geometry":{"type":"Polygon","coordinates":[[[7.81,-10.38],[7.81,-10.44],[7.88,-10.44],[7.88,-10.38],[7.81,-10.38]]]}},{"type":"Feature","properties":{"val":722.12,"field":"tp"},"geometry":{"type":"Polygon","coordinates":[[[7.75,-10.62],[7.75,-10.69],[7.81,-10.69],[7.81,-10.62],[7.75,-10.62]]]}},{"type":"Feature","properties":{"val":722.12,"field":"tp"},"geometry":{"type":"Polygon","coordinates":[[[7.19,-10.88],[7.19,-10.94],[7.25,-10.94],[7.25,-11.0],[7.31,-11.0],[7.31,-11.06],[7.5,-11.06],[7.5,-11.0],[7.56,-11.0],[7.56,-10.94],[7.5,-10.94],[7.5,-11.0],[7.31,-11.0],[7.31,-10.94],[7.25,-10.94],[7.25,-10.88],[7.19,-10.88]]]}},{"type":"Feature","properties":{"val":722.12,"field":"tp"},"geometry":{"type":"Polygon","coordinates":[[[7.62,-10.88],[7.62,-10.94],[7.69,-10.94],[7.69,-10.88],[7.62,-10.88]]]}},{"type":"Feature","properties":{"val":783.51,"field":"tp"},"geometry":{"type":"Polygon","coordinates":[[[7.75,-9.94],[7.75,-10.0],[8.0,-10.0],[8.0,-10.06],[8.06,-10.06],[8.06,-10.0],[8.0,-10.0],[8.0,-9.94],[7.75,-9.94]]]}},{"type":"Feature","properties":{"val":783.51,"field":"tp"},"geometry":{"type":"Polygon","coordinates":[[[7.44,-10.06],[7.5,-10.06],[7.5,-10.12],[7.44,-10.12],[7.44,-10.19],[7.38,-10.19],[7.38,-10.12],[7.44,-10.12],[7.44,-10.06]]]}},{"type":"Feature","properties":{"val":783.51,"field":"tp"},"geometry":{"type":"Polygon","coordinates":[[[7.31,-10.25],[7.31,-10.31],[7.38,-10.31],[7.38,-10.25],[7.31,-10.25]]]}},{"type":"Feature","properties":{"val":783.51,"field":"tp"},"geometry":{"type":"Polygon","coordinates":[[[7.88,-10.25],[7.88,-10.31],[7.94,-10.31],[7.94,-10.25],[7.88,-10.25]]]}},{"type":"Feature","properties":{"val":783.51,"field":"tp"},"geometry":{"type":"Polygon","coordinates":[[[7.25,-10.38],[7.25,-10.44],[7.31,-10.44],[7.31,-10.38],[7.25,-10.38]]]}},{"type":"Feature","properties":{"val":783.51,"field":"tp"},"geometry":{"type":"Polygon","coordinates":[[[7.19,-10.5],[7.19,-10.56],[7.25,-10.56],[7.25,-10.5],[7.19,-10.5]]]}},{"type":"Feature","properties":{"val":783.51,"field":"tp"},"geometry":{"type":"Polygon","coordinates":[[[7.75,-10.5],[7.75,-10.62],[7.81,-10.62],[7.81,-10.5],[7.75,-10.5]]]}},{"type":"Feature","properties":{"val":783.51,"field":"tp"},"geometry":{"type":"Polygon","coordinates":[[[7.69,-10.75],[7.75,-10.75],[7.75,-10.81],[7.69,-10.81],[7.69,-10.88],[7.62,-10.88],[7.62,-10.94],[7.56,-10.94],[7.56,-10.88],[7.62,-10.88],[7.62,-10.81],[7.69,-10.81],[7.69,-10.75]]]}},{"type":"Feature","properties":{"val":783.51,"field":"tp"},"geometry":{"type":"Polygon","coordinates":[[[7.19,-10.81],[7.19,-10.88],[7.25,-10.88],[7.25,-10.81],[7.19,-10.81]]]}},{"type":"Feature","properties":{"val":783.51,"field":"tp"},"geometry":{"type":"Polygon","coordinates":[[[7.31,-10.94],[7.31,-11.0],[7.5,-11.0],[7.5,-10.94],[7.31,-10.94]]]}},{"type":"Feature","properties":{"val":844.9,"field":"tp"},"geometry":{"type":"Polygon","coordinates":[[[7.56,-10.0],[7.56,-10.06],[7.62,-10.06],[7.62,-10.0],[7.56,-10.0]]]}},{"type":"Feature","properties":{"val":844.9,"field":"tp"},"geometry":{"type":"Polygon","coordinates":[[[7.94,-10.0],[7.94,-10.19],[8.0,-10.19],[8.0,-10.0],[7.94,-10.0]]]}},{"type":"Feature","properties":{"val":844.9,"field":"tp"},"geometry":{"type":"Polygon","coordinates":[[[7.38,-10.19],[7.38,-10.25],[7.44,-10.25],[7.44,-10.19],[7.38,-10.19]]]}},{"type":"Feature","properties":{"val":844.9,"field":"tp"},"geometry":{"type":"Polygon","coordinates":[[[7.31,-10.31],[7.31,-10.38],[7.38,-10.38],[7.38,-10.31],[7.31,-10.31]]]}},{"type":"Feature","properties":{"val":844.9,"field":"tp"},"geometry":{"type":"Polygon","coordinates":[[[7.81,-10.31],[7.81,-10.38],[7.88,-10.38],[7.88,-10.31],[7.81,-10.31]]]}},{"type":"Feature","properties":{"val":844.9,"field":"tp"},"geometry":{"type":"Polygon","coordinates":[[[7.25,-10.44],[7.25,-10.5],[7.31,-10.5],[7.31,-10.44],[7.25,-10.44]]]}},{"type":"Feature","properties":{"val":844.9,"field":"tp"},"geometry":{"type":"Polygon","coordinates":[[[7.19,-10.56],[7.19,-10.81],[7.25,-10.81],[7.25,-10.56],[7.19,-10.56]]]}},{"type":"Feature","properties":{"val":844.9,"field":"tp"},"geometry":{"type":"Polygon","coordinates":[[[7.69,-10.69],[7.69,-10.75],[7.75,-10.75],[7.75,-10.69],[7.69,-10.69]]]}},{"type":"Feature","properties":{"val":844.9,"field":"tp"},"geometry":{"type":"Polygon","coordinates":[[[7.25,-10.88],[7.25,-10.94],[7.38,-10.94],[7.38,-10.88],[7.25,-10.88]]]}},{"type":"Feature","properties":{"val":844.9,"field":"tp"},"geometry":{"type":"Polygon","coordinates":[[[7.44,-10.88],[7.44,-10.94],[7.56,-10.94],[7.56,-10.88],[7.44,-10.88]]]}},{"type":"Feature","properties":{"val":906.29,"field":"tp"},"geometry":{"type":"Polygon","coordinates":[[[7.62,-10.0],[7.62,-10.06],[7.69,-10.06],[7.69,-10.0],[7.62,-10.0]]]}},{"type":"Feature","properties":{"val":906.29,"field":"tp"},"geometry":{"type":"Polygon","coordinates":[[[7.88,-10.0],[7.88,-10.06],[7.94,-10.06],[7.94,-10.0],[7.88,-10.0]]]}},{"type":"Feature","properties":{"val":906.29,"field":"tp"},"geometry":{"type":"Polygon","coordinates":[[[7.5,-10.06],[7.56,-10.06],[7.56,-10.12],[7.5,-10.12],[7.5,-10.19],[7.44,-10.19],[7.44,-10.12],[7.5,-10.12],[7.5,-10.06]]]}},{"type":"Feature","properties":{"val":906.29,"field":"tp"},"geometry":{"type":"Polygon","coordinates":[[[7.88,-10.19],[7.88,-10.25],[7.94,-10.25],[7.94,-10.19],[7.88,-10.19]]]}},{"type":"Feature","properties":{"val":906.29,"field":"tp"},"geometry":{"type":"Polygon","coordinates":[[[7.75,-10.44],[7.75,-10.5],[7.81,-10.5],[7.81,-10.44],[7.75,-10.44]]]}},{"type":"Feature","properties":{"val":906.29,"field":"tp"},"geometry":{"type":"Polygon","coordinates":[[[7.69,-10.62],[7.69,-10.69],[7.75,-10.69],[7.75,-10.62],[7.69,-10.62]]]}},{"type":"Feature","properties":{"val":906.29,"field":"tp"},"geometry":{"type":"Polygon","coordinates":[[[7.62,-10.75],[7.69,-10.75],[7.69,-10.81],[7.62,-10.81],[7.62,-10.88],[7.56,-10.88],[7.56,-10.81],[7.62,-10.81],[7.62,-10.75]]]}},{"type":"Feature","properties":{"val":906.29,"field":"tp"},"geometry":{"type":"Polygon","coordinates":[[[7.25,-10.81],[7.25,-10.88],[7.31,-10.88],[7.31,-10.81],[7.25,-10.81]]]}},{"type":"Feature","properties":{"val":906.29,"field":"tp"},"geometry":{"type":"Polygon","coordinates":[[[7.38,-10.88],[7.38,-10.94],[7.44,-10.94],[7.44,-10.88],[7.38,-10.88]]]}},{"type":"Feature","properties":{"val":967.67,"field":"tp"},"geometry":{"type":"Polygon","coordinates":[[[7.69,-10.0],[7.69,-10.06],[7.88,-10.06],[7.88,-10.19],[7.94,-10.19],[7.94,-10.06],[7.88,-10.06],[7.88,-10.0],[7.69,-10.0]]]}},{"type":"Feature","properties":{"val":967.67,"field":"tp"},"geometry":{"type":"Polygon","coordinates":[[[7.38,-10.25],[7.38,-10.31],[7.44,-10.31],[7.44,-10.25],[7.38,-10.25]]]}},{"type":"Feature","properties":{"val":967.67,"field":"tp"},"geometry":{"type":"Polygon","coordinates":[[[7.81,-10.25],[7.81,-10.31],[7.88,-10.31],[7.88,-10.25],[7.81,-10.25]]]}},{"type":"Feature","properties":{"val":967.67,"field":"tp"},"geometry":{"type":"Polygon","coordinates":[[[7.31,-10.38],[7.31,-10.44],[7.38,-10.44],[7.38,-10.38],[7.31,-10.38]]]}},{"type":"Feature","properties":{"val":967.67,"field":"tp"},"geometry":{"type":"Polygon","coordinates":[[[7.75,-10.38],[7.75,-10.44],[7.81,-10.44],[7.81,-10.38],[7.75,-10.38]]]}},{"type":"Feature","properties":{"val":967.67,"field":"tp"},"geometry":{"type":"Polygon","coordinates":[[[7.25,-10.5],[7.25,-10.56],[7.31,-10.56],[7.31,-10.5],[7.25,-10.5]]]}},{"type":"Feature","properties":{"val":967.67,"field":"tp"},"geometry":{"type":"Polygon","coordinates":[[[7.69,-10.56],[7.69,-10.62],[7.75,-10.62],[7.75,-10.56],[7.69,-10.56]]]}},{"type":"Feature","properties":{"val":967.67,"field":"tp"},"geometry":{"type":"Polygon","coordinates":[[[7.25,-10.69],[7.25,-10.81],[7.31,-10.81],[7.31,-10.88],[7.56,-10.88],[7.56,-10.81],[7.31,-10.81],[7.31,-10.69],[7.25,-10.69]]]}},{"type":"Feature","properties":{"val":1029.06,"field":"tp"},"geometry":{"type":"Polygon","coordinates":[[[7.56,-10.06],[7.56,-10.12],[7.62,-10.12],[7.62,-10.06],[7.56,-10.06]]]}},{"type":"Feature","properties":{"val":1029.06,"field":"tp"},"geometry":{"type":"Polygon","coordinates":[[[7.44,-10.19],[7.44,-10.25],[7.5,-10.25],[7.5,-10.19],[7.44,-10.19]]]}},{"type":"Feature","properties":{"val":1029.06,"field":"tp"},"geometry":{"type":"Polygon","coordinates":[[[7.81,-10.19],[7.81,-10.25],[7.88,-10.25],[7.88,-10.19],[7.81,-10.19]]]}},{"type":"Feature","properties":{"val":1029.06,"field":"tp"},"geometry":{"type":"Polygon","coordinates":[[[7.75,-10.31],[7.75,-10.38],[7.81,-10.38],[7.81,-10.31],[7.75,-10.31]]]}},{"type":"Feature","properties":{"val":1029.06,"field":"tp"},"geometry":{"type":"Polygon","coordinates":[[[7.25,-10.56],[7.25,-10.69],[7.31,-10.69],[7.31,-10.56],[7.25,-10.56]]]}},{"type":"Feature","properties":{"val":1029.06,"field":"tp"},"geometry":{"type":"Polygon","coordinates":[[[7.62,-10.69],[7.69,-10.69],[7.69,-10.75],[7.62,-10.75],[7.62,-10.81],[7.56,-10.81],[7.56,-10.75],[7.62,-10.75],[7.62,-10.69]]]}},{"type":"Feature","properties":{"val":1029.06,"field":"tp"},"geometry":{"type":"Polygon","coordinates":[[[7.31,-10.75],[7.31,-10.81],[7.38,-10.81],[7.38,-10.75],[7.31,-10.75]]]}},{"type":"Feature","properties":{"val":1090.45,"field":"tp"},"geometry":{"type":"Polygon","coordinates":[[[7.62,-10.06],[7.62,-10.12],[7.69,-10.12],[7.69,-10.06],[7.62,-10.06]]]}},{"type":"Feature","properties":{"val":1090.45,"field":"tp"},"geometry":{"type":"Polygon","coordinates":[[[7.81,-10.06],[7.81,-10.19],[7.88,-10.19],[7.88,-10.06],[7.81,-10.06]]]}},{"type":"Feature","properties":{"val":1090.45,"field":"tp"},"geometry":{"type":"Polygon","coordinates":[[[7.5,-10.12],[7.5,-10.19],[7.56,-10.19],[7.56,-10.12],[7.5,-10.12]]]}},{"type":"Feature","properties":{"val":1090.45,"field":"tp"},"geometry":{"type":"Polygon","coordinates":[[[7.75,-10.25],[7.75,-10.31],[7.81,-10.31],[7.81,-10.25],[7.75,-10.25]]]}},{"type":"Feature","properties":{"val":1090.45,"field":"tp"},"geometry":{"type":"Polygon","coordinates":[[[7.38,-10.31],[7.38,-10.38],[7.44,-10.38],[7.44,-10.31],[7.38,-10.31]]]}},{"type":"Feature","properties":{"val":1090.45,"field":"tp"},"geometry":{"type":"Polygon","coordinates":[[[7.31,-10.44],[7.31,-10.5],[7.38,-10.5],[7.38,-10.44],[7.31,-10.44]]]}},{"type":"Feature","properties":{"val":1090.45,"field":"tp"},"geometry":{"type":"Polygon","coordinates":[[[7.69,-10.5],[7.69,-10.56],[7.75,-10.56],[7.75,-10.5],[7.69,-10.5]]]}},{"type":"Feature","properties":{"val":1090.45,"field":"tp"},"geometry":{"type":"Polygon","coordinates":[[[7.31,-10.69],[7.31,-10.75],[7.38,-10.75],[7.38,-10.81],[7.56,-10.81],[7.56,-10.75],[7.38,-10.75],[7.38,-10.69],[7.31,-10.69]]]}},{"type":"Feature","properties":{"val":1151.84,"field":"tp"},"geometry":{"type":"Polygon","coordinates":[[[7.69,-10.06],[7.69,-10.12],[7.81,-10.12],[7.81,-10.06],[7.69,-10.06]]]}},{"type":"Feature","properties":{"val":1151.84,"field":"tp"},"geometry":{"type":"Polygon","coordinates":[[[7.56,-10.12],[7.56,-10.19],[7.62,-10.19],[7.62,-10.12],[7.56,-10.12]]]}},{"type":"Feature","properties":{"val":1151.84,"field":"tp"},"geometry":{"type":"Polygon","coordinates":[[[7.75,-10.19],[7.75,-10.25],[7.81,-10.25],[7.81,-10.19],[7.75,-10.19]]]}},{"type":"Feature","properties":{"val":1151.84,"field":"tp"},"geometry":{"type":"Polygon","coordinates":[[[7.69,-10.38],[7.69,-10.5],[7.75,-10.5],[7.75,-10.38],[7.69,-10.38]]]}},{"type":"Feature","properties":{"val":1151.84,"field":"tp"},"geometry":{"type":"Polygon","coordinates":[[[7.31,-10.5],[7.31,-10.56],[7.38,-10.56],[7.38,-10.5],[7.31,-10.5]]]}},{"type":"Feature","properties":{"val":1151.84,"field":"tp"},"geometry":{"type":"Polygon","coordinates":[[[7.31,-10.62],[7.31,-10.69],[7.38,-10.69],[7.38,-10.62],[7.31,-10.62]]]}},{"type":"Feature","properties":{"val":1151.84,"field":"tp"},"geometry":{"type":"Polygon","coordinates":[[[7.62,-10.62],[7.69,-10.62],[7.69,-10.69],[7.62,-10.69],[7.62,-10.75],[7.56,-10.75],[7.56,-10.69],[7.62,-10.69],[7.62,-10.62]]]}},{"type":"Feature","properties":{"val":1213.23,"field":"tp"},"geometry":{"type":"Polygon","coordinates":[[[7.62,-10.12],[7.62,-10.19],[7.81,-10.19],[7.81,-10.12],[7.62,-10.12]]]}},{"type":"Feature","properties":{"val":1213.23,"field":"tp"},"geometry":{"type":"Polygon","coordinates":[[[7.5,-10.19],[7.56,-10.19],[7.56,-10.25],[7.5,-10.25],[7.5,-10.31],[7.44,-10.31],[7.44,-10.25],[7.5,-10.25],[7.5,-10.19]]]}},{"type":"Feature","properties":{"val":1213.23,"field":"tp"},"geometry":{"type":"Polygon","coordinates":[[[7.69,-10.31],[7.69,-10.38],[7.75,-10.38],[7.75,-10.31],[7.69,-10.31]]]}},{"type":"Feature","properties":{"val":1213.23,"field":"tp"},"geometry":{"type":"Polygon","coordinates":[[[7.38,-10.38],[7.38,-10.44],[7.44,-10.44],[7.44,-10.38],[7.38,-10.38]]]}},{"type":"Feature","properties":{"val":1213.23,"field":"tp"},"geometry":{"type":"Polygon","coordinates":[[[7.31,-10.56],[7.31,-10.62],[7.38,-10.62],[7.38,-10.56],[7.31,-10.56]]]}},{"type":"Feature","properties":{"val":1213.23,"field":"tp"},"geometry":{"type":"Polygon","coordinates":[[[7.62,-10.56],[7.62,-10.62],[7.69,-10.62],[7.69,-10.56],[7.62,-10.56]]]}},{"type":"Feature","properties":{"val":1213.23,"field":"tp"},"geometry":{"type":"Polygon","coordinates":[[[7.38,-10.69],[7.38,-10.75],[7.44,-10.75],[7.44,-10.69],[7.38,-10.69]]]}},{"type":"Feature","properties":{"val":1213.23,"field":"tp"},"geometry":{"type":"Polygon","coordinates":[[[7.5,-10.69],[7.5,-10.75],[7.56,-10.75],[7.56,-10.69],[7.5,-10.69]]]}},{"type":"Feature","properties":{"val":1274.62,"field":"tp"},"geometry":{"type":"Polygon","coordinates":[[[7.56,-10.19],[7.56,-10.25],[7.62,-10.25],[7.62,-10.19],[7.56,-10.19]]]}},{"type":"Feature","properties":{"val":1274.62,"field":"tp"},"geometry":{"type":"Polygon","coordinates":[[[7.69,-10.19],[7.69,-10.31],[7.75,-10.31],[7.75,-10.19],[7.69,-10.19]]]}},{"type":"Feature","properties":{"val":1274.62,"field":"tp"},"geometry":{"type":"Polygon","coordinates":[[[7.44,-10.31],[7.44,-10.38],[7.5,-10.38],[7.5,-10.31],[7.44,-10.31]]]}},{"type":"Feature","properties":{"val":1274.62,"field":"tp"},"geometry":{"type":"Polygon","coordinates":[[[7.38,-10.44],[7.38,-10.5],[7.44,-10.5],[7.44,-10.44],[7.38,-10.44]]]}},{"type":"Feature","properties":{"val":1274.62,"field":"tp"},"geometry":{"type":"Polygon","coordinates":[[[7.62,-10.5],[7.62,-10.56],[7.69,-10.56],[7.69,-10.5],[7.62,-10.5]]]}},{"type":"Feature","properties":{"val":1274.62,"field":"tp"},"geometry":{"type":"Polygon","coordinates":[[[7.38,-10.62],[7.38,-10.69],[7.44,-10.69],[7.44,-10.75],[7.5,-10.75],[7.5,-10.69],[7.44,-10.69],[7.44,-10.62],[7.38,-10.62]]]}},{"type":"Feature","properties":{"val":1274.62,"field":"tp"},"geometry":{"type":"Polygon","coordinates":[[[7.56,-10.62],[7.56,-10.69],[7.62,-10.69],[7.62,-10.62],[7.56,-10.62]]]}},{"type":"Feature","properties":{"val":1336.0,"field":"tp"},"geometry":{"type":"Polygon","coordinates":[[[7.62,-10.19],[7.62,-10.31],[7.69,-10.31],[7.69,-10.19],[7.62,-10.19]]]}},{"type":"Feature","properties":{"val":1336.0,"field":"tp"},"geometry":{"type":"Polygon","coordinates":[[[7.5,-10.25],[7.5,-10.31],[7.56,-10.31],[7.56,-10.25],[7.5,-10.25]]]}},{"type":"Feature","properties":{"val":1336.0,"field":"tp"},"geometry":{"type":"Polygon","coordinates":[[[7.62,-10.44],[7.62,-10.5],[7.69,-10.5],[7.69,-10.44],[7.62,-10.44]]]}},{"type":"Feature","properties":{"val":1336.0,"field":"tp"},"geometry":{"type":"Polygon","coordinates":[[[7.38,-10.5],[7.38,-10.62],[7.44,-10.62],[7.44,-10.5],[7.38,-10.5]]]}},{"type":"Feature","properties":{"val":1397.39,"field":"tp"},"geometry":{"type":"Polygon","coordinates":[[[7.56,-10.25],[7.56,-10.31],[7.62,-10.31],[7.62,-10.44],[7.69,-10.44],[7.69,-10.31],[7.62,-10.31],[7.62,-10.25],[7.56,-10.25]]]}},{"type":"Feature","properties":{"val":1397.39,"field":"tp"},"geometry":{"type":"Polygon","coordinates":[[[7.44,-10.38],[7.44,-10.44],[7.5,-10.44],[7.5,-10.38],[7.44,-10.38]]]}},{"type":"Feature","properties":{"val":1397.39,"field":"tp"},"geometry":{"type":"Polygon","coordinates":[[[7.56,-10.56],[7.62,-10.56],[7.62,-10.62],[7.56,-10.62],[7.56,-10.69],[7.44,-10.69],[7.44,-10.62],[7.56,-10.62],[7.56,-10.56]]]}},{"type":"Feature","properties":{"val":1458.78,"field":"tp"},"geometry":{"type":"Polygon","coordinates":[[[7.5,-10.31],[7.5,-10.38],[7.62,-10.38],[7.62,-10.31],[7.5,-10.31]]]}},{"type":"Feature","properties":{"val":1458.78,"field":"tp"},"geometry":{"type":"Polygon","coordinates":[[[7.56,-10.5],[7.56,-10.56],[7.62,-10.56],[7.62,-10.5],[7.56,-10.5]]]}},{"type":"Feature","properties":{"val":1458.78,"field":"tp"},"geometry":{"type":"Polygon","coordinates":[[[7.44,-10.44],[7.44,-10.62],[7.5,-10.62],[7.5,-10.44],[7.44,-10.44]]]}},{"type":"Feature","properties":{"val":1520.17,"field":"tp"},"geometry":{"type":"Polygon","coordinates":[[[7.5,-10.38],[7.5,-10.62],[7.56,-10.62],[7.56,-10.5],[7.62,-10.5],[7.62,-10.38],[7.5,-10.38]]]}}]}