{"type":"FeatureCollection","features":[{"type":"Feature","properties":{"val":119.93,"field":"tp"},"geometry":{"type":"Polygon","coordinates":[[[35.5,3.75],[35.5,3.69],[35.94,3.69],[35.94,3.75],[35.5,3.75]]]}},{"type":"Feature","properties":{"val":119.93,"field":"tp"},"geometry":{"type":"Polygon","coordinates":[[[86.81,3.75],[87.0,3.75],[87.0,3.69],[86.94,3.69],[86.94,3.62],[86.88,3.62],[86.88,3.56],[86.69,3.56],[86.69,3.62],[86.75,3.62],[86.75,3.69],[86.81,3.69],[86.81,3.75]]]}},{"type":"Feature","properties":{"val":119.93,"field":"tp"},"geometry":{"type":"Polygon","coordinates":[[[87.38,3.75],[87.38,3.62],[87.75,3.62],[87.75,3.56],[88.38,3.56],[88.38,3.62],[88.5,3.62],[88.5,3.69],[88.94,3.69],[88.94,3.62],[89.38,3.62],[89.38,3.69],[89.31,3.69],[89.31,3.75],[87.38,3.75]]]}},{"type":"Feature","properties":{"val":119.93,"field":"tp"},"geometry":{"type":"Polygon","coordinates":[[[91.81,3.75],[91.81,3.69],[92.0,3.69],[92.0,3.75],[91.81,3.75]]]}},{"type":"Feature","properties":{"val":119.93,"field":"tp"},"geometry":{"type":"Polygon","coordinates":[[[90.06,3.75],[90.88,3.75],[90.88,3.69],[91.06,3.69],[91.06,3.56],[90.94,3.56],[90.94,3.5],[90.69,3.5],[90.69,3.44],[90.38,3.44],[90.38,3.5],[90.31,3.5],[90.31,3.56],[90.19,3.56],[90.19,3.62],[90.12,3.62],[90.12,3.56],[89.94,3.56],[89.94,3.5],[89.69,3.5],[89.69,3.56],[89.56,3.56],[89.56,3.62],[89.5,3.62],[89.5,3.69],[90.06,3.69],[90.06,3.75]]]}},{"type":"Feature","properties":{"val":119.93,"field":"tp"},"geometry":{"type":"Polygon","coordinates":[[[84.88,3.75],[84.88,3.69],[84.94,3.69],[84.94,3.62],[85.0,3.62],[85.0,3.5],[85.06,3.5],[85.06,3.38],[85.12,3.38],[85.12,3.31],[85.19,3.31],[85.19,3.25],[85.56,3.25],[85.56,3.31],[85.69,3.31],[85.69,3.38],[85.75,3.38],[85.75,3.44],[85.81,3.44],[85.81,3.5],[86.0,3.5],[86.0,3.44],[86.38,3.44],[86.38,3.56],[86.44,3.56],[86.44,3.69],[86.38,3.69],[86.38,3.75],[85.56,3.75],[85.56,3.69],[85.25,3.69],[85.25,3.75],[84.88,3.75]]]}},{"type":"Feature","properties":{"val":119.93,"field":"tp"},"geometry":{"type":"Polygon","coordinates":[[[36.19,3.56],[36.62,3.56],[36.62,3.5],[36.75,3.5],[36.75,3.38],[36.69,3.38],[36.69,3.31],[36.62,3.31],[36.62,3.25],[36.5,3.25],[36.5,3.19],[36.38,3.19],[36.38,3.12],[36.06,3.12],[36.06,3.06],[35.75,3.06],[35.75,3.0],[35.62,3.0],[35.62,2.94],[35.5,2.94],[35.5,2.88],[35.12,2.88],[35.12,3.0],[35.19,3.0],[35.19,3.06],[35.44,3.06],[35.44,3.12],[35.56,3.12],[35.56,3.19],[35.62,3.19],[35.62,3.25],[35.69,3.25],[35.69,3.38],[35.75,3.38],[35.75,3.44],[35.88,3.44],[35.88,3.5],[36.19,3.5],[36.19,3.56]]]}},{"type":"Feature","properties":{"val":119.93,"field":"tp"},"geometry":{"type":"Polygon","coordinates":[[[1.94,-6.5],[2.19,-6.5],[2.19,-6.62],[2.25,-6.62],[2.25,-6.69],[2.31,-6.69],[2.31,-6.88],[2.25,-6.88],[2.25,-6.94],[2.12,-6.94],[2.12,-7.0],[2.06,-7.0],[2.06,-7.12],[2.12,-7.12],[2.12,-7.19],[2.19,-7.19],[2.19,-7.25],[2.25,-7.25],[2.25,-7.38],[1.75,-7.38],[1.75,-7.31],[1.69,-7.31],[1.69,-7.25],[1.62,-7.25],[1.62,-7.06],[1.69,-7.06],[1.69,-6.94],[1.75,-6.94],[1.75,-6.88],[1.81,-6.88],[1.81,-6.81],[1.88,-6.81],[1.88,-6.56],[1.94,-6.56],[1.94,-6.5]]]}},{"type":"Feature","properties":{"val":119.93,"field":"tp"},"geometry":{"type":"Polygon","coordinates":[[[-2.69,-6.94],[-2.44,-6.94],[-2.44,-7.0],[-2.12,-7.0],[-2.12,-6.94],[-1.94,-6.94],[-1.94,-7.0],[-1.88,-7.0],[-1.88,-7.19],[-2.0,-7.19],[-2.0,-7.25],[-2.12,-7.25],[-2.12,-7.31],[-2.19,-7.31],[-2.19,-7.5],[-2.25,-7.5],[-2.25,-7.31],[-2.31,-7.31],[-2.31,-7.25],[-2.69,-7.25],[-2.69,-7.19],[-2.75,-7.19],[-2.75,-7.06],[-2.69,-7.06],[-2.69,-6.94]]]}},{"type":"Feature","properties":{"val":119.93,"field":"tp"},"geometry":{"type":"Polygon","coordinates":[[[-1.94,-7.56],[-1.62,-7.56],[-1.62,-7.62],[-1.56,-7.62],[-1.56,-7.75],[-1.5,-7.75],[-1.5,-7.81],[-1.44,-7.81],[-1.44,-7.94],[-1.38,-7.94],[-1.38,-8.12],[-1.31,-8.12],[-1.31,-8.62],[-1.38,-8.62],[-1.38,-8.69],[-1.88,-8.69],[-1.88,-8.62],[-2.0,-8.62],[-2.0,-8.56],[-2.06,-8.56],[-2.06,-8.5],[-1.94,-8.5],[-1.94,-8.44],[-1.81,-8.44],[-1.81,-8.38],[-1.69,-8.38],[-1.69,-8.31],[-1.62,-8.31],[-1.62,-8.19],[-1.56,-8.19],[-1.56,-7.88],[-1.62,-7.88],[-1.62,-7.81],[-1.69,-7.81],[-1.69,-7.75],[-1.81,-7.75],[-1.81,-7.69],[-1.94,-7.69],[-1.94,-7.56]]]}},{"type":"Feature","properties":{"val":119.93,"field":"tp"},"geometry":{"type":"Polygon","coordinates":[[[-6.0,-9.44],[-6.0,-9.56],[-5.94,-9.56],[-5.94,-9.44],[-6.0,-9.44]]]}},{"type":"Feature","properties":{"val":119.93,"field":"tp"},"geometry":{"type":"Polygon","coordinates":[[[5.62,-9.88],[6.06,-9.88],[6.06,-10.0],[6.0,-10.0],[6.0,-10.06],[5.88,-10.06],[5.88,-10.12],[5.44,-10.12],[5.44,-10.06],[5.38,-10.06],[5.38,-10.0],[5.44,-10.0],[5.44,-9.94],[5.62,-9.94],[5.62,-9.88]]]}},{"type":"Feature","properties":{"val":119.93,"field":"tp"},"geometry":{"type":"Polygon","coordinates":[[[3.19,-10.19],[3.19,-10.31],[3.38,-10.31],[3.38,-10.25],[3.31,-10.25],[3.31,-10.19],[3.19,-10.19]]]}},{"type":"Feature","properties":{"val":119.93,"field":"tp"},"geometry":{"type":"Polygon","coordinates":[[[-4.06,-11.25],[-4.06,-11.44],[-4.0,-11.44],[-4.0,-11.56],[-3.94,-11.56],[-3.94,-11.5],[-3.88,-11.5],[-3.88,-11.25],[-4.06,-11.25]]]}},{"type":"Feature","properties":{"val":119.93,"field":"tp"},"geometry":{"type":"Polygon","coordinates":[[[-8.81,-7.94],[-8.69,-7.94],[-8.69,-8.0],[-8.62,-8.0],[-8.62,-8.19],[-8.56,-8.19],[-8.56,-8.38],[-8.62,-8.38],[-8.62,-8.44],[-8.75,-8.44],[-8.75,-8.5],[-8.81,-8.5],[-8.81,-8.56],[-8.88,-8.56],[-8.88,-8.62],[-9.0,-8.62],[-9.0,-8.69],[-9.12,-8.69],[-9.12,-8.75],[-9.19,-8.75],[-9.19,-8.81],[-9.25,-8.81],[-9.25,-8.88],[-9.31,-8.88],[-9.31,-9.0],[-9.38,-9.0],[-9.38,-9.06],[-9.5,-9.06],[-9.5,-9.12],[-9.62,-9.12],[-9.62,-9.19],[-9.69,-9.19],[-9.69,-9.25],[-9.75,-9.25],[-9.75,-9.38],[-9.81,-9.38],[-9.81,-9.44],[-9.88,-9.44],[-9.88,-9.56],[-9.94,-9.56],[-9.94,-9.69],[-9.81,-9.69],[-9.81,-9.75],[-9.0,-9.75],[-9.0,-9.69],[-8.88,-9.69],[-8.88,-9.62],[-8.81,-9.62],[-8.81,-9.56],[-8.75,-9.56],[-8.75,-9.5],[-8.69,-9.5],[-8.69,-9.75],[-8.75,-9.75],[-8.75,-9.81],[-8.81,-9.81],[-8.81,-9.88],[-8.88,-9.88],[-8.88,-9.94],[-8.94,-9.94],[-8.94,-10.0],[-9.06,-10.0],[-9.06,-10.12],[-9.12,-10.12],[-9.12,-10.19],[-9.19,-10.19],[-9.19,-10.25],[-9.25,-10.25],[-9.25,-10.31],[-9.31,-10.31],[-9.31,-10.38],[-9.44,-10.38],[-9.44,-10.44],[-9.5,-10.44],[-9.5,-10.56],[-9.56,-10.56],[-9.56,-10.88],[-9.62,-10.88],[-9.62,-10.94],[-9.69,-10.94],[-9.69,-11.0],[-9.75,-11.0],[-9.75,-11.25],[-9.69,-11.25],[-9.69,-11.44],[-9.62,-11.44],[-9.62,-11.88],[-9.75,-11.88],[-9.75,-11.81],[-9.88,-11.81],[-9.88,-11.75],[-9.94,-11.75],[-9.94,-11.69],[-10.5,-11.69],[-10.5,-11.62],[-10.62,-11.62],[-10.62,-11.56],[-10.75,-11.56],[-10.75,-11.5],[-11.0,-11.5],[-11.0,-11.44],[-11.06,-11.44],[-11.06,-11.38],[-11.25,-11.38],[-11.25,-11.31],[-11.56,-11.31],[-11.56,-11.44],[-11.62,-11.44],[-11.62,-11.62],[-11.69,-11.62],[-11.69,-11.69],[-11.81,-11.69],[-11.81,-11.75],[-12.06,-11.75],[-12.06,-11.81],[-12.12,-11.81],[-12.12,-11.75],[-12.19,-11.75],[-12.19,-11.56],[-12.25,-11.56],[-12.25,-11.31],[-12.31,-11.31],[-12.31,-11.06],[-12.25,-11.06],[-12.25,-10.94],[-12.12,-10.94],[-12.12,-10.88],[-11.81,-10.88],[-11.81,-10.5],[-11.75,-10.5],[-11.75,-10.38],[-11.69,-10.38],[-11.69,-10.31],[-11.62,-10.31],[-11.62,-10.12],[-11.56,-10.12],[-11.56,-9.75],[-11.44,-9.75],[-11.44,-9.69],[-11.25,-9.69],[-11.25,-9.62],[-11.19,-9.62],[-11.19,-9.56],[-11.12,-9.56],[-11.12,-9.5],[-11.0,-9.5],[-11.0,-9.44],[-10.94,-9.44],[-10.94,-9.38],[-10.75,-9.38],[-10.75,-9.31],[-10.5,-9.31],[-10.5,-9.25],[-10.44,-9.25],[-10.44,-9.19],[-10.38,-9.19],[-10.38,-9.12],[-10.31,-9.12],[-10.31,-9.06],[-10.25,-9.06],[-10.25,-9.0],[-10.12,-9.0],[-10.12,-8.94],[-10.06,-8.94],[-10.06,-8.88],[-10.0,-8.88],[-10.0,-8.81],[-9.94,-8.81],[-9.94,-8.75],[-9.81,-8.75],[-9.81,-8.69],[-9.69,-8.69],[-9.69,-8.62],[-9.56,-8.62],[-9.56,-8.56],[-9.44,-8.56],[-9.44,-8.5],[-9.31,-8.5],[-9.31,-8.44],[-9.25,-8.44],[-9.25,-8.38],[-9.19,-8.38],[-9.19,-8.25],[-9.12,-8.25],[-9.12,-8.19],[-9.06,-8.19],[-9.06,-8.06],[-8.94,-8.06],[-8.94,-8.0],[-8.81,-8.0],[-8.81,-7.94]],[[-11.31,-9.88],[-11.31,-9.94],[-11.38,-9.94],[-11.38,-10.0],[-11.44,-10.0],[-11.44,-10.19],[-11.5,-10.19],[-11.5,-10.25],[-11.56,-10.25],[-11.56,-10.31],[-11.62,-10.31],[-11.62,-10.38],[-11.69,-10.38],[-11.69,-10.5],[-11.75,-10.5],[-11.75,-10.75],[-11.69,-10.75],[-11.69,-10.88],[-11.62,-10.88],[-11.62,-11.06],[-11.56,-11.06],[-11.56,-11.12],[-11.44,-11.12],[-11.44,-11.19],[-11.12,-11.19],[-11.12,-11.25],[-10.94,-11.25],[-10.94,-11.31],[-10.81,-11.31],[-10.81,-11.38],[-10.56,-11.38],[-10.56,-11.44],[-10.38,-11.44],[-10.38,-11.38],[-10.31,-11.38],[-10.31,-11.19],[-10.25,-11.19],[-10.25,-11.0],[-10.31,-11.0],[-10.31,-10.88],[-10.38,-10.88],[-10.38,-10.75],[-10.44,-10.75],[-10.44,-10.44],[-10.38,-10.44],[-10.38,-10.31],[-10.44,-10.31],[-10.44,-10.25],[-10.5,-10.25],[-10.5,-10.19],[-10.81,-10.19],[-10.81,-10.06],[-10.88,-10.06],[-10.88,-10.0],[-10.94,-10.0],[-10.94,-9.94],[-11.06,-9.94],[-11.06,-9.88],[-11.31,-9.88]]]}},{"type":"Feature","properties":{"val":119.93,"field":"tp"},"geometry":{"type":"Polygon","coordinates":[[[1.5,-7.5],[1.69,-7.5],[1.69,-7.56],[1.62,-7.56],[1.62,-7.69],[1.56,-7.69],[1.56,-7.81],[1.5,-7.81],[1.5,-8.06],[1.56,-8.06],[1.56,-8.25],[1.5,-8.25],[1.5,-8.31],[1.44,-8.31],[1.44,-8.38],[1.38,-8.38],[1.38,-8.44],[1.19,-8.44],[1.19,-8.5],[1.06,-8.5],[1.06,-8.62],[1.0,-8.62],[1.0,-8.69],[0.94,-8.69],[0.94,-8.81],[0.88,-8.81],[0.88,-8.94],[0.81,-8.94],[0.81,-9.0],[0.75,-9.0],[0.75,-9.06],[0.69,-9.06],[0.69,-9.19],[0.62,-9.19],[0.62,-9.25],[0.56,-9.25],[0.56,-9.31],[0.5,-9.31],[0.5,-9.38],[0.44,-9.38],[0.44,-9.44],[0.38,-9.44],[0.38,-9.56],[0.31,-9.56],[0.31,-9.69],[0.25,-9.69],[0.25,-10.62],[0.31,-10.62],[0.31,-10.69],[0.38,-10.69],[0.38,-10.81],[0.75,-10.81],[0.75,-10.88],[1.0,-10.88],[1.0,-10.94],[1.19,-10.94],[1.19,-11.0],[1.25,-11.0],[1.25,-11.06],[1.31,-11.06],[1.31,-11.12],[1.38,-11.12],[1.38,-11.25],[1.31,-11.25],[1.31,-11.31],[1.06,-11.31],[1.06,-11.38],[0.94,-11.38],[0.94,-11.44],[0.88,-11.44],[0.88,-11.5],[0.81,-11.5],[0.81,-11.56],[0.75,-11.56],[0.75,-11.69],[0.69,-11.69],[0.69,-11.75],[0.62,-11.75],[0.62,-11.81],[0.5,-11.81],[0.5,-11.88],[0.44,-11.88],[0.44,-11.94],[0.12,-11.94],[0.12,-11.88],[0.06,-11.88],[0.06,-11.75],[0.0,-11.75],[0.0,-11.69],[-0.12,-11.69],[-0.12,-11.62],[-0.31,-11.62],[-0.31,-11.56],[-0.44,-11.56],[-0.44,-11.5],[-0.56,-11.5],[-0.56,-11.44],[-0.69,-11.44],[-0.69,-11.38],[-0.75,-11.38],[-0.75,-11.31],[-0.88,-11.31],[-0.88,-11.25],[-0.94,-11.25],[-0.94,-11.19],[-1.0,-11.19],[-1.0,-11.12],[-1.5,-11.12],[-1.5,-11.19],[-1.56,-11.19],[-1.56,-11.25],[-1.94,-11.25],[-1.94,-11.19],[-2.0,-11.19],[-2.0,-11.12],[-2.06,-11.12],[-2.06,-11.0],[-2.12,-11.0],[-2.12,-10.88],[-2.06,-10.88],[-2.06,-10.75],[-1.94,-10.75],[-1.94,-10.69],[-1.75,-10.69],[-1.75,-10.5],[-1.81,-10.5],[-1.81,-10.56],[-1.94,-10.56],[-1.94,-10.62],[-2.06,-10.62],[-2.06,-10.56],[-2.31,-10.56],[-2.31,-10.62],[-2.44,-10.62],[-2.44,-10.69],[-2.5,-10.69],[-2.5,-10.75],[-2.62,-10.75],[-2.62,-10.81],[-2.69,-10.81],[-2.69,-10.88],[-2.75,-10.88],[-2.75,-10.94],[-2.81,-10.94],[-2.81,-11.0],[-2.94,-11.0],[-2.94,-11.06],[-3.0,-11.06],[-3.0,-11.12],[-3.06,-11.12],[-3.06,-11.25],[-3.12,-11.25],[-3.12,-11.38],[-3.19,-11.38],[-3.19,-11.5],[-3.25,-11.5],[-3.25,-11.56],[-3.31,-11.56],[-3.31,-11.69],[-3.38,-11.69],[-3.38,-11.88],[-3.44,-11.88],[-3.44,-12.06],[-3.5,-12.06],[-3.5,-12.19],[-3.56,-12.19],[-3.56,-12.31],[-3.62,-12.31],[-3.62,-12.44],[-3.69,-12.44],[-3.69,-12.56],[-3.81,-12.56],[-3.81,-12.62],[-3.94,-12.62],[-3.94,-12.69],[-4.0,-12.69],[-4.0,-12.88],[-4.06,-12.88],[-4.06,-13.06],[-4.12,-13.06],[-4.12,-13.19],[-4.25,-13.19],[-4.25,-13.12],[-4.31,-13.12],[-4.31,-13.0],[-4.38,-13.0],[-4.38,-12.94],[-4.44,-12.94],[-4.44,-12.88],[-4.5,-12.88],[-4.5,-12.81],[-4.56,-12.81],[-4.56,-12.75],[-4.62,-12.75],[-4.62,-12.62],[-4.69,-12.62],[-4.69,-12.56],[-4.75,-12.56],[-4.75,-12.5],[-4.81,-12.5],[-4.81,-12.38],[-4.88,-12.38],[-4.88,-12.25],[-4.94,-12.25],[-4.94,-12.19],[-5.0,-12.19],[-5.0,-12.12],[-5.06,-12.12],[-5.06,-12.06],[-5.12,-12.06],[-5.12,-11.88],[-5.19,-11.88],[-5.19,-11.81],[-5.12,-11.81],[-5.12,-11.62],[-5.19,-11.62],[-5.19,-11.56],[-5.31,-11.56],[-5.31,-11.5],[-5.75,-11.5],[-5.75,-11.44],[-5.81,-11.44],[-5.81,-11.38],[-5.88,-11.38],[-5.88,-11.12],[-5.94,-11.12],[-5.94,-11.0],[-6.0,-11.0],[-6.0,-10.88],[-6.06,-10.88],[-6.06,-10.81],[-6.12,-10.81],[-6.12,-10.75],[-6.19,-10.75],[-6.19,-10.62],[-6.25,-10.62],[-6.25,-10.5],[-6.31,-10.5],[-6.31,-10.19],[-6.25,-10.19],[-6.25,-9.94],[-6.19,-9.94],[-6.19,-9.81],[-6.12,-9.81],[-6.12,-9.75],[-6.06,-9.75],[-6.06,-9.62],[-6.0,-9.62],[-6.0,-9.75],[-6.06,-9.75],[-6.06,-9.88],[-6.12,-9.88],[-6.12,-10.0],[-6.19,-10.0],[-6.19,-10.5],[-6.12,-10.5],[-6.12,-10.56],[-6.06,-10.56],[-6.06,-10.62],[-6.0,-10.62],[-6.0,-10.75],[-5.94,-10.75],[-5.94,-10.81],[-5.88,-10.81],[-5.88,-10.94],[-5.81,-10.94],[-5.81,-11.06],[-5.75,-11.06],[-5.75,-11.12],[-5.69,-11.12],[-5.69,-11.19],[-5.62,-11.19],[-5.62,-11.25],[-5.44,-11.25],[-5.44,-11.31],[-5.19,-11.31],[-5.19,-11.38],[-4.94,-11.38],[-4.94,-11.44],[-4.81,-11.44],[-4.81,-11.88],[-4.75,-11.88],[-4.75,-11.94],[-4.69,-11.94],[-4.69,-12.06],[-4.62,-12.06],[-4.62,-12.19],[-4.56,-12.19],[-4.56,-12.25],[-4.5,-12.25],[-4.5,-12.31],[-4.44,-12.31],[-4.44,-12.38],[-4.38,-12.38],[-4.38,-12.31],[-4.25,-12.31],[-4.25,-12.25],[-4.12,-12.25],[-4.12,-12.19],[-4.06,-12.19],[-4.06,-12.0],[-4.0,-12.0],[-4.0,-11.81],[-3.94,-11.81],[-3.94,-11.75],[-3.69,-11.75],[-3.69,-11.69],[-3.62,-11.69],[-3.62,-11.56],[-3.56,-11.56],[-3.56,-11.44],[-3.5,-11.44],[-3.5,-11.25],[-3.56,-11.25],[-3.56,-11.19],[-3.62,-11.19],[-3.62,-11.12],[-3.69,-11.12],[-3.69,-10.94],[-3.62,-10.94],[-3.62,-10.75],[-3.56,-10.75],[-3.56,-10.69],[-3.5,-10.69],[-3.5,-10.62],[-3.44,-10.62],[-3.44,-10.56],[-3.38,-10.56],[-3.38,-10.5],[-3.31,-10.5],[-3.31,-10.44],[-3.25,-10.44],[-3.25,-10.38],[-3.19,-10.38],[-3.19,-10.25],[-3.12,-10.25],[-3.12,-9.81],[-3.19,-9.81],[-3.19,-9.75],[-3.31,-9.75],[-3.31,-9.69],[-3.38,-9.69],[-3.38,-9.19],[-3.81,-9.19],[-3.81,-9.12],[-3.88,-9.12],[-3.88,-9.0],[-3.94,-9.0],[-3.94,-8.94],[-4.31,-8.94],[-4.31,-9.0],[-4.56,-9.0],[-4.56,-8.94],[-5.0,-8.94],[-5.0,-9.0],[-5.12,-9.0],[-5.12,-9.06],[-5.19,-9.06],[-5.19,-9.12],[-5.31,-9.12],[-5.31,-9.19],[-5.69,-9.19],[-5.69,-9.25],[-5.81,-9.25],[-5.81,-9.31],[-5.88,-9.31],[-5.88,-9.38],[-5.94,-9.38],[-5.94,-9.25],[-5.88,-9.25],[-5.88,-9.19],[-5.75,-9.19],[-5.75,-9.12],[-5.56,-9.12],[-5.56,-9.06],[-5.5,-9.06],[-5.5,-9.0],[-5.44,-9.0],[-5.44,-8.94],[-5.38,-8.94],[-5.38,-8.81],[-5.31,-8.81],[-5.31,-8.75],[-5.06,-8.75],[-5.06,-8.81],[-4.81,-8.81],[-4.81,-8.75],[-4.56,-8.75],[-4.56,-8.81],[-4.44,-8.81],[-4.44,-8.88],[-4.25,-8.88],[-4.25,-8.81],[-4.06,-8.81],[-4.06,-8.75],[-4.0,-8.75],[-4.0,-8.69],[-3.81,-8.69],[-3.81,-8.75],[-3.75,-8.75],[-3.75,-8.81],[-3.69,-8.81],[-3.69,-8.94],[-3.44,-8.94],[-3.44,-8.88],[-3.25,-8.88],[-3.25,-8.81],[-3.19,-8.81],[-3.19,-8.88],[-3.12,-8.88],[-3.12,-8.94],[-3.06,-8.94],[-3.06,-9.12],[-3.12,-9.12],[-3.12,-9.25],[-3.06,-9.25],[-3.06,-9.38],[-2.75,-9.38],[-2.75,-9.44],[-2.69,-9.44],[-2.69,-9.5],[-2.62,-9.5],[-2.62,-9.62],[-2.56,-9.62],[-2.56,-9.81],[-2.5,-9.81],[-2.5,-9.88],[-2.38,-9.88],[-2.38,-9.81],[-2.25,-9.81],[-2.25,-9.75],[-2.19,-9.75],[-2.19,-9.69],[-2.12,-9.69],[-2.12,-9.62],[-2.06,-9.62],[-2.06,-9.56],[-1.75,-9.56],[-1.75,-9.69],[-1.69,-9.69],[-1.69,-9.75],[-1.25,-9.75],[-1.25,-9.69],[-1.12,-9.69],[-1.12,-9.62],[-1.06,-9.62],[-1.06,-9.56],[-1.0,-9.56],[-1.0,-9.44],[-0.94,-9.44],[-0.94,-9.38],[-0.81,-9.38],[-0.81,-9.31],[-0.75,-9.31],[-0.75,-9.25],[-0.69,-9.25],[-0.69,-9.19],[-0.62,-9.19],[-0.62,-9.12],[-0.5,-9.12],[-0.5,-9.06],[-0.38,-9.06],[-0.38,-9.0],[-0.31,-9.0],[-0.31,-8.94],[-0.25,-8.94],[-0.25,-8.81],[-0.12,-8.81],[-0.12,-8.75],[0.12,-8.75],[0.12,-8.69],[0.31,-8.69],[0.31,-8.62],[0.5,-8.62],[0.5,-8.56],[0.88,-8.56],[0.88,-8.5],[0.94,-8.5],[0.94,-8.44],[1.0,-8.44],[1.0,-8.31],[1.06,-8.31],[1.06,-8.12],[1.12,-8.12],[1.12,-8.0],[1.19,-8.0],[1.19,-7.94],[1.25,-7.94],[1.25,-7.81],[1.31,-7.81],[1.31,-7.69],[1.38,-7.69],[1.38,-7.62],[1.44,-7.62],[1.44,-7.56],[1.5,-7.56],[1.5,-7.5]],[[0.12,-8.88],[0.12,-8.94],[0.06,-8.94],[0.06,-9.0],[0.0,-9.0],[0.0,-9.06],[-0.06,-9.06],[-0.06,-9.12],[-0.19,-9.12],[-0.19,-9.19],[-0.44,-9.19],[-0.44,-9.25],[-0.56,-9.25],[-0.56,-9.31],[-0.62,-9.31],[-0.62,-9.38],[-0.75,-9.38],[-0.75,-9.44],[-0.81,-9.44],[-0.81,-9.5],[-0.88,-9.5],[-0.88,-9.62],[-0.94,-9.62],[-0.94,-9.88],[-0.88,-9.88],[-0.88,-10.0],[-0.75,-10.0],[-0.75,-10.06],[-0.5,-10.06],[-0.5,-10.12],[-0.38,-10.12],[-0.38,-10.19],[-0.31,-10.19],[-0.31,-10.25],[-0.25,-10.25],[-0.25,-10.44],[-0.31,-10.44],[-0.31,-10.56],[-0.38,-10.56],[-0.38,-10.62],[-0.44,-10.62],[-0.44,-10.69],[-0.5,-10.69],[-0.5,-10.75],[-0.56,-10.75],[-0.56,-10.81],[-0.62,-10.81],[-0.62,-10.88],[-0.69,-10.88],[-0.69,-10.94],[-0.75,-10.94],[-0.75,-11.12],[-0.69,-11.12],[-0.69,-11.19],[-0.62,-11.19],[-0.62,-11.25],[-0.5,-11.25],[-0.5,-11.31],[-0.19,-11.31],[-0.19,-11.25],[-0.06,-11.25],[-0.06,-11.12],[0.0,-11.12],[0.0,-10.75],[-0.06,-10.75],[-0.06,-10.56],[0.0,-10.56],[0.0,-10.5],[0.06,-10.5],[0.06,-10.38],[0.12,-10.38],[0.12,-10.31],[0.06,-10.31],[0.06,-10.19],[0.0,-10.19],[0.0,-9.81],[0.06,-9.81],[0.06,-9.75],[0.12,-9.75],[0.12,-9.56],[0.19,-9.56],[0.19,-9.38],[0.25,-9.38],[0.25,-9.31],[0.31,-9.31],[0.31,-9.25],[0.38,-9.25],[0.38,-9.19],[0.44,-9.19],[0.44,-9.06],[0.5,-9.06],[0.5,-8.94],[0.44,-8.94],[0.44,-8.88],[0.12,-8.88]]]}},{"type":"Feature","properties":{"val":119.93,"field":"tp"},"geometry":{"type":"Polygon","coordinates":[[[-13.12,-15.06],[-13.12,-15.19],[-13.06,-15.19],[-13.06,-15.25],[-12.94,-15.25],[-12.94,-15.12],[-13.0,-15.12],[-13.0,-15.06],[-13.12,-15.06]]]}},{"type":"Feature","properties":{"val":119.93,"field":"tp"},"geometry":{"type":"Polygon","coordinates":[[[54.88,-21.19],[55.06,-21.19],[55.06,-21.25],[55.25,-21.25],[55.25,-21.31],[55.31,-21.31],[55.31,-21.38],[55.44,-21.38],[55.44,-21.44],[55.56,-21.44],[55.56,-21.5],[55.81,-21.5],[55.81,-21.56],[56.0,-21.56],[56.0,-21.62],[56.12,-21.62],[56.12,-21.69],[56.38,-21.69],[56.38,-21.75],[56.5,-21.75],[56.5,-21.81],[56.56,-21.81],[56.56,-21.88],[56.62,-21.88],[56.62,-21.94],[56.69,-21.94],[56.69,-22.0],[56.75,-22.0],[56.75,-22.19],[56.81,-22.19],[56.81,-22.44],[56.88,-22.44],[56.88,-22.5],[57.0,-22.5],[57.0,-22.69],[56.75,-22.69],[56.75,-22.62],[56.69,-22.62],[56.69,-22.56],[56.56,-22.56],[56.56,-22.5],[56.44,-22.5],[56.44,-22.44],[56.31,-22.44],[56.31,-22.38],[56.25,-22.38],[56.25,-22.25],[56.19,-22.25],[56.19,-22.19],[55.81,-22.19],[55.81,-22.12],[55.69,-22.12],[55.69,-22.06],[55.62,-22.06],[55.62,-22.0],[55.5,-22.0],[55.5,-21.94],[55.44,-21.94],[55.44,-21.88],[55.31,-21.88],[55.31,-21.81],[55.25,-21.81],[55.25,-21.75],[55.12,-21.75],[55.12,-21.69],[55.06,-21.69],[55.06,-21.62],[55.0,-21.62],[55.0,-21.56],[54.94,-21.56],[54.94,-21.44],[54.88,-21.44],[54.88,-21.31],[54.81,-21.31],[54.81,-21.25],[54.88,-21.25],[54.88,-21.19]]]}},{"type":"Feature","properties":{"val":119.93,"field":"tp"},"geometry":{"type":"Polygon","coordinates":[[[57.31,-22.38],[57.62,-22.38],[57.62,-22.44],[57.88,-22.44],[57.88,-22.56],[58.12,-22.56],[58.12,-22.62],[58.25,-22.62],[58.25,-22.69],[58.38,-22.69],[58.38,-22.75],[58.56,-22.75],[58.56,-22.81],[58.69,-22.81],[58.69,-22.88],[58.88,-22.88],[58.88,-22.94],[58.94,-22.94],[58.94,-23.0],[59.0,-23.0],[59.0,-23.06],[59.06,-23.06],[59.06,-23.19],[59.19,-23.19],[59.19,-23.25],[59.31,-23.25],[59.31,-23.31],[59.38,-23.31],[59.38,-23.38],[59.44,-23.38],[59.44,-23.5],[59.5,-23.5],[59.5,-23.56],[59.56,-23.56],[59.56,-23.62],[59.62,-23.62],[59.62,-23.69],[59.56,-23.69],[59.56,-23.75],[59.19,-23.75],[59.19,-23.69],[59.06,-23.69],[59.06,-23.62],[58.88,-23.62],[58.88,-23.56],[58.75,-23.56],[58.75,-23.5],[58.62,-23.5],[58.62,-23.44],[58.5,-23.44],[58.5,-23.38],[58.38,-23.38],[58.38,-23.31],[58.06,-23.31],[58.06,-23.25],[57.88,-23.25],[57.88,-23.19],[57.75,-23.19],[57.75,-23.12],[57.69,-23.12],[57.69,-23.06],[57.56,-23.06],[57.56,-23.0],[57.5,-23.0],[57.5,-22.94],[57.44,-22.94],[57.44,-22.88],[57.38,-22.88],[57.38,-22.81],[57.31,-22.81],[57.31,-22.5],[57.25,-22.5],[57.25,-22.44],[57.31,-22.44],[57.31,-22.38]]]}},{"type":"Feature","properties":{"val":119.93,"field":"tp"},"geometry":{"type":"Polygon","coordinates":[[[-3.19,-24.44],[-3.06,-24.44],[-3.06,-24.5],[-2.88,-24.5],[-2.88,-24.56],[-2.75,-24.56],[-2.75,-24.62],[-2.56,-24.62],[-2.56,-24.69],[-2.38,-24.69],[-2.38,-24.75],[-2.31,-24.75],[-2.31,-24.88],[-2.25,-24.88],[-2.25,-25.06],[-2.31,-25.06],[-2.31,-25.12],[-2.38,-25.12],[-2.38,-25.19],[-2.56,-25.19],[-2.56,-25.12],[-2.69,-25.12],[-2.69,-25.06],[-2.81,-25.06],[-2.81,-25.0],[-2.88,-25.0],[-2.88,-24.94],[-2.94,-24.94],[-2.94,-24.88],[-3.0,-24.88],[-3.0,-24.81],[-3.12,-24.81],[-3.12,-24.75],[-3.19,-24.75],[-3.19,-24.69],[-3.25,-24.69],[-3.25,-24.5],[-3.19,-24.5],[-3.19,-24.44]]]}},{"type":"Feature","properties":{"val":119.93,"field":"tp"},"geometry":{"type":"Polygon","coordinates":[[[-4.06,-24.88],[-4.06,-25.12],[-4.0,-25.12],[-4.0,-25.19],[-3.88,-25.19],[-3.88,-25.25],[-3.75,-25.25],[-3.75,-25.19],[-3.69,-25.19],[-3.69,-25.12],[-3.62,-25.12],[-3.62,-25.06],[-3.69,-25.06],[-3.69,-25.0],[-3.75,-25.0],[-3.75,-24.94],[-3.81,-24.94],[-3.81,-24.88],[-4.06,-24.88]]]}},{"type":"Feature","properties":{"val":119.93,"field":"tp"},"geometry":{"type":"Polygon","coordinates":[[[-10.69,-25.12],[-10.69,-25.25],[-10.62,-25.25],[-10.62,-25.31],[-10.44,-25.31],[-10.44,-25.25],[-10.5,-25.25],[-10.5,-25.19],[-10.56,-25.19],[-10.56,-25.12],[-10.69,-25.12]]]}},{"type":"Feature","properties":{"val":119.93,"field":"tp"},"geometry":{"type":"Polygon","coordinates":[[[-7.44,-23.25],[-7.06,-23.25],[-7.06,-23.31],[-6.94,-23.31],[-6.94,-23.38],[-6.88,-23.38],[-6.88,-23.5],[-6.81,-23.5],[-6.81,-23.62],[-6.75,-23.62],[-6.75,-23.75],[-6.69,-23.75],[-6.69,-23.88],[-6.62,-23.88],[-6.62,-23.94],[-6.56,-23.94],[-6.56,-24.06],[-6.5,-24.06],[-6.5,-24.12],[-6.44,-24.12],[-6.44,-24.19],[-6.38,-24.19],[-6.38,-24.25],[-6.31,-24.25],[-6.31,-24.31],[-6.25,-24.31],[-6.25,-24.38],[-6.19,-24.38],[-6.19,-24.44],[-6.0,-24.44],[-6.0,-24.38],[-5.81,-24.38],[-5.81,-24.5],[-5.75,-24.5],[-5.75,-24.56],[-5.69,-24.56],[-5.69,-24.62],[-5.62,-24.62],[-5.62,-24.69],[-5.5,-24.69],[-5.5,-24.75],[-5.31,-24.75],[-5.31,-24.81],[-5.25,-24.81],[-5.25,-24.75],[-5.12,-24.75],[-5.12,-24.69],[-4.75,-24.69],[-4.75,-24.75],[-4.62,-24.75],[-4.62,-24.81],[-4.56,-24.81],[-4.56,-25.12],[-4.62,-25.12],[-4.62,-25.31],[-4.69,-25.31],[-4.69,-25.38],[-4.75,-25.38],[-4.75,-25.44],[-4.94,-25.44],[-4.94,-25.38],[-5.0,-25.38],[-5.0,-25.31],[-5.06,-25.31],[-5.06,-25.19],[-5.12,-25.19],[-5.12,-25.06],[-5.19,-25.06],[-5.19,-25.0],[-5.25,-25.0],[-5.25,-24.94],[-5.38,-24.94],[-5.38,-25.0],[-5.5,-25.0],[-5.5,-25.06],[-5.56,-25.06],[-5.56,-25.12],[-5.62,-25.12],[-5.62,-25.25],[-5.69,-25.25],[-5.69,-25.81],[-5.81,-25.81],[-5.81,-25.75],[-5.88,-25.75],[-5.88,-25.69],[-5.94,-25.69],[-5.94,-25.62],[-6.0,-25.62],[-6.0,-25.56],[-6.06,-25.56],[-6.06,-25.5],[-6.12,-25.5],[-6.12,-25.44],[-6.19,-25.44],[-6.19,-25.38],[-6.25,-25.38],[-6.25,-25.31],[-6.38,-25.31],[-6.38,-25.25],[-6.5,-25.25],[-6.5,-25.19],[-6.56,-25.19],[-6.56,-25.12],[-6.62,-25.12],[-6.62,-25.0],[-6.69,-25.0],[-6.69,-24.94],[-6.75,-24.94],[-6.75,-24.81],[-6.81,-24.81],[-6.81,-24.75],[-6.94,-24.75],[-6.94,-24.69],[-7.0,-24.69],[-7.0,-24.62],[-7.06,-24.62],[-7.06,-24.56],[-7.19,-24.56],[-7.19,-24.5],[-7.25,-24.5],[-7.25,-24.38],[-7.31,-24.38],[-7.31,-24.19],[-7.38,-24.19],[-7.38,-24.06],[-7.44,-24.06],[-7.44,-23.88],[-7.5,-23.88],[-7.5,-23.75],[-7.56,-23.75],[-7.56,-23.5],[-7.5,-23.5],[-7.5,-23.31],[-7.44,-23.31],[-7.44,-23.25]],[[-7.31,-23.31],[-7.31,-23.38],[-7.38,-23.38],[-7.38,-23.44],[-7.44,-23.44],[-7.44,-23.56],[-7.5,-23.56],[-7.5,-23.69],[-7.44,-23.69],[-7.44,-23.88],[-7.38,-23.88],[-7.38,-24.0],[-7.31,-24.0],[-7.31,-24.12],[-7.25,-24.12],[-7.25,-24.19],[-7.19,-24.19],[-7.19,-24.31],[-7.12,-24.31],[-7.12,-24.38],[-7.06,-24.38],[-7.06,-24.44],[-6.94,-24.44],[-6.94,-24.5],[-6.88,-24.5],[-6.88,-24.56],[-6.81,-24.56],[-6.81,-24.62],[-6.75,-24.62],[-6.75,-24.69],[-6.69,-24.69],[-6.69,-24.75],[-6.62,-24.75],[-6.62,-24.88],[-6.56,-24.88],[-6.56,-24.94],[-6.5,-24.94],[-6.5,-25.0],[-6.44,-25.0],[-6.44,-25.06],[-6.12,-25.06],[-6.12,-24.94],[-6.06,-24.94],[-6.06,-24.88],[-6.12,-24.88],[-6.12,-24.75],[-6.19,-24.75],[-6.19,-24.62],[-6.25,-24.62],[-6.25,-24.5],[-6.31,-24.5],[-6.31,-24.44],[-6.38,-24.44],[-6.38,-24.38],[-6.44,-24.38],[-6.44,-24.31],[-6.5,-24.31],[-6.5,-24.25],[-6.56,-24.25],[-6.56,-24.19],[-6.62,-24.19],[-6.62,-24.12],[-6.69,-24.12],[-6.69,-24.0],[-6.75,-24.0],[-6.75,-23.88],[-6.81,-23.88],[-6.81,-23.75],[-6.88,-23.75],[-6.88,-23.56],[-6.94,-23.56],[-6.94,-23.44],[-7.0,-23.44],[-7.0,-23.38],[-7.12,-23.38],[-7.12,-23.31],[-7.31,-23.31]]]}},{"type":"Feature","properties":{"val":119.93,"field":"tp"},"geometry":{"type":"Polygon","coordinates":[[[-9.81,-25.5],[-9.56,-25.5],[-9.56,-25.56],[-9.5,-25.56],[-9.5,-26.0],[-9.44,-26.0],[-9.44,-26.12],[-9.38,-26.12],[-9.38,-26.38],[-9.56,-26.38],[-9.56,-26.31],[-9.69,-26.31],[-9.69,-26.25],[-9.75,-26.25],[-9.75,-26.19],[-9.88,-26.19],[-9.88,-26.06],[-9.94,-26.06],[-9.94,-26.0],[-10.0,-26.0],[-10.0,-25.88],[-10.06,-25.88],[-10.06,-25.81],[-10.0,-25.81],[-10.0,-25.69],[-9.94,-25.69],[-9.94,-25.62],[-9.88,-25.62],[-9.88,-25.56],[-9.81,-25.56],[-9.81,-25.5]]]}},{"type":"Feature","properties":{"val":187.95,"field":"tp"},"geometry":{"type":"Polygon","coordinates":[[[-6.0,-9.56],[-6.0,-9.69],[-5.94,-9.69],[-5.94,-9.56],[-6.0,-9.56]]]}},{"type":"Feature","properties":{"val":187.95,"field":"tp"},"geometry":{"type":"Polygon","coordinates":[[[-1.94,-10.06],[-1.88,-10.06],[-1.88,-10.19],[-2.0,-10.19],[-2.0,-10.12],[-1.94,-10.12],[-1.94,-10.06]]]}},{"type":"Feature","properties":{"val":187.95,"field":"tp"},"geometry":{"type":"Polygon","coordinates":[[[0.12,-8.88],[0.44,-8.88],[0.44,-8.94],[0.5,-8.94],[0.5,-9.06],[0.44,-9.06],[0.44,-9.19],[0.38,-9.19],[0.38,-9.25],[0.31,-9.25],[0.31,-9.31],[0.25,-9.31],[0.25,-9.38],[0.19,-9.38],[0.19,-9.56],[0.12,-9.56],[0.12,-9.75],[0.06,-9.75],[0.06,-9.81],[0.0,-9.81],[0.0,-10.19],[0.06,-10.19],[0.06,-10.31],[0.12,-10.31],[0.12,-10.38],[0.06,-10.38],[0.06,-10.5],[0.0,-10.5],[0.0,-10.56],[-0.06,-10.56],[-0.06,-10.75],[0.0,-10.75],[0.0,-11.12],[-0.06,-11.12],[-0.06,-11.25],[-0.19,-11.25],[-0.19,-11.31],[-0.5,-11.31],[-0.5,-11.25],[-0.62,-11.25],[-0.62,-11.19],[-0.69,-11.19],[-0.69,-11.12],[-0.75,-11.12],[-0.75,-10.94],[-0.69,-10.94],[-0.69,-10.88],[-0.62,-10.88],[-0.62,-10.81],[-0.56,-10.81],[-0.56,-10.75],[-0.5,-10.75],[-0.5,-10.69],[-0.44,-10.69],[-0.44,-10.62],[-0.38,-10.62],[-0.38,-10.56],[-0.31,-10.56],[-0.31,-10.44],[-0.25,-10.44],[-0.25,-10.25],[-0.31,-10.25],[-0.31,-10.19],[-0.38,-10.19],[-0.38,-10.12],[-0.5,-10.12],[-0.5,-10.06],[-0.75,-10.06],[-0.75,-10.0],[-0.88,-10.0],[-0.88,-9.88],[-0.94,-9.88],[-0.94,-9.62],[-0.88,-9.62],[-0.88,-9.5],[-0.81,-9.5],[-0.81,-9.44],[-0.75,-9.44],[-0.75,-9.38],[-0.62,-9.38],[-0.62,-9.31],[-0.56,-9.31],[-0.56,-9.25],[-0.44,-9.25],[-0.44,-9.19],[-0.19,-9.19],[-0.19,-9.12],[-0.06,-9.12],[-0.06,-9.06],[0.0,-9.06],[0.0,-9.0],[0.06,-9.0],[0.06,-8.94],[0.12,-8.94],[0.12,-8.88]],[[-0.44,-9.31],[-0.44,-9.38],[-0.56,-9.38],[-0.56,-9.44],[-0.69,-9.44],[-0.69,-9.5],[-0.75,-9.5],[-0.75,-9.62],[-0.81,-9.62],[-0.81,-9.69],[-0.75,-9.69],[-0.75,-9.81],[-0.38,-9.81],[-0.38,-9.75],[-0.19,-9.75],[-0.19,-9.69],[-0.06,-9.69],[-0.06,-9.56],[0.0,-9.56],[0.0,-9.31],[-0.12,-9.31],[-0.12,-9.38],[-0.31,-9.38],[-0.31,-9.31],[-0.44,-9.31]]]}},{"type":"Feature","properties":{"val":187.95,"field":"tp"},"geometry":{"type":"Polygon","coordinates":[[[-11.31,-9.88],[-11.06,-9.88],[-11.06,-9.94],[-10.94,-9.94],[-10.94,-10.0],[-10.88,-10.0],[-10.88,-10.06],[-10.81,-10.06],[-10.81,-10.19],[-10.5,-10.19],[-10.5,-10.25],[-10.44,-10.25],[-10.44,-10.31],[-10.38,-10.31],[-10.38,-10.44],[-10.44,-10.44],[-10.44,-10.75],[-10.38,-10.75],[-10.38,-10.88],[-10.31,-10.88],[-10.31,-11.0],[-10.25,-11.0],[-10.25,-11.19],[-10.31,-11.19],[-10.31,-11.38],[-10.38,-11.38],[-10.38,-11.44],[-10.56,-11.44],[-10.56,-11.38],[-10.81,-11.38],[-10.81,-11.31],[-10.94,-11.31],[-10.94,-11.25],[-11.12,-11.25],[-11.12,-11.19],[-11.44,-11.19],[-11.44,-11.12],[-11.56,-11.12],[-11.56,-11.06],[-11.62,-11.06],[-11.62,-10.88],[-11.69,-10.88],[-11.69,-10.75],[-11.75,-10.75],[-11.75,-10.5],[-11.69,-10.5],[-11.69,-10.38],[-11.62,-10.38],[-11.62,-10.31],[-11.56,-10.31],[-11.56,-10.25],[-11.5,-10.25],[-11.5,-10.19],[-11.44,-10.19],[-11.44,-10.0],[-11.38,-10.0],[-11.38,-9.94],[-11.31,-9.94],[-11.31,-9.88]],[[-11.31,-10.0],[-11.31,-10.06],[-11.38,-10.06],[-11.38,-10.19],[-11.44,-10.19],[-11.44,-10.25],[-11.5,-10.25],[-11.5,-10.31],[-11.56,-10.31],[-11.56,-10.38],[-11.62,-10.38],[-11.62,-10.5],[-11.69,-10.5],[-11.69,-10.75],[-11.62,-10.75],[-11.62,-10.88],[-11.56,-10.88],[-11.56,-10.94],[-11.5,-10.94],[-11.5,-11.0],[-11.44,-11.0],[-11.44,-11.06],[-11.31,-11.06],[-11.31,-11.12],[-11.0,-11.12],[-11.0,-11.19],[-10.88,-11.19],[-10.88,-11.25],[-10.5,-11.25],[-10.5,-11.19],[-10.44,-11.19],[-10.44,-11.06],[-10.5,-11.06],[-10.5,-10.88],[-10.56,-10.88],[-10.56,-10.44],[-10.62,-10.44],[-10.62,-10.38],[-10.88,-10.38],[-10.88,-10.31],[-10.94,-10.31],[-10.94,-10.25],[-11.0,-10.25],[-11.0,-10.06],[-11.06,-10.06],[-11.06,-10.0],[-11.31,-10.0]]]}},{"type":"Feature","properties":{"val":187.95,"field":"tp"},"geometry":{"type":"Polygon","coordinates":[[[-12.06,-11.0],[-11.88,-11.0],[-11.88,-11.06],[-11.81,-11.06],[-11.81,-11.12],[-11.75,-11.12],[-11.75,-11.31],[-11.81,-11.31],[-11.81,-11.44],[-12.06,-11.44],[-12.06,-11.38],[-12.12,-11.38],[-12.12,-11.06],[-12.06,-11.06],[-12.06,-11.0]]]}},{"type":"Feature","properties":{"val":187.95,"field":"tp"},"geometry":{"type":"Polygon","coordinates":[[[-5.0,-8.94],[-4.56,-8.94],[-4.56,-9.0],[-4.31,-9.0],[-4.31,-8.94],[-3.94,-8.94],[-3.94,-9.0],[-3.88,-9.0],[-3.88,-9.12],[-3.81,-9.12],[-3.81,-9.19],[-3.38,-9.19],[-3.38,-9.69],[-3.31,-9.69],[-3.31,-9.75],[-3.19,-9.75],[-3.19,-9.81],[-3.12,-9.81],[-3.12,-10.25],[-3.19,-10.25],[-3.19,-10.38],[-3.25,-10.38],[-3.25,-10.44],[-3.31,-10.44],[-3.31,-10.5],[-3.38,-10.5],[-3.38,-10.56],[-3.44,-10.56],[-3.44,-10.62],[-3.5,-10.62],[-3.5,-10.69],[-3.56,-10.69],[-3.56,-10.75],[-3.62,-10.75],[-3.62,-10.94],[-3.69,-10.94],[-3.69,-11.12],[-3.62,-11.12],[-3.62,-11.19],[-3.56,-11.19],[-3.56,-11.25],[-3.5,-11.25],[-3.5,-11.44],[-3.56,-11.44],[-3.56,-11.56],[-3.62,-11.56],[-3.62,-11.69],[-3.69,-11.69],[-3.69,-11.75],[-3.94,-11.75],[-3.94,-11.81],[-4.0,-11.81],[-4.0,-12.0],[-4.06,-12.0],[-4.06,-12.19],[-4.12,-12.19],[-4.12,-12.25],[-4.25,-12.25],[-4.25,-12.31],[-4.38,-12.31],[-4.38,-12.38],[-4.44,-12.38],[-4.44,-12.31],[-4.5,-12.31],[-4.5,-12.25],[-4.56,-12.25],[-4.56,-12.19],[-4.62,-12.19],[-4.62,-12.06],[-4.69,-12.06],[-4.69,-11.94],[-4.75,-11.94],[-4.75,-11.88],[-4.81,-11.88],[-4.81,-11.44],[-4.94,-11.44],[-4.94,-11.38],[-5.19,-11.38],[-5.19,-11.31],[-5.44,-11.31],[-5.44,-11.25],[-5.62,-11.25],[-5.62,-11.19],[-5.69,-11.19],[-5.69,-11.12],[-5.75,-11.12],[-5.75,-11.06],[-5.81,-11.06],[-5.81,-10.94],[-5.88,-10.94],[-5.88,-10.81],[-5.94,-10.81],[-5.94,-10.75],[-6.0,-10.75],[-6.0,-10.62],[-6.06,-10.62],[-6.06,-10.56],[-6.12,-10.56],[-6.12,-10.5],[-6.19,-10.5],[-6.19,-10.0],[-6.12,-10.0],[-6.12,-9.88],[-6.06,-9.88],[-6.06,-9.75],[-6.0,-9.75],[-6.0,-9.88],[-6.06,-9.88],[-6.06,-10.0],[-6.12,-10.0],[-6.12,-10.44],[-6.06,-10.44],[-6.06,-10.56],[-6.0,-10.56],[-6.0,-10.62],[-5.94,-10.62],[-5.94,-10.69],[-5.88,-10.69],[-5.88,-10.81],[-5.81,-10.81],[-5.81,-10.88],[-5.75,-10.88],[-5.75,-10.94],[-5.69,-10.94],[-5.69,-11.0],[-5.62,-11.0],[-5.62,-11.06],[-5.25,-11.06],[-5.25,-11.0],[-5.19,-11.0],[-5.19,-10.94],[-5.12,-10.94],[-5.12,-10.88],[-5.06,-10.88],[-5.06,-10.75],[-4.94,-10.75],[-4.94,-10.69],[-4.75,-10.69],[-4.75,-10.75],[-4.69,-10.75],[-4.69,-10.81],[-4.62,-10.81],[-4.62,-11.0],[-4.69,-11.0],[-4.69,-11.19],[-4.62,-11.19],[-4.62,-11.31],[-4.56,-11.31],[-4.56,-11.5],[-4.5,-11.5],[-4.5,-11.62],[-4.38,-11.62],[-4.38,-11.31],[-4.44,-11.31],[-4.44,-11.12],[-4.38,-11.12],[-4.38,-11.06],[-4.25,-11.06],[-4.25,-11.0],[-4.06,-11.0],[-4.06,-10.94],[-4.0,-10.94],[-4.0,-10.88],[-3.94,-10.88],[-3.94,-10.81],[-3.88,-10.81],[-3.88,-10.69],[-3.81,-10.69],[-3.81,-10.44],[-3.75,-10.44],[-3.75,-10.12],[-3.69,-10.12],[-3.69,-9.88],[-3.62,-9.88],[-3.62,-9.44],[-3.75,-9.44],[-3.75,-9.38],[-4.0,-9.38],[-4.0,-9.31],[-4.06,-9.31],[-4.06,-9.06],[-4.38,-9.06],[-4.38,-9.12],[-4.5,-9.12],[-4.5,-9.06],[-4.69,-9.06],[-4.69,-9.0],[-4.88,-9.0],[-4.88,-9.06],[-5.0,-9.06],[-5.0,-9.12],[-5.12,-9.12],[-5.12,-9.19],[-5.25,-9.19],[-5.25,-9.25],[-5.31,-9.25],[-5.31,-9.31],[-5.56,-9.31],[-5.56,-9.25],[-5.69,-9.25],[-5.69,-9.31],[-5.81,-9.31],[-5.81,-9.38],[-5.88,-9.38],[-5.88,-9.5],[-5.94,-9.5],[-5.94,-9.38],[-5.88,-9.38],[-5.88,-9.31],[-5.81,-9.31],[-5.81,-9.25],[-5.69,-9.25],[-5.69,-9.19],[-5.31,-9.19],[-5.31,-9.12],[-5.19,-9.12],[-5.19,-9.06],[-5.12,-9.06],[-5.12,-9.0],[-5.0,-9.0],[-5.0,-8.94]],[[-4.06,-11.25],[-4.06,-11.44],[-4.0,-11.44],[-4.0,-11.56],[-3.94,-11.56],[-3.94,-11.5],[-3.88,-11.5],[-3.88,-11.25],[-4.06,-11.25]]]}},{"type":"Feature","properties":{"val":187.95,"field":"tp"},"geometry":{"type":"Polygon","coordinates":[[[-7.31,-23.31],[-7.12,-23.31],[-7.12,-23.38],[-7.0,-23.38],[-7.0,-23.44],[-6.94,-23.44],[-6.94,-23.56],[-6.88,-23.56],[-6.88,-23.75],[-6.81,-23.75],[-6.81,-23.88],[-6.75,-23.88],[-6.75,-24.0],[-6.69,-24.0],[-6.69,-24.12],[-6.62,-24.12],[-6.62,-24.19],[-6.56,-24.19],[-6.56,-24.25],[-6.5,-24.25],[-6.5,-24.31],[-6.44,-24.31],[-6.44,-24.38],[-6.38,-24.38],[-6.38,-24.44],[-6.31,-24.44],[-6.31,-24.5],[-6.25,-24.5],[-6.25,-24.62],[-6.19,-24.62],[-6.19,-24.75],[-6.12,-24.75],[-6.12,-24.88],[-6.06,-24.88],[-6.06,-24.94],[-6.12,-24.94],[-6.12,-25.06],[-6.44,-25.06],[-6.44,-25.0],[-6.5,-25.0],[-6.5,-24.94],[-6.56,-24.94],[-6.56,-24.88],[-6.62,-24.88],[-6.62,-24.75],[-6.69,-24.75],[-6.69,-24.69],[-6.75,-24.69],[-6.75,-24.62],[-6.81,-24.62],[-6.81,-24.56],[-6.88,-24.56],[-6.88,-24.5],[-6.94,-24.5],[-6.94,-24.44],[-7.06,-24.44],[-7.06,-24.38],[-7.12,-24.38],[-7.12,-24.31],[-7.19,-24.31],[-7.19,-24.19],[-7.25,-24.19],[-7.25,-24.12],[-7.31,-24.12],[-7.31,-24.0],[-7.38,-24.0],[-7.38,-23.88],[-7.44,-23.88],[-7.44,-23.75],[-7.38,-23.75],[-7.38,-23.88],[-7.31,-23.88],[-7.31,-24.0],[-7.25,-24.0],[-7.25,-24.06],[-7.19,-24.06],[-7.19,-24.12],[-7.12,-24.12],[-7.12,-24.19],[-7.06,-24.19],[-7.06,-24.25],[-7.0,-24.25],[-7.0,-24.31],[-6.94,-24.31],[-6.94,-24.38],[-6.81,-24.38],[-6.81,-24.44],[-6.75,-24.44],[-6.75,-24.5],[-6.69,-24.5],[-6.69,-24.56],[-6.62,-24.56],[-6.62,-24.69],[-6.56,-24.69],[-6.56,-24.75],[-6.5,-24.75],[-6.5,-24.81],[-6.44,-24.81],[-6.44,-24.88],[-6.31,-24.88],[-6.31,-24.62],[-6.38,-24.62],[-6.38,-24.56],[-6.44,-24.56],[-6.44,-24.44],[-6.56,-24.44],[-6.56,-24.38],[-6.62,-24.38],[-6.62,-24.31],[-6.69,-24.31],[-6.69,-24.19],[-6.75,-24.19],[-6.75,-24.12],[-6.81,-24.12],[-6.81,-23.94],[-6.88,-23.94],[-6.88,-23.81],[-6.94,-23.81],[-6.94,-23.56],[-7.0,-23.56],[-7.0,-23.5],[-7.06,-23.5],[-7.06,-23.44],[-7.12,-23.44],[-7.12,-23.38],[-7.31,-23.38],[-7.31,-23.44],[-7.38,-23.44],[-7.38,-23.56],[-7.44,-23.56],[-7.44,-23.69],[-7.5,-23.69],[-7.5,-23.56],[-7.44,-23.56],[-7.44,-23.44],[-7.38,-23.44],[-7.38,-23.38],[-7.31,-23.38],[-7.31,-23.31]]]}},{"type":"Feature","properties":{"val":255.97,"field":"tp"},"geometry":{"type":"Polygon","coordinates":[[[-5.69,-9.25],[-5.69,-9.31],[-5.56,-9.31],[-5.56,-9.25],[-5.69,-9.25]]]}},{"type":"Feature","properties":{"val":255.97,"field":"tp"},"geometry":{"type":"Polygon","coordinates":[[[-5.81,-9.31],[-5.75,-9.31],[-5.75,-9.38],[-5.81,-9.38],[-5.81,-9.44],[-5.88,-9.44],[-5.88,-9.38],[-5.81,-9.38],[-5.81,-9.31]]]}},{"type":"Feature","properties":{"val":255.97,"field":"tp"},"geometry":{"type":"Polygon","coordinates":[[[-5.94,-9.5],[-5.94,-9.56],[-5.88,-9.56],[-5.88,-9.5],[-5.94,-9.5]]]}},{"type":"Feature","properties":{"val":255.97,"field":"tp"},"geometry":{"type":"Polygon","coordinates":[[[-0.44,-9.31],[-0.31,-9.31],[-0.31,-9.38],[-0.12,-9.38],[-0.12,-9.31],[0.0,-9.31],[0.0,-9.56],[-0.06,-9.56],[-0.06,-9.69],[-0.19,-9.69],[-0.19,-9.75],[-0.38,-9.75],[-0.38,-9.81],[-0.75,-9.81],[-0.75,-9.69],[-0.81,-9.69],[-0.81,-9.62],[-0.75,-9.62],[-0.75,-9.5],[-0.69,-9.5],[-0.69,-9.44],[-0.56,-9.44],[-0.56,-9.38],[-0.44,-9.38],[-0.44,-9.31]]]}},{"type":"Feature","properties":{"val":255.97,"field":"tp"},"geometry":{"type":"Polygon","coordinates":[[[-4.62,-9.5],[-4.44,-9.5],[-4.44,-9.56],[-4.5,-9.56],[-4.5,-9.62],[-4.69,-9.62],[-4.69,-9.56],[-4.62,-9.56],[-4.62,-9.5]]]}},{"type":"Feature","properties":{"val":255.97,"field":"tp"},"geometry":{"type":"Polygon","coordinates":[[[-6.0,-9.69],[-6.0,-9.75],[-5.94,-9.75],[-5.94,-9.69],[-6.0,-9.69]]]}},{"type":"Feature","properties":{"val":255.97,"field":"tp"},"geometry":{"type":"Polygon","coordinates":[[[-6.06,-9.88],[-6.06,-9.94],[-6.0,-9.94],[-6.0,-9.88],[-6.06,-9.88]]]}},{"type":"Feature","properties":{"val":255.97,"field":"tp"},"geometry":{"type":"Polygon","coordinates":[[[-11.31,-10.0],[-11.06,-10.0],[-11.06,-10.06],[-11.0,-10.06],[-11.0,-10.25],[-10.94,-10.25],[-10.94,-10.31],[-10.88,-10.31],[-10.88,-10.38],[-11.0,-10.38],[-11.0,-10.31],[-11.06,-10.31],[-11.06,-10.19],[-11.12,-10.19],[-11.12,-10.12],[-11.31,-10.12],[-11.31,-10.19],[-11.38,-10.19],[-11.38,-10.25],[-11.44,-10.25],[-11.44,-10.31],[-11.5,-10.31],[-11.5,-10.38],[-11.56,-10.38],[-11.56,-10.44],[-11.62,-10.44],[-11.62,-10.38],[-11.56,-10.38],[-11.56,-10.31],[-11.5,-10.31],[-11.5,-10.25],[-11.44,-10.25],[-11.44,-10.19],[-11.38,-10.19],[-11.38,-10.06],[-11.31,-10.06],[-11.31,-10.0]]]}},{"type":"Feature","properties":{"val":255.97,"field":"tp"},"geometry":{"type":"Polygon","coordinates":[[[-10.81,-10.38],[-10.62,-10.38],[-10.62,-10.44],[-10.56,-10.44],[-10.56,-10.88],[-10.5,-10.88],[-10.5,-11.06],[-10.44,-11.06],[-10.44,-11.19],[-10.5,-11.19],[-10.5,-11.25],[-10.88,-11.25],[-10.88,-11.19],[-11.0,-11.19],[-11.0,-11.12],[-11.31,-11.12],[-11.31,-11.06],[-11.44,-11.06],[-11.44,-11.0],[-11.5,-11.0],[-11.5,-10.94],[-11.56,-10.94],[-11.56,-10.88],[-11.62,-10.88],[-11.62,-10.75],[-11.69,-10.75],[-11.69,-10.5],[-11.62,-10.5],[-11.62,-10.75],[-11.56,-10.75],[-11.56,-10.88],[-11.5,-10.88],[-11.5,-10.94],[-11.38,-10.94],[-11.38,-11.0],[-11.25,-11.0],[-11.25,-11.06],[-10.88,-11.06],[-10.88,-11.12],[-10.62,-11.12],[-10.62,-10.5],[-10.69,-10.5],[-10.69,-10.44],[-10.81,-10.44],[-10.81,-10.38]]]}},{"type":"Feature","properties":{"val":255.97,"field":"tp"},"geometry":{"type":"Polygon","coordinates":[[[-0.5,-11.0],[-0.5,-11.12],[-0.31,-11.12],[-0.31,-11.0],[-0.5,-11.0]]]}},{"type":"Feature","properties":{"val":255.97,"field":"tp"},"geometry":{"type":"Polygon","coordinates":[[[-4.88,-9.0],[-4.69,-9.0],[-4.69,-9.06],[-4.5,-9.06],[-4.5,-9.12],[-4.38,-9.12],[-4.38,-9.06],[-4.06,-9.06],[-4.06,-9.31],[-4.0,-9.31],[-4.0,-9.38],[-3.75,-9.38],[-3.75,-9.44],[-3.62,-9.44],[-3.62,-9.88],[-3.69,-9.88],[-3.69,-10.12],[-3.75,-10.12],[-3.75,-10.44],[-3.81,-10.44],[-3.81,-10.69],[-3.88,-10.69],[-3.88,-10.81],[-3.94,-10.81],[-3.94,-10.88],[-4.0,-10.88],[-4.0,-10.94],[-4.06,-10.94],[-4.06,-11.0],[-4.25,-11.0],[-4.25,-11.06],[-4.38,-11.06],[-4.38,-11.12],[-4.44,-11.12],[-4.44,-11.31],[-4.38,-11.31],[-4.38,-11.62],[-4.5,-11.62],[-4.5,-11.5],[-4.56,-11.5],[-4.56,-11.31],[-4.62,-11.31],[-4.62,-11.19],[-4.69,-11.19],[-4.69,-11.0],[-4.62,-11.0],[-4.62,-10.81],[-4.69,-10.81],[-4.69,-10.75],[-4.75,-10.75],[-4.75,-10.69],[-4.94,-10.69],[-4.94,-10.75],[-5.06,-10.75],[-5.06,-10.88],[-5.12,-10.88],[-5.12,-10.94],[-5.19,-10.94],[-5.19,-11.0],[-5.25,-11.0],[-5.25,-11.06],[-5.62,-11.06],[-5.62,-11.0],[-5.69,-11.0],[-5.69,-10.94],[-5.75,-10.94],[-5.75,-10.88],[-5.81,-10.88],[-5.81,-10.81],[-5.88,-10.81],[-5.88,-10.69],[-5.94,-10.69],[-5.94,-10.62],[-6.0,-10.62],[-6.0,-10.56],[-6.06,-10.56],[-6.06,-10.44],[-6.12,-10.44],[-6.12,-10.0],[-6.06,-10.0],[-6.06,-10.44],[-6.0,-10.44],[-6.0,-10.5],[-5.94,-10.5],[-5.94,-10.62],[-5.88,-10.62],[-5.88,-10.69],[-5.81,-10.69],[-5.81,-10.75],[-5.75,-10.75],[-5.75,-10.81],[-5.69,-10.81],[-5.69,-10.88],[-5.38,-10.88],[-5.38,-10.81],[-5.25,-10.81],[-5.25,-10.75],[-5.19,-10.75],[-5.19,-10.69],[-5.06,-10.69],[-5.06,-10.62],[-5.0,-10.62],[-5.0,-10.56],[-4.81,-10.56],[-4.81,-10.5],[-4.75,-10.5],[-4.75,-10.56],[-4.62,-10.56],[-4.62,-10.62],[-4.56,-10.62],[-4.56,-10.75],[-4.5,-10.75],[-4.5,-10.81],[-4.44,-10.81],[-4.44,-10.88],[-4.12,-10.88],[-4.12,-10.81],[-4.06,-10.81],[-4.06,-10.69],[-4.0,-10.69],[-4.0,-10.38],[-3.94,-10.38],[-3.94,-10.25],[-3.88,-10.25],[-3.88,-10.06],[-3.81,-10.06],[-3.81,-9.81],[-3.75,-9.81],[-3.75,-9.56],[-3.81,-9.56],[-3.81,-9.5],[-3.88,-9.5],[-3.88,-9.44],[-4.19,-9.44],[-4.19,-9.38],[-4.25,-9.38],[-4.25,-9.31],[-4.31,-9.31],[-4.31,-9.25],[-4.44,-9.25],[-4.44,-9.19],[-4.62,-9.19],[-4.62,-9.12],[-5.0,-9.12],[-5.0,-9.19],[-5.12,-9.19],[-5.12,-9.25],[-5.19,-9.25],[-5.19,-9.31],[-5.25,-9.31],[-5.25,-9.38],[-5.5,-9.38],[-5.5,-9.31],[-5.31,-9.31],[-5.31,-9.25],[-5.25,-9.25],[-5.25,-9.19],[-5.12,-9.19],[-5.12,-9.12],[-5.0,-9.12],[-5.0,-9.06],[-4.88,-9.06],[-4.88,-9.0]]]}},{"type":"Feature","properties":{"val":255.97,"field":"tp"},"geometry":{"type":"Polygon","coordinates":[[[-7.31,-23.38],[-7.12,-23.38],[-7.12,-23.44],[-7.06,-23.44],[-7.06,-23.5],[-7.0,-23.5],[-7.0,-23.56],[-6.94,-23.56],[-6.94,-23.81],[-6.88,-23.81],[-6.88,-23.94],[-6.81,-23.94],[-6.81,-24.12],[-6.75,-24.12],[-6.75,-24.19],[-6.69,-24.19],[-6.69,-24.31],[-6.62,-24.31],[-6.62,-24.38],[-6.56,-24.38],[-6.56,-24.44],[-6.44,-24.44],[-6.44,-24.56],[-6.38,-24.56],[-6.38,-24.62],[-6.31,-24.62],[-6.31,-24.88],[-6.44,-24.88],[-6.44,-24.81],[-6.5,-24.81],[-6.5,-24.75],[-6.56,-24.75],[-6.56,-24.69],[-6.62,-24.69],[-6.62,-24.56],[-6.69,-24.56],[-6.69,-24.5],[-6.75,-24.5],[-6.75,-24.44],[-6.81,-24.44],[-6.81,-24.38],[-6.94,-24.38],[-6.94,-24.31],[-7.0,-24.31],[-7.0,-24.25],[-7.06,-24.25],[-7.06,-24.19],[-7.12,-24.19],[-7.12,-24.12],[-7.19,-24.12],[-7.19,-24.06],[-7.25,-24.06],[-7.25,-24.0],[-7.31,-24.0],[-7.31,-23.88],[-7.38,-23.88],[-7.38,-23.81],[-7.31,-23.81],[-7.31,-23.88],[-7.25,-23.88],[-7.25,-23.94],[-7.19,-23.94],[-7.19,-24.0],[-7.12,-24.0],[-7.12,-24.06],[-7.0,-24.06],[-7.0,-24.12],[-6.94,-24.12],[-6.94,-23.88],[-7.0,-23.88],[-7.0,-23.56],[-7.06,-23.56],[-7.06,-23.5],[-7.12,-23.5],[-7.12,-23.44],[-7.25,-23.44],[-7.25,-23.5],[-7.31,-23.5],[-7.31,-23.56],[-7.38,-23.56],[-7.38,-23.75],[-7.44,-23.75],[-7.44,-23.56],[-7.38,-23.56],[-7.38,-23.44],[-7.31,-23.44],[-7.31,-23.38]]]}},{"type":"Feature","properties":{"val":323.99,"field":"tp"},"geometry":{"type":"Polygon","coordinates":[[[-5.94,-9.56],[-5.94,-9.62],[-5.88,-9.62],[-5.88,-9.56],[-5.94,-9.56]]]}},{"type":"Feature","properties":{"val":323.99,"field":"tp"},"geometry":{"type":"Polygon","coordinates":[[[-6.0,-9.75],[-6.0,-9.81],[-5.94,-9.81],[-5.94,-9.75],[-6.0,-9.75]]]}},{"type":"Feature","properties":{"val":323.99,"field":"tp"},"geometry":{"type":"Polygon","coordinates":[[[-6.06,-9.94],[-6.06,-10.0],[-6.0,-10.0],[-6.0,-9.94],[-6.06,-9.94]]]}},{"type":"Feature","properties":{"val":323.99,"field":"tp"},"geometry":{"type":"Polygon","coordinates":[[[-11.31,-10.12],[-11.12,-10.12],[-11.12,-10.19],[-11.06,-10.19],[-11.06,-10.31],[-11.0,-10.31],[-11.0,-10.38],[-11.06,-10.38],[-11.06,-10.31],[-11.12,-10.31],[-11.12,-10.19],[-11.25,-10.19],[-11.25,-10.25],[-11.38,-10.25],[-11.38,-10.31],[-11.44,-10.31],[-11.44,-10.38],[-11.5,-10.38],[-11.5,-10.44],[-11.56,-10.44],[-11.56,-10.5],[-11.62,-10.5],[-11.62,-10.44],[-11.56,-10.44],[-11.56,-10.38],[-11.5,-10.38],[-11.5,-10.31],[-11.44,-10.31],[-11.44,-10.25],[-11.38,-10.25],[-11.38,-10.19],[-11.31,-10.19],[-11.31,-10.12]]]}},{"type":"Feature","properties":{"val":323.99,"field":"tp"},"geometry":{"type":"Polygon","coordinates":[[[-6.06,-10.31],[-6.06,-10.44],[-6.0,-10.44],[-6.0,-10.5],[-5.94,-10.5],[-5.94,-10.44],[-6.0,-10.44],[-6.0,-10.31],[-6.06,-10.31]]]}},{"type":"Feature","properties":{"val":323.99,"field":"tp"},"geometry":{"type":"Polygon","coordinates":[[[-5.0,-9.12],[-4.62,-9.12],[-4.62,-9.19],[-4.44,-9.19],[-4.44,-9.25],[-4.31,-9.25],[-4.31,-9.31],[-4.25,-9.31],[-4.25,-9.38],[-4.19,-9.38],[-4.19,-9.44],[-3.88,-9.44],[-3.88,-9.5],[-3.81,-9.5],[-3.81,-9.56],[-3.75,-9.56],[-3.75,-9.81],[-3.81,-9.81],[-3.81,-10.06],[-3.88,-10.06],[-3.88,-10.25],[-3.94,-10.25],[-3.94,-10.38],[-4.0,-10.38],[-4.0,-10.69],[-4.06,-10.69],[-4.06,-10.81],[-4.12,-10.81],[-4.12,-10.88],[-4.44,-10.88],[-4.44,-10.81],[-4.5,-10.81],[-4.5,-10.75],[-4.56,-10.75],[-4.56,-10.62],[-4.62,-10.62],[-4.62,-10.56],[-4.75,-10.56],[-4.75,-10.5],[-4.81,-10.5],[-4.81,-10.56],[-5.0,-10.56],[-5.0,-10.62],[-5.06,-10.62],[-5.06,-10.69],[-5.19,-10.69],[-5.19,-10.75],[-5.25,-10.75],[-5.25,-10.81],[-5.38,-10.81],[-5.38,-10.88],[-5.69,-10.88],[-5.69,-10.81],[-5.75,-10.81],[-5.75,-10.75],[-5.81,-10.75],[-5.81,-10.69],[-5.88,-10.69],[-5.88,-10.62],[-5.94,-10.62],[-5.94,-10.56],[-5.88,-10.56],[-5.88,-10.62],[-5.81,-10.62],[-5.81,-10.69],[-5.69,-10.69],[-5.69,-10.75],[-5.38,-10.75],[-5.38,-10.69],[-5.25,-10.69],[-5.25,-10.62],[-5.12,-10.62],[-5.12,-10.56],[-5.0,-10.56],[-5.0,-10.5],[-4.94,-10.5],[-4.94,-10.44],[-4.62,-10.44],[-4.62,-10.5],[-4.56,-10.5],[-4.56,-10.56],[-4.5,-10.56],[-4.5,-10.62],[-4.25,-10.62],[-4.25,-10.56],[-4.19,-10.56],[-4.19,-10.5],[-4.12,-10.5],[-4.12,-10.38],[-4.06,-10.38],[-4.06,-10.25],[-4.0,-10.25],[-4.0,-10.12],[-3.94,-10.12],[-3.94,-9.94],[-3.88,-9.94],[-3.88,-9.56],[-4.0,-9.56],[-4.0,-9.5],[-4.25,-9.5],[-4.25,-9.56],[-4.31,-9.56],[-4.31,-9.62],[-4.44,-9.62],[-4.44,-9.69],[-4.5,-9.69],[-4.5,-9.75],[-4.62,-9.75],[-4.62,-9.81],[-4.81,-9.81],[-4.81,-9.5],[-4.75,-9.5],[-4.75,-9.44],[-4.69,-9.44],[-4.69,-9.38],[-4.62,-9.38],[-4.62,-9.31],[-4.69,-9.31],[-4.69,-9.25],[-4.75,-9.25],[-4.75,-9.19],[-5.0,-9.19],[-5.0,-9.25],[-5.06,-9.25],[-5.06,-9.31],[-5.12,-9.31],[-5.12,-9.38],[-5.19,-9.38],[-5.19,-9.5],[-5.38,-9.5],[-5.38,-9.44],[-5.5,-9.44],[-5.5,-9.38],[-5.75,-9.38],[-5.75,-9.31],[-5.5,-9.31],[-5.5,-9.38],[-5.25,-9.38],[-5.25,-9.31],[-5.19,-9.31],[-5.19,-9.25],[-5.12,-9.25],[-5.12,-9.19],[-5.0,-9.19],[-5.0,-9.12]],[[-4.62,-9.5],[-4.62,-9.56],[-4.69,-9.56],[-4.69,-9.62],[-4.5,-9.62],[-4.5,-9.56],[-4.44,-9.56],[-4.44,-9.5],[-4.62,-9.5]]]}},{"type":"Feature","properties":{"val":323.99,"field":"tp"},"geometry":{"type":"Polygon","coordinates":[[[-11.62,-10.69],[-11.62,-10.75],[-11.56,-10.75],[-11.56,-10.69],[-11.62,-10.69]]]}},{"type":"Feature","properties":{"val":323.99,"field":"tp"},"geometry":{"type":"Polygon","coordinates":[[[-10.94,-10.38],[-10.81,-10.38],[-10.81,-10.44],[-10.69,-10.44],[-10.69,-10.5],[-10.62,-10.5],[-10.62,-11.12],[-10.88,-11.12],[-10.88,-11.06],[-11.25,-11.06],[-11.25,-11.0],[-11.38,-11.0],[-11.38,-10.94],[-11.5,-10.94],[-11.5,-10.88],[-11.56,-10.88],[-11.56,-10.81],[-11.5,-10.81],[-11.5,-10.88],[-11.38,-10.88],[-11.38,-10.94],[-11.25,-10.94],[-11.25,-11.0],[-11.06,-11.0],[-11.06,-10.94],[-10.81,-10.94],[-10.81,-10.88],[-10.75,-10.88],[-10.75,-10.75],[-10.69,-10.75],[-10.69,-10.56],[-10.75,-10.56],[-10.75,-10.5],[-10.81,-10.5],[-10.81,-10.44],[-10.94,-10.44],[-10.94,-10.38]]]}},{"type":"Feature","properties":{"val":323.99,"field":"tp"},"geometry":{"type":"Polygon","coordinates":[[[-7.25,-23.44],[-7.12,-23.44],[-7.12,-23.5],[-7.06,-23.5],[-7.06,-23.56],[-7.0,-23.56],[-7.0,-23.88],[-6.94,-23.88],[-6.94,-24.12],[-7.0,-24.12],[-7.0,-24.06],[-7.12,-24.06],[-7.12,-24.0],[-7.19,-24.0],[-7.19,-23.94],[-7.25,-23.94],[-7.25,-23.88],[-7.31,-23.88],[-7.31,-23.81],[-7.38,-23.81],[-7.38,-23.56],[-7.31,-23.56],[-7.31,-23.5],[-7.25,-23.5],[-7.25,-23.44]],[[-7.25,-23.5],[-7.25,-23.56],[-7.31,-23.56],[-7.31,-23.81],[-7.25,-23.81],[-7.25,-23.88],[-7.06,-23.88],[-7.06,-23.56],[-7.12,-23.56],[-7.12,-23.5],[-7.25,-23.5]]]}},{"type":"Feature","properties":{"val":392.01,"field":"tp"},"geometry":{"type":"Polygon","coordinates":[[[-5.81,-9.38],[-5.75,-9.38],[-5.75,-9.44],[-5.81,-9.44],[-5.81,-9.5],[-5.88,-9.5],[-5.88,-9.44],[-5.81,-9.44],[-5.81,-9.38]]]}},{"type":"Feature","properties":{"val":392.01,"field":"tp"},"geometry":{"type":"Polygon","coordinates":[[[-5.56,-9.38],[-5.56,-9.44],[-5.5,-9.44],[-5.5,-9.38],[-5.56,-9.38]]]}},{"type":"Feature","properties":{"val":392.01,"field":"tp"},"geometry":{"type":"Polygon","coordinates":[[[-5.94,-9.62],[-5.94,-9.69],[-5.88,-9.69],[-5.88,-9.62],[-5.94,-9.62]]]}},{"type":"Feature","properties":{"val":392.01,"field":"tp"},"geometry":{"type":"Polygon","coordinates":[[[-6.0,-9.81],[-6.0,-9.88],[-5.94,-9.88],[-5.94,-9.81],[-6.0,-9.81]]]}},{"type":"Feature","properties":{"val":392.01,"field":"tp"},"geometry":{"type":"Polygon","coordinates":[[[-6.06,-10.0],[-6.06,-10.31],[-6.0,-10.31],[-6.0,-10.0],[-6.06,-10.0]]]}},{"type":"Feature","properties":{"val":392.01,"field":"tp"},"geometry":{"type":"Polygon","coordinates":[[[-6.0,-10.38],[-6.0,-10.44],[-5.94,-10.44],[-5.94,-10.38],[-6.0,-10.38]]]}},{"type":"Feature","properties":{"val":392.01,"field":"tp"},"geometry":{"type":"Polygon","coordinates":[[[-11.25,-10.19],[-11.12,-10.19],[-11.12,-10.31],[-11.06,-10.31],[-11.06,-10.38],[-11.12,-10.38],[-11.12,-10.31],[-11.19,-10.31],[-11.19,-10.25],[-11.25,-10.25],[-11.25,-10.31],[-11.38,-10.31],[-11.38,-10.38],[-11.44,-10.38],[-11.44,-10.44],[-11.5,-10.44],[-11.5,-10.5],[-11.56,-10.5],[-11.56,-10.69],[-11.62,-10.69],[-11.62,-10.5],[-11.56,-10.5],[-11.56,-10.44],[-11.5,-10.44],[-11.5,-10.38],[-11.44,-10.38],[-11.44,-10.31],[-11.38,-10.31],[-11.38,-10.25],[-11.25,-10.25],[-11.25,-10.19]]]}},{"type":"Feature","properties":{"val":392.01,"field":"tp"},"geometry":{"type":"Polygon","coordinates":[[[-5.0,-9.19],[-4.75,-9.19],[-4.75,-9.25],[-4.69,-9.25],[-4.69,-9.31],[-4.62,-9.31],[-4.62,-9.38],[-4.69,-9.38],[-4.69,-9.44],[-4.75,-9.44],[-4.75,-9.5],[-4.81,-9.5],[-4.81,-9.81],[-4.62,-9.81],[-4.62,-9.75],[-4.5,-9.75],[-4.5,-9.69],[-4.44,-9.69],[-4.44,-9.62],[-4.31,-9.62],[-4.31,-9.56],[-4.25,-9.56],[-4.25,-9.5],[-4.0,-9.5],[-4.0,-9.56],[-3.88,-9.56],[-3.88,-9.94],[-3.94,-9.94],[-3.94,-10.12],[-4.0,-10.12],[-4.0,-10.25],[-4.06,-10.25],[-4.06,-10.38],[-4.12,-10.38],[-4.12,-10.5],[-4.19,-10.5],[-4.19,-10.56],[-4.25,-10.56],[-4.25,-10.62],[-4.5,-10.62],[-4.5,-10.56],[-4.56,-10.56],[-4.56,-10.5],[-4.62,-10.5],[-4.62,-10.44],[-4.94,-10.44],[-4.94,-10.5],[-5.0,-10.5],[-5.0,-10.56],[-5.12,-10.56],[-5.12,-10.62],[-5.25,-10.62],[-5.25,-10.69],[-5.38,-10.69],[-5.38,-10.75],[-5.69,-10.75],[-5.69,-10.69],[-5.81,-10.69],[-5.81,-10.62],[-5.88,-10.62],[-5.88,-10.56],[-5.94,-10.56],[-5.94,-10.5],[-5.88,-10.5],[-5.88,-10.56],[-5.81,-10.56],[-5.81,-10.62],[-5.69,-10.62],[-5.69,-10.69],[-5.44,-10.69],[-5.44,-10.62],[-5.25,-10.62],[-5.25,-10.56],[-5.12,-10.56],[-5.12,-10.5],[-5.0,-10.5],[-5.0,-10.44],[-4.94,-10.44],[-4.94,-10.38],[-4.88,-10.38],[-4.88,-10.31],[-4.81,-10.31],[-4.81,-10.25],[-4.62,-10.25],[-4.62,-10.31],[-4.56,-10.31],[-4.56,-10.44],[-4.44,-10.44],[-4.44,-10.5],[-4.31,-10.5],[-4.31,-10.44],[-4.25,-10.44],[-4.25,-10.38],[-4.19,-10.38],[-4.19,-10.31],[-4.12,-10.31],[-4.12,-10.25],[-4.06,-10.25],[-4.06,-10.12],[-4.0,-10.12],[-4.0,-9.88],[-3.94,-9.88],[-3.94,-9.69],[-4.0,-9.69],[-4.0,-9.62],[-4.06,-9.62],[-4.06,-9.56],[-4.19,-9.56],[-4.19,-9.62],[-4.31,-9.62],[-4.31,-9.69],[-4.38,-9.69],[-4.38,-9.75],[-4.5,-9.75],[-4.5,-9.81],[-4.56,-9.81],[-4.56,-9.88],[-4.62,-9.88],[-4.62,-9.94],[-4.88,-9.94],[-4.88,-9.88],[-4.94,-9.88],[-4.94,-9.75],[-5.0,-9.75],[-5.0,-9.62],[-4.94,-9.62],[-4.94,-9.56],[-4.88,-9.56],[-4.88,-9.44],[-4.81,-9.44],[-4.81,-9.31],[-5.0,-9.31],[-5.0,-9.38],[-5.06,-9.38],[-5.06,-9.62],[-5.25,-9.62],[-5.25,-9.56],[-5.38,-9.56],[-5.38,-9.5],[-5.44,-9.5],[-5.44,-9.44],[-5.38,-9.44],[-5.38,-9.5],[-5.19,-9.5],[-5.19,-9.38],[-5.12,-9.38],[-5.12,-9.31],[-5.06,-9.31],[-5.06,-9.25],[-5.0,-9.25],[-5.0,-9.19]]]}},{"type":"Feature","properties":{"val":392.01,"field":"tp"},"geometry":{"type":"Polygon","coordinates":[[[-11.56,-10.75],[-11.56,-10.81],[-11.5,-10.81],[-11.5,-10.88],[-11.44,-10.88],[-11.44,-10.81],[-11.5,-10.81],[-11.5,-10.75],[-11.56,-10.75]]]}},{"type":"Feature","properties":{"val":392.01,"field":"tp"},"geometry":{"type":"Polygon","coordinates":[[[-11.38,-10.88],[-11.38,-10.94],[-11.31,-10.94],[-11.31,-10.88],[-11.38,-10.88]]]}},{"type":"Feature","properties":{"val":392.01,"field":"tp"},"geometry":{"type":"Polygon","coordinates":[[[-11.0,-10.38],[-10.94,-10.38],[-10.94,-10.44],[-10.81,-10.44],[-10.81,-10.5],[-10.75,-10.5],[-10.75,-10.56],[-10.69,-10.56],[-10.69,-10.75],[-10.75,-10.75],[-10.75,-10.88],[-10.81,-10.88],[-10.81,-10.94],[-11.06,-10.94],[-11.06,-11.0],[-11.25,-11.0],[-11.25,-10.94],[-11.06,-10.94],[-11.06,-10.88],[-10.94,-10.88],[-10.94,-10.81],[-10.81,-10.81],[-10.81,-10.69],[-10.75,-10.69],[-10.75,-10.56],[-10.81,-10.56],[-10.81,-10.5],[-10.94,-10.5],[-10.94,-10.44],[-11.0,-10.44],[-11.0,-10.38]]]}},{"type":"Feature","properties":{"val":392.01,"field":"tp"},"geometry":{"type":"Polygon","coordinates":[[[-7.25,-23.5],[-7.12,-23.5],[-7.12,-23.56],[-7.06,-23.56],[-7.06,-23.88],[-7.25,-23.88],[-7.25,-23.81],[-7.31,-23.81],[-7.31,-23.56],[-7.25,-23.56],[-7.25,-23.5]],[[-7.25,-23.56],[-7.25,-23.75],[-7.19,-23.75],[-7.19,-23.81],[-7.12,-23.81],[-7.12,-23.56],[-7.25,-23.56]]]}},{"type":"Feature","properties":{"val":460.03,"field":"tp"},"geometry":{"type":"Polygon","coordinates":[[[-5.75,-9.38],[-5.75,-9.44],[-5.56,-9.44],[-5.56,-9.38],[-5.75,-9.38]]]}},{"type":"Feature","properties":{"val":460.03,"field":"tp"},"geometry":{"type":"Polygon","coordinates":[[[-5.88,-9.5],[-5.88,-9.56],[-5.81,-9.56],[-5.81,-9.5],[-5.88,-9.5]]]}},{"type":"Feature","properties":{"val":460.03,"field":"tp"},"geometry":{"type":"Polygon","coordinates":[[[-5.94,-9.69],[-5.94,-9.81],[-5.88,-9.81],[-5.88,-9.69],[-5.94,-9.69]]]}},{"type":"Feature","properties":{"val":460.03,"field":"tp"},"geometry":{"type":"Polygon","coordinates":[[[-6.0,-9.88],[-6.0,-9.94],[-5.94,-9.94],[-5.94,-9.88],[-6.0,-9.88]]]}},{"type":"Feature","properties":{"val":460.03,"field":"tp"},"geometry":{"type":"Polygon","coordinates":[[[-11.25,-10.25],[-11.19,-10.25],[-11.19,-10.31],[-11.12,-10.31],[-11.12,-10.38],[-11.19,-10.38],[-11.19,-10.31],[-11.25,-10.31],[-11.25,-10.38],[-11.38,-10.38],[-11.38,-10.44],[-11.44,-10.44],[-11.44,-10.38],[-11.38,-10.38],[-11.38,-10.31],[-11.25,-10.31],[-11.25,-10.25]]]}},{"type":"Feature","properties":{"val":460.03,"field":"tp"},"geometry":{"type":"Polygon","coordinates":[[[-6.0,-10.31],[-6.0,-10.38],[-5.94,-10.38],[-5.94,-10.31],[-6.0,-10.31]]]}},{"type":"Feature","properties":{"val":460.03,"field":"tp"},"geometry":{"type":"Polygon","coordinates":[[[-11.06,-10.38],[-11.06,-10.44],[-11.0,-10.44],[-11.0,-10.5],[-10.94,-10.5],[-10.94,-10.44],[-11.0,-10.44],[-11.0,-10.38],[-11.06,-10.38]]]}},{"type":"Feature","properties":{"val":460.03,"field":"tp"},"geometry":{"type":"Polygon","coordinates":[[[-11.56,-10.5],[-11.56,-10.56],[-11.5,-10.56],[-11.5,-10.5],[-11.56,-10.5]]]}},{"type":"Feature","properties":{"val":460.03,"field":"tp"},"geometry":{"type":"Polygon","coordinates":[[[-5.94,-10.44],[-5.94,-10.5],[-5.88,-10.5],[-5.88,-10.56],[-5.81,-10.56],[-5.81,-10.62],[-5.75,-10.62],[-5.75,-10.56],[-5.81,-10.56],[-5.81,-10.5],[-5.88,-10.5],[-5.88,-10.44],[-5.94,-10.44]]]}},{"type":"Feature","properties":{"val":460.03,"field":"tp"},"geometry":{"type":"Polygon","coordinates":[[[-5.0,-9.31],[-4.81,-9.31],[-4.81,-9.44],[-4.88,-9.44],[-4.88,-9.56],[-4.94,-9.56],[-4.94,-9.62],[-5.0,-9.62],[-5.0,-9.75],[-4.94,-9.75],[-4.94,-9.88],[-4.88,-9.88],[-4.88,-9.94],[-4.62,-9.94],[-4.62,-9.88],[-4.56,-9.88],[-4.56,-9.81],[-4.5,-9.81],[-4.5,-9.75],[-4.38,-9.75],[-4.38,-9.69],[-4.31,-9.69],[-4.31,-9.62],[-4.19,-9.62],[-4.19,-9.56],[-4.06,-9.56],[-4.06,-9.62],[-4.0,-9.62],[-4.0,-9.69],[-3.94,-9.69],[-3.94,-9.88],[-4.0,-9.88],[-4.0,-10.12],[-4.06,-10.12],[-4.06,-10.25],[-4.12,-10.25],[-4.12,-10.31],[-4.19,-10.31],[-4.19,-10.38],[-4.25,-10.38],[-4.25,-10.44],[-4.31,-10.44],[-4.31,-10.5],[-4.44,-10.5],[-4.44,-10.44],[-4.56,-10.44],[-4.56,-10.31],[-4.62,-10.31],[-4.62,-10.25],[-4.81,-10.25],[-4.81,-10.31],[-4.88,-10.31],[-4.88,-10.38],[-4.94,-10.38],[-4.94,-10.44],[-5.0,-10.44],[-5.0,-10.5],[-5.12,-10.5],[-5.12,-10.56],[-5.25,-10.56],[-5.25,-10.62],[-5.44,-10.62],[-5.44,-10.69],[-5.69,-10.69],[-5.69,-10.62],[-5.44,-10.62],[-5.44,-10.56],[-5.25,-10.56],[-5.25,-10.5],[-5.12,-10.5],[-5.12,-10.44],[-5.06,-10.44],[-5.06,-10.38],[-5.0,-10.38],[-5.0,-10.31],[-4.94,-10.31],[-4.94,-10.25],[-4.88,-10.25],[-4.88,-10.06],[-4.94,-10.06],[-4.94,-9.94],[-5.0,-9.94],[-5.0,-9.88],[-5.06,-9.88],[-5.06,-9.75],[-5.12,-9.75],[-5.12,-9.69],[-5.25,-9.69],[-5.25,-9.62],[-5.38,-9.62],[-5.38,-9.56],[-5.44,-9.56],[-5.44,-9.5],[-5.5,-9.5],[-5.5,-9.44],[-5.44,-9.44],[-5.44,-9.5],[-5.38,-9.5],[-5.38,-9.56],[-5.25,-9.56],[-5.25,-9.62],[-5.06,-9.62],[-5.06,-9.38],[-5.0,-9.38],[-5.0,-9.31]],[[-4.31,-9.69],[-4.31,-9.75],[-4.38,-9.75],[-4.38,-9.81],[-4.44,-9.81],[-4.44,-10.31],[-4.25,-10.31],[-4.25,-10.25],[-4.19,-10.25],[-4.19,-10.19],[-4.12,-10.19],[-4.12,-10.06],[-4.06,-10.06],[-4.06,-9.88],[-4.0,-9.88],[-4.0,-9.81],[-4.06,-9.81],[-4.06,-9.69],[-4.31,-9.69]]]}},{"type":"Feature","properties":{"val":460.03,"field":"tp"},"geometry":{"type":"Polygon","coordinates":[[[-10.88,-10.5],[-10.81,-10.5],[-10.81,-10.56],[-10.75,-10.56],[-10.75,-10.69],[-10.81,-10.69],[-10.81,-10.81],[-10.94,-10.81],[-10.94,-10.88],[-11.06,-10.88],[-11.06,-10.94],[-11.31,-10.94],[-11.31,-10.88],[-11.44,-10.88],[-11.44,-10.81],[-11.5,-10.81],[-11.5,-10.75],[-11.56,-10.75],[-11.56,-10.69],[-11.5,-10.69],[-11.5,-10.75],[-11.44,-10.75],[-11.44,-10.81],[-11.31,-10.81],[-11.31,-10.88],[-11.06,-10.88],[-11.06,-10.81],[-10.94,-10.81],[-10.94,-10.75],[-10.88,-10.75],[-10.88,-10.69],[-10.81,-10.69],[-10.81,-10.62],[-10.88,-10.62],[-10.88,-10.5]]]}},{"type":"Feature","properties":{"val":460.03,"field":"tp"},"geometry":{"type":"Polygon","coordinates":[[[-7.25,-23.56],[-7.25,-23.75],[-7.19,-23.75],[-7.19,-23.81],[-7.12,-23.81],[-7.12,-23.56],[-7.25,-23.56]]]}},{"type":"Feature","properties":{"val":528.05,"field":"tp"},"geometry":{"type":"Polygon","coordinates":[[[-5.81,-9.44],[-5.81,-9.5],[-5.75,-9.5],[-5.75,-9.44],[-5.81,-9.44]]]}},{"type":"Feature","properties":{"val":528.05,"field":"tp"},"geometry":{"type":"Polygon","coordinates":[[[-5.56,-9.44],[-5.56,-9.5],[-5.5,-9.5],[-5.5,-9.56],[-5.44,-9.56],[-5.44,-9.62],[-5.38,-9.62],[-5.38,-9.56],[-5.44,-9.56],[-5.44,-9.5],[-5.5,-9.5],[-5.5,-9.44],[-5.56,-9.44]]]}},{"type":"Feature","properties":{"val":528.05,"field":"tp"},"geometry":{"type":"Polygon","coordinates":[[[-5.88,-9.56],[-5.88,-9.62],[-5.81,-9.62],[-5.81,-9.56],[-5.88,-9.56]]]}},{"type":"Feature","properties":{"val":528.05,"field":"tp"},"geometry":{"type":"Polygon","coordinates":[[[-6.0,-9.94],[-6.0,-10.0],[-5.94,-10.0],[-5.94,-9.94],[-6.0,-9.94]]]}},{"type":"Feature","properties":{"val":528.05,"field":"tp"},"geometry":{"type":"Polygon","coordinates":[[[-4.31,-9.69],[-4.06,-9.69],[-4.06,-9.81],[-4.0,-9.81],[-4.0,-9.88],[-4.06,-9.88],[-4.06,-10.06],[-4.12,-10.06],[-4.12,-10.19],[-4.19,-10.19],[-4.19,-10.25],[-4.25,-10.25],[-4.25,-10.31],[-4.44,-10.31],[-4.44,-9.81],[-4.38,-9.81],[-4.38,-9.75],[-4.31,-9.75],[-4.31,-9.69]],[[-4.25,-9.75],[-4.25,-9.81],[-4.31,-9.81],[-4.31,-9.88],[-4.38,-9.88],[-4.38,-10.0],[-4.31,-10.0],[-4.31,-10.06],[-4.19,-10.06],[-4.19,-10.0],[-4.12,-10.0],[-4.12,-9.75],[-4.25,-9.75]]]}},{"type":"Feature","properties":{"val":528.05,"field":"tp"},"geometry":{"type":"Polygon","coordinates":[[[-6.0,-10.25],[-6.0,-10.31],[-5.94,-10.31],[-5.94,-10.25],[-6.0,-10.25]]]}},{"type":"Feature","properties":{"val":528.05,"field":"tp"},"geometry":{"type":"Polygon","coordinates":[[[-11.25,-10.31],[-11.25,-10.38],[-11.19,-10.38],[-11.19,-10.31],[-11.25,-10.31]]]}},{"type":"Feature","properties":{"val":528.05,"field":"tp"},"geometry":{"type":"Polygon","coordinates":[[[-11.38,-10.38],[-11.38,-10.44],[-11.31,-10.44],[-11.31,-10.38],[-11.38,-10.38]]]}},{"type":"Feature","properties":{"val":528.05,"field":"tp"},"geometry":{"type":"Polygon","coordinates":[[[-11.5,-10.44],[-11.5,-10.5],[-11.44,-10.5],[-11.44,-10.44],[-11.5,-10.44]]]}},{"type":"Feature","properties":{"val":528.05,"field":"tp"},"geometry":{"type":"Polygon","coordinates":[[[-5.31,-9.62],[-5.25,-9.62],[-5.25,-9.69],[-5.12,-9.69],[-5.12,-9.75],[-5.06,-9.75],[-5.06,-9.88],[-5.0,-9.88],[-5.0,-9.94],[-4.94,-9.94],[-4.94,-10.06],[-4.88,-10.06],[-4.88,-10.25],[-4.94,-10.25],[-4.94,-10.31],[-5.0,-10.31],[-5.0,-10.38],[-5.06,-10.38],[-5.06,-10.44],[-5.12,-10.44],[-5.12,-10.5],[-5.25,-10.5],[-5.25,-10.56],[-5.38,-10.56],[-5.38,-10.5],[-5.25,-10.5],[-5.25,-10.44],[-5.12,-10.44],[-5.12,-10.38],[-5.06,-10.38],[-5.06,-10.31],[-5.0,-10.31],[-5.0,-10.0],[-5.06,-10.0],[-5.06,-9.88],[-5.12,-9.88],[-5.12,-9.81],[-5.19,-9.81],[-5.19,-9.75],[-5.25,-9.75],[-5.25,-9.69],[-5.31,-9.69],[-5.31,-9.62]]]}},{"type":"Feature","properties":{"val":528.05,"field":"tp"},"geometry":{"type":"Polygon","coordinates":[[[-5.94,-10.38],[-5.94,-10.44],[-5.88,-10.44],[-5.88,-10.5],[-5.81,-10.5],[-5.81,-10.56],[-5.75,-10.56],[-5.75,-10.62],[-5.44,-10.62],[-5.44,-10.56],[-5.75,-10.56],[-5.75,-10.5],[-5.81,-10.5],[-5.81,-10.44],[-5.88,-10.44],[-5.88,-10.38],[-5.94,-10.38]]]}},{"type":"Feature","properties":{"val":528.05,"field":"tp"},"geometry":{"type":"Polygon","coordinates":[[[-11.56,-10.56],[-11.56,-10.69],[-11.5,-10.69],[-11.5,-10.75],[-11.44,-10.75],[-11.44,-10.81],[-11.38,-10.81],[-11.38,-10.75],[-11.44,-10.75],[-11.44,-10.69],[-11.5,-10.69],[-11.5,-10.56],[-11.56,-10.56]]]}},{"type":"Feature","properties":{"val":528.05,"field":"tp"},"geometry":{"type":"Polygon","coordinates":[[[-11.12,-10.38],[-11.06,-10.38],[-11.06,-10.44],[-11.0,-10.44],[-11.0,-10.5],[-10.88,-10.5],[-10.88,-10.62],[-10.81,-10.62],[-10.81,-10.69],[-10.88,-10.69],[-10.88,-10.75],[-10.94,-10.75],[-10.94,-10.81],[-11.06,-10.81],[-11.06,-10.88],[-11.31,-10.88],[-11.31,-10.81],[-11.06,-10.81],[-11.06,-10.75],[-10.94,-10.75],[-10.94,-10.56],[-11.0,-10.56],[-11.0,-10.5],[-11.06,-10.5],[-11.06,-10.44],[-11.12,-10.44],[-11.12,-10.38]]]}},{"type":"Feature","properties":{"val":596.08,"field":"tp"},"geometry":{"type":"Polygon","coordinates":[[[-5.75,-9.44],[-5.56,-9.44],[-5.56,-9.5],[-5.75,-9.5],[-5.75,-9.56],[-5.81,-9.56],[-5.81,-9.5],[-5.75,-9.5],[-5.75,-9.44]]]}},{"type":"Feature","properties":{"val":596.08,"field":"tp"},"geometry":{"type":"Polygon","coordinates":[[[-5.88,-9.62],[-5.88,-9.69],[-5.81,-9.69],[-5.81,-9.62],[-5.88,-9.62]]]}},{"type":"Feature","properties":{"val":596.08,"field":"tp"},"geometry":{"type":"Polygon","coordinates":[[[-4.25,-9.75],[-4.12,-9.75],[-4.12,-10.0],[-4.19,-10.0],[-4.19,-10.06],[-4.31,-10.06],[-4.31,-10.0],[-4.38,-10.0],[-4.38,-9.88],[-4.31,-9.88],[-4.31,-9.81],[-4.25,-9.81],[-4.25,-9.75]]]}},{"type":"Feature","properties":{"val":596.08,"field":"tp"},"geometry":{"type":"Polygon","coordinates":[[[-5.94,-9.81],[-5.94,-9.88],[-5.88,-9.88],[-5.88,-9.81],[-5.94,-9.81]]]}},{"type":"Feature","properties":{"val":596.08,"field":"tp"},"geometry":{"type":"Polygon","coordinates":[[[-5.38,-9.62],[-5.31,-9.62],[-5.31,-9.69],[-5.25,-9.69],[-5.25,-9.75],[-5.19,-9.75],[-5.19,-9.81],[-5.12,-9.81],[-5.12,-9.88],[-5.06,-9.88],[-5.06,-10.0],[-5.0,-10.0],[-5.0,-10.31],[-5.06,-10.31],[-5.06,-10.38],[-5.12,-10.38],[-5.12,-10.44],[-5.19,-10.44],[-5.19,-10.38],[-5.12,-10.38],[-5.12,-10.31],[-5.06,-10.31],[-5.06,-10.0],[-5.12,-10.0],[-5.12,-9.88],[-5.19,-9.88],[-5.19,-9.81],[-5.25,-9.81],[-5.25,-9.75],[-5.31,-9.75],[-5.31,-9.69],[-5.38,-9.69],[-5.38,-9.62]]]}},{"type":"Feature","properties":{"val":596.08,"field":"tp"},"geometry":{"type":"Polygon","coordinates":[[[-6.0,-10.0],[-6.0,-10.25],[-5.94,-10.25],[-5.94,-10.0],[-6.0,-10.0]]]}},{"type":"Feature","properties":{"val":596.08,"field":"tp"},"geometry":{"type":"Polygon","coordinates":[[[-5.94,-10.31],[-5.94,-10.38],[-5.88,-10.38],[-5.88,-10.31],[-5.94,-10.31]]]}},{"type":"Feature","properties":{"val":596.08,"field":"tp"},"geometry":{"type":"Polygon","coordinates":[[[-5.31,-10.44],[-5.31,-10.5],[-5.25,-10.5],[-5.25,-10.44],[-5.31,-10.44]]]}},{"type":"Feature","properties":{"val":596.08,"field":"tp"},"geometry":{"type":"Polygon","coordinates":[[[-5.75,-10.5],[-5.75,-10.56],[-5.69,-10.56],[-5.69,-10.5],[-5.75,-10.5]]]}},{"type":"Feature","properties":{"val":596.08,"field":"tp"},"geometry":{"type":"Polygon","coordinates":[[[-5.56,-10.5],[-5.56,-10.56],[-5.38,-10.56],[-5.38,-10.5],[-5.56,-10.5]]]}},{"type":"Feature","properties":{"val":596.08,"field":"tp"},"geometry":{"type":"Polygon","coordinates":[[[-11.31,-10.38],[-11.12,-10.38],[-11.12,-10.44],[-11.06,-10.44],[-11.06,-10.5],[-11.0,-10.5],[-11.0,-10.56],[-10.94,-10.56],[-10.94,-10.75],[-11.06,-10.75],[-11.06,-10.81],[-11.38,-10.81],[-11.38,-10.75],[-11.44,-10.75],[-11.44,-10.69],[-11.5,-10.69],[-11.5,-10.5],[-11.44,-10.5],[-11.44,-10.44],[-11.38,-10.44],[-11.38,-10.5],[-11.44,-10.5],[-11.44,-10.69],[-11.38,-10.69],[-11.38,-10.75],[-11.06,-10.75],[-11.06,-10.69],[-11.0,-10.69],[-11.0,-10.56],[-11.06,-10.56],[-11.06,-10.5],[-11.12,-10.5],[-11.12,-10.44],[-11.31,-10.44],[-11.31,-10.38]]]}},{"type":"Feature","properties":{"val":664.1,"field":"tp"},"geometry":{"type":"Polygon","coordinates":[[[-5.56,-9.5],[-5.56,-9.56],[-5.5,-9.56],[-5.5,-9.62],[-5.44,-9.62],[-5.44,-9.69],[-5.38,-9.69],[-5.38,-9.75],[-5.31,-9.75],[-5.31,-9.81],[-5.25,-9.81],[-5.25,-9.88],[-5.19,-9.88],[-5.19,-9.94],[-5.12,-9.94],[-5.12,-9.88],[-5.19,-9.88],[-5.19,-9.81],[-5.25,-9.81],[-5.25,-9.75],[-5.31,-9.75],[-5.31,-9.69],[-5.38,-9.69],[-5.38,-9.62],[-5.44,-9.62],[-5.44,-9.56],[-5.5,-9.56],[-5.5,-9.5],[-5.56,-9.5]]]}},{"type":"Feature","properties":{"val":664.1,"field":"tp"},"geometry":{"type":"Polygon","coordinates":[[[-5.88,-9.69],[-5.88,-9.75],[-5.81,-9.75],[-5.81,-9.69],[-5.88,-9.69]]]}},{"type":"Feature","properties":{"val":664.1,"field":"tp"},"geometry":{"type":"Polygon","coordinates":[[[-5.94,-9.88],[-5.94,-9.94],[-5.88,-9.94],[-5.88,-9.88],[-5.94,-9.88]]]}},{"type":"Feature","properties":{"val":664.1,"field":"tp"},"geometry":{"type":"Polygon","coordinates":[[[-5.88,-10.38],[-5.88,-10.44],[-5.81,-10.44],[-5.81,-10.5],[-5.75,-10.5],[-5.75,-10.44],[-5.81,-10.44],[-5.81,-10.38],[-5.88,-10.38]]]}},{"type":"Feature","properties":{"val":664.1,"field":"tp"},"geometry":{"type":"Polygon","coordinates":[[[-5.12,-10.0],[-5.06,-10.0],[-5.06,-10.31],[-5.12,-10.31],[-5.12,-10.38],[-5.19,-10.38],[-5.19,-10.44],[-5.31,-10.44],[-5.31,-10.5],[-5.44,-10.5],[-5.44,-10.44],[-5.31,-10.44],[-5.31,-10.38],[-5.19,-10.38],[-5.19,-10.31],[-5.12,-10.31],[-5.12,-10.0]]]}},{"type":"Feature","properties":{"val":664.1,"field":"tp"},"geometry":{"type":"Polygon","coordinates":[[[-5.69,-10.5],[-5.69,-10.56],[-5.56,-10.56],[-5.56,-10.5],[-5.69,-10.5]]]}},{"type":"Feature","properties":{"val":664.1,"field":"tp"},"geometry":{"type":"Polygon","coordinates":[[[-11.44,-10.62],[-11.44,-10.69],[-11.38,-10.69],[-11.38,-10.75],[-11.31,-10.75],[-11.31,-10.69],[-11.38,-10.69],[-11.38,-10.62],[-11.44,-10.62]]]}},{"type":"Feature","properties":{"val":664.1,"field":"tp"},"geometry":{"type":"Polygon","coordinates":[[[-11.38,-10.44],[-11.12,-10.44],[-11.12,-10.5],[-11.06,-10.5],[-11.06,-10.56],[-11.0,-10.56],[-11.0,-10.69],[-11.06,-10.69],[-11.06,-10.75],[-11.19,-10.75],[-11.19,-10.69],[-11.06,-10.69],[-11.06,-10.56],[-11.12,-10.56],[-11.12,-10.5],[-11.38,-10.5],[-11.38,-10.56],[-11.44,-10.56],[-11.44,-10.5],[-11.38,-10.5],[-11.38,-10.44]]]}},{"type":"Feature","properties":{"val":732.12,"field":"tp"},"geometry":{"type":"Polygon","coordinates":[[[-5.75,-9.5],[-5.69,-9.5],[-5.69,-9.56],[-5.75,-9.56],[-5.75,-9.62],[-5.81,-9.62],[-5.81,-9.56],[-5.75,-9.56],[-5.75,-9.5]]]}},{"type":"Feature","properties":{"val":732.12,"field":"tp"},"geometry":{"type":"Polygon","coordinates":[[[-5.62,-9.5],[-5.62,-9.56],[-5.56,-9.56],[-5.56,-9.62],[-5.5,-9.62],[-5.5,-9.69],[-5.44,-9.69],[-5.44,-9.62],[-5.5,-9.62],[-5.5,-9.56],[-5.56,-9.56],[-5.56,-9.5],[-5.62,-9.5]]]}},{"type":"Feature","properties":{"val":732.12,"field":"tp"},"geometry":{"type":"Polygon","coordinates":[[[-5.88,-9.75],[-5.88,-9.81],[-5.81,-9.81],[-5.81,-9.75],[-5.88,-9.75]]]}},{"type":"Feature","properties":{"val":732.12,"field":"tp"},"geometry":{"type":"Polygon","coordinates":[[[-5.94,-9.94],[-5.94,-10.0],[-5.88,-10.0],[-5.88,-9.94],[-5.94,-9.94]]]}},{"type":"Feature","properties":{"val":732.12,"field":"tp"},"geometry":{"type":"Polygon","coordinates":[[[-5.25,-9.88],[-5.19,-9.88],[-5.19,-9.94],[-5.12,-9.94],[-5.12,-10.31],[-5.19,-10.31],[-5.19,-10.38],[-5.25,-10.38],[-5.25,-10.31],[-5.19,-10.31],[-5.19,-9.94],[-5.25,-9.94],[-5.25,-9.88]]]}},{"type":"Feature","properties":{"val":732.12,"field":"tp"},"geometry":{"type":"Polygon","coordinates":[[[-5.94,-10.25],[-5.94,-10.31],[-5.88,-10.31],[-5.88,-10.25],[-5.94,-10.25]]]}},{"type":"Feature","properties":{"val":732.12,"field":"tp"},"geometry":{"type":"Polygon","coordinates":[[[-5.38,-10.38],[-5.38,-10.44],[-5.31,-10.44],[-5.31,-10.38],[-5.38,-10.38]]]}},{"type":"Feature","properties":{"val":732.12,"field":"tp"},"geometry":{"type":"Polygon","coordinates":[[[-5.75,-10.44],[-5.75,-10.5],[-5.44,-10.5],[-5.44,-10.44],[-5.75,-10.44]]]}},{"type":"Feature","properties":{"val":732.12,"field":"tp"},"geometry":{"type":"Polygon","coordinates":[[[-11.38,-10.5],[-11.12,-10.5],[-11.12,-10.56],[-11.06,-10.56],[-11.06,-10.69],[-11.19,-10.69],[-11.19,-10.75],[-11.31,-10.75],[-11.31,-10.69],[-11.38,-10.69],[-11.38,-10.62],[-11.44,-10.62],[-11.44,-10.56],[-11.38,-10.56],[-11.38,-10.5]],[[-11.31,-10.56],[-11.31,-10.62],[-11.25,-10.62],[-11.25,-10.69],[-11.19,-10.69],[-11.19,-10.56],[-11.31,-10.56]]]}},{"type":"Feature","properties":{"val":800.14,"field":"tp"},"geometry":{"type":"Polygon","coordinates":[[[-5.69,-9.5],[-5.69,-9.56],[-5.62,-9.56],[-5.62,-9.5],[-5.69,-9.5]]]}},{"type":"Feature","properties":{"val":800.14,"field":"tp"},"geometry":{"type":"Polygon","coordinates":[[[-5.81,-9.62],[-5.81,-9.69],[-5.75,-9.69],[-5.75,-9.62],[-5.81,-9.62]]]}},{"type":"Feature","properties":{"val":800.14,"field":"tp"},"geometry":{"type":"Polygon","coordinates":[[[-5.44,-9.69],[-5.44,-9.75],[-5.38,-9.75],[-5.38,-9.81],[-5.31,-9.81],[-5.31,-9.88],[-5.25,-9.88],[-5.25,-9.81],[-5.31,-9.81],[-5.31,-9.75],[-5.38,-9.75],[-5.38,-9.69],[-5.44,-9.69]]]}},{"type":"Feature","properties":{"val":800.14,"field":"tp"},"geometry":{"type":"Polygon","coordinates":[[[-5.88,-9.81],[-5.88,-9.88],[-5.81,-9.88],[-5.81,-9.81],[-5.88,-9.81]]]}},{"type":"Feature","properties":{"val":800.14,"field":"tp"},"geometry":{"type":"Polygon","coordinates":[[[-5.25,-9.94],[-5.25,-10.0],[-5.19,-10.0],[-5.19,-9.94],[-5.25,-9.94]]]}},{"type":"Feature","properties":{"val":800.14,"field":"tp"},"geometry":{"type":"Polygon","coordinates":[[[-5.94,-10.0],[-5.94,-10.06],[-5.88,-10.06],[-5.88,-10.0],[-5.94,-10.0]]]}},{"type":"Feature","properties":{"val":800.14,"field":"tp"},"geometry":{"type":"Polygon","coordinates":[[[-5.94,-10.19],[-5.94,-10.25],[-5.88,-10.25],[-5.88,-10.19],[-5.94,-10.19]]]}},{"type":"Feature","properties":{"val":800.14,"field":"tp"},"geometry":{"type":"Polygon","coordinates":[[[-5.25,-10.25],[-5.19,-10.25],[-5.19,-10.31],[-5.25,-10.31],[-5.25,-10.38],[-5.31,-10.38],[-5.31,-10.31],[-5.25,-10.31],[-5.25,-10.25]]]}},{"type":"Feature","properties":{"val":800.14,"field":"tp"},"geometry":{"type":"Polygon","coordinates":[[[-5.88,-10.31],[-5.88,-10.38],[-5.81,-10.38],[-5.81,-10.44],[-5.75,-10.44],[-5.75,-10.38],[-5.81,-10.38],[-5.81,-10.31],[-5.88,-10.31]]]}},{"type":"Feature","properties":{"val":800.14,"field":"tp"},"geometry":{"type":"Polygon","coordinates":[[[-5.5,-10.38],[-5.5,-10.44],[-5.38,-10.44],[-5.38,-10.38],[-5.5,-10.38]]]}},{"type":"Feature","properties":{"val":800.14,"field":"tp"},"geometry":{"type":"Polygon","coordinates":[[[-11.31,-10.56],[-11.31,-10.62],[-11.25,-10.62],[-11.25,-10.69],[-11.19,-10.69],[-11.19,-10.56],[-11.31,-10.56]]]}},{"type":"Feature","properties":{"val":868.16,"field":"tp"},"geometry":{"type":"Polygon","coordinates":[[[-5.75,-9.56],[-5.75,-9.62],[-5.69,-9.62],[-5.69,-9.56],[-5.75,-9.56]]]}},{"type":"Feature","properties":{"val":868.16,"field":"tp"},"geometry":{"type":"Polygon","coordinates":[[[-5.62,-9.56],[-5.62,-9.62],[-5.56,-9.62],[-5.56,-9.69],[-5.5,-9.69],[-5.5,-9.75],[-5.44,-9.75],[-5.44,-9.81],[-5.38,-9.81],[-5.38,-9.88],[-5.31,-9.88],[-5.31,-9.94],[-5.25,-9.94],[-5.25,-9.88],[-5.31,-9.88],[-5.31,-9.81],[-5.38,-9.81],[-5.38,-9.75],[-5.44,-9.75],[-5.44,-9.69],[-5.5,-9.69],[-5.5,-9.62],[-5.56,-9.62],[-5.56,-9.56],[-5.62,-9.56]]]}},{"type":"Feature","properties":{"val":868.16,"field":"tp"},"geometry":{"type":"Polygon","coordinates":[[[-5.81,-9.69],[-5.81,-9.75],[-5.75,-9.75],[-5.75,-9.69],[-5.81,-9.69]]]}},{"type":"Feature","properties":{"val":868.16,"field":"tp"},"geometry":{"type":"Polygon","coordinates":[[[-5.25,-10.0],[-5.19,-10.0],[-5.19,-10.25],[-5.25,-10.25],[-5.25,-10.31],[-5.31,-10.31],[-5.31,-10.38],[-5.38,-10.38],[-5.38,-10.31],[-5.31,-10.31],[-5.31,-10.25],[-5.25,-10.25],[-5.25,-10.0]]]}},{"type":"Feature","properties":{"val":868.16,"field":"tp"},"geometry":{"type":"Polygon","coordinates":[[[-5.94,-10.06],[-5.94,-10.19],[-5.88,-10.19],[-5.88,-10.06],[-5.94,-10.06]]]}},{"type":"Feature","properties":{"val":868.16,"field":"tp"},"geometry":{"type":"Polygon","coordinates":[[[-5.75,-10.38],[-5.75,-10.44],[-5.69,-10.44],[-5.69,-10.38],[-5.75,-10.38]]]}},{"type":"Feature","properties":{"val":868.16,"field":"tp"},"geometry":{"type":"Polygon","coordinates":[[[-5.56,-10.38],[-5.56,-10.44],[-5.5,-10.44],[-5.5,-10.38],[-5.56,-10.38]]]}},{"type":"Feature","properties":{"val":936.18,"field":"tp"},"geometry":{"type":"Polygon","coordinates":[[[-5.69,-9.56],[-5.62,-9.56],[-5.62,-9.62],[-5.69,-9.62],[-5.69,-9.69],[-5.75,-9.69],[-5.75,-9.62],[-5.69,-9.62],[-5.69,-9.56]]]}},{"type":"Feature","properties":{"val":936.18,"field":"tp"},"geometry":{"type":"Polygon","coordinates":[[[-5.81,-9.75],[-5.81,-9.81],[-5.75,-9.81],[-5.75,-9.75],[-5.81,-9.75]]]}},{"type":"Feature","properties":{"val":936.18,"field":"tp"},"geometry":{"type":"Polygon","coordinates":[[[-5.88,-9.88],[-5.88,-9.94],[-5.81,-9.94],[-5.81,-9.88],[-5.88,-9.88]]]}},{"type":"Feature","properties":{"val":936.18,"field":"tp"},"geometry":{"type":"Polygon","coordinates":[[[-5.31,-9.94],[-5.31,-10.0],[-5.25,-10.0],[-5.25,-9.94],[-5.31,-9.94]]]}},{"type":"Feature","properties":{"val":936.18,"field":"tp"},"geometry":{"type":"Polygon","coordinates":[[[-5.31,-10.19],[-5.25,-10.19],[-5.25,-10.25],[-5.31,-10.25],[-5.31,-10.31],[-5.38,-10.31],[-5.38,-10.38],[-5.44,-10.38],[-5.44,-10.31],[-5.38,-10.31],[-5.38,-10.25],[-5.31,-10.25],[-5.31,-10.19]]]}},{"type":"Feature","properties":{"val":936.18,"field":"tp"},"geometry":{"type":"Polygon","coordinates":[[[-5.88,-10.25],[-5.88,-10.31],[-5.81,-10.31],[-5.81,-10.38],[-5.75,-10.38],[-5.75,-10.31],[-5.81,-10.31],[-5.81,-10.25],[-5.88,-10.25]]]}},{"type":"Feature","properties":{"val":936.18,"field":"tp"},"geometry":{"type":"Polygon","coordinates":[[[-5.69,-10.38],[-5.69,-10.44],[-5.56,-10.44],[-5.56,-10.38],[-5.69,-10.38]]]}},{"type":"Feature","properties":{"val":1004.2,"field":"tp"},"geometry":{"type":"Polygon","coordinates":[[[-5.69,-9.62],[-5.69,-9.69],[-5.56,-9.69],[-5.56,-9.75],[-5.5,-9.75],[-5.5,-9.81],[-5.44,-9.81],[-5.44,-9.88],[-5.38,-9.88],[-5.38,-9.94],[-5.31,-9.94],[-5.31,-9.88],[-5.38,-9.88],[-5.38,-9.81],[-5.44,-9.81],[-5.44,-9.75],[-5.5,-9.75],[-5.5,-9.69],[-5.56,-9.69],[-5.56,-9.62],[-5.69,-9.62]]]}},{"type":"Feature","properties":{"val":1004.2,"field":"tp"},"geometry":{"type":"Polygon","coordinates":[[[-5.31,-10.0],[-5.31,-10.19],[-5.25,-10.19],[-5.25,-10.0],[-5.31,-10.0]]]}},{"type":"Feature","properties":{"val":1004.2,"field":"tp"},"geometry":{"type":"Polygon","coordinates":[[[-5.88,-10.19],[-5.88,-10.25],[-5.81,-10.25],[-5.81,-10.19],[-5.88,-10.19]]]}},{"type":"Feature","properties":{"val":1004.2,"field":"tp"},"geometry":{"type":"Polygon","coordinates":[[[-5.75,-10.31],[-5.75,-10.38],[-5.69,-10.38],[-5.69,-10.31],[-5.75,-10.31]]]}},{"type":"Feature","properties":{"val":1004.2,"field":"tp"},"geometry":{"type":"Polygon","coordinates":[[[-5.56,-10.31],[-5.56,-10.38],[-5.44,-10.38],[-5.44,-10.31],[-5.56,-10.31]]]}},{"type":"Feature","properties":{"val":1072.22,"field":"tp"},"geometry":{"type":"Polygon","coordinates":[[[-5.75,-9.69],[-5.75,-9.75],[-5.69,-9.75],[-5.69,-9.69],[-5.75,-9.69]]]}},{"type":"Feature","properties":{"val":1072.22,"field":"tp"},"geometry":{"type":"Polygon","coordinates":[[[-5.62,-9.69],[-5.62,-9.75],[-5.56,-9.75],[-5.56,-9.69],[-5.62,-9.69]]]}},{"type":"Feature","properties":{"val":1072.22,"field":"tp"},"geometry":{"type":"Polygon","coordinates":[[[-5.81,-9.81],[-5.81,-9.88],[-5.75,-9.88],[-5.75,-9.81],[-5.81,-9.81]]]}},{"type":"Feature","properties":{"val":1072.22,"field":"tp"},"geometry":{"type":"Polygon","coordinates":[[[-5.88,-9.94],[-5.88,-10.0],[-5.81,-10.0],[-5.81,-9.94],[-5.88,-9.94]]]}},{"type":"Feature","properties":{"val":1072.22,"field":"tp"},"geometry":{"type":"Polygon","coordinates":[[[-5.38,-9.94],[-5.38,-10.0],[-5.31,-10.0],[-5.31,-9.94],[-5.38,-9.94]]]}},{"type":"Feature","properties":{"val":1072.22,"field":"tp"},"geometry":{"type":"Polygon","coordinates":[[[-5.38,-10.19],[-5.31,-10.19],[-5.31,-10.25],[-5.38,-10.25],[-5.38,-10.31],[-5.44,-10.31],[-5.44,-10.25],[-5.38,-10.25],[-5.38,-10.19]]]}},{"type":"Feature","properties":{"val":1072.22,"field":"tp"},"geometry":{"type":"Polygon","coordinates":[[[-5.81,-10.25],[-5.81,-10.31],[-5.75,-10.31],[-5.75,-10.25],[-5.81,-10.25]]]}},{"type":"Feature","properties":{"val":1072.22,"field":"tp"},"geometry":{"type":"Polygon","coordinates":[[[-5.69,-10.31],[-5.69,-10.38],[-5.56,-10.38],[-5.56,-10.31],[-5.69,-10.31]]]}},{"type":"Feature","properties":{"val":1140.24,"field":"tp"},"geometry":{"type":"Polygon","coordinates":[[[-5.69,-9.69],[-5.62,-9.69],[-5.62,-9.75],[-5.69,-9.75],[-5.69,-9.81],[-5.75,-9.81],[-5.75,-9.75],[-5.69,-9.75],[-5.69,-9.69]]]}},{"type":"Feature","properties":{"val":1140.24,"field":"tp"},"geometry":{"type":"Polygon","coordinates":[[[-5.56,-9.75],[-5.56,-9.81],[-5.5,-9.81],[-5.5,-9.88],[-5.44,-9.88],[-5.44,-9.94],[-5.38,-9.94],[-5.38,-9.88],[-5.44,-9.88],[-5.44,-9.81],[-5.5,-9.81],[-5.5,-9.75],[-5.56,-9.75]]]}},{"type":"Feature","properties":{"val":1140.24,"field":"tp"},"geometry":{"type":"Polygon","coordinates":[[[-5.88,-10.0],[-5.88,-10.19],[-5.81,-10.19],[-5.81,-10.0],[-5.88,-10.0]]]}},{"type":"Feature","properties":{"val":1140.24,"field":"tp"},"geometry":{"type":"Polygon","coordinates":[[[-5.38,-10.0],[-5.31,-10.0],[-5.31,-10.19],[-5.38,-10.19],[-5.38,-10.25],[-5.44,-10.25],[-5.44,-10.31],[-5.5,-10.31],[-5.5,-10.25],[-5.44,-10.25],[-5.44,-10.19],[-5.38,-10.19],[-5.38,-10.0]]]}},{"type":"Feature","properties":{"val":1208.26,"field":"tp"},"geometry":{"type":"Polygon","coordinates":[[[-5.69,-9.75],[-5.69,-9.81],[-5.56,-9.81],[-5.56,-9.75],[-5.69,-9.75]]]}},{"type":"Feature","properties":{"val":1208.26,"field":"tp"},"geometry":{"type":"Polygon","coordinates":[[[-5.81,-9.88],[-5.81,-9.94],[-5.75,-9.94],[-5.75,-9.88],[-5.81,-9.88]]]}},{"type":"Feature","properties":{"val":1208.26,"field":"tp"},"geometry":{"type":"Polygon","coordinates":[[[-5.44,-9.94],[-5.44,-10.0],[-5.38,-10.0],[-5.38,-9.94],[-5.44,-9.94]]]}},{"type":"Feature","properties":{"val":1208.26,"field":"tp"},"geometry":{"type":"Polygon","coordinates":[[[-5.75,-10.25],[-5.75,-10.31],[-5.69,-10.31],[-5.69,-10.25],[-5.75,-10.25]]]}},{"type":"Feature","properties":{"val":1208.26,"field":"tp"},"geometry":{"type":"Polygon","coordinates":[[[-5.56,-10.25],[-5.56,-10.31],[-5.5,-10.31],[-5.5,-10.25],[-5.56,-10.25]]]}},{"type":"Feature","properties":{"val":1276.28,"field":"tp"},"geometry":{"type":"Polygon","coordinates":[[[-5.75,-9.81],[-5.75,-9.88],[-5.69,-9.88],[-5.69,-9.81],[-5.75,-9.81]]]}},{"type":"Feature","properties":{"val":1276.28,"field":"tp"},"geometry":{"type":"Polygon","coordinates":[[[-5.56,-9.81],[-5.56,-9.88],[-5.5,-9.88],[-5.5,-9.94],[-5.44,-9.94],[-5.44,-9.88],[-5.5,-9.88],[-5.5,-9.81],[-5.56,-9.81]]]}},{"type":"Feature","properties":{"val":1276.28,"field":"tp"},"geometry":{"type":"Polygon","coordinates":[[[-5.44,-10.0],[-5.38,-10.0],[-5.38,-10.19],[-5.44,-10.19],[-5.44,-10.25],[-5.5,-10.25],[-5.5,-10.19],[-5.44,-10.19],[-5.44,-10.0]]]}},{"type":"Feature","properties":{"val":1276.28,"field":"tp"},"geometry":{"type":"Polygon","coordinates":[[[-5.81,-10.19],[-5.81,-10.25],[-5.75,-10.25],[-5.75,-10.19],[-5.81,-10.19]]]}},{"type":"Feature","properties":{"val":1276.28,"field":"tp"},"geometry":{"type":"Polygon","coordinates":[[[-5.69,-10.25],[-5.69,-10.31],[-5.56,-10.31],[-5.56,-10.25],[-5.69,-10.25]]]}},{"type":"Feature","properties":{"val":1344.3,"field":"tp"},"geometry":{"type":"Polygon","coordinates":[[[-5.69,-9.81],[-5.69,-9.88],[-5.56,-9.88],[-5.56,-9.81],[-5.69,-9.81]]]}},{"type":"Feature","properties":{"val":1344.3,"field":"tp"},"geometry":{"type":"Polygon","coordinates":[[[-5.81,-9.94],[-5.81,-10.0],[-5.75,-10.0],[-5.75,-9.94],[-5.81,-9.94]]]}},{"type":"Feature","properties":{"val":1344.3,"field":"tp"},"geometry":{"type":"Polygon","coordinates":[[[-5.5,-9.94],[-5.5,-10.0],[-5.44,-10.0],[-5.44,-9.94],[-5.5,-9.94]]]}},{"type":"Feature","properties":{"val":1344.3,"field":"tp"},"geometry":{"type":"Polygon","coordinates":[[[-5.81,-10.12],[-5.81,-10.19],[-5.75,-10.19],[-5.75,-10.12],[-5.81,-10.12]]]}},{"type":"Feature","properties":{"val":1412.32,"field":"tp"},"geometry":{"type":"Polygon","coordinates":[[[-5.75,-9.88],[-5.75,-9.94],[-5.69,-9.94],[-5.69,-9.88],[-5.75,-9.88]]]}},{"type":"Feature","properties":{"val":1412.32,"field":"tp"},"geometry":{"type":"Polygon","coordinates":[[[-5.56,-9.88],[-5.56,-9.94],[-5.5,-9.94],[-5.5,-9.88],[-5.56,-9.88]]]}},{"type":"Feature","properties":{"val":1412.32,"field":"tp"},"geometry":{"type":"Polygon","coordinates":[[[-5.5,-10.0],[-5.5,-10.06],[-5.44,-10.06],[-5.44,-10.0],[-5.5,-10.0]]]}},{"type":"Feature","properties":{"val":1412.32,"field":"tp"},"geometry":{"type":"Polygon","coordinates":[[[-5.81,-10.0],[-5.81,-10.12],[-5.75,-10.12],[-5.75,-10.0],[-5.81,-10.0]]]}},{"type":"Feature","properties":{"val":1412.32,"field":"tp"},"geometry":{"type":"Polygon","coordinates":[[[-5.5,-10.12],[-5.44,-10.12],[-5.44,-10.19],[-5.5,-10.19],[-5.5,-10.25],[-5.56,-10.25],[-5.56,-10.19],[-5.5,-10.19],[-5.5,-10.12]]]}},{"type":"Feature","properties":{"val":1412.32,"field":"tp"},"geometry":{"type":"Polygon","coordinates":[[[-5.75,-10.19],[-5.75,-10.25],[-5.69,-10.25],[-5.69,-10.19],[-5.75,-10.19]]]}},{"type":"Feature","properties":{"val":1480.34,"field":"tp"},"geometry":{"type":"Polygon","coordinates":[[[-5.69,-9.88],[-5.69,-9.94],[-5.56,-9.94],[-5.56,-10.0],[-5.5,-10.0],[-5.5,-9.94],[-5.56,-9.94],[-5.56,-9.88],[-5.69,-9.88]]]}},{"type":"Feature","properties":{"val":1480.34,"field":"tp"},"geometry":{"type":"Polygon","coordinates":[[[-5.5,-10.06],[-5.5,-10.12],[-5.44,-10.12],[-5.44,-10.06],[-5.5,-10.06]]]}},{"type":"Feature","properties":{"val":1480.34,"field":"tp"},"geometry":{"type":"Polygon","coordinates":[[[-5.69,-10.19],[-5.69,-10.25],[-5.56,-10.25],[-5.56,-10.19],[-5.69,-10.19]]]}},{"type":"Feature","properties":{"val":1548.36,"field":"tp"},"geometry":{"type":"Polygon","coordinates":[[[-5.75,-9.94],[-5.75,-10.0],[-5.69,-10.0],[-5.69,-9.94],[-5.75,-9.94]]]}},{"type":"Feature","properties":{"val":1548.36,"field":"tp"},"geometry":{"type":"Polygon","coordinates":[[[-5.56,-10.0],[-5.56,-10.06],[-5.5,-10.06],[-5.5,-10.0],[-5.56,-10.0]]]}},{"type":"Feature","properties":{"val":1548.36,"field":"tp"},"geometry":{"type":"Polygon","coordinates":[[[-5.75,-10.12],[-5.75,-10.19],[-5.69,-10.19],[-5.69,-10.12],[-5.75,-10.12]]]}},{"type":"Feature","properties":{"val":1548.36,"field":"tp"},"geometry":{"type":"Polygon","coordinates":[[[-5.56,-10.12],[-5.56,-10.19],[-5.5,-10.19],[-5.5,-10.12],[-5.56,-10.12]]]}},{"type":"Feature","properties":{"val":1616.38,"field":"tp"},"geometry":{"type":"Polygon","coordinates":[[[-5.69,-9.94],[-5.56,-9.94],[-5.56,-10.0],[-5.69,-10.0],[-5.69,-10.12],[-5.56,-10.12],[-5.56,-10.06],[-5.5,-10.06],[-5.5,-10.12],[-5.56,-10.12],[-5.56,-10.19],[-5.69,-10.19],[-5.69,-10.12],[-5.75,-10.12],[-5.75,-10.0],[-5.69,-10.0],[-5.69,-9.94]]]}},{"type":"Feature","properties":{"val":1684.4,"field":"tp"},"geometry":{"type":"Polygon","coordinates":[[[-5.69,-10.0],[-5.69,-10.12],[-5.56,-10.12],[-5.56,-10.0],[-5.69,-10.0]]]}}]}