{
"type": "FeatureCollection",
"crs": { "type": "name", "properties": { "name": "urn:ogc:def:crs:OGC:1.3:CRS84" } },
"features": [
{ "type": "Feature", "properties": { "ID": 285562, "LAT": 14.7, "LON": 134.8, "VMAX": 20.0, "MSLP": 1012.95825, "RMAX": 45.0, "FSPD": 7.53804, "FDIR": 262.15503, "RENV": 500.0, "PENV": 1012.0, "VALIDT": 0, "DTG": "2024-11-08 18:00", "LATNOW": 21.0, "LONNOW": 114.0, "WINDNOW": 25.0, "DIRNOW": 1.0, "SPDNOW": 3.0, "TECH": "TRAK", "ADVNR": 20, "ATCFID": "WP262024", "NAME": "TORAJI", "FTECH": "JTWC", "FCST_DTG": "2024-11-14 00:00:00", "RUN_DTG": "2024-11-14 16:09:11", "BASIN": "WP", "STMNR": 26, "CAT_ID": null, "CAT_DESC": null, "MSGID": "WTPN53 PGTW 140300", "VALIDTIME": "2024-11-08 18:00:00" }, "geometry": { "type": "Point", "coordinates": [ 134.800003, 14.7 ] } },
{ "type": "Feature", "properties": { "ID": 285563, "LAT": 14.5, "LON": 133.3, "VMAX": 30.0, "MSLP": 1010.40607, "RMAX": 44.21983, "FSPD": 7.49024, "FDIR": 266.06168, "RENV": 500.0, "PENV": 1012.0, "VALIDT": 0, "DTG": "2024-11-09 00:00", "LATNOW": 21.0, "LONNOW": 114.0, "WINDNOW": 25.0, "DIRNOW": 1.0, "SPDNOW": 3.0, "TECH": "TRAK", "ADVNR": 20, "ATCFID": "WP262024", "NAME": "TORAJI", "FTECH": "JTWC", "FCST_DTG": "2024-11-14 00:00:00", "RUN_DTG": "2024-11-14 16:09:11", "BASIN": "WP", "STMNR": 26, "CAT_ID": null, "CAT_DESC": null, "MSGID": "WTPN53 PGTW 140300", "VALIDTIME": "2024-11-09 00:00:00" }, "geometry": { "type": "Point", "coordinates": [ 133.300003, 14.5 ] } },
{ "type": "Feature", "properties": { "ID": 285564, "LAT": 14.4, "LON": 131.8, "VMAX": 30.0, "MSLP": 1002.0, "RMAX": 40.0, "FSPD": 7.62696, "FDIR": 281.67453, "RENV": 130.0, "PENV": 1004.0, "VALIDT": 0, "DTG": "2024-11-09 06:00", "LATNOW": 21.0, "LONNOW": 114.0, "WINDNOW": 25.0, "DIRNOW": 1.0, "SPDNOW": 3.0, "TECH": "TRAK", "ADVNR": 20, "ATCFID": "WP262024", "NAME": "TORAJI", "FTECH": "JTWC", "FCST_DTG": "2024-11-14 00:00:00", "RUN_DTG": "2024-11-14 16:09:11", "BASIN": "WP", "STMNR": 26, "CAT_ID": null, "CAT_DESC": null, "MSGID": "WTPN53 PGTW 140300", "VALIDTIME": "2024-11-09 06:00:00" }, "geometry": { "type": "Point", "coordinates": [ 131.800003, 14.4 ] } },
{ "type": "Feature", "properties": { "ID": 285565, "LAT": 14.7, "LON": 130.3, "VMAX": 50.0, "MSLP": 1002.0, "RMAX": 40.0, "FSPD": 9.57325, "FDIR": 279.2773, "RENV": 130.0, "PENV": 1004.0, "VALIDT": 0, "DTG": "2024-11-09 12:00", "LATNOW": 21.0, "LONNOW": 114.0, "WINDNOW": 25.0, "DIRNOW": 1.0, "SPDNOW": 3.0, "TECH": "TRAK", "ADVNR": 20, "ATCFID": "WP262024", "NAME": "TORAJI", "FTECH": "JTWC", "FCST_DTG": "2024-11-14 00:00:00", "RUN_DTG": "2024-11-14 16:09:11", "BASIN": "WP", "STMNR": 26, "CAT_ID": null, "CAT_DESC": null, "MSGID": "WTPN53 PGTW 140300", "VALIDTIME": "2024-11-09 12:00:00" }, "geometry": { "type": "Point", "coordinates": [ 130.300003, 14.7 ] } },
{ "type": "Feature", "properties": { "ID": 285566, "LAT": 15.0, "LON": 128.4, "VMAX": 55.0, "MSLP": 992.0, "RMAX": 15.0, "FSPD": 7.46968, "FDIR": 273.94916, "RENV": 130.0, "PENV": 1004.0, "VALIDT": 0, "DTG": "2024-11-09 18:00", "LATNOW": 21.0, "LONNOW": 114.0, "WINDNOW": 25.0, "DIRNOW": 1.0, "SPDNOW": 3.0, "TECH": "TRAK", "ADVNR": 20, "ATCFID": "WP262024", "NAME": "TORAJI", "FTECH": "JTWC", "FCST_DTG": "2024-11-14 00:00:00", "RUN_DTG": "2024-11-14 16:09:11", "BASIN": "WP", "STMNR": 26, "CAT_ID": null, "CAT_DESC": null, "MSGID": "WTPN53 PGTW 140300", "VALIDTIME": "2024-11-09 18:00:00" }, "geometry": { "type": "Point", "coordinates": [ 128.399994, 15.0 ] } },
{ "type": "Feature", "properties": { "ID": 285567, "LAT": 15.1, "LON": 126.9, "VMAX": 60.0, "MSLP": 990.0, "RMAX": 15.0, "FSPD": 8.45729, "FDIR": 273.48734, "RENV": 130.0, "PENV": 1004.0, "VALIDT": 0, "DTG": "2024-11-10 00:00", "LATNOW": 21.0, "LONNOW": 114.0, "WINDNOW": 25.0, "DIRNOW": 1.0, "SPDNOW": 3.0, "TECH": "TRAK", "ADVNR": 20, "ATCFID": "WP262024", "NAME": "TORAJI", "FTECH": "JTWC", "FCST_DTG": "2024-11-14 00:00:00", "RUN_DTG": "2024-11-14 16:09:11", "BASIN": "WP", "STMNR": 26, "CAT_ID": null, "CAT_DESC": null, "MSGID": "WTPN53 PGTW 140300", "VALIDTIME": "2024-11-10 00:00:00" }, "geometry": { "type": "Point", "coordinates": [ 126.900002, 15.1 ] } },
{ "type": "Feature", "properties": { "ID": 285568, "LAT": 15.2, "LON": 125.2, "VMAX": 65.0, "MSLP": 980.0, "RMAX": 15.0, "FSPD": 4.46963, "FDIR": 297.41235, "RENV": 210.0, "PENV": 1010.0, "VALIDT": 0, "DTG": "2024-11-10 06:00", "LATNOW": 21.0, "LONNOW": 114.0, "WINDNOW": 25.0, "DIRNOW": 1.0, "SPDNOW": 3.0, "TECH": "TRAK", "ADVNR": 20, "ATCFID": "WP262024", "NAME": "TORAJI", "FTECH": "JTWC", "FCST_DTG": "2024-11-14 00:00:00", "RUN_DTG": "2024-11-14 16:09:11", "BASIN": "WP", "STMNR": 26, "CAT_ID": null, "CAT_DESC": null, "MSGID": "WTPN53 PGTW 140300", "VALIDTIME": "2024-11-10 06:00:00" }, "geometry": { "type": "Point", "coordinates": [ 125.199997, 15.2 ] } },
{ "type": "Feature", "properties": { "ID": 285569, "LAT": 15.6, "LON": 124.4, "VMAX": 75.0, "MSLP": 986.0, "RMAX": 15.0, "FSPD": 5.66086, "FDIR": 285.8209, "RENV": 145.0, "PENV": 1006.0, "VALIDT": 0, "DTG": "2024-11-10 12:00", "LATNOW": 21.0, "LONNOW": 114.0, "WINDNOW": 25.0, "DIRNOW": 1.0, "SPDNOW": 3.0, "TECH": "TRAK", "ADVNR": 20, "ATCFID": "WP262024", "NAME": "TORAJI", "FTECH": "JTWC", "FCST_DTG": "2024-11-14 00:00:00", "RUN_DTG": "2024-11-14 16:09:11", "BASIN": "WP", "STMNR": 26, "CAT_ID": null, "CAT_DESC": null, "MSGID": "WTPN53 PGTW 140300", "VALIDTIME": "2024-11-10 12:00:00" }, "geometry": { "type": "Point", "coordinates": [ 124.400002, 15.6 ] } },
{ "type": "Feature", "properties": { "ID": 285570, "LAT": 15.9, "LON": 123.3, "VMAX": 80.0, "MSLP": 979.0, "RMAX": 15.0, "FSPD": 5.57082, "FDIR": 297.49887, "RENV": 145.0, "PENV": 1006.0, "VALIDT": 0, "DTG": "2024-11-10 18:00", "LATNOW": 21.0, "LONNOW": 114.0, "WINDNOW": 25.0, "DIRNOW": 1.0, "SPDNOW": 3.0, "TECH": "TRAK", "ADVNR": 20, "ATCFID": "WP262024", "NAME": "TORAJI", "FTECH": "JTWC", "FCST_DTG": "2024-11-14 00:00:00", "RUN_DTG": "2024-11-14 16:09:11", "BASIN": "WP", "STMNR": 26, "CAT_ID": null, "CAT_DESC": null, "MSGID": "WTPN53 PGTW 140300", "VALIDTIME": "2024-11-10 18:00:00" }, "geometry": { "type": "Point", "coordinates": [ 123.300003, 15.9 ] } },
{ "type": "Feature", "properties": { "ID": 285571, "LAT": 16.4, "LON": 122.3, "VMAX": 80.0, "MSLP": 970.0, "RMAX": 10.0, "FSPD": 6.91063, "FDIR": 291.8522, "RENV": 200.0, "PENV": 1007.0, "VALIDT": 0, "DTG": "2024-11-11 00:00", "LATNOW": 21.0, "LONNOW": 114.0, "WINDNOW": 25.0, "DIRNOW": 1.0, "SPDNOW": 3.0, "TECH": "TRAK", "ADVNR": 20, "ATCFID": "WP262024", "NAME": "TORAJI", "FTECH": "JTWC", "FCST_DTG": "2024-11-14 00:00:00", "RUN_DTG": "2024-11-14 16:09:11", "BASIN": "WP", "STMNR": 26, "CAT_ID": null, "CAT_DESC": null, "MSGID": "WTPN53 PGTW 140300", "VALIDTIME": "2024-11-11 00:00:00" }, "geometry": { "type": "Point", "coordinates": [ 122.300003, 16.4 ] } },
{ "type": "Feature", "properties": { "ID": 285572, "LAT": 16.5, "LON": 122.04, "VMAX": 80.0, "MSLP": 970.0, "RMAX": 10.0, "FSPD": 6.90286, "FDIR": 291.87796, "RENV": 200.0, "PENV": 1007.0, "VALIDT": 0, "DTG": "2024-11-11 01:00", "LATNOW": 21.0, "LONNOW": 114.0, "WINDNOW": 25.0, "DIRNOW": 1.0, "SPDNOW": 3.0, "TECH": "TRAK", "ADVNR": 20, "ATCFID": "WP262024", "NAME": "TORAJI", "FTECH": "JTWC", "FCST_DTG": "2024-11-14 00:00:00", "RUN_DTG": "2024-11-14 16:09:11", "BASIN": "WP", "STMNR": 26, "CAT_ID": null, "CAT_DESC": null, "MSGID": "WTPN53 PGTW 140300", "VALIDTIME": "2024-11-11 01:00:00" }, "geometry": { "type": "Point", "coordinates": [ 122.040001, 16.5 ] } },
{ "type": "Feature", "properties": { "ID": 285573, "LAT": 16.9, "LON": 121.0, "VMAX": 70.0, "MSLP": 970.0, "RMAX": 10.0, "FSPD": 7.49056, "FDIR": 319.0664, "RENV": 200.0, "PENV": 1007.0, "VALIDT": 0, "DTG": "2024-11-11 06:00", "LATNOW": 21.0, "LONNOW": 114.0, "WINDNOW": 25.0, "DIRNOW": 1.0, "SPDNOW": 3.0, "TECH": "TRAK", "ADVNR": 20, "ATCFID": "WP262024", "NAME": "TORAJI", "FTECH": "JTWC", "FCST_DTG": "2024-11-14 00:00:00", "RUN_DTG": "2024-11-14 16:09:11", "BASIN": "WP", "STMNR": 26, "CAT_ID": null, "CAT_DESC": null, "MSGID": "WTPN53 PGTW 140300", "VALIDTIME": "2024-11-11 06:00:00" }, "geometry": { "type": "Point", "coordinates": [ 121.0, 16.9 ] } },
{ "type": "Feature", "properties": { "ID": 285574, "LAT": 18.0, "LON": 120.0, "VMAX": 60.0, "MSLP": 982.0, "RMAX": 10.0, "FSPD": 4.66248, "FDIR": 289.3301, "RENV": 180.0, "PENV": 1006.0, "VALIDT": 0, "DTG": "2024-11-11 12:00", "LATNOW": 21.0, "LONNOW": 114.0, "WINDNOW": 25.0, "DIRNOW": 1.0, "SPDNOW": 3.0, "TECH": "TRAK", "ADVNR": 20, "ATCFID": "WP262024", "NAME": "TORAJI", "FTECH": "JTWC", "FCST_DTG": "2024-11-14 00:00:00", "RUN_DTG": "2024-11-14 16:09:11", "BASIN": "WP", "STMNR": 26, "CAT_ID": null, "CAT_DESC": null, "MSGID": "WTPN53 PGTW 140300", "VALIDTIME": "2024-11-11 12:00:00" }, "geometry": { "type": "Point", "coordinates": [ 120.0, 18.0 ] } },
{ "type": "Feature", "properties": { "ID": 285575, "LAT": 18.3, "LON": 119.1, "VMAX": 50.0, "MSLP": 988.0, "RMAX": 20.0, "FSPD": 2.83595, "FDIR": 316.5193, "RENV": 180.0, "PENV": 1006.0, "VALIDT": 0, "DTG": "2024-11-11 18:00", "LATNOW": 21.0, "LONNOW": 114.0, "WINDNOW": 25.0, "DIRNOW": 1.0, "SPDNOW": 3.0, "TECH": "TRAK", "ADVNR": 20, "ATCFID": "WP262024", "NAME": "TORAJI", "FTECH": "JTWC", "FCST_DTG": "2024-11-14 00:00:00", "RUN_DTG": "2024-11-14 16:09:11", "BASIN": "WP", "STMNR": 26, "CAT_ID": null, "CAT_DESC": null, "MSGID": "WTPN53 PGTW 140300", "VALIDTIME": "2024-11-11 18:00:00" }, "geometry": { "type": "Point", "coordinates": [ 119.099998, 18.299999 ] } },
{ "type": "Feature", "properties": { "ID": 285576, "LAT": 18.7, "LON": 118.7, "VMAX": 45.0, "MSLP": 985.0, "RMAX": 25.0, "FSPD": 4.2681, "FDIR": 307.06082, "RENV": 180.0, "PENV": 1008.0, "VALIDT": 0, "DTG": "2024-11-12 00:00", "LATNOW": 21.0, "LONNOW": 114.0, "WINDNOW": 25.0, "DIRNOW": 1.0, "SPDNOW": 3.0, "TECH": "TRAK", "ADVNR": 20, "ATCFID": "WP262024", "NAME": "TORAJI", "FTECH": "JTWC", "FCST_DTG": "2024-11-14 00:00:00", "RUN_DTG": "2024-11-14 16:09:11", "BASIN": "WP", "STMNR": 26, "CAT_ID": null, "CAT_DESC": null, "MSGID": "WTPN53 PGTW 140300", "VALIDTIME": "2024-11-12 00:00:00" }, "geometry": { "type": "Point", "coordinates": [ 118.699997, 18.700001 ] } },
{ "type": "Feature", "properties": { "ID": 285577, "LAT": 19.2, "LON": 118.0, "VMAX": 45.0, "MSLP": 987.0, "RMAX": 30.0, "FSPD": 3.92512, "FDIR": 321.84906, "RENV": 195.0, "PENV": 1009.0, "VALIDT": 0, "DTG": "2024-11-12 06:00", "LATNOW": 21.0, "LONNOW": 114.0, "WINDNOW": 25.0, "DIRNOW": 1.0, "SPDNOW": 3.0, "TECH": "TRAK", "ADVNR": 20, "ATCFID": "WP262024", "NAME": "TORAJI", "FTECH": "JTWC", "FCST_DTG": "2024-11-14 00:00:00", "RUN_DTG": "2024-11-14 16:09:11", "BASIN": "WP", "STMNR": 26, "CAT_ID": null, "CAT_DESC": null, "MSGID": "WTPN53 PGTW 140300", "VALIDTIME": "2024-11-12 06:00:00" }, "geometry": { "type": "Point", "coordinates": [ 118.0, 19.200001 ] } },
{ "type": "Feature", "properties": { "ID": 285578, "LAT": 19.8, "LON": 117.5, "VMAX": 45.0, "MSLP": 991.0, "RMAX": 30.0, "FSPD": 2.19146, "FDIR": 298.0019, "RENV": 155.0, "PENV": 1006.0, "VALIDT": 0, "DTG": "2024-11-12 12:00", "LATNOW": 21.0, "LONNOW": 114.0, "WINDNOW": 25.0, "DIRNOW": 1.0, "SPDNOW": 3.0, "TECH": "TRAK", "ADVNR": 20, "ATCFID": "WP262024", "NAME": "TORAJI", "FTECH": "JTWC", "FCST_DTG": "2024-11-14 00:00:00", "RUN_DTG": "2024-11-14 16:09:11", "BASIN": "WP", "STMNR": 26, "CAT_ID": null, "CAT_DESC": null, "MSGID": "WTPN53 PGTW 140300", "VALIDTIME": "2024-11-12 12:00:00" }, "geometry": { "type": "Point", "coordinates": [ 117.5, 19.799999 ] } },
{ "type": "Feature", "properties": { "ID": 285579, "LAT": 20.0, "LON": 117.1, "VMAX": 40.0, "MSLP": 991.0, "RMAX": 30.0, "FSPD": 4.46809, "FDIR": 283.3133, "RENV": 140.0, "PENV": 1006.0, "VALIDT": 0, "DTG": "2024-11-12 18:00", "LATNOW": 21.0, "LONNOW": 114.0, "WINDNOW": 25.0, "DIRNOW": 1.0, "SPDNOW": 3.0, "TECH": "TRAK", "ADVNR": 20, "ATCFID": "WP262024", "NAME": "TORAJI", "FTECH": "JTWC", "FCST_DTG": "2024-11-14 00:00:00", "RUN_DTG": "2024-11-14 16:09:11", "BASIN": "WP", "STMNR": 26, "CAT_ID": null, "CAT_DESC": null, "MSGID": "WTPN53 PGTW 140300", "VALIDTIME": "2024-11-12 18:00:00" }, "geometry": { "type": "Point", "coordinates": [ 117.099998, 20.0 ] } },
{ "type": "Feature", "properties": { "ID": 285580, "LAT": 20.2, "LON": 116.2, "VMAX": 45.0, "MSLP": 997.0, "RMAX": 35.0, "FSPD": 4.80275, "FDIR": 295.3697, "RENV": 200.0, "PENV": 1006.0, "VALIDT": 0, "DTG": "2024-11-13 00:00", "LATNOW": 21.0, "LONNOW": 114.0, "WINDNOW": 25.0, "DIRNOW": 1.0, "SPDNOW": 3.0, "TECH": "TRAK", "ADVNR": 20, "ATCFID": "WP262024", "NAME": "TORAJI", "FTECH": "JTWC", "FCST_DTG": "2024-11-14 00:00:00", "RUN_DTG": "2024-11-14 16:09:11", "BASIN": "WP", "STMNR": 26, "CAT_ID": null, "CAT_DESC": null, "MSGID": "WTPN53 PGTW 140300", "VALIDTIME": "2024-11-13 00:00:00" }, "geometry": { "type": "Point", "coordinates": [ 116.199997, 20.200001 ] } },
{ "type": "Feature", "properties": { "ID": 285581, "LAT": 20.6, "LON": 115.3, "VMAX": 45.0, "MSLP": 995.0, "RMAX": 45.0, "FSPD": 6.24741, "FDIR": 351.16736, "RENV": 95.0, "PENV": 1006.0, "VALIDT": 0, "DTG": "2024-11-13 06:00", "LATNOW": 21.0, "LONNOW": 114.0, "WINDNOW": 25.0, "DIRNOW": 1.0, "SPDNOW": 3.0, "TECH": "TRAK", "ADVNR": 20, "ATCFID": "WP262024", "NAME": "TORAJI", "FTECH": "JTWC", "FCST_DTG": "2024-11-14 00:00:00", "RUN_DTG": "2024-11-14 16:09:11", "BASIN": "WP", "STMNR": 26, "CAT_ID": null, "CAT_DESC": null, "MSGID": "WTPN53 PGTW 140300", "VALIDTIME": "2024-11-13 06:00:00" }, "geometry": { "type": "Point", "coordinates": [ 115.300003, 20.6 ] } },
{ "type": "Feature", "properties": { "ID": 285582, "LAT": 21.8, "LON": 115.1, "VMAX": 45.0, "MSLP": 995.0, "RMAX": 45.0, "FSPD": 4.91952, "FDIR": 222.94534, "RENV": 150.0, "PENV": 1008.0, "VALIDT": 0, "DTG": "2024-11-13 12:00", "LATNOW": 21.0, "LONNOW": 114.0, "WINDNOW": 25.0, "DIRNOW": 1.0, "SPDNOW": 3.0, "TECH": "TRAK", "ADVNR": 20, "ATCFID": "WP262024", "NAME": "TORAJI", "FTECH": "JTWC", "FCST_DTG": "2024-11-14 00:00:00", "RUN_DTG": "2024-11-14 16:09:11", "BASIN": "WP", "STMNR": 26, "CAT_ID": null, "CAT_DESC": null, "MSGID": "WTPN53 PGTW 140300", "VALIDTIME": "2024-11-13 12:00:00" }, "geometry": { "type": "Point", "coordinates": [ 115.099998, 21.799999 ] } },
{ "type": "Feature", "properties": { "ID": 285583, "LAT": 21.1, "LON": 114.4, "VMAX": 40.0, "MSLP": 995.0, "RMAX": 45.0, "FSPD": 1.98817, "FDIR": 255.00388, "RENV": 150.0, "PENV": 1010.0, "VALIDT": 0, "DTG": "2024-11-13 18:00", "LATNOW": 21.0, "LONNOW": 114.0, "WINDNOW": 25.0, "DIRNOW": 1.0, "SPDNOW": 3.0, "TECH": "TRAK", "ADVNR": 20, "ATCFID": "WP262024", "NAME": "TORAJI", "FTECH": "JTWC", "FCST_DTG": "2024-11-14 00:00:00", "RUN_DTG": "2024-11-14 16:09:11", "BASIN": "WP", "STMNR": 26, "CAT_ID": null, "CAT_DESC": null, "MSGID": "WTPN53 PGTW 140300", "VALIDTIME": "2024-11-13 18:00:00" }, "geometry": { "type": "Point", "coordinates": [ 114.400002, 21.1 ] } },
{ "type": "Feature", "properties": { "ID": 285584, "LAT": 21.0, "LON": 114.0, "VMAX": 25.0, "MSLP": 1011.80975, "RMAX": 45.0, "FSPD": 1.46408, "FDIR": 259.88116, "RENV": 500.0, "PENV": 1012.0, "VALIDT": 0, "DTG": "2024-11-14 00:00", "LATNOW": 21.0, "LONNOW": 114.0, "WINDNOW": 25.0, "DIRNOW": 1.0, "SPDNOW": 3.0, "TECH": "TRAK", "ADVNR": 20, "ATCFID": "WP262024", "NAME": "TORAJI", "FTECH": "JTWC", "FCST_DTG": "2024-11-14 00:00:00", "RUN_DTG": "2024-11-14 16:09:11", "BASIN": "WP", "STMNR": 26, "CAT_ID": null, "CAT_DESC": null, "MSGID": "WTPN53 PGTW 140300", "VALIDTIME": "2024-11-14 00:00:00" }, "geometry": { "type": "Point", "coordinates": [ 114.0, 21.0 ] } },
{ "type": "Feature", "properties": { "ID": 285585, "LAT": 20.9, "LON": 113.4, "VMAX": 20.0, "MSLP": 1012.95825, "RMAX": 45.0, "FSPD": 0.70423, "FDIR": 223.07152, "RENV": 250.0, "PENV": 1012.0, "VALIDT": 12, "DTG": "2024-11-14 12:00", "LATNOW": 21.0, "LONNOW": 114.0, "WINDNOW": 25.0, "DIRNOW": 1.0, "SPDNOW": 3.0, "TECH": "FCST", "ADVNR": 20, "ATCFID": "WP262024", "NAME": "TORAJI", "FTECH": "JTWC", "FCST_DTG": "2024-11-14 00:00:00", "RUN_DTG": "2024-11-14 16:09:11", "BASIN": "WP", "STMNR": 26, "CAT_ID": null, "CAT_DESC": null, "MSGID": "WTPN53 PGTW 140300", "VALIDTIME": "2024-11-14 12:00:00" }, "geometry": { "type": "Point", "coordinates": [ 113.400002, 20.9 ] } },
{ "type": "Feature", "properties": { "ID": 285586, "LAT": 20.7, "LON": 113.2, "VMAX": 15.0, "MSLP": 1013.8515, "RMAX": 40.0, "FSPD": 0.70423, "FDIR": 223.07152, "RENV": 250.0, "PENV": 1012.0, "VALIDT": 24, "DTG": "2024-11-15 00:00", "LATNOW": 21.0, "LONNOW": 114.0, "WINDNOW": 25.0, "DIRNOW": 1.0, "SPDNOW": 3.0, "TECH": "FCST", "ADVNR": 20, "ATCFID": "WP262024", "NAME": "TORAJI", "FTECH": "JTWC", "FCST_DTG": "2024-11-14 00:00:00", "RUN_DTG": "2024-11-14 16:09:11", "BASIN": "WP", "STMNR": 26, "CAT_ID": null, "CAT_DESC": null, "MSGID": "WTPN53 PGTW 140300", "VALIDTIME": "2024-11-15 00:00:00" }, "geometry": { "type": "Point", "coordinates": [ 113.199997, 20.700001 ] } },
{ "type": "Feature", "properties": { "ID": 285553, "LAT": 14.1, "LON": 147.2, "VMAX": 15.0, "MSLP": 1013.8515, "RMAX": 40.0, "FSPD": 5.01481, "FDIR": 275.888, "RENV": 500.0, "PENV": 1012.0, "VALIDT": 0, "DTG": "2024-11-06 12:00", "LATNOW": 21.0, "LONNOW": 114.0, "WINDNOW": 25.0, "DIRNOW": 1.0, "SPDNOW": 3.0, "TECH": "TRAK", "ADVNR": 20, "ATCFID": "WP262024", "NAME": "TORAJI", "FTECH": "JTWC", "FCST_DTG": "2024-11-14 00:00:00", "RUN_DTG": "2024-11-14 16:09:11", "BASIN": "WP", "STMNR": 26, "CAT_ID": null, "CAT_DESC": null, "MSGID": "WTPN53 PGTW 140300", "VALIDTIME": "2024-11-06 12:00:00" }, "geometry": { "type": "Point", "coordinates": [ 147.199997, 14.1 ] } },
{ "type": "Feature", "properties": { "ID": 285554, "LAT": 14.2, "LON": 146.2, "VMAX": 15.0, "MSLP": 1013.8515, "RMAX": 40.0, "FSPD": 4.02198, "FDIR": 277.34875, "RENV": 500.0, "PENV": 1012.0, "VALIDT": 0, "DTG": "2024-11-06 18:00", "LATNOW": 21.0, "LONNOW": 114.0, "WINDNOW": 25.0, "DIRNOW": 1.0, "SPDNOW": 3.0, "TECH": "TRAK", "ADVNR": 20, "ATCFID": "WP262024", "NAME": "TORAJI", "FTECH": "JTWC", "FCST_DTG": "2024-11-14 00:00:00", "RUN_DTG": "2024-11-14 16:09:11", "BASIN": "WP", "STMNR": 26, "CAT_ID": null, "CAT_DESC": null, "MSGID": "WTPN53 PGTW 140300", "VALIDTIME": "2024-11-06 18:00:00" }, "geometry": { "type": "Point", "coordinates": [ 146.199997, 14.2 ] } },
{ "type": "Feature", "properties": { "ID": 285555, "LAT": 14.3, "LON": 145.4, "VMAX": 15.0, "MSLP": 1013.8515, "RMAX": 40.0, "FSPD": 6.97904, "FDIR": 269.99997, "RENV": 500.0, "PENV": 1012.0, "VALIDT": 0, "DTG": "2024-11-07 00:00", "LATNOW": 21.0, "LONNOW": 114.0, "WINDNOW": 25.0, "DIRNOW": 1.0, "SPDNOW": 3.0, "TECH": "TRAK", "ADVNR": 20, "ATCFID": "WP262024", "NAME": "TORAJI", "FTECH": "JTWC", "FCST_DTG": "2024-11-14 00:00:00", "RUN_DTG": "2024-11-14 16:09:11", "BASIN": "WP", "STMNR": 26, "CAT_ID": null, "CAT_DESC": null, "MSGID": "WTPN53 PGTW 140300", "VALIDTIME": "2024-11-07 00:00:00" }, "geometry": { "type": "Point", "coordinates": [ 145.399994, 14.3 ] } },
{ "type": "Feature", "properties": { "ID": 285556, "LAT": 14.3, "LON": 144.0, "VMAX": 15.0, "MSLP": 1013.8515, "RMAX": 40.0, "FSPD": 7.47757, "FDIR": 269.99997, "RENV": 500.0, "PENV": 1012.0, "VALIDT": 0, "DTG": "2024-11-07 06:00", "LATNOW": 21.0, "LONNOW": 114.0, "WINDNOW": 25.0, "DIRNOW": 1.0, "SPDNOW": 3.0, "TECH": "TRAK", "ADVNR": 20, "ATCFID": "WP262024", "NAME": "TORAJI", "FTECH": "JTWC", "FCST_DTG": "2024-11-14 00:00:00", "RUN_DTG": "2024-11-14 16:09:11", "BASIN": "WP", "STMNR": 26, "CAT_ID": null, "CAT_DESC": null, "MSGID": "WTPN53 PGTW 140300", "VALIDTIME": "2024-11-07 06:00:00" }, "geometry": { "type": "Point", "coordinates": [ 144.0, 14.3 ] } },
{ "type": "Feature", "properties": { "ID": 285557, "LAT": 14.3, "LON": 142.5, "VMAX": 15.0, "MSLP": 1013.8515, "RMAX": 40.0, "FSPD": 6.99642, "FDIR": 274.2167, "RENV": 500.0, "PENV": 1012.0, "VALIDT": 0, "DTG": "2024-11-07 12:00", "LATNOW": 21.0, "LONNOW": 114.0, "WINDNOW": 25.0, "DIRNOW": 1.0, "SPDNOW": 3.0, "TECH": "TRAK", "ADVNR": 20, "ATCFID": "WP262024", "NAME": "TORAJI", "FTECH": "JTWC", "FCST_DTG": "2024-11-14 00:00:00", "RUN_DTG": "2024-11-14 16:09:11", "BASIN": "WP", "STMNR": 26, "CAT_ID": null, "CAT_DESC": null, "MSGID": "WTPN53 PGTW 140300", "VALIDTIME": "2024-11-07 12:00:00" }, "geometry": { "type": "Point", "coordinates": [ 142.5, 14.3 ] } },
{ "type": "Feature", "properties": { "ID": 285558, "LAT": 14.4, "LON": 141.1, "VMAX": 15.0, "MSLP": 1013.8515, "RMAX": 40.0, "FSPD": 7.49024, "FDIR": 273.9383, "RENV": 500.0, "PENV": 1012.0, "VALIDT": 0, "DTG": "2024-11-07 18:00", "LATNOW": 21.0, "LONNOW": 114.0, "WINDNOW": 25.0, "DIRNOW": 1.0, "SPDNOW": 3.0, "TECH": "TRAK", "ADVNR": 20, "ATCFID": "WP262024", "NAME": "TORAJI", "FTECH": "JTWC", "FCST_DTG": "2024-11-14 00:00:00", "RUN_DTG": "2024-11-14 16:09:11", "BASIN": "WP", "STMNR": 26, "CAT_ID": null, "CAT_DESC": null, "MSGID": "WTPN53 PGTW 140300", "VALIDTIME": "2024-11-07 18:00:00" }, "geometry": { "type": "Point", "coordinates": [ 141.100006, 14.4 ] } },
{ "type": "Feature", "properties": { "ID": 285559, "LAT": 14.5, "LON": 139.6, "VMAX": 20.0, "MSLP": 1012.95825, "RMAX": 45.0, "FSPD": 8.97779, "FDIR": 273.28497, "RENV": 500.0, "PENV": 1012.0, "VALIDT": 0, "DTG": "2024-11-08 00:00", "LATNOW": 21.0, "LONNOW": 114.0, "WINDNOW": 25.0, "DIRNOW": 1.0, "SPDNOW": 3.0, "TECH": "TRAK", "ADVNR": 20, "ATCFID": "WP262024", "NAME": "TORAJI", "FTECH": "JTWC", "FCST_DTG": "2024-11-14 00:00:00", "RUN_DTG": "2024-11-14 16:09:11", "BASIN": "WP", "STMNR": 26, "CAT_ID": null, "CAT_DESC": null, "MSGID": "WTPN53 PGTW 140300", "VALIDTIME": "2024-11-08 00:00:00" }, "geometry": { "type": "Point", "coordinates": [ 139.600006, 14.5 ] } },
{ "type": "Feature", "properties": { "ID": 285560, "LAT": 14.6, "LON": 137.8, "VMAX": 20.0, "MSLP": 1012.95825, "RMAX": 45.0, "FSPD": 7.48349, "FDIR": 273.9418, "RENV": 500.0, "PENV": 1012.0, "VALIDT": 0, "DTG": "2024-11-08 06:00", "LATNOW": 21.0, "LONNOW": 114.0, "WINDNOW": 25.0, "DIRNOW": 1.0, "SPDNOW": 3.0, "TECH": "TRAK", "ADVNR": 20, "ATCFID": "WP262024", "NAME": "TORAJI", "FTECH": "JTWC", "FCST_DTG": "2024-11-14 00:00:00", "RUN_DTG": "2024-11-14 16:09:11", "BASIN": "WP", "STMNR": 26, "CAT_ID": null, "CAT_DESC": null, "MSGID": "WTPN53 PGTW 140300", "VALIDTIME": "2024-11-08 06:00:00" }, "geometry": { "type": "Point", "coordinates": [ 137.800003, 14.6 ] } },
{ "type": "Feature", "properties": { "ID": 285561, "LAT": 14.7, "LON": 136.3, "VMAX": 20.0, "MSLP": 1012.95825, "RMAX": 45.0, "FSPD": 7.46408, "FDIR": 269.99997, "RENV": 500.0, "PENV": 1012.0, "VALIDT": 0, "DTG": "2024-11-08 12:00", "LATNOW": 21.0, "LONNOW": 114.0, "WINDNOW": 25.0, "DIRNOW": 1.0, "SPDNOW": 3.0, "TECH": "TRAK", "ADVNR": 20, "ATCFID": "WP262024", "NAME": "TORAJI", "FTECH": "JTWC", "FCST_DTG": "2024-11-14 00:00:00", "RUN_DTG": "2024-11-14 16:09:11", "BASIN": "WP", "STMNR": 26, "CAT_ID": null, "CAT_DESC": null, "MSGID": "WTPN53 PGTW 140300", "VALIDTIME": "2024-11-08 12:00:00" }, "geometry": { "type": "Point", "coordinates": [ 136.300003, 14.7 ] } },
{ "type": "Feature", "properties": { "ID": 285584, "LAT": 21.0, "LON": 114.0, "VMAX": 25.0, "MSLP": 1011.80975, "RMAX": 45.0, "FSPD": 1.46408, "FDIR": 259.88116, "RENV": 500.0, "PENV": 1012.0, "VALIDT": 0, "DTG": "2024-11-14 00:00", "LATNOW": 21.0, "LONNOW": 114.0, "WINDNOW": 25.0, "DIRNOW": 1.0, "SPDNOW": 3.0, "TECH": "TRAK", "ADVNR": 20, "ATCFID": "WP262024", "NAME": "TORAJI", "FTECH": "JTWC", "FCST_DTG": "2024-11-14 00:00:00", "RUN_DTG": "2024-11-14 16:09:11", "BASIN": "WP", "STMNR": 26, "CAT_ID": null, "CAT_DESC": null, "MSGID": "WTPN53 PGTW 140300", "VALIDTIME": "2024-11-14 00:00:00" }, "geometry": { "type": "LineString", "coordinates": [ [ 147.2, 14.1 ], [ 146.2, 14.2 ], [ 145.4, 14.3 ], [ 144.0, 14.3 ], [ 142.5, 14.3 ], [ 141.1, 14.4 ], [ 139.6, 14.5 ], [ 137.8, 14.6 ], [ 136.3, 14.7 ], [ 134.8, 14.7 ], [ 133.3, 14.5 ], [ 131.8, 14.4 ], [ 130.3, 14.7 ], [ 128.4, 15.0 ], [ 126.9, 15.1 ], [ 125.2, 15.2 ], [ 124.4, 15.6 ], [ 123.3, 15.9 ], [ 122.3, 16.4 ], [ 122.04, 16.5 ], [ 121.0, 16.9 ], [ 120.0, 18.0 ], [ 119.1, 18.3 ], [ 118.7, 18.7 ], [ 118.0, 19.2 ], [ 117.5, 19.8 ], [ 117.1, 20.0 ], [ 116.2, 20.2 ], [ 115.3, 20.6 ], [ 115.1, 21.8 ], [ 114.4, 21.1 ], [ 114.0, 21.0 ] ] } },
{ "type": "Feature", "properties": { "ID": 285586, "LAT": 20.7, "LON": 113.2, "VMAX": 15.0, "MSLP": 1013.8515, "RMAX": 40.0, "FSPD": 0.70423, "FDIR": 223.07152, "RENV": 250.0, "PENV": 1012.0, "VALIDT": 24, "DTG": "2024-11-15 00:00", "LATNOW": 21.0, "LONNOW": 114.0, "WINDNOW": 25.0, "DIRNOW": 1.0, "SPDNOW": 3.0, "TECH": "FCST", "ADVNR": 20, "ATCFID": "WP262024", "NAME": "TORAJI", "FTECH": "JTWC", "FCST_DTG": "2024-11-14 00:00:00", "RUN_DTG": "2024-11-14 16:09:11", "BASIN": "WP", "STMNR": 26, "CAT_ID": null, "CAT_DESC": null, "MSGID": "WTPN53 PGTW 140300", "VALIDTIME": "2024-11-15 00:00:00" }, "geometry": { "type": "LineString", "coordinates": [ [ 114.0, 21.0 ], [ 113.4, 20.9 ], [ 113.2, 20.7 ] ] } }
]
}
