{
"type": "FeatureCollection",
"crs": { "type": "name", "properties": { "name": "urn:ogc:def:crs:OGC:1.3:CRS84" } },
"features": [
{ "type": "Feature", "properties": { "ID": 270707, "LAT": 15.9, "LON": -82.0, "VMAX": 20.0, "MSLP": 1007.0, "RMAX": 120.0, "FSPD": 3.95334, "FDIR": 321.33163, "RENV": 200.0, "PENV": 1009.0, "VALIDT": 0, "DTG": "2024-10-17 18:00", "LATNOW": 17.0, "LONNOW": -92.5, "WINDNOW": 25.0, "DIRNOW": 7.0, "SPDNOW": 4.0, "TECH": "TRAK", "ADVNR": 8, "ATCFID": "AL152024", "NAME": "NADINE", "FTECH": "OFCL", "FCST_DTG": "2024-10-20 12:00:00", "RUN_DTG": "2024-10-21 03:12:42", "BASIN": "AL", "STMNR": 15, "CAT_ID": null, "CAT_DESC": null, "MSGID": "WTNT25 KNHC 201439", "VALIDTIME": "2024-10-17 18:00:00" }, "geometry": { "type": "Point", "coordinates": [ -82.0, 15.9 ] } },
{ "type": "Feature", "properties": { "ID": 270708, "LAT": 16.5, "LON": -82.5, "VMAX": 25.0, "MSLP": 1005.0, "RMAX": 120.0, "FSPD": 5.79768, "FDIR": 290.78918, "RENV": 200.0, "PENV": 1009.0, "VALIDT": 0, "DTG": "2024-10-18 00:00", "LATNOW": 17.0, "LONNOW": -92.5, "WINDNOW": 25.0, "DIRNOW": 7.0, "SPDNOW": 4.0, "TECH": "TRAK", "ADVNR": 8, "ATCFID": "AL152024", "NAME": "NADINE", "FTECH": "OFCL", "FCST_DTG": "2024-10-20 12:00:00", "RUN_DTG": "2024-10-21 03:12:42", "BASIN": "AL", "STMNR": 15, "CAT_ID": null, "CAT_DESC": null, "MSGID": "WTNT25 KNHC 201439", "VALIDTIME": "2024-10-18 00:00:00" }, "geometry": { "type": "Point", "coordinates": [ -82.5, 16.5 ] } },
{ "type": "Feature", "properties": { "ID": 270709, "LAT": 16.9, "LON": -83.6, "VMAX": 25.0, "MSLP": 1005.0, "RMAX": 120.0, "FSPD": 4.88037, "FDIR": 294.9384, "RENV": 190.0, "PENV": 1009.0, "VALIDT": 0, "DTG": "2024-10-18 06:00", "LATNOW": 17.0, "LONNOW": -92.5, "WINDNOW": 25.0, "DIRNOW": 7.0, "SPDNOW": 4.0, "TECH": "TRAK", "ADVNR": 8, "ATCFID": "AL152024", "NAME": "NADINE", "FTECH": "OFCL", "FCST_DTG": "2024-10-20 12:00:00", "RUN_DTG": "2024-10-21 03:12:42", "BASIN": "AL", "STMNR": 15, "CAT_ID": null, "CAT_DESC": null, "MSGID": "WTNT25 KNHC 201439", "VALIDTIME": "2024-10-18 06:00:00" }, "geometry": { "type": "Point", "coordinates": [ -83.599998, 16.9 ] } },
{ "type": "Feature", "properties": { "ID": 270710, "LAT": 17.3, "LON": -84.5, "VMAX": 25.0, "MSLP": 1005.0, "RMAX": 120.0, "FSPD": 1.14, "FDIR": 334.49365, "RENV": 190.0, "PENV": 1009.0, "VALIDT": 0, "DTG": "2024-10-18 12:00", "LATNOW": 17.0, "LONNOW": -92.5, "WINDNOW": 25.0, "DIRNOW": 7.0, "SPDNOW": 4.0, "TECH": "TRAK", "ADVNR": 8, "ATCFID": "AL152024", "NAME": "NADINE", "FTECH": "OFCL", "FCST_DTG": "2024-10-20 12:00:00", "RUN_DTG": "2024-10-21 03:12:42", "BASIN": "AL", "STMNR": 15, "CAT_ID": null, "CAT_DESC": null, "MSGID": "WTNT25 KNHC 201439", "VALIDTIME": "2024-10-18 12:00:00" }, "geometry": { "type": "Point", "coordinates": [ -84.5, 17.299999 ] } },
{ "type": "Feature", "properties": { "ID": 270711, "LAT": 17.5, "LON": -84.6, "VMAX": 30.0, "MSLP": 1005.0, "RMAX": 120.0, "FSPD": 4.9319, "FDIR": 275.9874, "RENV": 190.0, "PENV": 1009.0, "VALIDT": 0, "DTG": "2024-10-18 18:00", "LATNOW": 17.0, "LONNOW": -92.5, "WINDNOW": 25.0, "DIRNOW": 7.0, "SPDNOW": 4.0, "TECH": "TRAK", "ADVNR": 8, "ATCFID": "AL152024", "NAME": "NADINE", "FTECH": "OFCL", "FCST_DTG": "2024-10-20 12:00:00", "RUN_DTG": "2024-10-21 03:12:42", "BASIN": "AL", "STMNR": 15, "CAT_ID": null, "CAT_DESC": null, "MSGID": "WTNT25 KNHC 201439", "VALIDTIME": "2024-10-18 18:00:00" }, "geometry": { "type": "Point", "coordinates": [ -84.599998, 17.5 ] } },
{ "type": "Feature", "properties": { "ID": 270712, "LAT": 17.6, "LON": -85.6, "VMAX": 30.0, "MSLP": 1005.0, "RMAX": 100.0, "FSPD": 4.534, "FDIR": 256.88367, "RENV": 190.0, "PENV": 1009.0, "VALIDT": 0, "DTG": "2024-10-19 00:00", "LATNOW": 17.0, "LONNOW": -92.5, "WINDNOW": 25.0, "DIRNOW": 7.0, "SPDNOW": 4.0, "TECH": "TRAK", "ADVNR": 8, "ATCFID": "AL152024", "NAME": "NADINE", "FTECH": "OFCL", "FCST_DTG": "2024-10-20 12:00:00", "RUN_DTG": "2024-10-21 03:12:42", "BASIN": "AL", "STMNR": 15, "CAT_ID": null, "CAT_DESC": null, "MSGID": "WTNT25 KNHC 201439", "VALIDTIME": "2024-10-19 00:00:00" }, "geometry": { "type": "Point", "coordinates": [ -85.599998, 17.6 ] } },
{ "type": "Feature", "properties": { "ID": 270713, "LAT": 17.4, "LON": -86.5, "VMAX": 35.0, "MSLP": 1004.0, "RMAX": 120.0, "FSPD": 3.47553, "FDIR": 261.4878, "RENV": 200.0, "PENV": 1012.0, "VALIDT": 0, "DTG": "2024-10-19 06:00", "LATNOW": 17.0, "LONNOW": -92.5, "WINDNOW": 25.0, "DIRNOW": 7.0, "SPDNOW": 4.0, "TECH": "TRAK", "ADVNR": 8, "ATCFID": "AL152024", "NAME": "NADINE", "FTECH": "OFCL", "FCST_DTG": "2024-10-20 12:00:00", "RUN_DTG": "2024-10-21 03:12:42", "BASIN": "AL", "STMNR": 15, "CAT_ID": null, "CAT_DESC": null, "MSGID": "WTNT25 KNHC 201439", "VALIDTIME": "2024-10-19 06:00:00" }, "geometry": { "type": "Point", "coordinates": [ -86.5, 17.4 ] } },
{ "type": "Feature", "properties": { "ID": 270714, "LAT": 17.3, "LON": -87.2, "VMAX": 40.0, "MSLP": 1002.0, "RMAX": 120.0, "FSPD": 7.92286, "FDIR": 277.46173, "RENV": 200.0, "PENV": 1012.0, "VALIDT": 0, "DTG": "2024-10-19 12:00", "LATNOW": 17.0, "LONNOW": -92.5, "WINDNOW": 25.0, "DIRNOW": 7.0, "SPDNOW": 4.0, "TECH": "TRAK", "ADVNR": 8, "ATCFID": "AL152024", "NAME": "NADINE", "FTECH": "OFCL", "FCST_DTG": "2024-10-20 12:00:00", "RUN_DTG": "2024-10-21 03:12:42", "BASIN": "AL", "STMNR": 15, "CAT_ID": null, "CAT_DESC": null, "MSGID": "WTNT25 KNHC 201439", "VALIDTIME": "2024-10-19 12:00:00" }, "geometry": { "type": "Point", "coordinates": [ -87.199997, 17.299999 ] } },
{ "type": "Feature", "properties": { "ID": 270715, "LAT": 17.44, "LON": -88.32, "VMAX": 40.0, "MSLP": 1002.0, "RMAX": 120.0, "FSPD": 7.91863, "FDIR": 277.46564, "RENV": 200.0, "PENV": 1012.0, "VALIDT": 0, "DTG": "2024-10-19 16:00", "LATNOW": 17.0, "LONNOW": -92.5, "WINDNOW": 25.0, "DIRNOW": 7.0, "SPDNOW": 4.0, "TECH": "TRAK", "ADVNR": 8, "ATCFID": "AL152024", "NAME": "NADINE", "FTECH": "OFCL", "FCST_DTG": "2024-10-20 12:00:00", "RUN_DTG": "2024-10-21 03:12:42", "BASIN": "AL", "STMNR": 15, "CAT_ID": null, "CAT_DESC": null, "MSGID": "WTNT25 KNHC 201439", "VALIDTIME": "2024-10-19 16:00:00" }, "geometry": { "type": "Point", "coordinates": [ -88.32, 17.440001 ] } },
{ "type": "Feature", "properties": { "ID": 270716, "LAT": 17.5, "LON": -88.8, "VMAX": 45.0, "MSLP": 1003.0, "RMAX": 120.0, "FSPD": 5.98001, "FDIR": 260.09262, "RENV": 200.0, "PENV": 1012.0, "VALIDT": 0, "DTG": "2024-10-19 18:00", "LATNOW": 17.0, "LONNOW": -92.5, "WINDNOW": 25.0, "DIRNOW": 7.0, "SPDNOW": 4.0, "TECH": "TRAK", "ADVNR": 8, "ATCFID": "AL152024", "NAME": "NADINE", "FTECH": "OFCL", "FCST_DTG": "2024-10-20 12:00:00", "RUN_DTG": "2024-10-21 03:12:42", "BASIN": "AL", "STMNR": 15, "CAT_ID": null, "CAT_DESC": null, "MSGID": "WTNT25 KNHC 201439", "VALIDTIME": "2024-10-19 18:00:00" }, "geometry": { "type": "Point", "coordinates": [ -88.800003, 17.5 ] } },
{ "type": "Feature", "properties": { "ID": 270717, "LAT": 17.3, "LON": -90.0, "VMAX": 30.0, "MSLP": 1006.0, "RMAX": 50.0, "FSPD": 6.09738, "FDIR": 255.33813, "RENV": 100.0, "PENV": 1009.0, "VALIDT": 0, "DTG": "2024-10-20 00:00", "LATNOW": 17.0, "LONNOW": -92.5, "WINDNOW": 25.0, "DIRNOW": 7.0, "SPDNOW": 4.0, "TECH": "TRAK", "ADVNR": 8, "ATCFID": "AL152024", "NAME": "NADINE", "FTECH": "OFCL", "FCST_DTG": "2024-10-20 12:00:00", "RUN_DTG": "2024-10-21 03:12:42", "BASIN": "AL", "STMNR": 15, "CAT_ID": null, "CAT_DESC": null, "MSGID": "WTNT25 KNHC 201439", "VALIDTIME": "2024-10-20 00:00:00" }, "geometry": { "type": "Point", "coordinates": [ -90.0, 17.299999 ] } },
{ "type": "Feature", "properties": { "ID": 270718, "LAT": 17.0, "LON": -91.2, "VMAX": 25.0, "MSLP": 1006.0, "RMAX": 50.0, "FSPD": 6.39557, "FDIR": 269.99997, "RENV": 100.0, "PENV": 1010.0, "VALIDT": 0, "DTG": "2024-10-20 06:00", "LATNOW": 17.0, "LONNOW": -92.5, "WINDNOW": 25.0, "DIRNOW": 7.0, "SPDNOW": 4.0, "TECH": "TRAK", "ADVNR": 8, "ATCFID": "AL152024", "NAME": "NADINE", "FTECH": "OFCL", "FCST_DTG": "2024-10-20 12:00:00", "RUN_DTG": "2024-10-21 03:12:42", "BASIN": "AL", "STMNR": 15, "CAT_ID": null, "CAT_DESC": null, "MSGID": "WTNT25 KNHC 201439", "VALIDTIME": "2024-10-20 06:00:00" }, "geometry": { "type": "Point", "coordinates": [ -91.199997, 17.0 ] } },
{ "type": "Feature", "properties": { "ID": 270719, "LAT": 17.0, "LON": -92.5, "VMAX": 25.0, "MSLP": 1007.0, "RMAX": 50.0, "FSPD": 7.12267, "FDIR": 223.75832, "RENV": 100.0, "PENV": 1010.0, "VALIDT": 0, "DTG": "2024-10-20 12:00", "LATNOW": 17.0, "LONNOW": -92.5, "WINDNOW": 25.0, "DIRNOW": 7.0, "SPDNOW": 4.0, "TECH": "TRAK", "ADVNR": 8, "ATCFID": "AL152024", "NAME": "NADINE", "FTECH": "OFCL", "FCST_DTG": "2024-10-20 12:00:00", "RUN_DTG": "2024-10-21 03:12:42", "BASIN": "AL", "STMNR": 15, "CAT_ID": null, "CAT_DESC": null, "MSGID": "WTNT25 KNHC 201439", "VALIDTIME": "2024-10-20 12:00:00" }, "geometry": { "type": "Point", "coordinates": [ -92.5, 17.0 ] } },
{ "type": "Feature", "properties": { "ID": 270720, "LAT": 16.5, "LON": -93.0, "VMAX": 25.0, "MSLP": 1007.0, "RMAX": 49.02243, "FSPD": 7.12267, "FDIR": 223.75832, "RENV": 250.0, "PENV": 1012.0, "VALIDT": 3, "DTG": "2024-10-20 15:00", "LATNOW": 17.0, "LONNOW": -92.5, "WINDNOW": 25.0, "DIRNOW": 7.0, "SPDNOW": 4.0, "TECH": "FCST", "ADVNR": 8, "ATCFID": "AL152024", "NAME": "NADINE", "FTECH": "OFCL", "FCST_DTG": "2024-10-20 12:00:00", "RUN_DTG": "2024-10-21 03:12:42", "BASIN": "AL", "STMNR": 15, "CAT_ID": null, "CAT_DESC": null, "MSGID": "WTNT25 KNHC 201439", "VALIDTIME": "2024-10-20 15:00:00" }, "geometry": { "type": "Point", "coordinates": [ -93.0, 16.5 ] } },
{ "type": "Feature", "properties": { "ID": 270719, "LAT": 17.0, "LON": -92.5, "VMAX": 25.0, "MSLP": 1007.0, "RMAX": 50.0, "FSPD": 7.12267, "FDIR": 223.75832, "RENV": 100.0, "PENV": 1010.0, "VALIDT": 0, "DTG": "2024-10-20 12:00", "LATNOW": 17.0, "LONNOW": -92.5, "WINDNOW": 25.0, "DIRNOW": 7.0, "SPDNOW": 4.0, "TECH": "TRAK", "ADVNR": 8, "ATCFID": "AL152024", "NAME": "NADINE", "FTECH": "OFCL", "FCST_DTG": "2024-10-20 12:00:00", "RUN_DTG": "2024-10-21 03:12:42", "BASIN": "AL", "STMNR": 15, "CAT_ID": null, "CAT_DESC": null, "MSGID": "WTNT25 KNHC 201439", "VALIDTIME": "2024-10-20 12:00:00" }, "geometry": { "type": "LineString", "coordinates": [ [ -82.0, 15.9 ], [ -82.5, 16.5 ], [ -83.6, 16.9 ], [ -84.5, 17.3 ], [ -84.6, 17.5 ], [ -85.6, 17.6 ], [ -86.5, 17.4 ], [ -87.2, 17.3 ], [ -88.32, 17.44 ], [ -88.8, 17.5 ], [ -90.0, 17.3 ], [ -91.2, 17.0 ], [ -92.5, 17.0 ] ] } },
{ "type": "Feature", "properties": { "ID": 270720, "LAT": 16.5, "LON": -93.0, "VMAX": 25.0, "MSLP": 1007.0, "RMAX": 49.02243, "FSPD": 7.12267, "FDIR": 223.75832, "RENV": 250.0, "PENV": 1012.0, "VALIDT": 3, "DTG": "2024-10-20 15:00", "LATNOW": 17.0, "LONNOW": -92.5, "WINDNOW": 25.0, "DIRNOW": 7.0, "SPDNOW": 4.0, "TECH": "FCST", "ADVNR": 8, "ATCFID": "AL152024", "NAME": "NADINE", "FTECH": "OFCL", "FCST_DTG": "2024-10-20 12:00:00", "RUN_DTG": "2024-10-21 03:12:42", "BASIN": "AL", "STMNR": 15, "CAT_ID": null, "CAT_DESC": null, "MSGID": "WTNT25 KNHC 201439", "VALIDTIME": "2024-10-20 15:00:00" }, "geometry": { "type": "LineString", "coordinates": [ [ -92.5, 17.0 ], [ -93.0, 16.5 ] ] } }
]
}
