{
"type": "FeatureCollection",
"crs": { "type": "name", "properties": { "name": "urn:ogc:def:crs:OGC:1.3:CRS84" } },
"features": [
{ "type": "Feature", "properties": { "ID": 318044, "LAT": -8.7, "LON": 141.4, "VMAX": 20.0, "MSLP": 1012.95825, "RMAX": 45.0, "FSPD": 0.0, "FDIR": 90.0, "RENV": 500.0, "PENV": 1012.0, "VALIDT": 0, "DTG": "2025-05-08 00:00", "LATNOW": -9.0, "LONNOW": 137.9, "WINDNOW": 35.0, "DIRNOW": 2.0, "SPDNOW": 3.0, "TECH": "TRAK", "ADVNR": 3, "ATCFID": "SH322025", "NAME": "THIRTYTWO", "FTECH": "JTWC", "FCST_DTG": "2025-05-11 18:00:00", "RUN_DTG": "2025-05-12 06:25:20", "BASIN": "SH", "STMNR": 32, "CAT_ID": null, "CAT_DESC": null, "MSGID": "WTPS51 PGTW 112100", "VALIDTIME": "2025-05-08 00:00:00" }, "geometry": { "type": "Point", "coordinates": [ 141.399994, -8.7 ] } },
{ "type": "Feature", "properties": { "ID": 318045, "LAT": -8.7, "LON": 141.4, "VMAX": 20.0, "MSLP": 1012.95825, "RMAX": 45.0, "FSPD": 4.19728, "FDIR": 284.18964, "RENV": 500.0, "PENV": 1012.0, "VALIDT": 0, "DTG": "2025-05-08 00:00", "LATNOW": -9.0, "LONNOW": 137.9, "WINDNOW": 35.0, "DIRNOW": 2.0, "SPDNOW": 3.0, "TECH": "TRAK", "ADVNR": 3, "ATCFID": "SH322025", "NAME": "THIRTYTWO", "FTECH": "JTWC", "FCST_DTG": "2025-05-11 18:00:00", "RUN_DTG": "2025-05-12 06:25:20", "BASIN": "SH", "STMNR": 32, "CAT_ID": null, "CAT_DESC": null, "MSGID": "WTPS51 PGTW 112100", "VALIDTIME": "2025-05-08 00:00:00" }, "geometry": { "type": "Point", "coordinates": [ 141.399994, -8.7 ] } },
{ "type": "Feature", "properties": { "ID": 318046, "LAT": -8.5, "LON": 140.6, "VMAX": 20.0, "MSLP": 1012.95825, "RMAX": 45.0, "FSPD": 4.35461, "FDIR": 290.7575, "RENV": 500.0, "PENV": 1012.0, "VALIDT": 0, "DTG": "2025-05-08 06:00", "LATNOW": -9.0, "LONNOW": 137.9, "WINDNOW": 35.0, "DIRNOW": 2.0, "SPDNOW": 3.0, "TECH": "TRAK", "ADVNR": 3, "ATCFID": "SH322025", "NAME": "THIRTYTWO", "FTECH": "JTWC", "FCST_DTG": "2025-05-11 18:00:00", "RUN_DTG": "2025-05-12 06:25:20", "BASIN": "SH", "STMNR": 32, "CAT_ID": null, "CAT_DESC": null, "MSGID": "WTPS51 PGTW 112100", "VALIDTIME": "2025-05-08 06:00:00" }, "geometry": { "type": "Point", "coordinates": [ 140.600006, -8.5 ] } },
{ "type": "Feature", "properties": { "ID": 318047, "LAT": -8.2, "LON": 139.8, "VMAX": 20.0, "MSLP": 1012.95825, "RMAX": 45.0, "FSPD": 4.3567, "FDIR": 290.74704, "RENV": 500.0, "PENV": 1012.0, "VALIDT": 0, "DTG": "2025-05-08 12:00", "LATNOW": -9.0, "LONNOW": 137.9, "WINDNOW": 35.0, "DIRNOW": 2.0, "SPDNOW": 3.0, "TECH": "TRAK", "ADVNR": 3, "ATCFID": "SH322025", "NAME": "THIRTYTWO", "FTECH": "JTWC", "FCST_DTG": "2025-05-11 18:00:00", "RUN_DTG": "2025-05-12 06:25:20", "BASIN": "SH", "STMNR": 32, "CAT_ID": null, "CAT_DESC": null, "MSGID": "WTPS51 PGTW 112100", "VALIDTIME": "2025-05-08 12:00:00" }, "geometry": { "type": "Point", "coordinates": [ 139.800003, -8.2 ] } },
{ "type": "Feature", "properties": { "ID": 318048, "LAT": -8.08, "LON": 139.48, "VMAX": 20.0, "MSLP": 1012.95825, "RMAX": 45.0, "FSPD": 4.358, "FDIR": 290.7406, "RENV": 500.0, "PENV": 1012.0, "VALIDT": 0, "DTG": "2025-05-08 14:00", "LATNOW": -9.0, "LONNOW": 137.9, "WINDNOW": 35.0, "DIRNOW": 2.0, "SPDNOW": 3.0, "TECH": "TRAK", "ADVNR": 3, "ATCFID": "SH322025", "NAME": "THIRTYTWO", "FTECH": "JTWC", "FCST_DTG": "2025-05-11 18:00:00", "RUN_DTG": "2025-05-12 06:25:20", "BASIN": "SH", "STMNR": 32, "CAT_ID": null, "CAT_DESC": null, "MSGID": "WTPS51 PGTW 112100", "VALIDTIME": "2025-05-08 14:00:00" }, "geometry": { "type": "Point", "coordinates": [ 139.479996, -8.08 ] } },
{ "type": "Feature", "properties": { "ID": 318049, "LAT": -7.9, "LON": 139.0, "VMAX": 25.0, "MSLP": 1011.80975, "RMAX": 45.0, "FSPD": 4.70111, "FDIR": 282.64215, "RENV": 500.0, "PENV": 1012.0, "VALIDT": 0, "DTG": "2025-05-08 18:00", "LATNOW": -9.0, "LONNOW": 137.9, "WINDNOW": 35.0, "DIRNOW": 2.0, "SPDNOW": 3.0, "TECH": "TRAK", "ADVNR": 3, "ATCFID": "SH322025", "NAME": "THIRTYTWO", "FTECH": "JTWC", "FCST_DTG": "2025-05-11 18:00:00", "RUN_DTG": "2025-05-12 06:25:20", "BASIN": "SH", "STMNR": 32, "CAT_ID": null, "CAT_DESC": null, "MSGID": "WTPS51 PGTW 112100", "VALIDTIME": "2025-05-08 18:00:00" }, "geometry": { "type": "Point", "coordinates": [ 139.0, -7.9 ] } },
{ "type": "Feature", "properties": { "ID": 318050, "LAT": -7.7, "LON": 138.1, "VMAX": 25.0, "MSLP": 1011.80975, "RMAX": 45.0, "FSPD": 9.04524, "FDIR": 286.52136, "RENV": 500.0, "PENV": 1012.0, "VALIDT": 0, "DTG": "2025-05-09 00:00", "LATNOW": -9.0, "LONNOW": 137.9, "WINDNOW": 35.0, "DIRNOW": 2.0, "SPDNOW": 3.0, "TECH": "TRAK", "ADVNR": 3, "ATCFID": "SH322025", "NAME": "THIRTYTWO", "FTECH": "JTWC", "FCST_DTG": "2025-05-11 18:00:00", "RUN_DTG": "2025-05-12 06:25:20", "BASIN": "SH", "STMNR": 32, "CAT_ID": null, "CAT_DESC": null, "MSGID": "WTPS51 PGTW 112100", "VALIDTIME": "2025-05-09 00:00:00" }, "geometry": { "type": "Point", "coordinates": [ 138.100006, -7.7 ] } },
{ "type": "Feature", "properties": { "ID": 318051, "LAT": -7.2, "LON": 136.4, "VMAX": 25.0, "MSLP": 1011.80975, "RMAX": 45.0, "FSPD": 2.05778, "FDIR": 360.0, "RENV": 500.0, "PENV": 1012.0, "VALIDT": 0, "DTG": "2025-05-09 06:00", "LATNOW": -9.0, "LONNOW": 137.9, "WINDNOW": 35.0, "DIRNOW": 2.0, "SPDNOW": 3.0, "TECH": "TRAK", "ADVNR": 3, "ATCFID": "SH322025", "NAME": "THIRTYTWO", "FTECH": "JTWC", "FCST_DTG": "2025-05-11 18:00:00", "RUN_DTG": "2025-05-12 06:25:20", "BASIN": "SH", "STMNR": 32, "CAT_ID": null, "CAT_DESC": null, "MSGID": "WTPS51 PGTW 112100", "VALIDTIME": "2025-05-09 06:00:00" }, "geometry": { "type": "Point", "coordinates": [ 136.399994, -7.2 ] } },
{ "type": "Feature", "properties": { "ID": 318052, "LAT": -6.8, "LON": 136.4, "VMAX": 25.0, "MSLP": 1011.80975, "RMAX": 45.0, "FSPD": 1.14382, "FDIR": 116.72812, "RENV": 500.0, "PENV": 1012.0, "VALIDT": 0, "DTG": "2025-05-09 12:00", "LATNOW": -9.0, "LONNOW": 137.9, "WINDNOW": 35.0, "DIRNOW": 2.0, "SPDNOW": 3.0, "TECH": "TRAK", "ADVNR": 3, "ATCFID": "SH322025", "NAME": "THIRTYTWO", "FTECH": "JTWC", "FCST_DTG": "2025-05-11 18:00:00", "RUN_DTG": "2025-05-12 06:25:20", "BASIN": "SH", "STMNR": 32, "CAT_ID": null, "CAT_DESC": null, "MSGID": "WTPS51 PGTW 112100", "VALIDTIME": "2025-05-09 12:00:00" }, "geometry": { "type": "Point", "coordinates": [ 136.399994, -6.8 ] } },
{ "type": "Feature", "properties": { "ID": 318053, "LAT": -6.9, "LON": 136.6, "VMAX": 25.0, "MSLP": 1011.80975, "RMAX": 45.0, "FSPD": 1.44964, "FDIR": 135.21469, "RENV": 500.0, "PENV": 1012.0, "VALIDT": 0, "DTG": "2025-05-09 18:00", "LATNOW": -9.0, "LONNOW": 137.9, "WINDNOW": 35.0, "DIRNOW": 2.0, "SPDNOW": 3.0, "TECH": "TRAK", "ADVNR": 3, "ATCFID": "SH322025", "NAME": "THIRTYTWO", "FTECH": "JTWC", "FCST_DTG": "2025-05-11 18:00:00", "RUN_DTG": "2025-05-12 06:25:20", "BASIN": "SH", "STMNR": 32, "CAT_ID": null, "CAT_DESC": null, "MSGID": "WTPS51 PGTW 112100", "VALIDTIME": "2025-05-09 18:00:00" }, "geometry": { "type": "Point", "coordinates": [ 136.600006, -6.9 ] } },
{ "type": "Feature", "properties": { "ID": 318054, "LAT": -7.1, "LON": 136.8, "VMAX": 25.0, "MSLP": 1011.80975, "RMAX": 45.0, "FSPD": 2.62233, "FDIR": 168.78159, "RENV": 500.0, "PENV": 1012.0, "VALIDT": 0, "DTG": "2025-05-10 00:00", "LATNOW": -9.0, "LONNOW": 137.9, "WINDNOW": 35.0, "DIRNOW": 2.0, "SPDNOW": 3.0, "TECH": "TRAK", "ADVNR": 3, "ATCFID": "SH322025", "NAME": "THIRTYTWO", "FTECH": "JTWC", "FCST_DTG": "2025-05-11 18:00:00", "RUN_DTG": "2025-05-12 06:25:20", "BASIN": "SH", "STMNR": 32, "CAT_ID": null, "CAT_DESC": null, "MSGID": "WTPS51 PGTW 112100", "VALIDTIME": "2025-05-10 00:00:00" }, "geometry": { "type": "Point", "coordinates": [ 136.800003, -7.1 ] } },
{ "type": "Feature", "properties": { "ID": 318055, "LAT": -7.6, "LON": 136.9, "VMAX": 25.0, "MSLP": 1011.80975, "RMAX": 45.0, "FSPD": 3.69894, "FDIR": 146.561, "RENV": 500.0, "PENV": 1012.0, "VALIDT": 0, "DTG": "2025-05-10 06:00", "LATNOW": -9.0, "LONNOW": 137.9, "WINDNOW": 35.0, "DIRNOW": 2.0, "SPDNOW": 3.0, "TECH": "TRAK", "ADVNR": 3, "ATCFID": "SH322025", "NAME": "THIRTYTWO", "FTECH": "JTWC", "FCST_DTG": "2025-05-11 18:00:00", "RUN_DTG": "2025-05-12 06:25:20", "BASIN": "SH", "STMNR": 32, "CAT_ID": null, "CAT_DESC": null, "MSGID": "WTPS51 PGTW 112100", "VALIDTIME": "2025-05-10 06:00:00" }, "geometry": { "type": "Point", "coordinates": [ 136.899994, -7.6 ] } },
{ "type": "Feature", "properties": { "ID": 318056, "LAT": -8.2, "LON": 137.3, "VMAX": 30.0, "MSLP": 1010.40607, "RMAX": 44.21983, "FSPD": 0.51445, "FDIR": 179.99997, "RENV": 500.0, "PENV": 1012.0, "VALIDT": 0, "DTG": "2025-05-10 12:00", "LATNOW": -9.0, "LONNOW": 137.9, "WINDNOW": 35.0, "DIRNOW": 2.0, "SPDNOW": 3.0, "TECH": "TRAK", "ADVNR": 3, "ATCFID": "SH322025", "NAME": "THIRTYTWO", "FTECH": "JTWC", "FCST_DTG": "2025-05-11 18:00:00", "RUN_DTG": "2025-05-12 06:25:20", "BASIN": "SH", "STMNR": 32, "CAT_ID": null, "CAT_DESC": null, "MSGID": "WTPS51 PGTW 112100", "VALIDTIME": "2025-05-10 12:00:00" }, "geometry": { "type": "Point", "coordinates": [ 137.300003, -8.2 ] } },
{ "type": "Feature", "properties": { "ID": 318057, "LAT": -8.3, "LON": 137.3, "VMAX": 30.0, "MSLP": 1010.40607, "RMAX": 44.21983, "FSPD": 4.3929, "FDIR": 125.84116, "RENV": 500.0, "PENV": 1012.0, "VALIDT": 0, "DTG": "2025-05-10 18:00", "LATNOW": -9.0, "LONNOW": 137.9, "WINDNOW": 35.0, "DIRNOW": 2.0, "SPDNOW": 3.0, "TECH": "TRAK", "ADVNR": 3, "ATCFID": "SH322025", "NAME": "THIRTYTWO", "FTECH": "JTWC", "FCST_DTG": "2025-05-11 18:00:00", "RUN_DTG": "2025-05-12 06:25:20", "BASIN": "SH", "STMNR": 32, "CAT_ID": null, "CAT_DESC": null, "MSGID": "WTPS51 PGTW 112100", "VALIDTIME": "2025-05-10 18:00:00" }, "geometry": { "type": "Point", "coordinates": [ 137.300003, -8.3 ] } },
{ "type": "Feature", "properties": { "ID": 318058, "LAT": -8.8, "LON": 138.0, "VMAX": 30.0, "MSLP": 1010.40607, "RMAX": 44.21983, "FSPD": 2.16937, "FDIR": 135.35062, "RENV": 500.0, "PENV": 1012.0, "VALIDT": 0, "DTG": "2025-05-11 00:00", "LATNOW": -9.0, "LONNOW": 137.9, "WINDNOW": 35.0, "DIRNOW": 2.0, "SPDNOW": 3.0, "TECH": "TRAK", "ADVNR": 3, "ATCFID": "SH322025", "NAME": "THIRTYTWO", "FTECH": "JTWC", "FCST_DTG": "2025-05-11 18:00:00", "RUN_DTG": "2025-05-12 06:25:20", "BASIN": "SH", "STMNR": 32, "CAT_ID": null, "CAT_DESC": null, "MSGID": "WTPS51 PGTW 112100", "VALIDTIME": "2025-05-11 00:00:00" }, "geometry": { "type": "Point", "coordinates": [ 138.0, -8.8 ] } },
{ "type": "Feature", "properties": { "ID": 318059, "LAT": -9.1, "LON": 138.3, "VMAX": 35.0, "MSLP": 1003.0, "RMAX": 25.0, "FSPD": 1.44573, "FDIR": 135.37125, "RENV": 105.0, "PENV": 1006.0, "VALIDT": 0, "DTG": "2025-05-11 06:00", "LATNOW": -9.0, "LONNOW": 137.9, "WINDNOW": 35.0, "DIRNOW": 2.0, "SPDNOW": 3.0, "TECH": "TRAK", "ADVNR": 3, "ATCFID": "SH322025", "NAME": "THIRTYTWO", "FTECH": "JTWC", "FCST_DTG": "2025-05-11 18:00:00", "RUN_DTG": "2025-05-12 06:25:20", "BASIN": "SH", "STMNR": 32, "CAT_ID": null, "CAT_DESC": null, "MSGID": "WTPS51 PGTW 112100", "VALIDTIME": "2025-05-11 06:00:00" }, "geometry": { "type": "Point", "coordinates": [ 138.300003, -9.1 ] } },
{ "type": "Feature", "properties": { "ID": 318060, "LAT": -9.3, "LON": 138.5, "VMAX": 35.0, "MSLP": 1003.0, "RMAX": 25.0, "FSPD": 3.41594, "FDIR": 296.85944, "RENV": 105.0, "PENV": 1006.0, "VALIDT": 0, "DTG": "2025-05-11 12:00", "LATNOW": -9.0, "LONNOW": 137.9, "WINDNOW": 35.0, "DIRNOW": 2.0, "SPDNOW": 3.0, "TECH": "TRAK", "ADVNR": 3, "ATCFID": "SH322025", "NAME": "THIRTYTWO", "FTECH": "JTWC", "FCST_DTG": "2025-05-11 18:00:00", "RUN_DTG": "2025-05-12 06:25:20", "BASIN": "SH", "STMNR": 32, "CAT_ID": null, "CAT_DESC": null, "MSGID": "WTPS51 PGTW 112100", "VALIDTIME": "2025-05-11 12:00:00" }, "geometry": { "type": "Point", "coordinates": [ 138.5, -9.3 ] } },
{ "type": "Feature", "properties": { "ID": 318061, "LAT": -9.0, "LON": 137.9, "VMAX": 35.0, "MSLP": 1003.0, "RMAX": 25.0, "FSPD": 2.28648, "FDIR": 269.99997, "RENV": 105.0, "PENV": 1006.0, "VALIDT": 0, "DTG": "2025-05-11 18:00", "LATNOW": -9.0, "LONNOW": 137.9, "WINDNOW": 35.0, "DIRNOW": 2.0, "SPDNOW": 3.0, "TECH": "TRAK", "ADVNR": 3, "ATCFID": "SH322025", "NAME": "THIRTYTWO", "FTECH": "JTWC", "FCST_DTG": "2025-05-11 18:00:00", "RUN_DTG": "2025-05-12 06:25:20", "BASIN": "SH", "STMNR": 32, "CAT_ID": null, "CAT_DESC": null, "MSGID": "WTPS51 PGTW 112100", "VALIDTIME": "2025-05-11 18:00:00" }, "geometry": { "type": "Point", "coordinates": [ 137.899994, -9.0 ] } },
{ "type": "Feature", "properties": { "ID": 318062, "LAT": -9.0, "LON": 137.0, "VMAX": 35.0, "MSLP": 1008.74713, "RMAX": 27.38813, "FSPD": 2.34425, "FDIR": 282.67664, "RENV": 250.0, "PENV": 1012.0, "VALIDT": 12, "DTG": "2025-05-12 06:00", "LATNOW": -9.0, "LONNOW": 137.9, "WINDNOW": 35.0, "DIRNOW": 2.0, "SPDNOW": 3.0, "TECH": "FCST", "ADVNR": 3, "ATCFID": "SH322025", "NAME": "THIRTYTWO", "FTECH": "JTWC", "FCST_DTG": "2025-05-11 18:00:00", "RUN_DTG": "2025-05-12 06:25:20", "BASIN": "SH", "STMNR": 32, "CAT_ID": null, "CAT_DESC": null, "MSGID": "WTPS51 PGTW 112100", "VALIDTIME": "2025-05-12 06:00:00" }, "geometry": { "type": "Point", "coordinates": [ 137.0, -9.0 ] } },
{ "type": "Feature", "properties": { "ID": 318063, "LAT": -8.8, "LON": 136.1, "VMAX": 30.0, "MSLP": 1010.40607, "RMAX": 28.36871, "FSPD": 2.34425, "FDIR": 282.67664, "RENV": 250.0, "PENV": 1012.0, "VALIDT": 24, "DTG": "2025-05-12 18:00", "LATNOW": -9.0, "LONNOW": 137.9, "WINDNOW": 35.0, "DIRNOW": 2.0, "SPDNOW": 3.0, "TECH": "FCST", "ADVNR": 3, "ATCFID": "SH322025", "NAME": "THIRTYTWO", "FTECH": "JTWC", "FCST_DTG": "2025-05-11 18:00:00", "RUN_DTG": "2025-05-12 06:25:20", "BASIN": "SH", "STMNR": 32, "CAT_ID": null, "CAT_DESC": null, "MSGID": "WTPS51 PGTW 112100", "VALIDTIME": "2025-05-12 18:00:00" }, "geometry": { "type": "Point", "coordinates": [ 136.100006, -8.8 ] } },
{ "type": "Feature", "properties": { "ID": 318061, "LAT": -9.0, "LON": 137.9, "VMAX": 35.0, "MSLP": 1003.0, "RMAX": 25.0, "FSPD": 2.28648, "FDIR": 269.99997, "RENV": 105.0, "PENV": 1006.0, "VALIDT": 0, "DTG": "2025-05-11 18:00", "LATNOW": -9.0, "LONNOW": 137.9, "WINDNOW": 35.0, "DIRNOW": 2.0, "SPDNOW": 3.0, "TECH": "TRAK", "ADVNR": 3, "ATCFID": "SH322025", "NAME": "THIRTYTWO", "FTECH": "JTWC", "FCST_DTG": "2025-05-11 18:00:00", "RUN_DTG": "2025-05-12 06:25:20", "BASIN": "SH", "STMNR": 32, "CAT_ID": null, "CAT_DESC": null, "MSGID": "WTPS51 PGTW 112100", "VALIDTIME": "2025-05-11 18:00:00" }, "geometry": { "type": "LineString", "coordinates": [ [ 141.4, -8.7 ], [ 141.4, -8.7 ], [ 140.6, -8.5 ], [ 139.8, -8.2 ], [ 139.48, -8.08 ], [ 139.0, -7.9 ], [ 138.1, -7.7 ], [ 136.4, -7.2 ], [ 136.4, -6.8 ], [ 136.6, -6.9 ], [ 136.8, -7.1 ], [ 136.9, -7.6 ], [ 137.3, -8.2 ], [ 137.3, -8.3 ], [ 138.0, -8.8 ], [ 138.3, -9.1 ], [ 138.5, -9.3 ], [ 137.9, -9.0 ] ] } },
{ "type": "Feature", "properties": { "ID": 318063, "LAT": -8.8, "LON": 136.1, "VMAX": 30.0, "MSLP": 1010.40607, "RMAX": 28.36871, "FSPD": 2.34425, "FDIR": 282.67664, "RENV": 250.0, "PENV": 1012.0, "VALIDT": 24, "DTG": "2025-05-12 18:00", "LATNOW": -9.0, "LONNOW": 137.9, "WINDNOW": 35.0, "DIRNOW": 2.0, "SPDNOW": 3.0, "TECH": "FCST", "ADVNR": 3, "ATCFID": "SH322025", "NAME": "THIRTYTWO", "FTECH": "JTWC", "FCST_DTG": "2025-05-11 18:00:00", "RUN_DTG": "2025-05-12 06:25:20", "BASIN": "SH", "STMNR": 32, "CAT_ID": null, "CAT_DESC": null, "MSGID": "WTPS51 PGTW 112100", "VALIDTIME": "2025-05-12 18:00:00" }, "geometry": { "type": "LineString", "coordinates": [ [ 137.9, -9.0 ], [ 137.0, -9.0 ], [ 136.1, -8.8 ] ] } }
]
}
