{
"type": "FeatureCollection",
"crs": { "type": "name", "properties": { "name": "urn:ogc:def:crs:OGC:1.3:CRS84" } },
"features": [
{ "type": "Feature", "properties": { "ID": 109548, "LAT": 32.9, "LON": -57.3, "VMAX": 30.0, "MSLP": 1014.0, "RMAX": 80.0, "FSPD": 9.27122, "FDIR": 33.66165, "RENV": 120.0, "PENV": 1016.0, "VALIDT": 0, "DTG": "2026-09-27 12:00", "LATNOW": 33.4, "LONNOW": -43.8, "WINDNOW": 35.0, "DIRNOW": 2.0, "SPDNOW": 0.0, "TECH": "TRAK", "ADVNR": 9, "ATCFID": "AL082026", "NAME": "HANNA", "FTECH": "OFCL", "FCST_DTG": "2026-09-30 12:00:00", "RUN_DTG": "2026-10-01 06:26:00", "BASIN": "AL", "STMNR": 8, "CAT_ID": null, "CAT_DESC": null, "MSGID": "WTNT23 KNHC 301449", "VALIDTIME": "2026-09-27 12:00:00" }, "geometry": { "type": "Point", "coordinates": [ -57.299999, 32.900002 ] } },
{ "type": "Feature", "properties": { "ID": 109549, "LAT": 34.4, "LON": -56.1, "VMAX": 30.0, "MSLP": 1013.0, "RMAX": 80.0, "FSPD": 8.13559, "FDIR": 34.71051, "RENV": 110.0, "PENV": 1015.0, "VALIDT": 0, "DTG": "2026-09-27 18:00", "LATNOW": 33.4, "LONNOW": -43.8, "WINDNOW": 35.0, "DIRNOW": 2.0, "SPDNOW": 0.0, "TECH": "TRAK", "ADVNR": 9, "ATCFID": "AL082026", "NAME": "HANNA", "FTECH": "OFCL", "FCST_DTG": "2026-09-30 12:00:00", "RUN_DTG": "2026-10-01 06:26:00", "BASIN": "AL", "STMNR": 8, "CAT_ID": null, "CAT_DESC": null, "MSGID": "WTNT23 KNHC 301449", "VALIDTIME": "2026-09-27 18:00:00" }, "geometry": { "type": "Point", "coordinates": [ -56.099998, 34.400002 ] } },
{ "type": "Feature", "properties": { "ID": 109550, "LAT": 35.7, "LON": -55.0, "VMAX": 30.0, "MSLP": 1013.0, "RMAX": 80.0, "FSPD": 8.48877, "FDIR": 68.67752, "RENV": 110.0, "PENV": 1015.0, "VALIDT": 0, "DTG": "2026-09-28 00:00", "LATNOW": 33.4, "LONNOW": -43.8, "WINDNOW": 35.0, "DIRNOW": 2.0, "SPDNOW": 0.0, "TECH": "TRAK", "ADVNR": 9, "ATCFID": "AL082026", "NAME": "HANNA", "FTECH": "OFCL", "FCST_DTG": "2026-09-30 12:00:00", "RUN_DTG": "2026-10-01 06:26:00", "BASIN": "AL", "STMNR": 8, "CAT_ID": null, "CAT_DESC": null, "MSGID": "WTNT23 KNHC 301449", "VALIDTIME": "2026-09-28 00:00:00" }, "geometry": { "type": "Point", "coordinates": [ -55.0, 35.700001 ] } },
{ "type": "Feature", "properties": { "ID": 109551, "LAT": 36.3, "LON": -53.1, "VMAX": 30.0, "MSLP": 1013.0, "RMAX": 80.0, "FSPD": 7.72291, "FDIR": 74.54675, "RENV": 100.0, "PENV": 1014.0, "VALIDT": 0, "DTG": "2026-09-28 06:00", "LATNOW": 33.4, "LONNOW": -43.8, "WINDNOW": 35.0, "DIRNOW": 2.0, "SPDNOW": 0.0, "TECH": "TRAK", "ADVNR": 9, "ATCFID": "AL082026", "NAME": "HANNA", "FTECH": "OFCL", "FCST_DTG": "2026-09-30 12:00:00", "RUN_DTG": "2026-10-01 06:26:00", "BASIN": "AL", "STMNR": 8, "CAT_ID": null, "CAT_DESC": null, "MSGID": "WTNT23 KNHC 301449", "VALIDTIME": "2026-09-28 06:00:00" }, "geometry": { "type": "Point", "coordinates": [ -53.099998, 36.299999 ] } },
{ "type": "Feature", "properties": { "ID": 109552, "LAT": 36.7, "LON": -51.3, "VMAX": 40.0, "MSLP": 1006.0, "RMAX": 60.0, "FSPD": 7.03537, "FDIR": 94.19342, "RENV": 100.0, "PENV": 1014.0, "VALIDT": 0, "DTG": "2026-09-28 12:00", "LATNOW": 33.4, "LONNOW": -43.8, "WINDNOW": 35.0, "DIRNOW": 2.0, "SPDNOW": 0.0, "TECH": "TRAK", "ADVNR": 9, "ATCFID": "AL082026", "NAME": "HANNA", "FTECH": "OFCL", "FCST_DTG": "2026-09-30 12:00:00", "RUN_DTG": "2026-10-01 06:26:00", "BASIN": "AL", "STMNR": 8, "CAT_ID": null, "CAT_DESC": null, "MSGID": "WTNT23 KNHC 301449", "VALIDTIME": "2026-09-28 12:00:00" }, "geometry": { "type": "Point", "coordinates": [ -51.299999, 36.700001 ] } },
{ "type": "Feature", "properties": { "ID": 109553, "LAT": 36.6, "LON": -49.6, "VMAX": 40.0, "MSLP": 1006.0, "RMAX": 60.0, "FSPD": 5.96906, "FDIR": 115.52625, "RENV": 110.0, "PENV": 1014.0, "VALIDT": 0, "DTG": "2026-09-28 18:00", "LATNOW": 33.4, "LONNOW": -43.8, "WINDNOW": 35.0, "DIRNOW": 2.0, "SPDNOW": 0.0, "TECH": "TRAK", "ADVNR": 9, "ATCFID": "AL082026", "NAME": "HANNA", "FTECH": "OFCL", "FCST_DTG": "2026-09-30 12:00:00", "RUN_DTG": "2026-10-01 06:26:00", "BASIN": "AL", "STMNR": 8, "CAT_ID": null, "CAT_DESC": null, "MSGID": "WTNT23 KNHC 301449", "VALIDTIME": "2026-09-28 18:00:00" }, "geometry": { "type": "Point", "coordinates": [ -49.599998, 36.599998 ] } },
{ "type": "Feature", "properties": { "ID": 109554, "LAT": 36.1, "LON": -48.3, "VMAX": 40.0, "MSLP": 1002.0, "RMAX": 60.0, "FSPD": 6.97846, "FDIR": 116.25146, "RENV": 110.0, "PENV": 1015.0, "VALIDT": 0, "DTG": "2026-09-29 00:00", "LATNOW": 33.4, "LONNOW": -43.8, "WINDNOW": 35.0, "DIRNOW": 2.0, "SPDNOW": 0.0, "TECH": "TRAK", "ADVNR": 9, "ATCFID": "AL082026", "NAME": "HANNA", "FTECH": "OFCL", "FCST_DTG": "2026-09-30 12:00:00", "RUN_DTG": "2026-10-01 06:26:00", "BASIN": "AL", "STMNR": 8, "CAT_ID": null, "CAT_DESC": null, "MSGID": "WTNT23 KNHC 301449", "VALIDTIME": "2026-09-29 00:00:00" }, "geometry": { "type": "Point", "coordinates": [ -48.299999, 36.099998 ] } },
{ "type": "Feature", "properties": { "ID": 109555, "LAT": 35.5, "LON": -46.8, "VMAX": 40.0, "MSLP": 1002.0, "RMAX": 60.0, "FSPD": 5.55968, "FDIR": 123.72351, "RENV": 125.0, "PENV": 1014.0, "VALIDT": 0, "DTG": "2026-09-29 06:00", "LATNOW": 33.4, "LONNOW": -43.8, "WINDNOW": 35.0, "DIRNOW": 2.0, "SPDNOW": 0.0, "TECH": "TRAK", "ADVNR": 9, "ATCFID": "AL082026", "NAME": "HANNA", "FTECH": "OFCL", "FCST_DTG": "2026-09-30 12:00:00", "RUN_DTG": "2026-10-01 06:26:00", "BASIN": "AL", "STMNR": 8, "CAT_ID": null, "CAT_DESC": null, "MSGID": "WTNT23 KNHC 301449", "VALIDTIME": "2026-09-29 06:00:00" }, "geometry": { "type": "Point", "coordinates": [ -46.799999, 35.5 ] } },
{ "type": "Feature", "properties": { "ID": 109556, "LAT": 34.9, "LON": -45.7, "VMAX": 40.0, "MSLP": 1002.0, "RMAX": 60.0, "FSPD": 5.61227, "FDIR": 137.1651, "RENV": 125.0, "PENV": 1014.0, "VALIDT": 0, "DTG": "2026-09-29 12:00", "LATNOW": 33.4, "LONNOW": -43.8, "WINDNOW": 35.0, "DIRNOW": 2.0, "SPDNOW": 0.0, "TECH": "TRAK", "ADVNR": 9, "ATCFID": "AL082026", "NAME": "HANNA", "FTECH": "OFCL", "FCST_DTG": "2026-09-30 12:00:00", "RUN_DTG": "2026-10-01 06:26:00", "BASIN": "AL", "STMNR": 8, "CAT_ID": null, "CAT_DESC": null, "MSGID": "WTNT23 KNHC 301449", "VALIDTIME": "2026-09-29 12:00:00" }, "geometry": { "type": "Point", "coordinates": [ -45.700001, 34.900002 ] } },
{ "type": "Feature", "properties": { "ID": 109557, "LAT": 34.1, "LON": -44.8, "VMAX": 35.0, "MSLP": 1005.0, "RMAX": 60.0, "FSPD": 4.3592, "FDIR": 118.16745, "RENV": 125.0, "PENV": 1014.0, "VALIDT": 0, "DTG": "2026-09-29 18:00", "LATNOW": 33.4, "LONNOW": -43.8, "WINDNOW": 35.0, "DIRNOW": 2.0, "SPDNOW": 0.0, "TECH": "TRAK", "ADVNR": 9, "ATCFID": "AL082026", "NAME": "HANNA", "FTECH": "OFCL", "FCST_DTG": "2026-09-30 12:00:00", "RUN_DTG": "2026-10-01 06:26:00", "BASIN": "AL", "STMNR": 8, "CAT_ID": null, "CAT_DESC": null, "MSGID": "WTNT23 KNHC 301449", "VALIDTIME": "2026-09-29 18:00:00" }, "geometry": { "type": "Point", "coordinates": [ -44.799999, 34.099998 ] } },
{ "type": "Feature", "properties": { "ID": 109558, "LAT": 33.7, "LON": -43.9, "VMAX": 35.0, "MSLP": 1005.0, "RMAX": 60.0, "FSPD": 1.28398, "FDIR": 269.99997, "RENV": 125.0, "PENV": 1014.0, "VALIDT": 0, "DTG": "2026-09-30 00:00", "LATNOW": 33.4, "LONNOW": -43.8, "WINDNOW": 35.0, "DIRNOW": 2.0, "SPDNOW": 0.0, "TECH": "TRAK", "ADVNR": 9, "ATCFID": "AL082026", "NAME": "HANNA", "FTECH": "OFCL", "FCST_DTG": "2026-09-30 12:00:00", "RUN_DTG": "2026-10-01 06:26:00", "BASIN": "AL", "STMNR": 8, "CAT_ID": null, "CAT_DESC": null, "MSGID": "WTNT23 KNHC 301449", "VALIDTIME": "2026-09-30 00:00:00" }, "geometry": { "type": "Point", "coordinates": [ -43.900002, 33.700001 ] } },
{ "type": "Feature", "properties": { "ID": 109559, "LAT": 33.7, "LON": -44.2, "VMAX": 35.0, "MSLP": 1006.0, "RMAX": 60.0, "FSPD": 2.30716, "FDIR": 131.98459, "RENV": 125.0, "PENV": 1014.0, "VALIDT": 0, "DTG": "2026-09-30 06:00", "LATNOW": 33.4, "LONNOW": -43.8, "WINDNOW": 35.0, "DIRNOW": 2.0, "SPDNOW": 0.0, "TECH": "TRAK", "ADVNR": 9, "ATCFID": "AL082026", "NAME": "HANNA", "FTECH": "OFCL", "FCST_DTG": "2026-09-30 12:00:00", "RUN_DTG": "2026-10-01 06:26:00", "BASIN": "AL", "STMNR": 8, "CAT_ID": null, "CAT_DESC": null, "MSGID": "WTNT23 KNHC 301449", "VALIDTIME": "2026-09-30 06:00:00" }, "geometry": { "type": "Point", "coordinates": [ -44.200001, 33.700001 ] } },
{ "type": "Feature", "properties": { "ID": 109560, "LAT": 33.4, "LON": -43.8, "VMAX": 35.0, "MSLP": 1007.0, "RMAX": 75.0, "FSPD": 1.71794, "FDIR": 90.0, "RENV": 125.0, "PENV": 1014.0, "VALIDT": 0, "DTG": "2026-09-30 12:00", "LATNOW": 33.4, "LONNOW": -43.8, "WINDNOW": 35.0, "DIRNOW": 2.0, "SPDNOW": 0.0, "TECH": "TRAK", "ADVNR": 9, "ATCFID": "AL082026", "NAME": "HANNA", "FTECH": "OFCL", "FCST_DTG": "2026-09-30 12:00:00", "RUN_DTG": "2026-10-01 06:26:00", "BASIN": "AL", "STMNR": 8, "CAT_ID": null, "CAT_DESC": null, "MSGID": "WTNT23 KNHC 301449", "VALIDTIME": "2026-09-30 12:00:00" }, "geometry": { "type": "Point", "coordinates": [ -43.799999, 33.400002 ] } },
{ "type": "Feature", "properties": { "ID": 109561, "LAT": 33.4, "LON": -43.6, "VMAX": 30.0, "MSLP": 1008.0, "RMAX": 75.04196, "FSPD": 3.30816, "FDIR": 71.87958, "RENV": 250.0, "PENV": 1012.0, "VALIDT": 3, "DTG": "2026-09-30 15:00", "LATNOW": 33.4, "LONNOW": -43.8, "WINDNOW": 35.0, "DIRNOW": 2.0, "SPDNOW": 0.0, "TECH": "FCST", "ADVNR": 9, "ATCFID": "AL082026", "NAME": "HANNA", "FTECH": "OFCL", "FCST_DTG": "2026-09-30 12:00:00", "RUN_DTG": "2026-10-01 06:26:00", "BASIN": "AL", "STMNR": 8, "CAT_ID": null, "CAT_DESC": null, "MSGID": "WTNT23 KNHC 301449", "VALIDTIME": "2026-09-30 15:00:00" }, "geometry": { "type": "Point", "coordinates": [ -43.599998, 33.400002 ] } },
{ "type": "Feature", "properties": { "ID": 109562, "LAT": 33.7, "LON": -42.5, "VMAX": 30.0, "MSLP": 1010.40607, "RMAX": 76.00687, "FSPD": 4.92355, "FDIR": 65.29501, "RENV": 250.0, "PENV": 1012.0, "VALIDT": 12, "DTG": "2026-10-01 00:00", "LATNOW": 33.4, "LONNOW": -43.8, "WINDNOW": 35.0, "DIRNOW": 2.0, "SPDNOW": 0.0, "TECH": "FCST", "ADVNR": 9, "ATCFID": "AL082026", "NAME": "HANNA", "FTECH": "OFCL", "FCST_DTG": "2026-09-30 12:00:00", "RUN_DTG": "2026-10-01 06:26:00", "BASIN": "AL", "STMNR": 8, "CAT_ID": null, "CAT_DESC": null, "MSGID": "WTNT23 KNHC 301449", "VALIDTIME": "2026-10-01 00:00:00" }, "geometry": { "type": "Point", "coordinates": [ -42.5, 33.700001 ] } },
{ "type": "Feature", "properties": { "ID": 109563, "LAT": 34.5, "LON": -40.4, "VMAX": 30.0, "MSLP": 1010.40607, "RMAX": 78.4464, "FSPD": 5.50136, "FDIR": 73.70779, "RENV": 250.0, "PENV": 1012.0, "VALIDT": 24, "DTG": "2026-10-01 12:00", "LATNOW": 33.4, "LONNOW": -43.8, "WINDNOW": 35.0, "DIRNOW": 2.0, "SPDNOW": 0.0, "TECH": "FCST", "ADVNR": 9, "ATCFID": "AL082026", "NAME": "HANNA", "FTECH": "OFCL", "FCST_DTG": "2026-09-30 12:00:00", "RUN_DTG": "2026-10-01 06:26:00", "BASIN": "AL", "STMNR": 8, "CAT_ID": null, "CAT_DESC": null, "MSGID": "WTNT23 KNHC 301449", "VALIDTIME": "2026-10-01 12:00:00" }, "geometry": { "type": "Point", "coordinates": [ -40.400002, 34.5 ] } },
{ "type": "Feature", "properties": { "ID": 109564, "LAT": 35.1, "LON": -37.9, "VMAX": 30.0, "MSLP": 1010.40607, "RMAX": 80.32731, "FSPD": 4.63412, "FDIR": 86.81802, "RENV": 250.0, "PENV": 1012.0, "VALIDT": 36, "DTG": "2026-10-02 00:00", "LATNOW": 33.4, "LONNOW": -43.8, "WINDNOW": 35.0, "DIRNOW": 2.0, "SPDNOW": 0.0, "TECH": "FCST", "ADVNR": 9, "ATCFID": "AL082026", "NAME": "HANNA", "FTECH": "OFCL", "FCST_DTG": "2026-09-30 12:00:00", "RUN_DTG": "2026-10-01 06:26:00", "BASIN": "AL", "STMNR": 8, "CAT_ID": null, "CAT_DESC": null, "MSGID": "WTNT23 KNHC 301449", "VALIDTIME": "2026-10-02 00:00:00" }, "geometry": { "type": "Point", "coordinates": [ -37.900002, 35.099998 ] } },
{ "type": "Feature", "properties": { "ID": 109565, "LAT": 35.2, "LON": -35.7, "VMAX": 25.0, "MSLP": 1011.80975, "RMAX": 80.66693, "FSPD": 4.03144, "FDIR": 97.33136, "RENV": 250.0, "PENV": 1012.0, "VALIDT": 48, "DTG": "2026-10-02 12:00", "LATNOW": 33.4, "LONNOW": -43.8, "WINDNOW": 35.0, "DIRNOW": 2.0, "SPDNOW": 0.0, "TECH": "FCST", "ADVNR": 9, "ATCFID": "AL082026", "NAME": "HANNA", "FTECH": "OFCL", "FCST_DTG": "2026-09-30 12:00:00", "RUN_DTG": "2026-10-01 06:26:00", "BASIN": "AL", "STMNR": 8, "CAT_ID": null, "CAT_DESC": null, "MSGID": "WTNT23 KNHC 301449", "VALIDTIME": "2026-10-02 12:00:00" }, "geometry": { "type": "Point", "coordinates": [ -35.700001, 35.200001 ] } },
{ "type": "Feature", "properties": { "ID": 109566, "LAT": 35.0, "LON": -33.8, "VMAX": 25.0, "MSLP": 1011.80975, "RMAX": 80.03235, "FSPD": 4.96577, "FDIR": 101.95807, "RENV": 250.0, "PENV": 1012.0, "VALIDT": 60, "DTG": "2026-10-03 00:00", "LATNOW": 33.4, "LONNOW": -43.8, "WINDNOW": 35.0, "DIRNOW": 2.0, "SPDNOW": 0.0, "TECH": "FCST", "ADVNR": 9, "ATCFID": "AL082026", "NAME": "HANNA", "FTECH": "OFCL", "FCST_DTG": "2026-09-30 12:00:00", "RUN_DTG": "2026-10-01 06:26:00", "BASIN": "AL", "STMNR": 8, "CAT_ID": null, "CAT_DESC": null, "MSGID": "WTNT23 KNHC 301449", "VALIDTIME": "2026-10-03 00:00:00" }, "geometry": { "type": "Point", "coordinates": [ -33.799999, 35.0 ] } },
{ "type": "Feature", "properties": { "ID": 109567, "LAT": 34.6, "LON": -31.5, "VMAX": 20.0, "MSLP": 1012.95825, "RMAX": 78.78374, "FSPD": 4.96577, "FDIR": 101.95807, "RENV": 250.0, "PENV": 1012.0, "VALIDT": 72, "DTG": "2026-10-03 12:00", "LATNOW": 33.4, "LONNOW": -43.8, "WINDNOW": 35.0, "DIRNOW": 2.0, "SPDNOW": 0.0, "TECH": "FCST", "ADVNR": 9, "ATCFID": "AL082026", "NAME": "HANNA", "FTECH": "OFCL", "FCST_DTG": "2026-09-30 12:00:00", "RUN_DTG": "2026-10-01 06:26:00", "BASIN": "AL", "STMNR": 8, "CAT_ID": null, "CAT_DESC": null, "MSGID": "WTNT23 KNHC 301449", "VALIDTIME": "2026-10-03 12:00:00" }, "geometry": { "type": "Point", "coordinates": [ -31.5, 34.599998 ] } },
{ "type": "Feature", "properties": { "ID": 109560, "LAT": 33.4, "LON": -43.8, "VMAX": 35.0, "MSLP": 1007.0, "RMAX": 75.0, "FSPD": 1.71794, "FDIR": 90.0, "RENV": 125.0, "PENV": 1014.0, "VALIDT": 0, "DTG": "2026-09-30 12:00", "LATNOW": 33.4, "LONNOW": -43.8, "WINDNOW": 35.0, "DIRNOW": 2.0, "SPDNOW": 0.0, "TECH": "TRAK", "ADVNR": 9, "ATCFID": "AL082026", "NAME": "HANNA", "FTECH": "OFCL", "FCST_DTG": "2026-09-30 12:00:00", "RUN_DTG": "2026-10-01 06:26:00", "BASIN": "AL", "STMNR": 8, "CAT_ID": null, "CAT_DESC": null, "MSGID": "WTNT23 KNHC 301449", "VALIDTIME": "2026-09-30 12:00:00" }, "geometry": { "type": "LineString", "coordinates": [ [ -57.3, 32.9 ], [ -56.1, 34.4 ], [ -55.0, 35.7 ], [ -53.1, 36.3 ], [ -51.3, 36.7 ], [ -49.6, 36.6 ], [ -48.3, 36.1 ], [ -46.8, 35.5 ], [ -45.7, 34.9 ], [ -44.8, 34.1 ], [ -43.9, 33.7 ], [ -44.2, 33.7 ], [ -43.8, 33.4 ] ] } },
{ "type": "Feature", "properties": { "ID": 109567, "LAT": 34.6, "LON": -31.5, "VMAX": 20.0, "MSLP": 1012.95825, "RMAX": 78.78374, "FSPD": 4.96577, "FDIR": 101.95807, "RENV": 250.0, "PENV": 1012.0, "VALIDT": 72, "DTG": "2026-10-03 12:00", "LATNOW": 33.4, "LONNOW": -43.8, "WINDNOW": 35.0, "DIRNOW": 2.0, "SPDNOW": 0.0, "TECH": "FCST", "ADVNR": 9, "ATCFID": "AL082026", "NAME": "HANNA", "FTECH": "OFCL", "FCST_DTG": "2026-09-30 12:00:00", "RUN_DTG": "2026-10-01 06:26:00", "BASIN": "AL", "STMNR": 8, "CAT_ID": null, "CAT_DESC": null, "MSGID": "WTNT23 KNHC 301449", "VALIDTIME": "2026-10-03 12:00:00" }, "geometry": { "type": "LineString", "coordinates": [ [ -43.8, 33.4 ], [ -43.6, 33.4 ], [ -42.5, 33.7 ], [ -40.4, 34.5 ], [ -37.9, 35.1 ], [ -35.7, 35.2 ], [ -33.8, 35.0 ], [ -31.5, 34.6 ] ] } }
]
}
