{
"type": "FeatureCollection",
"crs": { "type": "name", "properties": { "name": "urn:ogc:def:crs:OGC:1.3:CRS84" } },
"features": [
{ "type": "Feature", "properties": { "ID": 337652, "LAT": 29.7, "LON": 124.4, "VMAX": 15.0, "MSLP": 1013.8515, "RMAX": 40.0, "FSPD": 3.12976, "FDIR": 325.27136, "RENV": 500.0, "PENV": 1012.0, "VALIDT": 0, "DTG": "2025-07-11 12:00", "LATNOW": 32.7, "LONNOW": 130.8, "WINDNOW": 25.0, "DIRNOW": 5.0, "SPDNOW": 1.0, "TECH": "TRAK", "ADVNR": 6, "ATCFID": "WP072025", "NAME": "SEVEN", "FTECH": "JTWC", "FCST_DTG": "2025-07-14 00:00:00", "RUN_DTG": "2025-07-14 14:12:01", "BASIN": "WP", "STMNR": 7, "CAT_ID": null, "CAT_DESC": null, "MSGID": "WTPN52 PGTW 140300", "VALIDTIME": "2025-07-11 12:00:00" }, "geometry": { "type": "Point", "coordinates": [ 124.400002, 29.700001 ] } },
{ "type": "Feature", "properties": { "ID": 337653, "LAT": 30.2, "LON": 124.0, "VMAX": 20.0, "MSLP": 1012.95825, "RMAX": 45.0, "FSPD": 3.39608, "FDIR": 319.23627, "RENV": 500.0, "PENV": 1012.0, "VALIDT": 0, "DTG": "2025-07-11 18:00", "LATNOW": 32.7, "LONNOW": 130.8, "WINDNOW": 25.0, "DIRNOW": 5.0, "SPDNOW": 1.0, "TECH": "TRAK", "ADVNR": 6, "ATCFID": "WP072025", "NAME": "SEVEN", "FTECH": "JTWC", "FCST_DTG": "2025-07-14 00:00:00", "RUN_DTG": "2025-07-14 14:12:01", "BASIN": "WP", "STMNR": 7, "CAT_ID": null, "CAT_DESC": null, "MSGID": "WTPN52 PGTW 140300", "VALIDTIME": "2025-07-11 18:00:00" }, "geometry": { "type": "Point", "coordinates": [ 124.0, 30.200001 ] } },
{ "type": "Feature", "properties": { "ID": 337654, "LAT": 30.7, "LON": 123.5, "VMAX": 30.0, "MSLP": 1010.40607, "RMAX": 44.21983, "FSPD": 1.76939, "FDIR": 269.99997, "RENV": 500.0, "PENV": 1012.0, "VALIDT": 0, "DTG": "2025-07-12 00:00", "LATNOW": 32.7, "LONNOW": 130.8, "WINDNOW": 25.0, "DIRNOW": 5.0, "SPDNOW": 1.0, "TECH": "TRAK", "ADVNR": 6, "ATCFID": "WP072025", "NAME": "SEVEN", "FTECH": "JTWC", "FCST_DTG": "2025-07-14 00:00:00", "RUN_DTG": "2025-07-14 14:12:01", "BASIN": "WP", "STMNR": 7, "CAT_ID": null, "CAT_DESC": null, "MSGID": "WTPN52 PGTW 140300", "VALIDTIME": "2025-07-12 00:00:00" }, "geometry": { "type": "Point", "coordinates": [ 123.5, 30.700001 ] } },
{ "type": "Feature", "properties": { "ID": 337655, "LAT": 30.7, "LON": 123.1, "VMAX": 30.0, "MSLP": 1010.40607, "RMAX": 44.21983, "FSPD": 1.35753, "FDIR": 220.71938, "RENV": 500.0, "PENV": 1012.0, "VALIDT": 0, "DTG": "2025-07-12 06:00", "LATNOW": 32.7, "LONNOW": 130.8, "WINDNOW": 25.0, "DIRNOW": 5.0, "SPDNOW": 1.0, "TECH": "TRAK", "ADVNR": 6, "ATCFID": "WP072025", "NAME": "SEVEN", "FTECH": "JTWC", "FCST_DTG": "2025-07-14 00:00:00", "RUN_DTG": "2025-07-14 14:12:01", "BASIN": "WP", "STMNR": 7, "CAT_ID": null, "CAT_DESC": null, "MSGID": "WTPN52 PGTW 140300", "VALIDTIME": "2025-07-12 06:00:00" }, "geometry": { "type": "Point", "coordinates": [ 123.099998, 30.700001 ] } },
{ "type": "Feature", "properties": { "ID": 337656, "LAT": 30.5, "LON": 122.9, "VMAX": 30.0, "MSLP": 1010.40607, "RMAX": 44.21983, "FSPD": 3.46115, "FDIR": 63.51901, "RENV": 500.0, "PENV": 1012.0, "VALIDT": 0, "DTG": "2025-07-12 12:00", "LATNOW": 32.7, "LONNOW": 130.8, "WINDNOW": 25.0, "DIRNOW": 5.0, "SPDNOW": 1.0, "TECH": "TRAK", "ADVNR": 6, "ATCFID": "WP072025", "NAME": "SEVEN", "FTECH": "JTWC", "FCST_DTG": "2025-07-14 00:00:00", "RUN_DTG": "2025-07-14 14:12:01", "BASIN": "WP", "STMNR": 7, "CAT_ID": null, "CAT_DESC": null, "MSGID": "WTPN52 PGTW 140300", "VALIDTIME": "2025-07-12 12:00:00" }, "geometry": { "type": "Point", "coordinates": [ 122.900002, 30.5 ] } },
{ "type": "Feature", "properties": { "ID": 337657, "LAT": 30.8, "LON": 123.6, "VMAX": 30.0, "MSLP": 1002.0, "RMAX": 55.0, "FSPD": 4.88538, "FDIR": 83.95535, "RENV": 150.0, "PENV": 1008.0, "VALIDT": 0, "DTG": "2025-07-12 18:00", "LATNOW": 32.7, "LONNOW": 130.8, "WINDNOW": 25.0, "DIRNOW": 5.0, "SPDNOW": 1.0, "TECH": "TRAK", "ADVNR": 6, "ATCFID": "WP072025", "NAME": "SEVEN", "FTECH": "JTWC", "FCST_DTG": "2025-07-14 00:00:00", "RUN_DTG": "2025-07-14 14:12:01", "BASIN": "WP", "STMNR": 7, "CAT_ID": null, "CAT_DESC": null, "MSGID": "WTPN52 PGTW 140300", "VALIDTIME": "2025-07-12 18:00:00" }, "geometry": { "type": "Point", "coordinates": [ 123.599998, 30.799999 ] } },
{ "type": "Feature", "properties": { "ID": 337658, "LAT": 30.9, "LON": 124.7, "VMAX": 30.0, "MSLP": 1002.0, "RMAX": 55.0, "FSPD": 6.2714, "FDIR": 99.44254, "RENV": 150.0, "PENV": 1008.0, "VALIDT": 0, "DTG": "2025-07-13 00:00", "LATNOW": 32.7, "LONNOW": 130.8, "WINDNOW": 25.0, "DIRNOW": 5.0, "SPDNOW": 1.0, "TECH": "TRAK", "ADVNR": 6, "ATCFID": "WP072025", "NAME": "SEVEN", "FTECH": "JTWC", "FCST_DTG": "2025-07-14 00:00:00", "RUN_DTG": "2025-07-14 14:12:01", "BASIN": "WP", "STMNR": 7, "CAT_ID": null, "CAT_DESC": null, "MSGID": "WTPN52 PGTW 140300", "VALIDTIME": "2025-07-13 00:00:00" }, "geometry": { "type": "Point", "coordinates": [ 124.699997, 30.9 ] } },
{ "type": "Feature", "properties": { "ID": 337659, "LAT": 30.7, "LON": 126.1, "VMAX": 30.0, "MSLP": 999.0, "RMAX": 55.0, "FSPD": 6.80225, "FDIR": 76.88623, "RENV": 145.0, "PENV": 1002.0, "VALIDT": 0, "DTG": "2025-07-13 06:00", "LATNOW": 32.7, "LONNOW": 130.8, "WINDNOW": 25.0, "DIRNOW": 5.0, "SPDNOW": 1.0, "TECH": "TRAK", "ADVNR": 6, "ATCFID": "WP072025", "NAME": "SEVEN", "FTECH": "JTWC", "FCST_DTG": "2025-07-14 00:00:00", "RUN_DTG": "2025-07-14 14:12:01", "BASIN": "WP", "STMNR": 7, "CAT_ID": null, "CAT_DESC": null, "MSGID": "WTPN52 PGTW 140300", "VALIDTIME": "2025-07-13 06:00:00" }, "geometry": { "type": "Point", "coordinates": [ 126.099998, 30.700001 ] } },
{ "type": "Feature", "properties": { "ID": 337660, "LAT": 31.0, "LON": 127.6, "VMAX": 30.0, "MSLP": 999.0, "RMAX": 55.0, "FSPD": 9.09108, "FDIR": 66.66443, "RENV": 220.0, "PENV": 1002.0, "VALIDT": 0, "DTG": "2025-07-13 12:00", "LATNOW": 32.7, "LONNOW": 130.8, "WINDNOW": 25.0, "DIRNOW": 5.0, "SPDNOW": 1.0, "TECH": "TRAK", "ADVNR": 6, "ATCFID": "WP072025", "NAME": "SEVEN", "FTECH": "JTWC", "FCST_DTG": "2025-07-14 00:00:00", "RUN_DTG": "2025-07-14 14:12:01", "BASIN": "WP", "STMNR": 7, "CAT_ID": null, "CAT_DESC": null, "MSGID": "WTPN52 PGTW 140300", "VALIDTIME": "2025-07-13 12:00:00" }, "geometry": { "type": "Point", "coordinates": [ 127.599998, 31.0 ] } },
{ "type": "Feature", "properties": { "ID": 337661, "LAT": 31.7, "LON": 129.5, "VMAX": 25.0, "MSLP": 999.0, "RMAX": 55.0, "FSPD": 7.65026, "FDIR": 47.74319, "RENV": 220.0, "PENV": 1002.0, "VALIDT": 0, "DTG": "2025-07-13 18:00", "LATNOW": 32.7, "LONNOW": 130.8, "WINDNOW": 25.0, "DIRNOW": 5.0, "SPDNOW": 1.0, "TECH": "TRAK", "ADVNR": 6, "ATCFID": "WP072025", "NAME": "SEVEN", "FTECH": "JTWC", "FCST_DTG": "2025-07-14 00:00:00", "RUN_DTG": "2025-07-14 14:12:01", "BASIN": "WP", "STMNR": 7, "CAT_ID": null, "CAT_DESC": null, "MSGID": "WTPN52 PGTW 140300", "VALIDTIME": "2025-07-13 18:00:00" }, "geometry": { "type": "Point", "coordinates": [ 129.5, 31.700001 ] } },
{ "type": "Feature", "properties": { "ID": 337662, "LAT": 32.6, "LON": 130.67, "VMAX": 25.0, "MSLP": 999.0, "RMAX": 55.0, "FSPD": 7.62725, "FDIR": 47.58682, "RENV": 220.0, "PENV": 1002.0, "VALIDT": 0, "DTG": "2025-07-13 23:00", "LATNOW": 32.7, "LONNOW": 130.8, "WINDNOW": 25.0, "DIRNOW": 5.0, "SPDNOW": 1.0, "TECH": "TRAK", "ADVNR": 6, "ATCFID": "WP072025", "NAME": "SEVEN", "FTECH": "JTWC", "FCST_DTG": "2025-07-14 00:00:00", "RUN_DTG": "2025-07-14 14:12:01", "BASIN": "WP", "STMNR": 7, "CAT_ID": null, "CAT_DESC": null, "MSGID": "WTPN52 PGTW 140300", "VALIDTIME": "2025-07-13 23:00:00" }, "geometry": { "type": "Point", "coordinates": [ 130.669998, 32.600002 ] } },
{ "type": "Feature", "properties": { "ID": 337663, "LAT": 32.7, "LON": 130.8, "VMAX": 25.0, "MSLP": 995.0, "RMAX": 55.0, "FSPD": 5.4599, "FDIR": 45.03555, "RENV": 150.0, "PENV": 998.0, "VALIDT": 0, "DTG": "2025-07-14 00:00", "LATNOW": 32.7, "LONNOW": 130.8, "WINDNOW": 25.0, "DIRNOW": 5.0, "SPDNOW": 1.0, "TECH": "TRAK", "ADVNR": 6, "ATCFID": "WP072025", "NAME": "SEVEN", "FTECH": "JTWC", "FCST_DTG": "2025-07-14 00:00:00", "RUN_DTG": "2025-07-14 14:12:01", "BASIN": "WP", "STMNR": 7, "CAT_ID": null, "CAT_DESC": null, "MSGID": "WTPN52 PGTW 140300", "VALIDTIME": "2025-07-14 00:00:00" }, "geometry": { "type": "Point", "coordinates": [ 130.800003, 32.700001 ] } },
{ "type": "Feature", "properties": { "ID": 337664, "LAT": 34.2, "LON": 132.6, "VMAX": 20.0, "MSLP": 1012.95825, "RMAX": 70.08769, "FSPD": 5.60371, "FDIR": 34.28583, "RENV": 250.0, "PENV": 1012.0, "VALIDT": 12, "DTG": "2025-07-14 12:00", "LATNOW": 32.7, "LONNOW": 130.8, "WINDNOW": 25.0, "DIRNOW": 5.0, "SPDNOW": 1.0, "TECH": "FCST", "ADVNR": 6, "ATCFID": "WP072025", "NAME": "SEVEN", "FTECH": "JTWC", "FCST_DTG": "2025-07-14 00:00:00", "RUN_DTG": "2025-07-14 14:12:01", "BASIN": "WP", "STMNR": 7, "CAT_ID": null, "CAT_DESC": null, "MSGID": "WTPN52 PGTW 140300", "VALIDTIME": "2025-07-14 12:00:00" }, "geometry": { "type": "Point", "coordinates": [ 132.600006, 34.200001 ] } },
{ "type": "Feature", "properties": { "ID": 337665, "LAT": 36.0, "LON": 134.1, "VMAX": 20.0, "MSLP": 1012.95825, "RMAX": 70.08769, "FSPD": 5.60371, "FDIR": 34.28583, "RENV": 250.0, "PENV": 1012.0, "VALIDT": 24, "DTG": "2025-07-15 00:00", "LATNOW": 32.7, "LONNOW": 130.8, "WINDNOW": 25.0, "DIRNOW": 5.0, "SPDNOW": 1.0, "TECH": "FCST", "ADVNR": 6, "ATCFID": "WP072025", "NAME": "SEVEN", "FTECH": "JTWC", "FCST_DTG": "2025-07-14 00:00:00", "RUN_DTG": "2025-07-14 14:12:01", "BASIN": "WP", "STMNR": 7, "CAT_ID": null, "CAT_DESC": null, "MSGID": "WTPN52 PGTW 140300", "VALIDTIME": "2025-07-15 00:00:00" }, "geometry": { "type": "Point", "coordinates": [ 134.100006, 36.0 ] } },
{ "type": "Feature", "properties": { "ID": 337663, "LAT": 32.7, "LON": 130.8, "VMAX": 25.0, "MSLP": 995.0, "RMAX": 55.0, "FSPD": 5.4599, "FDIR": 45.03555, "RENV": 150.0, "PENV": 998.0, "VALIDT": 0, "DTG": "2025-07-14 00:00", "LATNOW": 32.7, "LONNOW": 130.8, "WINDNOW": 25.0, "DIRNOW": 5.0, "SPDNOW": 1.0, "TECH": "TRAK", "ADVNR": 6, "ATCFID": "WP072025", "NAME": "SEVEN", "FTECH": "JTWC", "FCST_DTG": "2025-07-14 00:00:00", "RUN_DTG": "2025-07-14 14:12:01", "BASIN": "WP", "STMNR": 7, "CAT_ID": null, "CAT_DESC": null, "MSGID": "WTPN52 PGTW 140300", "VALIDTIME": "2025-07-14 00:00:00" }, "geometry": { "type": "LineString", "coordinates": [ [ 124.4, 29.7 ], [ 124.0, 30.2 ], [ 123.5, 30.7 ], [ 123.1, 30.7 ], [ 122.9, 30.5 ], [ 123.6, 30.8 ], [ 124.7, 30.9 ], [ 126.1, 30.7 ], [ 127.6, 31.0 ], [ 129.5, 31.7 ], [ 130.67, 32.6 ], [ 130.8, 32.7 ] ] } },
{ "type": "Feature", "properties": { "ID": 337665, "LAT": 36.0, "LON": 134.1, "VMAX": 20.0, "MSLP": 1012.95825, "RMAX": 70.08769, "FSPD": 5.60371, "FDIR": 34.28583, "RENV": 250.0, "PENV": 1012.0, "VALIDT": 24, "DTG": "2025-07-15 00:00", "LATNOW": 32.7, "LONNOW": 130.8, "WINDNOW": 25.0, "DIRNOW": 5.0, "SPDNOW": 1.0, "TECH": "FCST", "ADVNR": 6, "ATCFID": "WP072025", "NAME": "SEVEN", "FTECH": "JTWC", "FCST_DTG": "2025-07-14 00:00:00", "RUN_DTG": "2025-07-14 14:12:01", "BASIN": "WP", "STMNR": 7, "CAT_ID": null, "CAT_DESC": null, "MSGID": "WTPN52 PGTW 140300", "VALIDTIME": "2025-07-15 00:00:00" }, "geometry": { "type": "LineString", "coordinates": [ [ 130.8, 32.7 ], [ 132.6, 34.2 ], [ 134.1, 36.0 ] ] } }
]
}
