{
"type": "FeatureCollection",
"crs": { "type": "name", "properties": { "name": "urn:ogc:def:crs:OGC:1.3:CRS84" } },
"features": [
{ "type": "Feature", "properties": { "ID": 309189, "LAT": -17.0, "LON": 50.1, "VMAX": 15.0, "MSLP": 1013.8515, "RMAX": 40.0, "FSPD": 1.7985, "FDIR": 124.89557, "RENV": 500.0, "PENV": 1012.0, "VALIDT": 0, "DTG": "2025-02-23 12:00", "LATNOW": -33.5, "LONNOW": 59.0, "WINDNOW": 45.0, "DIRNOW": 9.0, "SPDNOW": 6.0, "TECH": "TRAK", "ADVNR": 11, "ATCFID": "SH222025", "NAME": "GARANCE", "FTECH": "JTWC", "FCST_DTG": "2025-03-02 06:00:00", "RUN_DTG": "2025-03-03 02:43:14", "BASIN": "SH", "STMNR": 22, "CAT_ID": null, "CAT_DESC": null, "MSGID": "WTXS52 PGTW 020900", "VALIDTIME": "2025-02-23 12:00:00" }, "geometry": { "type": "Point", "coordinates": [ 50.099998, -17.0 ] } },
{ "type": "Feature", "properties": { "ID": 309190, "LAT": -17.2, "LON": 50.4, "VMAX": 15.0, "MSLP": 1013.8515, "RMAX": 40.0, "FSPD": 1.61956, "FDIR": 162.3508, "RENV": 500.0, "PENV": 1012.0, "VALIDT": 0, "DTG": "2025-02-23 18:00", "LATNOW": -33.5, "LONNOW": 59.0, "WINDNOW": 45.0, "DIRNOW": 9.0, "SPDNOW": 6.0, "TECH": "TRAK", "ADVNR": 11, "ATCFID": "SH222025", "NAME": "GARANCE", "FTECH": "JTWC", "FCST_DTG": "2025-03-02 06:00:00", "RUN_DTG": "2025-03-03 02:43:14", "BASIN": "SH", "STMNR": 22, "CAT_ID": null, "CAT_DESC": null, "MSGID": "WTXS52 PGTW 020900", "VALIDTIME": "2025-02-23 18:00:00" }, "geometry": { "type": "Point", "coordinates": [ 50.400002, -17.200001 ] } },
{ "type": "Feature", "properties": { "ID": 309191, "LAT": -17.5, "LON": 50.5, "VMAX": 15.0, "MSLP": 1013.8515, "RMAX": 40.0, "FSPD": 2.84209, "FDIR": 136.38858, "RENV": 500.0, "PENV": 1012.0, "VALIDT": 0, "DTG": "2025-02-24 00:00", "LATNOW": -33.5, "LONNOW": 59.0, "WINDNOW": 45.0, "DIRNOW": 9.0, "SPDNOW": 6.0, "TECH": "TRAK", "ADVNR": 11, "ATCFID": "SH222025", "NAME": "GARANCE", "FTECH": "JTWC", "FCST_DTG": "2025-03-02 06:00:00", "RUN_DTG": "2025-03-03 02:43:14", "BASIN": "SH", "STMNR": 22, "CAT_ID": null, "CAT_DESC": null, "MSGID": "WTXS52 PGTW 020900", "VALIDTIME": "2025-02-24 00:00:00" }, "geometry": { "type": "Point", "coordinates": [ 50.5, -17.5 ] } },
{ "type": "Feature", "properties": { "ID": 309192, "LAT": -17.9, "LON": 50.9, "VMAX": 15.0, "MSLP": 1013.8515, "RMAX": 40.0, "FSPD": 1.4199, "FDIR": 136.4375, "RENV": 500.0, "PENV": 1012.0, "VALIDT": 0, "DTG": "2025-02-24 06:00", "LATNOW": -33.5, "LONNOW": 59.0, "WINDNOW": 45.0, "DIRNOW": 9.0, "SPDNOW": 6.0, "TECH": "TRAK", "ADVNR": 11, "ATCFID": "SH222025", "NAME": "GARANCE", "FTECH": "JTWC", "FCST_DTG": "2025-03-02 06:00:00", "RUN_DTG": "2025-03-03 02:43:14", "BASIN": "SH", "STMNR": 22, "CAT_ID": null, "CAT_DESC": null, "MSGID": "WTXS52 PGTW 020900", "VALIDTIME": "2025-02-24 06:00:00" }, "geometry": { "type": "Point", "coordinates": [ 50.900002, -17.9 ] } },
{ "type": "Feature", "properties": { "ID": 309193, "LAT": -18.1, "LON": 51.1, "VMAX": 30.0, "MSLP": 1010.40607, "RMAX": 44.21983, "FSPD": 1.41914, "FDIR": 136.46933, "RENV": 500.0, "PENV": 1012.0, "VALIDT": 0, "DTG": "2025-02-24 12:00", "LATNOW": -33.5, "LONNOW": 59.0, "WINDNOW": 45.0, "DIRNOW": 9.0, "SPDNOW": 6.0, "TECH": "TRAK", "ADVNR": 11, "ATCFID": "SH222025", "NAME": "GARANCE", "FTECH": "JTWC", "FCST_DTG": "2025-03-02 06:00:00", "RUN_DTG": "2025-03-03 02:43:14", "BASIN": "SH", "STMNR": 22, "CAT_ID": null, "CAT_DESC": null, "MSGID": "WTXS52 PGTW 020900", "VALIDTIME": "2025-02-24 12:00:00" }, "geometry": { "type": "Point", "coordinates": [ 51.099998, -18.1 ] } },
{ "type": "Feature", "properties": { "ID": 309194, "LAT": -18.3, "LON": 51.3, "VMAX": 30.0, "MSLP": 1010.40607, "RMAX": 44.21983, "FSPD": 1.10379, "FDIR": 117.7796, "RENV": 500.0, "PENV": 1012.0, "VALIDT": 0, "DTG": "2025-02-24 18:00", "LATNOW": -33.5, "LONNOW": 59.0, "WINDNOW": 45.0, "DIRNOW": 9.0, "SPDNOW": 6.0, "TECH": "TRAK", "ADVNR": 11, "ATCFID": "SH222025", "NAME": "GARANCE", "FTECH": "JTWC", "FCST_DTG": "2025-03-02 06:00:00", "RUN_DTG": "2025-03-03 02:43:14", "BASIN": "SH", "STMNR": 22, "CAT_ID": null, "CAT_DESC": null, "MSGID": "WTXS52 PGTW 020900", "VALIDTIME": "2025-02-24 18:00:00" }, "geometry": { "type": "Point", "coordinates": [ 51.299999, -18.299999 ] } },
{ "type": "Feature", "properties": { "ID": 309195, "LAT": -18.4, "LON": 51.5, "VMAX": 30.0, "MSLP": 1010.40607, "RMAX": 44.21983, "FSPD": 0.97629, "FDIR": 90.0, "RENV": 500.0, "PENV": 1012.0, "VALIDT": 0, "DTG": "2025-02-25 00:00", "LATNOW": -33.5, "LONNOW": 59.0, "WINDNOW": 45.0, "DIRNOW": 9.0, "SPDNOW": 6.0, "TECH": "TRAK", "ADVNR": 11, "ATCFID": "SH222025", "NAME": "GARANCE", "FTECH": "JTWC", "FCST_DTG": "2025-03-02 06:00:00", "RUN_DTG": "2025-03-03 02:43:14", "BASIN": "SH", "STMNR": 22, "CAT_ID": null, "CAT_DESC": null, "MSGID": "WTXS52 PGTW 020900", "VALIDTIME": "2025-02-25 00:00:00" }, "geometry": { "type": "Point", "coordinates": [ 51.5, -18.4 ] } },
{ "type": "Feature", "properties": { "ID": 309196, "LAT": -18.4, "LON": 51.7, "VMAX": 30.0, "MSLP": 1010.40607, "RMAX": 44.21983, "FSPD": 1.46443, "FDIR": 90.0, "RENV": 500.0, "PENV": 1012.0, "VALIDT": 0, "DTG": "2025-02-25 06:00", "LATNOW": -33.5, "LONNOW": 59.0, "WINDNOW": 45.0, "DIRNOW": 9.0, "SPDNOW": 6.0, "TECH": "TRAK", "ADVNR": 11, "ATCFID": "SH222025", "NAME": "GARANCE", "FTECH": "JTWC", "FCST_DTG": "2025-03-02 06:00:00", "RUN_DTG": "2025-03-03 02:43:14", "BASIN": "SH", "STMNR": 22, "CAT_ID": null, "CAT_DESC": null, "MSGID": "WTXS52 PGTW 020900", "VALIDTIME": "2025-02-25 06:00:00" }, "geometry": { "type": "Point", "coordinates": [ 51.700001, -18.4 ] } },
{ "type": "Feature", "properties": { "ID": 309197, "LAT": -18.4, "LON": 52.0, "VMAX": 35.0, "MSLP": 1001.0, "RMAX": 25.0, "FSPD": 3.19458, "FDIR": 49.89828, "RENV": 130.0, "PENV": 1010.0, "VALIDT": 0, "DTG": "2025-02-25 12:00", "LATNOW": -33.5, "LONNOW": 59.0, "WINDNOW": 45.0, "DIRNOW": 9.0, "SPDNOW": 6.0, "TECH": "TRAK", "ADVNR": 11, "ATCFID": "SH222025", "NAME": "GARANCE", "FTECH": "JTWC", "FCST_DTG": "2025-03-02 06:00:00", "RUN_DTG": "2025-03-03 02:43:14", "BASIN": "SH", "STMNR": 22, "CAT_ID": null, "CAT_DESC": null, "MSGID": "WTXS52 PGTW 020900", "VALIDTIME": "2025-02-25 12:00:00" }, "geometry": { "type": "Point", "coordinates": [ 52.0, -18.4 ] } },
{ "type": "Feature", "properties": { "ID": 309198, "LAT": -18.0, "LON": 52.5, "VMAX": 40.0, "MSLP": 1001.0, "RMAX": 25.0, "FSPD": 2.21203, "FDIR": 62.28104, "RENV": 130.0, "PENV": 1010.0, "VALIDT": 0, "DTG": "2025-02-25 18:00", "LATNOW": -33.5, "LONNOW": 59.0, "WINDNOW": 45.0, "DIRNOW": 9.0, "SPDNOW": 6.0, "TECH": "TRAK", "ADVNR": 11, "ATCFID": "SH222025", "NAME": "GARANCE", "FTECH": "JTWC", "FCST_DTG": "2025-03-02 06:00:00", "RUN_DTG": "2025-03-03 02:43:14", "BASIN": "SH", "STMNR": 22, "CAT_ID": null, "CAT_DESC": null, "MSGID": "WTXS52 PGTW 020900", "VALIDTIME": "2025-02-25 18:00:00" }, "geometry": { "type": "Point", "coordinates": [ 52.5, -18.0 ] } },
{ "type": "Feature", "properties": { "ID": 309199, "LAT": -17.8, "LON": 52.9, "VMAX": 50.0, "MSLP": 999.0, "RMAX": 25.0, "FSPD": 3.11535, "FDIR": 70.71527, "RENV": 140.0, "PENV": 1010.0, "VALIDT": 0, "DTG": "2025-02-26 00:00", "LATNOW": -33.5, "LONNOW": 59.0, "WINDNOW": 45.0, "DIRNOW": 9.0, "SPDNOW": 6.0, "TECH": "TRAK", "ADVNR": 11, "ATCFID": "SH222025", "NAME": "GARANCE", "FTECH": "JTWC", "FCST_DTG": "2025-03-02 06:00:00", "RUN_DTG": "2025-03-03 02:43:14", "BASIN": "SH", "STMNR": 22, "CAT_ID": null, "CAT_DESC": null, "MSGID": "WTXS52 PGTW 020900", "VALIDTIME": "2025-02-26 00:00:00" }, "geometry": { "type": "Point", "coordinates": [ 52.900002, -17.799999 ] } },
{ "type": "Feature", "properties": { "ID": 309200, "LAT": -17.6, "LON": 53.5, "VMAX": 60.0, "MSLP": 994.0, "RMAX": 20.0, "FSPD": 2.94217, "FDIR": 90.0, "RENV": 170.0, "PENV": 1008.0, "VALIDT": 0, "DTG": "2025-02-26 06:00", "LATNOW": -33.5, "LONNOW": 59.0, "WINDNOW": 45.0, "DIRNOW": 9.0, "SPDNOW": 6.0, "TECH": "TRAK", "ADVNR": 11, "ATCFID": "SH222025", "NAME": "GARANCE", "FTECH": "JTWC", "FCST_DTG": "2025-03-02 06:00:00", "RUN_DTG": "2025-03-03 02:43:14", "BASIN": "SH", "STMNR": 22, "CAT_ID": null, "CAT_DESC": null, "MSGID": "WTXS52 PGTW 020900", "VALIDTIME": "2025-02-26 06:00:00" }, "geometry": { "type": "Point", "coordinates": [ 53.5, -17.6 ] } },
{ "type": "Feature", "properties": { "ID": 309201, "LAT": -17.6, "LON": 54.1, "VMAX": 60.0, "MSLP": 992.0, "RMAX": 20.0, "FSPD": 2.02728, "FDIR": 104.70023, "RENV": 170.0, "PENV": 1011.0, "VALIDT": 0, "DTG": "2025-02-26 12:00", "LATNOW": -33.5, "LONNOW": 59.0, "WINDNOW": 45.0, "DIRNOW": 9.0, "SPDNOW": 6.0, "TECH": "TRAK", "ADVNR": 11, "ATCFID": "SH222025", "NAME": "GARANCE", "FTECH": "JTWC", "FCST_DTG": "2025-03-02 06:00:00", "RUN_DTG": "2025-03-03 02:43:14", "BASIN": "SH", "STMNR": 22, "CAT_ID": null, "CAT_DESC": null, "MSGID": "WTXS52 PGTW 020900", "VALIDTIME": "2025-02-26 12:00:00" }, "geometry": { "type": "Point", "coordinates": [ 54.099998, -17.6 ] } },
{ "type": "Feature", "properties": { "ID": 309202, "LAT": -17.7, "LON": 54.5, "VMAX": 85.0, "MSLP": 987.0, "RMAX": 20.0, "FSPD": 2.65643, "FDIR": 112.78766, "RENV": 150.0, "PENV": 1007.0, "VALIDT": 0, "DTG": "2025-02-26 18:00", "LATNOW": -33.5, "LONNOW": 59.0, "WINDNOW": 45.0, "DIRNOW": 9.0, "SPDNOW": 6.0, "TECH": "TRAK", "ADVNR": 11, "ATCFID": "SH222025", "NAME": "GARANCE", "FTECH": "JTWC", "FCST_DTG": "2025-03-02 06:00:00", "RUN_DTG": "2025-03-03 02:43:14", "BASIN": "SH", "STMNR": 22, "CAT_ID": null, "CAT_DESC": null, "MSGID": "WTXS52 PGTW 020900", "VALIDTIME": "2025-02-26 18:00:00" }, "geometry": { "type": "Point", "coordinates": [ 54.5, -17.700001 ] } },
{ "type": "Feature", "properties": { "ID": 309203, "LAT": -17.9, "LON": 55.0, "VMAX": 105.0, "MSLP": 977.0, "RMAX": 15.0, "FSPD": 2.12958, "FDIR": 136.44528, "RENV": 140.0, "PENV": 1010.0, "VALIDT": 0, "DTG": "2025-02-27 00:00", "LATNOW": -33.5, "LONNOW": 59.0, "WINDNOW": 45.0, "DIRNOW": 9.0, "SPDNOW": 6.0, "TECH": "TRAK", "ADVNR": 11, "ATCFID": "SH222025", "NAME": "GARANCE", "FTECH": "JTWC", "FCST_DTG": "2025-03-02 06:00:00", "RUN_DTG": "2025-03-03 02:43:14", "BASIN": "SH", "STMNR": 22, "CAT_ID": null, "CAT_DESC": null, "MSGID": "WTXS52 PGTW 020900", "VALIDTIME": "2025-02-27 00:00:00" }, "geometry": { "type": "Point", "coordinates": [ 55.0, -17.9 ] } },
{ "type": "Feature", "properties": { "ID": 309204, "LAT": -18.2, "LON": 55.3, "VMAX": 105.0, "MSLP": 955.0, "RMAX": 5.0, "FSPD": 3.12498, "FDIR": 171.01822, "RENV": 155.0, "PENV": 1008.0, "VALIDT": 0, "DTG": "2025-02-27 06:00", "LATNOW": -33.5, "LONNOW": 59.0, "WINDNOW": 45.0, "DIRNOW": 9.0, "SPDNOW": 6.0, "TECH": "TRAK", "ADVNR": 11, "ATCFID": "SH222025", "NAME": "GARANCE", "FTECH": "JTWC", "FCST_DTG": "2025-03-02 06:00:00", "RUN_DTG": "2025-03-03 02:43:14", "BASIN": "SH", "STMNR": 22, "CAT_ID": null, "CAT_DESC": null, "MSGID": "WTXS52 PGTW 020900", "VALIDTIME": "2025-02-27 06:00:00" }, "geometry": { "type": "Point", "coordinates": [ 55.299999, -18.200001 ] } },
{ "type": "Feature", "properties": { "ID": 309205, "LAT": -18.8, "LON": 55.4, "VMAX": 105.0, "MSLP": 955.0, "RMAX": 5.0, "FSPD": 1.13821, "FDIR": 205.31653, "RENV": 195.0, "PENV": 1010.0, "VALIDT": 0, "DTG": "2025-02-27 12:00", "LATNOW": -33.5, "LONNOW": 59.0, "WINDNOW": 45.0, "DIRNOW": 9.0, "SPDNOW": 6.0, "TECH": "TRAK", "ADVNR": 11, "ATCFID": "SH222025", "NAME": "GARANCE", "FTECH": "JTWC", "FCST_DTG": "2025-03-02 06:00:00", "RUN_DTG": "2025-03-03 02:43:14", "BASIN": "SH", "STMNR": 22, "CAT_ID": null, "CAT_DESC": null, "MSGID": "WTXS52 PGTW 020900", "VALIDTIME": "2025-02-27 12:00:00" }, "geometry": { "type": "Point", "coordinates": [ 55.400002, -18.799999 ] } },
{ "type": "Feature", "properties": { "ID": 309206, "LAT": -19.0, "LON": 55.3, "VMAX": 105.0, "MSLP": 953.0, "RMAX": 5.0, "FSPD": 3.60111, "FDIR": 179.99997, "RENV": 150.0, "PENV": 1006.0, "VALIDT": 0, "DTG": "2025-02-27 18:00", "LATNOW": -33.5, "LONNOW": 59.0, "WINDNOW": 45.0, "DIRNOW": 9.0, "SPDNOW": 6.0, "TECH": "TRAK", "ADVNR": 11, "ATCFID": "SH222025", "NAME": "GARANCE", "FTECH": "JTWC", "FCST_DTG": "2025-03-02 06:00:00", "RUN_DTG": "2025-03-03 02:43:14", "BASIN": "SH", "STMNR": 22, "CAT_ID": null, "CAT_DESC": null, "MSGID": "WTXS52 PGTW 020900", "VALIDTIME": "2025-02-27 18:00:00" }, "geometry": { "type": "Point", "coordinates": [ 55.299999, -19.0 ] } },
{ "type": "Feature", "properties": { "ID": 309207, "LAT": -19.7, "LON": 55.3, "VMAX": 105.0, "MSLP": 953.0, "RMAX": 12.0, "FSPD": 6.75699, "FDIR": 171.79196, "RENV": 115.0, "PENV": 1007.0, "VALIDT": 0, "DTG": "2025-02-28 00:00", "LATNOW": -33.5, "LONNOW": 59.0, "WINDNOW": 45.0, "DIRNOW": 9.0, "SPDNOW": 6.0, "TECH": "TRAK", "ADVNR": 11, "ATCFID": "SH222025", "NAME": "GARANCE", "FTECH": "JTWC", "FCST_DTG": "2025-03-02 06:00:00", "RUN_DTG": "2025-03-03 02:43:14", "BASIN": "SH", "STMNR": 22, "CAT_ID": null, "CAT_DESC": null, "MSGID": "WTXS52 PGTW 020900", "VALIDTIME": "2025-02-28 00:00:00" }, "geometry": { "type": "Point", "coordinates": [ 55.299999, -19.700001 ] } },
{ "type": "Feature", "properties": { "ID": 309208, "LAT": -21.0, "LON": 55.5, "VMAX": 90.0, "MSLP": 954.0, "RMAX": 12.0, "FSPD": 7.94984, "FDIR": 193.9112, "RENV": 115.0, "PENV": 1007.0, "VALIDT": 0, "DTG": "2025-02-28 06:00", "LATNOW": -33.5, "LONNOW": 59.0, "WINDNOW": 45.0, "DIRNOW": 9.0, "SPDNOW": 6.0, "TECH": "TRAK", "ADVNR": 11, "ATCFID": "SH222025", "NAME": "GARANCE", "FTECH": "JTWC", "FCST_DTG": "2025-03-02 06:00:00", "RUN_DTG": "2025-03-03 02:43:14", "BASIN": "SH", "STMNR": 22, "CAT_ID": null, "CAT_DESC": null, "MSGID": "WTXS52 PGTW 020900", "VALIDTIME": "2025-02-28 06:00:00" }, "geometry": { "type": "Point", "coordinates": [ 55.5, -21.0 ] } },
{ "type": "Feature", "properties": { "ID": 309209, "LAT": -22.5, "LON": 55.1, "VMAX": 75.0, "MSLP": 962.0, "RMAX": 12.0, "FSPD": 8.28518, "FDIR": 186.54907, "RENV": 115.0, "PENV": 1005.0, "VALIDT": 0, "DTG": "2025-02-28 12:00", "LATNOW": -33.5, "LONNOW": 59.0, "WINDNOW": 45.0, "DIRNOW": 9.0, "SPDNOW": 6.0, "TECH": "TRAK", "ADVNR": 11, "ATCFID": "SH222025", "NAME": "GARANCE", "FTECH": "JTWC", "FCST_DTG": "2025-03-02 06:00:00", "RUN_DTG": "2025-03-03 02:43:14", "BASIN": "SH", "STMNR": 22, "CAT_ID": null, "CAT_DESC": null, "MSGID": "WTXS52 PGTW 020900", "VALIDTIME": "2025-02-28 12:00:00" }, "geometry": { "type": "Point", "coordinates": [ 55.099998, -22.5 ] } },
{ "type": "Feature", "properties": { "ID": 309210, "LAT": -24.1, "LON": 54.9, "VMAX": 65.0, "MSLP": 974.0, "RMAX": 12.0, "FSPD": 9.78555, "FDIR": 182.72986, "RENV": 70.0, "PENV": 1004.0, "VALIDT": 0, "DTG": "2025-02-28 18:00", "LATNOW": -33.5, "LONNOW": 59.0, "WINDNOW": 45.0, "DIRNOW": 9.0, "SPDNOW": 6.0, "TECH": "TRAK", "ADVNR": 11, "ATCFID": "SH222025", "NAME": "GARANCE", "FTECH": "JTWC", "FCST_DTG": "2025-03-02 06:00:00", "RUN_DTG": "2025-03-03 02:43:14", "BASIN": "SH", "STMNR": 22, "CAT_ID": null, "CAT_DESC": null, "MSGID": "WTXS52 PGTW 020900", "VALIDTIME": "2025-02-28 18:00:00" }, "geometry": { "type": "Point", "coordinates": [ 54.900002, -24.1 ] } },
{ "type": "Feature", "properties": { "ID": 309211, "LAT": -26.0, "LON": 54.8, "VMAX": 55.0, "MSLP": 999.55927, "RMAX": 37.26371, "FSPD": 9.27135, "FDIR": 177.16351, "RENV": 500.0, "PENV": 1012.0, "VALIDT": 0, "DTG": "2025-03-01 00:00", "LATNOW": -33.5, "LONNOW": 59.0, "WINDNOW": 45.0, "DIRNOW": 9.0, "SPDNOW": 6.0, "TECH": "TRAK", "ADVNR": 11, "ATCFID": "SH222025", "NAME": "GARANCE", "FTECH": "JTWC", "FCST_DTG": "2025-03-02 06:00:00", "RUN_DTG": "2025-03-03 02:43:14", "BASIN": "SH", "STMNR": 22, "CAT_ID": null, "CAT_DESC": null, "MSGID": "WTXS52 PGTW 020900", "VALIDTIME": "2025-03-01 00:00:00" }, "geometry": { "type": "Point", "coordinates": [ 54.799999, -26.0 ] } },
{ "type": "Feature", "properties": { "ID": 309212, "LAT": -27.8, "LON": 54.9, "VMAX": 55.0, "MSLP": 962.0, "RMAX": 12.0, "FSPD": 8.7572, "FDIR": 182.95508, "RENV": 115.0, "PENV": 1005.0, "VALIDT": 0, "DTG": "2025-03-01 06:00", "LATNOW": -33.5, "LONNOW": 59.0, "WINDNOW": 45.0, "DIRNOW": 9.0, "SPDNOW": 6.0, "TECH": "TRAK", "ADVNR": 11, "ATCFID": "SH222025", "NAME": "GARANCE", "FTECH": "JTWC", "FCST_DTG": "2025-03-02 06:00:00", "RUN_DTG": "2025-03-03 02:43:14", "BASIN": "SH", "STMNR": 22, "CAT_ID": null, "CAT_DESC": null, "MSGID": "WTXS52 PGTW 020900", "VALIDTIME": "2025-03-01 06:00:00" }, "geometry": { "type": "Point", "coordinates": [ 54.900002, -27.799999 ] } },
{ "type": "Feature", "properties": { "ID": 309213, "LAT": -29.5, "LON": 54.8, "VMAX": 50.0, "MSLP": 986.0, "RMAX": 30.0, "FSPD": 8.32009, "FDIR": 158.04443, "RENV": 90.0, "PENV": 1004.0, "VALIDT": 0, "DTG": "2025-03-01 12:00", "LATNOW": -33.5, "LONNOW": 59.0, "WINDNOW": 45.0, "DIRNOW": 9.0, "SPDNOW": 6.0, "TECH": "TRAK", "ADVNR": 11, "ATCFID": "SH222025", "NAME": "GARANCE", "FTECH": "JTWC", "FCST_DTG": "2025-03-02 06:00:00", "RUN_DTG": "2025-03-03 02:43:14", "BASIN": "SH", "STMNR": 22, "CAT_ID": null, "CAT_DESC": null, "MSGID": "WTXS52 PGTW 020900", "VALIDTIME": "2025-03-01 12:00:00" }, "geometry": { "type": "Point", "coordinates": [ 54.799999, -29.5 ] } },
{ "type": "Feature", "properties": { "ID": 309214, "LAT": -31.0, "LON": 55.5, "VMAX": 50.0, "MSLP": 987.0, "RMAX": 35.0, "FSPD": 10.42864, "FDIR": 146.99359, "RENV": 90.0, "PENV": 1004.0, "VALIDT": 0, "DTG": "2025-03-01 18:00", "LATNOW": -33.5, "LONNOW": 59.0, "WINDNOW": 45.0, "DIRNOW": 9.0, "SPDNOW": 6.0, "TECH": "TRAK", "ADVNR": 11, "ATCFID": "SH222025", "NAME": "GARANCE", "FTECH": "JTWC", "FCST_DTG": "2025-03-02 06:00:00", "RUN_DTG": "2025-03-03 02:43:14", "BASIN": "SH", "STMNR": 22, "CAT_ID": null, "CAT_DESC": null, "MSGID": "WTXS52 PGTW 020900", "VALIDTIME": "2025-03-01 18:00:00" }, "geometry": { "type": "Point", "coordinates": [ 55.5, -31.0 ] } },
{ "type": "Feature", "properties": { "ID": 309215, "LAT": -32.7, "LON": 56.8, "VMAX": 50.0, "MSLP": 990.0, "RMAX": 30.0, "FSPD": 10.33583, "FDIR": 113.4646, "RENV": 60.0, "PENV": 1006.0, "VALIDT": 0, "DTG": "2025-03-02 00:00", "LATNOW": -33.5, "LONNOW": 59.0, "WINDNOW": 45.0, "DIRNOW": 9.0, "SPDNOW": 6.0, "TECH": "TRAK", "ADVNR": 11, "ATCFID": "SH222025", "NAME": "GARANCE", "FTECH": "JTWC", "FCST_DTG": "2025-03-02 06:00:00", "RUN_DTG": "2025-03-03 02:43:14", "BASIN": "SH", "STMNR": 22, "CAT_ID": null, "CAT_DESC": null, "MSGID": "WTXS52 PGTW 020900", "VALIDTIME": "2025-03-02 00:00:00" }, "geometry": { "type": "Point", "coordinates": [ 56.799999, -32.700001 ] } },
{ "type": "Feature", "properties": { "ID": 309216, "LAT": -33.5, "LON": 59.0, "VMAX": 45.0, "MSLP": 990.0, "RMAX": 30.0, "FSPD": 8.55662, "FDIR": 113.00394, "RENV": 75.0, "PENV": 1006.0, "VALIDT": 0, "DTG": "2025-03-02 06:00", "LATNOW": -33.5, "LONNOW": 59.0, "WINDNOW": 45.0, "DIRNOW": 9.0, "SPDNOW": 6.0, "TECH": "TRAK", "ADVNR": 11, "ATCFID": "SH222025", "NAME": "GARANCE", "FTECH": "JTWC", "FCST_DTG": "2025-03-02 06:00:00", "RUN_DTG": "2025-03-03 02:43:14", "BASIN": "SH", "STMNR": 22, "CAT_ID": null, "CAT_DESC": null, "MSGID": "WTXS52 PGTW 020900", "VALIDTIME": "2025-03-02 06:00:00" }, "geometry": { "type": "Point", "coordinates": [ 59.0, -33.5 ] } },
{ "type": "Feature", "properties": { "ID": 309217, "LAT": -34.8, "LON": 62.7, "VMAX": 45.0, "MSLP": 1004.66364, "RMAX": 35.794, "FSPD": 8.55662, "FDIR": 113.00394, "RENV": 300.0, "PENV": 1012.0, "VALIDT": 12, "DTG": "2025-03-02 18:00", "LATNOW": -33.5, "LONNOW": 59.0, "WINDNOW": 45.0, "DIRNOW": 9.0, "SPDNOW": 6.0, "TECH": "FCST", "ADVNR": 11, "ATCFID": "SH222025", "NAME": "GARANCE", "FTECH": "JTWC", "FCST_DTG": "2025-03-02 06:00:00", "RUN_DTG": "2025-03-03 02:43:14", "BASIN": "SH", "STMNR": 22, "CAT_ID": null, "CAT_DESC": null, "MSGID": "WTXS52 PGTW 020900", "VALIDTIME": "2025-03-02 18:00:00" }, "geometry": { "type": "Point", "coordinates": [ 62.700001, -34.799999 ] } },
{ "type": "Feature", "properties": { "ID": 309216, "LAT": -33.5, "LON": 59.0, "VMAX": 45.0, "MSLP": 990.0, "RMAX": 30.0, "FSPD": 8.55662, "FDIR": 113.00394, "RENV": 75.0, "PENV": 1006.0, "VALIDT": 0, "DTG": "2025-03-02 06:00", "LATNOW": -33.5, "LONNOW": 59.0, "WINDNOW": 45.0, "DIRNOW": 9.0, "SPDNOW": 6.0, "TECH": "TRAK", "ADVNR": 11, "ATCFID": "SH222025", "NAME": "GARANCE", "FTECH": "JTWC", "FCST_DTG": "2025-03-02 06:00:00", "RUN_DTG": "2025-03-03 02:43:14", "BASIN": "SH", "STMNR": 22, "CAT_ID": null, "CAT_DESC": null, "MSGID": "WTXS52 PGTW 020900", "VALIDTIME": "2025-03-02 06:00:00" }, "geometry": { "type": "LineString", "coordinates": [ [ 50.1, -17.0 ], [ 50.4, -17.2 ], [ 50.5, -17.5 ], [ 50.9, -17.9 ], [ 51.1, -18.1 ], [ 51.3, -18.3 ], [ 51.5, -18.4 ], [ 51.7, -18.4 ], [ 52.0, -18.4 ], [ 52.5, -18.0 ], [ 52.9, -17.8 ], [ 53.5, -17.6 ], [ 54.1, -17.6 ], [ 54.5, -17.7 ], [ 55.0, -17.9 ], [ 55.3, -18.2 ], [ 55.4, -18.8 ], [ 55.3, -19.0 ], [ 55.3, -19.7 ], [ 55.5, -21.0 ], [ 55.1, -22.5 ], [ 54.9, -24.1 ], [ 54.8, -26.0 ], [ 54.9, -27.8 ], [ 54.8, -29.5 ], [ 55.5, -31.0 ], [ 56.8, -32.7 ], [ 59.0, -33.5 ] ] } },
{ "type": "Feature", "properties": { "ID": 309217, "LAT": -34.8, "LON": 62.7, "VMAX": 45.0, "MSLP": 1004.66364, "RMAX": 35.794, "FSPD": 8.55662, "FDIR": 113.00394, "RENV": 300.0, "PENV": 1012.0, "VALIDT": 12, "DTG": "2025-03-02 18:00", "LATNOW": -33.5, "LONNOW": 59.0, "WINDNOW": 45.0, "DIRNOW": 9.0, "SPDNOW": 6.0, "TECH": "FCST", "ADVNR": 11, "ATCFID": "SH222025", "NAME": "GARANCE", "FTECH": "JTWC", "FCST_DTG": "2025-03-02 06:00:00", "RUN_DTG": "2025-03-03 02:43:14", "BASIN": "SH", "STMNR": 22, "CAT_ID": null, "CAT_DESC": null, "MSGID": "WTXS52 PGTW 020900", "VALIDTIME": "2025-03-02 18:00:00" }, "geometry": { "type": "LineString", "coordinates": [ [ 59.0, -33.5 ], [ 62.7, -34.8 ] ] } }
]
}
