{
"type": "FeatureCollection",
"crs": { "type": "name", "properties": { "name": "urn:ogc:def:crs:OGC:1.3:CRS84" } },
"features": [
{ "type": "Feature", "properties": { "ID": 96576, "LAT": 12.0, "LON": 95.4, "VMAX": 15.0, "MSLP": 1013.8515, "RMAX": 40.0, "FSPD": 2.11832, "FDIR": 346.2688, "RENV": 500.0, "PENV": 1012.0, "VALIDT": 0, "DTG": "2026-09-18 18:00", "LATNOW": 18.1, "LONNOW": 83.7, "WINDNOW": 35.0, "DIRNOW": 3.0, "SPDNOW": 2.0, "TECH": "TRAK", "ADVNR": 6, "ATCFID": "IO012026", "NAME": "ONE", "FTECH": "JTWC", "FCST_DTG": "2026-09-24 00:00:00", "RUN_DTG": "2026-09-24 19:09:58", "BASIN": "IO", "STMNR": 1, "CAT_ID": null, "CAT_DESC": null, "MSGID": "WTIO51 PGTW 240300", "VALIDTIME": "2026-09-18 18:00:00" }, "geometry": { "type": "Point", "coordinates": [ 95.400002, 12.0 ] } },
{ "type": "Feature", "properties": { "ID": 96577, "LAT": 12.4, "LON": 95.3, "VMAX": 15.0, "MSLP": 1013.8515, "RMAX": 40.0, "FSPD": 2.71385, "FDIR": 292.27954, "RENV": 500.0, "PENV": 1012.0, "VALIDT": 0, "DTG": "2026-09-19 00:00", "LATNOW": 18.1, "LONNOW": 83.7, "WINDNOW": 35.0, "DIRNOW": 3.0, "SPDNOW": 2.0, "TECH": "TRAK", "ADVNR": 6, "ATCFID": "IO012026", "NAME": "ONE", "FTECH": "JTWC", "FCST_DTG": "2026-09-24 00:00:00", "RUN_DTG": "2026-09-24 19:09:58", "BASIN": "IO", "STMNR": 1, "CAT_ID": null, "CAT_DESC": null, "MSGID": "WTIO51 PGTW 240300", "VALIDTIME": "2026-09-19 00:00:00" }, "geometry": { "type": "Point", "coordinates": [ 95.300003, 12.4 ] } },
{ "type": "Feature", "properties": { "ID": 96578, "LAT": 12.6, "LON": 94.8, "VMAX": 15.0, "MSLP": 1013.8515, "RMAX": 40.0, "FSPD": 3.24438, "FDIR": 309.365, "RENV": 500.0, "PENV": 1012.0, "VALIDT": 0, "DTG": "2026-09-19 06:00", "LATNOW": 18.1, "LONNOW": 83.7, "WINDNOW": 35.0, "DIRNOW": 3.0, "SPDNOW": 2.0, "TECH": "TRAK", "ADVNR": 6, "ATCFID": "IO012026", "NAME": "ONE", "FTECH": "JTWC", "FCST_DTG": "2026-09-24 00:00:00", "RUN_DTG": "2026-09-24 19:09:58", "BASIN": "IO", "STMNR": 1, "CAT_ID": null, "CAT_DESC": null, "MSGID": "WTIO51 PGTW 240300", "VALIDTIME": "2026-09-19 06:00:00" }, "geometry": { "type": "Point", "coordinates": [ 94.800003, 12.6 ] } },
{ "type": "Feature", "properties": { "ID": 96579, "LAT": 13.0, "LON": 94.3, "VMAX": 15.0, "MSLP": 1013.8515, "RMAX": 40.0, "FSPD": 6.16622, "FDIR": 305.73276, "RENV": 500.0, "PENV": 1012.0, "VALIDT": 0, "DTG": "2026-09-19 12:00", "LATNOW": 18.1, "LONNOW": 83.7, "WINDNOW": 35.0, "DIRNOW": 3.0, "SPDNOW": 2.0, "TECH": "TRAK", "ADVNR": 6, "ATCFID": "IO012026", "NAME": "ONE", "FTECH": "JTWC", "FCST_DTG": "2026-09-24 00:00:00", "RUN_DTG": "2026-09-24 19:09:58", "BASIN": "IO", "STMNR": 1, "CAT_ID": null, "CAT_DESC": null, "MSGID": "WTIO51 PGTW 240300", "VALIDTIME": "2026-09-19 12:00:00" }, "geometry": { "type": "Point", "coordinates": [ 94.300003, 13.0 ] } },
{ "type": "Feature", "properties": { "ID": 96580, "LAT": 13.7, "LON": 93.3, "VMAX": 15.0, "MSLP": 1013.8515, "RMAX": 40.0, "FSPD": 4.33945, "FDIR": 306.3526, "RENV": 500.0, "PENV": 1012.0, "VALIDT": 0, "DTG": "2026-09-19 18:00", "LATNOW": 18.1, "LONNOW": 83.7, "WINDNOW": 35.0, "DIRNOW": 3.0, "SPDNOW": 2.0, "TECH": "TRAK", "ADVNR": 6, "ATCFID": "IO012026", "NAME": "ONE", "FTECH": "JTWC", "FCST_DTG": "2026-09-24 00:00:00", "RUN_DTG": "2026-09-24 19:09:58", "BASIN": "IO", "STMNR": 1, "CAT_ID": null, "CAT_DESC": null, "MSGID": "WTIO51 PGTW 240300", "VALIDTIME": "2026-09-19 18:00:00" }, "geometry": { "type": "Point", "coordinates": [ 93.300003, 13.7 ] } },
{ "type": "Feature", "properties": { "ID": 96581, "LAT": 14.2, "LON": 92.6, "VMAX": 15.0, "MSLP": 1013.8515, "RMAX": 40.0, "FSPD": 4.29624, "FDIR": 315.92725, "RENV": 500.0, "PENV": 1012.0, "VALIDT": 0, "DTG": "2026-09-20 00:00", "LATNOW": 18.1, "LONNOW": 83.7, "WINDNOW": 35.0, "DIRNOW": 3.0, "SPDNOW": 2.0, "TECH": "TRAK", "ADVNR": 6, "ATCFID": "IO012026", "NAME": "ONE", "FTECH": "JTWC", "FCST_DTG": "2026-09-24 00:00:00", "RUN_DTG": "2026-09-24 19:09:58", "BASIN": "IO", "STMNR": 1, "CAT_ID": null, "CAT_DESC": null, "MSGID": "WTIO51 PGTW 240300", "VALIDTIME": "2026-09-20 00:00:00" }, "geometry": { "type": "Point", "coordinates": [ 92.599998, 14.2 ] } },
{ "type": "Feature", "properties": { "ID": 96582, "LAT": 14.8, "LON": 92.0, "VMAX": 15.0, "MSLP": 1013.8515, "RMAX": 40.0, "FSPD": 4.32549, "FDIR": 306.48883, "RENV": 500.0, "PENV": 1012.0, "VALIDT": 0, "DTG": "2026-09-20 06:00", "LATNOW": 18.1, "LONNOW": 83.7, "WINDNOW": 35.0, "DIRNOW": 3.0, "SPDNOW": 2.0, "TECH": "TRAK", "ADVNR": 6, "ATCFID": "IO012026", "NAME": "ONE", "FTECH": "JTWC", "FCST_DTG": "2026-09-24 00:00:00", "RUN_DTG": "2026-09-24 19:09:58", "BASIN": "IO", "STMNR": 1, "CAT_ID": null, "CAT_DESC": null, "MSGID": "WTIO51 PGTW 240300", "VALIDTIME": "2026-09-20 06:00:00" }, "geometry": { "type": "Point", "coordinates": [ 92.0, 14.8 ] } },
{ "type": "Feature", "properties": { "ID": 96583, "LAT": 15.3, "LON": 91.3, "VMAX": 15.0, "MSLP": 1013.8515, "RMAX": 40.0, "FSPD": 8.63086, "FDIR": 306.58762, "RENV": 500.0, "PENV": 1012.0, "VALIDT": 0, "DTG": "2026-09-20 12:00", "LATNOW": 18.1, "LONNOW": 83.7, "WINDNOW": 35.0, "DIRNOW": 3.0, "SPDNOW": 2.0, "TECH": "TRAK", "ADVNR": 6, "ATCFID": "IO012026", "NAME": "ONE", "FTECH": "JTWC", "FCST_DTG": "2026-09-24 00:00:00", "RUN_DTG": "2026-09-24 19:09:58", "BASIN": "IO", "STMNR": 1, "CAT_ID": null, "CAT_DESC": null, "MSGID": "WTIO51 PGTW 240300", "VALIDTIME": "2026-09-20 12:00:00" }, "geometry": { "type": "Point", "coordinates": [ 91.300003, 15.3 ] } },
{ "type": "Feature", "properties": { "ID": 96584, "LAT": 16.3, "LON": 89.9, "VMAX": 20.0, "MSLP": 1012.95825, "RMAX": 45.0, "FSPD": 5.56185, "FDIR": 297.54694, "RENV": 500.0, "PENV": 1012.0, "VALIDT": 0, "DTG": "2026-09-20 18:00", "LATNOW": 18.1, "LONNOW": 83.7, "WINDNOW": 35.0, "DIRNOW": 3.0, "SPDNOW": 2.0, "TECH": "TRAK", "ADVNR": 6, "ATCFID": "IO012026", "NAME": "ONE", "FTECH": "JTWC", "FCST_DTG": "2026-09-24 00:00:00", "RUN_DTG": "2026-09-24 19:09:58", "BASIN": "IO", "STMNR": 1, "CAT_ID": null, "CAT_DESC": null, "MSGID": "WTIO51 PGTW 240300", "VALIDTIME": "2026-09-20 18:00:00" }, "geometry": { "type": "Point", "coordinates": [ 89.900002, 16.299999 ] } },
{ "type": "Feature", "properties": { "ID": 96585, "LAT": 16.8, "LON": 88.9, "VMAX": 20.0, "MSLP": 1012.95825, "RMAX": 45.0, "FSPD": 4.70086, "FDIR": 303.17383, "RENV": 500.0, "PENV": 1012.0, "VALIDT": 0, "DTG": "2026-09-21 00:00", "LATNOW": 18.1, "LONNOW": 83.7, "WINDNOW": 35.0, "DIRNOW": 3.0, "SPDNOW": 2.0, "TECH": "TRAK", "ADVNR": 6, "ATCFID": "IO012026", "NAME": "ONE", "FTECH": "JTWC", "FCST_DTG": "2026-09-24 00:00:00", "RUN_DTG": "2026-09-24 19:09:58", "BASIN": "IO", "STMNR": 1, "CAT_ID": null, "CAT_DESC": null, "MSGID": "WTIO51 PGTW 240300", "VALIDTIME": "2026-09-21 00:00:00" }, "geometry": { "type": "Point", "coordinates": [ 88.900002, 16.799999 ] } },
{ "type": "Feature", "properties": { "ID": 96586, "LAT": 17.3, "LON": 88.1, "VMAX": 20.0, "MSLP": 1012.95825, "RMAX": 45.0, "FSPD": 3.76612, "FDIR": 294.19196, "RENV": 500.0, "PENV": 1012.0, "VALIDT": 0, "DTG": "2026-09-21 06:00", "LATNOW": 18.1, "LONNOW": 83.7, "WINDNOW": 35.0, "DIRNOW": 3.0, "SPDNOW": 2.0, "TECH": "TRAK", "ADVNR": 6, "ATCFID": "IO012026", "NAME": "ONE", "FTECH": "JTWC", "FCST_DTG": "2026-09-24 00:00:00", "RUN_DTG": "2026-09-24 19:09:58", "BASIN": "IO", "STMNR": 1, "CAT_ID": null, "CAT_DESC": null, "MSGID": "WTIO51 PGTW 240300", "VALIDTIME": "2026-09-21 06:00:00" }, "geometry": { "type": "Point", "coordinates": [ 88.099998, 17.299999 ] } },
{ "type": "Feature", "properties": { "ID": 96587, "LAT": 17.6, "LON": 87.4, "VMAX": 20.0, "MSLP": 1012.95825, "RMAX": 45.0, "FSPD": 2.02728, "FDIR": 284.70023, "RENV": 500.0, "PENV": 1012.0, "VALIDT": 0, "DTG": "2026-09-21 12:00", "LATNOW": 18.1, "LONNOW": 83.7, "WINDNOW": 35.0, "DIRNOW": 3.0, "SPDNOW": 2.0, "TECH": "TRAK", "ADVNR": 6, "ATCFID": "IO012026", "NAME": "ONE", "FTECH": "JTWC", "FCST_DTG": "2026-09-24 00:00:00", "RUN_DTG": "2026-09-24 19:09:58", "BASIN": "IO", "STMNR": 1, "CAT_ID": null, "CAT_DESC": null, "MSGID": "WTIO51 PGTW 240300", "VALIDTIME": "2026-09-21 12:00:00" }, "geometry": { "type": "Point", "coordinates": [ 87.400002, 17.6 ] } },
{ "type": "Feature", "properties": { "ID": 96588, "LAT": 17.7, "LON": 87.0, "VMAX": 25.0, "MSLP": 1011.80975, "RMAX": 45.0, "FSPD": 1.96037, "FDIR": 269.99997, "RENV": 500.0, "PENV": 1012.0, "VALIDT": 0, "DTG": "2026-09-21 18:00", "LATNOW": 18.1, "LONNOW": 83.7, "WINDNOW": 35.0, "DIRNOW": 3.0, "SPDNOW": 2.0, "TECH": "TRAK", "ADVNR": 6, "ATCFID": "IO012026", "NAME": "ONE", "FTECH": "JTWC", "FCST_DTG": "2026-09-24 00:00:00", "RUN_DTG": "2026-09-24 19:09:58", "BASIN": "IO", "STMNR": 1, "CAT_ID": null, "CAT_DESC": null, "MSGID": "WTIO51 PGTW 240300", "VALIDTIME": "2026-09-21 18:00:00" }, "geometry": { "type": "Point", "coordinates": [ 87.0, 17.700001 ] } },
{ "type": "Feature", "properties": { "ID": 96589, "LAT": 17.7, "LON": 86.6, "VMAX": 30.0, "MSLP": 1010.40607, "RMAX": 44.21983, "FSPD": 2.45046, "FDIR": 269.99997, "RENV": 500.0, "PENV": 1012.0, "VALIDT": 0, "DTG": "2026-09-22 00:00", "LATNOW": 18.1, "LONNOW": 83.7, "WINDNOW": 35.0, "DIRNOW": 3.0, "SPDNOW": 2.0, "TECH": "TRAK", "ADVNR": 6, "ATCFID": "IO012026", "NAME": "ONE", "FTECH": "JTWC", "FCST_DTG": "2026-09-24 00:00:00", "RUN_DTG": "2026-09-24 19:09:58", "BASIN": "IO", "STMNR": 1, "CAT_ID": null, "CAT_DESC": null, "MSGID": "WTIO51 PGTW 240300", "VALIDTIME": "2026-09-22 00:00:00" }, "geometry": { "type": "Point", "coordinates": [ 86.599998, 17.700001 ] } },
{ "type": "Feature", "properties": { "ID": 96590, "LAT": 17.7, "LON": 86.1, "VMAX": 30.0, "MSLP": 1010.40607, "RMAX": 44.21983, "FSPD": 4.53163, "FDIR": 256.8767, "RENV": 500.0, "PENV": 1012.0, "VALIDT": 0, "DTG": "2026-09-22 06:00", "LATNOW": 18.1, "LONNOW": 83.7, "WINDNOW": 35.0, "DIRNOW": 3.0, "SPDNOW": 2.0, "TECH": "TRAK", "ADVNR": 6, "ATCFID": "IO012026", "NAME": "ONE", "FTECH": "JTWC", "FCST_DTG": "2026-09-24 00:00:00", "RUN_DTG": "2026-09-24 19:09:58", "BASIN": "IO", "STMNR": 1, "CAT_ID": null, "CAT_DESC": null, "MSGID": "WTIO51 PGTW 240300", "VALIDTIME": "2026-09-22 06:00:00" }, "geometry": { "type": "Point", "coordinates": [ 86.099998, 17.700001 ] } },
{ "type": "Feature", "properties": { "ID": 96591, "LAT": 17.5, "LON": 85.2, "VMAX": 30.0, "MSLP": 1010.40607, "RMAX": 44.21983, "FSPD": 2.02829, "FDIR": 284.6927, "RENV": 500.0, "PENV": 1012.0, "VALIDT": 0, "DTG": "2026-09-22 12:00", "LATNOW": 18.1, "LONNOW": 83.7, "WINDNOW": 35.0, "DIRNOW": 3.0, "SPDNOW": 2.0, "TECH": "TRAK", "ADVNR": 6, "ATCFID": "IO012026", "NAME": "ONE", "FTECH": "JTWC", "FCST_DTG": "2026-09-24 00:00:00", "RUN_DTG": "2026-09-24 19:09:58", "BASIN": "IO", "STMNR": 1, "CAT_ID": null, "CAT_DESC": null, "MSGID": "WTIO51 PGTW 240300", "VALIDTIME": "2026-09-22 12:00:00" }, "geometry": { "type": "Point", "coordinates": [ 85.199997, 17.5 ] } },
{ "type": "Feature", "properties": { "ID": 96592, "LAT": 17.6, "LON": 84.8, "VMAX": 35.0, "MSLP": 991.0, "RMAX": 25.0, "FSPD": 0.49036, "FDIR": 90.0, "RENV": 220.0, "PENV": 1004.0, "VALIDT": 0, "DTG": "2026-09-22 18:00", "LATNOW": 18.1, "LONNOW": 83.7, "WINDNOW": 35.0, "DIRNOW": 3.0, "SPDNOW": 2.0, "TECH": "TRAK", "ADVNR": 6, "ATCFID": "IO012026", "NAME": "ONE", "FTECH": "JTWC", "FCST_DTG": "2026-09-24 00:00:00", "RUN_DTG": "2026-09-24 19:09:58", "BASIN": "IO", "STMNR": 1, "CAT_ID": null, "CAT_DESC": null, "MSGID": "WTIO51 PGTW 240300", "VALIDTIME": "2026-09-22 18:00:00" }, "geometry": { "type": "Point", "coordinates": [ 84.800003, 17.6 ] } },
{ "type": "Feature", "properties": { "ID": 96593, "LAT": 17.6, "LON": 84.9, "VMAX": 40.0, "MSLP": 991.0, "RMAX": 25.0, "FSPD": 1.79453, "FDIR": 304.98364, "RENV": 220.0, "PENV": 1004.0, "VALIDT": 0, "DTG": "2026-09-23 00:00", "LATNOW": 18.1, "LONNOW": 83.7, "WINDNOW": 35.0, "DIRNOW": 3.0, "SPDNOW": 2.0, "TECH": "TRAK", "ADVNR": 6, "ATCFID": "IO012026", "NAME": "ONE", "FTECH": "JTWC", "FCST_DTG": "2026-09-24 00:00:00", "RUN_DTG": "2026-09-24 19:09:58", "BASIN": "IO", "STMNR": 1, "CAT_ID": null, "CAT_DESC": null, "MSGID": "WTIO51 PGTW 240300", "VALIDTIME": "2026-09-23 00:00:00" }, "geometry": { "type": "Point", "coordinates": [ 84.900002, 17.6 ] } },
{ "type": "Feature", "properties": { "ID": 96594, "LAT": 17.8, "LON": 84.6, "VMAX": 45.0, "MSLP": 990.0, "RMAX": 20.0, "FSPD": 2.9389, "FDIR": 269.99997, "RENV": 220.0, "PENV": 1004.0, "VALIDT": 0, "DTG": "2026-09-23 06:00", "LATNOW": 18.1, "LONNOW": 83.7, "WINDNOW": 35.0, "DIRNOW": 3.0, "SPDNOW": 2.0, "TECH": "TRAK", "ADVNR": 6, "ATCFID": "IO012026", "NAME": "ONE", "FTECH": "JTWC", "FCST_DTG": "2026-09-24 00:00:00", "RUN_DTG": "2026-09-24 19:09:58", "BASIN": "IO", "STMNR": 1, "CAT_ID": null, "CAT_DESC": null, "MSGID": "WTIO51 PGTW 240300", "VALIDTIME": "2026-09-23 06:00:00" }, "geometry": { "type": "Point", "coordinates": [ 84.599998, 17.799999 ] } },
{ "type": "Feature", "properties": { "ID": 96595, "LAT": 17.8, "LON": 84.0, "VMAX": 45.0, "MSLP": 990.0, "RMAX": 20.0, "FSPD": 1.46947, "FDIR": 269.99997, "RENV": 220.0, "PENV": 1004.0, "VALIDT": 0, "DTG": "2026-09-23 12:00", "LATNOW": 18.1, "LONNOW": 83.7, "WINDNOW": 35.0, "DIRNOW": 3.0, "SPDNOW": 2.0, "TECH": "TRAK", "ADVNR": 6, "ATCFID": "IO012026", "NAME": "ONE", "FTECH": "JTWC", "FCST_DTG": "2026-09-24 00:00:00", "RUN_DTG": "2026-09-24 19:09:58", "BASIN": "IO", "STMNR": 1, "CAT_ID": null, "CAT_DESC": null, "MSGID": "WTIO51 PGTW 240300", "VALIDTIME": "2026-09-23 12:00:00" }, "geometry": { "type": "Point", "coordinates": [ 84.0, 17.799999 ] } },
{ "type": "Feature", "properties": { "ID": 96596, "LAT": 17.8, "LON": 83.7, "VMAX": 40.0, "MSLP": 990.0, "RMAX": 20.0, "FSPD": 1.54334, "FDIR": 360.0, "RENV": 220.0, "PENV": 1004.0, "VALIDT": 0, "DTG": "2026-09-23 18:00", "LATNOW": 18.1, "LONNOW": 83.7, "WINDNOW": 35.0, "DIRNOW": 3.0, "SPDNOW": 2.0, "TECH": "TRAK", "ADVNR": 6, "ATCFID": "IO012026", "NAME": "ONE", "FTECH": "JTWC", "FCST_DTG": "2026-09-24 00:00:00", "RUN_DTG": "2026-09-24 19:09:58", "BASIN": "IO", "STMNR": 1, "CAT_ID": null, "CAT_DESC": null, "MSGID": "WTIO51 PGTW 240300", "VALIDTIME": "2026-09-23 18:00:00" }, "geometry": { "type": "Point", "coordinates": [ 83.699997, 17.799999 ] } },
{ "type": "Feature", "properties": { "ID": 96597, "LAT": 18.1, "LON": 83.7, "VMAX": 35.0, "MSLP": 995.0, "RMAX": 20.0, "FSPD": 2.9609, "FDIR": 330.31158, "RENV": 230.0, "PENV": 1004.0, "VALIDT": 0, "DTG": "2026-09-24 00:00", "LATNOW": 18.1, "LONNOW": 83.7, "WINDNOW": 35.0, "DIRNOW": 3.0, "SPDNOW": 2.0, "TECH": "TRAK", "ADVNR": 6, "ATCFID": "IO012026", "NAME": "ONE", "FTECH": "JTWC", "FCST_DTG": "2026-09-24 00:00:00", "RUN_DTG": "2026-09-24 19:09:58", "BASIN": "IO", "STMNR": 1, "CAT_ID": null, "CAT_DESC": null, "MSGID": "WTIO51 PGTW 240300", "VALIDTIME": "2026-09-24 00:00:00" }, "geometry": { "type": "Point", "coordinates": [ 83.699997, 18.1 ] } },
{ "type": "Feature", "properties": { "ID": 96598, "LAT": 18.2, "LON": 83.64, "VMAX": 35.0, "MSLP": 995.0, "RMAX": 20.0, "FSPD": 2.95882, "FDIR": 330.38196, "RENV": 230.0, "PENV": 1004.0, "VALIDT": 1, "DTG": "2026-09-24 01:00", "LATNOW": 18.1, "LONNOW": 83.7, "WINDNOW": 35.0, "DIRNOW": 3.0, "SPDNOW": 2.0, "TECH": "FCST", "ADVNR": 6, "ATCFID": "IO012026", "NAME": "ONE", "FTECH": "JTWC", "FCST_DTG": "2026-09-24 00:00:00", "RUN_DTG": "2026-09-24 19:09:58", "BASIN": "IO", "STMNR": 1, "CAT_ID": null, "CAT_DESC": null, "MSGID": "WTIO51 PGTW 240300", "VALIDTIME": "2026-09-24 01:00:00" }, "geometry": { "type": "Point", "coordinates": [ 83.639999, 18.200001 ] } },
{ "type": "Feature", "properties": { "ID": 96599, "LAT": 19.1, "LON": 83.1, "VMAX": 30.0, "MSLP": 1010.40607, "RMAX": 25.04457, "FSPD": 2.74879, "FDIR": 339.35236, "RENV": 250.0, "PENV": 1012.0, "VALIDT": 12, "DTG": "2026-09-24 12:00", "LATNOW": 18.1, "LONNOW": 83.7, "WINDNOW": 35.0, "DIRNOW": 3.0, "SPDNOW": 2.0, "TECH": "FCST", "ADVNR": 6, "ATCFID": "IO012026", "NAME": "ONE", "FTECH": "JTWC", "FCST_DTG": "2026-09-24 00:00:00", "RUN_DTG": "2026-09-24 19:09:58", "BASIN": "IO", "STMNR": 1, "CAT_ID": null, "CAT_DESC": null, "MSGID": "WTIO51 PGTW 240300", "VALIDTIME": "2026-09-24 12:00:00" }, "geometry": { "type": "Point", "coordinates": [ 83.099998, 19.1 ] } },
{ "type": "Feature", "properties": { "ID": 96600, "LAT": 20.1, "LON": 82.7, "VMAX": 25.0, "MSLP": 1011.80975, "RMAX": 25.48643, "FSPD": 2.74879, "FDIR": 339.35236, "RENV": 250.0, "PENV": 1012.0, "VALIDT": 24, "DTG": "2026-09-25 00:00", "LATNOW": 18.1, "LONNOW": 83.7, "WINDNOW": 35.0, "DIRNOW": 3.0, "SPDNOW": 2.0, "TECH": "FCST", "ADVNR": 6, "ATCFID": "IO012026", "NAME": "ONE", "FTECH": "JTWC", "FCST_DTG": "2026-09-24 00:00:00", "RUN_DTG": "2026-09-24 19:09:58", "BASIN": "IO", "STMNR": 1, "CAT_ID": null, "CAT_DESC": null, "MSGID": "WTIO51 PGTW 240300", "VALIDTIME": "2026-09-25 00:00:00" }, "geometry": { "type": "Point", "coordinates": [ 82.699997, 20.1 ] } },
{ "type": "Feature", "properties": { "ID": 96597, "LAT": 18.1, "LON": 83.7, "VMAX": 35.0, "MSLP": 995.0, "RMAX": 20.0, "FSPD": 2.9609, "FDIR": 330.31158, "RENV": 230.0, "PENV": 1004.0, "VALIDT": 0, "DTG": "2026-09-24 00:00", "LATNOW": 18.1, "LONNOW": 83.7, "WINDNOW": 35.0, "DIRNOW": 3.0, "SPDNOW": 2.0, "TECH": "TRAK", "ADVNR": 6, "ATCFID": "IO012026", "NAME": "ONE", "FTECH": "JTWC", "FCST_DTG": "2026-09-24 00:00:00", "RUN_DTG": "2026-09-24 19:09:58", "BASIN": "IO", "STMNR": 1, "CAT_ID": null, "CAT_DESC": null, "MSGID": "WTIO51 PGTW 240300", "VALIDTIME": "2026-09-24 00:00:00" }, "geometry": { "type": "LineString", "coordinates": [ [ 95.4, 12.0 ], [ 95.3, 12.4 ], [ 94.8, 12.6 ], [ 94.3, 13.0 ], [ 93.3, 13.7 ], [ 92.6, 14.2 ], [ 92.0, 14.8 ], [ 91.3, 15.3 ], [ 89.9, 16.3 ], [ 88.9, 16.8 ], [ 88.1, 17.3 ], [ 87.4, 17.6 ], [ 87.0, 17.7 ], [ 86.6, 17.7 ], [ 86.1, 17.7 ], [ 85.2, 17.5 ], [ 84.8, 17.6 ], [ 84.9, 17.6 ], [ 84.6, 17.8 ], [ 84.0, 17.8 ], [ 83.7, 17.8 ], [ 83.7, 18.1 ] ] } },
{ "type": "Feature", "properties": { "ID": 96600, "LAT": 20.1, "LON": 82.7, "VMAX": 25.0, "MSLP": 1011.80975, "RMAX": 25.48643, "FSPD": 2.74879, "FDIR": 339.35236, "RENV": 250.0, "PENV": 1012.0, "VALIDT": 24, "DTG": "2026-09-25 00:00", "LATNOW": 18.1, "LONNOW": 83.7, "WINDNOW": 35.0, "DIRNOW": 3.0, "SPDNOW": 2.0, "TECH": "FCST", "ADVNR": 6, "ATCFID": "IO012026", "NAME": "ONE", "FTECH": "JTWC", "FCST_DTG": "2026-09-24 00:00:00", "RUN_DTG": "2026-09-24 19:09:58", "BASIN": "IO", "STMNR": 1, "CAT_ID": null, "CAT_DESC": null, "MSGID": "WTIO51 PGTW 240300", "VALIDTIME": "2026-09-25 00:00:00" }, "geometry": { "type": "LineString", "coordinates": [ [ 83.7, 18.1 ], [ 83.64, 18.2 ], [ 83.1, 19.1 ], [ 82.7, 20.1 ] ] } }
]
}
