{
"type": "FeatureCollection",
"crs": { "type": "name", "properties": { "name": "urn:ogc:def:crs:OGC:1.3:CRS84" } },
"features": [
{ "type": "Feature", "properties": { "ID": 273476, "LAT": 14.2, "LON": 93.7, "VMAX": 25.0, "MSLP": 1011.80975, "RMAX": 45.0, "FSPD": 3.63804, "FDIR": 286.42816, "RENV": 500.0, "PENV": 1012.0, "VALIDT": 0, "DTG": "2024-10-21 12:00", "LATNOW": 20.8, "LONNOW": 86.9, "WINDNOW": 60.0, "DIRNOW": 2.0, "SPDNOW": 3.0, "TECH": "TRAK", "ADVNR": 8, "ATCFID": "IO032024", "NAME": "DANA", "FTECH": "JTWC", "FCST_DTG": "2024-10-25 00:00:00", "RUN_DTG": "2024-10-25 15:17:20", "BASIN": "IO", "STMNR": 3, "CAT_ID": null, "CAT_DESC": null, "MSGID": "WTIO51 PGTW 250300", "VALIDTIME": "2024-10-21 12:00:00" }, "geometry": { "type": "Point", "coordinates": [ 93.699997, 14.2 ] } },
{ "type": "Feature", "properties": { "ID": 273477, "LAT": 14.4, "LON": 93.0, "VMAX": 25.0, "MSLP": 1011.80975, "RMAX": 45.0, "FSPD": 3.22961, "FDIR": 309.58038, "RENV": 500.0, "PENV": 1012.0, "VALIDT": 0, "DTG": "2024-10-21 18:00", "LATNOW": 20.8, "LONNOW": 86.9, "WINDNOW": 60.0, "DIRNOW": 2.0, "SPDNOW": 3.0, "TECH": "TRAK", "ADVNR": 8, "ATCFID": "IO032024", "NAME": "DANA", "FTECH": "JTWC", "FCST_DTG": "2024-10-25 00:00:00", "RUN_DTG": "2024-10-25 15:17:20", "BASIN": "IO", "STMNR": 3, "CAT_ID": null, "CAT_DESC": null, "MSGID": "WTIO51 PGTW 250300", "VALIDTIME": "2024-10-21 18:00:00" }, "geometry": { "type": "Point", "coordinates": [ 93.0, 14.4 ] } },
{ "type": "Feature", "properties": { "ID": 273478, "LAT": 14.8, "LON": 92.5, "VMAX": 25.0, "MSLP": 1011.80975, "RMAX": 45.0, "FSPD": 2.69026, "FDIR": 292.48547, "RENV": 500.0, "PENV": 1012.0, "VALIDT": 0, "DTG": "2024-10-22 00:00", "LATNOW": 20.8, "LONNOW": 86.9, "WINDNOW": 60.0, "DIRNOW": 2.0, "SPDNOW": 3.0, "TECH": "TRAK", "ADVNR": 8, "ATCFID": "IO032024", "NAME": "DANA", "FTECH": "JTWC", "FCST_DTG": "2024-10-25 00:00:00", "RUN_DTG": "2024-10-25 15:17:20", "BASIN": "IO", "STMNR": 3, "CAT_ID": null, "CAT_DESC": null, "MSGID": "WTIO51 PGTW 250300", "VALIDTIME": "2024-10-22 00:00:00" }, "geometry": { "type": "Point", "coordinates": [ 92.5, 14.8 ] } },
{ "type": "Feature", "properties": { "ID": 273479, "LAT": 15.0, "LON": 92.0, "VMAX": 25.0, "MSLP": 1011.80975, "RMAX": 45.0, "FSPD": 3.1527, "FDIR": 289.04745, "RENV": 500.0, "PENV": 1012.0, "VALIDT": 0, "DTG": "2024-10-22 06:00", "LATNOW": 20.8, "LONNOW": 86.9, "WINDNOW": 60.0, "DIRNOW": 2.0, "SPDNOW": 3.0, "TECH": "TRAK", "ADVNR": 8, "ATCFID": "IO032024", "NAME": "DANA", "FTECH": "JTWC", "FCST_DTG": "2024-10-25 00:00:00", "RUN_DTG": "2024-10-25 15:17:20", "BASIN": "IO", "STMNR": 3, "CAT_ID": null, "CAT_DESC": null, "MSGID": "WTIO51 PGTW 250300", "VALIDTIME": "2024-10-22 06:00:00" }, "geometry": { "type": "Point", "coordinates": [ 92.0, 15.0 ] } },
{ "type": "Feature", "properties": { "ID": 273480, "LAT": 15.2, "LON": 91.4, "VMAX": 25.0, "MSLP": 1011.80975, "RMAX": 45.0, "FSPD": 3.61802, "FDIR": 304.66376, "RENV": 500.0, "PENV": 1012.0, "VALIDT": 0, "DTG": "2024-10-22 12:00", "LATNOW": 20.8, "LONNOW": 86.9, "WINDNOW": 60.0, "DIRNOW": 2.0, "SPDNOW": 3.0, "TECH": "TRAK", "ADVNR": 8, "ATCFID": "IO032024", "NAME": "DANA", "FTECH": "JTWC", "FCST_DTG": "2024-10-25 00:00:00", "RUN_DTG": "2024-10-25 15:17:20", "BASIN": "IO", "STMNR": 3, "CAT_ID": null, "CAT_DESC": null, "MSGID": "WTIO51 PGTW 250300", "VALIDTIME": "2024-10-22 12:00:00" }, "geometry": { "type": "Point", "coordinates": [ 91.400002, 15.2 ] } },
{ "type": "Feature", "properties": { "ID": 273481, "LAT": 15.6, "LON": 90.8, "VMAX": 30.0, "MSLP": 1010.40607, "RMAX": 44.21983, "FSPD": 3.79401, "FDIR": 294.00272, "RENV": 500.0, "PENV": 1012.0, "VALIDT": 0, "DTG": "2024-10-22 18:00", "LATNOW": 20.8, "LONNOW": 86.9, "WINDNOW": 60.0, "DIRNOW": 2.0, "SPDNOW": 3.0, "TECH": "TRAK", "ADVNR": 8, "ATCFID": "IO032024", "NAME": "DANA", "FTECH": "JTWC", "FCST_DTG": "2024-10-25 00:00:00", "RUN_DTG": "2024-10-25 15:17:20", "BASIN": "IO", "STMNR": 3, "CAT_ID": null, "CAT_DESC": null, "MSGID": "WTIO51 PGTW 250300", "VALIDTIME": "2024-10-22 18:00:00" }, "geometry": { "type": "Point", "coordinates": [ 90.800003, 15.6 ] } },
{ "type": "Feature", "properties": { "ID": 273482, "LAT": 15.9, "LON": 90.1, "VMAX": 30.0, "MSLP": 1010.40607, "RMAX": 44.21983, "FSPD": 5.34597, "FDIR": 312.34656, "RENV": 500.0, "PENV": 1012.0, "VALIDT": 0, "DTG": "2024-10-23 00:00", "LATNOW": 20.8, "LONNOW": 86.9, "WINDNOW": 60.0, "DIRNOW": 2.0, "SPDNOW": 3.0, "TECH": "TRAK", "ADVNR": 8, "ATCFID": "IO032024", "NAME": "DANA", "FTECH": "JTWC", "FCST_DTG": "2024-10-25 00:00:00", "RUN_DTG": "2024-10-25 15:17:20", "BASIN": "IO", "STMNR": 3, "CAT_ID": null, "CAT_DESC": null, "MSGID": "WTIO51 PGTW 250300", "VALIDTIME": "2024-10-23 00:00:00" }, "geometry": { "type": "Point", "coordinates": [ 90.099998, 15.9 ] } },
{ "type": "Feature", "properties": { "ID": 273483, "LAT": 16.6, "LON": 89.3, "VMAX": 35.0, "MSLP": 999.0, "RMAX": 30.0, "FSPD": 3.89197, "FDIR": 337.70837, "RENV": 210.0, "PENV": 1008.0, "VALIDT": 0, "DTG": "2024-10-23 06:00", "LATNOW": 20.8, "LONNOW": 86.9, "WINDNOW": 60.0, "DIRNOW": 2.0, "SPDNOW": 3.0, "TECH": "TRAK", "ADVNR": 8, "ATCFID": "IO032024", "NAME": "DANA", "FTECH": "JTWC", "FCST_DTG": "2024-10-25 00:00:00", "RUN_DTG": "2024-10-25 15:17:20", "BASIN": "IO", "STMNR": 3, "CAT_ID": null, "CAT_DESC": null, "MSGID": "WTIO51 PGTW 250300", "VALIDTIME": "2024-10-23 06:00:00" }, "geometry": { "type": "Point", "coordinates": [ 89.300003, 16.6 ] } },
{ "type": "Feature", "properties": { "ID": 273484, "LAT": 17.3, "LON": 89.0, "VMAX": 40.0, "MSLP": 999.0, "RMAX": 30.0, "FSPD": 4.37031, "FDIR": 340.34067, "RENV": 210.0, "PENV": 1008.0, "VALIDT": 0, "DTG": "2024-10-23 12:00", "LATNOW": 20.8, "LONNOW": 86.9, "WINDNOW": 60.0, "DIRNOW": 2.0, "SPDNOW": 3.0, "TECH": "TRAK", "ADVNR": 8, "ATCFID": "IO032024", "NAME": "DANA", "FTECH": "JTWC", "FCST_DTG": "2024-10-25 00:00:00", "RUN_DTG": "2024-10-25 15:17:20", "BASIN": "IO", "STMNR": 3, "CAT_ID": null, "CAT_DESC": null, "MSGID": "WTIO51 PGTW 250300", "VALIDTIME": "2024-10-23 12:00:00" }, "geometry": { "type": "Point", "coordinates": [ 89.0, 17.299999 ] } },
{ "type": "Feature", "properties": { "ID": 273485, "LAT": 18.1, "LON": 88.7, "VMAX": 55.0, "MSLP": 1000.0, "RMAX": 30.0, "FSPD": 3.88731, "FDIR": 337.8764, "RENV": 210.0, "PENV": 1008.0, "VALIDT": 0, "DTG": "2024-10-23 18:00", "LATNOW": 20.8, "LONNOW": 86.9, "WINDNOW": 60.0, "DIRNOW": 2.0, "SPDNOW": 3.0, "TECH": "TRAK", "ADVNR": 8, "ATCFID": "IO032024", "NAME": "DANA", "FTECH": "JTWC", "FCST_DTG": "2024-10-25 00:00:00", "RUN_DTG": "2024-10-25 15:17:20", "BASIN": "IO", "STMNR": 3, "CAT_ID": null, "CAT_DESC": null, "MSGID": "WTIO51 PGTW 250300", "VALIDTIME": "2024-10-23 18:00:00" }, "geometry": { "type": "Point", "coordinates": [ 88.699997, 18.1 ] } },
{ "type": "Feature", "properties": { "ID": 273486, "LAT": 18.8, "LON": 88.4, "VMAX": 60.0, "MSLP": 990.0, "RMAX": 20.0, "FSPD": 3.73931, "FDIR": 294.37665, "RENV": 200.0, "PENV": 1006.0, "VALIDT": 0, "DTG": "2024-10-24 00:00", "LATNOW": 20.8, "LONNOW": 86.9, "WINDNOW": 60.0, "DIRNOW": 2.0, "SPDNOW": 3.0, "TECH": "TRAK", "ADVNR": 8, "ATCFID": "IO032024", "NAME": "DANA", "FTECH": "JTWC", "FCST_DTG": "2024-10-25 00:00:00", "RUN_DTG": "2024-10-25 15:17:20", "BASIN": "IO", "STMNR": 3, "CAT_ID": null, "CAT_DESC": null, "MSGID": "WTIO51 PGTW 250300", "VALIDTIME": "2024-10-24 00:00:00" }, "geometry": { "type": "Point", "coordinates": [ 88.400002, 18.799999 ] } },
{ "type": "Feature", "properties": { "ID": 273487, "LAT": 19.1, "LON": 87.7, "VMAX": 65.0, "MSLP": 988.0, "RMAX": 20.0, "FSPD": 4.34174, "FDIR": 326.03876, "RENV": 220.0, "PENV": 1007.0, "VALIDT": 0, "DTG": "2024-10-24 06:00", "LATNOW": 20.8, "LONNOW": 86.9, "WINDNOW": 60.0, "DIRNOW": 2.0, "SPDNOW": 3.0, "TECH": "TRAK", "ADVNR": 8, "ATCFID": "IO032024", "NAME": "DANA", "FTECH": "JTWC", "FCST_DTG": "2024-10-25 00:00:00", "RUN_DTG": "2024-10-25 15:17:20", "BASIN": "IO", "STMNR": 3, "CAT_ID": null, "CAT_DESC": null, "MSGID": "WTIO51 PGTW 250300", "VALIDTIME": "2024-10-24 06:00:00" }, "geometry": { "type": "Point", "coordinates": [ 87.699997, 19.1 ] } },
{ "type": "Feature", "properties": { "ID": 273488, "LAT": 19.8, "LON": 87.2, "VMAX": 65.0, "MSLP": 985.0, "RMAX": 20.0, "FSPD": 2.05779, "FDIR": 360.0, "RENV": 255.0, "PENV": 1008.0, "VALIDT": 0, "DTG": "2024-10-24 12:00", "LATNOW": 20.8, "LONNOW": 86.9, "WINDNOW": 60.0, "DIRNOW": 2.0, "SPDNOW": 3.0, "TECH": "TRAK", "ADVNR": 8, "ATCFID": "IO032024", "NAME": "DANA", "FTECH": "JTWC", "FCST_DTG": "2024-10-25 00:00:00", "RUN_DTG": "2024-10-25 15:17:20", "BASIN": "IO", "STMNR": 3, "CAT_ID": null, "CAT_DESC": null, "MSGID": "WTIO51 PGTW 250300", "VALIDTIME": "2024-10-24 12:00:00" }, "geometry": { "type": "Point", "coordinates": [ 87.199997, 19.799999 ] } },
{ "type": "Feature", "properties": { "ID": 273489, "LAT": 20.2, "LON": 87.2, "VMAX": 65.0, "MSLP": 985.0, "RMAX": 20.0, "FSPD": 3.40839, "FDIR": 334.90488, "RENV": 265.0, "PENV": 1008.0, "VALIDT": 0, "DTG": "2024-10-24 18:00", "LATNOW": 20.8, "LONNOW": 86.9, "WINDNOW": 60.0, "DIRNOW": 2.0, "SPDNOW": 3.0, "TECH": "TRAK", "ADVNR": 8, "ATCFID": "IO032024", "NAME": "DANA", "FTECH": "JTWC", "FCST_DTG": "2024-10-25 00:00:00", "RUN_DTG": "2024-10-25 15:17:20", "BASIN": "IO", "STMNR": 3, "CAT_ID": null, "CAT_DESC": null, "MSGID": "WTIO51 PGTW 250300", "VALIDTIME": "2024-10-24 18:00:00" }, "geometry": { "type": "Point", "coordinates": [ 87.199997, 20.200001 ] } },
{ "type": "Feature", "properties": { "ID": 273490, "LAT": 20.8, "LON": 86.9, "VMAX": 60.0, "MSLP": 996.62427, "RMAX": 35.97599, "FSPD": 2.22438, "FDIR": 283.37244, "RENV": 500.0, "PENV": 1012.0, "VALIDT": 0, "DTG": "2024-10-25 00:00", "LATNOW": 20.8, "LONNOW": 86.9, "WINDNOW": 60.0, "DIRNOW": 2.0, "SPDNOW": 3.0, "TECH": "TRAK", "ADVNR": 8, "ATCFID": "IO032024", "NAME": "DANA", "FTECH": "JTWC", "FCST_DTG": "2024-10-25 00:00:00", "RUN_DTG": "2024-10-25 15:17:20", "BASIN": "IO", "STMNR": 3, "CAT_ID": null, "CAT_DESC": null, "MSGID": "WTIO51 PGTW 250300", "VALIDTIME": "2024-10-25 00:00:00" }, "geometry": { "type": "Point", "coordinates": [ 86.900002, 20.799999 ] } },
{ "type": "Feature", "properties": { "ID": 273491, "LAT": 20.82, "LON": 86.81, "VMAX": 60.0, "MSLP": 996.62427, "RMAX": 35.97599, "FSPD": 2.22288, "FDIR": 283.38135, "RENV": 500.0, "PENV": 1012.0, "VALIDT": 1, "DTG": "2024-10-25 01:00", "LATNOW": 20.8, "LONNOW": 86.9, "WINDNOW": 60.0, "DIRNOW": 2.0, "SPDNOW": 3.0, "TECH": "FCST", "ADVNR": 8, "ATCFID": "IO032024", "NAME": "DANA", "FTECH": "JTWC", "FCST_DTG": "2024-10-25 00:00:00", "RUN_DTG": "2024-10-25 15:17:20", "BASIN": "IO", "STMNR": 3, "CAT_ID": null, "CAT_DESC": null, "MSGID": "WTIO51 PGTW 250300", "VALIDTIME": "2024-10-25 01:00:00" }, "geometry": { "type": "Point", "coordinates": [ 86.809998, 20.82 ] } },
{ "type": "Feature", "properties": { "ID": 273492, "LAT": 21.0, "LON": 86.0, "VMAX": 45.0, "MSLP": 1004.66364, "RMAX": 39.89946, "FSPD": 2.65488, "FDIR": 264.44006, "RENV": 250.0, "PENV": 1012.0, "VALIDT": 12, "DTG": "2024-10-25 12:00", "LATNOW": 20.8, "LONNOW": 86.9, "WINDNOW": 60.0, "DIRNOW": 2.0, "SPDNOW": 3.0, "TECH": "FCST", "ADVNR": 8, "ATCFID": "IO032024", "NAME": "DANA", "FTECH": "JTWC", "FCST_DTG": "2024-10-25 00:00:00", "RUN_DTG": "2024-10-25 15:17:20", "BASIN": "IO", "STMNR": 3, "CAT_ID": null, "CAT_DESC": null, "MSGID": "WTIO51 PGTW 250300", "VALIDTIME": "2024-10-25 12:00:00" }, "geometry": { "type": "Point", "coordinates": [ 86.0, 21.0 ] } },
{ "type": "Feature", "properties": { "ID": 273493, "LAT": 20.9, "LON": 84.9, "VMAX": 35.0, "MSLP": 1008.74713, "RMAX": 42.69135, "FSPD": 3.06525, "FDIR": 250.38719, "RENV": 250.0, "PENV": 1012.0, "VALIDT": 24, "DTG": "2024-10-26 00:00", "LATNOW": 20.8, "LONNOW": 86.9, "WINDNOW": 60.0, "DIRNOW": 2.0, "SPDNOW": 3.0, "TECH": "FCST", "ADVNR": 8, "ATCFID": "IO032024", "NAME": "DANA", "FTECH": "JTWC", "FCST_DTG": "2024-10-25 00:00:00", "RUN_DTG": "2024-10-25 15:17:20", "BASIN": "IO", "STMNR": 3, "CAT_ID": null, "CAT_DESC": null, "MSGID": "WTIO51 PGTW 250300", "VALIDTIME": "2024-10-26 00:00:00" }, "geometry": { "type": "Point", "coordinates": [ 84.900002, 20.9 ] } },
{ "type": "Feature", "properties": { "ID": 273494, "LAT": 20.5, "LON": 83.7, "VMAX": 25.0, "MSLP": 1011.80975, "RMAX": 45.0, "FSPD": 3.06525, "FDIR": 250.38719, "RENV": 250.0, "PENV": 1012.0, "VALIDT": 36, "DTG": "2024-10-26 12:00", "LATNOW": 20.8, "LONNOW": 86.9, "WINDNOW": 60.0, "DIRNOW": 2.0, "SPDNOW": 3.0, "TECH": "FCST", "ADVNR": 8, "ATCFID": "IO032024", "NAME": "DANA", "FTECH": "JTWC", "FCST_DTG": "2024-10-25 00:00:00", "RUN_DTG": "2024-10-25 15:17:20", "BASIN": "IO", "STMNR": 3, "CAT_ID": null, "CAT_DESC": null, "MSGID": "WTIO51 PGTW 250300", "VALIDTIME": "2024-10-26 12:00:00" }, "geometry": { "type": "Point", "coordinates": [ 83.699997, 20.5 ] } },
{ "type": "Feature", "properties": { "ID": 273490, "LAT": 20.8, "LON": 86.9, "VMAX": 60.0, "MSLP": 996.62427, "RMAX": 35.97599, "FSPD": 2.22438, "FDIR": 283.37244, "RENV": 500.0, "PENV": 1012.0, "VALIDT": 0, "DTG": "2024-10-25 00:00", "LATNOW": 20.8, "LONNOW": 86.9, "WINDNOW": 60.0, "DIRNOW": 2.0, "SPDNOW": 3.0, "TECH": "TRAK", "ADVNR": 8, "ATCFID": "IO032024", "NAME": "DANA", "FTECH": "JTWC", "FCST_DTG": "2024-10-25 00:00:00", "RUN_DTG": "2024-10-25 15:17:20", "BASIN": "IO", "STMNR": 3, "CAT_ID": null, "CAT_DESC": null, "MSGID": "WTIO51 PGTW 250300", "VALIDTIME": "2024-10-25 00:00:00" }, "geometry": { "type": "LineString", "coordinates": [ [ 93.7, 14.2 ], [ 93.0, 14.4 ], [ 92.5, 14.8 ], [ 92.0, 15.0 ], [ 91.4, 15.2 ], [ 90.8, 15.6 ], [ 90.1, 15.9 ], [ 89.3, 16.6 ], [ 89.0, 17.3 ], [ 88.7, 18.1 ], [ 88.4, 18.8 ], [ 87.7, 19.1 ], [ 87.2, 19.8 ], [ 87.2, 20.2 ], [ 86.9, 20.8 ] ] } },
{ "type": "Feature", "properties": { "ID": 273494, "LAT": 20.5, "LON": 83.7, "VMAX": 25.0, "MSLP": 1011.80975, "RMAX": 45.0, "FSPD": 3.06525, "FDIR": 250.38719, "RENV": 250.0, "PENV": 1012.0, "VALIDT": 36, "DTG": "2024-10-26 12:00", "LATNOW": 20.8, "LONNOW": 86.9, "WINDNOW": 60.0, "DIRNOW": 2.0, "SPDNOW": 3.0, "TECH": "FCST", "ADVNR": 8, "ATCFID": "IO032024", "NAME": "DANA", "FTECH": "JTWC", "FCST_DTG": "2024-10-25 00:00:00", "RUN_DTG": "2024-10-25 15:17:20", "BASIN": "IO", "STMNR": 3, "CAT_ID": null, "CAT_DESC": null, "MSGID": "WTIO51 PGTW 250300", "VALIDTIME": "2024-10-26 12:00:00" }, "geometry": { "type": "LineString", "coordinates": [ [ 86.9, 20.8 ], [ 86.81, 20.82 ], [ 86.0, 21.0 ], [ 84.9, 20.9 ], [ 83.7, 20.5 ] ] } }
]
}
