{
"type": "FeatureCollection",
"crs": { "type": "name", "properties": { "name": "urn:ogc:def:crs:OGC:1.3:CRS84" } },
"features": [
{ "type": "Feature", "properties": { "ID": 324726, "LAT": 10.0, "LON": -105.0, "VMAX": 20.0, "MSLP": 1007.0, "RMAX": 50.0, "FSPD": 3.58296, "FDIR": 278.25513, "RENV": 150.0, "PENV": 1009.0, "VALIDT": 0, "DTG": "2025-06-06 12:00", "LATNOW": 16.2, "LONNOW": -113.9, "WINDNOW": 30.0, "DIRNOW": 3.0, "SPDNOW": 1.0, "TECH": "TRAK", "ADVNR": 13, "ATCFID": "EP032025", "NAME": "COSME", "FTECH": "OFCL", "FCST_DTG": "2025-06-11 12:00:00", "RUN_DTG": "2025-06-12 06:26:06", "BASIN": "EP", "STMNR": 3, "CAT_ID": null, "CAT_DESC": null, "MSGID": "WTPZ23 KNHC 111434", "VALIDTIME": "2025-06-06 12:00:00" }, "geometry": { "type": "Point", "coordinates": [ -105.0, 10.0 ] } },
{ "type": "Feature", "properties": { "ID": 324727, "LAT": 10.1, "LON": -105.7, "VMAX": 20.0, "MSLP": 1007.0, "RMAX": 90.0, "FSPD": 4.99861, "FDIR": 294.30975, "RENV": 150.0, "PENV": 1009.0, "VALIDT": 0, "DTG": "2025-06-06 18:00", "LATNOW": 16.2, "LONNOW": -113.9, "WINDNOW": 30.0, "DIRNOW": 3.0, "SPDNOW": 1.0, "TECH": "TRAK", "ADVNR": 13, "ATCFID": "EP032025", "NAME": "COSME", "FTECH": "OFCL", "FCST_DTG": "2025-06-11 12:00:00", "RUN_DTG": "2025-06-12 06:26:06", "BASIN": "EP", "STMNR": 3, "CAT_ID": null, "CAT_DESC": null, "MSGID": "WTPZ23 KNHC 111434", "VALIDTIME": "2025-06-06 18:00:00" }, "geometry": { "type": "Point", "coordinates": [ -105.699997, 10.1 ] } },
{ "type": "Feature", "properties": { "ID": 324728, "LAT": 10.5, "LON": -106.6, "VMAX": 20.0, "MSLP": 1007.0, "RMAX": 90.0, "FSPD": 7.3789, "FDIR": 253.80702, "RENV": 150.0, "PENV": 1009.0, "VALIDT": 0, "DTG": "2025-06-07 00:00", "LATNOW": 16.2, "LONNOW": -113.9, "WINDNOW": 30.0, "DIRNOW": 3.0, "SPDNOW": 1.0, "TECH": "TRAK", "ADVNR": 13, "ATCFID": "EP032025", "NAME": "COSME", "FTECH": "OFCL", "FCST_DTG": "2025-06-11 12:00:00", "RUN_DTG": "2025-06-12 06:26:06", "BASIN": "EP", "STMNR": 3, "CAT_ID": null, "CAT_DESC": null, "MSGID": "WTPZ23 KNHC 111434", "VALIDTIME": "2025-06-07 00:00:00" }, "geometry": { "type": "Point", "coordinates": [ -106.599998, 10.5 ] } },
{ "type": "Feature", "properties": { "ID": 324729, "LAT": 10.1, "LON": -108.0, "VMAX": 25.0, "MSLP": 1007.0, "RMAX": 90.0, "FSPD": 3.03883, "FDIR": 269.99997, "RENV": 150.0, "PENV": 1009.0, "VALIDT": 0, "DTG": "2025-06-07 06:00", "LATNOW": 16.2, "LONNOW": -113.9, "WINDNOW": 30.0, "DIRNOW": 3.0, "SPDNOW": 1.0, "TECH": "TRAK", "ADVNR": 13, "ATCFID": "EP032025", "NAME": "COSME", "FTECH": "OFCL", "FCST_DTG": "2025-06-11 12:00:00", "RUN_DTG": "2025-06-12 06:26:06", "BASIN": "EP", "STMNR": 3, "CAT_ID": null, "CAT_DESC": null, "MSGID": "WTPZ23 KNHC 111434", "VALIDTIME": "2025-06-07 06:00:00" }, "geometry": { "type": "Point", "coordinates": [ -108.0, 10.1 ] } },
{ "type": "Feature", "properties": { "ID": 324730, "LAT": 10.1, "LON": -108.6, "VMAX": 25.0, "MSLP": 1007.0, "RMAX": 90.0, "FSPD": 5.68143, "FDIR": 5.10535, "RENV": 150.0, "PENV": 1009.0, "VALIDT": 0, "DTG": "2025-06-07 12:00", "LATNOW": 16.2, "LONNOW": -113.9, "WINDNOW": 30.0, "DIRNOW": 3.0, "SPDNOW": 1.0, "TECH": "TRAK", "ADVNR": 13, "ATCFID": "EP032025", "NAME": "COSME", "FTECH": "OFCL", "FCST_DTG": "2025-06-11 12:00:00", "RUN_DTG": "2025-06-12 06:26:06", "BASIN": "EP", "STMNR": 3, "CAT_ID": null, "CAT_DESC": null, "MSGID": "WTPZ23 KNHC 111434", "VALIDTIME": "2025-06-07 12:00:00" }, "geometry": { "type": "Point", "coordinates": [ -108.599998, 10.1 ] } },
{ "type": "Feature", "properties": { "ID": 324731, "LAT": 11.2, "LON": -108.5, "VMAX": 25.0, "MSLP": 1007.0, "RMAX": 90.0, "FSPD": 2.95668, "FDIR": 301.46527, "RENV": 150.0, "PENV": 1009.0, "VALIDT": 0, "DTG": "2025-06-07 18:00", "LATNOW": 16.2, "LONNOW": -113.9, "WINDNOW": 30.0, "DIRNOW": 3.0, "SPDNOW": 1.0, "TECH": "TRAK", "ADVNR": 13, "ATCFID": "EP032025", "NAME": "COSME", "FTECH": "OFCL", "FCST_DTG": "2025-06-11 12:00:00", "RUN_DTG": "2025-06-12 06:26:06", "BASIN": "EP", "STMNR": 3, "CAT_ID": null, "CAT_DESC": null, "MSGID": "WTPZ23 KNHC 111434", "VALIDTIME": "2025-06-07 18:00:00" }, "geometry": { "type": "Point", "coordinates": [ -108.5, 11.2 ] } },
{ "type": "Feature", "properties": { "ID": 324732, "LAT": 11.5, "LON": -109.0, "VMAX": 25.0, "MSLP": 1006.0, "RMAX": 90.0, "FSPD": 4.31615, "FDIR": 290.95114, "RENV": 180.0, "PENV": 1008.0, "VALIDT": 0, "DTG": "2025-06-08 00:00", "LATNOW": 16.2, "LONNOW": -113.9, "WINDNOW": 30.0, "DIRNOW": 3.0, "SPDNOW": 1.0, "TECH": "TRAK", "ADVNR": 13, "ATCFID": "EP032025", "NAME": "COSME", "FTECH": "OFCL", "FCST_DTG": "2025-06-11 12:00:00", "RUN_DTG": "2025-06-12 06:26:06", "BASIN": "EP", "STMNR": 3, "CAT_ID": null, "CAT_DESC": null, "MSGID": "WTPZ23 KNHC 111434", "VALIDTIME": "2025-06-08 00:00:00" }, "geometry": { "type": "Point", "coordinates": [ -109.0, 11.5 ] } },
{ "type": "Feature", "properties": { "ID": 324733, "LAT": 11.8, "LON": -109.8, "VMAX": 30.0, "MSLP": 1006.0, "RMAX": 50.0, "FSPD": 3.96592, "FDIR": 310.4347, "RENV": 200.0, "PENV": 1010.0, "VALIDT": 0, "DTG": "2025-06-08 06:00", "LATNOW": 16.2, "LONNOW": -113.9, "WINDNOW": 30.0, "DIRNOW": 3.0, "SPDNOW": 1.0, "TECH": "TRAK", "ADVNR": 13, "ATCFID": "EP032025", "NAME": "COSME", "FTECH": "OFCL", "FCST_DTG": "2025-06-11 12:00:00", "RUN_DTG": "2025-06-12 06:26:06", "BASIN": "EP", "STMNR": 3, "CAT_ID": null, "CAT_DESC": null, "MSGID": "WTPZ23 KNHC 111434", "VALIDTIME": "2025-06-08 06:00:00" }, "geometry": { "type": "Point", "coordinates": [ -109.800003, 11.8 ] } },
{ "type": "Feature", "properties": { "ID": 324734, "LAT": 12.3, "LON": -110.4, "VMAX": 30.0, "MSLP": 1001.0, "RMAX": 40.0, "FSPD": 3.90328, "FDIR": 337.30716, "RENV": 200.0, "PENV": 1009.0, "VALIDT": 0, "DTG": "2025-06-08 12:00", "LATNOW": 16.2, "LONNOW": -113.9, "WINDNOW": 30.0, "DIRNOW": 3.0, "SPDNOW": 1.0, "TECH": "TRAK", "ADVNR": 13, "ATCFID": "EP032025", "NAME": "COSME", "FTECH": "OFCL", "FCST_DTG": "2025-06-11 12:00:00", "RUN_DTG": "2025-06-12 06:26:06", "BASIN": "EP", "STMNR": 3, "CAT_ID": null, "CAT_DESC": null, "MSGID": "WTPZ23 KNHC 111434", "VALIDTIME": "2025-06-08 12:00:00" }, "geometry": { "type": "Point", "coordinates": [ -110.400002, 12.3 ] } },
{ "type": "Feature", "properties": { "ID": 324735, "LAT": 13.0, "LON": -110.7, "VMAX": 40.0, "MSLP": 999.0, "RMAX": 40.0, "FSPD": 4.76072, "FDIR": 302.70413, "RENV": 200.0, "PENV": 1009.0, "VALIDT": 0, "DTG": "2025-06-08 18:00", "LATNOW": 16.2, "LONNOW": -113.9, "WINDNOW": 30.0, "DIRNOW": 3.0, "SPDNOW": 1.0, "TECH": "TRAK", "ADVNR": 13, "ATCFID": "EP032025", "NAME": "COSME", "FTECH": "OFCL", "FCST_DTG": "2025-06-11 12:00:00", "RUN_DTG": "2025-06-12 06:26:06", "BASIN": "EP", "STMNR": 3, "CAT_ID": null, "CAT_DESC": null, "MSGID": "WTPZ23 KNHC 111434", "VALIDTIME": "2025-06-08 18:00:00" }, "geometry": { "type": "Point", "coordinates": [ -110.699997, 13.0 ] } },
{ "type": "Feature", "properties": { "ID": 324736, "LAT": 13.5, "LON": -111.5, "VMAX": 40.0, "MSLP": 999.0, "RMAX": 40.0, "FSPD": 5.18095, "FDIR": 299.76718, "RENV": 200.0, "PENV": 1009.0, "VALIDT": 0, "DTG": "2025-06-09 00:00", "LATNOW": 16.2, "LONNOW": -113.9, "WINDNOW": 30.0, "DIRNOW": 3.0, "SPDNOW": 1.0, "TECH": "TRAK", "ADVNR": 13, "ATCFID": "EP032025", "NAME": "COSME", "FTECH": "OFCL", "FCST_DTG": "2025-06-11 12:00:00", "RUN_DTG": "2025-06-12 06:26:06", "BASIN": "EP", "STMNR": 3, "CAT_ID": null, "CAT_DESC": null, "MSGID": "WTPZ23 KNHC 111434", "VALIDTIME": "2025-06-09 00:00:00" }, "geometry": { "type": "Point", "coordinates": [ -111.5, 13.5 ] } },
{ "type": "Feature", "properties": { "ID": 324737, "LAT": 14.0, "LON": -112.4, "VMAX": 45.0, "MSLP": 999.0, "RMAX": 25.0, "FSPD": 3.63161, "FDIR": 304.5155, "RENV": 200.0, "PENV": 1010.0, "VALIDT": 0, "DTG": "2025-06-09 06:00", "LATNOW": 16.2, "LONNOW": -113.9, "WINDNOW": 30.0, "DIRNOW": 3.0, "SPDNOW": 1.0, "TECH": "TRAK", "ADVNR": 13, "ATCFID": "EP032025", "NAME": "COSME", "FTECH": "OFCL", "FCST_DTG": "2025-06-11 12:00:00", "RUN_DTG": "2025-06-12 06:26:06", "BASIN": "EP", "STMNR": 3, "CAT_ID": null, "CAT_DESC": null, "MSGID": "WTPZ23 KNHC 111434", "VALIDTIME": "2025-06-09 06:00:00" }, "geometry": { "type": "Point", "coordinates": [ -112.400002, 14.0 ] } },
{ "type": "Feature", "properties": { "ID": 324738, "LAT": 14.4, "LON": -113.0, "VMAX": 55.0, "MSLP": 994.0, "RMAX": 15.0, "FSPD": 4.33067, "FDIR": 306.4381, "RENV": 200.0, "PENV": 1010.0, "VALIDT": 0, "DTG": "2025-06-09 12:00", "LATNOW": 16.2, "LONNOW": -113.9, "WINDNOW": 30.0, "DIRNOW": 3.0, "SPDNOW": 1.0, "TECH": "TRAK", "ADVNR": 13, "ATCFID": "EP032025", "NAME": "COSME", "FTECH": "OFCL", "FCST_DTG": "2025-06-11 12:00:00", "RUN_DTG": "2025-06-12 06:26:06", "BASIN": "EP", "STMNR": 3, "CAT_ID": null, "CAT_DESC": null, "MSGID": "WTPZ23 KNHC 111434", "VALIDTIME": "2025-06-09 12:00:00" }, "geometry": { "type": "Point", "coordinates": [ -113.0, 14.4 ] } },
{ "type": "Feature", "properties": { "ID": 324739, "LAT": 14.9, "LON": -113.7, "VMAX": 60.0, "MSLP": 992.0, "RMAX": 15.0, "FSPD": 2.05361, "FDIR": 284.50757, "RENV": 150.0, "PENV": 1010.0, "VALIDT": 0, "DTG": "2025-06-09 18:00", "LATNOW": 16.2, "LONNOW": -113.9, "WINDNOW": 30.0, "DIRNOW": 3.0, "SPDNOW": 1.0, "TECH": "TRAK", "ADVNR": 13, "ATCFID": "EP032025", "NAME": "COSME", "FTECH": "OFCL", "FCST_DTG": "2025-06-11 12:00:00", "RUN_DTG": "2025-06-12 06:26:06", "BASIN": "EP", "STMNR": 3, "CAT_ID": null, "CAT_DESC": null, "MSGID": "WTPZ23 KNHC 111434", "VALIDTIME": "2025-06-09 18:00:00" }, "geometry": { "type": "Point", "coordinates": [ -113.699997, 14.9 ] } },
{ "type": "Feature", "properties": { "ID": 324740, "LAT": 15.0, "LON": -114.1, "VMAX": 60.0, "MSLP": 992.0, "RMAX": 15.0, "FSPD": 2.23735, "FDIR": 297.37866, "RENV": 150.0, "PENV": 1010.0, "VALIDT": 0, "DTG": "2025-06-10 00:00", "LATNOW": 16.2, "LONNOW": -113.9, "WINDNOW": 30.0, "DIRNOW": 3.0, "SPDNOW": 1.0, "TECH": "TRAK", "ADVNR": 13, "ATCFID": "EP032025", "NAME": "COSME", "FTECH": "OFCL", "FCST_DTG": "2025-06-11 12:00:00", "RUN_DTG": "2025-06-12 06:26:06", "BASIN": "EP", "STMNR": 3, "CAT_ID": null, "CAT_DESC": null, "MSGID": "WTPZ23 KNHC 111434", "VALIDTIME": "2025-06-10 00:00:00" }, "geometry": { "type": "Point", "coordinates": [ -114.099998, 15.0 ] } },
{ "type": "Feature", "properties": { "ID": 324741, "LAT": 15.2, "LON": -114.5, "VMAX": 60.0, "MSLP": 993.0, "RMAX": 15.0, "FSPD": 1.14229, "FDIR": 334.2533, "RENV": 140.0, "PENV": 1011.0, "VALIDT": 0, "DTG": "2025-06-10 06:00", "LATNOW": 16.2, "LONNOW": -113.9, "WINDNOW": 30.0, "DIRNOW": 3.0, "SPDNOW": 1.0, "TECH": "TRAK", "ADVNR": 13, "ATCFID": "EP032025", "NAME": "COSME", "FTECH": "OFCL", "FCST_DTG": "2025-06-11 12:00:00", "RUN_DTG": "2025-06-12 06:26:06", "BASIN": "EP", "STMNR": 3, "CAT_ID": null, "CAT_DESC": null, "MSGID": "WTPZ23 KNHC 111434", "VALIDTIME": "2025-06-10 06:00:00" }, "geometry": { "type": "Point", "coordinates": [ -114.5, 15.2 ] } },
{ "type": "Feature", "properties": { "ID": 324742, "LAT": 15.4, "LON": -114.6, "VMAX": 55.0, "MSLP": 996.0, "RMAX": 20.0, "FSPD": 2.91937, "FDIR": 301.9145, "RENV": 150.0, "PENV": 1011.0, "VALIDT": 0, "DTG": "2025-06-10 12:00", "LATNOW": 16.2, "LONNOW": -113.9, "WINDNOW": 30.0, "DIRNOW": 3.0, "SPDNOW": 1.0, "TECH": "TRAK", "ADVNR": 13, "ATCFID": "EP032025", "NAME": "COSME", "FTECH": "OFCL", "FCST_DTG": "2025-06-11 12:00:00", "RUN_DTG": "2025-06-12 06:26:06", "BASIN": "EP", "STMNR": 3, "CAT_ID": null, "CAT_DESC": null, "MSGID": "WTPZ23 KNHC 111434", "VALIDTIME": "2025-06-10 12:00:00" }, "geometry": { "type": "Point", "coordinates": [ -114.599998, 15.4 ] } },
{ "type": "Feature", "properties": { "ID": 324743, "LAT": 15.7, "LON": -115.1, "VMAX": 50.0, "MSLP": 999.0, "RMAX": 20.0, "FSPD": 0.714, "FDIR": 43.90344, "RENV": 150.0, "PENV": 1013.0, "VALIDT": 0, "DTG": "2025-06-10 18:00", "LATNOW": 16.2, "LONNOW": -113.9, "WINDNOW": 30.0, "DIRNOW": 3.0, "SPDNOW": 1.0, "TECH": "TRAK", "ADVNR": 13, "ATCFID": "EP032025", "NAME": "COSME", "FTECH": "OFCL", "FCST_DTG": "2025-06-11 12:00:00", "RUN_DTG": "2025-06-12 06:26:06", "BASIN": "EP", "STMNR": 3, "CAT_ID": null, "CAT_DESC": null, "MSGID": "WTPZ23 KNHC 111434", "VALIDTIME": "2025-06-10 18:00:00" }, "geometry": { "type": "Point", "coordinates": [ -115.099998, 15.7 ] } },
{ "type": "Feature", "properties": { "ID": 324744, "LAT": 15.8, "LON": -115.0, "VMAX": 40.0, "MSLP": 1005.0, "RMAX": 20.0, "FSPD": 1.80604, "FDIR": 55.27109, "RENV": 150.0, "PENV": 1013.0, "VALIDT": 0, "DTG": "2025-06-11 00:00", "LATNOW": 16.2, "LONNOW": -113.9, "WINDNOW": 30.0, "DIRNOW": 3.0, "SPDNOW": 1.0, "TECH": "TRAK", "ADVNR": 13, "ATCFID": "EP032025", "NAME": "COSME", "FTECH": "OFCL", "FCST_DTG": "2025-06-11 12:00:00", "RUN_DTG": "2025-06-12 06:26:06", "BASIN": "EP", "STMNR": 3, "CAT_ID": null, "CAT_DESC": null, "MSGID": "WTPZ23 KNHC 111434", "VALIDTIME": "2025-06-11 00:00:00" }, "geometry": { "type": "Point", "coordinates": [ -115.0, 15.8 ] } },
{ "type": "Feature", "properties": { "ID": 324745, "LAT": 16.0, "LON": -114.7, "VMAX": 40.0, "MSLP": 1006.0, "RMAX": 25.0, "FSPD": 4.08579, "FDIR": 75.41461, "RENV": 130.0, "PENV": 1013.0, "VALIDT": 0, "DTG": "2025-06-11 06:00", "LATNOW": 16.2, "LONNOW": -113.9, "WINDNOW": 30.0, "DIRNOW": 3.0, "SPDNOW": 1.0, "TECH": "TRAK", "ADVNR": 13, "ATCFID": "EP032025", "NAME": "COSME", "FTECH": "OFCL", "FCST_DTG": "2025-06-11 12:00:00", "RUN_DTG": "2025-06-12 06:26:06", "BASIN": "EP", "STMNR": 3, "CAT_ID": null, "CAT_DESC": null, "MSGID": "WTPZ23 KNHC 111434", "VALIDTIME": "2025-06-11 06:00:00" }, "geometry": { "type": "Point", "coordinates": [ -114.699997, 16.0 ] } },
{ "type": "Feature", "properties": { "ID": 324746, "LAT": 16.2, "LON": -113.9, "VMAX": 30.0, "MSLP": 1007.0, "RMAX": 25.0, "FSPD": 2.85227, "FDIR": 43.82587, "RENV": 130.0, "PENV": 1012.0, "VALIDT": 0, "DTG": "2025-06-11 12:00", "LATNOW": 16.2, "LONNOW": -113.9, "WINDNOW": 30.0, "DIRNOW": 3.0, "SPDNOW": 1.0, "TECH": "TRAK", "ADVNR": 13, "ATCFID": "EP032025", "NAME": "COSME", "FTECH": "OFCL", "FCST_DTG": "2025-06-11 12:00:00", "RUN_DTG": "2025-06-12 06:26:06", "BASIN": "EP", "STMNR": 3, "CAT_ID": null, "CAT_DESC": null, "MSGID": "WTPZ23 KNHC 111434", "VALIDTIME": "2025-06-11 12:00:00" }, "geometry": { "type": "Point", "coordinates": [ -113.900002, 16.200001 ] } },
{ "type": "Feature", "properties": { "ID": 324747, "LAT": 16.4, "LON": -113.7, "VMAX": 30.0, "MSLP": 1007.0, "RMAX": 25.0, "FSPD": 2.16011, "FDIR": 17.70667, "RENV": 250.0, "PENV": 1012.0, "VALIDT": 3, "DTG": "2025-06-11 15:00", "LATNOW": 16.2, "LONNOW": -113.9, "WINDNOW": 30.0, "DIRNOW": 3.0, "SPDNOW": 1.0, "TECH": "FCST", "ADVNR": 13, "ATCFID": "EP032025", "NAME": "COSME", "FTECH": "OFCL", "FCST_DTG": "2025-06-11 12:00:00", "RUN_DTG": "2025-06-12 06:26:06", "BASIN": "EP", "STMNR": 3, "CAT_ID": null, "CAT_DESC": null, "MSGID": "WTPZ23 KNHC 111434", "VALIDTIME": "2025-06-11 15:00:00" }, "geometry": { "type": "Point", "coordinates": [ -113.699997, 16.4 ] } },
{ "type": "Feature", "properties": { "ID": 324748, "LAT": 17.0, "LON": -113.5, "VMAX": 25.0, "MSLP": 1011.80975, "RMAX": 27.18644, "FSPD": 2.11552, "FDIR": 13.41751, "RENV": 250.0, "PENV": 1012.0, "VALIDT": 12, "DTG": "2025-06-12 00:00", "LATNOW": 16.2, "LONNOW": -113.9, "WINDNOW": 30.0, "DIRNOW": 3.0, "SPDNOW": 1.0, "TECH": "FCST", "ADVNR": 13, "ATCFID": "EP032025", "NAME": "COSME", "FTECH": "OFCL", "FCST_DTG": "2025-06-11 12:00:00", "RUN_DTG": "2025-06-12 06:26:06", "BASIN": "EP", "STMNR": 3, "CAT_ID": null, "CAT_DESC": null, "MSGID": "WTPZ23 KNHC 111434", "VALIDTIME": "2025-06-12 00:00:00" }, "geometry": { "type": "Point", "coordinates": [ -113.5, 17.0 ] } },
{ "type": "Feature", "properties": { "ID": 324749, "LAT": 17.8, "LON": -113.3, "VMAX": 20.0, "MSLP": 1012.95825, "RMAX": 27.18644, "FSPD": 2.11552, "FDIR": 13.41751, "RENV": 250.0, "PENV": 1012.0, "VALIDT": 24, "DTG": "2025-06-12 12:00", "LATNOW": 16.2, "LONNOW": -113.9, "WINDNOW": 30.0, "DIRNOW": 3.0, "SPDNOW": 1.0, "TECH": "FCST", "ADVNR": 13, "ATCFID": "EP032025", "NAME": "COSME", "FTECH": "OFCL", "FCST_DTG": "2025-06-11 12:00:00", "RUN_DTG": "2025-06-12 06:26:06", "BASIN": "EP", "STMNR": 3, "CAT_ID": null, "CAT_DESC": null, "MSGID": "WTPZ23 KNHC 111434", "VALIDTIME": "2025-06-12 12:00:00" }, "geometry": { "type": "Point", "coordinates": [ -113.300003, 17.799999 ] } },
{ "type": "Feature", "properties": { "ID": 324746, "LAT": 16.2, "LON": -113.9, "VMAX": 30.0, "MSLP": 1007.0, "RMAX": 25.0, "FSPD": 2.85227, "FDIR": 43.82587, "RENV": 130.0, "PENV": 1012.0, "VALIDT": 0, "DTG": "2025-06-11 12:00", "LATNOW": 16.2, "LONNOW": -113.9, "WINDNOW": 30.0, "DIRNOW": 3.0, "SPDNOW": 1.0, "TECH": "TRAK", "ADVNR": 13, "ATCFID": "EP032025", "NAME": "COSME", "FTECH": "OFCL", "FCST_DTG": "2025-06-11 12:00:00", "RUN_DTG": "2025-06-12 06:26:06", "BASIN": "EP", "STMNR": 3, "CAT_ID": null, "CAT_DESC": null, "MSGID": "WTPZ23 KNHC 111434", "VALIDTIME": "2025-06-11 12:00:00" }, "geometry": { "type": "LineString", "coordinates": [ [ -105.0, 10.0 ], [ -105.7, 10.1 ], [ -106.6, 10.5 ], [ -108.0, 10.1 ], [ -108.6, 10.1 ], [ -108.5, 11.2 ], [ -109.0, 11.5 ], [ -109.8, 11.8 ], [ -110.4, 12.3 ], [ -110.7, 13.0 ], [ -111.5, 13.5 ], [ -112.4, 14.0 ], [ -113.0, 14.4 ], [ -113.7, 14.9 ], [ -114.1, 15.0 ], [ -114.5, 15.2 ], [ -114.6, 15.4 ], [ -115.1, 15.7 ], [ -115.0, 15.8 ], [ -114.7, 16.0 ], [ -113.9, 16.2 ] ] } },
{ "type": "Feature", "properties": { "ID": 324749, "LAT": 17.8, "LON": -113.3, "VMAX": 20.0, "MSLP": 1012.95825, "RMAX": 27.18644, "FSPD": 2.11552, "FDIR": 13.41751, "RENV": 250.0, "PENV": 1012.0, "VALIDT": 24, "DTG": "2025-06-12 12:00", "LATNOW": 16.2, "LONNOW": -113.9, "WINDNOW": 30.0, "DIRNOW": 3.0, "SPDNOW": 1.0, "TECH": "FCST", "ADVNR": 13, "ATCFID": "EP032025", "NAME": "COSME", "FTECH": "OFCL", "FCST_DTG": "2025-06-11 12:00:00", "RUN_DTG": "2025-06-12 06:26:06", "BASIN": "EP", "STMNR": 3, "CAT_ID": null, "CAT_DESC": null, "MSGID": "WTPZ23 KNHC 111434", "VALIDTIME": "2025-06-12 12:00:00" }, "geometry": { "type": "LineString", "coordinates": [ [ -113.9, 16.2 ], [ -113.7, 16.4 ], [ -113.5, 17.0 ], [ -113.3, 17.8 ] ] } }
]
}
