{
"type": "FeatureCollection",
"crs": { "type": "name", "properties": { "name": "urn:ogc:def:crs:OGC:1.3:CRS84" } },
"features": [
{ "type": "Feature", "properties": { "ID": 58936, "LAT": 15.9, "LON": -129.2, "VMAX": 25.0, "MSLP": 1008.0, "RMAX": 70.0, "FSPD": 4.66365, "FDIR": 320.54877, "RENV": 130.0, "PENV": 1010.0, "VALIDT": 0, "DTG": "2026-08-11 18:00", "LATNOW": 15.8, "LONNOW": -135.4, "WINDNOW": 25.0, "DIRNOW": 5.0, "SPDNOW": 3.0, "TECH": "TRAK", "ADVNR": 12, "ATCFID": "EP082026", "NAME": "HERNAN", "FTECH": "OFCL", "FCST_DTG": "2026-08-15 18:00:00", "RUN_DTG": "2026-08-16 09:21:47", "BASIN": "EP", "STMNR": 8, "CAT_ID": null, "CAT_DESC": null, "MSGID": "WTPZ23 KNHC 152042", "VALIDTIME": "2026-08-11 18:00:00" }, "geometry": { "type": "Point", "coordinates": [ -129.199997, 15.9 ] } },
{ "type": "Feature", "properties": { "ID": 58937, "LAT": 16.6, "LON": -129.8, "VMAX": 25.0, "MSLP": 1008.0, "RMAX": 70.0, "FSPD": 2.96616, "FDIR": 330.13358, "RENV": 130.0, "PENV": 1010.0, "VALIDT": 0, "DTG": "2026-08-12 00:00", "LATNOW": 15.8, "LONNOW": -135.4, "WINDNOW": 25.0, "DIRNOW": 5.0, "SPDNOW": 3.0, "TECH": "TRAK", "ADVNR": 12, "ATCFID": "EP082026", "NAME": "HERNAN", "FTECH": "OFCL", "FCST_DTG": "2026-08-15 18:00:00", "RUN_DTG": "2026-08-16 09:21:47", "BASIN": "EP", "STMNR": 8, "CAT_ID": null, "CAT_DESC": null, "MSGID": "WTPZ23 KNHC 152042", "VALIDTIME": "2026-08-12 00:00:00" }, "geometry": { "type": "Point", "coordinates": [ -129.800003, 16.6 ] } },
{ "type": "Feature", "properties": { "ID": 58938, "LAT": 17.1, "LON": -130.1, "VMAX": 25.0, "MSLP": 1008.0, "RMAX": 70.0, "FSPD": 2.9011, "FDIR": 302.13937, "RENV": 130.0, "PENV": 1010.0, "VALIDT": 0, "DTG": "2026-08-12 06:00", "LATNOW": 15.8, "LONNOW": -135.4, "WINDNOW": 25.0, "DIRNOW": 5.0, "SPDNOW": 3.0, "TECH": "TRAK", "ADVNR": 12, "ATCFID": "EP082026", "NAME": "HERNAN", "FTECH": "OFCL", "FCST_DTG": "2026-08-15 18:00:00", "RUN_DTG": "2026-08-16 09:21:47", "BASIN": "EP", "STMNR": 8, "CAT_ID": null, "CAT_DESC": null, "MSGID": "WTPZ23 KNHC 152042", "VALIDTIME": "2026-08-12 06:00:00" }, "geometry": { "type": "Point", "coordinates": [ -130.100006, 17.1 ] } },
{ "type": "Feature", "properties": { "ID": 58939, "LAT": 17.4, "LON": -130.6, "VMAX": 25.0, "MSLP": 1008.0, "RMAX": 70.0, "FSPD": 2.21586, "FDIR": 297.66687, "RENV": 130.0, "PENV": 1009.0, "VALIDT": 0, "DTG": "2026-08-12 12:00", "LATNOW": 15.8, "LONNOW": -135.4, "WINDNOW": 25.0, "DIRNOW": 5.0, "SPDNOW": 3.0, "TECH": "TRAK", "ADVNR": 12, "ATCFID": "EP082026", "NAME": "HERNAN", "FTECH": "OFCL", "FCST_DTG": "2026-08-15 18:00:00", "RUN_DTG": "2026-08-16 09:21:47", "BASIN": "EP", "STMNR": 8, "CAT_ID": null, "CAT_DESC": null, "MSGID": "WTPZ23 KNHC 152042", "VALIDTIME": "2026-08-12 12:00:00" }, "geometry": { "type": "Point", "coordinates": [ -130.600006, 17.4 ] } },
{ "type": "Feature", "properties": { "ID": 58940, "LAT": 17.6, "LON": -131.0, "VMAX": 25.0, "MSLP": 1009.0, "RMAX": 70.0, "FSPD": 3.99881, "FDIR": 300.97052, "RENV": 130.0, "PENV": 1010.0, "VALIDT": 0, "DTG": "2026-08-12 18:00", "LATNOW": 15.8, "LONNOW": -135.4, "WINDNOW": 25.0, "DIRNOW": 5.0, "SPDNOW": 3.0, "TECH": "TRAK", "ADVNR": 12, "ATCFID": "EP082026", "NAME": "HERNAN", "FTECH": "OFCL", "FCST_DTG": "2026-08-15 18:00:00", "RUN_DTG": "2026-08-16 09:21:47", "BASIN": "EP", "STMNR": 8, "CAT_ID": null, "CAT_DESC": null, "MSGID": "WTPZ23 KNHC 152042", "VALIDTIME": "2026-08-12 18:00:00" }, "geometry": { "type": "Point", "coordinates": [ -131.0, 17.6 ] } },
{ "type": "Feature", "properties": { "ID": 58941, "LAT": 18.0, "LON": -131.7, "VMAX": 30.0, "MSLP": 1006.0, "RMAX": 50.0, "FSPD": 0.70988, "FDIR": 316.44348, "RENV": 130.0, "PENV": 1010.0, "VALIDT": 0, "DTG": "2026-08-13 00:00", "LATNOW": 15.8, "LONNOW": -135.4, "WINDNOW": 25.0, "DIRNOW": 5.0, "SPDNOW": 3.0, "TECH": "TRAK", "ADVNR": 12, "ATCFID": "EP082026", "NAME": "HERNAN", "FTECH": "OFCL", "FCST_DTG": "2026-08-15 18:00:00", "RUN_DTG": "2026-08-16 09:21:47", "BASIN": "EP", "STMNR": 8, "CAT_ID": null, "CAT_DESC": null, "MSGID": "WTPZ23 KNHC 152042", "VALIDTIME": "2026-08-13 00:00:00" }, "geometry": { "type": "Point", "coordinates": [ -131.699997, 18.0 ] } },
{ "type": "Feature", "properties": { "ID": 58942, "LAT": 18.1, "LON": -131.8, "VMAX": 35.0, "MSLP": 1006.0, "RMAX": 35.0, "FSPD": 0.48894, "FDIR": 269.99997, "RENV": 120.0, "PENV": 1011.0, "VALIDT": 0, "DTG": "2026-08-13 06:00", "LATNOW": 15.8, "LONNOW": -135.4, "WINDNOW": 25.0, "DIRNOW": 5.0, "SPDNOW": 3.0, "TECH": "TRAK", "ADVNR": 12, "ATCFID": "EP082026", "NAME": "HERNAN", "FTECH": "OFCL", "FCST_DTG": "2026-08-15 18:00:00", "RUN_DTG": "2026-08-16 09:21:47", "BASIN": "EP", "STMNR": 8, "CAT_ID": null, "CAT_DESC": null, "MSGID": "WTPZ23 KNHC 152042", "VALIDTIME": "2026-08-13 06:00:00" }, "geometry": { "type": "Point", "coordinates": [ -131.800003, 18.1 ] } },
{ "type": "Feature", "properties": { "ID": 58943, "LAT": 18.1, "LON": -131.9, "VMAX": 40.0, "MSLP": 1004.0, "RMAX": 40.0, "FSPD": 3.08667, "FDIR": 179.99997, "RENV": 80.0, "PENV": 1009.0, "VALIDT": 0, "DTG": "2026-08-13 12:00", "LATNOW": 15.8, "LONNOW": -135.4, "WINDNOW": 25.0, "DIRNOW": 5.0, "SPDNOW": 3.0, "TECH": "TRAK", "ADVNR": 12, "ATCFID": "EP082026", "NAME": "HERNAN", "FTECH": "OFCL", "FCST_DTG": "2026-08-15 18:00:00", "RUN_DTG": "2026-08-16 09:21:47", "BASIN": "EP", "STMNR": 8, "CAT_ID": null, "CAT_DESC": null, "MSGID": "WTPZ23 KNHC 152042", "VALIDTIME": "2026-08-13 12:00:00" }, "geometry": { "type": "Point", "coordinates": [ -131.899994, 18.1 ] } },
{ "type": "Feature", "properties": { "ID": 58944, "LAT": 17.5, "LON": -131.9, "VMAX": 40.0, "MSLP": 1003.0, "RMAX": 40.0, "FSPD": 2.05778, "FDIR": 179.99997, "RENV": 90.0, "PENV": 1009.0, "VALIDT": 0, "DTG": "2026-08-13 18:00", "LATNOW": 15.8, "LONNOW": -135.4, "WINDNOW": 25.0, "DIRNOW": 5.0, "SPDNOW": 3.0, "TECH": "TRAK", "ADVNR": 12, "ATCFID": "EP082026", "NAME": "HERNAN", "FTECH": "OFCL", "FCST_DTG": "2026-08-15 18:00:00", "RUN_DTG": "2026-08-16 09:21:47", "BASIN": "EP", "STMNR": 8, "CAT_ID": null, "CAT_DESC": null, "MSGID": "WTPZ23 KNHC 152042", "VALIDTIME": "2026-08-13 18:00:00" }, "geometry": { "type": "Point", "coordinates": [ -131.899994, 17.5 ] } },
{ "type": "Feature", "properties": { "ID": 58945, "LAT": 17.1, "LON": -131.9, "VMAX": 35.0, "MSLP": 1004.0, "RMAX": 30.0, "FSPD": 3.08667, "FDIR": 179.99997, "RENV": 75.0, "PENV": 1009.0, "VALIDT": 0, "DTG": "2026-08-14 00:00", "LATNOW": 15.8, "LONNOW": -135.4, "WINDNOW": 25.0, "DIRNOW": 5.0, "SPDNOW": 3.0, "TECH": "TRAK", "ADVNR": 12, "ATCFID": "EP082026", "NAME": "HERNAN", "FTECH": "OFCL", "FCST_DTG": "2026-08-15 18:00:00", "RUN_DTG": "2026-08-16 09:21:47", "BASIN": "EP", "STMNR": 8, "CAT_ID": null, "CAT_DESC": null, "MSGID": "WTPZ23 KNHC 152042", "VALIDTIME": "2026-08-14 00:00:00" }, "geometry": { "type": "Point", "coordinates": [ -131.899994, 17.1 ] } },
{ "type": "Feature", "properties": { "ID": 58946, "LAT": 16.5, "LON": -131.9, "VMAX": 35.0, "MSLP": 1004.0, "RMAX": 30.0, "FSPD": 4.65632, "FDIR": 186.09528, "RENV": 75.0, "PENV": 1009.0, "VALIDT": 0, "DTG": "2026-08-14 06:00", "LATNOW": 15.8, "LONNOW": -135.4, "WINDNOW": 25.0, "DIRNOW": 5.0, "SPDNOW": 3.0, "TECH": "TRAK", "ADVNR": 12, "ATCFID": "EP082026", "NAME": "HERNAN", "FTECH": "OFCL", "FCST_DTG": "2026-08-15 18:00:00", "RUN_DTG": "2026-08-16 09:21:47", "BASIN": "EP", "STMNR": 8, "CAT_ID": null, "CAT_DESC": null, "MSGID": "WTPZ23 KNHC 152042", "VALIDTIME": "2026-08-14 06:00:00" }, "geometry": { "type": "Point", "coordinates": [ -131.899994, 16.5 ] } },
{ "type": "Feature", "properties": { "ID": 58947, "LAT": 15.6, "LON": -132.0, "VMAX": 35.0, "MSLP": 1004.0, "RMAX": 30.0, "FSPD": 0.0, "FDIR": 90.0, "RENV": 120.0, "PENV": 1008.0, "VALIDT": 0, "DTG": "2026-08-14 12:00", "LATNOW": 15.8, "LONNOW": -135.4, "WINDNOW": 25.0, "DIRNOW": 5.0, "SPDNOW": 3.0, "TECH": "TRAK", "ADVNR": 12, "ATCFID": "EP082026", "NAME": "HERNAN", "FTECH": "OFCL", "FCST_DTG": "2026-08-15 18:00:00", "RUN_DTG": "2026-08-16 09:21:47", "BASIN": "EP", "STMNR": 8, "CAT_ID": null, "CAT_DESC": null, "MSGID": "WTPZ23 KNHC 152042", "VALIDTIME": "2026-08-14 12:00:00" }, "geometry": { "type": "Point", "coordinates": [ -132.0, 15.6 ] } },
{ "type": "Feature", "properties": { "ID": 58948, "LAT": 15.6, "LON": -132.0, "VMAX": 30.0, "MSLP": 1006.0, "RMAX": 25.0, "FSPD": 2.6194, "FDIR": 349.10895, "RENV": 130.0, "PENV": 1010.0, "VALIDT": 0, "DTG": "2026-08-14 18:00", "LATNOW": 15.8, "LONNOW": -135.4, "WINDNOW": 25.0, "DIRNOW": 5.0, "SPDNOW": 3.0, "TECH": "TRAK", "ADVNR": 12, "ATCFID": "EP082026", "NAME": "HERNAN", "FTECH": "OFCL", "FCST_DTG": "2026-08-15 18:00:00", "RUN_DTG": "2026-08-16 09:21:47", "BASIN": "EP", "STMNR": 8, "CAT_ID": null, "CAT_DESC": null, "MSGID": "WTPZ23 KNHC 152042", "VALIDTIME": "2026-08-14 18:00:00" }, "geometry": { "type": "Point", "coordinates": [ -132.0, 15.6 ] } },
{ "type": "Feature", "properties": { "ID": 58949, "LAT": 16.1, "LON": -132.1, "VMAX": 30.0, "MSLP": 1005.0, "RMAX": 25.0, "FSPD": 5.5307, "FDIR": 280.72125, "RENV": 150.0, "PENV": 1008.0, "VALIDT": 0, "DTG": "2026-08-15 00:00", "LATNOW": 15.8, "LONNOW": -135.4, "WINDNOW": 25.0, "DIRNOW": 5.0, "SPDNOW": 3.0, "TECH": "TRAK", "ADVNR": 12, "ATCFID": "EP082026", "NAME": "HERNAN", "FTECH": "OFCL", "FCST_DTG": "2026-08-15 18:00:00", "RUN_DTG": "2026-08-16 09:21:47", "BASIN": "EP", "STMNR": 8, "CAT_ID": null, "CAT_DESC": null, "MSGID": "WTPZ23 KNHC 152042", "VALIDTIME": "2026-08-15 00:00:00" }, "geometry": { "type": "Point", "coordinates": [ -132.100006, 16.1 ] } },
{ "type": "Feature", "properties": { "ID": 58950, "LAT": 16.3, "LON": -133.2, "VMAX": 30.0, "MSLP": 1006.0, "RMAX": 25.0, "FSPD": 6.01682, "FDIR": 260.15393, "RENV": 150.0, "PENV": 1008.0, "VALIDT": 0, "DTG": "2026-08-15 06:00", "LATNOW": 15.8, "LONNOW": -135.4, "WINDNOW": 25.0, "DIRNOW": 5.0, "SPDNOW": 3.0, "TECH": "TRAK", "ADVNR": 12, "ATCFID": "EP082026", "NAME": "HERNAN", "FTECH": "OFCL", "FCST_DTG": "2026-08-15 18:00:00", "RUN_DTG": "2026-08-16 09:21:47", "BASIN": "EP", "STMNR": 8, "CAT_ID": null, "CAT_DESC": null, "MSGID": "WTPZ23 KNHC 152042", "VALIDTIME": "2026-08-15 06:00:00" }, "geometry": { "type": "Point", "coordinates": [ -133.199997, 16.299999 ] } },
{ "type": "Feature", "properties": { "ID": 58951, "LAT": 16.1, "LON": -134.4, "VMAX": 30.0, "MSLP": 1006.0, "RMAX": 25.0, "FSPD": 5.18157, "FDIR": 252.67142, "RENV": 150.0, "PENV": 1008.0, "VALIDT": 0, "DTG": "2026-08-15 12:00", "LATNOW": 15.8, "LONNOW": -135.4, "WINDNOW": 25.0, "DIRNOW": 5.0, "SPDNOW": 3.0, "TECH": "TRAK", "ADVNR": 12, "ATCFID": "EP082026", "NAME": "HERNAN", "FTECH": "OFCL", "FCST_DTG": "2026-08-15 18:00:00", "RUN_DTG": "2026-08-16 09:21:47", "BASIN": "EP", "STMNR": 8, "CAT_ID": null, "CAT_DESC": null, "MSGID": "WTPZ23 KNHC 152042", "VALIDTIME": "2026-08-15 12:00:00" }, "geometry": { "type": "Point", "coordinates": [ -134.399994, 16.1 ] } },
{ "type": "Feature", "properties": { "ID": 58952, "LAT": 15.8, "LON": -135.4, "VMAX": 25.0, "MSLP": 1009.0, "RMAX": 25.0, "FSPD": 4.95008, "FDIR": 269.99997, "RENV": 150.0, "PENV": 1011.0, "VALIDT": 0, "DTG": "2026-08-15 18:00", "LATNOW": 15.8, "LONNOW": -135.4, "WINDNOW": 25.0, "DIRNOW": 5.0, "SPDNOW": 3.0, "TECH": "TRAK", "ADVNR": 12, "ATCFID": "EP082026", "NAME": "HERNAN", "FTECH": "OFCL", "FCST_DTG": "2026-08-15 18:00:00", "RUN_DTG": "2026-08-16 09:21:47", "BASIN": "EP", "STMNR": 8, "CAT_ID": null, "CAT_DESC": null, "MSGID": "WTPZ23 KNHC 152042", "VALIDTIME": "2026-08-15 18:00:00" }, "geometry": { "type": "Point", "coordinates": [ -135.399994, 15.8 ] } },
{ "type": "Feature", "properties": { "ID": 58953, "LAT": 15.8, "LON": -135.9, "VMAX": 25.0, "MSLP": 1009.0, "RMAX": 25.0, "FSPD": 5.28993, "FDIR": 273.71722, "RENV": 250.0, "PENV": 1012.0, "VALIDT": 3, "DTG": "2026-08-15 21:00", "LATNOW": 15.8, "LONNOW": -135.4, "WINDNOW": 25.0, "DIRNOW": 5.0, "SPDNOW": 3.0, "TECH": "FCST", "ADVNR": 12, "ATCFID": "EP082026", "NAME": "HERNAN", "FTECH": "OFCL", "FCST_DTG": "2026-08-15 18:00:00", "RUN_DTG": "2026-08-16 09:21:47", "BASIN": "EP", "STMNR": 8, "CAT_ID": null, "CAT_DESC": null, "MSGID": "WTPZ23 KNHC 152042", "VALIDTIME": "2026-08-15 21:00:00" }, "geometry": { "type": "Point", "coordinates": [ -135.899994, 15.8 ] } },
{ "type": "Feature", "properties": { "ID": 58954, "LAT": 15.9, "LON": -137.5, "VMAX": 25.0, "MSLP": 1011.80975, "RMAX": 26.22256, "FSPD": 5.71016, "FDIR": 275.16895, "RENV": 250.0, "PENV": 1012.0, "VALIDT": 12, "DTG": "2026-08-16 06:00", "LATNOW": 15.8, "LONNOW": -135.4, "WINDNOW": 25.0, "DIRNOW": 5.0, "SPDNOW": 3.0, "TECH": "FCST", "ADVNR": 12, "ATCFID": "EP082026", "NAME": "HERNAN", "FTECH": "OFCL", "FCST_DTG": "2026-08-15 18:00:00", "RUN_DTG": "2026-08-16 09:21:47", "BASIN": "EP", "STMNR": 8, "CAT_ID": null, "CAT_DESC": null, "MSGID": "WTPZ23 KNHC 152042", "VALIDTIME": "2026-08-16 06:00:00" }, "geometry": { "type": "Point", "coordinates": [ -137.5, 15.9 ] } },
{ "type": "Feature", "properties": { "ID": 58955, "LAT": 16.1, "LON": -139.8, "VMAX": 20.0, "MSLP": 1012.95825, "RMAX": 26.22256, "FSPD": 4.75499, "FDIR": 279.33954, "RENV": 250.0, "PENV": 1012.0, "VALIDT": 24, "DTG": "2026-08-16 18:00", "LATNOW": 15.8, "LONNOW": -135.4, "WINDNOW": 25.0, "DIRNOW": 5.0, "SPDNOW": 3.0, "TECH": "FCST", "ADVNR": 12, "ATCFID": "EP082026", "NAME": "HERNAN", "FTECH": "OFCL", "FCST_DTG": "2026-08-15 18:00:00", "RUN_DTG": "2026-08-16 09:21:47", "BASIN": "EP", "STMNR": 8, "CAT_ID": null, "CAT_DESC": null, "MSGID": "WTPZ23 KNHC 152042", "VALIDTIME": "2026-08-16 18:00:00" }, "geometry": { "type": "Point", "coordinates": [ -139.800003, 16.1 ] } },
{ "type": "Feature", "properties": { "ID": 58956, "LAT": 16.4, "LON": -141.7, "VMAX": 20.0, "MSLP": 1012.95825, "RMAX": 26.22256, "FSPD": 4.94057, "FDIR": 272.98434, "RENV": 250.0, "PENV": 1012.0, "VALIDT": 36, "DTG": "2026-08-17 06:00", "LATNOW": 15.8, "LONNOW": -135.4, "WINDNOW": 25.0, "DIRNOW": 5.0, "SPDNOW": 3.0, "TECH": "FCST", "ADVNR": 12, "ATCFID": "EP082026", "NAME": "HERNAN", "FTECH": "OFCL", "FCST_DTG": "2026-08-15 18:00:00", "RUN_DTG": "2026-08-16 09:21:47", "BASIN": "EP", "STMNR": 8, "CAT_ID": null, "CAT_DESC": null, "MSGID": "WTPZ23 KNHC 152042", "VALIDTIME": "2026-08-17 06:00:00" }, "geometry": { "type": "Point", "coordinates": [ -141.699997, 16.4 ] } },
{ "type": "Feature", "properties": { "ID": 58957, "LAT": 16.5, "LON": -143.7, "VMAX": 20.0, "MSLP": 1012.95825, "RMAX": 26.22256, "FSPD": 4.94057, "FDIR": 272.98434, "RENV": 250.0, "PENV": 1012.0, "VALIDT": 48, "DTG": "2026-08-17 18:00", "LATNOW": 15.8, "LONNOW": -135.4, "WINDNOW": 25.0, "DIRNOW": 5.0, "SPDNOW": 3.0, "TECH": "FCST", "ADVNR": 12, "ATCFID": "EP082026", "NAME": "HERNAN", "FTECH": "OFCL", "FCST_DTG": "2026-08-15 18:00:00", "RUN_DTG": "2026-08-16 09:21:47", "BASIN": "EP", "STMNR": 8, "CAT_ID": null, "CAT_DESC": null, "MSGID": "WTPZ23 KNHC 152042", "VALIDTIME": "2026-08-17 18:00:00" }, "geometry": { "type": "Point", "coordinates": [ -143.699997, 16.5 ] } },
{ "type": "Feature", "properties": { "ID": 58952, "LAT": 15.8, "LON": -135.4, "VMAX": 25.0, "MSLP": 1009.0, "RMAX": 25.0, "FSPD": 4.95008, "FDIR": 269.99997, "RENV": 150.0, "PENV": 1011.0, "VALIDT": 0, "DTG": "2026-08-15 18:00", "LATNOW": 15.8, "LONNOW": -135.4, "WINDNOW": 25.0, "DIRNOW": 5.0, "SPDNOW": 3.0, "TECH": "TRAK", "ADVNR": 12, "ATCFID": "EP082026", "NAME": "HERNAN", "FTECH": "OFCL", "FCST_DTG": "2026-08-15 18:00:00", "RUN_DTG": "2026-08-16 09:21:47", "BASIN": "EP", "STMNR": 8, "CAT_ID": null, "CAT_DESC": null, "MSGID": "WTPZ23 KNHC 152042", "VALIDTIME": "2026-08-15 18:00:00" }, "geometry": { "type": "LineString", "coordinates": [ [ -129.2, 15.9 ], [ -129.8, 16.6 ], [ -130.1, 17.1 ], [ -130.6, 17.4 ], [ -131.0, 17.6 ], [ -131.7, 18.0 ], [ -131.8, 18.1 ], [ -131.9, 18.1 ], [ -131.9, 17.5 ], [ -131.9, 17.1 ], [ -131.9, 16.5 ], [ -132.0, 15.6 ], [ -132.0, 15.6 ], [ -132.1, 16.1 ], [ -133.2, 16.3 ], [ -134.4, 16.1 ], [ -135.4, 15.8 ] ] } },
{ "type": "Feature", "properties": { "ID": 58957, "LAT": 16.5, "LON": -143.7, "VMAX": 20.0, "MSLP": 1012.95825, "RMAX": 26.22256, "FSPD": 4.94057, "FDIR": 272.98434, "RENV": 250.0, "PENV": 1012.0, "VALIDT": 48, "DTG": "2026-08-17 18:00", "LATNOW": 15.8, "LONNOW": -135.4, "WINDNOW": 25.0, "DIRNOW": 5.0, "SPDNOW": 3.0, "TECH": "FCST", "ADVNR": 12, "ATCFID": "EP082026", "NAME": "HERNAN", "FTECH": "OFCL", "FCST_DTG": "2026-08-15 18:00:00", "RUN_DTG": "2026-08-16 09:21:47", "BASIN": "EP", "STMNR": 8, "CAT_ID": null, "CAT_DESC": null, "MSGID": "WTPZ23 KNHC 152042", "VALIDTIME": "2026-08-17 18:00:00" }, "geometry": { "type": "LineString", "coordinates": [ [ -135.4, 15.8 ], [ -135.9, 15.8 ], [ -137.5, 15.9 ], [ -139.8, 16.1 ], [ -141.7, 16.4 ], [ -143.7, 16.5 ] ] } }
]
}
