{
"type": "FeatureCollection",
"crs": { "type": "name", "properties": { "name": "urn:ogc:def:crs:OGC:1.3:CRS84" } },
"features": [
{ "type": "Feature", "properties": { "ID": 70332, "LAT": 10.3, "LON": -108.0, "VMAX": 15.0, "MSLP": 1009.0, "RMAX": 100.0, "FSPD": 6.59906, "FDIR": 274.47113, "RENV": 150.0, "PENV": 1011.0, "VALIDT": 0, "DTG": "2025-10-23 06:00", "LATNOW": 15.3, "LONNOW": -125.6, "WINDNOW": 30.0, "DIRNOW": 5.0, "SPDNOW": 3.0, "TECH": "TRAK", "ADVNR": 19, "ATCFID": "EP182025", "NAME": "SONIA", "FTECH": "OFCL", "FCST_DTG": "2025-10-29 06:00:00", "RUN_DTG": "2025-10-29 23:10:00", "BASIN": "EP", "STMNR": 18, "CAT_ID": null, "CAT_DESC": null, "MSGID": "WTPZ23 KNHC 290831", "VALIDTIME": "2025-10-23 06:00:00" }, "geometry": { "type": "Point", "coordinates": [ -108.0, 10.3 ] } },
{ "type": "Feature", "properties": { "ID": 70333, "LAT": 10.4, "LON": -109.3, "VMAX": 15.0, "MSLP": 1009.0, "RMAX": 100.0, "FSPD": 14.50624, "FDIR": 321.27893, "RENV": 150.0, "PENV": 1011.0, "VALIDT": 0, "DTG": "2025-10-23 12:00", "LATNOW": 15.3, "LONNOW": -125.6, "WINDNOW": 30.0, "DIRNOW": 5.0, "SPDNOW": 3.0, "TECH": "TRAK", "ADVNR": 19, "ATCFID": "EP182025", "NAME": "SONIA", "FTECH": "OFCL", "FCST_DTG": "2025-10-29 06:00:00", "RUN_DTG": "2025-10-29 23:10:00", "BASIN": "EP", "STMNR": 18, "CAT_ID": null, "CAT_DESC": null, "MSGID": "WTPZ23 KNHC 290831", "VALIDTIME": "2025-10-23 12:00:00" }, "geometry": { "type": "Point", "coordinates": [ -109.300003, 10.4 ] } },
{ "type": "Feature", "properties": { "ID": 70334, "LAT": 12.6, "LON": -111.1, "VMAX": 25.0, "MSLP": 1009.0, "RMAX": 100.0, "FSPD": 4.77228, "FDIR": 288.8683, "RENV": 150.0, "PENV": 1011.0, "VALIDT": 0, "DTG": "2025-10-23 18:00", "LATNOW": 15.3, "LONNOW": -125.6, "WINDNOW": 30.0, "DIRNOW": 5.0, "SPDNOW": 3.0, "TECH": "TRAK", "ADVNR": 19, "ATCFID": "EP182025", "NAME": "SONIA", "FTECH": "OFCL", "FCST_DTG": "2025-10-29 06:00:00", "RUN_DTG": "2025-10-29 23:10:00", "BASIN": "EP", "STMNR": 18, "CAT_ID": null, "CAT_DESC": null, "MSGID": "WTPZ23 KNHC 290831", "VALIDTIME": "2025-10-23 18:00:00" }, "geometry": { "type": "Point", "coordinates": [ -111.099998, 12.6 ] } },
{ "type": "Feature", "properties": { "ID": 70335, "LAT": 12.9, "LON": -112.0, "VMAX": 25.0, "MSLP": 1008.0, "RMAX": 100.0, "FSPD": 5.5389, "FDIR": 275.32922, "RENV": 150.0, "PENV": 1010.0, "VALIDT": 0, "DTG": "2025-10-24 00:00", "LATNOW": 15.3, "LONNOW": -125.6, "WINDNOW": 30.0, "DIRNOW": 5.0, "SPDNOW": 3.0, "TECH": "TRAK", "ADVNR": 19, "ATCFID": "EP182025", "NAME": "SONIA", "FTECH": "OFCL", "FCST_DTG": "2025-10-29 06:00:00", "RUN_DTG": "2025-10-29 23:10:00", "BASIN": "EP", "STMNR": 18, "CAT_ID": null, "CAT_DESC": null, "MSGID": "WTPZ23 KNHC 290831", "VALIDTIME": "2025-10-24 00:00:00" }, "geometry": { "type": "Point", "coordinates": [ -112.0, 12.9 ] } },
{ "type": "Feature", "properties": { "ID": 70336, "LAT": 13.0, "LON": -113.1, "VMAX": 30.0, "MSLP": 1007.0, "RMAX": 100.0, "FSPD": 6.1001, "FDIR": 279.71033, "RENV": 150.0, "PENV": 1010.0, "VALIDT": 0, "DTG": "2025-10-24 06:00", "LATNOW": 15.3, "LONNOW": -125.6, "WINDNOW": 30.0, "DIRNOW": 5.0, "SPDNOW": 3.0, "TECH": "TRAK", "ADVNR": 19, "ATCFID": "EP182025", "NAME": "SONIA", "FTECH": "OFCL", "FCST_DTG": "2025-10-29 06:00:00", "RUN_DTG": "2025-10-29 23:10:00", "BASIN": "EP", "STMNR": 18, "CAT_ID": null, "CAT_DESC": null, "MSGID": "WTPZ23 KNHC 290831", "VALIDTIME": "2025-10-24 06:00:00" }, "geometry": { "type": "Point", "coordinates": [ -113.099998, 13.0 ] } },
{ "type": "Feature", "properties": { "ID": 70337, "LAT": 13.2, "LON": -114.3, "VMAX": 30.0, "MSLP": 1007.0, "RMAX": 100.0, "FSPD": 6.51106, "FDIR": 269.99997, "RENV": 150.0, "PENV": 1010.0, "VALIDT": 0, "DTG": "2025-10-24 12:00", "LATNOW": 15.3, "LONNOW": -125.6, "WINDNOW": 30.0, "DIRNOW": 5.0, "SPDNOW": 3.0, "TECH": "TRAK", "ADVNR": 19, "ATCFID": "EP182025", "NAME": "SONIA", "FTECH": "OFCL", "FCST_DTG": "2025-10-29 06:00:00", "RUN_DTG": "2025-10-29 23:10:00", "BASIN": "EP", "STMNR": 18, "CAT_ID": null, "CAT_DESC": null, "MSGID": "WTPZ23 KNHC 290831", "VALIDTIME": "2025-10-24 12:00:00" }, "geometry": { "type": "Point", "coordinates": [ -114.300003, 13.2 ] } },
{ "type": "Feature", "properties": { "ID": 70338, "LAT": 13.2, "LON": -115.6, "VMAX": 30.0, "MSLP": 1007.0, "RMAX": 100.0, "FSPD": 3.50599, "FDIR": 269.99997, "RENV": 150.0, "PENV": 1010.0, "VALIDT": 0, "DTG": "2025-10-24 18:00", "LATNOW": 15.3, "LONNOW": -125.6, "WINDNOW": 30.0, "DIRNOW": 5.0, "SPDNOW": 3.0, "TECH": "TRAK", "ADVNR": 19, "ATCFID": "EP182025", "NAME": "SONIA", "FTECH": "OFCL", "FCST_DTG": "2025-10-29 06:00:00", "RUN_DTG": "2025-10-29 23:10:00", "BASIN": "EP", "STMNR": 18, "CAT_ID": null, "CAT_DESC": null, "MSGID": "WTPZ23 KNHC 290831", "VALIDTIME": "2025-10-24 18:00:00" }, "geometry": { "type": "Point", "coordinates": [ -115.599998, 13.2 ] } },
{ "type": "Feature", "properties": { "ID": 70339, "LAT": 13.2, "LON": -116.3, "VMAX": 30.0, "MSLP": 1007.0, "RMAX": 100.0, "FSPD": 4.50764, "FDIR": 269.99997, "RENV": 150.0, "PENV": 1010.0, "VALIDT": 0, "DTG": "2025-10-25 00:00", "LATNOW": 15.3, "LONNOW": -125.6, "WINDNOW": 30.0, "DIRNOW": 5.0, "SPDNOW": 3.0, "TECH": "TRAK", "ADVNR": 19, "ATCFID": "EP182025", "NAME": "SONIA", "FTECH": "OFCL", "FCST_DTG": "2025-10-29 06:00:00", "RUN_DTG": "2025-10-29 23:10:00", "BASIN": "EP", "STMNR": 18, "CAT_ID": null, "CAT_DESC": null, "MSGID": "WTPZ23 KNHC 290831", "VALIDTIME": "2025-10-25 00:00:00" }, "geometry": { "type": "Point", "coordinates": [ -116.300003, 13.2 ] } },
{ "type": "Feature", "properties": { "ID": 70340, "LAT": 13.2, "LON": -117.2, "VMAX": 35.0, "MSLP": 1006.0, "RMAX": 50.0, "FSPD": 3.17523, "FDIR": 288.90717, "RENV": 150.0, "PENV": 1011.0, "VALIDT": 0, "DTG": "2025-10-25 06:00", "LATNOW": 15.3, "LONNOW": -125.6, "WINDNOW": 30.0, "DIRNOW": 5.0, "SPDNOW": 3.0, "TECH": "TRAK", "ADVNR": 19, "ATCFID": "EP182025", "NAME": "SONIA", "FTECH": "OFCL", "FCST_DTG": "2025-10-29 06:00:00", "RUN_DTG": "2025-10-29 23:10:00", "BASIN": "EP", "STMNR": 18, "CAT_ID": null, "CAT_DESC": null, "MSGID": "WTPZ23 KNHC 290831", "VALIDTIME": "2025-10-25 06:00:00" }, "geometry": { "type": "Point", "coordinates": [ -117.199997, 13.2 ] } },
{ "type": "Feature", "properties": { "ID": 70341, "LAT": 13.4, "LON": -117.8, "VMAX": 45.0, "MSLP": 1001.0, "RMAX": 40.0, "FSPD": 4.03558, "FDIR": 277.32385, "RENV": 150.0, "PENV": 1010.0, "VALIDT": 0, "DTG": "2025-10-25 12:00", "LATNOW": 15.3, "LONNOW": -125.6, "WINDNOW": 30.0, "DIRNOW": 5.0, "SPDNOW": 3.0, "TECH": "TRAK", "ADVNR": 19, "ATCFID": "EP182025", "NAME": "SONIA", "FTECH": "OFCL", "FCST_DTG": "2025-10-29 06:00:00", "RUN_DTG": "2025-10-29 23:10:00", "BASIN": "EP", "STMNR": 18, "CAT_ID": null, "CAT_DESC": null, "MSGID": "WTPZ23 KNHC 290831", "VALIDTIME": "2025-10-25 12:00:00" }, "geometry": { "type": "Point", "coordinates": [ -117.800003, 13.4 ] } },
{ "type": "Feature", "properties": { "ID": 70342, "LAT": 13.5, "LON": -118.6, "VMAX": 45.0, "MSLP": 1001.0, "RMAX": 40.0, "FSPD": 2.50115, "FDIR": 269.99997, "RENV": 150.0, "PENV": 1011.0, "VALIDT": 0, "DTG": "2025-10-25 18:00", "LATNOW": 15.3, "LONNOW": -125.6, "WINDNOW": 30.0, "DIRNOW": 5.0, "SPDNOW": 3.0, "TECH": "TRAK", "ADVNR": 19, "ATCFID": "EP182025", "NAME": "SONIA", "FTECH": "OFCL", "FCST_DTG": "2025-10-29 06:00:00", "RUN_DTG": "2025-10-29 23:10:00", "BASIN": "EP", "STMNR": 18, "CAT_ID": null, "CAT_DESC": null, "MSGID": "WTPZ23 KNHC 290831", "VALIDTIME": "2025-10-25 18:00:00" }, "geometry": { "type": "Point", "coordinates": [ -118.599998, 13.5 ] } },
{ "type": "Feature", "properties": { "ID": 70343, "LAT": 13.5, "LON": -119.1, "VMAX": 45.0, "MSLP": 1001.0, "RMAX": 40.0, "FSPD": 1.58673, "FDIR": 251.08179, "RENV": 150.0, "PENV": 1011.0, "VALIDT": 0, "DTG": "2025-10-26 00:00", "LATNOW": 15.3, "LONNOW": -125.6, "WINDNOW": 30.0, "DIRNOW": 5.0, "SPDNOW": 3.0, "TECH": "TRAK", "ADVNR": 19, "ATCFID": "EP182025", "NAME": "SONIA", "FTECH": "OFCL", "FCST_DTG": "2025-10-29 06:00:00", "RUN_DTG": "2025-10-29 23:10:00", "BASIN": "EP", "STMNR": 18, "CAT_ID": null, "CAT_DESC": null, "MSGID": "WTPZ23 KNHC 290831", "VALIDTIME": "2025-10-26 00:00:00" }, "geometry": { "type": "Point", "coordinates": [ -119.099998, 13.5 ] } },
{ "type": "Feature", "properties": { "ID": 70344, "LAT": 13.4, "LON": -119.4, "VMAX": 45.0, "MSLP": 1002.0, "RMAX": 20.0, "FSPD": 2.24996, "FDIR": 297.21255, "RENV": 150.0, "PENV": 1011.0, "VALIDT": 0, "DTG": "2025-10-26 06:00", "LATNOW": 15.3, "LONNOW": -125.6, "WINDNOW": 30.0, "DIRNOW": 5.0, "SPDNOW": 3.0, "TECH": "TRAK", "ADVNR": 19, "ATCFID": "EP182025", "NAME": "SONIA", "FTECH": "OFCL", "FCST_DTG": "2025-10-29 06:00:00", "RUN_DTG": "2025-10-29 23:10:00", "BASIN": "EP", "STMNR": 18, "CAT_ID": null, "CAT_DESC": null, "MSGID": "WTPZ23 KNHC 290831", "VALIDTIME": "2025-10-26 06:00:00" }, "geometry": { "type": "Point", "coordinates": [ -119.400002, 13.4 ] } },
{ "type": "Feature", "properties": { "ID": 70345, "LAT": 13.6, "LON": -119.8, "VMAX": 45.0, "MSLP": 1002.0, "RMAX": 20.0, "FSPD": 1.12443, "FDIR": 62.77335, "RENV": 160.0, "PENV": 1010.0, "VALIDT": 0, "DTG": "2025-10-26 12:00", "LATNOW": 15.3, "LONNOW": -125.6, "WINDNOW": 30.0, "DIRNOW": 5.0, "SPDNOW": 3.0, "TECH": "TRAK", "ADVNR": 19, "ATCFID": "EP182025", "NAME": "SONIA", "FTECH": "OFCL", "FCST_DTG": "2025-10-29 06:00:00", "RUN_DTG": "2025-10-29 23:10:00", "BASIN": "EP", "STMNR": 18, "CAT_ID": null, "CAT_DESC": null, "MSGID": "WTPZ23 KNHC 290831", "VALIDTIME": "2025-10-26 12:00:00" }, "geometry": { "type": "Point", "coordinates": [ -119.800003, 13.6 ] } },
{ "type": "Feature", "properties": { "ID": 70346, "LAT": 13.7, "LON": -119.6, "VMAX": 40.0, "MSLP": 1004.0, "RMAX": 25.0, "FSPD": 1.62215, "FDIR": 342.0665, "RENV": 160.0, "PENV": 1010.0, "VALIDT": 0, "DTG": "2025-10-26 18:00", "LATNOW": 15.3, "LONNOW": -125.6, "WINDNOW": 30.0, "DIRNOW": 5.0, "SPDNOW": 3.0, "TECH": "TRAK", "ADVNR": 19, "ATCFID": "EP182025", "NAME": "SONIA", "FTECH": "OFCL", "FCST_DTG": "2025-10-29 06:00:00", "RUN_DTG": "2025-10-29 23:10:00", "BASIN": "EP", "STMNR": 18, "CAT_ID": null, "CAT_DESC": null, "MSGID": "WTPZ23 KNHC 290831", "VALIDTIME": "2025-10-26 18:00:00" }, "geometry": { "type": "Point", "coordinates": [ -119.599998, 13.7 ] } },
{ "type": "Feature", "properties": { "ID": 70347, "LAT": 14.0, "LON": -119.7, "VMAX": 40.0, "MSLP": 1004.0, "RMAX": 25.0, "FSPD": 3.03823, "FDIR": 279.74854, "RENV": 160.0, "PENV": 1010.0, "VALIDT": 0, "DTG": "2025-10-27 00:00", "LATNOW": 15.3, "LONNOW": -125.6, "WINDNOW": 30.0, "DIRNOW": 5.0, "SPDNOW": 3.0, "TECH": "TRAK", "ADVNR": 19, "ATCFID": "EP182025", "NAME": "SONIA", "FTECH": "OFCL", "FCST_DTG": "2025-10-29 06:00:00", "RUN_DTG": "2025-10-29 23:10:00", "BASIN": "EP", "STMNR": 18, "CAT_ID": null, "CAT_DESC": null, "MSGID": "WTPZ23 KNHC 290831", "VALIDTIME": "2025-10-27 00:00:00" }, "geometry": { "type": "Point", "coordinates": [ -119.699997, 14.0 ] } },
{ "type": "Feature", "properties": { "ID": 70348, "LAT": 14.1, "LON": -120.3, "VMAX": 40.0, "MSLP": 1004.0, "RMAX": 25.0, "FSPD": 2.93491, "FDIR": 238.2742, "RENV": 160.0, "PENV": 1010.0, "VALIDT": 0, "DTG": "2025-10-27 06:00", "LATNOW": 15.3, "LONNOW": -125.6, "WINDNOW": 30.0, "DIRNOW": 5.0, "SPDNOW": 3.0, "TECH": "TRAK", "ADVNR": 19, "ATCFID": "EP182025", "NAME": "SONIA", "FTECH": "OFCL", "FCST_DTG": "2025-10-29 06:00:00", "RUN_DTG": "2025-10-29 23:10:00", "BASIN": "EP", "STMNR": 18, "CAT_ID": null, "CAT_DESC": null, "MSGID": "WTPZ23 KNHC 290831", "VALIDTIME": "2025-10-27 06:00:00" }, "geometry": { "type": "Point", "coordinates": [ -120.300003, 14.1 ] } },
{ "type": "Feature", "properties": { "ID": 70349, "LAT": 13.8, "LON": -120.8, "VMAX": 40.0, "MSLP": 1004.0, "RMAX": 30.0, "FSPD": 2.70058, "FDIR": 292.3949, "RENV": 160.0, "PENV": 1010.0, "VALIDT": 0, "DTG": "2025-10-27 12:00", "LATNOW": 15.3, "LONNOW": -125.6, "WINDNOW": 30.0, "DIRNOW": 5.0, "SPDNOW": 3.0, "TECH": "TRAK", "ADVNR": 19, "ATCFID": "EP182025", "NAME": "SONIA", "FTECH": "OFCL", "FCST_DTG": "2025-10-29 06:00:00", "RUN_DTG": "2025-10-29 23:10:00", "BASIN": "EP", "STMNR": 18, "CAT_ID": null, "CAT_DESC": null, "MSGID": "WTPZ23 KNHC 290831", "VALIDTIME": "2025-10-27 12:00:00" }, "geometry": { "type": "Point", "coordinates": [ -120.800003, 13.8 ] } },
{ "type": "Feature", "properties": { "ID": 70350, "LAT": 14.0, "LON": -121.3, "VMAX": 35.0, "MSLP": 1004.0, "RMAX": 30.0, "FSPD": 3.63161, "FDIR": 304.5155, "RENV": 160.0, "PENV": 1010.0, "VALIDT": 0, "DTG": "2025-10-27 18:00", "LATNOW": 15.3, "LONNOW": -125.6, "WINDNOW": 30.0, "DIRNOW": 5.0, "SPDNOW": 3.0, "TECH": "TRAK", "ADVNR": 19, "ATCFID": "EP182025", "NAME": "SONIA", "FTECH": "OFCL", "FCST_DTG": "2025-10-29 06:00:00", "RUN_DTG": "2025-10-29 23:10:00", "BASIN": "EP", "STMNR": 18, "CAT_ID": null, "CAT_DESC": null, "MSGID": "WTPZ23 KNHC 290831", "VALIDTIME": "2025-10-27 18:00:00" }, "geometry": { "type": "Point", "coordinates": [ -121.300003, 14.0 ] } },
{ "type": "Feature", "properties": { "ID": 70351, "LAT": 14.4, "LON": -121.9, "VMAX": 35.0, "MSLP": 1004.0, "RMAX": 30.0, "FSPD": 2.92927, "FDIR": 301.79395, "RENV": 160.0, "PENV": 1010.0, "VALIDT": 0, "DTG": "2025-10-28 00:00", "LATNOW": 15.3, "LONNOW": -125.6, "WINDNOW": 30.0, "DIRNOW": 5.0, "SPDNOW": 3.0, "TECH": "TRAK", "ADVNR": 19, "ATCFID": "EP182025", "NAME": "SONIA", "FTECH": "OFCL", "FCST_DTG": "2025-10-29 06:00:00", "RUN_DTG": "2025-10-29 23:10:00", "BASIN": "EP", "STMNR": 18, "CAT_ID": null, "CAT_DESC": null, "MSGID": "WTPZ23 KNHC 290831", "VALIDTIME": "2025-10-28 00:00:00" }, "geometry": { "type": "Point", "coordinates": [ -121.900002, 14.4 ] } },
{ "type": "Feature", "properties": { "ID": 70352, "LAT": 14.7, "LON": -122.4, "VMAX": 40.0, "MSLP": 1003.0, "RMAX": 30.0, "FSPD": 3.80762, "FDIR": 293.91162, "RENV": 150.0, "PENV": 1011.0, "VALIDT": 0, "DTG": "2025-10-28 06:00", "LATNOW": 15.3, "LONNOW": -125.6, "WINDNOW": 30.0, "DIRNOW": 5.0, "SPDNOW": 3.0, "TECH": "TRAK", "ADVNR": 19, "ATCFID": "EP182025", "NAME": "SONIA", "FTECH": "OFCL", "FCST_DTG": "2025-10-29 06:00:00", "RUN_DTG": "2025-10-29 23:10:00", "BASIN": "EP", "STMNR": 18, "CAT_ID": null, "CAT_DESC": null, "MSGID": "WTPZ23 KNHC 290831", "VALIDTIME": "2025-10-28 06:00:00" }, "geometry": { "type": "Point", "coordinates": [ -122.400002, 14.7 ] } },
{ "type": "Feature", "properties": { "ID": 70353, "LAT": 15.0, "LON": -123.1, "VMAX": 40.0, "MSLP": 1003.0, "RMAX": 30.0, "FSPD": 4.10452, "FDIR": 284.51727, "RENV": 130.0, "PENV": 1012.0, "VALIDT": 0, "DTG": "2025-10-28 12:00", "LATNOW": 15.3, "LONNOW": -125.6, "WINDNOW": 30.0, "DIRNOW": 5.0, "SPDNOW": 3.0, "TECH": "TRAK", "ADVNR": 19, "ATCFID": "EP182025", "NAME": "SONIA", "FTECH": "OFCL", "FCST_DTG": "2025-10-29 06:00:00", "RUN_DTG": "2025-10-29 23:10:00", "BASIN": "EP", "STMNR": 18, "CAT_ID": null, "CAT_DESC": null, "MSGID": "WTPZ23 KNHC 290831", "VALIDTIME": "2025-10-28 12:00:00" }, "geometry": { "type": "Point", "coordinates": [ -123.099998, 15.0 ] } },
{ "type": "Feature", "properties": { "ID": 70354, "LAT": 15.2, "LON": -123.9, "VMAX": 40.0, "MSLP": 1003.0, "RMAX": 30.0, "FSPD": 4.5829, "FDIR": 282.97382, "RENV": 130.0, "PENV": 1011.0, "VALIDT": 0, "DTG": "2025-10-28 18:00", "LATNOW": 15.3, "LONNOW": -125.6, "WINDNOW": 30.0, "DIRNOW": 5.0, "SPDNOW": 3.0, "TECH": "TRAK", "ADVNR": 19, "ATCFID": "EP182025", "NAME": "SONIA", "FTECH": "OFCL", "FCST_DTG": "2025-10-29 06:00:00", "RUN_DTG": "2025-10-29 23:10:00", "BASIN": "EP", "STMNR": 18, "CAT_ID": null, "CAT_DESC": null, "MSGID": "WTPZ23 KNHC 290831", "VALIDTIME": "2025-10-28 18:00:00" }, "geometry": { "type": "Point", "coordinates": [ -123.900002, 15.2 ] } },
{ "type": "Feature", "properties": { "ID": 70355, "LAT": 15.4, "LON": -124.8, "VMAX": 35.0, "MSLP": 1005.0, "RMAX": 30.0, "FSPD": 4.00192, "FDIR": 262.61423, "RENV": 110.0, "PENV": 1011.0, "VALIDT": 0, "DTG": "2025-10-29 00:00", "LATNOW": 15.3, "LONNOW": -125.6, "WINDNOW": 30.0, "DIRNOW": 5.0, "SPDNOW": 3.0, "TECH": "TRAK", "ADVNR": 19, "ATCFID": "EP182025", "NAME": "SONIA", "FTECH": "OFCL", "FCST_DTG": "2025-10-29 06:00:00", "RUN_DTG": "2025-10-29 23:10:00", "BASIN": "EP", "STMNR": 18, "CAT_ID": null, "CAT_DESC": null, "MSGID": "WTPZ23 KNHC 290831", "VALIDTIME": "2025-10-29 00:00:00" }, "geometry": { "type": "Point", "coordinates": [ -124.800003, 15.4 ] } },
{ "type": "Feature", "properties": { "ID": 70356, "LAT": 15.3, "LON": -125.6, "VMAX": 30.0, "MSLP": 1007.0, "RMAX": 30.0, "FSPD": 4.96211, "FDIR": 269.99997, "RENV": 80.0, "PENV": 1011.0, "VALIDT": 0, "DTG": "2025-10-29 06:00", "LATNOW": 15.3, "LONNOW": -125.6, "WINDNOW": 30.0, "DIRNOW": 5.0, "SPDNOW": 3.0, "TECH": "TRAK", "ADVNR": 19, "ATCFID": "EP182025", "NAME": "SONIA", "FTECH": "OFCL", "FCST_DTG": "2025-10-29 06:00:00", "RUN_DTG": "2025-10-29 23:10:00", "BASIN": "EP", "STMNR": 18, "CAT_ID": null, "CAT_DESC": null, "MSGID": "WTPZ23 KNHC 290831", "VALIDTIME": "2025-10-29 06:00:00" }, "geometry": { "type": "Point", "coordinates": [ -125.599998, 15.3 ] } },
{ "type": "Feature", "properties": { "ID": 70357, "LAT": 15.3, "LON": -126.1, "VMAX": 30.0, "MSLP": 1007.0, "RMAX": 30.0, "FSPD": 4.97513, "FDIR": 266.04712, "RENV": 250.0, "PENV": 1012.0, "VALIDT": 3, "DTG": "2025-10-29 09:00", "LATNOW": 15.3, "LONNOW": -125.6, "WINDNOW": 30.0, "DIRNOW": 5.0, "SPDNOW": 3.0, "TECH": "FCST", "ADVNR": 19, "ATCFID": "EP182025", "NAME": "SONIA", "FTECH": "OFCL", "FCST_DTG": "2025-10-29 06:00:00", "RUN_DTG": "2025-10-29 23:10:00", "BASIN": "EP", "STMNR": 18, "CAT_ID": null, "CAT_DESC": null, "MSGID": "WTPZ23 KNHC 290831", "VALIDTIME": "2025-10-29 09:00:00" }, "geometry": { "type": "Point", "coordinates": [ -126.099998, 15.3 ] } },
{ "type": "Feature", "properties": { "ID": 70358, "LAT": 15.2, "LON": -127.6, "VMAX": 25.0, "MSLP": 1011.80975, "RMAX": 32.62373, "FSPD": 5.85875, "FDIR": 257.31915, "RENV": 250.0, "PENV": 1012.0, "VALIDT": 12, "DTG": "2025-10-29 18:00", "LATNOW": 15.3, "LONNOW": -125.6, "WINDNOW": 30.0, "DIRNOW": 5.0, "SPDNOW": 3.0, "TECH": "FCST", "ADVNR": 19, "ATCFID": "EP182025", "NAME": "SONIA", "FTECH": "OFCL", "FCST_DTG": "2025-10-29 06:00:00", "RUN_DTG": "2025-10-29 23:10:00", "BASIN": "EP", "STMNR": 18, "CAT_ID": null, "CAT_DESC": null, "MSGID": "WTPZ23 KNHC 290831", "VALIDTIME": "2025-10-29 18:00:00" }, "geometry": { "type": "Point", "coordinates": [ -127.599998, 15.2 ] } },
{ "type": "Feature", "properties": { "ID": 70359, "LAT": 14.7, "LON": -129.9, "VMAX": 25.0, "MSLP": 1011.80975, "RMAX": 32.62373, "FSPD": 5.85875, "FDIR": 257.31915, "RENV": 250.0, "PENV": 1012.0, "VALIDT": 24, "DTG": "2025-10-30 06:00", "LATNOW": 15.3, "LONNOW": -125.6, "WINDNOW": 30.0, "DIRNOW": 5.0, "SPDNOW": 3.0, "TECH": "FCST", "ADVNR": 19, "ATCFID": "EP182025", "NAME": "SONIA", "FTECH": "OFCL", "FCST_DTG": "2025-10-29 06:00:00", "RUN_DTG": "2025-10-29 23:10:00", "BASIN": "EP", "STMNR": 18, "CAT_ID": null, "CAT_DESC": null, "MSGID": "WTPZ23 KNHC 290831", "VALIDTIME": "2025-10-30 06:00:00" }, "geometry": { "type": "Point", "coordinates": [ -129.899994, 14.7 ] } },
{ "type": "Feature", "properties": { "ID": 70356, "LAT": 15.3, "LON": -125.6, "VMAX": 30.0, "MSLP": 1007.0, "RMAX": 30.0, "FSPD": 4.96211, "FDIR": 269.99997, "RENV": 80.0, "PENV": 1011.0, "VALIDT": 0, "DTG": "2025-10-29 06:00", "LATNOW": 15.3, "LONNOW": -125.6, "WINDNOW": 30.0, "DIRNOW": 5.0, "SPDNOW": 3.0, "TECH": "TRAK", "ADVNR": 19, "ATCFID": "EP182025", "NAME": "SONIA", "FTECH": "OFCL", "FCST_DTG": "2025-10-29 06:00:00", "RUN_DTG": "2025-10-29 23:10:00", "BASIN": "EP", "STMNR": 18, "CAT_ID": null, "CAT_DESC": null, "MSGID": "WTPZ23 KNHC 290831", "VALIDTIME": "2025-10-29 06:00:00" }, "geometry": { "type": "LineString", "coordinates": [ [ -108.0, 10.3 ], [ -109.3, 10.4 ], [ -111.1, 12.6 ], [ -112.0, 12.9 ], [ -113.1, 13.0 ], [ -114.3, 13.2 ], [ -115.6, 13.2 ], [ -116.3, 13.2 ], [ -117.2, 13.2 ], [ -117.8, 13.4 ], [ -118.6, 13.5 ], [ -119.1, 13.5 ], [ -119.4, 13.4 ], [ -119.8, 13.6 ], [ -119.6, 13.7 ], [ -119.7, 14.0 ], [ -120.3, 14.1 ], [ -120.8, 13.8 ], [ -121.3, 14.0 ], [ -121.9, 14.4 ], [ -122.4, 14.7 ], [ -123.1, 15.0 ], [ -123.9, 15.2 ], [ -124.8, 15.4 ], [ -125.6, 15.3 ] ] } },
{ "type": "Feature", "properties": { "ID": 70359, "LAT": 14.7, "LON": -129.9, "VMAX": 25.0, "MSLP": 1011.80975, "RMAX": 32.62373, "FSPD": 5.85875, "FDIR": 257.31915, "RENV": 250.0, "PENV": 1012.0, "VALIDT": 24, "DTG": "2025-10-30 06:00", "LATNOW": 15.3, "LONNOW": -125.6, "WINDNOW": 30.0, "DIRNOW": 5.0, "SPDNOW": 3.0, "TECH": "FCST", "ADVNR": 19, "ATCFID": "EP182025", "NAME": "SONIA", "FTECH": "OFCL", "FCST_DTG": "2025-10-29 06:00:00", "RUN_DTG": "2025-10-29 23:10:00", "BASIN": "EP", "STMNR": 18, "CAT_ID": null, "CAT_DESC": null, "MSGID": "WTPZ23 KNHC 290831", "VALIDTIME": "2025-10-30 06:00:00" }, "geometry": { "type": "LineString", "coordinates": [ [ -125.6, 15.3 ], [ -126.1, 15.3 ], [ -127.6, 15.2 ], [ -129.9, 14.7 ] ] } }
]
}
