{
"type": "FeatureCollection",
"crs": { "type": "name", "properties": { "name": "urn:ogc:def:crs:OGC:1.3:CRS84" } },
"features": [
{ "type": "Feature", "properties": { "ID": 257811, "LAT": 28.8, "LON": 130.7, "VMAX": 15.0, "MSLP": 1013.8515, "RMAX": 40.0, "FSPD": 4.9634, "FDIR": 114.49344, "RENV": 500.0, "PENV": 1012.0, "VALIDT": 0, "DTG": "2024-09-23 06:00", "LATNOW": 28.6, "LONNOW": 132.1, "WINDNOW": 25.0, "DIRNOW": 4.0, "SPDNOW": 1.0, "TECH": "TRAK", "ADVNR": 11, "ATCFID": "WP182024", "NAME": "CIMARON", "FTECH": "JTWC", "FCST_DTG": "2024-09-27 00:00:00", "RUN_DTG": "2024-09-27 15:38:26", "BASIN": "WP", "STMNR": 18, "CAT_ID": null, "CAT_DESC": null, "MSGID": "WTPN51 PGTW 270300", "VALIDTIME": "2024-09-23 06:00:00" }, "geometry": { "type": "Point", "coordinates": [ 130.699997, 28.799999 ] } },
{ "type": "Feature", "properties": { "ID": 257812, "LAT": 28.4, "LON": 131.7, "VMAX": 15.0, "MSLP": 1013.8515, "RMAX": 40.0, "FSPD": 4.78729, "FDIR": 108.80695, "RENV": 500.0, "PENV": 1012.0, "VALIDT": 0, "DTG": "2024-09-23 12:00", "LATNOW": 28.6, "LONNOW": 132.1, "WINDNOW": 25.0, "DIRNOW": 4.0, "SPDNOW": 1.0, "TECH": "TRAK", "ADVNR": 11, "ATCFID": "WP182024", "NAME": "CIMARON", "FTECH": "JTWC", "FCST_DTG": "2024-09-27 00:00:00", "RUN_DTG": "2024-09-27 15:38:26", "BASIN": "WP", "STMNR": 18, "CAT_ID": null, "CAT_DESC": null, "MSGID": "WTPN51 PGTW 270300", "VALIDTIME": "2024-09-23 12:00:00" }, "geometry": { "type": "Point", "coordinates": [ 131.699997, 28.4 ] } },
{ "type": "Feature", "properties": { "ID": 257813, "LAT": 28.1, "LON": 132.7, "VMAX": 15.0, "MSLP": 1013.8515, "RMAX": 40.0, "FSPD": 4.21558, "FDIR": 104.12677, "RENV": 500.0, "PENV": 1012.0, "VALIDT": 0, "DTG": "2024-09-23 18:00", "LATNOW": 28.6, "LONNOW": 132.1, "WINDNOW": 25.0, "DIRNOW": 4.0, "SPDNOW": 1.0, "TECH": "TRAK", "ADVNR": 11, "ATCFID": "WP182024", "NAME": "CIMARON", "FTECH": "JTWC", "FCST_DTG": "2024-09-27 00:00:00", "RUN_DTG": "2024-09-27 15:38:26", "BASIN": "WP", "STMNR": 18, "CAT_ID": null, "CAT_DESC": null, "MSGID": "WTPN51 PGTW 270300", "VALIDTIME": "2024-09-23 18:00:00" }, "geometry": { "type": "Point", "coordinates": [ 132.699997, 28.1 ] } },
{ "type": "Feature", "properties": { "ID": 257814, "LAT": 27.9, "LON": 133.6, "VMAX": 20.0, "MSLP": 1012.95825, "RMAX": 45.0, "FSPD": 3.3475, "FDIR": 107.90009, "RENV": 500.0, "PENV": 1012.0, "VALIDT": 0, "DTG": "2024-09-24 00:00", "LATNOW": 28.6, "LONNOW": 132.1, "WINDNOW": 25.0, "DIRNOW": 4.0, "SPDNOW": 1.0, "TECH": "TRAK", "ADVNR": 11, "ATCFID": "WP182024", "NAME": "CIMARON", "FTECH": "JTWC", "FCST_DTG": "2024-09-27 00:00:00", "RUN_DTG": "2024-09-27 15:38:26", "BASIN": "WP", "STMNR": 18, "CAT_ID": null, "CAT_DESC": null, "MSGID": "WTPN51 PGTW 270300", "VALIDTIME": "2024-09-24 00:00:00" }, "geometry": { "type": "Point", "coordinates": [ 133.600006, 27.9 ] } },
{ "type": "Feature", "properties": { "ID": 257815, "LAT": 27.7, "LON": 134.3, "VMAX": 25.0, "MSLP": 1011.80975, "RMAX": 45.0, "FSPD": 3.78315, "FDIR": 74.21881, "RENV": 500.0, "PENV": 1012.0, "VALIDT": 0, "DTG": "2024-09-24 06:00", "LATNOW": 28.6, "LONNOW": 132.1, "WINDNOW": 25.0, "DIRNOW": 4.0, "SPDNOW": 1.0, "TECH": "TRAK", "ADVNR": 11, "ATCFID": "WP182024", "NAME": "CIMARON", "FTECH": "JTWC", "FCST_DTG": "2024-09-27 00:00:00", "RUN_DTG": "2024-09-27 15:38:26", "BASIN": "WP", "STMNR": 18, "CAT_ID": null, "CAT_DESC": null, "MSGID": "WTPN51 PGTW 270300", "VALIDTIME": "2024-09-24 06:00:00" }, "geometry": { "type": "Point", "coordinates": [ 134.300003, 27.700001 ] } },
{ "type": "Feature", "properties": { "ID": 257816, "LAT": 27.9, "LON": 135.1, "VMAX": 30.0, "MSLP": 1003.0, "RMAX": 30.0, "FSPD": 1.12468, "FDIR": 23.81818, "RENV": 170.0, "PENV": 1008.0, "VALIDT": 0, "DTG": "2024-09-24 12:00", "LATNOW": 28.6, "LONNOW": 132.1, "WINDNOW": 25.0, "DIRNOW": 4.0, "SPDNOW": 1.0, "TECH": "TRAK", "ADVNR": 11, "ATCFID": "WP182024", "NAME": "CIMARON", "FTECH": "JTWC", "FCST_DTG": "2024-09-27 00:00:00", "RUN_DTG": "2024-09-27 15:38:26", "BASIN": "WP", "STMNR": 18, "CAT_ID": null, "CAT_DESC": null, "MSGID": "WTPN51 PGTW 270300", "VALIDTIME": "2024-09-24 12:00:00" }, "geometry": { "type": "Point", "coordinates": [ 135.100006, 27.9 ] } },
{ "type": "Feature", "properties": { "ID": 257817, "LAT": 28.1, "LON": 135.2, "VMAX": 30.0, "MSLP": 1003.0, "RMAX": 30.0, "FSPD": 2.74152, "FDIR": 304.25983, "RENV": 170.0, "PENV": 1008.0, "VALIDT": 0, "DTG": "2024-09-24 18:00", "LATNOW": 28.6, "LONNOW": 132.1, "WINDNOW": 25.0, "DIRNOW": 4.0, "SPDNOW": 1.0, "TECH": "TRAK", "ADVNR": 11, "ATCFID": "WP182024", "NAME": "CIMARON", "FTECH": "JTWC", "FCST_DTG": "2024-09-27 00:00:00", "RUN_DTG": "2024-09-27 15:38:26", "BASIN": "WP", "STMNR": 18, "CAT_ID": null, "CAT_DESC": null, "MSGID": "WTPN51 PGTW 270300", "VALIDTIME": "2024-09-24 18:00:00" }, "geometry": { "type": "Point", "coordinates": [ 135.199997, 28.1 ] } },
{ "type": "Feature", "properties": { "ID": 257818, "LAT": 28.4, "LON": 134.7, "VMAX": 30.0, "MSLP": 1003.0, "RMAX": 30.0, "FSPD": 3.7669, "FDIR": 254.14891, "RENV": 170.0, "PENV": 1008.0, "VALIDT": 0, "DTG": "2024-09-25 00:00", "LATNOW": 28.6, "LONNOW": 132.1, "WINDNOW": 25.0, "DIRNOW": 4.0, "SPDNOW": 1.0, "TECH": "TRAK", "ADVNR": 11, "ATCFID": "WP182024", "NAME": "CIMARON", "FTECH": "JTWC", "FCST_DTG": "2024-09-27 00:00:00", "RUN_DTG": "2024-09-27 15:38:26", "BASIN": "WP", "STMNR": 18, "CAT_ID": null, "CAT_DESC": null, "MSGID": "WTPN51 PGTW 270300", "VALIDTIME": "2024-09-25 00:00:00" }, "geometry": { "type": "Point", "coordinates": [ 134.699997, 28.4 ] } },
{ "type": "Feature", "properties": { "ID": 257819, "LAT": 28.2, "LON": 133.9, "VMAX": 35.0, "MSLP": 1003.0, "RMAX": 35.0, "FSPD": 3.41495, "FDIR": 232.94493, "RENV": 190.0, "PENV": 1009.0, "VALIDT": 0, "DTG": "2024-09-25 06:00", "LATNOW": 28.6, "LONNOW": 132.1, "WINDNOW": 25.0, "DIRNOW": 4.0, "SPDNOW": 1.0, "TECH": "TRAK", "ADVNR": 11, "ATCFID": "WP182024", "NAME": "CIMARON", "FTECH": "JTWC", "FCST_DTG": "2024-09-27 00:00:00", "RUN_DTG": "2024-09-27 15:38:26", "BASIN": "WP", "STMNR": 18, "CAT_ID": null, "CAT_DESC": null, "MSGID": "WTPN51 PGTW 270300", "VALIDTIME": "2024-09-25 06:00:00" }, "geometry": { "type": "Point", "coordinates": [ 133.899994, 28.200001 ] } },
{ "type": "Feature", "properties": { "ID": 257820, "LAT": 27.8, "LON": 133.3, "VMAX": 30.0, "MSLP": 1001.0, "RMAX": 35.0, "FSPD": 2.33175, "FDIR": 282.74585, "RENV": 230.0, "PENV": 1009.0, "VALIDT": 0, "DTG": "2024-09-25 12:00", "LATNOW": 28.6, "LONNOW": 132.1, "WINDNOW": 25.0, "DIRNOW": 4.0, "SPDNOW": 1.0, "TECH": "TRAK", "ADVNR": 11, "ATCFID": "WP182024", "NAME": "CIMARON", "FTECH": "JTWC", "FCST_DTG": "2024-09-27 00:00:00", "RUN_DTG": "2024-09-27 15:38:26", "BASIN": "WP", "STMNR": 18, "CAT_ID": null, "CAT_DESC": null, "MSGID": "WTPN51 PGTW 270300", "VALIDTIME": "2024-09-25 12:00:00" }, "geometry": { "type": "Point", "coordinates": [ 133.300003, 27.799999 ] } },
{ "type": "Feature", "properties": { "ID": 257821, "LAT": 27.9, "LON": 132.8, "VMAX": 30.0, "MSLP": 1002.0, "RMAX": 35.0, "FSPD": 2.74503, "FDIR": 304.2102, "RENV": 230.0, "PENV": 1009.0, "VALIDT": 0, "DTG": "2024-09-25 18:00", "LATNOW": 28.6, "LONNOW": 132.1, "WINDNOW": 25.0, "DIRNOW": 4.0, "SPDNOW": 1.0, "TECH": "TRAK", "ADVNR": 11, "ATCFID": "WP182024", "NAME": "CIMARON", "FTECH": "JTWC", "FCST_DTG": "2024-09-27 00:00:00", "RUN_DTG": "2024-09-27 15:38:26", "BASIN": "WP", "STMNR": 18, "CAT_ID": null, "CAT_DESC": null, "MSGID": "WTPN51 PGTW 270300", "VALIDTIME": "2024-09-25 18:00:00" }, "geometry": { "type": "Point", "coordinates": [ 132.800003, 27.9 ] } },
{ "type": "Feature", "properties": { "ID": 257822, "LAT": 28.2, "LON": 132.3, "VMAX": 30.0, "MSLP": 1002.0, "RMAX": 50.0, "FSPD": 1.02889, "FDIR": 179.99997, "RENV": 220.0, "PENV": 1008.0, "VALIDT": 0, "DTG": "2024-09-26 00:00", "LATNOW": 28.6, "LONNOW": 132.1, "WINDNOW": 25.0, "DIRNOW": 4.0, "SPDNOW": 1.0, "TECH": "TRAK", "ADVNR": 11, "ATCFID": "WP182024", "NAME": "CIMARON", "FTECH": "JTWC", "FCST_DTG": "2024-09-27 00:00:00", "RUN_DTG": "2024-09-27 15:38:26", "BASIN": "WP", "STMNR": 18, "CAT_ID": null, "CAT_DESC": null, "MSGID": "WTPN51 PGTW 270300", "VALIDTIME": "2024-09-26 00:00:00" }, "geometry": { "type": "Point", "coordinates": [ 132.300003, 28.200001 ] } },
{ "type": "Feature", "properties": { "ID": 257823, "LAT": 28.0, "LON": 132.3, "VMAX": 25.0, "MSLP": 1003.0, "RMAX": 40.0, "FSPD": 1.88757, "FDIR": 285.81573, "RENV": 140.0, "PENV": 1008.0, "VALIDT": 0, "DTG": "2024-09-26 06:00", "LATNOW": 28.6, "LONNOW": 132.1, "WINDNOW": 25.0, "DIRNOW": 4.0, "SPDNOW": 1.0, "TECH": "TRAK", "ADVNR": 11, "ATCFID": "WP182024", "NAME": "CIMARON", "FTECH": "JTWC", "FCST_DTG": "2024-09-27 00:00:00", "RUN_DTG": "2024-09-27 15:38:26", "BASIN": "WP", "STMNR": 18, "CAT_ID": null, "CAT_DESC": null, "MSGID": "WTPN51 PGTW 270300", "VALIDTIME": "2024-09-26 06:00:00" }, "geometry": { "type": "Point", "coordinates": [ 132.300003, 28.0 ] } },
{ "type": "Feature", "properties": { "ID": 257824, "LAT": 28.1, "LON": 131.9, "VMAX": 25.0, "MSLP": 1002.0, "RMAX": 60.0, "FSPD": 0.68583, "FDIR": 318.59958, "RENV": 125.0, "PENV": 1006.0, "VALIDT": 0, "DTG": "2024-09-26 12:00", "LATNOW": 28.6, "LONNOW": 132.1, "WINDNOW": 25.0, "DIRNOW": 4.0, "SPDNOW": 1.0, "TECH": "TRAK", "ADVNR": 11, "ATCFID": "WP182024", "NAME": "CIMARON", "FTECH": "JTWC", "FCST_DTG": "2024-09-27 00:00:00", "RUN_DTG": "2024-09-27 15:38:26", "BASIN": "WP", "STMNR": 18, "CAT_ID": null, "CAT_DESC": null, "MSGID": "WTPN51 PGTW 270300", "VALIDTIME": "2024-09-26 12:00:00" }, "geometry": { "type": "Point", "coordinates": [ 131.899994, 28.1 ] } },
{ "type": "Feature", "properties": { "ID": 257825, "LAT": 28.2, "LON": 131.8, "VMAX": 25.0, "MSLP": 1004.0, "RMAX": 60.0, "FSPD": 2.46527, "FDIR": 33.41458, "RENV": 120.0, "PENV": 1007.0, "VALIDT": 0, "DTG": "2024-09-26 18:00", "LATNOW": 28.6, "LONNOW": 132.1, "WINDNOW": 25.0, "DIRNOW": 4.0, "SPDNOW": 1.0, "TECH": "TRAK", "ADVNR": 11, "ATCFID": "WP182024", "NAME": "CIMARON", "FTECH": "JTWC", "FCST_DTG": "2024-09-27 00:00:00", "RUN_DTG": "2024-09-27 15:38:26", "BASIN": "WP", "STMNR": 18, "CAT_ID": null, "CAT_DESC": null, "MSGID": "WTPN51 PGTW 270300", "VALIDTIME": "2024-09-26 18:00:00" }, "geometry": { "type": "Point", "coordinates": [ 131.800003, 28.200001 ] } },
{ "type": "Feature", "properties": { "ID": 257826, "LAT": 28.6, "LON": 132.1, "VMAX": 25.0, "MSLP": 1004.0, "RMAX": 50.0, "FSPD": 3.81695, "FDIR": 36.03348, "RENV": 100.0, "PENV": 1006.0, "VALIDT": 0, "DTG": "2024-09-27 00:00", "LATNOW": 28.6, "LONNOW": 132.1, "WINDNOW": 25.0, "DIRNOW": 4.0, "SPDNOW": 1.0, "TECH": "TRAK", "ADVNR": 11, "ATCFID": "WP182024", "NAME": "CIMARON", "FTECH": "JTWC", "FCST_DTG": "2024-09-27 00:00:00", "RUN_DTG": "2024-09-27 15:38:26", "BASIN": "WP", "STMNR": 18, "CAT_ID": null, "CAT_DESC": null, "MSGID": "WTPN51 PGTW 270300", "VALIDTIME": "2024-09-27 00:00:00" }, "geometry": { "type": "Point", "coordinates": [ 132.100006, 28.6 ] } },
{ "type": "Feature", "properties": { "ID": 257827, "LAT": 29.8, "LON": 133.1, "VMAX": 20.0, "MSLP": 1012.95825, "RMAX": 56.93608, "FSPD": 4.56278, "FDIR": 42.87302, "RENV": 250.0, "PENV": 1012.0, "VALIDT": 12, "DTG": "2024-09-27 12:00", "LATNOW": 28.6, "LONNOW": 132.1, "WINDNOW": 25.0, "DIRNOW": 4.0, "SPDNOW": 1.0, "TECH": "FCST", "ADVNR": 11, "ATCFID": "WP182024", "NAME": "CIMARON", "FTECH": "JTWC", "FCST_DTG": "2024-09-27 00:00:00", "RUN_DTG": "2024-09-27 15:38:26", "BASIN": "WP", "STMNR": 18, "CAT_ID": null, "CAT_DESC": null, "MSGID": "WTPN51 PGTW 270300", "VALIDTIME": "2024-09-27 12:00:00" }, "geometry": { "type": "Point", "coordinates": [ 133.100006, 29.799999 ] } },
{ "type": "Feature", "properties": { "ID": 257828, "LAT": 31.1, "LON": 134.5, "VMAX": 20.0, "MSLP": 1012.95825, "RMAX": 56.93608, "FSPD": 4.56278, "FDIR": 42.87302, "RENV": 250.0, "PENV": 1012.0, "VALIDT": 24, "DTG": "2024-09-28 00:00", "LATNOW": 28.6, "LONNOW": 132.1, "WINDNOW": 25.0, "DIRNOW": 4.0, "SPDNOW": 1.0, "TECH": "FCST", "ADVNR": 11, "ATCFID": "WP182024", "NAME": "CIMARON", "FTECH": "JTWC", "FCST_DTG": "2024-09-27 00:00:00", "RUN_DTG": "2024-09-27 15:38:26", "BASIN": "WP", "STMNR": 18, "CAT_ID": null, "CAT_DESC": null, "MSGID": "WTPN51 PGTW 270300", "VALIDTIME": "2024-09-28 00:00:00" }, "geometry": { "type": "Point", "coordinates": [ 134.5, 31.1 ] } },
{ "type": "Feature", "properties": { "ID": 257826, "LAT": 28.6, "LON": 132.1, "VMAX": 25.0, "MSLP": 1004.0, "RMAX": 50.0, "FSPD": 3.81695, "FDIR": 36.03348, "RENV": 100.0, "PENV": 1006.0, "VALIDT": 0, "DTG": "2024-09-27 00:00", "LATNOW": 28.6, "LONNOW": 132.1, "WINDNOW": 25.0, "DIRNOW": 4.0, "SPDNOW": 1.0, "TECH": "TRAK", "ADVNR": 11, "ATCFID": "WP182024", "NAME": "CIMARON", "FTECH": "JTWC", "FCST_DTG": "2024-09-27 00:00:00", "RUN_DTG": "2024-09-27 15:38:26", "BASIN": "WP", "STMNR": 18, "CAT_ID": null, "CAT_DESC": null, "MSGID": "WTPN51 PGTW 270300", "VALIDTIME": "2024-09-27 00:00:00" }, "geometry": { "type": "LineString", "coordinates": [ [ 130.7, 28.8 ], [ 131.7, 28.4 ], [ 132.7, 28.1 ], [ 133.6, 27.9 ], [ 134.3, 27.7 ], [ 135.1, 27.9 ], [ 135.2, 28.1 ], [ 134.7, 28.4 ], [ 133.9, 28.2 ], [ 133.3, 27.8 ], [ 132.8, 27.9 ], [ 132.3, 28.2 ], [ 132.3, 28.0 ], [ 131.9, 28.1 ], [ 131.8, 28.2 ], [ 132.1, 28.6 ] ] } },
{ "type": "Feature", "properties": { "ID": 257828, "LAT": 31.1, "LON": 134.5, "VMAX": 20.0, "MSLP": 1012.95825, "RMAX": 56.93608, "FSPD": 4.56278, "FDIR": 42.87302, "RENV": 250.0, "PENV": 1012.0, "VALIDT": 24, "DTG": "2024-09-28 00:00", "LATNOW": 28.6, "LONNOW": 132.1, "WINDNOW": 25.0, "DIRNOW": 4.0, "SPDNOW": 1.0, "TECH": "FCST", "ADVNR": 11, "ATCFID": "WP182024", "NAME": "CIMARON", "FTECH": "JTWC", "FCST_DTG": "2024-09-27 00:00:00", "RUN_DTG": "2024-09-27 15:38:26", "BASIN": "WP", "STMNR": 18, "CAT_ID": null, "CAT_DESC": null, "MSGID": "WTPN51 PGTW 270300", "VALIDTIME": "2024-09-28 00:00:00" }, "geometry": { "type": "LineString", "coordinates": [ [ 132.1, 28.6 ], [ 133.1, 29.8 ], [ 134.5, 31.1 ] ] } }
]
}
