{
"type": "FeatureCollection",
"crs": { "type": "name", "properties": { "name": "urn:ogc:def:crs:OGC:1.3:CRS84" } },
"features": [
{ "type": "Feature", "properties": { "ID": 90485, "LAT": 14.2, "LON": -110.6, "VMAX": 25.0, "MSLP": 1007.0, "RMAX": 150.0, "FSPD": 4.33324, "FDIR": 306.41302, "RENV": 220.0, "PENV": 1008.0, "VALIDT": 0, "DTG": "2026-09-08 18:00", "LATNOW": 20.4, "LONNOW": -142.4, "WINDNOW": 30.0, "DIRNOW": 7.0, "SPDNOW": 3.0, "TECH": "TRAK", "ADVNR": 22, "ATCFID": "EP142026", "NAME": "NORBERT", "FTECH": "OFCL", "FCST_DTG": "2026-09-15 12:00:00", "RUN_DTG": "2026-09-16 06:26:52", "BASIN": "EP", "STMNR": 14, "CAT_ID": null, "CAT_DESC": null, "MSGID": "WTPZ24 KNHC 150231", "VALIDTIME": "2026-09-08 18:00:00" }, "geometry": { "type": "Point", "coordinates": [ -110.599998, 14.2 ] } },
{ "type": "Feature", "properties": { "ID": 90486, "LAT": 14.7, "LON": -111.3, "VMAX": 25.0, "MSLP": 1006.0, "RMAX": 150.0, "FSPD": 8.83236, "FDIR": 286.9314, "RENV": 200.0, "PENV": 1008.0, "VALIDT": 0, "DTG": "2026-09-09 00:00", "LATNOW": 20.4, "LONNOW": -142.4, "WINDNOW": 30.0, "DIRNOW": 7.0, "SPDNOW": 3.0, "TECH": "TRAK", "ADVNR": 22, "ATCFID": "EP142026", "NAME": "NORBERT", "FTECH": "OFCL", "FCST_DTG": "2026-09-15 12:00:00", "RUN_DTG": "2026-09-16 06:26:52", "BASIN": "EP", "STMNR": 14, "CAT_ID": null, "CAT_DESC": null, "MSGID": "WTPZ24 KNHC 150231", "VALIDTIME": "2026-09-09 00:00:00" }, "geometry": { "type": "Point", "coordinates": [ -111.300003, 14.7 ] } },
{ "type": "Feature", "properties": { "ID": 90487, "LAT": 15.2, "LON": -113.0, "VMAX": 25.0, "MSLP": 1007.0, "RMAX": 150.0, "FSPD": 4.5829, "FDIR": 282.97382, "RENV": 200.0, "PENV": 1008.0, "VALIDT": 0, "DTG": "2026-09-09 06:00", "LATNOW": 20.4, "LONNOW": -142.4, "WINDNOW": 30.0, "DIRNOW": 7.0, "SPDNOW": 3.0, "TECH": "TRAK", "ADVNR": 22, "ATCFID": "EP142026", "NAME": "NORBERT", "FTECH": "OFCL", "FCST_DTG": "2026-09-15 12:00:00", "RUN_DTG": "2026-09-16 06:26:52", "BASIN": "EP", "STMNR": 14, "CAT_ID": null, "CAT_DESC": null, "MSGID": "WTPZ24 KNHC 150231", "VALIDTIME": "2026-09-09 06:00:00" }, "geometry": { "type": "Point", "coordinates": [ -113.0, 15.2 ] } },
{ "type": "Feature", "properties": { "ID": 90488, "LAT": 15.4, "LON": -113.9, "VMAX": 25.0, "MSLP": 1007.0, "RMAX": 150.0, "FSPD": 3.61945, "FDIR": 286.51508, "RENV": 200.0, "PENV": 1008.0, "VALIDT": 0, "DTG": "2026-09-09 12:00", "LATNOW": 20.4, "LONNOW": -142.4, "WINDNOW": 30.0, "DIRNOW": 7.0, "SPDNOW": 3.0, "TECH": "TRAK", "ADVNR": 22, "ATCFID": "EP142026", "NAME": "NORBERT", "FTECH": "OFCL", "FCST_DTG": "2026-09-15 12:00:00", "RUN_DTG": "2026-09-16 06:26:52", "BASIN": "EP", "STMNR": 14, "CAT_ID": null, "CAT_DESC": null, "MSGID": "WTPZ24 KNHC 150231", "VALIDTIME": "2026-09-09 12:00:00" }, "geometry": { "type": "Point", "coordinates": [ -113.900002, 15.4 ] } },
{ "type": "Feature", "properties": { "ID": 90489, "LAT": 15.6, "LON": -114.6, "VMAX": 30.0, "MSLP": 1006.0, "RMAX": 70.0, "FSPD": 8.24732, "FDIR": 295.88965, "RENV": 200.0, "PENV": 1008.0, "VALIDT": 0, "DTG": "2026-09-09 18:00", "LATNOW": 20.4, "LONNOW": -142.4, "WINDNOW": 30.0, "DIRNOW": 7.0, "SPDNOW": 3.0, "TECH": "TRAK", "ADVNR": 22, "ATCFID": "EP142026", "NAME": "NORBERT", "FTECH": "OFCL", "FCST_DTG": "2026-09-15 12:00:00", "RUN_DTG": "2026-09-16 06:26:52", "BASIN": "EP", "STMNR": 14, "CAT_ID": null, "CAT_DESC": null, "MSGID": "WTPZ24 KNHC 150231", "VALIDTIME": "2026-09-09 18:00:00" }, "geometry": { "type": "Point", "coordinates": [ -114.599998, 15.6 ] } },
{ "type": "Feature", "properties": { "ID": 90490, "LAT": 16.3, "LON": -116.1, "VMAX": 30.0, "MSLP": 1006.0, "RMAX": 70.0, "FSPD": 5.946, "FDIR": 274.9634, "RENV": 200.0, "PENV": 1008.0, "VALIDT": 0, "DTG": "2026-09-10 00:00", "LATNOW": 20.4, "LONNOW": -142.4, "WINDNOW": 30.0, "DIRNOW": 7.0, "SPDNOW": 3.0, "TECH": "TRAK", "ADVNR": 22, "ATCFID": "EP142026", "NAME": "NORBERT", "FTECH": "OFCL", "FCST_DTG": "2026-09-15 12:00:00", "RUN_DTG": "2026-09-16 06:26:52", "BASIN": "EP", "STMNR": 14, "CAT_ID": null, "CAT_DESC": null, "MSGID": "WTPZ24 KNHC 150231", "VALIDTIME": "2026-09-10 00:00:00" }, "geometry": { "type": "Point", "coordinates": [ -116.099998, 16.299999 ] } },
{ "type": "Feature", "properties": { "ID": 90491, "LAT": 16.4, "LON": -117.3, "VMAX": 35.0, "MSLP": 1004.0, "RMAX": 50.0, "FSPD": 6.4346, "FDIR": 274.58566, "RENV": 180.0, "PENV": 1008.0, "VALIDT": 0, "DTG": "2026-09-10 06:00", "LATNOW": 20.4, "LONNOW": -142.4, "WINDNOW": 30.0, "DIRNOW": 7.0, "SPDNOW": 3.0, "TECH": "TRAK", "ADVNR": 22, "ATCFID": "EP142026", "NAME": "NORBERT", "FTECH": "OFCL", "FCST_DTG": "2026-09-15 12:00:00", "RUN_DTG": "2026-09-16 06:26:52", "BASIN": "EP", "STMNR": 14, "CAT_ID": null, "CAT_DESC": null, "MSGID": "WTPZ24 KNHC 150231", "VALIDTIME": "2026-09-10 06:00:00" }, "geometry": { "type": "Point", "coordinates": [ -117.300003, 16.4 ] } },
{ "type": "Feature", "properties": { "ID": 90492, "LAT": 16.5, "LON": -118.6, "VMAX": 35.0, "MSLP": 1003.0, "RMAX": 40.0, "FSPD": 6.41239, "FDIR": 269.99997, "RENV": 170.0, "PENV": 1008.0, "VALIDT": 0, "DTG": "2026-09-10 12:00", "LATNOW": 20.4, "LONNOW": -142.4, "WINDNOW": 30.0, "DIRNOW": 7.0, "SPDNOW": 3.0, "TECH": "TRAK", "ADVNR": 22, "ATCFID": "EP142026", "NAME": "NORBERT", "FTECH": "OFCL", "FCST_DTG": "2026-09-15 12:00:00", "RUN_DTG": "2026-09-16 06:26:52", "BASIN": "EP", "STMNR": 14, "CAT_ID": null, "CAT_DESC": null, "MSGID": "WTPZ24 KNHC 150231", "VALIDTIME": "2026-09-10 12:00:00" }, "geometry": { "type": "Point", "coordinates": [ -118.599998, 16.5 ] } },
{ "type": "Feature", "properties": { "ID": 90493, "LAT": 16.5, "LON": -119.9, "VMAX": 40.0, "MSLP": 1002.0, "RMAX": 40.0, "FSPD": 6.92655, "FDIR": 265.7406, "RENV": 170.0, "PENV": 1008.0, "VALIDT": 0, "DTG": "2026-09-10 18:00", "LATNOW": 20.4, "LONNOW": -142.4, "WINDNOW": 30.0, "DIRNOW": 7.0, "SPDNOW": 3.0, "TECH": "TRAK", "ADVNR": 22, "ATCFID": "EP142026", "NAME": "NORBERT", "FTECH": "OFCL", "FCST_DTG": "2026-09-15 12:00:00", "RUN_DTG": "2026-09-16 06:26:52", "BASIN": "EP", "STMNR": 14, "CAT_ID": null, "CAT_DESC": null, "MSGID": "WTPZ24 KNHC 150231", "VALIDTIME": "2026-09-10 18:00:00" }, "geometry": { "type": "Point", "coordinates": [ -119.900002, 16.5 ] } },
{ "type": "Feature", "properties": { "ID": 90494, "LAT": 16.4, "LON": -121.3, "VMAX": 40.0, "MSLP": 1002.0, "RMAX": 40.0, "FSPD": 6.98183, "FDIR": 278.47437, "RENV": 180.0, "PENV": 1008.0, "VALIDT": 0, "DTG": "2026-09-11 00:00", "LATNOW": 20.4, "LONNOW": -142.4, "WINDNOW": 30.0, "DIRNOW": 7.0, "SPDNOW": 3.0, "TECH": "TRAK", "ADVNR": 22, "ATCFID": "EP142026", "NAME": "NORBERT", "FTECH": "OFCL", "FCST_DTG": "2026-09-15 12:00:00", "RUN_DTG": "2026-09-16 06:26:52", "BASIN": "EP", "STMNR": 14, "CAT_ID": null, "CAT_DESC": null, "MSGID": "WTPZ24 KNHC 150231", "VALIDTIME": "2026-09-11 00:00:00" }, "geometry": { "type": "Point", "coordinates": [ -121.300003, 16.4 ] } },
{ "type": "Feature", "properties": { "ID": 90495, "LAT": 16.6, "LON": -122.7, "VMAX": 50.0, "MSLP": 996.0, "RMAX": 30.0, "FSPD": 6.90206, "FDIR": 269.99997, "RENV": 140.0, "PENV": 1009.0, "VALIDT": 0, "DTG": "2026-09-11 06:00", "LATNOW": 20.4, "LONNOW": -142.4, "WINDNOW": 30.0, "DIRNOW": 7.0, "SPDNOW": 3.0, "TECH": "TRAK", "ADVNR": 22, "ATCFID": "EP142026", "NAME": "NORBERT", "FTECH": "OFCL", "FCST_DTG": "2026-09-15 12:00:00", "RUN_DTG": "2026-09-16 06:26:52", "BASIN": "EP", "STMNR": 14, "CAT_ID": null, "CAT_DESC": null, "MSGID": "WTPZ24 KNHC 150231", "VALIDTIME": "2026-09-11 06:00:00" }, "geometry": { "type": "Point", "coordinates": [ -122.699997, 16.6 ] } },
{ "type": "Feature", "properties": { "ID": 90496, "LAT": 16.6, "LON": -124.1, "VMAX": 55.0, "MSLP": 996.0, "RMAX": 25.0, "FSPD": 5.44597, "FDIR": 275.4204, "RENV": 150.0, "PENV": 1009.0, "VALIDT": 0, "DTG": "2026-09-11 12:00", "LATNOW": 20.4, "LONNOW": -142.4, "WINDNOW": 30.0, "DIRNOW": 7.0, "SPDNOW": 3.0, "TECH": "TRAK", "ADVNR": 22, "ATCFID": "EP142026", "NAME": "NORBERT", "FTECH": "OFCL", "FCST_DTG": "2026-09-15 12:00:00", "RUN_DTG": "2026-09-16 06:26:52", "BASIN": "EP", "STMNR": 14, "CAT_ID": null, "CAT_DESC": null, "MSGID": "WTPZ24 KNHC 150231", "VALIDTIME": "2026-09-11 12:00:00" }, "geometry": { "type": "Point", "coordinates": [ -124.099998, 16.6 ] } },
{ "type": "Feature", "properties": { "ID": 90497, "LAT": 16.7, "LON": -125.2, "VMAX": 55.0, "MSLP": 996.0, "RMAX": 25.0, "FSPD": 4.88465, "FDIR": 294.91504, "RENV": 150.0, "PENV": 1009.0, "VALIDT": 0, "DTG": "2026-09-11 18:00", "LATNOW": 20.4, "LONNOW": -142.4, "WINDNOW": 30.0, "DIRNOW": 7.0, "SPDNOW": 3.0, "TECH": "TRAK", "ADVNR": 22, "ATCFID": "EP142026", "NAME": "NORBERT", "FTECH": "OFCL", "FCST_DTG": "2026-09-15 12:00:00", "RUN_DTG": "2026-09-16 06:26:52", "BASIN": "EP", "STMNR": 14, "CAT_ID": null, "CAT_DESC": null, "MSGID": "WTPZ24 KNHC 150231", "VALIDTIME": "2026-09-11 18:00:00" }, "geometry": { "type": "Point", "coordinates": [ -125.199997, 16.700001 ] } },
{ "type": "Feature", "properties": { "ID": 90498, "LAT": 17.1, "LON": -126.1, "VMAX": 55.0, "MSLP": 996.0, "RMAX": 25.0, "FSPD": 4.45631, "FDIR": 263.37085, "RENV": 150.0, "PENV": 1007.0, "VALIDT": 0, "DTG": "2026-09-12 00:00", "LATNOW": 20.4, "LONNOW": -142.4, "WINDNOW": 30.0, "DIRNOW": 7.0, "SPDNOW": 3.0, "TECH": "TRAK", "ADVNR": 22, "ATCFID": "EP142026", "NAME": "NORBERT", "FTECH": "OFCL", "FCST_DTG": "2026-09-15 12:00:00", "RUN_DTG": "2026-09-16 06:26:52", "BASIN": "EP", "STMNR": 14, "CAT_ID": null, "CAT_DESC": null, "MSGID": "WTPZ24 KNHC 150231", "VALIDTIME": "2026-09-12 00:00:00" }, "geometry": { "type": "Point", "coordinates": [ -126.099998, 17.1 ] } },
{ "type": "Feature", "properties": { "ID": 90499, "LAT": 17.0, "LON": -127.0, "VMAX": 50.0, "MSLP": 999.0, "RMAX": 20.0, "FSPD": 4.06597, "FDIR": 284.65802, "RENV": 175.0, "PENV": 1009.0, "VALIDT": 0, "DTG": "2026-09-12 06:00", "LATNOW": 20.4, "LONNOW": -142.4, "WINDNOW": 30.0, "DIRNOW": 7.0, "SPDNOW": 3.0, "TECH": "TRAK", "ADVNR": 22, "ATCFID": "EP142026", "NAME": "NORBERT", "FTECH": "OFCL", "FCST_DTG": "2026-09-15 12:00:00", "RUN_DTG": "2026-09-16 06:26:52", "BASIN": "EP", "STMNR": 14, "CAT_ID": null, "CAT_DESC": null, "MSGID": "WTPZ24 KNHC 150231", "VALIDTIME": "2026-09-12 06:00:00" }, "geometry": { "type": "Point", "coordinates": [ -127.0, 17.0 ] } },
{ "type": "Feature", "properties": { "ID": 90500, "LAT": 17.2, "LON": -127.8, "VMAX": 50.0, "MSLP": 999.0, "RMAX": 20.0, "FSPD": 6.56742, "FDIR": 283.5915, "RENV": 175.0, "PENV": 1009.0, "VALIDT": 0, "DTG": "2026-09-12 12:00", "LATNOW": 20.4, "LONNOW": -142.4, "WINDNOW": 30.0, "DIRNOW": 7.0, "SPDNOW": 3.0, "TECH": "TRAK", "ADVNR": 22, "ATCFID": "EP142026", "NAME": "NORBERT", "FTECH": "OFCL", "FCST_DTG": "2026-09-15 12:00:00", "RUN_DTG": "2026-09-16 06:26:52", "BASIN": "EP", "STMNR": 14, "CAT_ID": null, "CAT_DESC": null, "MSGID": "WTPZ24 KNHC 150231", "VALIDTIME": "2026-09-12 12:00:00" }, "geometry": { "type": "Point", "coordinates": [ -127.800003, 17.200001 ] } },
{ "type": "Feature", "properties": { "ID": 90501, "LAT": 17.5, "LON": -129.1, "VMAX": 45.0, "MSLP": 1000.0, "RMAX": 40.0, "FSPD": 4.67416, "FDIR": 289.27988, "RENV": 180.0, "PENV": 1009.0, "VALIDT": 0, "DTG": "2026-09-12 18:00", "LATNOW": 20.4, "LONNOW": -142.4, "WINDNOW": 30.0, "DIRNOW": 7.0, "SPDNOW": 3.0, "TECH": "TRAK", "ADVNR": 22, "ATCFID": "EP142026", "NAME": "NORBERT", "FTECH": "OFCL", "FCST_DTG": "2026-09-15 12:00:00", "RUN_DTG": "2026-09-16 06:26:52", "BASIN": "EP", "STMNR": 14, "CAT_ID": null, "CAT_DESC": null, "MSGID": "WTPZ24 KNHC 150231", "VALIDTIME": "2026-09-12 18:00:00" }, "geometry": { "type": "Point", "coordinates": [ -129.100006, 17.5 ] } },
{ "type": "Feature", "properties": { "ID": 90502, "LAT": 17.8, "LON": -130.0, "VMAX": 45.0, "MSLP": 1000.0, "RMAX": 40.0, "FSPD": 5.89862, "FDIR": 275.00336, "RENV": 180.0, "PENV": 1009.0, "VALIDT": 0, "DTG": "2026-09-13 00:00", "LATNOW": 20.4, "LONNOW": -142.4, "WINDNOW": 30.0, "DIRNOW": 7.0, "SPDNOW": 3.0, "TECH": "TRAK", "ADVNR": 22, "ATCFID": "EP142026", "NAME": "NORBERT", "FTECH": "OFCL", "FCST_DTG": "2026-09-15 12:00:00", "RUN_DTG": "2026-09-16 06:26:52", "BASIN": "EP", "STMNR": 14, "CAT_ID": null, "CAT_DESC": null, "MSGID": "WTPZ24 KNHC 150231", "VALIDTIME": "2026-09-13 00:00:00" }, "geometry": { "type": "Point", "coordinates": [ -130.0, 17.799999 ] } },
{ "type": "Feature", "properties": { "ID": 90503, "LAT": 17.9, "LON": -131.2, "VMAX": 40.0, "MSLP": 1002.0, "RMAX": 40.0, "FSPD": 4.52204, "FDIR": 283.15158, "RENV": 180.0, "PENV": 1009.0, "VALIDT": 0, "DTG": "2026-09-13 06:00", "LATNOW": 20.4, "LONNOW": -142.4, "WINDNOW": 30.0, "DIRNOW": 7.0, "SPDNOW": 3.0, "TECH": "TRAK", "ADVNR": 22, "ATCFID": "EP142026", "NAME": "NORBERT", "FTECH": "OFCL", "FCST_DTG": "2026-09-15 12:00:00", "RUN_DTG": "2026-09-16 06:26:52", "BASIN": "EP", "STMNR": 14, "CAT_ID": null, "CAT_DESC": null, "MSGID": "WTPZ24 KNHC 150231", "VALIDTIME": "2026-09-13 06:00:00" }, "geometry": { "type": "Point", "coordinates": [ -131.199997, 17.9 ] } },
{ "type": "Feature", "properties": { "ID": 90504, "LAT": 18.1, "LON": -132.1, "VMAX": 45.0, "MSLP": 1000.0, "RMAX": 45.0, "FSPD": 6.84902, "FDIR": 292.05896, "RENV": 170.0, "PENV": 1007.0, "VALIDT": 0, "DTG": "2026-09-13 12:00", "LATNOW": 20.4, "LONNOW": -142.4, "WINDNOW": 30.0, "DIRNOW": 7.0, "SPDNOW": 3.0, "TECH": "TRAK", "ADVNR": 22, "ATCFID": "EP142026", "NAME": "NORBERT", "FTECH": "OFCL", "FCST_DTG": "2026-09-15 12:00:00", "RUN_DTG": "2026-09-16 06:26:52", "BASIN": "EP", "STMNR": 14, "CAT_ID": null, "CAT_DESC": null, "MSGID": "WTPZ24 KNHC 150231", "VALIDTIME": "2026-09-13 12:00:00" }, "geometry": { "type": "Point", "coordinates": [ -132.100006, 18.1 ] } },
{ "type": "Feature", "properties": { "ID": 90505, "LAT": 18.6, "LON": -133.4, "VMAX": 40.0, "MSLP": 1002.0, "RMAX": 45.0, "FSPD": 6.04607, "FDIR": 284.78906, "RENV": 170.0, "PENV": 1007.0, "VALIDT": 0, "DTG": "2026-09-13 18:00", "LATNOW": 20.4, "LONNOW": -142.4, "WINDNOW": 30.0, "DIRNOW": 7.0, "SPDNOW": 3.0, "TECH": "TRAK", "ADVNR": 22, "ATCFID": "EP142026", "NAME": "NORBERT", "FTECH": "OFCL", "FCST_DTG": "2026-09-15 12:00:00", "RUN_DTG": "2026-09-16 06:26:52", "BASIN": "EP", "STMNR": 14, "CAT_ID": null, "CAT_DESC": null, "MSGID": "WTPZ24 KNHC 150231", "VALIDTIME": "2026-09-13 18:00:00" }, "geometry": { "type": "Point", "coordinates": [ -133.399994, 18.6 ] } },
{ "type": "Feature", "properties": { "ID": 90506, "LAT": 18.9, "LON": -134.6, "VMAX": 40.0, "MSLP": 1002.0, "RMAX": 45.0, "FSPD": 6.03588, "FDIR": 284.8147, "RENV": 170.0, "PENV": 1007.0, "VALIDT": 0, "DTG": "2026-09-14 00:00", "LATNOW": 20.4, "LONNOW": -142.4, "WINDNOW": 30.0, "DIRNOW": 7.0, "SPDNOW": 3.0, "TECH": "TRAK", "ADVNR": 22, "ATCFID": "EP142026", "NAME": "NORBERT", "FTECH": "OFCL", "FCST_DTG": "2026-09-15 12:00:00", "RUN_DTG": "2026-09-16 06:26:52", "BASIN": "EP", "STMNR": 14, "CAT_ID": null, "CAT_DESC": null, "MSGID": "WTPZ24 KNHC 150231", "VALIDTIME": "2026-09-14 00:00:00" }, "geometry": { "type": "Point", "coordinates": [ -134.600006, 18.9 ] } },
{ "type": "Feature", "properties": { "ID": 90507, "LAT": 19.2, "LON": -135.8, "VMAX": 35.0, "MSLP": 1005.0, "RMAX": 45.0, "FSPD": 6.3348, "FDIR": 274.658, "RENV": 170.0, "PENV": 1010.0, "VALIDT": 0, "DTG": "2026-09-14 06:00", "LATNOW": 20.4, "LONNOW": -142.4, "WINDNOW": 30.0, "DIRNOW": 7.0, "SPDNOW": 3.0, "TECH": "TRAK", "ADVNR": 22, "ATCFID": "EP142026", "NAME": "NORBERT", "FTECH": "OFCL", "FCST_DTG": "2026-09-15 12:00:00", "RUN_DTG": "2026-09-16 06:26:52", "BASIN": "EP", "STMNR": 14, "CAT_ID": null, "CAT_DESC": null, "MSGID": "WTPZ24 KNHC 150231", "VALIDTIME": "2026-09-14 06:00:00" }, "geometry": { "type": "Point", "coordinates": [ -135.800003, 19.200001 ] } },
{ "type": "Feature", "properties": { "ID": 90508, "LAT": 19.3, "LON": -137.1, "VMAX": 35.0, "MSLP": 1005.0, "RMAX": 45.0, "FSPD": 7.43817, "FDIR": 281.97522, "RENV": 150.0, "PENV": 1009.0, "VALIDT": 0, "DTG": "2026-09-14 12:00", "LATNOW": 20.4, "LONNOW": -142.4, "WINDNOW": 30.0, "DIRNOW": 7.0, "SPDNOW": 3.0, "TECH": "TRAK", "ADVNR": 22, "ATCFID": "EP142026", "NAME": "NORBERT", "FTECH": "OFCL", "FCST_DTG": "2026-09-15 12:00:00", "RUN_DTG": "2026-09-16 06:26:52", "BASIN": "EP", "STMNR": 14, "CAT_ID": null, "CAT_DESC": null, "MSGID": "WTPZ24 KNHC 150231", "VALIDTIME": "2026-09-14 12:00:00" }, "geometry": { "type": "Point", "coordinates": [ -137.100006, 19.299999 ] } },
{ "type": "Feature", "properties": { "ID": 90509, "LAT": 19.6, "LON": -138.6, "VMAX": 35.0, "MSLP": 1005.0, "RMAX": 45.0, "FSPD": 6.79595, "FDIR": 292.24036, "RENV": 150.0, "PENV": 1009.0, "VALIDT": 0, "DTG": "2026-09-14 18:00", "LATNOW": 20.4, "LONNOW": -142.4, "WINDNOW": 30.0, "DIRNOW": 7.0, "SPDNOW": 3.0, "TECH": "TRAK", "ADVNR": 22, "ATCFID": "EP142026", "NAME": "NORBERT", "FTECH": "OFCL", "FCST_DTG": "2026-09-15 12:00:00", "RUN_DTG": "2026-09-16 06:26:52", "BASIN": "EP", "STMNR": 14, "CAT_ID": null, "CAT_DESC": null, "MSGID": "WTPZ24 KNHC 150231", "VALIDTIME": "2026-09-14 18:00:00" }, "geometry": { "type": "Point", "coordinates": [ -138.600006, 19.6 ] } },
{ "type": "Feature", "properties": { "ID": 90510, "LAT": 20.1, "LON": -139.9, "VMAX": 30.0, "MSLP": 1006.0, "RMAX": 80.0, "FSPD": 5.81834, "FDIR": 275.07257, "RENV": 150.0, "PENV": 1009.0, "VALIDT": 0, "DTG": "2026-09-15 00:00", "LATNOW": 20.4, "LONNOW": -142.4, "WINDNOW": 30.0, "DIRNOW": 7.0, "SPDNOW": 3.0, "TECH": "TRAK", "ADVNR": 22, "ATCFID": "EP142026", "NAME": "NORBERT", "FTECH": "OFCL", "FCST_DTG": "2026-09-15 12:00:00", "RUN_DTG": "2026-09-16 06:26:52", "BASIN": "EP", "STMNR": 14, "CAT_ID": null, "CAT_DESC": null, "MSGID": "WTPZ24 KNHC 150231", "VALIDTIME": "2026-09-15 00:00:00" }, "geometry": { "type": "Point", "coordinates": [ -139.899994, 20.1 ] } },
{ "type": "Feature", "properties": { "ID": 90511, "LAT": 20.2, "LON": -141.1, "VMAX": 30.0, "MSLP": 1006.0, "RMAX": 80.0, "FSPD": 6.35616, "FDIR": 279.31555, "RENV": 150.0, "PENV": 1009.0, "VALIDT": 0, "DTG": "2026-09-15 06:00", "LATNOW": 20.4, "LONNOW": -142.4, "WINDNOW": 30.0, "DIRNOW": 7.0, "SPDNOW": 3.0, "TECH": "TRAK", "ADVNR": 22, "ATCFID": "EP142026", "NAME": "NORBERT", "FTECH": "OFCL", "FCST_DTG": "2026-09-15 12:00:00", "RUN_DTG": "2026-09-16 06:26:52", "BASIN": "EP", "STMNR": 14, "CAT_ID": null, "CAT_DESC": null, "MSGID": "WTPZ24 KNHC 150231", "VALIDTIME": "2026-09-15 06:00:00" }, "geometry": { "type": "Point", "coordinates": [ -141.100006, 20.200001 ] } },
{ "type": "Feature", "properties": { "ID": 90512, "LAT": 20.4, "LON": -142.4, "VMAX": 30.0, "MSLP": 1007.0, "RMAX": 80.0, "FSPD": 6.82642, "FDIR": 278.66876, "RENV": 150.0, "PENV": 1010.0, "VALIDT": 0, "DTG": "2026-09-15 12:00", "LATNOW": 20.4, "LONNOW": -142.4, "WINDNOW": 30.0, "DIRNOW": 7.0, "SPDNOW": 3.0, "TECH": "TRAK", "ADVNR": 22, "ATCFID": "EP142026", "NAME": "NORBERT", "FTECH": "OFCL", "FCST_DTG": "2026-09-15 12:00:00", "RUN_DTG": "2026-09-16 06:26:52", "BASIN": "EP", "STMNR": 14, "CAT_ID": null, "CAT_DESC": null, "MSGID": "WTPZ24 KNHC 150231", "VALIDTIME": "2026-09-15 12:00:00" }, "geometry": { "type": "Point", "coordinates": [ -142.399994, 20.4 ] } },
{ "type": "Feature", "properties": { "ID": 90513, "LAT": 20.5, "LON": -143.1, "VMAX": 30.0, "MSLP": 1007.0, "RMAX": 80.0, "FSPD": 6.43193, "FDIR": 273.05658, "RENV": 250.0, "PENV": 1012.0, "VALIDT": 3, "DTG": "2026-09-15 15:00", "LATNOW": 20.4, "LONNOW": -142.4, "WINDNOW": 30.0, "DIRNOW": 7.0, "SPDNOW": 3.0, "TECH": "FCST", "ADVNR": 22, "ATCFID": "EP142026", "NAME": "NORBERT", "FTECH": "OFCL", "FCST_DTG": "2026-09-15 12:00:00", "RUN_DTG": "2026-09-16 06:26:52", "BASIN": "EP", "STMNR": 14, "CAT_ID": null, "CAT_DESC": null, "MSGID": "WTPZ24 KNHC 150231", "VALIDTIME": "2026-09-15 15:00:00" }, "geometry": { "type": "Point", "coordinates": [ -143.100006, 20.5 ] } },
{ "type": "Feature", "properties": { "ID": 90514, "LAT": 20.6, "LON": -145.1, "VMAX": 25.0, "MSLP": 1011.80975, "RMAX": 86.9966, "FSPD": 6.98247, "FDIR": 269.99997, "RENV": 250.0, "PENV": 1012.0, "VALIDT": 12, "DTG": "2026-09-16 00:00", "LATNOW": 20.4, "LONNOW": -142.4, "WINDNOW": 30.0, "DIRNOW": 7.0, "SPDNOW": 3.0, "TECH": "FCST", "ADVNR": 22, "ATCFID": "EP142026", "NAME": "NORBERT", "FTECH": "OFCL", "FCST_DTG": "2026-09-15 12:00:00", "RUN_DTG": "2026-09-16 06:26:52", "BASIN": "EP", "STMNR": 14, "CAT_ID": null, "CAT_DESC": null, "MSGID": "WTPZ24 KNHC 150231", "VALIDTIME": "2026-09-16 00:00:00" }, "geometry": { "type": "Point", "coordinates": [ -145.100006, 20.6 ] } },
{ "type": "Feature", "properties": { "ID": 90515, "LAT": 20.6, "LON": -148.0, "VMAX": 25.0, "MSLP": 1011.80975, "RMAX": 86.9966, "FSPD": 6.98247, "FDIR": 269.99997, "RENV": 250.0, "PENV": 1012.0, "VALIDT": 24, "DTG": "2026-09-16 12:00", "LATNOW": 20.4, "LONNOW": -142.4, "WINDNOW": 30.0, "DIRNOW": 7.0, "SPDNOW": 3.0, "TECH": "FCST", "ADVNR": 22, "ATCFID": "EP142026", "NAME": "NORBERT", "FTECH": "OFCL", "FCST_DTG": "2026-09-15 12:00:00", "RUN_DTG": "2026-09-16 06:26:52", "BASIN": "EP", "STMNR": 14, "CAT_ID": null, "CAT_DESC": null, "MSGID": "WTPZ24 KNHC 150231", "VALIDTIME": "2026-09-16 12:00:00" }, "geometry": { "type": "Point", "coordinates": [ -148.0, 20.6 ] } },
{ "type": "Feature", "properties": { "ID": 90512, "LAT": 20.4, "LON": -142.4, "VMAX": 30.0, "MSLP": 1007.0, "RMAX": 80.0, "FSPD": 6.82642, "FDIR": 278.66876, "RENV": 150.0, "PENV": 1010.0, "VALIDT": 0, "DTG": "2026-09-15 12:00", "LATNOW": 20.4, "LONNOW": -142.4, "WINDNOW": 30.0, "DIRNOW": 7.0, "SPDNOW": 3.0, "TECH": "TRAK", "ADVNR": 22, "ATCFID": "EP142026", "NAME": "NORBERT", "FTECH": "OFCL", "FCST_DTG": "2026-09-15 12:00:00", "RUN_DTG": "2026-09-16 06:26:52", "BASIN": "EP", "STMNR": 14, "CAT_ID": null, "CAT_DESC": null, "MSGID": "WTPZ24 KNHC 150231", "VALIDTIME": "2026-09-15 12:00:00" }, "geometry": { "type": "LineString", "coordinates": [ [ -110.6, 14.2 ], [ -111.3, 14.7 ], [ -113.0, 15.2 ], [ -113.9, 15.4 ], [ -114.6, 15.6 ], [ -116.1, 16.3 ], [ -117.3, 16.4 ], [ -118.6, 16.5 ], [ -119.9, 16.5 ], [ -121.3, 16.4 ], [ -122.7, 16.6 ], [ -124.1, 16.6 ], [ -125.2, 16.7 ], [ -126.1, 17.1 ], [ -127.0, 17.0 ], [ -127.8, 17.2 ], [ -129.1, 17.5 ], [ -130.0, 17.8 ], [ -131.2, 17.9 ], [ -132.1, 18.1 ], [ -133.4, 18.6 ], [ -134.6, 18.9 ], [ -135.8, 19.2 ], [ -137.1, 19.3 ], [ -138.6, 19.6 ], [ -139.9, 20.1 ], [ -141.1, 20.2 ], [ -142.4, 20.4 ] ] } },
{ "type": "Feature", "properties": { "ID": 90515, "LAT": 20.6, "LON": -148.0, "VMAX": 25.0, "MSLP": 1011.80975, "RMAX": 86.9966, "FSPD": 6.98247, "FDIR": 269.99997, "RENV": 250.0, "PENV": 1012.0, "VALIDT": 24, "DTG": "2026-09-16 12:00", "LATNOW": 20.4, "LONNOW": -142.4, "WINDNOW": 30.0, "DIRNOW": 7.0, "SPDNOW": 3.0, "TECH": "FCST", "ADVNR": 22, "ATCFID": "EP142026", "NAME": "NORBERT", "FTECH": "OFCL", "FCST_DTG": "2026-09-15 12:00:00", "RUN_DTG": "2026-09-16 06:26:52", "BASIN": "EP", "STMNR": 14, "CAT_ID": null, "CAT_DESC": null, "MSGID": "WTPZ24 KNHC 150231", "VALIDTIME": "2026-09-16 12:00:00" }, "geometry": { "type": "LineString", "coordinates": [ [ -142.4, 20.4 ], [ -143.1, 20.5 ], [ -145.1, 20.6 ], [ -148.0, 20.6 ] ] } }
]
}
