{
"type": "FeatureCollection",
"crs": { "type": "name", "properties": { "name": "urn:ogc:def:crs:OGC:1.3:CRS84" } },
"features": [
{ "type": "Feature", "properties": { "ID": 306644, "LAT": -12.4, "LON": 166.2, "VMAX": 20.0, "MSLP": 1012.95825, "RMAX": 45.0, "FSPD": 3.0577, "FDIR": 99.68582, "RENV": 500.0, "PENV": 1012.0, "VALIDT": 0, "DTG": "2025-02-22 06:00", "LATNOW": -23.0, "LONNOW": 172.5, "WINDNOW": 40.0, "DIRNOW": 1.0, "SPDNOW": 6.0, "TECH": "TRAK", "ADVNR": 8, "ATCFID": "SH212025", "NAME": "SERU", "FTECH": "JTWC", "FCST_DTG": "2025-02-28 00:00:00", "RUN_DTG": "2025-02-28 13:46:12", "BASIN": "SH", "STMNR": 21, "CAT_ID": null, "CAT_DESC": null, "MSGID": "WTPS53 PGTW 280300", "VALIDTIME": "2025-02-22 06:00:00" }, "geometry": { "type": "Point", "coordinates": [ 166.199997, -12.4 ] } },
{ "type": "Feature", "properties": { "ID": 306645, "LAT": -12.5, "LON": 166.8, "VMAX": 20.0, "MSLP": 1012.95825, "RMAX": 45.0, "FSPD": 3.05648, "FDIR": 99.68973, "RENV": 500.0, "PENV": 1012.0, "VALIDT": 0, "DTG": "2025-02-22 12:00", "LATNOW": -23.0, "LONNOW": 172.5, "WINDNOW": 40.0, "DIRNOW": 1.0, "SPDNOW": 6.0, "TECH": "TRAK", "ADVNR": 8, "ATCFID": "SH212025", "NAME": "SERU", "FTECH": "JTWC", "FCST_DTG": "2025-02-28 00:00:00", "RUN_DTG": "2025-02-28 13:46:12", "BASIN": "SH", "STMNR": 21, "CAT_ID": null, "CAT_DESC": null, "MSGID": "WTPS53 PGTW 280300", "VALIDTIME": "2025-02-22 12:00:00" }, "geometry": { "type": "Point", "coordinates": [ 166.800003, -12.5 ] } },
{ "type": "Feature", "properties": { "ID": 306646, "LAT": -12.6, "LON": 167.4, "VMAX": 20.0, "MSLP": 1012.95825, "RMAX": 45.0, "FSPD": 3.18433, "FDIR": 71.14883, "RENV": 500.0, "PENV": 1012.0, "VALIDT": 0, "DTG": "2025-02-22 18:00", "LATNOW": -23.0, "LONNOW": 172.5, "WINDNOW": 40.0, "DIRNOW": 1.0, "SPDNOW": 6.0, "TECH": "TRAK", "ADVNR": 8, "ATCFID": "SH212025", "NAME": "SERU", "FTECH": "JTWC", "FCST_DTG": "2025-02-28 00:00:00", "RUN_DTG": "2025-02-28 13:46:12", "BASIN": "SH", "STMNR": 21, "CAT_ID": null, "CAT_DESC": null, "MSGID": "WTPS53 PGTW 280300", "VALIDTIME": "2025-02-22 18:00:00" }, "geometry": { "type": "Point", "coordinates": [ 167.399994, -12.6 ] } },
{ "type": "Feature", "properties": { "ID": 306647, "LAT": -12.4, "LON": 168.0, "VMAX": 25.0, "MSLP": 1011.80975, "RMAX": 45.0, "FSPD": 3.01469, "FDIR": 90.0, "RENV": 500.0, "PENV": 1012.0, "VALIDT": 0, "DTG": "2025-02-23 00:00", "LATNOW": -23.0, "LONNOW": 172.5, "WINDNOW": 40.0, "DIRNOW": 1.0, "SPDNOW": 6.0, "TECH": "TRAK", "ADVNR": 8, "ATCFID": "SH212025", "NAME": "SERU", "FTECH": "JTWC", "FCST_DTG": "2025-02-28 00:00:00", "RUN_DTG": "2025-02-28 13:46:12", "BASIN": "SH", "STMNR": 21, "CAT_ID": null, "CAT_DESC": null, "MSGID": "WTPS53 PGTW 280300", "VALIDTIME": "2025-02-23 00:00:00" }, "geometry": { "type": "Point", "coordinates": [ 168.0, -12.4 ] } },
{ "type": "Feature", "properties": { "ID": 306648, "LAT": -12.4, "LON": 168.6, "VMAX": 25.0, "MSLP": 1011.80975, "RMAX": 45.0, "FSPD": 1.84133, "FDIR": 146.94681, "RENV": 500.0, "PENV": 1012.0, "VALIDT": 0, "DTG": "2025-02-23 06:00", "LATNOW": -23.0, "LONNOW": 172.5, "WINDNOW": 40.0, "DIRNOW": 1.0, "SPDNOW": 6.0, "TECH": "TRAK", "ADVNR": 8, "ATCFID": "SH212025", "NAME": "SERU", "FTECH": "JTWC", "FCST_DTG": "2025-02-28 00:00:00", "RUN_DTG": "2025-02-28 13:46:12", "BASIN": "SH", "STMNR": 21, "CAT_ID": null, "CAT_DESC": null, "MSGID": "WTPS53 PGTW 280300", "VALIDTIME": "2025-02-23 06:00:00" }, "geometry": { "type": "Point", "coordinates": [ 168.600006, -12.4 ] } },
{ "type": "Feature", "properties": { "ID": 306649, "LAT": -12.7, "LON": 168.8, "VMAX": 25.0, "MSLP": 1011.80975, "RMAX": 45.0, "FSPD": 7.55003, "FDIR": 152.34949, "RENV": 500.0, "PENV": 1012.0, "VALIDT": 0, "DTG": "2025-02-23 12:00", "LATNOW": -23.0, "LONNOW": 172.5, "WINDNOW": 40.0, "DIRNOW": 1.0, "SPDNOW": 6.0, "TECH": "TRAK", "ADVNR": 8, "ATCFID": "SH212025", "NAME": "SERU", "FTECH": "JTWC", "FCST_DTG": "2025-02-28 00:00:00", "RUN_DTG": "2025-02-28 13:46:12", "BASIN": "SH", "STMNR": 21, "CAT_ID": null, "CAT_DESC": null, "MSGID": "WTPS53 PGTW 280300", "VALIDTIME": "2025-02-23 12:00:00" }, "geometry": { "type": "Point", "coordinates": [ 168.800003, -12.7 ] } },
{ "type": "Feature", "properties": { "ID": 306650, "LAT": -14.0, "LON": 169.5, "VMAX": 30.0, "MSLP": 1010.40607, "RMAX": 44.21983, "FSPD": 8.68256, "FDIR": 152.71707, "RENV": 500.0, "PENV": 1012.0, "VALIDT": 0, "DTG": "2025-02-23 18:00", "LATNOW": -23.0, "LONNOW": 172.5, "WINDNOW": 40.0, "DIRNOW": 1.0, "SPDNOW": 6.0, "TECH": "TRAK", "ADVNR": 8, "ATCFID": "SH212025", "NAME": "SERU", "FTECH": "JTWC", "FCST_DTG": "2025-02-28 00:00:00", "RUN_DTG": "2025-02-28 13:46:12", "BASIN": "SH", "STMNR": 21, "CAT_ID": null, "CAT_DESC": null, "MSGID": "WTPS53 PGTW 280300", "VALIDTIME": "2025-02-23 18:00:00" }, "geometry": { "type": "Point", "coordinates": [ 169.5, -14.0 ] } },
{ "type": "Feature", "properties": { "ID": 306651, "LAT": -15.5, "LON": 170.3, "VMAX": 30.0, "MSLP": 1010.40607, "RMAX": 44.21983, "FSPD": 1.62087, "FDIR": 162.20612, "RENV": 500.0, "PENV": 1012.0, "VALIDT": 0, "DTG": "2025-02-24 00:00", "LATNOW": -23.0, "LONNOW": 172.5, "WINDNOW": 40.0, "DIRNOW": 1.0, "SPDNOW": 6.0, "TECH": "TRAK", "ADVNR": 8, "ATCFID": "SH212025", "NAME": "SERU", "FTECH": "JTWC", "FCST_DTG": "2025-02-28 00:00:00", "RUN_DTG": "2025-02-28 13:46:12", "BASIN": "SH", "STMNR": 21, "CAT_ID": null, "CAT_DESC": null, "MSGID": "WTPS53 PGTW 280300", "VALIDTIME": "2025-02-24 00:00:00" }, "geometry": { "type": "Point", "coordinates": [ 170.300003, -15.5 ] } },
{ "type": "Feature", "properties": { "ID": 306652, "LAT": -15.8, "LON": 170.4, "VMAX": 30.0, "MSLP": 1010.40607, "RMAX": 44.21983, "FSPD": 1.62067, "FDIR": 162.22824, "RENV": 500.0, "PENV": 1012.0, "VALIDT": 0, "DTG": "2025-02-24 06:00", "LATNOW": -23.0, "LONNOW": 172.5, "WINDNOW": 40.0, "DIRNOW": 1.0, "SPDNOW": 6.0, "TECH": "TRAK", "ADVNR": 8, "ATCFID": "SH212025", "NAME": "SERU", "FTECH": "JTWC", "FCST_DTG": "2025-02-28 00:00:00", "RUN_DTG": "2025-02-28 13:46:12", "BASIN": "SH", "STMNR": 21, "CAT_ID": null, "CAT_DESC": null, "MSGID": "WTPS53 PGTW 280300", "VALIDTIME": "2025-02-24 06:00:00" }, "geometry": { "type": "Point", "coordinates": [ 170.399994, -15.8 ] } },
{ "type": "Feature", "properties": { "ID": 306653, "LAT": -16.1, "LON": 170.5, "VMAX": 35.0, "MSLP": 1008.74713, "RMAX": 42.69135, "FSPD": 1.83236, "FDIR": 147.3797, "RENV": 500.0, "PENV": 1012.0, "VALIDT": 0, "DTG": "2025-02-24 12:00", "LATNOW": -23.0, "LONNOW": 172.5, "WINDNOW": 40.0, "DIRNOW": 1.0, "SPDNOW": 6.0, "TECH": "TRAK", "ADVNR": 8, "ATCFID": "SH212025", "NAME": "SERU", "FTECH": "JTWC", "FCST_DTG": "2025-02-28 00:00:00", "RUN_DTG": "2025-02-28 13:46:12", "BASIN": "SH", "STMNR": 21, "CAT_ID": null, "CAT_DESC": null, "MSGID": "WTPS53 PGTW 280300", "VALIDTIME": "2025-02-24 12:00:00" }, "geometry": { "type": "Point", "coordinates": [ 170.5, -16.1 ] } },
{ "type": "Feature", "properties": { "ID": 306654, "LAT": -16.4, "LON": 170.7, "VMAX": 40.0, "MSLP": 983.0, "RMAX": 30.0, "FSPD": 2.2818, "FDIR": 154.39835, "RENV": 125.0, "PENV": 1004.0, "VALIDT": 0, "DTG": "2025-02-24 18:00", "LATNOW": -23.0, "LONNOW": 172.5, "WINDNOW": 40.0, "DIRNOW": 1.0, "SPDNOW": 6.0, "TECH": "TRAK", "ADVNR": 8, "ATCFID": "SH212025", "NAME": "SERU", "FTECH": "JTWC", "FCST_DTG": "2025-02-28 00:00:00", "RUN_DTG": "2025-02-28 13:46:12", "BASIN": "SH", "STMNR": 21, "CAT_ID": null, "CAT_DESC": null, "MSGID": "WTPS53 PGTW 280300", "VALIDTIME": "2025-02-24 18:00:00" }, "geometry": { "type": "Point", "coordinates": [ 170.699997, -16.4 ] } },
{ "type": "Feature", "properties": { "ID": 306655, "LAT": -16.8, "LON": 170.9, "VMAX": 45.0, "MSLP": 983.0, "RMAX": 30.0, "FSPD": 1.02889, "FDIR": 179.99997, "RENV": 125.0, "PENV": 1004.0, "VALIDT": 0, "DTG": "2025-02-25 00:00", "LATNOW": -23.0, "LONNOW": 172.5, "WINDNOW": 40.0, "DIRNOW": 1.0, "SPDNOW": 6.0, "TECH": "TRAK", "ADVNR": 8, "ATCFID": "SH212025", "NAME": "SERU", "FTECH": "JTWC", "FCST_DTG": "2025-02-28 00:00:00", "RUN_DTG": "2025-02-28 13:46:12", "BASIN": "SH", "STMNR": 21, "CAT_ID": null, "CAT_DESC": null, "MSGID": "WTPS53 PGTW 280300", "VALIDTIME": "2025-02-25 00:00:00" }, "geometry": { "type": "Point", "coordinates": [ 170.899994, -16.799999 ] } },
{ "type": "Feature", "properties": { "ID": 306656, "LAT": -17.0, "LON": 170.9, "VMAX": 60.0, "MSLP": 980.0, "RMAX": 20.0, "FSPD": 4.37112, "FDIR": 160.31049, "RENV": 260.0, "PENV": 1008.0, "VALIDT": 0, "DTG": "2025-02-25 06:00", "LATNOW": -23.0, "LONNOW": 172.5, "WINDNOW": 40.0, "DIRNOW": 1.0, "SPDNOW": 6.0, "TECH": "TRAK", "ADVNR": 8, "ATCFID": "SH212025", "NAME": "SERU", "FTECH": "JTWC", "FCST_DTG": "2025-02-28 00:00:00", "RUN_DTG": "2025-02-28 13:46:12", "BASIN": "SH", "STMNR": 21, "CAT_ID": null, "CAT_DESC": null, "MSGID": "WTPS53 PGTW 280300", "VALIDTIME": "2025-02-25 06:00:00" }, "geometry": { "type": "Point", "coordinates": [ 170.899994, -17.0 ] } },
{ "type": "Feature", "properties": { "ID": 306657, "LAT": -17.8, "LON": 171.2, "VMAX": 65.0, "MSLP": 986.0, "RMAX": 25.0, "FSPD": 1.61909, "FDIR": 162.40475, "RENV": 260.0, "PENV": 1006.0, "VALIDT": 0, "DTG": "2025-02-25 12:00", "LATNOW": -23.0, "LONNOW": 172.5, "WINDNOW": 40.0, "DIRNOW": 1.0, "SPDNOW": 6.0, "TECH": "TRAK", "ADVNR": 8, "ATCFID": "SH212025", "NAME": "SERU", "FTECH": "JTWC", "FCST_DTG": "2025-02-28 00:00:00", "RUN_DTG": "2025-02-28 13:46:12", "BASIN": "SH", "STMNR": 21, "CAT_ID": null, "CAT_DESC": null, "MSGID": "WTPS53 PGTW 280300", "VALIDTIME": "2025-02-25 12:00:00" }, "geometry": { "type": "Point", "coordinates": [ 171.199997, -17.799999 ] } },
{ "type": "Feature", "properties": { "ID": 306658, "LAT": -18.1, "LON": 171.3, "VMAX": 55.0, "MSLP": 985.0, "RMAX": 25.0, "FSPD": 9.12412, "FDIR": 212.24828, "RENV": 250.0, "PENV": 1008.0, "VALIDT": 0, "DTG": "2025-02-25 18:00", "LATNOW": -23.0, "LONNOW": 172.5, "WINDNOW": 40.0, "DIRNOW": 1.0, "SPDNOW": 6.0, "TECH": "TRAK", "ADVNR": 8, "ATCFID": "SH212025", "NAME": "SERU", "FTECH": "JTWC", "FCST_DTG": "2025-02-28 00:00:00", "RUN_DTG": "2025-02-28 13:46:12", "BASIN": "SH", "STMNR": 21, "CAT_ID": null, "CAT_DESC": null, "MSGID": "WTPS53 PGTW 280300", "VALIDTIME": "2025-02-25 18:00:00" }, "geometry": { "type": "Point", "coordinates": [ 171.300003, -18.1 ] } },
{ "type": "Feature", "properties": { "ID": 306659, "LAT": -19.6, "LON": 170.3, "VMAX": 55.0, "MSLP": 985.0, "RMAX": 25.0, "FSPD": 5.25957, "FDIR": 113.03189, "RENV": 250.0, "PENV": 1008.0, "VALIDT": 0, "DTG": "2025-02-26 00:00", "LATNOW": -23.0, "LONNOW": 172.5, "WINDNOW": 40.0, "DIRNOW": 1.0, "SPDNOW": 6.0, "TECH": "TRAK", "ADVNR": 8, "ATCFID": "SH212025", "NAME": "SERU", "FTECH": "JTWC", "FCST_DTG": "2025-02-28 00:00:00", "RUN_DTG": "2025-02-28 13:46:12", "BASIN": "SH", "STMNR": 21, "CAT_ID": null, "CAT_DESC": null, "MSGID": "WTPS53 PGTW 280300", "VALIDTIME": "2025-02-26 00:00:00" }, "geometry": { "type": "Point", "coordinates": [ 170.300003, -19.6 ] } },
{ "type": "Feature", "properties": { "ID": 306660, "LAT": -20.0, "LON": 171.3, "VMAX": 55.0, "MSLP": 980.0, "RMAX": 25.0, "FSPD": 5.3226, "FDIR": 219.35579, "RENV": 260.0, "PENV": 1008.0, "VALIDT": 0, "DTG": "2025-02-26 06:00", "LATNOW": -23.0, "LONNOW": 172.5, "WINDNOW": 40.0, "DIRNOW": 1.0, "SPDNOW": 6.0, "TECH": "TRAK", "ADVNR": 8, "ATCFID": "SH212025", "NAME": "SERU", "FTECH": "JTWC", "FCST_DTG": "2025-02-28 00:00:00", "RUN_DTG": "2025-02-28 13:46:12", "BASIN": "SH", "STMNR": 21, "CAT_ID": null, "CAT_DESC": null, "MSGID": "WTPS53 PGTW 280300", "VALIDTIME": "2025-02-26 06:00:00" }, "geometry": { "type": "Point", "coordinates": [ 171.300003, -20.0 ] } },
{ "type": "Feature", "properties": { "ID": 306661, "LAT": -20.8, "LON": 170.6, "VMAX": 50.0, "MSLP": 992.0, "RMAX": 25.0, "FSPD": 4.61031, "FDIR": 141.36139, "RENV": 260.0, "PENV": 1008.0, "VALIDT": 0, "DTG": "2025-02-26 12:00", "LATNOW": -23.0, "LONNOW": 172.5, "WINDNOW": 40.0, "DIRNOW": 1.0, "SPDNOW": 6.0, "TECH": "TRAK", "ADVNR": 8, "ATCFID": "SH212025", "NAME": "SERU", "FTECH": "JTWC", "FCST_DTG": "2025-02-28 00:00:00", "RUN_DTG": "2025-02-28 13:46:12", "BASIN": "SH", "STMNR": 21, "CAT_ID": null, "CAT_DESC": null, "MSGID": "WTPS53 PGTW 280300", "VALIDTIME": "2025-02-26 12:00:00" }, "geometry": { "type": "Point", "coordinates": [ 170.600006, -20.799999 ] } },
{ "type": "Feature", "properties": { "ID": 306662, "LAT": -21.5, "LON": 171.2, "VMAX": 50.0, "MSLP": 994.0, "RMAX": 35.0, "FSPD": 2.26899, "FDIR": 204.91765, "RENV": 260.0, "PENV": 1008.0, "VALIDT": 0, "DTG": "2025-02-26 18:00", "LATNOW": -23.0, "LONNOW": 172.5, "WINDNOW": 40.0, "DIRNOW": 1.0, "SPDNOW": 6.0, "TECH": "TRAK", "ADVNR": 8, "ATCFID": "SH212025", "NAME": "SERU", "FTECH": "JTWC", "FCST_DTG": "2025-02-28 00:00:00", "RUN_DTG": "2025-02-28 13:46:12", "BASIN": "SH", "STMNR": 21, "CAT_ID": null, "CAT_DESC": null, "MSGID": "WTPS53 PGTW 280300", "VALIDTIME": "2025-02-26 18:00:00" }, "geometry": { "type": "Point", "coordinates": [ 171.199997, -21.5 ] } },
{ "type": "Feature", "properties": { "ID": 306663, "LAT": -21.9, "LON": 171.0, "VMAX": 45.0, "MSLP": 993.0, "RMAX": 35.0, "FSPD": 1.13409, "FDIR": 155.12665, "RENV": 225.0, "PENV": 1007.0, "VALIDT": 0, "DTG": "2025-02-27 00:00", "LATNOW": -23.0, "LONNOW": 172.5, "WINDNOW": 40.0, "DIRNOW": 1.0, "SPDNOW": 6.0, "TECH": "TRAK", "ADVNR": 8, "ATCFID": "SH212025", "NAME": "SERU", "FTECH": "JTWC", "FCST_DTG": "2025-02-28 00:00:00", "RUN_DTG": "2025-02-28 13:46:12", "BASIN": "SH", "STMNR": 21, "CAT_ID": null, "CAT_DESC": null, "MSGID": "WTPS53 PGTW 280300", "VALIDTIME": "2025-02-27 00:00:00" }, "geometry": { "type": "Point", "coordinates": [ 171.0, -21.9 ] } },
{ "type": "Feature", "properties": { "ID": 306664, "LAT": -22.1, "LON": 171.1, "VMAX": 45.0, "MSLP": 994.0, "RMAX": 35.0, "FSPD": 5.93591, "FDIR": 133.89432, "RENV": 235.0, "PENV": 1007.0, "VALIDT": 0, "DTG": "2025-02-27 06:00", "LATNOW": -23.0, "LONNOW": 172.5, "WINDNOW": 40.0, "DIRNOW": 1.0, "SPDNOW": 6.0, "TECH": "TRAK", "ADVNR": 8, "ATCFID": "SH212025", "NAME": "SERU", "FTECH": "JTWC", "FCST_DTG": "2025-02-28 00:00:00", "RUN_DTG": "2025-02-28 13:46:12", "BASIN": "SH", "STMNR": 21, "CAT_ID": null, "CAT_DESC": null, "MSGID": "WTPS53 PGTW 280300", "VALIDTIME": "2025-02-27 06:00:00" }, "geometry": { "type": "Point", "coordinates": [ 171.100006, -22.1 ] } },
{ "type": "Feature", "properties": { "ID": 306665, "LAT": -22.9, "LON": 172.0, "VMAX": 45.0, "MSLP": 992.0, "RMAX": 45.0, "FSPD": 1.75411, "FDIR": 125.91333, "RENV": 190.0, "PENV": 1006.0, "VALIDT": 0, "DTG": "2025-02-27 12:00", "LATNOW": -23.0, "LONNOW": 172.5, "WINDNOW": 40.0, "DIRNOW": 1.0, "SPDNOW": 6.0, "TECH": "TRAK", "ADVNR": 8, "ATCFID": "SH212025", "NAME": "SERU", "FTECH": "JTWC", "FCST_DTG": "2025-02-28 00:00:00", "RUN_DTG": "2025-02-28 13:46:12", "BASIN": "SH", "STMNR": 21, "CAT_ID": null, "CAT_DESC": null, "MSGID": "WTPS53 PGTW 280300", "VALIDTIME": "2025-02-27 12:00:00" }, "geometry": { "type": "Point", "coordinates": [ 172.0, -22.9 ] } },
{ "type": "Feature", "properties": { "ID": 306666, "LAT": -23.1, "LON": 172.3, "VMAX": 40.0, "MSLP": 996.0, "RMAX": 35.0, "FSPD": 1.07748, "FDIR": 61.48068, "RENV": 290.0, "PENV": 1010.0, "VALIDT": 0, "DTG": "2025-02-27 18:00", "LATNOW": -23.0, "LONNOW": 172.5, "WINDNOW": 40.0, "DIRNOW": 1.0, "SPDNOW": 6.0, "TECH": "TRAK", "ADVNR": 8, "ATCFID": "SH212025", "NAME": "SERU", "FTECH": "JTWC", "FCST_DTG": "2025-02-28 00:00:00", "RUN_DTG": "2025-02-28 13:46:12", "BASIN": "SH", "STMNR": 21, "CAT_ID": null, "CAT_DESC": null, "MSGID": "WTPS53 PGTW 280300", "VALIDTIME": "2025-02-27 18:00:00" }, "geometry": { "type": "Point", "coordinates": [ 172.300003, -23.1 ] } },
{ "type": "Feature", "properties": { "ID": 306667, "LAT": -23.0, "LON": 172.5, "VMAX": 40.0, "MSLP": 996.0, "RMAX": 40.0, "FSPD": 1.44324, "FDIR": 100.26642, "RENV": 170.0, "PENV": 1007.0, "VALIDT": 0, "DTG": "2025-02-28 00:00", "LATNOW": -23.0, "LONNOW": 172.5, "WINDNOW": 40.0, "DIRNOW": 1.0, "SPDNOW": 6.0, "TECH": "TRAK", "ADVNR": 8, "ATCFID": "SH212025", "NAME": "SERU", "FTECH": "JTWC", "FCST_DTG": "2025-02-28 00:00:00", "RUN_DTG": "2025-02-28 13:46:12", "BASIN": "SH", "STMNR": 21, "CAT_ID": null, "CAT_DESC": null, "MSGID": "WTPS53 PGTW 280300", "VALIDTIME": "2025-02-28 00:00:00" }, "geometry": { "type": "Point", "coordinates": [ 172.5, -23.0 ] } },
{ "type": "Feature", "properties": { "ID": 306668, "LAT": -23.1, "LON": 173.1, "VMAX": 35.0, "MSLP": 1008.74713, "RMAX": 47.81013, "FSPD": 1.41957, "FDIR": 90.0, "RENV": 180.0, "PENV": 1012.0, "VALIDT": 12, "DTG": "2025-02-28 12:00", "LATNOW": -23.0, "LONNOW": 172.5, "WINDNOW": 40.0, "DIRNOW": 1.0, "SPDNOW": 6.0, "TECH": "FCST", "ADVNR": 8, "ATCFID": "SH212025", "NAME": "SERU", "FTECH": "JTWC", "FCST_DTG": "2025-02-28 00:00:00", "RUN_DTG": "2025-02-28 13:46:12", "BASIN": "SH", "STMNR": 21, "CAT_ID": null, "CAT_DESC": null, "MSGID": "WTPS53 PGTW 280300", "VALIDTIME": "2025-02-28 12:00:00" }, "geometry": { "type": "Point", "coordinates": [ 173.100006, -23.1 ] } },
{ "type": "Feature", "properties": { "ID": 306669, "LAT": -23.1, "LON": 173.7, "VMAX": 30.0, "MSLP": 1010.40607, "RMAX": 49.52188, "FSPD": 1.41957, "FDIR": 90.0, "RENV": 250.0, "PENV": 1012.0, "VALIDT": 24, "DTG": "2025-03-01 00:00", "LATNOW": -23.0, "LONNOW": 172.5, "WINDNOW": 40.0, "DIRNOW": 1.0, "SPDNOW": 6.0, "TECH": "FCST", "ADVNR": 8, "ATCFID": "SH212025", "NAME": "SERU", "FTECH": "JTWC", "FCST_DTG": "2025-02-28 00:00:00", "RUN_DTG": "2025-02-28 13:46:12", "BASIN": "SH", "STMNR": 21, "CAT_ID": null, "CAT_DESC": null, "MSGID": "WTPS53 PGTW 280300", "VALIDTIME": "2025-03-01 00:00:00" }, "geometry": { "type": "Point", "coordinates": [ 173.699997, -23.1 ] } },
{ "type": "Feature", "properties": { "ID": 306667, "LAT": -23.0, "LON": 172.5, "VMAX": 40.0, "MSLP": 996.0, "RMAX": 40.0, "FSPD": 1.44324, "FDIR": 100.26642, "RENV": 170.0, "PENV": 1007.0, "VALIDT": 0, "DTG": "2025-02-28 00:00", "LATNOW": -23.0, "LONNOW": 172.5, "WINDNOW": 40.0, "DIRNOW": 1.0, "SPDNOW": 6.0, "TECH": "TRAK", "ADVNR": 8, "ATCFID": "SH212025", "NAME": "SERU", "FTECH": "JTWC", "FCST_DTG": "2025-02-28 00:00:00", "RUN_DTG": "2025-02-28 13:46:12", "BASIN": "SH", "STMNR": 21, "CAT_ID": null, "CAT_DESC": null, "MSGID": "WTPS53 PGTW 280300", "VALIDTIME": "2025-02-28 00:00:00" }, "geometry": { "type": "LineString", "coordinates": [ [ 166.2, -12.4 ], [ 166.8, -12.5 ], [ 167.4, -12.6 ], [ 168.0, -12.4 ], [ 168.6, -12.4 ], [ 168.8, -12.7 ], [ 169.5, -14.0 ], [ 170.3, -15.5 ], [ 170.4, -15.8 ], [ 170.5, -16.1 ], [ 170.7, -16.4 ], [ 170.9, -16.8 ], [ 170.9, -17.0 ], [ 171.2, -17.8 ], [ 171.3, -18.1 ], [ 170.3, -19.6 ], [ 171.3, -20.0 ], [ 170.6, -20.8 ], [ 171.2, -21.5 ], [ 171.0, -21.9 ], [ 171.1, -22.1 ], [ 172.0, -22.9 ], [ 172.3, -23.1 ], [ 172.5, -23.0 ] ] } },
{ "type": "Feature", "properties": { "ID": 306669, "LAT": -23.1, "LON": 173.7, "VMAX": 30.0, "MSLP": 1010.40607, "RMAX": 49.52188, "FSPD": 1.41957, "FDIR": 90.0, "RENV": 250.0, "PENV": 1012.0, "VALIDT": 24, "DTG": "2025-03-01 00:00", "LATNOW": -23.0, "LONNOW": 172.5, "WINDNOW": 40.0, "DIRNOW": 1.0, "SPDNOW": 6.0, "TECH": "FCST", "ADVNR": 8, "ATCFID": "SH212025", "NAME": "SERU", "FTECH": "JTWC", "FCST_DTG": "2025-02-28 00:00:00", "RUN_DTG": "2025-02-28 13:46:12", "BASIN": "SH", "STMNR": 21, "CAT_ID": null, "CAT_DESC": null, "MSGID": "WTPS53 PGTW 280300", "VALIDTIME": "2025-03-01 00:00:00" }, "geometry": { "type": "LineString", "coordinates": [ [ 172.5, -23.0 ], [ 173.1, -23.1 ], [ 173.7, -23.1 ] ] } }
]
}
