{
"type": "FeatureCollection",
"crs": { "type": "name", "properties": { "name": "urn:ogc:def:crs:OGC:1.3:CRS84" } },
"features": [
{ "type": "Feature", "properties": { "ID": 14186, "LAT": 25.3, "LON": 129.0, "VMAX": 15.0, "MSLP": 1013.8515, "RMAX": 40.0, "FSPD": 2.9721, "FDIR": 69.74591, "RENV": 500.0, "PENV": 1012.0, "VALIDT": 0, "DTG": "2025-07-30 18:00", "LATNOW": 40.2, "LONNOW": 162.2, "WINDNOW": 25.0, "DIRNOW": 9.0, "SPDNOW": 1.0, "TECH": "TRAK", "ADVNR": 17, "ATCFID": "WP132025", "NAME": "BAILU", "FTECH": "JTWC", "FCST_DTG": "2025-08-06 00:00:00", "RUN_DTG": "2025-08-06 15:37:32", "BASIN": "WP", "STMNR": 13, "CAT_ID": null, "CAT_DESC": null, "MSGID": "WTPN52 PGTW 060300", "VALIDTIME": "2025-07-30 18:00:00" }, "geometry": { "type": "Point", "coordinates": [ 129.0, 25.299999 ] } },
{ "type": "Feature", "properties": { "ID": 14187, "LAT": 25.5, "LON": 129.6, "VMAX": 15.0, "MSLP": 1013.8515, "RMAX": 40.0, "FSPD": 2.53765, "FDIR": 66.08066, "RENV": 500.0, "PENV": 1012.0, "VALIDT": 0, "DTG": "2025-07-31 00:00", "LATNOW": 40.2, "LONNOW": 162.2, "WINDNOW": 25.0, "DIRNOW": 9.0, "SPDNOW": 1.0, "TECH": "TRAK", "ADVNR": 17, "ATCFID": "WP132025", "NAME": "BAILU", "FTECH": "JTWC", "FCST_DTG": "2025-08-06 00:00:00", "RUN_DTG": "2025-08-06 15:37:32", "BASIN": "WP", "STMNR": 13, "CAT_ID": null, "CAT_DESC": null, "MSGID": "WTPN52 PGTW 060300", "VALIDTIME": "2025-07-31 00:00:00" }, "geometry": { "type": "Point", "coordinates": [ 129.600006, 25.5 ] } },
{ "type": "Feature", "properties": { "ID": 14188, "LAT": 25.7, "LON": 130.1, "VMAX": 15.0, "MSLP": 1013.8515, "RMAX": 40.0, "FSPD": 2.82731, "FDIR": 79.51648, "RENV": 500.0, "PENV": 1012.0, "VALIDT": 0, "DTG": "2025-07-31 06:00", "LATNOW": 40.2, "LONNOW": 162.2, "WINDNOW": 25.0, "DIRNOW": 9.0, "SPDNOW": 1.0, "TECH": "TRAK", "ADVNR": 17, "ATCFID": "WP132025", "NAME": "BAILU", "FTECH": "JTWC", "FCST_DTG": "2025-08-06 00:00:00", "RUN_DTG": "2025-08-06 15:37:32", "BASIN": "WP", "STMNR": 13, "CAT_ID": null, "CAT_DESC": null, "MSGID": "WTPN52 PGTW 060300", "VALIDTIME": "2025-07-31 06:00:00" }, "geometry": { "type": "Point", "coordinates": [ 130.100006, 25.700001 ] } },
{ "type": "Feature", "properties": { "ID": 14189, "LAT": 25.8, "LON": 130.7, "VMAX": 15.0, "MSLP": 1013.8515, "RMAX": 40.0, "FSPD": 4.16852, "FDIR": 90.0, "RENV": 500.0, "PENV": 1012.0, "VALIDT": 0, "DTG": "2025-07-31 12:00", "LATNOW": 40.2, "LONNOW": 162.2, "WINDNOW": 25.0, "DIRNOW": 9.0, "SPDNOW": 1.0, "TECH": "TRAK", "ADVNR": 17, "ATCFID": "WP132025", "NAME": "BAILU", "FTECH": "JTWC", "FCST_DTG": "2025-08-06 00:00:00", "RUN_DTG": "2025-08-06 15:37:32", "BASIN": "WP", "STMNR": 13, "CAT_ID": null, "CAT_DESC": null, "MSGID": "WTPN52 PGTW 060300", "VALIDTIME": "2025-07-31 12:00:00" }, "geometry": { "type": "Point", "coordinates": [ 130.699997, 25.799999 ] } },
{ "type": "Feature", "properties": { "ID": 14190, "LAT": 25.8, "LON": 131.6, "VMAX": 15.0, "MSLP": 1013.8515, "RMAX": 40.0, "FSPD": 3.59442, "FDIR": 115.42743, "RENV": 500.0, "PENV": 1012.0, "VALIDT": 0, "DTG": "2025-07-31 18:00", "LATNOW": 40.2, "LONNOW": 162.2, "WINDNOW": 25.0, "DIRNOW": 9.0, "SPDNOW": 1.0, "TECH": "TRAK", "ADVNR": 17, "ATCFID": "WP132025", "NAME": "BAILU", "FTECH": "JTWC", "FCST_DTG": "2025-08-06 00:00:00", "RUN_DTG": "2025-08-06 15:37:32", "BASIN": "WP", "STMNR": 13, "CAT_ID": null, "CAT_DESC": null, "MSGID": "WTPN52 PGTW 060300", "VALIDTIME": "2025-07-31 18:00:00" }, "geometry": { "type": "Point", "coordinates": [ 131.600006, 25.799999 ] } },
{ "type": "Feature", "properties": { "ID": 14191, "LAT": 25.5, "LON": 132.3, "VMAX": 15.0, "MSLP": 1013.8515, "RMAX": 40.0, "FSPD": 8.35795, "FDIR": 90.0, "RENV": 500.0, "PENV": 1012.0, "VALIDT": 0, "DTG": "2025-08-01 00:00", "LATNOW": 40.2, "LONNOW": 162.2, "WINDNOW": 25.0, "DIRNOW": 9.0, "SPDNOW": 1.0, "TECH": "TRAK", "ADVNR": 17, "ATCFID": "WP132025", "NAME": "BAILU", "FTECH": "JTWC", "FCST_DTG": "2025-08-06 00:00:00", "RUN_DTG": "2025-08-06 15:37:32", "BASIN": "WP", "STMNR": 13, "CAT_ID": null, "CAT_DESC": null, "MSGID": "WTPN52 PGTW 060300", "VALIDTIME": "2025-08-01 00:00:00" }, "geometry": { "type": "Point", "coordinates": [ 132.300003, 25.5 ] } },
{ "type": "Feature", "properties": { "ID": 14192, "LAT": 25.5, "LON": 134.1, "VMAX": 15.0, "MSLP": 1013.8515, "RMAX": 40.0, "FSPD": 8.28643, "FDIR": 71.91583, "RENV": 500.0, "PENV": 1012.0, "VALIDT": 0, "DTG": "2025-08-01 06:00", "LATNOW": 40.2, "LONNOW": 162.2, "WINDNOW": 25.0, "DIRNOW": 9.0, "SPDNOW": 1.0, "TECH": "TRAK", "ADVNR": 17, "ATCFID": "WP132025", "NAME": "BAILU", "FTECH": "JTWC", "FCST_DTG": "2025-08-06 00:00:00", "RUN_DTG": "2025-08-06 15:37:32", "BASIN": "WP", "STMNR": 13, "CAT_ID": null, "CAT_DESC": null, "MSGID": "WTPN52 PGTW 060300", "VALIDTIME": "2025-08-01 06:00:00" }, "geometry": { "type": "Point", "coordinates": [ 134.100006, 25.5 ] } },
{ "type": "Feature", "properties": { "ID": 14193, "LAT": 26.0, "LON": 135.8, "VMAX": 20.0, "MSLP": 1012.95825, "RMAX": 45.0, "FSPD": 5.39203, "FDIR": 30.83185, "RENV": 500.0, "PENV": 1012.0, "VALIDT": 0, "DTG": "2025-08-01 12:00", "LATNOW": 40.2, "LONNOW": 162.2, "WINDNOW": 25.0, "DIRNOW": 9.0, "SPDNOW": 1.0, "TECH": "TRAK", "ADVNR": 17, "ATCFID": "WP132025", "NAME": "BAILU", "FTECH": "JTWC", "FCST_DTG": "2025-08-06 00:00:00", "RUN_DTG": "2025-08-06 15:37:32", "BASIN": "WP", "STMNR": 13, "CAT_ID": null, "CAT_DESC": null, "MSGID": "WTPN52 PGTW 060300", "VALIDTIME": "2025-08-01 12:00:00" }, "geometry": { "type": "Point", "coordinates": [ 135.800003, 26.0 ] } },
{ "type": "Feature", "properties": { "ID": 14194, "LAT": 26.9, "LON": 136.4, "VMAX": 20.0, "MSLP": 1012.95825, "RMAX": 45.0, "FSPD": 3.07859, "FDIR": 48.05521, "RENV": 500.0, "PENV": 1012.0, "VALIDT": 0, "DTG": "2025-08-01 18:00", "LATNOW": 40.2, "LONNOW": 162.2, "WINDNOW": 25.0, "DIRNOW": 9.0, "SPDNOW": 1.0, "TECH": "TRAK", "ADVNR": 17, "ATCFID": "WP132025", "NAME": "BAILU", "FTECH": "JTWC", "FCST_DTG": "2025-08-06 00:00:00", "RUN_DTG": "2025-08-06 15:37:32", "BASIN": "WP", "STMNR": 13, "CAT_ID": null, "CAT_DESC": null, "MSGID": "WTPN52 PGTW 060300", "VALIDTIME": "2025-08-01 18:00:00" }, "geometry": { "type": "Point", "coordinates": [ 136.399994, 26.9 ] } },
{ "type": "Feature", "properties": { "ID": 14195, "LAT": 27.3, "LON": 136.9, "VMAX": 25.0, "MSLP": 998.0, "RMAX": 80.0, "FSPD": 8.54294, "FDIR": 65.06873, "RENV": 170.0, "PENV": 1000.0, "VALIDT": 0, "DTG": "2025-08-02 00:00", "LATNOW": 40.2, "LONNOW": 162.2, "WINDNOW": 25.0, "DIRNOW": 9.0, "SPDNOW": 1.0, "TECH": "TRAK", "ADVNR": 17, "ATCFID": "WP132025", "NAME": "BAILU", "FTECH": "JTWC", "FCST_DTG": "2025-08-06 00:00:00", "RUN_DTG": "2025-08-06 15:37:32", "BASIN": "WP", "STMNR": 13, "CAT_ID": null, "CAT_DESC": null, "MSGID": "WTPN52 PGTW 060300", "VALIDTIME": "2025-08-02 00:00:00" }, "geometry": { "type": "Point", "coordinates": [ 136.899994, 27.299999 ] } },
{ "type": "Feature", "properties": { "ID": 14196, "LAT": 28.0, "LON": 138.6, "VMAX": 30.0, "MSLP": 998.0, "RMAX": 80.0, "FSPD": 9.38479, "FDIR": 28.70914, "RENV": 170.0, "PENV": 1000.0, "VALIDT": 0, "DTG": "2025-08-02 06:00", "LATNOW": 40.2, "LONNOW": 162.2, "WINDNOW": 25.0, "DIRNOW": 9.0, "SPDNOW": 1.0, "TECH": "TRAK", "ADVNR": 17, "ATCFID": "WP132025", "NAME": "BAILU", "FTECH": "JTWC", "FCST_DTG": "2025-08-06 00:00:00", "RUN_DTG": "2025-08-06 15:37:32", "BASIN": "WP", "STMNR": 13, "CAT_ID": null, "CAT_DESC": null, "MSGID": "WTPN52 PGTW 060300", "VALIDTIME": "2025-08-02 06:00:00" }, "geometry": { "type": "Point", "coordinates": [ 138.600006, 28.0 ] } },
{ "type": "Feature", "properties": { "ID": 14197, "LAT": 29.6, "LON": 139.6, "VMAX": 30.0, "MSLP": 996.0, "RMAX": 75.0, "FSPD": 8.23723, "FDIR": 29.03186, "RENV": 140.0, "PENV": 999.0, "VALIDT": 0, "DTG": "2025-08-02 12:00", "LATNOW": 40.2, "LONNOW": 162.2, "WINDNOW": 25.0, "DIRNOW": 9.0, "SPDNOW": 1.0, "TECH": "TRAK", "ADVNR": 17, "ATCFID": "WP132025", "NAME": "BAILU", "FTECH": "JTWC", "FCST_DTG": "2025-08-06 00:00:00", "RUN_DTG": "2025-08-06 15:37:32", "BASIN": "WP", "STMNR": 13, "CAT_ID": null, "CAT_DESC": null, "MSGID": "WTPN52 PGTW 060300", "VALIDTIME": "2025-08-02 12:00:00" }, "geometry": { "type": "Point", "coordinates": [ 139.600006, 29.6 ] } },
{ "type": "Feature", "properties": { "ID": 14198, "LAT": 31.0, "LON": 140.5, "VMAX": 35.0, "MSLP": 996.0, "RMAX": 45.0, "FSPD": 13.11727, "FDIR": 25.5733, "RENV": 155.0, "PENV": 1002.0, "VALIDT": 0, "DTG": "2025-08-02 18:00", "LATNOW": 40.2, "LONNOW": 162.2, "WINDNOW": 25.0, "DIRNOW": 9.0, "SPDNOW": 1.0, "TECH": "TRAK", "ADVNR": 17, "ATCFID": "WP132025", "NAME": "BAILU", "FTECH": "JTWC", "FCST_DTG": "2025-08-06 00:00:00", "RUN_DTG": "2025-08-06 15:37:32", "BASIN": "WP", "STMNR": 13, "CAT_ID": null, "CAT_DESC": null, "MSGID": "WTPN52 PGTW 060300", "VALIDTIME": "2025-08-02 18:00:00" }, "geometry": { "type": "Point", "coordinates": [ 140.5, 31.0 ] } },
{ "type": "Feature", "properties": { "ID": 14199, "LAT": 33.3, "LON": 141.8, "VMAX": 35.0, "MSLP": 997.0, "RMAX": 65.0, "FSPD": 9.54808, "FDIR": 53.65302, "RENV": 155.0, "PENV": 1002.0, "VALIDT": 0, "DTG": "2025-08-03 00:00", "LATNOW": 40.2, "LONNOW": 162.2, "WINDNOW": 25.0, "DIRNOW": 9.0, "SPDNOW": 1.0, "TECH": "TRAK", "ADVNR": 17, "ATCFID": "WP132025", "NAME": "BAILU", "FTECH": "JTWC", "FCST_DTG": "2025-08-06 00:00:00", "RUN_DTG": "2025-08-06 15:37:32", "BASIN": "WP", "STMNR": 13, "CAT_ID": null, "CAT_DESC": null, "MSGID": "WTPN52 PGTW 060300", "VALIDTIME": "2025-08-03 00:00:00" }, "geometry": { "type": "Point", "coordinates": [ 141.800003, 33.299999 ] } },
{ "type": "Feature", "properties": { "ID": 14200, "LAT": 34.4, "LON": 143.6, "VMAX": 35.0, "MSLP": 998.0, "RMAX": 70.0, "FSPD": 10.15225, "FDIR": 44.81223, "RENV": 125.0, "PENV": 1002.0, "VALIDT": 0, "DTG": "2025-08-03 06:00", "LATNOW": 40.2, "LONNOW": 162.2, "WINDNOW": 25.0, "DIRNOW": 9.0, "SPDNOW": 1.0, "TECH": "TRAK", "ADVNR": 17, "ATCFID": "WP132025", "NAME": "BAILU", "FTECH": "JTWC", "FCST_DTG": "2025-08-06 00:00:00", "RUN_DTG": "2025-08-06 15:37:32", "BASIN": "WP", "STMNR": 13, "CAT_ID": null, "CAT_DESC": null, "MSGID": "WTPN52 PGTW 060300", "VALIDTIME": "2025-08-03 06:00:00" }, "geometry": { "type": "Point", "coordinates": [ 143.600006, 34.400002 ] } },
{ "type": "Feature", "properties": { "ID": 14201, "LAT": 35.8, "LON": 145.3, "VMAX": 35.0, "MSLP": 998.0, "RMAX": 60.0, "FSPD": 9.14173, "FDIR": 59.57101, "RENV": 150.0, "PENV": 1002.0, "VALIDT": 0, "DTG": "2025-08-03 12:00", "LATNOW": 40.2, "LONNOW": 162.2, "WINDNOW": 25.0, "DIRNOW": 9.0, "SPDNOW": 1.0, "TECH": "TRAK", "ADVNR": 17, "ATCFID": "WP132025", "NAME": "BAILU", "FTECH": "JTWC", "FCST_DTG": "2025-08-06 00:00:00", "RUN_DTG": "2025-08-06 15:37:32", "BASIN": "WP", "STMNR": 13, "CAT_ID": null, "CAT_DESC": null, "MSGID": "WTPN52 PGTW 060300", "VALIDTIME": "2025-08-03 12:00:00" }, "geometry": { "type": "Point", "coordinates": [ 145.300003, 35.799999 ] } },
{ "type": "Feature", "properties": { "ID": 14202, "LAT": 36.7, "LON": 147.2, "VMAX": 35.0, "MSLP": 998.0, "RMAX": 60.0, "FSPD": 10.19677, "FDIR": 75.38879, "RENV": 145.0, "PENV": 1004.0, "VALIDT": 0, "DTG": "2025-08-03 18:00", "LATNOW": 40.2, "LONNOW": 162.2, "WINDNOW": 25.0, "DIRNOW": 9.0, "SPDNOW": 1.0, "TECH": "TRAK", "ADVNR": 17, "ATCFID": "WP132025", "NAME": "BAILU", "FTECH": "JTWC", "FCST_DTG": "2025-08-06 00:00:00", "RUN_DTG": "2025-08-06 15:37:32", "BASIN": "WP", "STMNR": 13, "CAT_ID": null, "CAT_DESC": null, "MSGID": "WTPN52 PGTW 060300", "VALIDTIME": "2025-08-03 18:00:00" }, "geometry": { "type": "Point", "coordinates": [ 147.199997, 36.700001 ] } },
{ "type": "Feature", "properties": { "ID": 14203, "LAT": 37.2, "LON": 149.6, "VMAX": 35.0, "MSLP": 999.0, "RMAX": 75.0, "FSPD": 8.6551, "FDIR": 83.1727, "RENV": 135.0, "PENV": 1004.0, "VALIDT": 0, "DTG": "2025-08-04 00:00", "LATNOW": 40.2, "LONNOW": 162.2, "WINDNOW": 25.0, "DIRNOW": 9.0, "SPDNOW": 1.0, "TECH": "TRAK", "ADVNR": 17, "ATCFID": "WP132025", "NAME": "BAILU", "FTECH": "JTWC", "FCST_DTG": "2025-08-06 00:00:00", "RUN_DTG": "2025-08-06 15:37:32", "BASIN": "WP", "STMNR": 13, "CAT_ID": null, "CAT_DESC": null, "MSGID": "WTPN52 PGTW 060300", "VALIDTIME": "2025-08-04 00:00:00" }, "geometry": { "type": "Point", "coordinates": [ 149.600006, 37.200001 ] } },
{ "type": "Feature", "properties": { "ID": 14204, "LAT": 37.4, "LON": 151.7, "VMAX": 30.0, "MSLP": 998.0, "RMAX": 70.0, "FSPD": 8.99971, "FDIR": 86.72311, "RENV": 145.0, "PENV": 1006.0, "VALIDT": 0, "DTG": "2025-08-04 06:00", "LATNOW": 40.2, "LONNOW": 162.2, "WINDNOW": 25.0, "DIRNOW": 9.0, "SPDNOW": 1.0, "TECH": "TRAK", "ADVNR": 17, "ATCFID": "WP132025", "NAME": "BAILU", "FTECH": "JTWC", "FCST_DTG": "2025-08-06 00:00:00", "RUN_DTG": "2025-08-06 15:37:32", "BASIN": "WP", "STMNR": 13, "CAT_ID": null, "CAT_DESC": null, "MSGID": "WTPN52 PGTW 060300", "VALIDTIME": "2025-08-04 06:00:00" }, "geometry": { "type": "Point", "coordinates": [ 151.699997, 37.400002 ] } },
{ "type": "Feature", "properties": { "ID": 14205, "LAT": 37.5, "LON": 153.9, "VMAX": 30.0, "MSLP": 998.0, "RMAX": 60.0, "FSPD": 7.76048, "FDIR": 70.6431, "RENV": 170.0, "PENV": 1006.0, "VALIDT": 0, "DTG": "2025-08-04 12:00", "LATNOW": 40.2, "LONNOW": 162.2, "WINDNOW": 25.0, "DIRNOW": 9.0, "SPDNOW": 1.0, "TECH": "TRAK", "ADVNR": 17, "ATCFID": "WP132025", "NAME": "BAILU", "FTECH": "JTWC", "FCST_DTG": "2025-08-06 00:00:00", "RUN_DTG": "2025-08-06 15:37:32", "BASIN": "WP", "STMNR": 13, "CAT_ID": null, "CAT_DESC": null, "MSGID": "WTPN52 PGTW 060300", "VALIDTIME": "2025-08-04 12:00:00" }, "geometry": { "type": "Point", "coordinates": [ 153.899994, 37.5 ] } },
{ "type": "Feature", "properties": { "ID": 14206, "LAT": 38.0, "LON": 155.7, "VMAX": 30.0, "MSLP": 998.0, "RMAX": 60.0, "FSPD": 6.09841, "FDIR": 85.16101, "RENV": 170.0, "PENV": 1007.0, "VALIDT": 0, "DTG": "2025-08-04 18:00", "LATNOW": 40.2, "LONNOW": 162.2, "WINDNOW": 25.0, "DIRNOW": 9.0, "SPDNOW": 1.0, "TECH": "TRAK", "ADVNR": 17, "ATCFID": "WP132025", "NAME": "BAILU", "FTECH": "JTWC", "FCST_DTG": "2025-08-06 00:00:00", "RUN_DTG": "2025-08-06 15:37:32", "BASIN": "WP", "STMNR": 13, "CAT_ID": null, "CAT_DESC": null, "MSGID": "WTPN52 PGTW 060300", "VALIDTIME": "2025-08-04 18:00:00" }, "geometry": { "type": "Point", "coordinates": [ 155.699997, 38.0 ] } },
{ "type": "Feature", "properties": { "ID": 14207, "LAT": 38.1, "LON": 157.2, "VMAX": 30.0, "MSLP": 999.0, "RMAX": 80.0, "FSPD": 6.25347, "FDIR": 75.71182, "RENV": 190.0, "PENV": 1007.0, "VALIDT": 0, "DTG": "2025-08-05 00:00", "LATNOW": 40.2, "LONNOW": 162.2, "WINDNOW": 25.0, "DIRNOW": 9.0, "SPDNOW": 1.0, "TECH": "TRAK", "ADVNR": 17, "ATCFID": "WP132025", "NAME": "BAILU", "FTECH": "JTWC", "FCST_DTG": "2025-08-06 00:00:00", "RUN_DTG": "2025-08-06 15:37:32", "BASIN": "WP", "STMNR": 13, "CAT_ID": null, "CAT_DESC": null, "MSGID": "WTPN52 PGTW 060300", "VALIDTIME": "2025-08-05 00:00:00" }, "geometry": { "type": "Point", "coordinates": [ 157.199997, 38.099998 ] } },
{ "type": "Feature", "properties": { "ID": 14208, "LAT": 38.4, "LON": 158.7, "VMAX": 30.0, "MSLP": 999.0, "RMAX": 60.0, "FSPD": 6.77205, "FDIR": 40.56592, "RENV": 200.0, "PENV": 1008.0, "VALIDT": 0, "DTG": "2025-08-05 06:00", "LATNOW": 40.2, "LONNOW": 162.2, "WINDNOW": 25.0, "DIRNOW": 9.0, "SPDNOW": 1.0, "TECH": "TRAK", "ADVNR": 17, "ATCFID": "WP132025", "NAME": "BAILU", "FTECH": "JTWC", "FCST_DTG": "2025-08-06 00:00:00", "RUN_DTG": "2025-08-06 15:37:32", "BASIN": "WP", "STMNR": 13, "CAT_ID": null, "CAT_DESC": null, "MSGID": "WTPN52 PGTW 060300", "VALIDTIME": "2025-08-05 06:00:00" }, "geometry": { "type": "Point", "coordinates": [ 158.699997, 38.400002 ] } },
{ "type": "Feature", "properties": { "ID": 14209, "LAT": 39.4, "LON": 159.8, "VMAX": 30.0, "MSLP": 1010.40607, "RMAX": 44.21983, "FSPD": 2.83659, "FDIR": 57.03827, "RENV": 500.0, "PENV": 1012.0, "VALIDT": 0, "DTG": "2025-08-05 12:00", "LATNOW": 40.2, "LONNOW": 162.2, "WINDNOW": 25.0, "DIRNOW": 9.0, "SPDNOW": 1.0, "TECH": "TRAK", "ADVNR": 17, "ATCFID": "WP132025", "NAME": "BAILU", "FTECH": "JTWC", "FCST_DTG": "2025-08-06 00:00:00", "RUN_DTG": "2025-08-06 15:37:32", "BASIN": "WP", "STMNR": 13, "CAT_ID": null, "CAT_DESC": null, "MSGID": "WTPN52 PGTW 060300", "VALIDTIME": "2025-08-05 12:00:00" }, "geometry": { "type": "Point", "coordinates": [ 159.800003, 39.400002 ] } },
{ "type": "Feature", "properties": { "ID": 14210, "LAT": 39.7, "LON": 160.4, "VMAX": 25.0, "MSLP": 999.0, "RMAX": 80.0, "FSPD": 7.55043, "FDIR": 70.08215, "RENV": 190.0, "PENV": 1007.0, "VALIDT": 0, "DTG": "2025-08-05 18:00", "LATNOW": 40.2, "LONNOW": 162.2, "WINDNOW": 25.0, "DIRNOW": 9.0, "SPDNOW": 1.0, "TECH": "TRAK", "ADVNR": 17, "ATCFID": "WP132025", "NAME": "BAILU", "FTECH": "JTWC", "FCST_DTG": "2025-08-06 00:00:00", "RUN_DTG": "2025-08-06 15:37:32", "BASIN": "WP", "STMNR": 13, "CAT_ID": null, "CAT_DESC": null, "MSGID": "WTPN52 PGTW 060300", "VALIDTIME": "2025-08-05 18:00:00" }, "geometry": { "type": "Point", "coordinates": [ 160.399994, 39.700001 ] } },
{ "type": "Feature", "properties": { "ID": 14211, "LAT": 40.2, "LON": 162.2, "VMAX": 25.0, "MSLP": 982.0, "RMAX": 60.0, "FSPD": 9.45677, "FDIR": 57.04395, "RENV": 170.0, "PENV": 1005.0, "VALIDT": 0, "DTG": "2025-08-06 00:00", "LATNOW": 40.2, "LONNOW": 162.2, "WINDNOW": 25.0, "DIRNOW": 9.0, "SPDNOW": 1.0, "TECH": "TRAK", "ADVNR": 17, "ATCFID": "WP132025", "NAME": "BAILU", "FTECH": "JTWC", "FCST_DTG": "2025-08-06 00:00:00", "RUN_DTG": "2025-08-06 15:37:32", "BASIN": "WP", "STMNR": 13, "CAT_ID": null, "CAT_DESC": null, "MSGID": "WTPN52 PGTW 060300", "VALIDTIME": "2025-08-06 00:00:00" }, "geometry": { "type": "Point", "coordinates": [ 162.199997, 40.200001 ] } },
{ "type": "Feature", "properties": { "ID": 14212, "LAT": 42.2, "LON": 166.3, "VMAX": 20.0, "MSLP": 1012.95825, "RMAX": 87.58078, "FSPD": 10.288, "FDIR": 72.54083, "RENV": 250.0, "PENV": 1012.0, "VALIDT": 12, "DTG": "2025-08-06 12:00", "LATNOW": 40.2, "LONNOW": 162.2, "WINDNOW": 25.0, "DIRNOW": 9.0, "SPDNOW": 1.0, "TECH": "FCST", "ADVNR": 17, "ATCFID": "WP132025", "NAME": "BAILU", "FTECH": "JTWC", "FCST_DTG": "2025-08-06 00:00:00", "RUN_DTG": "2025-08-06 15:37:32", "BASIN": "WP", "STMNR": 13, "CAT_ID": null, "CAT_DESC": null, "MSGID": "WTPN52 PGTW 060300", "VALIDTIME": "2025-08-06 12:00:00" }, "geometry": { "type": "Point", "coordinates": [ 166.300003, 42.200001 ] } },
{ "type": "Feature", "properties": { "ID": 14213, "LAT": 43.4, "LON": 171.5, "VMAX": 20.0, "MSLP": 1012.95825, "RMAX": 87.58078, "FSPD": 10.288, "FDIR": 72.54083, "RENV": 250.0, "PENV": 1012.0, "VALIDT": 24, "DTG": "2025-08-07 00:00", "LATNOW": 40.2, "LONNOW": 162.2, "WINDNOW": 25.0, "DIRNOW": 9.0, "SPDNOW": 1.0, "TECH": "FCST", "ADVNR": 17, "ATCFID": "WP132025", "NAME": "BAILU", "FTECH": "JTWC", "FCST_DTG": "2025-08-06 00:00:00", "RUN_DTG": "2025-08-06 15:37:32", "BASIN": "WP", "STMNR": 13, "CAT_ID": null, "CAT_DESC": null, "MSGID": "WTPN52 PGTW 060300", "VALIDTIME": "2025-08-07 00:00:00" }, "geometry": { "type": "Point", "coordinates": [ 171.5, 43.400002 ] } },
{ "type": "Feature", "properties": { "ID": 14211, "LAT": 40.2, "LON": 162.2, "VMAX": 25.0, "MSLP": 982.0, "RMAX": 60.0, "FSPD": 9.45677, "FDIR": 57.04395, "RENV": 170.0, "PENV": 1005.0, "VALIDT": 0, "DTG": "2025-08-06 00:00", "LATNOW": 40.2, "LONNOW": 162.2, "WINDNOW": 25.0, "DIRNOW": 9.0, "SPDNOW": 1.0, "TECH": "TRAK", "ADVNR": 17, "ATCFID": "WP132025", "NAME": "BAILU", "FTECH": "JTWC", "FCST_DTG": "2025-08-06 00:00:00", "RUN_DTG": "2025-08-06 15:37:32", "BASIN": "WP", "STMNR": 13, "CAT_ID": null, "CAT_DESC": null, "MSGID": "WTPN52 PGTW 060300", "VALIDTIME": "2025-08-06 00:00:00" }, "geometry": { "type": "LineString", "coordinates": [ [ 129.0, 25.3 ], [ 129.6, 25.5 ], [ 130.1, 25.7 ], [ 130.7, 25.8 ], [ 131.6, 25.8 ], [ 132.3, 25.5 ], [ 134.1, 25.5 ], [ 135.8, 26.0 ], [ 136.4, 26.9 ], [ 136.9, 27.3 ], [ 138.6, 28.0 ], [ 139.6, 29.6 ], [ 140.5, 31.0 ], [ 141.8, 33.3 ], [ 143.6, 34.4 ], [ 145.3, 35.8 ], [ 147.2, 36.7 ], [ 149.6, 37.2 ], [ 151.7, 37.4 ], [ 153.9, 37.5 ], [ 155.7, 38.0 ], [ 157.2, 38.1 ], [ 158.7, 38.4 ], [ 159.8, 39.4 ], [ 160.4, 39.7 ], [ 162.2, 40.2 ] ] } },
{ "type": "Feature", "properties": { "ID": 14213, "LAT": 43.4, "LON": 171.5, "VMAX": 20.0, "MSLP": 1012.95825, "RMAX": 87.58078, "FSPD": 10.288, "FDIR": 72.54083, "RENV": 250.0, "PENV": 1012.0, "VALIDT": 24, "DTG": "2025-08-07 00:00", "LATNOW": 40.2, "LONNOW": 162.2, "WINDNOW": 25.0, "DIRNOW": 9.0, "SPDNOW": 1.0, "TECH": "FCST", "ADVNR": 17, "ATCFID": "WP132025", "NAME": "BAILU", "FTECH": "JTWC", "FCST_DTG": "2025-08-06 00:00:00", "RUN_DTG": "2025-08-06 15:37:32", "BASIN": "WP", "STMNR": 13, "CAT_ID": null, "CAT_DESC": null, "MSGID": "WTPN52 PGTW 060300", "VALIDTIME": "2025-08-07 00:00:00" }, "geometry": { "type": "LineString", "coordinates": [ [ 162.2, 40.2 ], [ 166.3, 42.2 ], [ 171.5, 43.4 ] ] } }
]
}
