{
"type": "FeatureCollection",
"crs": { "type": "name", "properties": { "name": "urn:ogc:def:crs:OGC:1.3:CRS84" } },
"features": [
{ "type": "Feature", "properties": { "ID": 31410, "LAT": 12.7, "LON": 132.1, "VMAX": 15.0, "MSLP": 1013.8515, "RMAX": 40.0, "FSPD": 3.63582, "FDIR": 352.0767, "RENV": 500.0, "PENV": 1012.0, "VALIDT": 0, "DTG": "2025-08-31 00:00", "LATNOW": 35.6, "LONNOW": 142.9, "WINDNOW": 50.0, "DIRNOW": 15.0, "SPDNOW": 0.0, "TECH": "TRAK", "ADVNR": 9, "ATCFID": "WP212025", "NAME": "PEIPAH", "FTECH": "JTWC", "FCST_DTG": "2025-09-05 12:00:00", "RUN_DTG": "2025-09-06 06:27:07", "BASIN": "WP", "STMNR": 21, "CAT_ID": null, "CAT_DESC": null, "MSGID": "WTPN51 PGTW 051500", "VALIDTIME": "2025-08-31 00:00:00" }, "geometry": { "type": "Point", "coordinates": [ 132.100006, 12.7 ] } },
{ "type": "Feature", "properties": { "ID": 31411, "LAT": 13.4, "LON": 132.0, "VMAX": 15.0, "MSLP": 1013.8515, "RMAX": 40.0, "FSPD": 4.73654, "FDIR": 347.82462, "RENV": 500.0, "PENV": 1012.0, "VALIDT": 0, "DTG": "2025-08-31 06:00", "LATNOW": 35.6, "LONNOW": 142.9, "WINDNOW": 50.0, "DIRNOW": 15.0, "SPDNOW": 0.0, "TECH": "TRAK", "ADVNR": 9, "ATCFID": "WP212025", "NAME": "PEIPAH", "FTECH": "JTWC", "FCST_DTG": "2025-09-05 12:00:00", "RUN_DTG": "2025-09-06 06:27:07", "BASIN": "WP", "STMNR": 21, "CAT_ID": null, "CAT_DESC": null, "MSGID": "WTPN51 PGTW 051500", "VALIDTIME": "2025-08-31 06:00:00" }, "geometry": { "type": "Point", "coordinates": [ 132.0, 13.4 ] } },
{ "type": "Feature", "properties": { "ID": 31412, "LAT": 14.3, "LON": 131.8, "VMAX": 15.0, "MSLP": 1013.8515, "RMAX": 40.0, "FSPD": 5.50881, "FDIR": 327.18994, "RENV": 500.0, "PENV": 1012.0, "VALIDT": 0, "DTG": "2025-08-31 12:00", "LATNOW": 35.6, "LONNOW": 142.9, "WINDNOW": 50.0, "DIRNOW": 15.0, "SPDNOW": 0.0, "TECH": "TRAK", "ADVNR": 9, "ATCFID": "WP212025", "NAME": "PEIPAH", "FTECH": "JTWC", "FCST_DTG": "2025-09-05 12:00:00", "RUN_DTG": "2025-09-06 06:27:07", "BASIN": "WP", "STMNR": 21, "CAT_ID": null, "CAT_DESC": null, "MSGID": "WTPN51 PGTW 051500", "VALIDTIME": "2025-08-31 12:00:00" }, "geometry": { "type": "Point", "coordinates": [ 131.800003, 14.3 ] } },
{ "type": "Feature", "properties": { "ID": 31413, "LAT": 15.2, "LON": 131.2, "VMAX": 15.0, "MSLP": 1013.8515, "RMAX": 40.0, "FSPD": 5.25088, "FDIR": 331.855, "RENV": 500.0, "PENV": 1012.0, "VALIDT": 0, "DTG": "2025-08-31 18:00", "LATNOW": 35.6, "LONNOW": 142.9, "WINDNOW": 50.0, "DIRNOW": 15.0, "SPDNOW": 0.0, "TECH": "TRAK", "ADVNR": 9, "ATCFID": "WP212025", "NAME": "PEIPAH", "FTECH": "JTWC", "FCST_DTG": "2025-09-05 12:00:00", "RUN_DTG": "2025-09-06 06:27:07", "BASIN": "WP", "STMNR": 21, "CAT_ID": null, "CAT_DESC": null, "MSGID": "WTPN51 PGTW 051500", "VALIDTIME": "2025-08-31 18:00:00" }, "geometry": { "type": "Point", "coordinates": [ 131.199997, 15.2 ] } },
{ "type": "Feature", "properties": { "ID": 31414, "LAT": 16.1, "LON": 130.7, "VMAX": 15.0, "MSLP": 1013.8515, "RMAX": 40.0, "FSPD": 4.11555, "FDIR": 360.0, "RENV": 500.0, "PENV": 1012.0, "VALIDT": 0, "DTG": "2025-09-01 00:00", "LATNOW": 35.6, "LONNOW": 142.9, "WINDNOW": 50.0, "DIRNOW": 15.0, "SPDNOW": 0.0, "TECH": "TRAK", "ADVNR": 9, "ATCFID": "WP212025", "NAME": "PEIPAH", "FTECH": "JTWC", "FCST_DTG": "2025-09-05 12:00:00", "RUN_DTG": "2025-09-06 06:27:07", "BASIN": "WP", "STMNR": 21, "CAT_ID": null, "CAT_DESC": null, "MSGID": "WTPN51 PGTW 051500", "VALIDTIME": "2025-09-01 00:00:00" }, "geometry": { "type": "Point", "coordinates": [ 130.699997, 16.1 ] } },
{ "type": "Feature", "properties": { "ID": 31415, "LAT": 16.9, "LON": 130.7, "VMAX": 15.0, "MSLP": 1013.8515, "RMAX": 40.0, "FSPD": 4.8587, "FDIR": 17.64954, "RENV": 500.0, "PENV": 1012.0, "VALIDT": 0, "DTG": "2025-09-01 06:00", "LATNOW": 35.6, "LONNOW": 142.9, "WINDNOW": 50.0, "DIRNOW": 15.0, "SPDNOW": 0.0, "TECH": "TRAK", "ADVNR": 9, "ATCFID": "WP212025", "NAME": "PEIPAH", "FTECH": "JTWC", "FCST_DTG": "2025-09-05 12:00:00", "RUN_DTG": "2025-09-06 06:27:07", "BASIN": "WP", "STMNR": 21, "CAT_ID": null, "CAT_DESC": null, "MSGID": "WTPN51 PGTW 051500", "VALIDTIME": "2025-09-01 06:00:00" }, "geometry": { "type": "Point", "coordinates": [ 130.699997, 16.9 ] } },
{ "type": "Feature", "properties": { "ID": 31416, "LAT": 17.8, "LON": 131.0, "VMAX": 15.0, "MSLP": 1013.8515, "RMAX": 40.0, "FSPD": 3.88829, "FDIR": 22.15866, "RENV": 500.0, "PENV": 1012.0, "VALIDT": 0, "DTG": "2025-09-01 12:00", "LATNOW": 35.6, "LONNOW": 142.9, "WINDNOW": 50.0, "DIRNOW": 15.0, "SPDNOW": 0.0, "TECH": "TRAK", "ADVNR": 9, "ATCFID": "WP212025", "NAME": "PEIPAH", "FTECH": "JTWC", "FCST_DTG": "2025-09-05 12:00:00", "RUN_DTG": "2025-09-06 06:27:07", "BASIN": "WP", "STMNR": 21, "CAT_ID": null, "CAT_DESC": null, "MSGID": "WTPN51 PGTW 051500", "VALIDTIME": "2025-09-01 12:00:00" }, "geometry": { "type": "Point", "coordinates": [ 131.0, 17.799999 ] } },
{ "type": "Feature", "properties": { "ID": 31417, "LAT": 18.5, "LON": 131.3, "VMAX": 15.0, "MSLP": 1013.8515, "RMAX": 40.0, "FSPD": 6.34326, "FDIR": 13.29181, "RENV": 500.0, "PENV": 1012.0, "VALIDT": 0, "DTG": "2025-09-01 18:00", "LATNOW": 35.6, "LONNOW": 142.9, "WINDNOW": 50.0, "DIRNOW": 15.0, "SPDNOW": 0.0, "TECH": "TRAK", "ADVNR": 9, "ATCFID": "WP212025", "NAME": "PEIPAH", "FTECH": "JTWC", "FCST_DTG": "2025-09-05 12:00:00", "RUN_DTG": "2025-09-06 06:27:07", "BASIN": "WP", "STMNR": 21, "CAT_ID": null, "CAT_DESC": null, "MSGID": "WTPN51 PGTW 051500", "VALIDTIME": "2025-09-01 18:00:00" }, "geometry": { "type": "Point", "coordinates": [ 131.300003, 18.5 ] } },
{ "type": "Feature", "properties": { "ID": 31418, "LAT": 19.7, "LON": 131.6, "VMAX": 15.0, "MSLP": 1013.8515, "RMAX": 40.0, "FSPD": 4.65511, "FDIR": 5.95447, "RENV": 500.0, "PENV": 1012.0, "VALIDT": 0, "DTG": "2025-09-02 00:00", "LATNOW": 35.6, "LONNOW": 142.9, "WINDNOW": 50.0, "DIRNOW": 15.0, "SPDNOW": 0.0, "TECH": "TRAK", "ADVNR": 9, "ATCFID": "WP212025", "NAME": "PEIPAH", "FTECH": "JTWC", "FCST_DTG": "2025-09-05 12:00:00", "RUN_DTG": "2025-09-06 06:27:07", "BASIN": "WP", "STMNR": 21, "CAT_ID": null, "CAT_DESC": null, "MSGID": "WTPN51 PGTW 051500", "VALIDTIME": "2025-09-02 00:00:00" }, "geometry": { "type": "Point", "coordinates": [ 131.600006, 19.700001 ] } },
{ "type": "Feature", "properties": { "ID": 31419, "LAT": 20.6, "LON": 131.7, "VMAX": 20.0, "MSLP": 1012.95825, "RMAX": 45.0, "FSPD": 3.87884, "FDIR": 21.81348, "RENV": 500.0, "PENV": 1012.0, "VALIDT": 0, "DTG": "2025-09-02 06:00", "LATNOW": 35.6, "LONNOW": 142.9, "WINDNOW": 50.0, "DIRNOW": 15.0, "SPDNOW": 0.0, "TECH": "TRAK", "ADVNR": 9, "ATCFID": "WP212025", "NAME": "PEIPAH", "FTECH": "JTWC", "FCST_DTG": "2025-09-05 12:00:00", "RUN_DTG": "2025-09-06 06:27:07", "BASIN": "WP", "STMNR": 21, "CAT_ID": null, "CAT_DESC": null, "MSGID": "WTPN51 PGTW 051500", "VALIDTIME": "2025-09-02 06:00:00" }, "geometry": { "type": "Point", "coordinates": [ 131.699997, 20.6 ] } },
{ "type": "Feature", "properties": { "ID": 31420, "LAT": 21.3, "LON": 132.0, "VMAX": 20.0, "MSLP": 1012.95825, "RMAX": 45.0, "FSPD": 7.45065, "FDIR": 14.83716, "RENV": 500.0, "PENV": 1012.0, "VALIDT": 0, "DTG": "2025-09-02 12:00", "LATNOW": 35.6, "LONNOW": 142.9, "WINDNOW": 50.0, "DIRNOW": 15.0, "SPDNOW": 0.0, "TECH": "TRAK", "ADVNR": 9, "ATCFID": "WP212025", "NAME": "PEIPAH", "FTECH": "JTWC", "FCST_DTG": "2025-09-05 12:00:00", "RUN_DTG": "2025-09-06 06:27:07", "BASIN": "WP", "STMNR": 21, "CAT_ID": null, "CAT_DESC": null, "MSGID": "WTPN51 PGTW 051500", "VALIDTIME": "2025-09-02 12:00:00" }, "geometry": { "type": "Point", "coordinates": [ 132.0, 21.299999 ] } },
{ "type": "Feature", "properties": { "ID": 31421, "LAT": 22.7, "LON": 132.4, "VMAX": 20.0, "MSLP": 1012.95825, "RMAX": 45.0, "FSPD": 7.73109, "FDIR": 3.50009, "RENV": 500.0, "PENV": 1012.0, "VALIDT": 0, "DTG": "2025-09-02 18:00", "LATNOW": 35.6, "LONNOW": 142.9, "WINDNOW": 50.0, "DIRNOW": 15.0, "SPDNOW": 0.0, "TECH": "TRAK", "ADVNR": 9, "ATCFID": "WP212025", "NAME": "PEIPAH", "FTECH": "JTWC", "FCST_DTG": "2025-09-05 12:00:00", "RUN_DTG": "2025-09-06 06:27:07", "BASIN": "WP", "STMNR": 21, "CAT_ID": null, "CAT_DESC": null, "MSGID": "WTPN51 PGTW 051500", "VALIDTIME": "2025-09-02 18:00:00" }, "geometry": { "type": "Point", "coordinates": [ 132.399994, 22.700001 ] } },
{ "type": "Feature", "properties": { "ID": 31422, "LAT": 24.2, "LON": 132.5, "VMAX": 20.0, "MSLP": 1012.95825, "RMAX": 45.0, "FSPD": 7.57069, "FDIR": 342.05054, "RENV": 500.0, "PENV": 1012.0, "VALIDT": 0, "DTG": "2025-09-03 00:00", "LATNOW": 35.6, "LONNOW": 142.9, "WINDNOW": 50.0, "DIRNOW": 15.0, "SPDNOW": 0.0, "TECH": "TRAK", "ADVNR": 9, "ATCFID": "WP212025", "NAME": "PEIPAH", "FTECH": "JTWC", "FCST_DTG": "2025-09-05 12:00:00", "RUN_DTG": "2025-09-06 06:27:07", "BASIN": "WP", "STMNR": 21, "CAT_ID": null, "CAT_DESC": null, "MSGID": "WTPN51 PGTW 051500", "VALIDTIME": "2025-09-03 00:00:00" }, "geometry": { "type": "Point", "coordinates": [ 132.5, 24.200001 ] } },
{ "type": "Feature", "properties": { "ID": 31423, "LAT": 25.6, "LON": 132.0, "VMAX": 25.0, "MSLP": 1011.80975, "RMAX": 45.0, "FSPD": 7.43472, "FDIR": 345.6334, "RENV": 500.0, "PENV": 1012.0, "VALIDT": 0, "DTG": "2025-09-03 06:00", "LATNOW": 35.6, "LONNOW": 142.9, "WINDNOW": 50.0, "DIRNOW": 15.0, "SPDNOW": 0.0, "TECH": "TRAK", "ADVNR": 9, "ATCFID": "WP212025", "NAME": "PEIPAH", "FTECH": "JTWC", "FCST_DTG": "2025-09-05 12:00:00", "RUN_DTG": "2025-09-06 06:27:07", "BASIN": "WP", "STMNR": 21, "CAT_ID": null, "CAT_DESC": null, "MSGID": "WTPN51 PGTW 051500", "VALIDTIME": "2025-09-03 06:00:00" }, "geometry": { "type": "Point", "coordinates": [ 132.0, 25.6 ] } },
{ "type": "Feature", "properties": { "ID": 31424, "LAT": 27.0, "LON": 131.6, "VMAX": 30.0, "MSLP": 1002.0, "RMAX": 45.0, "FSPD": 6.10114, "FDIR": 338.05038, "RENV": 150.0, "PENV": 1006.0, "VALIDT": 0, "DTG": "2025-09-03 12:00", "LATNOW": 35.6, "LONNOW": 142.9, "WINDNOW": 50.0, "DIRNOW": 15.0, "SPDNOW": 0.0, "TECH": "TRAK", "ADVNR": 9, "ATCFID": "WP212025", "NAME": "PEIPAH", "FTECH": "JTWC", "FCST_DTG": "2025-09-05 12:00:00", "RUN_DTG": "2025-09-06 06:27:07", "BASIN": "WP", "STMNR": 21, "CAT_ID": null, "CAT_DESC": null, "MSGID": "WTPN51 PGTW 051500", "VALIDTIME": "2025-09-03 12:00:00" }, "geometry": { "type": "Point", "coordinates": [ 131.600006, 27.0 ] } },
{ "type": "Feature", "properties": { "ID": 31425, "LAT": 28.1, "LON": 131.1, "VMAX": 30.0, "MSLP": 1002.0, "RMAX": 45.0, "FSPD": 8.23111, "FDIR": 360.0, "RENV": 150.0, "PENV": 1006.0, "VALIDT": 0, "DTG": "2025-09-03 18:00", "LATNOW": 35.6, "LONNOW": 142.9, "WINDNOW": 50.0, "DIRNOW": 15.0, "SPDNOW": 0.0, "TECH": "TRAK", "ADVNR": 9, "ATCFID": "WP212025", "NAME": "PEIPAH", "FTECH": "JTWC", "FCST_DTG": "2025-09-05 12:00:00", "RUN_DTG": "2025-09-06 06:27:07", "BASIN": "WP", "STMNR": 21, "CAT_ID": null, "CAT_DESC": null, "MSGID": "WTPN51 PGTW 051500", "VALIDTIME": "2025-09-03 18:00:00" }, "geometry": { "type": "Point", "coordinates": [ 131.100006, 28.1 ] } },
{ "type": "Feature", "properties": { "ID": 31426, "LAT": 29.7, "LON": 131.1, "VMAX": 35.0, "MSLP": 1002.0, "RMAX": 45.0, "FSPD": 6.91951, "FDIR": 14.87009, "RENV": 170.0, "PENV": 1006.0, "VALIDT": 0, "DTG": "2025-09-04 00:00", "LATNOW": 35.6, "LONNOW": 142.9, "WINDNOW": 50.0, "DIRNOW": 15.0, "SPDNOW": 0.0, "TECH": "TRAK", "ADVNR": 9, "ATCFID": "WP212025", "NAME": "PEIPAH", "FTECH": "JTWC", "FCST_DTG": "2025-09-05 12:00:00", "RUN_DTG": "2025-09-06 06:27:07", "BASIN": "WP", "STMNR": 21, "CAT_ID": null, "CAT_DESC": null, "MSGID": "WTPN51 PGTW 051500", "VALIDTIME": "2025-09-04 00:00:00" }, "geometry": { "type": "Point", "coordinates": [ 131.100006, 29.700001 ] } },
{ "type": "Feature", "properties": { "ID": 31427, "LAT": 31.0, "LON": 131.5, "VMAX": 35.0, "MSLP": 999.0, "RMAX": 45.0, "FSPD": 7.03711, "FDIR": 18.12903, "RENV": 250.0, "PENV": 1008.0, "VALIDT": 0, "DTG": "2025-09-04 06:00", "LATNOW": 35.6, "LONNOW": 142.9, "WINDNOW": 50.0, "DIRNOW": 15.0, "SPDNOW": 0.0, "TECH": "TRAK", "ADVNR": 9, "ATCFID": "WP212025", "NAME": "PEIPAH", "FTECH": "JTWC", "FCST_DTG": "2025-09-05 12:00:00", "RUN_DTG": "2025-09-06 06:27:07", "BASIN": "WP", "STMNR": 21, "CAT_ID": null, "CAT_DESC": null, "MSGID": "WTPN51 PGTW 051500", "VALIDTIME": "2025-09-04 06:00:00" }, "geometry": { "type": "Point", "coordinates": [ 131.5, 31.0 ] } },
{ "type": "Feature", "properties": { "ID": 31428, "LAT": 32.3, "LON": 132.0, "VMAX": 35.0, "MSLP": 996.0, "RMAX": 60.0, "FSPD": 5.37985, "FDIR": 40.09375, "RENV": 190.0, "PENV": 1006.0, "VALIDT": 0, "DTG": "2025-09-04 12:00", "LATNOW": 35.6, "LONNOW": 142.9, "WINDNOW": 50.0, "DIRNOW": 15.0, "SPDNOW": 0.0, "TECH": "TRAK", "ADVNR": 9, "ATCFID": "WP212025", "NAME": "PEIPAH", "FTECH": "JTWC", "FCST_DTG": "2025-09-05 12:00:00", "RUN_DTG": "2025-09-06 06:27:07", "BASIN": "WP", "STMNR": 21, "CAT_ID": null, "CAT_DESC": null, "MSGID": "WTPN51 PGTW 051500", "VALIDTIME": "2025-09-04 12:00:00" }, "geometry": { "type": "Point", "coordinates": [ 132.0, 32.299999 ] } },
{ "type": "Feature", "properties": { "ID": 31429, "LAT": 33.02, "LON": 132.72, "VMAX": 35.0, "MSLP": 996.0, "RMAX": 60.0, "FSPD": 5.36995, "FDIR": 39.96637, "RENV": 190.0, "PENV": 1006.0, "VALIDT": 0, "DTG": "2025-09-04 17:00", "LATNOW": 35.6, "LONNOW": 142.9, "WINDNOW": 50.0, "DIRNOW": 15.0, "SPDNOW": 0.0, "TECH": "TRAK", "ADVNR": 9, "ATCFID": "WP212025", "NAME": "PEIPAH", "FTECH": "JTWC", "FCST_DTG": "2025-09-05 12:00:00", "RUN_DTG": "2025-09-06 06:27:07", "BASIN": "WP", "STMNR": 21, "CAT_ID": null, "CAT_DESC": null, "MSGID": "WTPN51 PGTW 051500", "VALIDTIME": "2025-09-04 17:00:00" }, "geometry": { "type": "Point", "coordinates": [ 132.720001, 33.019997 ] } },
{ "type": "Feature", "properties": { "ID": 31430, "LAT": 33.1, "LON": 132.8, "VMAX": 35.0, "MSLP": 997.0, "RMAX": 80.0, "FSPD": 12.29211, "FDIR": 70.43878, "RENV": 190.0, "PENV": 1008.0, "VALIDT": 0, "DTG": "2025-09-04 18:00", "LATNOW": 35.6, "LONNOW": 142.9, "WINDNOW": 50.0, "DIRNOW": 15.0, "SPDNOW": 0.0, "TECH": "TRAK", "ADVNR": 9, "ATCFID": "WP212025", "NAME": "PEIPAH", "FTECH": "JTWC", "FCST_DTG": "2025-09-05 12:00:00", "RUN_DTG": "2025-09-06 06:27:07", "BASIN": "WP", "STMNR": 21, "CAT_ID": null, "CAT_DESC": null, "MSGID": "WTPN51 PGTW 051500", "VALIDTIME": "2025-09-04 18:00:00" }, "geometry": { "type": "Point", "coordinates": [ 132.800003, 33.099998 ] } },
{ "type": "Feature", "properties": { "ID": 31431, "LAT": 33.9, "LON": 135.5, "VMAX": 40.0, "MSLP": 1000.0, "RMAX": 85.0, "FSPD": 16.93057, "FDIR": 72.3107, "RENV": 140.0, "PENV": 1006.0, "VALIDT": 0, "DTG": "2025-09-05 00:00", "LATNOW": 35.6, "LONNOW": 142.9, "WINDNOW": 50.0, "DIRNOW": 15.0, "SPDNOW": 0.0, "TECH": "TRAK", "ADVNR": 9, "ATCFID": "WP212025", "NAME": "PEIPAH", "FTECH": "JTWC", "FCST_DTG": "2025-09-05 12:00:00", "RUN_DTG": "2025-09-06 06:27:07", "BASIN": "WP", "STMNR": 21, "CAT_ID": null, "CAT_DESC": null, "MSGID": "WTPN51 PGTW 051500", "VALIDTIME": "2025-09-05 00:00:00" }, "geometry": { "type": "Point", "coordinates": [ 135.5, 33.900002 ] } },
{ "type": "Feature", "properties": { "ID": 31432, "LAT": 34.9, "LON": 139.3, "VMAX": 45.0, "MSLP": 998.0, "RMAX": 60.0, "FSPD": 15.54697, "FDIR": 76.60712, "RENV": 330.0, "PENV": 1010.0, "VALIDT": 0, "DTG": "2025-09-05 06:00", "LATNOW": 35.6, "LONNOW": 142.9, "WINDNOW": 50.0, "DIRNOW": 15.0, "SPDNOW": 0.0, "TECH": "TRAK", "ADVNR": 9, "ATCFID": "WP212025", "NAME": "PEIPAH", "FTECH": "JTWC", "FCST_DTG": "2025-09-05 12:00:00", "RUN_DTG": "2025-09-06 06:27:07", "BASIN": "WP", "STMNR": 21, "CAT_ID": null, "CAT_DESC": null, "MSGID": "WTPN51 PGTW 051500", "VALIDTIME": "2025-09-05 06:00:00" }, "geometry": { "type": "Point", "coordinates": [ 139.300003, 34.900002 ] } },
{ "type": "Feature", "properties": { "ID": 31433, "LAT": 35.6, "LON": 142.9, "VMAX": 50.0, "MSLP": 992.0, "RMAX": 40.0, "FSPD": 14.66668, "FDIR": 83.95972, "RENV": 300.0, "PENV": 1008.0, "VALIDT": 0, "DTG": "2025-09-05 12:00", "LATNOW": 35.6, "LONNOW": 142.9, "WINDNOW": 50.0, "DIRNOW": 15.0, "SPDNOW": 0.0, "TECH": "TRAK", "ADVNR": 9, "ATCFID": "WP212025", "NAME": "PEIPAH", "FTECH": "JTWC", "FCST_DTG": "2025-09-05 12:00:00", "RUN_DTG": "2025-09-06 06:27:07", "BASIN": "WP", "STMNR": 21, "CAT_ID": null, "CAT_DESC": null, "MSGID": "WTPN51 PGTW 051500", "VALIDTIME": "2025-09-05 12:00:00" }, "geometry": { "type": "Point", "coordinates": [ 142.899994, 35.599998 ] } },
{ "type": "Feature", "properties": { "ID": 31434, "LAT": 36.2, "LON": 149.9, "VMAX": 55.0, "MSLP": 999.55927, "RMAX": 43.63105, "FSPD": 12.44879, "FDIR": 87.63159, "RENV": 180.0, "PENV": 1012.0, "VALIDT": 12, "DTG": "2025-09-06 00:00", "LATNOW": 35.6, "LONNOW": 142.9, "WINDNOW": 50.0, "DIRNOW": 15.0, "SPDNOW": 0.0, "TECH": "FCST", "ADVNR": 9, "ATCFID": "WP212025", "NAME": "PEIPAH", "FTECH": "JTWC", "FCST_DTG": "2025-09-05 12:00:00", "RUN_DTG": "2025-09-06 06:27:07", "BASIN": "WP", "STMNR": 21, "CAT_ID": null, "CAT_DESC": null, "MSGID": "WTPN51 PGTW 051500", "VALIDTIME": "2025-09-06 00:00:00" }, "geometry": { "type": "Point", "coordinates": [ 149.899994, 36.200001 ] } },
{ "type": "Feature", "properties": { "ID": 31435, "LAT": 36.4, "LON": 155.9, "VMAX": 55.0, "MSLP": 999.55927, "RMAX": 43.63105, "FSPD": 12.44879, "FDIR": 87.63159, "RENV": 250.0, "PENV": 1012.0, "VALIDT": 24, "DTG": "2025-09-06 12:00", "LATNOW": 35.6, "LONNOW": 142.9, "WINDNOW": 50.0, "DIRNOW": 15.0, "SPDNOW": 0.0, "TECH": "FCST", "ADVNR": 9, "ATCFID": "WP212025", "NAME": "PEIPAH", "FTECH": "JTWC", "FCST_DTG": "2025-09-05 12:00:00", "RUN_DTG": "2025-09-06 06:27:07", "BASIN": "WP", "STMNR": 21, "CAT_ID": null, "CAT_DESC": null, "MSGID": "WTPN51 PGTW 051500", "VALIDTIME": "2025-09-06 12:00:00" }, "geometry": { "type": "Point", "coordinates": [ 155.899994, 36.400002 ] } },
{ "type": "Feature", "properties": { "ID": 31433, "LAT": 35.6, "LON": 142.9, "VMAX": 50.0, "MSLP": 992.0, "RMAX": 40.0, "FSPD": 14.66668, "FDIR": 83.95972, "RENV": 300.0, "PENV": 1008.0, "VALIDT": 0, "DTG": "2025-09-05 12:00", "LATNOW": 35.6, "LONNOW": 142.9, "WINDNOW": 50.0, "DIRNOW": 15.0, "SPDNOW": 0.0, "TECH": "TRAK", "ADVNR": 9, "ATCFID": "WP212025", "NAME": "PEIPAH", "FTECH": "JTWC", "FCST_DTG": "2025-09-05 12:00:00", "RUN_DTG": "2025-09-06 06:27:07", "BASIN": "WP", "STMNR": 21, "CAT_ID": null, "CAT_DESC": null, "MSGID": "WTPN51 PGTW 051500", "VALIDTIME": "2025-09-05 12:00:00" }, "geometry": { "type": "LineString", "coordinates": [ [ 132.1, 12.7 ], [ 132.0, 13.4 ], [ 131.8, 14.3 ], [ 131.2, 15.2 ], [ 130.7, 16.1 ], [ 130.7, 16.9 ], [ 131.0, 17.8 ], [ 131.3, 18.5 ], [ 131.6, 19.7 ], [ 131.7, 20.6 ], [ 132.0, 21.3 ], [ 132.4, 22.7 ], [ 132.5, 24.2 ], [ 132.0, 25.6 ], [ 131.6, 27.0 ], [ 131.1, 28.1 ], [ 131.1, 29.7 ], [ 131.5, 31.0 ], [ 132.0, 32.3 ], [ 132.72, 33.02 ], [ 132.8, 33.1 ], [ 135.5, 33.9 ], [ 139.3, 34.9 ], [ 142.9, 35.6 ] ] } },
{ "type": "Feature", "properties": { "ID": 31435, "LAT": 36.4, "LON": 155.9, "VMAX": 55.0, "MSLP": 999.55927, "RMAX": 43.63105, "FSPD": 12.44879, "FDIR": 87.63159, "RENV": 250.0, "PENV": 1012.0, "VALIDT": 24, "DTG": "2025-09-06 12:00", "LATNOW": 35.6, "LONNOW": 142.9, "WINDNOW": 50.0, "DIRNOW": 15.0, "SPDNOW": 0.0, "TECH": "FCST", "ADVNR": 9, "ATCFID": "WP212025", "NAME": "PEIPAH", "FTECH": "JTWC", "FCST_DTG": "2025-09-05 12:00:00", "RUN_DTG": "2025-09-06 06:27:07", "BASIN": "WP", "STMNR": 21, "CAT_ID": null, "CAT_DESC": null, "MSGID": "WTPN51 PGTW 051500", "VALIDTIME": "2025-09-06 12:00:00" }, "geometry": { "type": "LineString", "coordinates": [ [ 142.9, 35.6 ], [ 149.9, 36.2 ], [ 155.9, 36.4 ] ] } }
]
}
