{
"type": "FeatureCollection",
"crs": { "type": "name", "properties": { "name": "urn:ogc:def:crs:OGC:1.3:CRS84" } },
"features": [
{ "type": "Feature", "properties": { "ID": 102009, "LAT": 9.3, "LON": -16.5, "VMAX": 25.0, "MSLP": 1009.0, "RMAX": 100.0, "FSPD": 5.05684, "FDIR": 315.4082, "RENV": 120.0, "PENV": 1011.0, "VALIDT": 0, "DTG": "2026-09-23 12:00", "LATNOW": 19.0, "LONNOW": -23.2, "WINDNOW": 35.0, "DIRNOW": 3.0, "SPDNOW": 2.0, "TECH": "TRAK", "ADVNR": 8, "ATCFID": "AL072026", "NAME": "GONZALO", "FTECH": "OFCL", "FCST_DTG": "2026-09-26 18:00:00", "RUN_DTG": "2026-09-27 13:02:03", "BASIN": "AL", "STMNR": 7, "CAT_ID": null, "CAT_DESC": null, "MSGID": "WTNT22 KNHC 262035", "VALIDTIME": "2026-09-23 12:00:00" }, "geometry": { "type": "Point", "coordinates": [ -16.5, 9.3 ] } },
{ "type": "Feature", "properties": { "ID": 102010, "LAT": 10.0, "LON": -17.2, "VMAX": 25.0, "MSLP": 1008.0, "RMAX": 90.0, "FSPD": 10.45778, "FDIR": 299.46716, "RENV": 120.0, "PENV": 1010.0, "VALIDT": 0, "DTG": "2026-09-23 18:00", "LATNOW": 19.0, "LONNOW": -23.2, "WINDNOW": 35.0, "DIRNOW": 3.0, "SPDNOW": 2.0, "TECH": "TRAK", "ADVNR": 8, "ATCFID": "AL072026", "NAME": "GONZALO", "FTECH": "OFCL", "FCST_DTG": "2026-09-26 18:00:00", "RUN_DTG": "2026-09-27 13:02:03", "BASIN": "AL", "STMNR": 7, "CAT_ID": null, "CAT_DESC": null, "MSGID": "WTNT22 KNHC 262035", "VALIDTIME": "2026-09-23 18:00:00" }, "geometry": { "type": "Point", "coordinates": [ -17.200001, 10.0 ] } },
{ "type": "Feature", "properties": { "ID": 102011, "LAT": 11.0, "LON": -19.0, "VMAX": 25.0, "MSLP": 1008.0, "RMAX": 110.0, "FSPD": 6.57844, "FDIR": 293.0172, "RENV": 130.0, "PENV": 1010.0, "VALIDT": 0, "DTG": "2026-09-24 00:00", "LATNOW": 19.0, "LONNOW": -23.2, "WINDNOW": 35.0, "DIRNOW": 3.0, "SPDNOW": 2.0, "TECH": "TRAK", "ADVNR": 8, "ATCFID": "AL072026", "NAME": "GONZALO", "FTECH": "OFCL", "FCST_DTG": "2026-09-26 18:00:00", "RUN_DTG": "2026-09-27 13:02:03", "BASIN": "AL", "STMNR": 7, "CAT_ID": null, "CAT_DESC": null, "MSGID": "WTNT22 KNHC 262035", "VALIDTIME": "2026-09-24 00:00:00" }, "geometry": { "type": "Point", "coordinates": [ -19.0, 11.0 ] } },
{ "type": "Feature", "properties": { "ID": 102012, "LAT": 11.5, "LON": -20.2, "VMAX": 25.0, "MSLP": 1007.0, "RMAX": 110.0, "FSPD": 6.12072, "FDIR": 312.25238, "RENV": 150.0, "PENV": 1011.0, "VALIDT": 0, "DTG": "2026-09-24 06:00", "LATNOW": 19.0, "LONNOW": -23.2, "WINDNOW": 35.0, "DIRNOW": 3.0, "SPDNOW": 2.0, "TECH": "TRAK", "ADVNR": 8, "ATCFID": "AL072026", "NAME": "GONZALO", "FTECH": "OFCL", "FCST_DTG": "2026-09-26 18:00:00", "RUN_DTG": "2026-09-27 13:02:03", "BASIN": "AL", "STMNR": 7, "CAT_ID": null, "CAT_DESC": null, "MSGID": "WTNT22 KNHC 262035", "VALIDTIME": "2026-09-24 06:00:00" }, "geometry": { "type": "Point", "coordinates": [ -20.200001, 11.5 ] } },
{ "type": "Feature", "properties": { "ID": 102013, "LAT": 12.3, "LON": -21.1, "VMAX": 25.0, "MSLP": 1007.0, "RMAX": 110.0, "FSPD": 5.81147, "FDIR": 322.8161, "RENV": 150.0, "PENV": 1011.0, "VALIDT": 0, "DTG": "2026-09-24 12:00", "LATNOW": 19.0, "LONNOW": -23.2, "WINDNOW": 35.0, "DIRNOW": 3.0, "SPDNOW": 2.0, "TECH": "TRAK", "ADVNR": 8, "ATCFID": "AL072026", "NAME": "GONZALO", "FTECH": "OFCL", "FCST_DTG": "2026-09-26 18:00:00", "RUN_DTG": "2026-09-27 13:02:03", "BASIN": "AL", "STMNR": 7, "CAT_ID": null, "CAT_DESC": null, "MSGID": "WTNT22 KNHC 262035", "VALIDTIME": "2026-09-24 12:00:00" }, "geometry": { "type": "Point", "coordinates": [ -21.1, 12.3 ] } },
{ "type": "Feature", "properties": { "ID": 102014, "LAT": 13.2, "LON": -21.8, "VMAX": 30.0, "MSLP": 1007.0, "RMAX": 100.0, "FSPD": 1.84025, "FDIR": 213.0017, "RENV": 150.0, "PENV": 1010.0, "VALIDT": 0, "DTG": "2026-09-24 18:00", "LATNOW": 19.0, "LONNOW": -23.2, "WINDNOW": 35.0, "DIRNOW": 3.0, "SPDNOW": 2.0, "TECH": "TRAK", "ADVNR": 8, "ATCFID": "AL072026", "NAME": "GONZALO", "FTECH": "OFCL", "FCST_DTG": "2026-09-26 18:00:00", "RUN_DTG": "2026-09-27 13:02:03", "BASIN": "AL", "STMNR": 7, "CAT_ID": null, "CAT_DESC": null, "MSGID": "WTNT22 KNHC 262035", "VALIDTIME": "2026-09-24 18:00:00" }, "geometry": { "type": "Point", "coordinates": [ -21.799999, 13.2 ] } },
{ "type": "Feature", "properties": { "ID": 102015, "LAT": 12.9, "LON": -22.0, "VMAX": 40.0, "MSLP": 1004.0, "RMAX": 70.0, "FSPD": 4.38105, "FDIR": 339.9509, "RENV": 200.0, "PENV": 1012.0, "VALIDT": 0, "DTG": "2026-09-25 00:00", "LATNOW": 19.0, "LONNOW": -23.2, "WINDNOW": 35.0, "DIRNOW": 3.0, "SPDNOW": 2.0, "TECH": "TRAK", "ADVNR": 8, "ATCFID": "AL072026", "NAME": "GONZALO", "FTECH": "OFCL", "FCST_DTG": "2026-09-26 18:00:00", "RUN_DTG": "2026-09-27 13:02:03", "BASIN": "AL", "STMNR": 7, "CAT_ID": null, "CAT_DESC": null, "MSGID": "WTNT22 KNHC 262035", "VALIDTIME": "2026-09-25 00:00:00" }, "geometry": { "type": "Point", "coordinates": [ -22.0, 12.9 ] } },
{ "type": "Feature", "properties": { "ID": 102016, "LAT": 13.7, "LON": -22.3, "VMAX": 40.0, "MSLP": 1004.0, "RMAX": 70.0, "FSPD": 4.86585, "FDIR": 342.08807, "RENV": 200.0, "PENV": 1012.0, "VALIDT": 0, "DTG": "2026-09-25 06:00", "LATNOW": 19.0, "LONNOW": -23.2, "WINDNOW": 35.0, "DIRNOW": 3.0, "SPDNOW": 2.0, "TECH": "TRAK", "ADVNR": 8, "ATCFID": "AL072026", "NAME": "GONZALO", "FTECH": "OFCL", "FCST_DTG": "2026-09-26 18:00:00", "RUN_DTG": "2026-09-27 13:02:03", "BASIN": "AL", "STMNR": 7, "CAT_ID": null, "CAT_DESC": null, "MSGID": "WTNT22 KNHC 262035", "VALIDTIME": "2026-09-25 06:00:00" }, "geometry": { "type": "Point", "coordinates": [ -22.299999, 13.7 ] } },
{ "type": "Feature", "properties": { "ID": 102017, "LAT": 14.6, "LON": -22.6, "VMAX": 45.0, "MSLP": 1000.0, "RMAX": 90.0, "FSPD": 5.65889, "FDIR": 360.0, "RENV": 200.0, "PENV": 1011.0, "VALIDT": 0, "DTG": "2026-09-25 12:00", "LATNOW": 19.0, "LONNOW": -23.2, "WINDNOW": 35.0, "DIRNOW": 3.0, "SPDNOW": 2.0, "TECH": "TRAK", "ADVNR": 8, "ATCFID": "AL072026", "NAME": "GONZALO", "FTECH": "OFCL", "FCST_DTG": "2026-09-26 18:00:00", "RUN_DTG": "2026-09-27 13:02:03", "BASIN": "AL", "STMNR": 7, "CAT_ID": null, "CAT_DESC": null, "MSGID": "WTNT22 KNHC 262035", "VALIDTIME": "2026-09-25 12:00:00" }, "geometry": { "type": "Point", "coordinates": [ -22.6, 14.6 ] } },
{ "type": "Feature", "properties": { "ID": 102018, "LAT": 15.7, "LON": -22.6, "VMAX": 45.0, "MSLP": 1000.0, "RMAX": 90.0, "FSPD": 4.14513, "FDIR": 6.8483, "RENV": 220.0, "PENV": 1011.0, "VALIDT": 0, "DTG": "2026-09-25 18:00", "LATNOW": 19.0, "LONNOW": -23.2, "WINDNOW": 35.0, "DIRNOW": 3.0, "SPDNOW": 2.0, "TECH": "TRAK", "ADVNR": 8, "ATCFID": "AL072026", "NAME": "GONZALO", "FTECH": "OFCL", "FCST_DTG": "2026-09-26 18:00:00", "RUN_DTG": "2026-09-27 13:02:03", "BASIN": "AL", "STMNR": 7, "CAT_ID": null, "CAT_DESC": null, "MSGID": "WTNT22 KNHC 262035", "VALIDTIME": "2026-09-25 18:00:00" }, "geometry": { "type": "Point", "coordinates": [ -22.6, 15.7 ] } },
{ "type": "Feature", "properties": { "ID": 102019, "LAT": 16.5, "LON": -22.5, "VMAX": 40.0, "MSLP": 1002.0, "RMAX": 90.0, "FSPD": 4.10447, "FDIR": 331.326, "RENV": 170.0, "PENV": 1009.0, "VALIDT": 0, "DTG": "2026-09-26 00:00", "LATNOW": 19.0, "LONNOW": -23.2, "WINDNOW": 35.0, "DIRNOW": 3.0, "SPDNOW": 2.0, "TECH": "TRAK", "ADVNR": 8, "ATCFID": "AL072026", "NAME": "GONZALO", "FTECH": "OFCL", "FCST_DTG": "2026-09-26 18:00:00", "RUN_DTG": "2026-09-27 13:02:03", "BASIN": "AL", "STMNR": 7, "CAT_ID": null, "CAT_DESC": null, "MSGID": "WTNT22 KNHC 262035", "VALIDTIME": "2026-09-26 00:00:00" }, "geometry": { "type": "Point", "coordinates": [ -22.5, 16.5 ] } },
{ "type": "Feature", "properties": { "ID": 102020, "LAT": 17.2, "LON": -22.9, "VMAX": 40.0, "MSLP": 1002.0, "RMAX": 90.0, "FSPD": 5.68005, "FDIR": 4.94843, "RENV": 170.0, "PENV": 1011.0, "VALIDT": 0, "DTG": "2026-09-26 06:00", "LATNOW": 19.0, "LONNOW": -23.2, "WINDNOW": 35.0, "DIRNOW": 3.0, "SPDNOW": 2.0, "TECH": "TRAK", "ADVNR": 8, "ATCFID": "AL072026", "NAME": "GONZALO", "FTECH": "OFCL", "FCST_DTG": "2026-09-26 18:00:00", "RUN_DTG": "2026-09-27 13:02:03", "BASIN": "AL", "STMNR": 7, "CAT_ID": null, "CAT_DESC": null, "MSGID": "WTNT22 KNHC 262035", "VALIDTIME": "2026-09-26 06:00:00" }, "geometry": { "type": "Point", "coordinates": [ -22.9, 17.200001 ] } },
{ "type": "Feature", "properties": { "ID": 102021, "LAT": 18.3, "LON": -22.8, "VMAX": 35.0, "MSLP": 1004.0, "RMAX": 90.0, "FSPD": 4.09506, "FDIR": 331.5678, "RENV": 210.0, "PENV": 1012.0, "VALIDT": 0, "DTG": "2026-09-26 12:00", "LATNOW": 19.0, "LONNOW": -23.2, "WINDNOW": 35.0, "DIRNOW": 3.0, "SPDNOW": 2.0, "TECH": "TRAK", "ADVNR": 8, "ATCFID": "AL072026", "NAME": "GONZALO", "FTECH": "OFCL", "FCST_DTG": "2026-09-26 18:00:00", "RUN_DTG": "2026-09-27 13:02:03", "BASIN": "AL", "STMNR": 7, "CAT_ID": null, "CAT_DESC": null, "MSGID": "WTNT22 KNHC 262035", "VALIDTIME": "2026-09-26 12:00:00" }, "geometry": { "type": "Point", "coordinates": [ -22.799999, 18.299999 ] } },
{ "type": "Feature", "properties": { "ID": 102022, "LAT": 19.0, "LON": -23.2, "VMAX": 35.0, "MSLP": 1005.0, "RMAX": 110.0, "FSPD": 3.23607, "FDIR": 342.52164, "RENV": 210.0, "PENV": 1012.0, "VALIDT": 0, "DTG": "2026-09-26 18:00", "LATNOW": 19.0, "LONNOW": -23.2, "WINDNOW": 35.0, "DIRNOW": 3.0, "SPDNOW": 2.0, "TECH": "TRAK", "ADVNR": 8, "ATCFID": "AL072026", "NAME": "GONZALO", "FTECH": "OFCL", "FCST_DTG": "2026-09-26 18:00:00", "RUN_DTG": "2026-09-27 13:02:03", "BASIN": "AL", "STMNR": 7, "CAT_ID": null, "CAT_DESC": null, "MSGID": "WTNT22 KNHC 262035", "VALIDTIME": "2026-09-26 18:00:00" }, "geometry": { "type": "Point", "coordinates": [ -23.200001, 19.0 ] } },
{ "type": "Feature", "properties": { "ID": 102023, "LAT": 19.3, "LON": -23.3, "VMAX": 35.0, "MSLP": 1005.0, "RMAX": 111.31093, "FSPD": 2.81868, "FDIR": 346.75543, "RENV": 180.0, "PENV": 1012.0, "VALIDT": 3, "DTG": "2026-09-26 21:00", "LATNOW": 19.0, "LONNOW": -23.2, "WINDNOW": 35.0, "DIRNOW": 3.0, "SPDNOW": 2.0, "TECH": "FCST", "ADVNR": 8, "ATCFID": "AL072026", "NAME": "GONZALO", "FTECH": "OFCL", "FCST_DTG": "2026-09-26 18:00:00", "RUN_DTG": "2026-09-27 13:02:03", "BASIN": "AL", "STMNR": 7, "CAT_ID": null, "CAT_DESC": null, "MSGID": "WTNT22 KNHC 262035", "VALIDTIME": "2026-09-26 21:00:00" }, "geometry": { "type": "Point", "coordinates": [ -23.299999, 19.299999 ] } },
{ "type": "Feature", "properties": { "ID": 102024, "LAT": 20.1, "LON": -23.5, "VMAX": 30.0, "MSLP": 1010.40607, "RMAX": 115.21873, "FSPD": 1.86396, "FDIR": 345.01282, "RENV": 250.0, "PENV": 1012.0, "VALIDT": 12, "DTG": "2026-09-27 06:00", "LATNOW": 19.0, "LONNOW": -23.2, "WINDNOW": 35.0, "DIRNOW": 3.0, "SPDNOW": 2.0, "TECH": "FCST", "ADVNR": 8, "ATCFID": "AL072026", "NAME": "GONZALO", "FTECH": "OFCL", "FCST_DTG": "2026-09-26 18:00:00", "RUN_DTG": "2026-09-27 13:02:03", "BASIN": "AL", "STMNR": 7, "CAT_ID": null, "CAT_DESC": null, "MSGID": "WTNT22 KNHC 262035", "VALIDTIME": "2026-09-27 06:00:00" }, "geometry": { "type": "Point", "coordinates": [ -23.5, 20.1 ] } },
{ "type": "Feature", "properties": { "ID": 102025, "LAT": 20.8, "LON": -23.7, "VMAX": 25.0, "MSLP": 1011.80975, "RMAX": 118.48015, "FSPD": 1.60503, "FDIR": 323.2545, "RENV": 250.0, "PENV": 1012.0, "VALIDT": 24, "DTG": "2026-09-27 18:00", "LATNOW": 19.0, "LONNOW": -23.2, "WINDNOW": 35.0, "DIRNOW": 3.0, "SPDNOW": 2.0, "TECH": "FCST", "ADVNR": 8, "ATCFID": "AL072026", "NAME": "GONZALO", "FTECH": "OFCL", "FCST_DTG": "2026-09-26 18:00:00", "RUN_DTG": "2026-09-27 13:02:03", "BASIN": "AL", "STMNR": 7, "CAT_ID": null, "CAT_DESC": null, "MSGID": "WTNT22 KNHC 262035", "VALIDTIME": "2026-09-27 18:00:00" }, "geometry": { "type": "Point", "coordinates": [ -23.700001, 20.799999 ] } },
{ "type": "Feature", "properties": { "ID": 102026, "LAT": 21.3, "LON": -24.1, "VMAX": 20.0, "MSLP": 1012.95825, "RMAX": 120.85146, "FSPD": 1.08735, "FDIR": 298.237, "RENV": 250.0, "PENV": 1012.0, "VALIDT": 36, "DTG": "2026-09-28 06:00", "LATNOW": 19.0, "LONNOW": -23.2, "WINDNOW": 35.0, "DIRNOW": 3.0, "SPDNOW": 2.0, "TECH": "FCST", "ADVNR": 8, "ATCFID": "AL072026", "NAME": "GONZALO", "FTECH": "OFCL", "FCST_DTG": "2026-09-26 18:00:00", "RUN_DTG": "2026-09-27 13:02:03", "BASIN": "AL", "STMNR": 7, "CAT_ID": null, "CAT_DESC": null, "MSGID": "WTNT22 KNHC 262035", "VALIDTIME": "2026-09-28 06:00:00" }, "geometry": { "type": "Point", "coordinates": [ -24.1, 21.299999 ] } },
{ "type": "Feature", "properties": { "ID": 102027, "LAT": 21.5, "LON": -24.5, "VMAX": 20.0, "MSLP": 1012.95825, "RMAX": 121.80975, "FSPD": 1.52439, "FDIR": 289.72327, "RENV": 250.0, "PENV": 1012.0, "VALIDT": 48, "DTG": "2026-09-28 18:00", "LATNOW": 19.0, "LONNOW": -23.2, "WINDNOW": 35.0, "DIRNOW": 3.0, "SPDNOW": 2.0, "TECH": "FCST", "ADVNR": 8, "ATCFID": "AL072026", "NAME": "GONZALO", "FTECH": "OFCL", "FCST_DTG": "2026-09-26 18:00:00", "RUN_DTG": "2026-09-27 13:02:03", "BASIN": "AL", "STMNR": 7, "CAT_ID": null, "CAT_DESC": null, "MSGID": "WTNT22 KNHC 262035", "VALIDTIME": "2026-09-28 18:00:00" }, "geometry": { "type": "Point", "coordinates": [ -24.5, 21.5 ] } },
{ "type": "Feature", "properties": { "ID": 102028, "LAT": 21.7, "LON": -25.1, "VMAX": 20.0, "MSLP": 1012.95825, "RMAX": 122.77563, "FSPD": 1.52439, "FDIR": 289.72327, "RENV": 250.0, "PENV": 1012.0, "VALIDT": 60, "DTG": "2026-09-29 06:00", "LATNOW": 19.0, "LONNOW": -23.2, "WINDNOW": 35.0, "DIRNOW": 3.0, "SPDNOW": 2.0, "TECH": "FCST", "ADVNR": 8, "ATCFID": "AL072026", "NAME": "GONZALO", "FTECH": "OFCL", "FCST_DTG": "2026-09-26 18:00:00", "RUN_DTG": "2026-09-27 13:02:03", "BASIN": "AL", "STMNR": 7, "CAT_ID": null, "CAT_DESC": null, "MSGID": "WTNT22 KNHC 262035", "VALIDTIME": "2026-09-29 06:00:00" }, "geometry": { "type": "Point", "coordinates": [ -25.1, 21.700001 ] } },
{ "type": "Feature", "properties": { "ID": 102022, "LAT": 19.0, "LON": -23.2, "VMAX": 35.0, "MSLP": 1005.0, "RMAX": 110.0, "FSPD": 3.23607, "FDIR": 342.52164, "RENV": 210.0, "PENV": 1012.0, "VALIDT": 0, "DTG": "2026-09-26 18:00", "LATNOW": 19.0, "LONNOW": -23.2, "WINDNOW": 35.0, "DIRNOW": 3.0, "SPDNOW": 2.0, "TECH": "TRAK", "ADVNR": 8, "ATCFID": "AL072026", "NAME": "GONZALO", "FTECH": "OFCL", "FCST_DTG": "2026-09-26 18:00:00", "RUN_DTG": "2026-09-27 13:02:03", "BASIN": "AL", "STMNR": 7, "CAT_ID": null, "CAT_DESC": null, "MSGID": "WTNT22 KNHC 262035", "VALIDTIME": "2026-09-26 18:00:00" }, "geometry": { "type": "LineString", "coordinates": [ [ -16.5, 9.3 ], [ -17.2, 10.0 ], [ -19.0, 11.0 ], [ -20.2, 11.5 ], [ -21.1, 12.3 ], [ -21.8, 13.2 ], [ -22.0, 12.9 ], [ -22.3, 13.7 ], [ -22.6, 14.6 ], [ -22.6, 15.7 ], [ -22.5, 16.5 ], [ -22.9, 17.2 ], [ -22.8, 18.3 ], [ -23.2, 19.0 ] ] } },
{ "type": "Feature", "properties": { "ID": 102028, "LAT": 21.7, "LON": -25.1, "VMAX": 20.0, "MSLP": 1012.95825, "RMAX": 122.77563, "FSPD": 1.52439, "FDIR": 289.72327, "RENV": 250.0, "PENV": 1012.0, "VALIDT": 60, "DTG": "2026-09-29 06:00", "LATNOW": 19.0, "LONNOW": -23.2, "WINDNOW": 35.0, "DIRNOW": 3.0, "SPDNOW": 2.0, "TECH": "FCST", "ADVNR": 8, "ATCFID": "AL072026", "NAME": "GONZALO", "FTECH": "OFCL", "FCST_DTG": "2026-09-26 18:00:00", "RUN_DTG": "2026-09-27 13:02:03", "BASIN": "AL", "STMNR": 7, "CAT_ID": null, "CAT_DESC": null, "MSGID": "WTNT22 KNHC 262035", "VALIDTIME": "2026-09-29 06:00:00" }, "geometry": { "type": "LineString", "coordinates": [ [ -23.2, 19.0 ], [ -23.3, 19.3 ], [ -23.5, 20.1 ], [ -23.7, 20.8 ], [ -24.1, 21.3 ], [ -24.5, 21.5 ], [ -25.1, 21.7 ] ] } }
]
}
