{
"type": "FeatureCollection",
"crs": { "type": "name", "properties": { "name": "urn:ogc:def:crs:OGC:1.3:CRS84" } },
"features": [
{ "type": "Feature", "properties": { "ID": 302791, "LAT": -18.5, "LON": 148.5, "VMAX": 20.0, "MSLP": 1012.95825, "RMAX": 45.0, "FSPD": 3.56472, "FDIR": 106.77603, "RENV": 500.0, "PENV": 1012.0, "VALIDT": 0, "DTG": "2025-02-08 12:00", "LATNOW": -23.6, "LONNOW": 166.6, "WINDNOW": 40.0, "DIRNOW": 2.0, "SPDNOW": 6.0, "TECH": "TRAK", "ADVNR": 3, "ATCFID": "SH162025", "NAME": "SIXTEEN", "FTECH": "JTWC", "FCST_DTG": "2025-02-12 00:00:00", "RUN_DTG": "2025-02-12 20:44:00", "BASIN": "SH", "STMNR": 16, "CAT_ID": null, "CAT_DESC": null, "MSGID": "WTPS51 PGTW 120300", "VALIDTIME": "2025-02-08 12:00:00" }, "geometry": { "type": "Point", "coordinates": [ 148.5, -18.5 ] } },
{ "type": "Feature", "properties": { "ID": 302792, "LAT": -18.7, "LON": 149.2, "VMAX": 20.0, "MSLP": 1012.95825, "RMAX": 45.0, "FSPD": 3.09787, "FDIR": 109.3978, "RENV": 500.0, "PENV": 1012.0, "VALIDT": 0, "DTG": "2025-02-08 18:00", "LATNOW": -23.6, "LONNOW": 166.6, "WINDNOW": 40.0, "DIRNOW": 2.0, "SPDNOW": 6.0, "TECH": "TRAK", "ADVNR": 3, "ATCFID": "SH162025", "NAME": "SIXTEEN", "FTECH": "JTWC", "FCST_DTG": "2025-02-12 00:00:00", "RUN_DTG": "2025-02-12 20:44:00", "BASIN": "SH", "STMNR": 16, "CAT_ID": null, "CAT_DESC": null, "MSGID": "WTPS51 PGTW 120300", "VALIDTIME": "2025-02-08 18:00:00" }, "geometry": { "type": "Point", "coordinates": [ 149.199997, -18.700001 ] } },
{ "type": "Feature", "properties": { "ID": 302793, "LAT": -18.9, "LON": 149.8, "VMAX": 20.0, "MSLP": 1012.95825, "RMAX": 45.0, "FSPD": 3.89368, "FDIR": 90.0, "RENV": 500.0, "PENV": 1012.0, "VALIDT": 0, "DTG": "2025-02-09 00:00", "LATNOW": -23.6, "LONNOW": 166.6, "WINDNOW": 40.0, "DIRNOW": 2.0, "SPDNOW": 6.0, "TECH": "TRAK", "ADVNR": 3, "ATCFID": "SH162025", "NAME": "SIXTEEN", "FTECH": "JTWC", "FCST_DTG": "2025-02-12 00:00:00", "RUN_DTG": "2025-02-12 20:44:00", "BASIN": "SH", "STMNR": 16, "CAT_ID": null, "CAT_DESC": null, "MSGID": "WTPS51 PGTW 120300", "VALIDTIME": "2025-02-09 00:00:00" }, "geometry": { "type": "Point", "coordinates": [ 149.800003, -18.9 ] } },
{ "type": "Feature", "properties": { "ID": 302794, "LAT": -18.9, "LON": 150.6, "VMAX": 20.0, "MSLP": 1012.95825, "RMAX": 45.0, "FSPD": 6.32715, "FDIR": 90.0, "RENV": 500.0, "PENV": 1012.0, "VALIDT": 0, "DTG": "2025-02-09 06:00", "LATNOW": -23.6, "LONNOW": 166.6, "WINDNOW": 40.0, "DIRNOW": 2.0, "SPDNOW": 6.0, "TECH": "TRAK", "ADVNR": 3, "ATCFID": "SH162025", "NAME": "SIXTEEN", "FTECH": "JTWC", "FCST_DTG": "2025-02-12 00:00:00", "RUN_DTG": "2025-02-12 20:44:00", "BASIN": "SH", "STMNR": 16, "CAT_ID": null, "CAT_DESC": null, "MSGID": "WTPS51 PGTW 120300", "VALIDTIME": "2025-02-09 06:00:00" }, "geometry": { "type": "Point", "coordinates": [ 150.600006, -18.9 ] } },
{ "type": "Feature", "properties": { "ID": 302795, "LAT": -18.9, "LON": 151.9, "VMAX": 25.0, "MSLP": 1011.80975, "RMAX": 45.0, "FSPD": 8.77324, "FDIR": 93.3616, "RENV": 500.0, "PENV": 1012.0, "VALIDT": 0, "DTG": "2025-02-09 12:00", "LATNOW": -23.6, "LONNOW": 166.6, "WINDNOW": 40.0, "DIRNOW": 2.0, "SPDNOW": 6.0, "TECH": "TRAK", "ADVNR": 3, "ATCFID": "SH162025", "NAME": "SIXTEEN", "FTECH": "JTWC", "FCST_DTG": "2025-02-12 00:00:00", "RUN_DTG": "2025-02-12 20:44:00", "BASIN": "SH", "STMNR": 16, "CAT_ID": null, "CAT_DESC": null, "MSGID": "WTPS51 PGTW 120300", "VALIDTIME": "2025-02-09 12:00:00" }, "geometry": { "type": "Point", "coordinates": [ 151.899994, -18.9 ] } },
{ "type": "Feature", "properties": { "ID": 302796, "LAT": -19.0, "LON": 153.7, "VMAX": 25.0, "MSLP": 1011.80975, "RMAX": 45.0, "FSPD": 3.92405, "FDIR": 97.53314, "RENV": 500.0, "PENV": 1012.0, "VALIDT": 0, "DTG": "2025-02-09 18:00", "LATNOW": -23.6, "LONNOW": 166.6, "WINDNOW": 40.0, "DIRNOW": 2.0, "SPDNOW": 6.0, "TECH": "TRAK", "ADVNR": 3, "ATCFID": "SH162025", "NAME": "SIXTEEN", "FTECH": "JTWC", "FCST_DTG": "2025-02-12 00:00:00", "RUN_DTG": "2025-02-12 20:44:00", "BASIN": "SH", "STMNR": 16, "CAT_ID": null, "CAT_DESC": null, "MSGID": "WTPS51 PGTW 120300", "VALIDTIME": "2025-02-09 18:00:00" }, "geometry": { "type": "Point", "coordinates": [ 153.699997, -19.0 ] } },
{ "type": "Feature", "properties": { "ID": 302797, "LAT": -19.1, "LON": 154.5, "VMAX": 25.0, "MSLP": 1011.80975, "RMAX": 45.0, "FSPD": 10.98387, "FDIR": 112.00513, "RENV": 500.0, "PENV": 1012.0, "VALIDT": 0, "DTG": "2025-02-10 00:00", "LATNOW": -23.6, "LONNOW": 166.6, "WINDNOW": 40.0, "DIRNOW": 2.0, "SPDNOW": 6.0, "TECH": "TRAK", "ADVNR": 3, "ATCFID": "SH162025", "NAME": "SIXTEEN", "FTECH": "JTWC", "FCST_DTG": "2025-02-12 00:00:00", "RUN_DTG": "2025-02-12 20:44:00", "BASIN": "SH", "STMNR": 16, "CAT_ID": null, "CAT_DESC": null, "MSGID": "WTPS51 PGTW 120300", "VALIDTIME": "2025-02-10 00:00:00" }, "geometry": { "type": "Point", "coordinates": [ 154.5, -19.1 ] } },
{ "type": "Feature", "properties": { "ID": 302798, "LAT": -19.9, "LON": 156.6, "VMAX": 25.0, "MSLP": 1011.80975, "RMAX": 45.0, "FSPD": 13.5511, "FDIR": 112.31091, "RENV": 500.0, "PENV": 1012.0, "VALIDT": 0, "DTG": "2025-02-10 06:00", "LATNOW": -23.6, "LONNOW": 166.6, "WINDNOW": 40.0, "DIRNOW": 2.0, "SPDNOW": 6.0, "TECH": "TRAK", "ADVNR": 3, "ATCFID": "SH162025", "NAME": "SIXTEEN", "FTECH": "JTWC", "FCST_DTG": "2025-02-12 00:00:00", "RUN_DTG": "2025-02-12 20:44:00", "BASIN": "SH", "STMNR": 16, "CAT_ID": null, "CAT_DESC": null, "MSGID": "WTPS51 PGTW 120300", "VALIDTIME": "2025-02-10 06:00:00" }, "geometry": { "type": "Point", "coordinates": [ 156.600006, -19.9 ] } },
{ "type": "Feature", "properties": { "ID": 302799, "LAT": -20.9, "LON": 159.2, "VMAX": 30.0, "MSLP": 1010.40607, "RMAX": 44.21983, "FSPD": 7.20894, "FDIR": 90.0, "RENV": 500.0, "PENV": 1012.0, "VALIDT": 0, "DTG": "2025-02-10 12:00", "LATNOW": -23.6, "LONNOW": 166.6, "WINDNOW": 40.0, "DIRNOW": 2.0, "SPDNOW": 6.0, "TECH": "TRAK", "ADVNR": 3, "ATCFID": "SH162025", "NAME": "SIXTEEN", "FTECH": "JTWC", "FCST_DTG": "2025-02-12 00:00:00", "RUN_DTG": "2025-02-12 20:44:00", "BASIN": "SH", "STMNR": 16, "CAT_ID": null, "CAT_DESC": null, "MSGID": "WTPS51 PGTW 120300", "VALIDTIME": "2025-02-10 12:00:00" }, "geometry": { "type": "Point", "coordinates": [ 159.199997, -20.9 ] } },
{ "type": "Feature", "properties": { "ID": 302800, "LAT": -20.9, "LON": 160.7, "VMAX": 30.0, "MSLP": 1010.40607, "RMAX": 44.21983, "FSPD": 9.12853, "FDIR": 116.79791, "RENV": 500.0, "PENV": 1012.0, "VALIDT": 0, "DTG": "2025-02-10 18:00", "LATNOW": -23.6, "LONNOW": 166.6, "WINDNOW": 40.0, "DIRNOW": 2.0, "SPDNOW": 6.0, "TECH": "TRAK", "ADVNR": 3, "ATCFID": "SH162025", "NAME": "SIXTEEN", "FTECH": "JTWC", "FCST_DTG": "2025-02-12 00:00:00", "RUN_DTG": "2025-02-12 20:44:00", "BASIN": "SH", "STMNR": 16, "CAT_ID": null, "CAT_DESC": null, "MSGID": "WTPS51 PGTW 120300", "VALIDTIME": "2025-02-10 18:00:00" }, "geometry": { "type": "Point", "coordinates": [ 160.699997, -20.9 ] } },
{ "type": "Feature", "properties": { "ID": 302801, "LAT": -21.7, "LON": 162.4, "VMAX": 40.0, "MSLP": 1006.833, "RMAX": 41.26637, "FSPD": 6.08745, "FDIR": 120.46771, "RENV": 500.0, "PENV": 1012.0, "VALIDT": 0, "DTG": "2025-02-11 00:00", "LATNOW": -23.6, "LONNOW": 166.6, "WINDNOW": 40.0, "DIRNOW": 2.0, "SPDNOW": 6.0, "TECH": "TRAK", "ADVNR": 3, "ATCFID": "SH162025", "NAME": "SIXTEEN", "FTECH": "JTWC", "FCST_DTG": "2025-02-12 00:00:00", "RUN_DTG": "2025-02-12 20:44:00", "BASIN": "SH", "STMNR": 16, "CAT_ID": null, "CAT_DESC": null, "MSGID": "WTPS51 PGTW 120300", "VALIDTIME": "2025-02-11 00:00:00" }, "geometry": { "type": "Point", "coordinates": [ 162.399994, -21.700001 ] } },
{ "type": "Feature", "properties": { "ID": 302802, "LAT": -22.3, "LON": 163.5, "VMAX": 40.0, "MSLP": 997.0, "RMAX": 70.0, "FSPD": 6.73989, "FDIR": 122.29633, "RENV": 230.0, "PENV": 1006.0, "VALIDT": 0, "DTG": "2025-02-11 06:00", "LATNOW": -23.6, "LONNOW": 166.6, "WINDNOW": 40.0, "DIRNOW": 2.0, "SPDNOW": 6.0, "TECH": "TRAK", "ADVNR": 3, "ATCFID": "SH162025", "NAME": "SIXTEEN", "FTECH": "JTWC", "FCST_DTG": "2025-02-12 00:00:00", "RUN_DTG": "2025-02-12 20:44:00", "BASIN": "SH", "STMNR": 16, "CAT_ID": null, "CAT_DESC": null, "MSGID": "WTPS51 PGTW 120300", "VALIDTIME": "2025-02-11 06:00:00" }, "geometry": { "type": "Point", "coordinates": [ 163.5, -22.299999 ] } },
{ "type": "Feature", "properties": { "ID": 302803, "LAT": -23.0, "LON": 164.7, "VMAX": 35.0, "MSLP": 997.0, "RMAX": 70.0, "FSPD": 5.42732, "FDIR": 106.52075, "RENV": 230.0, "PENV": 1006.0, "VALIDT": 0, "DTG": "2025-02-11 12:00", "LATNOW": -23.6, "LONNOW": 166.6, "WINDNOW": 40.0, "DIRNOW": 2.0, "SPDNOW": 6.0, "TECH": "TRAK", "ADVNR": 3, "ATCFID": "SH162025", "NAME": "SIXTEEN", "FTECH": "JTWC", "FCST_DTG": "2025-02-12 00:00:00", "RUN_DTG": "2025-02-12 20:44:00", "BASIN": "SH", "STMNR": 16, "CAT_ID": null, "CAT_DESC": null, "MSGID": "WTPS51 PGTW 120300", "VALIDTIME": "2025-02-11 12:00:00" }, "geometry": { "type": "Point", "coordinates": [ 164.699997, -23.0 ] } },
{ "type": "Feature", "properties": { "ID": 302804, "LAT": -23.3, "LON": 165.8, "VMAX": 40.0, "MSLP": 1006.833, "RMAX": 41.26637, "FSPD": 4.07891, "FDIR": 112.23276, "RENV": 500.0, "PENV": 1012.0, "VALIDT": 0, "DTG": "2025-02-11 18:00", "LATNOW": -23.6, "LONNOW": 166.6, "WINDNOW": 40.0, "DIRNOW": 2.0, "SPDNOW": 6.0, "TECH": "TRAK", "ADVNR": 3, "ATCFID": "SH162025", "NAME": "SIXTEEN", "FTECH": "JTWC", "FCST_DTG": "2025-02-12 00:00:00", "RUN_DTG": "2025-02-12 20:44:00", "BASIN": "SH", "STMNR": 16, "CAT_ID": null, "CAT_DESC": null, "MSGID": "WTPS51 PGTW 120300", "VALIDTIME": "2025-02-11 18:00:00" }, "geometry": { "type": "Point", "coordinates": [ 165.800003, -23.299999 ] } },
{ "type": "Feature", "properties": { "ID": 302805, "LAT": -23.6, "LON": 166.6, "VMAX": 40.0, "MSLP": 997.0, "RMAX": 70.0, "FSPD": 2.35479, "FDIR": 115.90839, "RENV": 230.0, "PENV": 1006.0, "VALIDT": 0, "DTG": "2025-02-12 00:00", "LATNOW": -23.6, "LONNOW": 166.6, "WINDNOW": 40.0, "DIRNOW": 2.0, "SPDNOW": 6.0, "TECH": "TRAK", "ADVNR": 3, "ATCFID": "SH162025", "NAME": "SIXTEEN", "FTECH": "JTWC", "FCST_DTG": "2025-02-12 00:00:00", "RUN_DTG": "2025-02-12 20:44:00", "BASIN": "SH", "STMNR": 16, "CAT_ID": null, "CAT_DESC": null, "MSGID": "WTPS51 PGTW 120300", "VALIDTIME": "2025-02-12 00:00:00" }, "geometry": { "type": "Point", "coordinates": [ 166.600006, -23.6 ] } },
{ "type": "Feature", "properties": { "ID": 302806, "LAT": -24.0, "LON": 167.5, "VMAX": 35.0, "MSLP": 1008.74713, "RMAX": 82.70312, "FSPD": 2.35479, "FDIR": 115.90839, "RENV": 300.0, "PENV": 1012.0, "VALIDT": 12, "DTG": "2025-02-12 12:00", "LATNOW": -23.6, "LONNOW": 166.6, "WINDNOW": 40.0, "DIRNOW": 2.0, "SPDNOW": 6.0, "TECH": "FCST", "ADVNR": 3, "ATCFID": "SH162025", "NAME": "SIXTEEN", "FTECH": "JTWC", "FCST_DTG": "2025-02-12 00:00:00", "RUN_DTG": "2025-02-12 20:44:00", "BASIN": "SH", "STMNR": 16, "CAT_ID": null, "CAT_DESC": null, "MSGID": "WTPS51 PGTW 120300", "VALIDTIME": "2025-02-12 12:00:00" }, "geometry": { "type": "Point", "coordinates": [ 167.5, -24.0 ] } },
{ "type": "Feature", "properties": { "ID": 302805, "LAT": -23.6, "LON": 166.6, "VMAX": 40.0, "MSLP": 997.0, "RMAX": 70.0, "FSPD": 2.35479, "FDIR": 115.90839, "RENV": 230.0, "PENV": 1006.0, "VALIDT": 0, "DTG": "2025-02-12 00:00", "LATNOW": -23.6, "LONNOW": 166.6, "WINDNOW": 40.0, "DIRNOW": 2.0, "SPDNOW": 6.0, "TECH": "TRAK", "ADVNR": 3, "ATCFID": "SH162025", "NAME": "SIXTEEN", "FTECH": "JTWC", "FCST_DTG": "2025-02-12 00:00:00", "RUN_DTG": "2025-02-12 20:44:00", "BASIN": "SH", "STMNR": 16, "CAT_ID": null, "CAT_DESC": null, "MSGID": "WTPS51 PGTW 120300", "VALIDTIME": "2025-02-12 00:00:00" }, "geometry": { "type": "LineString", "coordinates": [ [ 148.5, -18.5 ], [ 149.2, -18.7 ], [ 149.8, -18.9 ], [ 150.6, -18.9 ], [ 151.9, -18.9 ], [ 153.7, -19.0 ], [ 154.5, -19.1 ], [ 156.6, -19.9 ], [ 159.2, -20.9 ], [ 160.7, -20.9 ], [ 162.4, -21.7 ], [ 163.5, -22.3 ], [ 164.7, -23.0 ], [ 165.8, -23.3 ], [ 166.6, -23.6 ] ] } },
{ "type": "Feature", "properties": { "ID": 302806, "LAT": -24.0, "LON": 167.5, "VMAX": 35.0, "MSLP": 1008.74713, "RMAX": 82.70312, "FSPD": 2.35479, "FDIR": 115.90839, "RENV": 300.0, "PENV": 1012.0, "VALIDT": 12, "DTG": "2025-02-12 12:00", "LATNOW": -23.6, "LONNOW": 166.6, "WINDNOW": 40.0, "DIRNOW": 2.0, "SPDNOW": 6.0, "TECH": "FCST", "ADVNR": 3, "ATCFID": "SH162025", "NAME": "SIXTEEN", "FTECH": "JTWC", "FCST_DTG": "2025-02-12 00:00:00", "RUN_DTG": "2025-02-12 20:44:00", "BASIN": "SH", "STMNR": 16, "CAT_ID": null, "CAT_DESC": null, "MSGID": "WTPS51 PGTW 120300", "VALIDTIME": "2025-02-12 12:00:00" }, "geometry": { "type": "LineString", "coordinates": [ [ 166.6, -23.6 ], [ 167.5, -24.0 ] ] } }
]
}
