{
"type": "FeatureCollection",
"crs": { "type": "name", "properties": { "name": "urn:ogc:def:crs:OGC:1.3:CRS84" } },
"features": [
{ "type": "Feature", "properties": { "ID": 1283, "LAT": 12.9, "LON": 134.5, "VMAX": 15.0, "MSLP": 1013.8515, "RMAX": 40.0, "FSPD": 2.55904, "FDIR": 281.59723, "RENV": 500.0, "PENV": 1012.0, "VALIDT": 0, "DTG": "2025-07-14 18:00", "LATNOW": 20.5, "LONNOW": 118.9, "WINDNOW": 50.0, "DIRNOW": 7.0, "SPDNOW": 3.0, "TECH": "TRAK", "ADVNR": 4, "ATCFID": "WP092025", "NAME": "WIPHA", "FTECH": "JTWC", "FCST_DTG": "2025-07-19 06:00:00", "RUN_DTG": "2025-07-19 08:08:20", "BASIN": "WP", "STMNR": 9, "CAT_ID": null, "CAT_DESC": null, "MSGID": "WTPN51 PGTW 190900", "VALIDTIME": "2025-07-14 18:00:00" }, "geometry": { "type": "Point", "coordinates": [ 134.5, 12.9 ] } },
{ "type": "Feature", "properties": { "ID": 1284, "LAT": 13.0, "LON": 134.0, "VMAX": 15.0, "MSLP": 1013.8515, "RMAX": 40.0, "FSPD": 2.06956, "FDIR": 284.3933, "RENV": 500.0, "PENV": 1012.0, "VALIDT": 0, "DTG": "2025-07-15 00:00", "LATNOW": 20.5, "LONNOW": 118.9, "WINDNOW": 50.0, "DIRNOW": 7.0, "SPDNOW": 3.0, "TECH": "TRAK", "ADVNR": 4, "ATCFID": "WP092025", "NAME": "WIPHA", "FTECH": "JTWC", "FCST_DTG": "2025-07-19 06:00:00", "RUN_DTG": "2025-07-19 08:08:20", "BASIN": "WP", "STMNR": 9, "CAT_ID": null, "CAT_DESC": null, "MSGID": "WTPN51 PGTW 190900", "VALIDTIME": "2025-07-15 00:00:00" }, "geometry": { "type": "Point", "coordinates": [ 134.0, 13.0 ] } },
{ "type": "Feature", "properties": { "ID": 1285, "LAT": 13.1, "LON": 133.6, "VMAX": 15.0, "MSLP": 1013.8515, "RMAX": 40.0, "FSPD": 2.06885, "FDIR": 284.3983, "RENV": 500.0, "PENV": 1012.0, "VALIDT": 0, "DTG": "2025-07-15 06:00", "LATNOW": 20.5, "LONNOW": 118.9, "WINDNOW": 50.0, "DIRNOW": 7.0, "SPDNOW": 3.0, "TECH": "TRAK", "ADVNR": 4, "ATCFID": "WP092025", "NAME": "WIPHA", "FTECH": "JTWC", "FCST_DTG": "2025-07-19 06:00:00", "RUN_DTG": "2025-07-19 08:08:20", "BASIN": "WP", "STMNR": 9, "CAT_ID": null, "CAT_DESC": null, "MSGID": "WTPN51 PGTW 190900", "VALIDTIME": "2025-07-15 06:00:00" }, "geometry": { "type": "Point", "coordinates": [ 133.600006, 13.1 ] } },
{ "type": "Feature", "properties": { "ID": 1286, "LAT": 13.2, "LON": 133.2, "VMAX": 15.0, "MSLP": 1013.8515, "RMAX": 40.0, "FSPD": 4.50141, "FDIR": 297.20276, "RENV": 500.0, "PENV": 1012.0, "VALIDT": 0, "DTG": "2025-07-15 12:00", "LATNOW": 20.5, "LONNOW": 118.9, "WINDNOW": 50.0, "DIRNOW": 7.0, "SPDNOW": 3.0, "TECH": "TRAK", "ADVNR": 4, "ATCFID": "WP092025", "NAME": "WIPHA", "FTECH": "JTWC", "FCST_DTG": "2025-07-19 06:00:00", "RUN_DTG": "2025-07-19 08:08:20", "BASIN": "WP", "STMNR": 9, "CAT_ID": null, "CAT_DESC": null, "MSGID": "WTPN51 PGTW 190900", "VALIDTIME": "2025-07-15 12:00:00" }, "geometry": { "type": "Point", "coordinates": [ 133.199997, 13.2 ] } },
{ "type": "Feature", "properties": { "ID": 1287, "LAT": 13.6, "LON": 132.4, "VMAX": 25.0, "MSLP": 1011.80975, "RMAX": 45.0, "FSPD": 6.08529, "FDIR": 279.7342, "RENV": 500.0, "PENV": 1012.0, "VALIDT": 0, "DTG": "2025-07-15 18:00", "LATNOW": 20.5, "LONNOW": 118.9, "WINDNOW": 50.0, "DIRNOW": 7.0, "SPDNOW": 3.0, "TECH": "TRAK", "ADVNR": 4, "ATCFID": "WP092025", "NAME": "WIPHA", "FTECH": "JTWC", "FCST_DTG": "2025-07-19 06:00:00", "RUN_DTG": "2025-07-19 08:08:20", "BASIN": "WP", "STMNR": 9, "CAT_ID": null, "CAT_DESC": null, "MSGID": "WTPN51 PGTW 190900", "VALIDTIME": "2025-07-15 18:00:00" }, "geometry": { "type": "Point", "coordinates": [ 132.399994, 13.6 ] } },
{ "type": "Feature", "properties": { "ID": 1288, "LAT": 13.8, "LON": 131.2, "VMAX": 25.0, "MSLP": 1011.80975, "RMAX": 45.0, "FSPD": 3.95229, "FDIR": 229.3966, "RENV": 500.0, "PENV": 1012.0, "VALIDT": 0, "DTG": "2025-07-16 00:00", "LATNOW": 20.5, "LONNOW": 118.9, "WINDNOW": 50.0, "DIRNOW": 7.0, "SPDNOW": 3.0, "TECH": "TRAK", "ADVNR": 4, "ATCFID": "WP092025", "NAME": "WIPHA", "FTECH": "JTWC", "FCST_DTG": "2025-07-19 06:00:00", "RUN_DTG": "2025-07-19 08:08:20", "BASIN": "WP", "STMNR": 9, "CAT_ID": null, "CAT_DESC": null, "MSGID": "WTPN51 PGTW 190900", "VALIDTIME": "2025-07-16 00:00:00" }, "geometry": { "type": "Point", "coordinates": [ 131.199997, 13.8 ] } },
{ "type": "Feature", "properties": { "ID": 1289, "LAT": 13.3, "LON": 130.6, "VMAX": 25.0, "MSLP": 1011.80975, "RMAX": 45.0, "FSPD": 4.76347, "FDIR": 237.31706, "RENV": 500.0, "PENV": 1012.0, "VALIDT": 0, "DTG": "2025-07-16 06:00", "LATNOW": 20.5, "LONNOW": 118.9, "WINDNOW": 50.0, "DIRNOW": 7.0, "SPDNOW": 3.0, "TECH": "TRAK", "ADVNR": 4, "ATCFID": "WP092025", "NAME": "WIPHA", "FTECH": "JTWC", "FCST_DTG": "2025-07-19 06:00:00", "RUN_DTG": "2025-07-19 08:08:20", "BASIN": "WP", "STMNR": 9, "CAT_ID": null, "CAT_DESC": null, "MSGID": "WTPN51 PGTW 190900", "VALIDTIME": "2025-07-16 06:00:00" }, "geometry": { "type": "Point", "coordinates": [ 130.600006, 13.3 ] } },
{ "type": "Feature", "properties": { "ID": 1290, "LAT": 12.8, "LON": 129.8, "VMAX": 25.0, "MSLP": 1011.80975, "RMAX": 45.0, "FSPD": 7.8839, "FDIR": 297.1787, "RENV": 500.0, "PENV": 1012.0, "VALIDT": 0, "DTG": "2025-07-16 12:00", "LATNOW": 20.5, "LONNOW": 118.9, "WINDNOW": 50.0, "DIRNOW": 7.0, "SPDNOW": 3.0, "TECH": "TRAK", "ADVNR": 4, "ATCFID": "WP092025", "NAME": "WIPHA", "FTECH": "JTWC", "FCST_DTG": "2025-07-19 06:00:00", "RUN_DTG": "2025-07-19 08:08:20", "BASIN": "WP", "STMNR": 9, "CAT_ID": null, "CAT_DESC": null, "MSGID": "WTPN51 PGTW 190900", "VALIDTIME": "2025-07-16 12:00:00" }, "geometry": { "type": "Point", "coordinates": [ 129.800003, 12.8 ] } },
{ "type": "Feature", "properties": { "ID": 1291, "LAT": 13.5, "LON": 128.4, "VMAX": 25.0, "MSLP": 1011.80975, "RMAX": 45.0, "FSPD": 6.11475, "FDIR": 319.21667, "RENV": 500.0, "PENV": 1012.0, "VALIDT": 0, "DTG": "2025-07-16 18:00", "LATNOW": 20.5, "LONNOW": 118.9, "WINDNOW": 50.0, "DIRNOW": 7.0, "SPDNOW": 3.0, "TECH": "TRAK", "ADVNR": 4, "ATCFID": "WP092025", "NAME": "WIPHA", "FTECH": "JTWC", "FCST_DTG": "2025-07-19 06:00:00", "RUN_DTG": "2025-07-19 08:08:20", "BASIN": "WP", "STMNR": 9, "CAT_ID": null, "CAT_DESC": null, "MSGID": "WTPN51 PGTW 190900", "VALIDTIME": "2025-07-16 18:00:00" }, "geometry": { "type": "Point", "coordinates": [ 128.399994, 13.5 ] } },
{ "type": "Feature", "properties": { "ID": 1292, "LAT": 14.4, "LON": 127.6, "VMAX": 30.0, "MSLP": 1010.40607, "RMAX": 44.21983, "FSPD": 6.50254, "FDIR": 322.2925, "RENV": 500.0, "PENV": 1012.0, "VALIDT": 0, "DTG": "2025-07-17 00:00", "LATNOW": 20.5, "LONNOW": 118.9, "WINDNOW": 50.0, "DIRNOW": 7.0, "SPDNOW": 3.0, "TECH": "TRAK", "ADVNR": 4, "ATCFID": "WP092025", "NAME": "WIPHA", "FTECH": "JTWC", "FCST_DTG": "2025-07-19 06:00:00", "RUN_DTG": "2025-07-19 08:08:20", "BASIN": "WP", "STMNR": 9, "CAT_ID": null, "CAT_DESC": null, "MSGID": "WTPN51 PGTW 190900", "VALIDTIME": "2025-07-17 00:00:00" }, "geometry": { "type": "Point", "coordinates": [ 127.599998, 14.4 ] } },
{ "type": "Feature", "properties": { "ID": 1293, "LAT": 15.4, "LON": 126.8, "VMAX": 30.0, "MSLP": 1010.40607, "RMAX": 44.21983, "FSPD": 6.80392, "FDIR": 319.12155, "RENV": 500.0, "PENV": 1012.0, "VALIDT": 0, "DTG": "2025-07-17 06:00", "LATNOW": 20.5, "LONNOW": 118.9, "WINDNOW": 50.0, "DIRNOW": 7.0, "SPDNOW": 3.0, "TECH": "TRAK", "ADVNR": 4, "ATCFID": "WP092025", "NAME": "WIPHA", "FTECH": "JTWC", "FCST_DTG": "2025-07-19 06:00:00", "RUN_DTG": "2025-07-19 08:08:20", "BASIN": "WP", "STMNR": 9, "CAT_ID": null, "CAT_DESC": null, "MSGID": "WTPN51 PGTW 190900", "VALIDTIME": "2025-07-17 06:00:00" }, "geometry": { "type": "Point", "coordinates": [ 126.800003, 15.4 ] } },
{ "type": "Feature", "properties": { "ID": 1294, "LAT": 16.4, "LON": 125.9, "VMAX": 30.0, "MSLP": 1010.40607, "RMAX": 44.21983, "FSPD": 6.67015, "FDIR": 297.56525, "RENV": 500.0, "PENV": 1012.0, "VALIDT": 0, "DTG": "2025-07-17 12:00", "LATNOW": 20.5, "LONNOW": 118.9, "WINDNOW": 50.0, "DIRNOW": 7.0, "SPDNOW": 3.0, "TECH": "TRAK", "ADVNR": 4, "ATCFID": "WP092025", "NAME": "WIPHA", "FTECH": "JTWC", "FCST_DTG": "2025-07-19 06:00:00", "RUN_DTG": "2025-07-19 08:08:20", "BASIN": "WP", "STMNR": 9, "CAT_ID": null, "CAT_DESC": null, "MSGID": "WTPN51 PGTW 190900", "VALIDTIME": "2025-07-17 12:00:00" }, "geometry": { "type": "Point", "coordinates": [ 125.900002, 16.4 ] } },
{ "type": "Feature", "properties": { "ID": 1295, "LAT": 17.0, "LON": 124.7, "VMAX": 30.0, "MSLP": 1010.40607, "RMAX": 44.21983, "FSPD": 4.26761, "FDIR": 316.32584, "RENV": 500.0, "PENV": 1012.0, "VALIDT": 0, "DTG": "2025-07-17 18:00", "LATNOW": 20.5, "LONNOW": 118.9, "WINDNOW": 50.0, "DIRNOW": 7.0, "SPDNOW": 3.0, "TECH": "TRAK", "ADVNR": 4, "ATCFID": "WP092025", "NAME": "WIPHA", "FTECH": "JTWC", "FCST_DTG": "2025-07-19 06:00:00", "RUN_DTG": "2025-07-19 08:08:20", "BASIN": "WP", "STMNR": 9, "CAT_ID": null, "CAT_DESC": null, "MSGID": "WTPN51 PGTW 190900", "VALIDTIME": "2025-07-17 18:00:00" }, "geometry": { "type": "Point", "coordinates": [ 124.699997, 17.0 ] } },
{ "type": "Feature", "properties": { "ID": 1296, "LAT": 17.6, "LON": 124.1, "VMAX": 30.0, "MSLP": 1010.40607, "RMAX": 44.21983, "FSPD": 6.17912, "FDIR": 326.36185, "RENV": 500.0, "PENV": 1012.0, "VALIDT": 0, "DTG": "2025-07-18 00:00", "LATNOW": 20.5, "LONNOW": 118.9, "WINDNOW": 50.0, "DIRNOW": 7.0, "SPDNOW": 3.0, "TECH": "TRAK", "ADVNR": 4, "ATCFID": "WP092025", "NAME": "WIPHA", "FTECH": "JTWC", "FCST_DTG": "2025-07-19 06:00:00", "RUN_DTG": "2025-07-19 08:08:20", "BASIN": "WP", "STMNR": 9, "CAT_ID": null, "CAT_DESC": null, "MSGID": "WTPN51 PGTW 190900", "VALIDTIME": "2025-07-18 00:00:00" }, "geometry": { "type": "Point", "coordinates": [ 124.099998, 17.6 ] } },
{ "type": "Feature", "properties": { "ID": 1297, "LAT": 18.6, "LON": 123.4, "VMAX": 35.0, "MSLP": 1008.74713, "RMAX": 42.69135, "FSPD": 5.66959, "FDIR": 309.43195, "RENV": 500.0, "PENV": 1012.0, "VALIDT": 0, "DTG": "2025-07-18 06:00", "LATNOW": 20.5, "LONNOW": 118.9, "WINDNOW": 50.0, "DIRNOW": 7.0, "SPDNOW": 3.0, "TECH": "TRAK", "ADVNR": 4, "ATCFID": "WP092025", "NAME": "WIPHA", "FTECH": "JTWC", "FCST_DTG": "2025-07-19 06:00:00", "RUN_DTG": "2025-07-19 08:08:20", "BASIN": "WP", "STMNR": 9, "CAT_ID": null, "CAT_DESC": null, "MSGID": "WTPN51 PGTW 190900", "VALIDTIME": "2025-07-18 06:00:00" }, "geometry": { "type": "Point", "coordinates": [ 123.400002, 18.6 ] } },
{ "type": "Feature", "properties": { "ID": 1298, "LAT": 19.3, "LON": 122.5, "VMAX": 35.0, "MSLP": 991.0, "RMAX": 85.0, "FSPD": 8.63344, "FDIR": 287.33374, "RENV": 280.0, "PENV": 998.0, "VALIDT": 0, "DTG": "2025-07-18 12:00", "LATNOW": 20.5, "LONNOW": 118.9, "WINDNOW": 50.0, "DIRNOW": 7.0, "SPDNOW": 3.0, "TECH": "TRAK", "ADVNR": 4, "ATCFID": "WP092025", "NAME": "WIPHA", "FTECH": "JTWC", "FCST_DTG": "2025-07-19 06:00:00", "RUN_DTG": "2025-07-19 08:08:20", "BASIN": "WP", "STMNR": 9, "CAT_ID": null, "CAT_DESC": null, "MSGID": "WTPN51 PGTW 190900", "VALIDTIME": "2025-07-18 12:00:00" }, "geometry": { "type": "Point", "coordinates": [ 122.5, 19.299999 ] } },
{ "type": "Feature", "properties": { "ID": 1299, "LAT": 19.8, "LON": 120.8, "VMAX": 45.0, "MSLP": 991.0, "RMAX": 85.0, "FSPD": 5.07604, "FDIR": 287.70062, "RENV": 280.0, "PENV": 998.0, "VALIDT": 0, "DTG": "2025-07-18 18:00", "LATNOW": 20.5, "LONNOW": 118.9, "WINDNOW": 50.0, "DIRNOW": 7.0, "SPDNOW": 3.0, "TECH": "TRAK", "ADVNR": 4, "ATCFID": "WP092025", "NAME": "WIPHA", "FTECH": "JTWC", "FCST_DTG": "2025-07-19 06:00:00", "RUN_DTG": "2025-07-19 08:08:20", "BASIN": "WP", "STMNR": 9, "CAT_ID": null, "CAT_DESC": null, "MSGID": "WTPN51 PGTW 190900", "VALIDTIME": "2025-07-18 18:00:00" }, "geometry": { "type": "Point", "coordinates": [ 120.800003, 19.799999 ] } },
{ "type": "Feature", "properties": { "ID": 1300, "LAT": 20.1, "LON": 119.8, "VMAX": 50.0, "MSLP": 984.0, "RMAX": 50.0, "FSPD": 4.80533, "FDIR": 295.35516, "RENV": 280.0, "PENV": 996.0, "VALIDT": 0, "DTG": "2025-07-19 00:00", "LATNOW": 20.5, "LONNOW": 118.9, "WINDNOW": 50.0, "DIRNOW": 7.0, "SPDNOW": 3.0, "TECH": "TRAK", "ADVNR": 4, "ATCFID": "WP092025", "NAME": "WIPHA", "FTECH": "JTWC", "FCST_DTG": "2025-07-19 06:00:00", "RUN_DTG": "2025-07-19 08:08:20", "BASIN": "WP", "STMNR": 9, "CAT_ID": null, "CAT_DESC": null, "MSGID": "WTPN51 PGTW 190900", "VALIDTIME": "2025-07-19 00:00:00" }, "geometry": { "type": "Point", "coordinates": [ 119.800003, 20.1 ] } },
{ "type": "Feature", "properties": { "ID": 1301, "LAT": 20.5, "LON": 118.9, "VMAX": 50.0, "MSLP": 981.0, "RMAX": 40.0, "FSPD": 6.5779, "FDIR": 288.22995, "RENV": 280.0, "PENV": 996.0, "VALIDT": 0, "DTG": "2025-07-19 06:00", "LATNOW": 20.5, "LONNOW": 118.9, "WINDNOW": 50.0, "DIRNOW": 7.0, "SPDNOW": 3.0, "TECH": "TRAK", "ADVNR": 4, "ATCFID": "WP092025", "NAME": "WIPHA", "FTECH": "JTWC", "FCST_DTG": "2025-07-19 06:00:00", "RUN_DTG": "2025-07-19 08:08:20", "BASIN": "WP", "STMNR": 9, "CAT_ID": null, "CAT_DESC": null, "MSGID": "WTPN51 PGTW 190900", "VALIDTIME": "2025-07-19 06:00:00" }, "geometry": { "type": "Point", "coordinates": [ 118.900002, 20.5 ] } },
{ "type": "Feature", "properties": { "ID": 1302, "LAT": 21.3, "LON": 116.3, "VMAX": 55.0, "MSLP": 999.55927, "RMAX": 48.82689, "FSPD": 6.48663, "FDIR": 274.54883, "RENV": 180.0, "PENV": 1012.0, "VALIDT": 12, "DTG": "2025-07-19 18:00", "LATNOW": 20.5, "LONNOW": 118.9, "WINDNOW": 50.0, "DIRNOW": 7.0, "SPDNOW": 3.0, "TECH": "FCST", "ADVNR": 4, "ATCFID": "WP092025", "NAME": "WIPHA", "FTECH": "JTWC", "FCST_DTG": "2025-07-19 06:00:00", "RUN_DTG": "2025-07-19 08:08:20", "BASIN": "WP", "STMNR": 9, "CAT_ID": null, "CAT_DESC": null, "MSGID": "WTPN51 PGTW 190900", "VALIDTIME": "2025-07-19 18:00:00" }, "geometry": { "type": "Point", "coordinates": [ 116.300003, 21.299999 ] } },
{ "type": "Feature", "properties": { "ID": 1303, "LAT": 21.5, "LON": 113.6, "VMAX": 55.0, "MSLP": 999.55927, "RMAX": 48.82689, "FSPD": 5.05549, "FDIR": 264.15945, "RENV": 250.0, "PENV": 1012.0, "VALIDT": 24, "DTG": "2025-07-20 06:00", "LATNOW": 20.5, "LONNOW": 118.9, "WINDNOW": 50.0, "DIRNOW": 7.0, "SPDNOW": 3.0, "TECH": "FCST", "ADVNR": 4, "ATCFID": "WP092025", "NAME": "WIPHA", "FTECH": "JTWC", "FCST_DTG": "2025-07-19 06:00:00", "RUN_DTG": "2025-07-19 08:08:20", "BASIN": "WP", "STMNR": 9, "CAT_ID": null, "CAT_DESC": null, "MSGID": "WTPN51 PGTW 190900", "VALIDTIME": "2025-07-20 06:00:00" }, "geometry": { "type": "Point", "coordinates": [ 113.599998, 21.5 ] } },
{ "type": "Feature", "properties": { "ID": 1304, "LAT": 21.3, "LON": 111.5, "VMAX": 45.0, "MSLP": 1004.66364, "RMAX": 52.28052, "FSPD": 4.90857, "FDIR": 257.90045, "RENV": 250.0, "PENV": 1012.0, "VALIDT": 36, "DTG": "2025-07-20 18:00", "LATNOW": 20.5, "LONNOW": 118.9, "WINDNOW": 50.0, "DIRNOW": 7.0, "SPDNOW": 3.0, "TECH": "FCST", "ADVNR": 4, "ATCFID": "WP092025", "NAME": "WIPHA", "FTECH": "JTWC", "FCST_DTG": "2025-07-19 06:00:00", "RUN_DTG": "2025-07-19 08:08:20", "BASIN": "WP", "STMNR": 9, "CAT_ID": null, "CAT_DESC": null, "MSGID": "WTPN51 PGTW 190900", "VALIDTIME": "2025-07-20 18:00:00" }, "geometry": { "type": "Point", "coordinates": [ 111.5, 21.299999 ] } },
{ "type": "Feature", "properties": { "ID": 1305, "LAT": 20.9, "LON": 109.5, "VMAX": 40.0, "MSLP": 1006.833, "RMAX": 54.07159, "FSPD": 4.12902, "FDIR": 257.4062, "RENV": 250.0, "PENV": 1012.0, "VALIDT": 48, "DTG": "2025-07-21 06:00", "LATNOW": 20.5, "LONNOW": 118.9, "WINDNOW": 50.0, "DIRNOW": 7.0, "SPDNOW": 3.0, "TECH": "FCST", "ADVNR": 4, "ATCFID": "WP092025", "NAME": "WIPHA", "FTECH": "JTWC", "FCST_DTG": "2025-07-19 06:00:00", "RUN_DTG": "2025-07-19 08:08:20", "BASIN": "WP", "STMNR": 9, "CAT_ID": null, "CAT_DESC": null, "MSGID": "WTPN51 PGTW 190900", "VALIDTIME": "2025-07-21 06:00:00" }, "geometry": { "type": "Point", "coordinates": [ 109.5, 20.9 ] } },
{ "type": "Feature", "properties": { "ID": 1306, "LAT": 20.55, "LON": 107.825, "VMAX": 40.0, "MSLP": 1006.833, "RMAX": 54.07159, "FSPD": 2.55307, "FDIR": 255.41142, "RENV": 250.0, "PENV": 1012.0, "VALIDT": 60, "DTG": "2025-07-21 18:00", "LATNOW": 20.5, "LONNOW": 118.9, "WINDNOW": 50.0, "DIRNOW": 7.0, "SPDNOW": 3.0, "TECH": "FCST", "ADVNR": 4, "ATCFID": "WP092025", "NAME": "WIPHA", "FTECH": "JTWC", "FCST_DTG": "2025-07-19 06:00:00", "RUN_DTG": "2025-07-19 08:08:20", "BASIN": "WP", "STMNR": 9, "CAT_ID": null, "CAT_DESC": null, "MSGID": "WTPN51 PGTW 190900", "VALIDTIME": "2025-07-21 18:00:00" }, "geometry": { "type": "Point", "coordinates": [ 107.824997, 20.549999 ] } },
{ "type": "Feature", "properties": { "ID": 1307, "LAT": 20.3, "LON": 106.8, "VMAX": 40.0, "MSLP": 1006.833, "RMAX": 54.07159, "FSPD": 3.42988, "FDIR": 263.541, "RENV": 250.0, "PENV": 1012.0, "VALIDT": 72, "DTG": "2025-07-22 06:00", "LATNOW": 20.5, "LONNOW": 118.9, "WINDNOW": 50.0, "DIRNOW": 7.0, "SPDNOW": 3.0, "TECH": "FCST", "ADVNR": 4, "ATCFID": "WP092025", "NAME": "WIPHA", "FTECH": "JTWC", "FCST_DTG": "2025-07-19 06:00:00", "RUN_DTG": "2025-07-19 08:08:20", "BASIN": "WP", "STMNR": 9, "CAT_ID": null, "CAT_DESC": null, "MSGID": "WTPN51 PGTW 190900", "VALIDTIME": "2025-07-22 06:00:00" }, "geometry": { "type": "Point", "coordinates": [ 106.800003, 20.299999 ] } },
{ "type": "Feature", "properties": { "ID": 1308, "LAT": 20.255, "LON": 106.37625, "VMAX": 40.0, "MSLP": 1006.833, "RMAX": 54.07159, "FSPD": 3.43149, "FDIR": 263.54407, "RENV": 250.0, "PENV": 1012.0, "VALIDT": 75, "DTG": "2025-07-22 09:00", "LATNOW": 20.5, "LONNOW": 118.9, "WINDNOW": 50.0, "DIRNOW": 7.0, "SPDNOW": 3.0, "TECH": "FCST", "ADVNR": 4, "ATCFID": "WP092025", "NAME": "WIPHA", "FTECH": "JTWC", "FCST_DTG": "2025-07-19 06:00:00", "RUN_DTG": "2025-07-19 08:08:20", "BASIN": "WP", "STMNR": 9, "CAT_ID": null, "CAT_DESC": null, "MSGID": "WTPN51 PGTW 190900", "VALIDTIME": "2025-07-22 09:00:00" }, "geometry": { "type": "Point", "coordinates": [ 106.376251, 20.254999 ] } },
{ "type": "Feature", "properties": { "ID": 1309, "LAT": 20.15, "LON": 105.3875, "VMAX": 30.0, "MSLP": 1009.8956, "RMAX": 54.07159, "FSPD": 5.28308, "FDIR": 271.39496, "RENV": 250.0, "PENV": 1012.0, "VALIDT": 84, "DTG": "2025-07-22 18:00", "LATNOW": 20.5, "LONNOW": 118.9, "WINDNOW": 50.0, "DIRNOW": 7.0, "SPDNOW": 3.0, "TECH": "FCST", "ADVNR": 4, "ATCFID": "WP092025", "NAME": "WIPHA", "FTECH": "JTWC", "FCST_DTG": "2025-07-19 06:00:00", "RUN_DTG": "2025-07-19 08:08:20", "BASIN": "WP", "STMNR": 9, "CAT_ID": null, "CAT_DESC": null, "MSGID": "WTPN51 PGTW 190900", "VALIDTIME": "2025-07-22 18:00:00" }, "geometry": { "type": "Point", "coordinates": [ 105.387505, 20.15 ] } },
{ "type": "Feature", "properties": { "ID": 1310, "LAT": 20.2, "LON": 103.2, "VMAX": 20.0, "MSLP": 1012.95825, "RMAX": 58.9638, "FSPD": 5.28308, "FDIR": 271.39496, "RENV": 250.0, "PENV": 1012.0, "VALIDT": 96, "DTG": "2025-07-23 06:00", "LATNOW": 20.5, "LONNOW": 118.9, "WINDNOW": 50.0, "DIRNOW": 7.0, "SPDNOW": 3.0, "TECH": "FCST", "ADVNR": 4, "ATCFID": "WP092025", "NAME": "WIPHA", "FTECH": "JTWC", "FCST_DTG": "2025-07-19 06:00:00", "RUN_DTG": "2025-07-19 08:08:20", "BASIN": "WP", "STMNR": 9, "CAT_ID": null, "CAT_DESC": null, "MSGID": "WTPN51 PGTW 190900", "VALIDTIME": "2025-07-23 06:00:00" }, "geometry": { "type": "Point", "coordinates": [ 103.199997, 20.200001 ] } },
{ "type": "Feature", "properties": { "ID": 1301, "LAT": 20.5, "LON": 118.9, "VMAX": 50.0, "MSLP": 981.0, "RMAX": 40.0, "FSPD": 6.5779, "FDIR": 288.22995, "RENV": 280.0, "PENV": 996.0, "VALIDT": 0, "DTG": "2025-07-19 06:00", "LATNOW": 20.5, "LONNOW": 118.9, "WINDNOW": 50.0, "DIRNOW": 7.0, "SPDNOW": 3.0, "TECH": "TRAK", "ADVNR": 4, "ATCFID": "WP092025", "NAME": "WIPHA", "FTECH": "JTWC", "FCST_DTG": "2025-07-19 06:00:00", "RUN_DTG": "2025-07-19 08:08:20", "BASIN": "WP", "STMNR": 9, "CAT_ID": null, "CAT_DESC": null, "MSGID": "WTPN51 PGTW 190900", "VALIDTIME": "2025-07-19 06:00:00" }, "geometry": { "type": "LineString", "coordinates": [ [ 134.5, 12.9 ], [ 134.0, 13.0 ], [ 133.6, 13.1 ], [ 133.2, 13.2 ], [ 132.4, 13.6 ], [ 131.2, 13.8 ], [ 130.6, 13.3 ], [ 129.8, 12.8 ], [ 128.4, 13.5 ], [ 127.6, 14.4 ], [ 126.8, 15.4 ], [ 125.9, 16.4 ], [ 124.7, 17.0 ], [ 124.1, 17.6 ], [ 123.4, 18.6 ], [ 122.5, 19.3 ], [ 120.8, 19.8 ], [ 119.8, 20.1 ], [ 118.9, 20.5 ] ] } },
{ "type": "Feature", "properties": { "ID": 1310, "LAT": 20.2, "LON": 103.2, "VMAX": 20.0, "MSLP": 1012.95825, "RMAX": 58.9638, "FSPD": 5.28308, "FDIR": 271.39496, "RENV": 250.0, "PENV": 1012.0, "VALIDT": 96, "DTG": "2025-07-23 06:00", "LATNOW": 20.5, "LONNOW": 118.9, "WINDNOW": 50.0, "DIRNOW": 7.0, "SPDNOW": 3.0, "TECH": "FCST", "ADVNR": 4, "ATCFID": "WP092025", "NAME": "WIPHA", "FTECH": "JTWC", "FCST_DTG": "2025-07-19 06:00:00", "RUN_DTG": "2025-07-19 08:08:20", "BASIN": "WP", "STMNR": 9, "CAT_ID": null, "CAT_DESC": null, "MSGID": "WTPN51 PGTW 190900", "VALIDTIME": "2025-07-23 06:00:00" }, "geometry": { "type": "LineString", "coordinates": [ [ 118.9, 20.5 ], [ 116.3, 21.3 ], [ 113.6, 21.5 ], [ 111.5, 21.3 ], [ 109.5, 20.9 ], [ 107.825, 20.55 ], [ 106.8, 20.3 ], [ 106.37625, 20.255 ], [ 105.3875, 20.15 ], [ 103.2, 20.2 ] ] } }
]
}
