{
"type": "FeatureCollection",
"crs": { "type": "name", "properties": { "name": "urn:ogc:def:crs:OGC:1.3:CRS84" } },
"features": [
{ "type": "Feature", "properties": { "ID": 252721, "LAT": 18.8, "LON": -92.7, "VMAX": 20.0, "MSLP": 1005.0, "RMAX": 40.0, "FSPD": 0.48699, "FDIR": 90.0, "RENV": 130.0, "PENV": 1007.0, "VALIDT": 0, "DTG": "2024-09-07 12:00", "LATNOW": 34.9, "LONNOW": -91.7, "WINDNOW": 15.0, "DIRNOW": 4.0, "SPDNOW": 4.0, "TECH": "TRAK", "ADVNR": 16, "ATCFID": "AL062024", "NAME": "FRANCINE", "FTECH": "OFCL", "FCST_DTG": "2024-09-14 00:00:00", "RUN_DTG": "2024-09-14 15:46:08", "BASIN": "AL", "STMNR": 6, "CAT_ID": null, "CAT_DESC": null, "MSGID": "WTNT21 KNHC 121438", "VALIDTIME": "2024-09-07 12:00:00" }, "geometry": { "type": "Point", "coordinates": [ -92.699997, 18.799999 ] } },
{ "type": "Feature", "properties": { "ID": 252722, "LAT": 18.8, "LON": -92.6, "VMAX": 20.0, "MSLP": 1005.0, "RMAX": 40.0, "FSPD": 1.82451, "FDIR": 32.23236, "RENV": 120.0, "PENV": 1007.0, "VALIDT": 0, "DTG": "2024-09-07 18:00", "LATNOW": 34.9, "LONNOW": -91.7, "WINDNOW": 15.0, "DIRNOW": 4.0, "SPDNOW": 4.0, "TECH": "TRAK", "ADVNR": 16, "ATCFID": "AL062024", "NAME": "FRANCINE", "FTECH": "OFCL", "FCST_DTG": "2024-09-14 00:00:00", "RUN_DTG": "2024-09-14 15:46:08", "BASIN": "AL", "STMNR": 6, "CAT_ID": null, "CAT_DESC": null, "MSGID": "WTNT21 KNHC 121438", "VALIDTIME": "2024-09-07 18:00:00" }, "geometry": { "type": "Point", "coordinates": [ -92.599998, 18.799999 ] } },
{ "type": "Feature", "properties": { "ID": 252723, "LAT": 19.1, "LON": -92.4, "VMAX": 20.0, "MSLP": 1003.0, "RMAX": 40.0, "FSPD": 3.29753, "FDIR": 297.9062, "RENV": 120.0, "PENV": 1006.0, "VALIDT": 0, "DTG": "2024-09-08 00:00", "LATNOW": 34.9, "LONNOW": -91.7, "WINDNOW": 15.0, "DIRNOW": 4.0, "SPDNOW": 4.0, "TECH": "TRAK", "ADVNR": 16, "ATCFID": "AL062024", "NAME": "FRANCINE", "FTECH": "OFCL", "FCST_DTG": "2024-09-14 00:00:00", "RUN_DTG": "2024-09-14 15:46:08", "BASIN": "AL", "STMNR": 6, "CAT_ID": null, "CAT_DESC": null, "MSGID": "WTNT21 KNHC 121438", "VALIDTIME": "2024-09-08 00:00:00" }, "geometry": { "type": "Point", "coordinates": [ -92.400002, 19.1 ] } },
{ "type": "Feature", "properties": { "ID": 252724, "LAT": 19.4, "LON": -93.0, "VMAX": 25.0, "MSLP": 1003.0, "RMAX": 60.0, "FSPD": 8.10532, "FDIR": 314.28033, "RENV": 120.0, "PENV": 1006.0, "VALIDT": 0, "DTG": "2024-09-08 06:00", "LATNOW": 34.9, "LONNOW": -91.7, "WINDNOW": 15.0, "DIRNOW": 4.0, "SPDNOW": 4.0, "TECH": "TRAK", "ADVNR": 16, "ATCFID": "AL062024", "NAME": "FRANCINE", "FTECH": "OFCL", "FCST_DTG": "2024-09-14 00:00:00", "RUN_DTG": "2024-09-14 15:46:08", "BASIN": "AL", "STMNR": 6, "CAT_ID": null, "CAT_DESC": null, "MSGID": "WTNT21 KNHC 121438", "VALIDTIME": "2024-09-08 06:00:00" }, "geometry": { "type": "Point", "coordinates": [ -93.0, 19.4 ] } },
{ "type": "Feature", "properties": { "ID": 252725, "LAT": 20.5, "LON": -94.2, "VMAX": 35.0, "MSLP": 1003.0, "RMAX": 100.0, "FSPD": 4.84915, "FDIR": 342.70856, "RENV": 150.0, "PENV": 1008.0, "VALIDT": 0, "DTG": "2024-09-08 12:00", "LATNOW": 34.9, "LONNOW": -91.7, "WINDNOW": 15.0, "DIRNOW": 4.0, "SPDNOW": 4.0, "TECH": "TRAK", "ADVNR": 16, "ATCFID": "AL062024", "NAME": "FRANCINE", "FTECH": "OFCL", "FCST_DTG": "2024-09-14 00:00:00", "RUN_DTG": "2024-09-14 15:46:08", "BASIN": "AL", "STMNR": 6, "CAT_ID": null, "CAT_DESC": null, "MSGID": "WTNT21 KNHC 121438", "VALIDTIME": "2024-09-08 12:00:00" }, "geometry": { "type": "Point", "coordinates": [ -94.199997, 20.5 ] } },
{ "type": "Feature", "properties": { "ID": 252726, "LAT": 21.4, "LON": -94.5, "VMAX": 40.0, "MSLP": 1003.0, "RMAX": 100.0, "FSPD": 2.74423, "FDIR": 339.60605, "RENV": 180.0, "PENV": 1008.0, "VALIDT": 0, "DTG": "2024-09-08 18:00", "LATNOW": 34.9, "LONNOW": -91.7, "WINDNOW": 15.0, "DIRNOW": 4.0, "SPDNOW": 4.0, "TECH": "TRAK", "ADVNR": 16, "ATCFID": "AL062024", "NAME": "FRANCINE", "FTECH": "OFCL", "FCST_DTG": "2024-09-14 00:00:00", "RUN_DTG": "2024-09-14 15:46:08", "BASIN": "AL", "STMNR": 6, "CAT_ID": null, "CAT_DESC": null, "MSGID": "WTNT21 KNHC 121438", "VALIDTIME": "2024-09-08 18:00:00" }, "geometry": { "type": "Point", "coordinates": [ -94.5, 21.4 ] } },
{ "type": "Feature", "properties": { "ID": 252727, "LAT": 21.9, "LON": -94.7, "VMAX": 45.0, "MSLP": 1003.0, "RMAX": 100.0, "FSPD": 0.51445, "FDIR": 360.0, "RENV": 180.0, "PENV": 1008.0, "VALIDT": 0, "DTG": "2024-09-09 00:00", "LATNOW": 34.9, "LONNOW": -91.7, "WINDNOW": 15.0, "DIRNOW": 4.0, "SPDNOW": 4.0, "TECH": "TRAK", "ADVNR": 16, "ATCFID": "AL062024", "NAME": "FRANCINE", "FTECH": "OFCL", "FCST_DTG": "2024-09-14 00:00:00", "RUN_DTG": "2024-09-14 15:46:08", "BASIN": "AL", "STMNR": 6, "CAT_ID": null, "CAT_DESC": null, "MSGID": "WTNT21 KNHC 121438", "VALIDTIME": "2024-09-09 00:00:00" }, "geometry": { "type": "Point", "coordinates": [ -94.699997, 21.9 ] } },
{ "type": "Feature", "properties": { "ID": 252728, "LAT": 22.0, "LON": -94.7, "VMAX": 45.0, "MSLP": 1003.0, "RMAX": 100.0, "FSPD": 3.60111, "FDIR": 360.0, "RENV": 180.0, "PENV": 1008.0, "VALIDT": 0, "DTG": "2024-09-09 06:00", "LATNOW": 34.9, "LONNOW": -91.7, "WINDNOW": 15.0, "DIRNOW": 4.0, "SPDNOW": 4.0, "TECH": "TRAK", "ADVNR": 16, "ATCFID": "AL062024", "NAME": "FRANCINE", "FTECH": "OFCL", "FCST_DTG": "2024-09-14 00:00:00", "RUN_DTG": "2024-09-14 15:46:08", "BASIN": "AL", "STMNR": 6, "CAT_ID": null, "CAT_DESC": null, "MSGID": "WTNT21 KNHC 121438", "VALIDTIME": "2024-09-09 06:00:00" }, "geometry": { "type": "Point", "coordinates": [ -94.699997, 22.0 ] } },
{ "type": "Feature", "properties": { "ID": 252729, "LAT": 22.7, "LON": -94.7, "VMAX": 45.0, "MSLP": 1002.0, "RMAX": 70.0, "FSPD": 7.31567, "FDIR": 314.68506, "RENV": 180.0, "PENV": 1008.0, "VALIDT": 0, "DTG": "2024-09-09 12:00", "LATNOW": 34.9, "LONNOW": -91.7, "WINDNOW": 15.0, "DIRNOW": 4.0, "SPDNOW": 4.0, "TECH": "TRAK", "ADVNR": 16, "ATCFID": "AL062024", "NAME": "FRANCINE", "FTECH": "OFCL", "FCST_DTG": "2024-09-14 00:00:00", "RUN_DTG": "2024-09-14 15:46:08", "BASIN": "AL", "STMNR": 6, "CAT_ID": null, "CAT_DESC": null, "MSGID": "WTNT21 KNHC 121438", "VALIDTIME": "2024-09-09 12:00:00" }, "geometry": { "type": "Point", "coordinates": [ -94.699997, 22.700001 ] } },
{ "type": "Feature", "properties": { "ID": 252730, "LAT": 23.7, "LON": -95.8, "VMAX": 50.0, "MSLP": 996.0, "RMAX": 20.0, "FSPD": 1.39456, "FDIR": 317.543, "RENV": 180.0, "PENV": 1008.0, "VALIDT": 0, "DTG": "2024-09-09 18:00", "LATNOW": 34.9, "LONNOW": -91.7, "WINDNOW": 15.0, "DIRNOW": 4.0, "SPDNOW": 4.0, "TECH": "TRAK", "ADVNR": 16, "ATCFID": "AL062024", "NAME": "FRANCINE", "FTECH": "OFCL", "FCST_DTG": "2024-09-14 00:00:00", "RUN_DTG": "2024-09-14 15:46:08", "BASIN": "AL", "STMNR": 6, "CAT_ID": null, "CAT_DESC": null, "MSGID": "WTNT21 KNHC 121438", "VALIDTIME": "2024-09-09 18:00:00" }, "geometry": { "type": "Point", "coordinates": [ -95.800003, 23.700001 ] } },
{ "type": "Feature", "properties": { "ID": 252731, "LAT": 23.9, "LON": -96.0, "VMAX": 55.0, "MSLP": 992.0, "RMAX": 20.0, "FSPD": 1.80684, "FDIR": 328.6677, "RENV": 180.0, "PENV": 1008.0, "VALIDT": 0, "DTG": "2024-09-10 00:00", "LATNOW": 34.9, "LONNOW": -91.7, "WINDNOW": 15.0, "DIRNOW": 4.0, "SPDNOW": 4.0, "TECH": "TRAK", "ADVNR": 16, "ATCFID": "AL062024", "NAME": "FRANCINE", "FTECH": "OFCL", "FCST_DTG": "2024-09-14 00:00:00", "RUN_DTG": "2024-09-14 15:46:08", "BASIN": "AL", "STMNR": 6, "CAT_ID": null, "CAT_DESC": null, "MSGID": "WTNT21 KNHC 121438", "VALIDTIME": "2024-09-10 00:00:00" }, "geometry": { "type": "Point", "coordinates": [ -96.0, 23.9 ] } },
{ "type": "Feature", "properties": { "ID": 252732, "LAT": 24.2, "LON": -96.2, "VMAX": 55.0, "MSLP": 992.0, "RMAX": 20.0, "FSPD": 2.42824, "FDIR": 50.53735, "RENV": 200.0, "PENV": 1010.0, "VALIDT": 0, "DTG": "2024-09-10 06:00", "LATNOW": 34.9, "LONNOW": -91.7, "WINDNOW": 15.0, "DIRNOW": 4.0, "SPDNOW": 4.0, "TECH": "TRAK", "ADVNR": 16, "ATCFID": "AL062024", "NAME": "FRANCINE", "FTECH": "OFCL", "FCST_DTG": "2024-09-14 00:00:00", "RUN_DTG": "2024-09-14 15:46:08", "BASIN": "AL", "STMNR": 6, "CAT_ID": null, "CAT_DESC": null, "MSGID": "WTNT21 KNHC 121438", "VALIDTIME": "2024-09-10 06:00:00" }, "geometry": { "type": "Point", "coordinates": [ -96.199997, 24.200001 ] } },
{ "type": "Feature", "properties": { "ID": 252733, "LAT": 24.5, "LON": -95.8, "VMAX": 55.0, "MSLP": 990.0, "RMAX": 20.0, "FSPD": 4.73088, "FDIR": 29.54901, "RENV": 200.0, "PENV": 1010.0, "VALIDT": 0, "DTG": "2024-09-10 12:00", "LATNOW": 34.9, "LONNOW": -91.7, "WINDNOW": 15.0, "DIRNOW": 4.0, "SPDNOW": 4.0, "TECH": "TRAK", "ADVNR": 16, "ATCFID": "AL062024", "NAME": "FRANCINE", "FTECH": "OFCL", "FCST_DTG": "2024-09-14 00:00:00", "RUN_DTG": "2024-09-14 15:46:08", "BASIN": "AL", "STMNR": 6, "CAT_ID": null, "CAT_DESC": null, "MSGID": "WTNT21 KNHC 121438", "VALIDTIME": "2024-09-10 12:00:00" }, "geometry": { "type": "Point", "coordinates": [ -95.800003, 24.5 ] } },
{ "type": "Feature", "properties": { "ID": 252734, "LAT": 25.3, "LON": -95.3, "VMAX": 55.0, "MSLP": 987.0, "RMAX": 30.0, "FSPD": 4.55087, "FDIR": 37.69263, "RENV": 200.0, "PENV": 1010.0, "VALIDT": 0, "DTG": "2024-09-10 18:00", "LATNOW": 34.9, "LONNOW": -91.7, "WINDNOW": 15.0, "DIRNOW": 4.0, "SPDNOW": 4.0, "TECH": "TRAK", "ADVNR": 16, "ATCFID": "AL062024", "NAME": "FRANCINE", "FTECH": "OFCL", "FCST_DTG": "2024-09-14 00:00:00", "RUN_DTG": "2024-09-14 15:46:08", "BASIN": "AL", "STMNR": 6, "CAT_ID": null, "CAT_DESC": null, "MSGID": "WTNT21 KNHC 121438", "VALIDTIME": "2024-09-10 18:00:00" }, "geometry": { "type": "Point", "coordinates": [ -95.300003, 25.299999 ] } },
{ "type": "Feature", "properties": { "ID": 252735, "LAT": 26.0, "LON": -94.7, "VMAX": 65.0, "MSLP": 982.0, "RMAX": 30.0, "FSPD": 4.14543, "FDIR": 41.8757, "RENV": 200.0, "PENV": 1008.0, "VALIDT": 0, "DTG": "2024-09-11 00:00", "LATNOW": 34.9, "LONNOW": -91.7, "WINDNOW": 15.0, "DIRNOW": 4.0, "SPDNOW": 4.0, "TECH": "TRAK", "ADVNR": 16, "ATCFID": "AL062024", "NAME": "FRANCINE", "FTECH": "OFCL", "FCST_DTG": "2024-09-14 00:00:00", "RUN_DTG": "2024-09-14 15:46:08", "BASIN": "AL", "STMNR": 6, "CAT_ID": null, "CAT_DESC": null, "MSGID": "WTNT21 KNHC 121438", "VALIDTIME": "2024-09-11 00:00:00" }, "geometry": { "type": "Point", "coordinates": [ -94.699997, 26.0 ] } },
{ "type": "Feature", "properties": { "ID": 252736, "LAT": 26.6, "LON": -94.1, "VMAX": 80.0, "MSLP": 977.0, "RMAX": 25.0, "FSPD": 6.20003, "FDIR": 41.68863, "RENV": 200.0, "PENV": 1008.0, "VALIDT": 0, "DTG": "2024-09-11 06:00", "LATNOW": 34.9, "LONNOW": -91.7, "WINDNOW": 15.0, "DIRNOW": 4.0, "SPDNOW": 4.0, "TECH": "TRAK", "ADVNR": 16, "ATCFID": "AL062024", "NAME": "FRANCINE", "FTECH": "OFCL", "FCST_DTG": "2024-09-14 00:00:00", "RUN_DTG": "2024-09-14 15:46:08", "BASIN": "AL", "STMNR": 6, "CAT_ID": null, "CAT_DESC": null, "MSGID": "WTNT21 KNHC 121438", "VALIDTIME": "2024-09-11 06:00:00" }, "geometry": { "type": "Point", "coordinates": [ -94.099998, 26.6 ] } },
{ "type": "Feature", "properties": { "ID": 252737, "LAT": 27.5, "LON": -93.2, "VMAX": 80.0, "MSLP": 976.0, "RMAX": 25.0, "FSPD": 7.5475, "FDIR": 41.42957, "RENV": 200.0, "PENV": 1009.0, "VALIDT": 0, "DTG": "2024-09-11 12:00", "LATNOW": 34.9, "LONNOW": -91.7, "WINDNOW": 15.0, "DIRNOW": 4.0, "SPDNOW": 4.0, "TECH": "TRAK", "ADVNR": 16, "ATCFID": "AL062024", "NAME": "FRANCINE", "FTECH": "OFCL", "FCST_DTG": "2024-09-14 00:00:00", "RUN_DTG": "2024-09-14 15:46:08", "BASIN": "AL", "STMNR": 6, "CAT_ID": null, "CAT_DESC": null, "MSGID": "WTNT21 KNHC 121438", "VALIDTIME": "2024-09-11 12:00:00" }, "geometry": { "type": "Point", "coordinates": [ -93.199997, 27.5 ] } },
{ "type": "Feature", "properties": { "ID": 252738, "LAT": 28.6, "LON": -92.1, "VMAX": 80.0, "MSLP": 976.0, "RMAX": 25.0, "FSPD": 7.45774, "FDIR": 46.38474, "RENV": 200.0, "PENV": 1009.0, "VALIDT": 0, "DTG": "2024-09-11 18:00", "LATNOW": 34.9, "LONNOW": -91.7, "WINDNOW": 15.0, "DIRNOW": 4.0, "SPDNOW": 4.0, "TECH": "TRAK", "ADVNR": 16, "ATCFID": "AL062024", "NAME": "FRANCINE", "FTECH": "OFCL", "FCST_DTG": "2024-09-14 00:00:00", "RUN_DTG": "2024-09-14 15:46:08", "BASIN": "AL", "STMNR": 6, "CAT_ID": null, "CAT_DESC": null, "MSGID": "WTNT21 KNHC 121438", "VALIDTIME": "2024-09-11 18:00:00" }, "geometry": { "type": "Point", "coordinates": [ -92.099998, 28.6 ] } },
{ "type": "Feature", "properties": { "ID": 252739, "LAT": 29.4, "LON": -91.14, "VMAX": 80.0, "MSLP": 976.0, "RMAX": 25.0, "FSPD": 7.43869, "FDIR": 46.24451, "RENV": 200.0, "PENV": 1009.0, "VALIDT": 0, "DTG": "2024-09-11 22:00", "LATNOW": 34.9, "LONNOW": -91.7, "WINDNOW": 15.0, "DIRNOW": 4.0, "SPDNOW": 4.0, "TECH": "TRAK", "ADVNR": 16, "ATCFID": "AL062024", "NAME": "FRANCINE", "FTECH": "OFCL", "FCST_DTG": "2024-09-14 00:00:00", "RUN_DTG": "2024-09-14 15:46:08", "BASIN": "AL", "STMNR": 6, "CAT_ID": null, "CAT_DESC": null, "MSGID": "WTNT21 KNHC 121438", "VALIDTIME": "2024-09-11 22:00:00" }, "geometry": { "type": "Point", "coordinates": [ -91.139999, 29.4 ] } },
{ "type": "Feature", "properties": { "ID": 252740, "LAT": 29.6, "LON": -90.9, "VMAX": 70.0, "MSLP": 980.0, "RMAX": 15.0, "FSPD": 4.08503, "FDIR": 40.92181, "RENV": 200.0, "PENV": 1009.0, "VALIDT": 0, "DTG": "2024-09-12 00:00", "LATNOW": 34.9, "LONNOW": -91.7, "WINDNOW": 15.0, "DIRNOW": 4.0, "SPDNOW": 4.0, "TECH": "TRAK", "ADVNR": 16, "ATCFID": "AL062024", "NAME": "FRANCINE", "FTECH": "OFCL", "FCST_DTG": "2024-09-14 00:00:00", "RUN_DTG": "2024-09-14 15:46:08", "BASIN": "AL", "STMNR": 6, "CAT_ID": null, "CAT_DESC": null, "MSGID": "WTNT21 KNHC 121438", "VALIDTIME": "2024-09-12 00:00:00" }, "geometry": { "type": "Point", "coordinates": [ -90.900002, 29.6 ] } },
{ "type": "Feature", "properties": { "ID": 252741, "LAT": 30.2, "LON": -90.3, "VMAX": 45.0, "MSLP": 988.0, "RMAX": 60.0, "FSPD": 8.78986, "FDIR": 5.75555, "RENV": 180.0, "PENV": 1006.0, "VALIDT": 0, "DTG": "2024-09-12 06:00", "LATNOW": 34.9, "LONNOW": -91.7, "WINDNOW": 15.0, "DIRNOW": 4.0, "SPDNOW": 4.0, "TECH": "TRAK", "ADVNR": 16, "ATCFID": "AL062024", "NAME": "FRANCINE", "FTECH": "OFCL", "FCST_DTG": "2024-09-14 00:00:00", "RUN_DTG": "2024-09-14 15:46:08", "BASIN": "AL", "STMNR": 6, "CAT_ID": null, "CAT_DESC": null, "MSGID": "WTNT21 KNHC 121438", "VALIDTIME": "2024-09-12 06:00:00" }, "geometry": { "type": "Point", "coordinates": [ -90.300003, 30.200001 ] } },
{ "type": "Feature", "properties": { "ID": 252742, "LAT": 31.9, "LON": -90.1, "VMAX": 30.0, "MSLP": 995.0, "RMAX": 80.0, "FSPD": 7.9088, "FDIR": 12.65469, "RENV": 180.0, "PENV": 1006.0, "VALIDT": 0, "DTG": "2024-09-12 12:00", "LATNOW": 34.9, "LONNOW": -91.7, "WINDNOW": 15.0, "DIRNOW": 4.0, "SPDNOW": 4.0, "TECH": "TRAK", "ADVNR": 16, "ATCFID": "AL062024", "NAME": "FRANCINE", "FTECH": "OFCL", "FCST_DTG": "2024-09-14 00:00:00", "RUN_DTG": "2024-09-14 15:46:08", "BASIN": "AL", "STMNR": 6, "CAT_ID": null, "CAT_DESC": null, "MSGID": "WTNT21 KNHC 121438", "VALIDTIME": "2024-09-12 12:00:00" }, "geometry": { "type": "Point", "coordinates": [ -90.099998, 31.9 ] } },
{ "type": "Feature", "properties": { "ID": 252743, "LAT": 33.4, "LON": -89.7, "VMAX": 20.0, "MSLP": 996.0, "RMAX": 70.0, "FSPD": 7.50694, "FDIR": 332.98395, "RENV": 230.0, "PENV": 1008.0, "VALIDT": 0, "DTG": "2024-09-12 18:00", "LATNOW": 34.9, "LONNOW": -91.7, "WINDNOW": 15.0, "DIRNOW": 4.0, "SPDNOW": 4.0, "TECH": "TRAK", "ADVNR": 16, "ATCFID": "AL062024", "NAME": "FRANCINE", "FTECH": "OFCL", "FCST_DTG": "2024-09-14 00:00:00", "RUN_DTG": "2024-09-14 15:46:08", "BASIN": "AL", "STMNR": 6, "CAT_ID": null, "CAT_DESC": null, "MSGID": "WTNT21 KNHC 121438", "VALIDTIME": "2024-09-12 18:00:00" }, "geometry": { "type": "Point", "coordinates": [ -89.699997, 33.400002 ] } },
{ "type": "Feature", "properties": { "ID": 252744, "LAT": 34.7, "LON": -90.5, "VMAX": 20.0, "MSLP": 998.0, "RMAX": 60.0, "FSPD": 3.97567, "FDIR": 334.9297, "RENV": 230.0, "PENV": 1007.0, "VALIDT": 0, "DTG": "2024-09-13 00:00", "LATNOW": 34.9, "LONNOW": -91.7, "WINDNOW": 15.0, "DIRNOW": 4.0, "SPDNOW": 4.0, "TECH": "TRAK", "ADVNR": 16, "ATCFID": "AL062024", "NAME": "FRANCINE", "FTECH": "OFCL", "FCST_DTG": "2024-09-14 00:00:00", "RUN_DTG": "2024-09-14 15:46:08", "BASIN": "AL", "STMNR": 6, "CAT_ID": null, "CAT_DESC": null, "MSGID": "WTNT21 KNHC 121438", "VALIDTIME": "2024-09-13 00:00:00" }, "geometry": { "type": "Point", "coordinates": [ -90.5, 34.700001 ] } },
{ "type": "Feature", "properties": { "ID": 252745, "LAT": 35.4, "LON": -90.9, "VMAX": 25.0, "MSLP": 1001.0, "RMAX": 60.0, "FSPD": 3.59268, "FDIR": 315.72205, "RENV": 230.0, "PENV": 1007.0, "VALIDT": 0, "DTG": "2024-09-13 06:00", "LATNOW": 34.9, "LONNOW": -91.7, "WINDNOW": 15.0, "DIRNOW": 4.0, "SPDNOW": 4.0, "TECH": "TRAK", "ADVNR": 16, "ATCFID": "AL062024", "NAME": "FRANCINE", "FTECH": "OFCL", "FCST_DTG": "2024-09-14 00:00:00", "RUN_DTG": "2024-09-14 15:46:08", "BASIN": "AL", "STMNR": 6, "CAT_ID": null, "CAT_DESC": null, "MSGID": "WTNT21 KNHC 121438", "VALIDTIME": "2024-09-13 06:00:00" }, "geometry": { "type": "Point", "coordinates": [ -90.900002, 35.400002 ] } },
{ "type": "Feature", "properties": { "ID": 252746, "LAT": 35.9, "LON": -91.5, "VMAX": 15.0, "MSLP": 1005.0, "RMAX": 40.0, "FSPD": 2.32616, "FDIR": 243.74832, "RENV": 170.0, "PENV": 1011.0, "VALIDT": 0, "DTG": "2024-09-13 12:00", "LATNOW": 34.9, "LONNOW": -91.7, "WINDNOW": 15.0, "DIRNOW": 4.0, "SPDNOW": 4.0, "TECH": "TRAK", "ADVNR": 16, "ATCFID": "AL062024", "NAME": "FRANCINE", "FTECH": "OFCL", "FCST_DTG": "2024-09-14 00:00:00", "RUN_DTG": "2024-09-14 15:46:08", "BASIN": "AL", "STMNR": 6, "CAT_ID": null, "CAT_DESC": null, "MSGID": "WTNT21 KNHC 121438", "VALIDTIME": "2024-09-13 12:00:00" }, "geometry": { "type": "Point", "coordinates": [ -91.5, 35.900002 ] } },
{ "type": "Feature", "properties": { "ID": 252747, "LAT": 35.7, "LON": -92.0, "VMAX": 15.0, "MSLP": 1009.0, "RMAX": 40.0, "FSPD": 4.30399, "FDIR": 162.98297, "RENV": 135.0, "PENV": 1011.0, "VALIDT": 0, "DTG": "2024-09-13 18:00", "LATNOW": 34.9, "LONNOW": -91.7, "WINDNOW": 15.0, "DIRNOW": 4.0, "SPDNOW": 4.0, "TECH": "TRAK", "ADVNR": 16, "ATCFID": "AL062024", "NAME": "FRANCINE", "FTECH": "OFCL", "FCST_DTG": "2024-09-14 00:00:00", "RUN_DTG": "2024-09-14 15:46:08", "BASIN": "AL", "STMNR": 6, "CAT_ID": null, "CAT_DESC": null, "MSGID": "WTNT21 KNHC 121438", "VALIDTIME": "2024-09-13 18:00:00" }, "geometry": { "type": "Point", "coordinates": [ -92.0, 35.700001 ] } },
{ "type": "Feature", "properties": { "ID": 252748, "LAT": 34.9, "LON": -91.7, "VMAX": 15.0, "MSLP": 1009.0, "RMAX": 40.0, "FSPD": 4.44974, "FDIR": 202.34654, "RENV": 135.0, "PENV": 1011.0, "VALIDT": 0, "DTG": "2024-09-14 00:00", "LATNOW": 34.9, "LONNOW": -91.7, "WINDNOW": 15.0, "DIRNOW": 4.0, "SPDNOW": 4.0, "TECH": "TRAK", "ADVNR": 16, "ATCFID": "AL062024", "NAME": "FRANCINE", "FTECH": "OFCL", "FCST_DTG": "2024-09-14 00:00:00", "RUN_DTG": "2024-09-14 15:46:08", "BASIN": "AL", "STMNR": 6, "CAT_ID": null, "CAT_DESC": null, "MSGID": "WTNT21 KNHC 121438", "VALIDTIME": "2024-09-14 00:00:00" }, "geometry": { "type": "Point", "coordinates": [ -91.699997, 34.900002 ] } },
{ "type": "Feature", "properties": { "ID": 252749, "LAT": 34.5, "LON": -91.9, "VMAX": 15.0, "MSLP": 1010.0, "RMAX": 39.38713, "FSPD": 4.44974, "FDIR": 202.34654, "RENV": 250.0, "PENV": 1012.0, "VALIDT": 3, "DTG": "2024-09-14 03:00", "LATNOW": 34.9, "LONNOW": -91.7, "WINDNOW": 15.0, "DIRNOW": 4.0, "SPDNOW": 4.0, "TECH": "FCST", "ADVNR": 16, "ATCFID": "AL062024", "NAME": "FRANCINE", "FTECH": "OFCL", "FCST_DTG": "2024-09-14 00:00:00", "RUN_DTG": "2024-09-14 15:46:08", "BASIN": "AL", "STMNR": 6, "CAT_ID": null, "CAT_DESC": null, "MSGID": "WTNT21 KNHC 121438", "VALIDTIME": "2024-09-14 03:00:00" }, "geometry": { "type": "Point", "coordinates": [ -91.900002, 34.5 ] } },
{ "type": "Feature", "properties": { "ID": 252748, "LAT": 34.9, "LON": -91.7, "VMAX": 15.0, "MSLP": 1009.0, "RMAX": 40.0, "FSPD": 4.44974, "FDIR": 202.34654, "RENV": 135.0, "PENV": 1011.0, "VALIDT": 0, "DTG": "2024-09-14 00:00", "LATNOW": 34.9, "LONNOW": -91.7, "WINDNOW": 15.0, "DIRNOW": 4.0, "SPDNOW": 4.0, "TECH": "TRAK", "ADVNR": 16, "ATCFID": "AL062024", "NAME": "FRANCINE", "FTECH": "OFCL", "FCST_DTG": "2024-09-14 00:00:00", "RUN_DTG": "2024-09-14 15:46:08", "BASIN": "AL", "STMNR": 6, "CAT_ID": null, "CAT_DESC": null, "MSGID": "WTNT21 KNHC 121438", "VALIDTIME": "2024-09-14 00:00:00" }, "geometry": { "type": "LineString", "coordinates": [ [ -92.7, 18.8 ], [ -92.6, 18.8 ], [ -92.4, 19.1 ], [ -93.0, 19.4 ], [ -94.2, 20.5 ], [ -94.5, 21.4 ], [ -94.7, 21.9 ], [ -94.7, 22.0 ], [ -94.7, 22.7 ], [ -95.8, 23.7 ], [ -96.0, 23.9 ], [ -96.2, 24.2 ], [ -95.8, 24.5 ], [ -95.3, 25.3 ], [ -94.7, 26.0 ], [ -94.1, 26.6 ], [ -93.2, 27.5 ], [ -92.1, 28.6 ], [ -91.14, 29.4 ], [ -90.9, 29.6 ], [ -90.3, 30.2 ], [ -90.1, 31.9 ], [ -89.7, 33.4 ], [ -90.5, 34.7 ], [ -90.9, 35.4 ], [ -91.5, 35.9 ], [ -92.0, 35.7 ], [ -91.7, 34.9 ] ] } },
{ "type": "Feature", "properties": { "ID": 252749, "LAT": 34.5, "LON": -91.9, "VMAX": 15.0, "MSLP": 1010.0, "RMAX": 39.38713, "FSPD": 4.44974, "FDIR": 202.34654, "RENV": 250.0, "PENV": 1012.0, "VALIDT": 3, "DTG": "2024-09-14 03:00", "LATNOW": 34.9, "LONNOW": -91.7, "WINDNOW": 15.0, "DIRNOW": 4.0, "SPDNOW": 4.0, "TECH": "FCST", "ADVNR": 16, "ATCFID": "AL062024", "NAME": "FRANCINE", "FTECH": "OFCL", "FCST_DTG": "2024-09-14 00:00:00", "RUN_DTG": "2024-09-14 15:46:08", "BASIN": "AL", "STMNR": 6, "CAT_ID": null, "CAT_DESC": null, "MSGID": "WTNT21 KNHC 121438", "VALIDTIME": "2024-09-14 03:00:00" }, "geometry": { "type": "LineString", "coordinates": [ [ -91.7, 34.9 ], [ -91.9, 34.5 ] ] } }
]
}
