{
"type": "FeatureCollection",
"crs": { "type": "name", "properties": { "name": "urn:ogc:def:crs:OGC:1.3:CRS84" } },
"features": [
{ "type": "Feature", "properties": { "ID": 108297, "LAT": -13.1, "LON": 170.1, "VMAX": 15.0, "MSLP": 1013.8515, "RMAX": 40.0, "FSPD": 1.12625, "FDIR": 117.17905, "RENV": 500.0, "PENV": 1012.0, "VALIDT": 0, "DTG": "2026-02-24 00:00", "LATNOW": -25.7, "LONNOW": 179.2, "WINDNOW": 55.0, "DIRNOW": 16.0, "SPDNOW": 6.0, "TECH": "TRAK", "ADVNR": 11, "ATCFID": "SH232026", "NAME": "URMIL", "FTECH": "JTWC", "FCST_DTG": "2026-03-01 06:00:00", "RUN_DTG": "2026-03-01 08:52:37", "BASIN": "SH", "STMNR": 23, "CAT_ID": null, "CAT_DESC": null, "MSGID": "WTPS51 PGTW 010900", "VALIDTIME": "2026-02-24 00:00:00" }, "geometry": { "type": "Point", "coordinates": [ 170.100006, -13.1 ] } },
{ "type": "Feature", "properties": { "ID": 108298, "LAT": -13.2, "LON": 170.3, "VMAX": 15.0, "MSLP": 1013.8515, "RMAX": 40.0, "FSPD": 1.14421, "FDIR": 154.05493, "RENV": 500.0, "PENV": 1012.0, "VALIDT": 0, "DTG": "2026-02-24 06:00", "LATNOW": -25.7, "LONNOW": 179.2, "WINDNOW": 55.0, "DIRNOW": 16.0, "SPDNOW": 6.0, "TECH": "TRAK", "ADVNR": 11, "ATCFID": "SH232026", "NAME": "URMIL", "FTECH": "JTWC", "FCST_DTG": "2026-03-01 06:00:00", "RUN_DTG": "2026-03-01 08:52:37", "BASIN": "SH", "STMNR": 23, "CAT_ID": null, "CAT_DESC": null, "MSGID": "WTPS51 PGTW 010900", "VALIDTIME": "2026-02-24 06:00:00" }, "geometry": { "type": "Point", "coordinates": [ 170.300003, -13.2 ] } },
{ "type": "Feature", "properties": { "ID": 108299, "LAT": -13.4, "LON": 170.4, "VMAX": 15.0, "MSLP": 1013.8515, "RMAX": 40.0, "FSPD": 1.14406, "FDIR": 154.07031, "RENV": 500.0, "PENV": 1012.0, "VALIDT": 0, "DTG": "2026-02-24 12:00", "LATNOW": -25.7, "LONNOW": 179.2, "WINDNOW": 55.0, "DIRNOW": 16.0, "SPDNOW": 6.0, "TECH": "TRAK", "ADVNR": 11, "ATCFID": "SH232026", "NAME": "URMIL", "FTECH": "JTWC", "FCST_DTG": "2026-03-01 06:00:00", "RUN_DTG": "2026-03-01 08:52:37", "BASIN": "SH", "STMNR": 23, "CAT_ID": null, "CAT_DESC": null, "MSGID": "WTPS51 PGTW 010900", "VALIDTIME": "2026-02-24 12:00:00" }, "geometry": { "type": "Point", "coordinates": [ 170.399994, -13.4 ] } },
{ "type": "Feature", "properties": { "ID": 108300, "LAT": -13.6, "LON": 170.5, "VMAX": 15.0, "MSLP": 1013.8515, "RMAX": 40.0, "FSPD": 3.04331, "FDIR": 260.26794, "RENV": 500.0, "PENV": 1012.0, "VALIDT": 0, "DTG": "2026-02-24 18:00", "LATNOW": -25.7, "LONNOW": 179.2, "WINDNOW": 55.0, "DIRNOW": 16.0, "SPDNOW": 6.0, "TECH": "TRAK", "ADVNR": 11, "ATCFID": "SH232026", "NAME": "URMIL", "FTECH": "JTWC", "FCST_DTG": "2026-03-01 06:00:00", "RUN_DTG": "2026-03-01 08:52:37", "BASIN": "SH", "STMNR": 23, "CAT_ID": null, "CAT_DESC": null, "MSGID": "WTPS51 PGTW 010900", "VALIDTIME": "2026-02-24 18:00:00" }, "geometry": { "type": "Point", "coordinates": [ 170.5, -13.6 ] } },
{ "type": "Feature", "properties": { "ID": 108301, "LAT": -13.7, "LON": 169.9, "VMAX": 15.0, "MSLP": 1013.8515, "RMAX": 40.0, "FSPD": 4.68334, "FDIR": 219.74309, "RENV": 500.0, "PENV": 1012.0, "VALIDT": 0, "DTG": "2026-02-25 00:00", "LATNOW": -25.7, "LONNOW": 179.2, "WINDNOW": 55.0, "DIRNOW": 16.0, "SPDNOW": 6.0, "TECH": "TRAK", "ADVNR": 11, "ATCFID": "SH232026", "NAME": "URMIL", "FTECH": "JTWC", "FCST_DTG": "2026-03-01 06:00:00", "RUN_DTG": "2026-03-01 08:52:37", "BASIN": "SH", "STMNR": 23, "CAT_ID": null, "CAT_DESC": null, "MSGID": "WTPS51 PGTW 010900", "VALIDTIME": "2026-02-25 00:00:00" }, "geometry": { "type": "Point", "coordinates": [ 169.899994, -13.7 ] } },
{ "type": "Feature", "properties": { "ID": 108302, "LAT": -14.4, "LON": 169.3, "VMAX": 20.0, "MSLP": 1012.95825, "RMAX": 45.0, "FSPD": 6.91619, "FDIR": 215.09406, "RENV": 500.0, "PENV": 1012.0, "VALIDT": 0, "DTG": "2026-02-25 06:00", "LATNOW": -25.7, "LONNOW": 179.2, "WINDNOW": 55.0, "DIRNOW": 16.0, "SPDNOW": 6.0, "TECH": "TRAK", "ADVNR": 11, "ATCFID": "SH232026", "NAME": "URMIL", "FTECH": "JTWC", "FCST_DTG": "2026-03-01 06:00:00", "RUN_DTG": "2026-03-01 08:52:37", "BASIN": "SH", "STMNR": 23, "CAT_ID": null, "CAT_DESC": null, "MSGID": "WTPS51 PGTW 010900", "VALIDTIME": "2026-02-25 06:00:00" }, "geometry": { "type": "Point", "coordinates": [ 169.300003, -14.4 ] } },
{ "type": "Feature", "properties": { "ID": 108303, "LAT": -15.5, "LON": 168.5, "VMAX": 25.0, "MSLP": 1011.80975, "RMAX": 45.0, "FSPD": 4.3693, "FDIR": 214.49402, "RENV": 500.0, "PENV": 1012.0, "VALIDT": 0, "DTG": "2026-02-25 12:00", "LATNOW": -25.7, "LONNOW": 179.2, "WINDNOW": 55.0, "DIRNOW": 16.0, "SPDNOW": 6.0, "TECH": "TRAK", "ADVNR": 11, "ATCFID": "SH232026", "NAME": "URMIL", "FTECH": "JTWC", "FCST_DTG": "2026-03-01 06:00:00", "RUN_DTG": "2026-03-01 08:52:37", "BASIN": "SH", "STMNR": 23, "CAT_ID": null, "CAT_DESC": null, "MSGID": "WTPS51 PGTW 010900", "VALIDTIME": "2026-02-25 12:00:00" }, "geometry": { "type": "Point", "coordinates": [ 168.5, -15.5 ] } },
{ "type": "Feature", "properties": { "ID": 108304, "LAT": -16.2, "LON": 168.0, "VMAX": 25.0, "MSLP": 1011.80975, "RMAX": 45.0, "FSPD": 4.63134, "FDIR": 228.20459, "RENV": 500.0, "PENV": 1012.0, "VALIDT": 0, "DTG": "2026-02-25 18:00", "LATNOW": -25.7, "LONNOW": 179.2, "WINDNOW": 55.0, "DIRNOW": 16.0, "SPDNOW": 6.0, "TECH": "TRAK", "ADVNR": 11, "ATCFID": "SH232026", "NAME": "URMIL", "FTECH": "JTWC", "FCST_DTG": "2026-03-01 06:00:00", "RUN_DTG": "2026-03-01 08:52:37", "BASIN": "SH", "STMNR": 23, "CAT_ID": null, "CAT_DESC": null, "MSGID": "WTPS51 PGTW 010900", "VALIDTIME": "2026-02-25 18:00:00" }, "geometry": { "type": "Point", "coordinates": [ 168.0, -16.200001 ] } },
{ "type": "Feature", "properties": { "ID": 108305, "LAT": -16.8, "LON": 167.3, "VMAX": 30.0, "MSLP": 1010.40607, "RMAX": 44.21983, "FSPD": 2.57222, "FDIR": 179.99997, "RENV": 500.0, "PENV": 1012.0, "VALIDT": 0, "DTG": "2026-02-26 00:00", "LATNOW": -25.7, "LONNOW": 179.2, "WINDNOW": 55.0, "DIRNOW": 16.0, "SPDNOW": 6.0, "TECH": "TRAK", "ADVNR": 11, "ATCFID": "SH232026", "NAME": "URMIL", "FTECH": "JTWC", "FCST_DTG": "2026-03-01 06:00:00", "RUN_DTG": "2026-03-01 08:52:37", "BASIN": "SH", "STMNR": 23, "CAT_ID": null, "CAT_DESC": null, "MSGID": "WTPS51 PGTW 010900", "VALIDTIME": "2026-02-26 00:00:00" }, "geometry": { "type": "Point", "coordinates": [ 167.300003, -16.799999 ] } },
{ "type": "Feature", "properties": { "ID": 108306, "LAT": -17.3, "LON": 167.3, "VMAX": 30.0, "MSLP": 1010.40607, "RMAX": 44.21983, "FSPD": 2.96339, "FDIR": 150.22702, "RENV": 500.0, "PENV": 1012.0, "VALIDT": 0, "DTG": "2026-02-26 06:00", "LATNOW": -25.7, "LONNOW": 179.2, "WINDNOW": 55.0, "DIRNOW": 16.0, "SPDNOW": 6.0, "TECH": "TRAK", "ADVNR": 11, "ATCFID": "SH232026", "NAME": "URMIL", "FTECH": "JTWC", "FCST_DTG": "2026-03-01 06:00:00", "RUN_DTG": "2026-03-01 08:52:37", "BASIN": "SH", "STMNR": 23, "CAT_ID": null, "CAT_DESC": null, "MSGID": "WTPS51 PGTW 010900", "VALIDTIME": "2026-02-26 06:00:00" }, "geometry": { "type": "Point", "coordinates": [ 167.300003, -17.299999 ] } },
{ "type": "Feature", "properties": { "ID": 108307, "LAT": -17.8, "LON": 167.6, "VMAX": 30.0, "MSLP": 1010.40607, "RMAX": 44.21983, "FSPD": 2.52759, "FDIR": 144.50119, "RENV": 500.0, "PENV": 1012.0, "VALIDT": 0, "DTG": "2026-02-26 12:00", "LATNOW": -25.7, "LONNOW": 179.2, "WINDNOW": 55.0, "DIRNOW": 16.0, "SPDNOW": 6.0, "TECH": "TRAK", "ADVNR": 11, "ATCFID": "SH232026", "NAME": "URMIL", "FTECH": "JTWC", "FCST_DTG": "2026-03-01 06:00:00", "RUN_DTG": "2026-03-01 08:52:37", "BASIN": "SH", "STMNR": 23, "CAT_ID": null, "CAT_DESC": null, "MSGID": "WTPS51 PGTW 010900", "VALIDTIME": "2026-02-26 12:00:00" }, "geometry": { "type": "Point", "coordinates": [ 167.600006, -17.799999 ] } },
{ "type": "Feature", "properties": { "ID": 108308, "LAT": -18.2, "LON": 167.9, "VMAX": 35.0, "MSLP": 996.0, "RMAX": 30.0, "FSPD": 2.05778, "FDIR": 179.99997, "RENV": 180.0, "PENV": 1002.0, "VALIDT": 0, "DTG": "2026-02-26 18:00", "LATNOW": -25.7, "LONNOW": 179.2, "WINDNOW": 55.0, "DIRNOW": 16.0, "SPDNOW": 6.0, "TECH": "TRAK", "ADVNR": 11, "ATCFID": "SH232026", "NAME": "URMIL", "FTECH": "JTWC", "FCST_DTG": "2026-03-01 06:00:00", "RUN_DTG": "2026-03-01 08:52:37", "BASIN": "SH", "STMNR": 23, "CAT_ID": null, "CAT_DESC": null, "MSGID": "WTPS51 PGTW 010900", "VALIDTIME": "2026-02-26 18:00:00" }, "geometry": { "type": "Point", "coordinates": [ 167.899994, -18.200001 ] } },
{ "type": "Feature", "properties": { "ID": 108309, "LAT": -18.6, "LON": 167.9, "VMAX": 45.0, "MSLP": 996.0, "RMAX": 30.0, "FSPD": 5.04535, "FDIR": 144.65771, "RENV": 180.0, "PENV": 1002.0, "VALIDT": 0, "DTG": "2026-02-27 00:00", "LATNOW": -25.7, "LONNOW": 179.2, "WINDNOW": 55.0, "DIRNOW": 16.0, "SPDNOW": 6.0, "TECH": "TRAK", "ADVNR": 11, "ATCFID": "SH232026", "NAME": "URMIL", "FTECH": "JTWC", "FCST_DTG": "2026-03-01 06:00:00", "RUN_DTG": "2026-03-01 08:52:37", "BASIN": "SH", "STMNR": 23, "CAT_ID": null, "CAT_DESC": null, "MSGID": "WTPS51 PGTW 010900", "VALIDTIME": "2026-02-27 00:00:00" }, "geometry": { "type": "Point", "coordinates": [ 167.899994, -18.6 ] } },
{ "type": "Feature", "properties": { "ID": 108310, "LAT": -19.4, "LON": 168.5, "VMAX": 55.0, "MSLP": 992.0, "RMAX": 20.0, "FSPD": 4.87807, "FDIR": 96.05368, "RENV": 170.0, "PENV": 1003.0, "VALIDT": 0, "DTG": "2026-02-27 06:00", "LATNOW": -25.7, "LONNOW": 179.2, "WINDNOW": 55.0, "DIRNOW": 16.0, "SPDNOW": 6.0, "TECH": "TRAK", "ADVNR": 11, "ATCFID": "SH232026", "NAME": "URMIL", "FTECH": "JTWC", "FCST_DTG": "2026-03-01 06:00:00", "RUN_DTG": "2026-03-01 08:52:37", "BASIN": "SH", "STMNR": 23, "CAT_ID": null, "CAT_DESC": null, "MSGID": "WTPS51 PGTW 010900", "VALIDTIME": "2026-02-27 06:00:00" }, "geometry": { "type": "Point", "coordinates": [ 168.5, -19.4 ] } },
{ "type": "Feature", "properties": { "ID": 108311, "LAT": -19.5, "LON": 169.5, "VMAX": 60.0, "MSLP": 985.0, "RMAX": 15.0, "FSPD": 0.51445, "FDIR": 179.99997, "RENV": 190.0, "PENV": 1002.0, "VALIDT": 0, "DTG": "2026-02-27 12:00", "LATNOW": -25.7, "LONNOW": 179.2, "WINDNOW": 55.0, "DIRNOW": 16.0, "SPDNOW": 6.0, "TECH": "TRAK", "ADVNR": 11, "ATCFID": "SH232026", "NAME": "URMIL", "FTECH": "JTWC", "FCST_DTG": "2026-03-01 06:00:00", "RUN_DTG": "2026-03-01 08:52:37", "BASIN": "SH", "STMNR": 23, "CAT_ID": null, "CAT_DESC": null, "MSGID": "WTPS51 PGTW 010900", "VALIDTIME": "2026-02-27 12:00:00" }, "geometry": { "type": "Point", "coordinates": [ 169.5, -19.5 ] } },
{ "type": "Feature", "properties": { "ID": 108312, "LAT": -19.6, "LON": 169.5, "VMAX": 60.0, "MSLP": 985.0, "RMAX": 10.0, "FSPD": 7.11264, "FDIR": 125.35385, "RENV": 200.0, "PENV": 1004.0, "VALIDT": 0, "DTG": "2026-02-27 18:00", "LATNOW": -25.7, "LONNOW": 179.2, "WINDNOW": 55.0, "DIRNOW": 16.0, "SPDNOW": 6.0, "TECH": "TRAK", "ADVNR": 11, "ATCFID": "SH232026", "NAME": "URMIL", "FTECH": "JTWC", "FCST_DTG": "2026-03-01 06:00:00", "RUN_DTG": "2026-03-01 08:52:37", "BASIN": "SH", "STMNR": 23, "CAT_ID": null, "CAT_DESC": null, "MSGID": "WTPS51 PGTW 010900", "VALIDTIME": "2026-02-27 18:00:00" }, "geometry": { "type": "Point", "coordinates": [ 169.5, -19.6 ] } },
{ "type": "Feature", "properties": { "ID": 108313, "LAT": -20.4, "LON": 170.7, "VMAX": 65.0, "MSLP": 984.0, "RMAX": 10.0, "FSPD": 5.23675, "FDIR": 113.13806, "RENV": 215.0, "PENV": 1002.0, "VALIDT": 0, "DTG": "2026-02-28 00:00", "LATNOW": -25.7, "LONNOW": 179.2, "WINDNOW": 55.0, "DIRNOW": 16.0, "SPDNOW": 6.0, "TECH": "TRAK", "ADVNR": 11, "ATCFID": "SH232026", "NAME": "URMIL", "FTECH": "JTWC", "FCST_DTG": "2026-03-01 06:00:00", "RUN_DTG": "2026-03-01 08:52:37", "BASIN": "SH", "STMNR": 23, "CAT_ID": null, "CAT_DESC": null, "MSGID": "WTPS51 PGTW 010900", "VALIDTIME": "2026-02-28 00:00:00" }, "geometry": { "type": "Point", "coordinates": [ 170.699997, -20.4 ] } },
{ "type": "Feature", "properties": { "ID": 108314, "LAT": -20.8, "LON": 171.7, "VMAX": 65.0, "MSLP": 984.0, "RMAX": 10.0, "FSPD": 7.36995, "FDIR": 102.08771, "RENV": 190.0, "PENV": 1003.0, "VALIDT": 0, "DTG": "2026-02-28 06:00", "LATNOW": -25.7, "LONNOW": 179.2, "WINDNOW": 55.0, "DIRNOW": 16.0, "SPDNOW": 6.0, "TECH": "TRAK", "ADVNR": 11, "ATCFID": "SH232026", "NAME": "URMIL", "FTECH": "JTWC", "FCST_DTG": "2026-03-01 06:00:00", "RUN_DTG": "2026-03-01 08:52:37", "BASIN": "SH", "STMNR": 23, "CAT_ID": null, "CAT_DESC": null, "MSGID": "WTPS51 PGTW 010900", "VALIDTIME": "2026-02-28 06:00:00" }, "geometry": { "type": "Point", "coordinates": [ 171.699997, -20.799999 ] } },
{ "type": "Feature", "properties": { "ID": 108315, "LAT": -21.1, "LON": 173.2, "VMAX": 65.0, "MSLP": 980.0, "RMAX": 15.0, "FSPD": 10.44312, "FDIR": 119.5126, "RENV": 220.0, "PENV": 1002.0, "VALIDT": 0, "DTG": "2026-02-28 12:00", "LATNOW": -25.7, "LONNOW": 179.2, "WINDNOW": 55.0, "DIRNOW": 16.0, "SPDNOW": 6.0, "TECH": "TRAK", "ADVNR": 11, "ATCFID": "SH232026", "NAME": "URMIL", "FTECH": "JTWC", "FCST_DTG": "2026-03-01 06:00:00", "RUN_DTG": "2026-03-01 08:52:37", "BASIN": "SH", "STMNR": 23, "CAT_ID": null, "CAT_DESC": null, "MSGID": "WTPS51 PGTW 010900", "VALIDTIME": "2026-02-28 12:00:00" }, "geometry": { "type": "Point", "coordinates": [ 173.199997, -21.1 ] } },
{ "type": "Feature", "properties": { "ID": 108316, "LAT": -22.1, "LON": 175.1, "VMAX": 55.0, "MSLP": 981.0, "RMAX": 15.0, "FSPD": 14.987, "FDIR": 130.70721, "RENV": 250.0, "PENV": 1003.0, "VALIDT": 0, "DTG": "2026-02-28 18:00", "LATNOW": -25.7, "LONNOW": 179.2, "WINDNOW": 55.0, "DIRNOW": 16.0, "SPDNOW": 6.0, "TECH": "TRAK", "ADVNR": 11, "ATCFID": "SH232026", "NAME": "URMIL", "FTECH": "JTWC", "FCST_DTG": "2026-03-01 06:00:00", "RUN_DTG": "2026-03-01 08:52:37", "BASIN": "SH", "STMNR": 23, "CAT_ID": null, "CAT_DESC": null, "MSGID": "WTPS51 PGTW 010900", "VALIDTIME": "2026-02-28 18:00:00" }, "geometry": { "type": "Point", "coordinates": [ 175.100006, -22.1 ] } },
{ "type": "Feature", "properties": { "ID": 108317, "LAT": -24.0, "LON": 177.5, "VMAX": 55.0, "MSLP": 987.0, "RMAX": 20.0, "FSPD": 11.80939, "FDIR": 137.77905, "RENV": 250.0, "PENV": 1005.0, "VALIDT": 0, "DTG": "2026-03-01 00:00", "LATNOW": -25.7, "LONNOW": 179.2, "WINDNOW": 55.0, "DIRNOW": 16.0, "SPDNOW": 6.0, "TECH": "TRAK", "ADVNR": 11, "ATCFID": "SH232026", "NAME": "URMIL", "FTECH": "JTWC", "FCST_DTG": "2026-03-01 06:00:00", "RUN_DTG": "2026-03-01 08:52:37", "BASIN": "SH", "STMNR": 23, "CAT_ID": null, "CAT_DESC": null, "MSGID": "WTPS51 PGTW 010900", "VALIDTIME": "2026-03-01 00:00:00" }, "geometry": { "type": "Point", "coordinates": [ 177.5, -24.0 ] } },
{ "type": "Feature", "properties": { "ID": 108318, "LAT": -25.7, "LON": 179.2, "VMAX": 55.0, "MSLP": 986.0, "RMAX": 20.0, "FSPD": 15.8605, "FDIR": 130.44449, "RENV": 250.0, "PENV": 1005.0, "VALIDT": 0, "DTG": "2026-03-01 06:00", "LATNOW": -25.7, "LONNOW": 179.2, "WINDNOW": 55.0, "DIRNOW": 16.0, "SPDNOW": 6.0, "TECH": "TRAK", "ADVNR": 11, "ATCFID": "SH232026", "NAME": "URMIL", "FTECH": "JTWC", "FCST_DTG": "2026-03-01 06:00:00", "RUN_DTG": "2026-03-01 08:52:37", "BASIN": "SH", "STMNR": 23, "CAT_ID": null, "CAT_DESC": null, "MSGID": "WTPS51 PGTW 010900", "VALIDTIME": "2026-03-01 06:00:00" }, "geometry": { "type": "Point", "coordinates": [ 179.199997, -25.700001 ] } },
{ "type": "Feature", "properties": { "ID": 108319, "LAT": -29.7, "LON": -175.5, "VMAX": 50.0, "MSLP": 1002.2391, "RMAX": 24.04096, "FSPD": 15.8605, "FDIR": 130.44449, "RENV": 180.0, "PENV": 1012.0, "VALIDT": 12, "DTG": "2026-03-01 18:00", "LATNOW": -25.7, "LONNOW": 179.2, "WINDNOW": 55.0, "DIRNOW": 16.0, "SPDNOW": 6.0, "TECH": "FCST", "ADVNR": 11, "ATCFID": "SH232026", "NAME": "URMIL", "FTECH": "JTWC", "FCST_DTG": "2026-03-01 06:00:00", "RUN_DTG": "2026-03-01 08:52:37", "BASIN": "SH", "STMNR": 23, "CAT_ID": null, "CAT_DESC": null, "MSGID": "WTPS51 PGTW 010900", "VALIDTIME": "2026-03-01 18:00:00" }, "geometry": { "type": "Point", "coordinates": [ -175.5, -29.700001 ] } },
{ "type": "Feature", "properties": { "ID": 108318, "LAT": -25.7, "LON": 179.2, "VMAX": 55.0, "MSLP": 986.0, "RMAX": 20.0, "FSPD": 15.8605, "FDIR": 130.44449, "RENV": 250.0, "PENV": 1005.0, "VALIDT": 0, "DTG": "2026-03-01 06:00", "LATNOW": -25.7, "LONNOW": 179.2, "WINDNOW": 55.0, "DIRNOW": 16.0, "SPDNOW": 6.0, "TECH": "TRAK", "ADVNR": 11, "ATCFID": "SH232026", "NAME": "URMIL", "FTECH": "JTWC", "FCST_DTG": "2026-03-01 06:00:00", "RUN_DTG": "2026-03-01 08:52:37", "BASIN": "SH", "STMNR": 23, "CAT_ID": null, "CAT_DESC": null, "MSGID": "WTPS51 PGTW 010900", "VALIDTIME": "2026-03-01 06:00:00" }, "geometry": { "type": "LineString", "coordinates": [ [ 170.1, -13.1 ], [ 170.3, -13.2 ], [ 170.4, -13.4 ], [ 170.5, -13.6 ], [ 169.9, -13.7 ], [ 169.3, -14.4 ], [ 168.5, -15.5 ], [ 168.0, -16.2 ], [ 167.3, -16.8 ], [ 167.3, -17.3 ], [ 167.6, -17.8 ], [ 167.9, -18.2 ], [ 167.9, -18.6 ], [ 168.5, -19.4 ], [ 169.5, -19.5 ], [ 169.5, -19.6 ], [ 170.7, -20.4 ], [ 171.7, -20.8 ], [ 173.2, -21.1 ], [ 175.1, -22.1 ], [ 177.5, -24.0 ], [ 179.2, -25.7 ] ] } },
{ "type": "Feature", "properties": { "ID": 108319, "LAT": -29.7, "LON": -175.5, "VMAX": 50.0, "MSLP": 1002.2391, "RMAX": 24.04096, "FSPD": 15.8605, "FDIR": 130.44449, "RENV": 180.0, "PENV": 1012.0, "VALIDT": 12, "DTG": "2026-03-01 18:00", "LATNOW": -25.7, "LONNOW": 179.2, "WINDNOW": 55.0, "DIRNOW": 16.0, "SPDNOW": 6.0, "TECH": "FCST", "ADVNR": 11, "ATCFID": "SH232026", "NAME": "URMIL", "FTECH": "JTWC", "FCST_DTG": "2026-03-01 06:00:00", "RUN_DTG": "2026-03-01 08:52:37", "BASIN": "SH", "STMNR": 23, "CAT_ID": null, "CAT_DESC": null, "MSGID": "WTPS51 PGTW 010900", "VALIDTIME": "2026-03-01 18:00:00" }, "geometry": { "type": "LineString", "coordinates": [ [ 179.2, -25.7 ], [ -175.5, -29.7 ] ] } }
]
}
