{
"type": "FeatureCollection",
"crs": { "type": "name", "properties": { "name": "urn:ogc:def:crs:OGC:1.3:CRS84" } },
"features": [
{ "type": "Feature", "properties": { "ID": 82972, "LAT": 4.3, "LON": 100.5, "VMAX": 25.0, "MSLP": 1011.80975, "RMAX": 45.0, "FSPD": 1.45291, "FDIR": 315.08496, "RENV": 500.0, "PENV": 1012.0, "VALIDT": 0, "DTG": "2025-11-23 18:00", "LATNOW": 6.4, "LONNOW": 109.1, "WINDNOW": 25.0, "DIRNOW": 4.0, "SPDNOW": 1.0, "TECH": "TRAK", "ADVNR": 13, "ATCFID": "WP342025", "NAME": "THIRTYFOU", "FTECH": "JTWC", "FCST_DTG": "2025-11-30 00:00:00", "RUN_DTG": "2025-11-30 15:11:10", "BASIN": "WP", "STMNR": 34, "CAT_ID": null, "CAT_DESC": null, "MSGID": "WTPN52 PGTW 300300", "VALIDTIME": "2025-11-23 18:00:00" }, "geometry": { "type": "Point", "coordinates": [ 100.5, 4.3 ] } },
{ "type": "Feature", "properties": { "ID": 82973, "LAT": 4.5, "LON": 100.3, "VMAX": 25.0, "MSLP": 1011.80975, "RMAX": 45.0, "FSPD": 1.45274, "FDIR": 315.09174, "RENV": 500.0, "PENV": 1012.0, "VALIDT": 0, "DTG": "2025-11-24 00:00", "LATNOW": 6.4, "LONNOW": 109.1, "WINDNOW": 25.0, "DIRNOW": 4.0, "SPDNOW": 1.0, "TECH": "TRAK", "ADVNR": 13, "ATCFID": "WP342025", "NAME": "THIRTYFOU", "FTECH": "JTWC", "FCST_DTG": "2025-11-30 00:00:00", "RUN_DTG": "2025-11-30 15:11:10", "BASIN": "WP", "STMNR": 34, "CAT_ID": null, "CAT_DESC": null, "MSGID": "WTPN52 PGTW 300300", "VALIDTIME": "2025-11-24 00:00:00" }, "geometry": { "type": "Point", "coordinates": [ 100.300003, 4.5 ] } },
{ "type": "Feature", "properties": { "ID": 82974, "LAT": 4.7, "LON": 100.1, "VMAX": 25.0, "MSLP": 1011.80975, "RMAX": 45.0, "FSPD": 0.51444, "FDIR": 179.99997, "RENV": 500.0, "PENV": 1012.0, "VALIDT": 0, "DTG": "2025-11-24 06:00", "LATNOW": 6.4, "LONNOW": 109.1, "WINDNOW": 25.0, "DIRNOW": 4.0, "SPDNOW": 1.0, "TECH": "TRAK", "ADVNR": 13, "ATCFID": "WP342025", "NAME": "THIRTYFOU", "FTECH": "JTWC", "FCST_DTG": "2025-11-30 00:00:00", "RUN_DTG": "2025-11-30 15:11:10", "BASIN": "WP", "STMNR": 34, "CAT_ID": null, "CAT_DESC": null, "MSGID": "WTPN52 PGTW 300300", "VALIDTIME": "2025-11-24 06:00:00" }, "geometry": { "type": "Point", "coordinates": [ 100.099998, 4.7 ] } },
{ "type": "Feature", "properties": { "ID": 82975, "LAT": 4.6, "LON": 100.1, "VMAX": 25.0, "MSLP": 1011.80975, "RMAX": 45.0, "FSPD": 0.51444, "FDIR": 179.99997, "RENV": 500.0, "PENV": 1012.0, "VALIDT": 0, "DTG": "2025-11-24 12:00", "LATNOW": 6.4, "LONNOW": 109.1, "WINDNOW": 25.0, "DIRNOW": 4.0, "SPDNOW": 1.0, "TECH": "TRAK", "ADVNR": 13, "ATCFID": "WP342025", "NAME": "THIRTYFOU", "FTECH": "JTWC", "FCST_DTG": "2025-11-30 00:00:00", "RUN_DTG": "2025-11-30 15:11:10", "BASIN": "WP", "STMNR": 34, "CAT_ID": null, "CAT_DESC": null, "MSGID": "WTPN52 PGTW 300300", "VALIDTIME": "2025-11-24 12:00:00" }, "geometry": { "type": "Point", "coordinates": [ 100.099998, 4.6 ] } },
{ "type": "Feature", "properties": { "ID": 82976, "LAT": 4.5, "LON": 100.1, "VMAX": 30.0, "MSLP": 1010.40607, "RMAX": 44.21983, "FSPD": 1.0257, "FDIR": 269.99997, "RENV": 500.0, "PENV": 1012.0, "VALIDT": 0, "DTG": "2025-11-24 18:00", "LATNOW": 6.4, "LONNOW": 109.1, "WINDNOW": 25.0, "DIRNOW": 4.0, "SPDNOW": 1.0, "TECH": "TRAK", "ADVNR": 13, "ATCFID": "WP342025", "NAME": "THIRTYFOU", "FTECH": "JTWC", "FCST_DTG": "2025-11-30 00:00:00", "RUN_DTG": "2025-11-30 15:11:10", "BASIN": "WP", "STMNR": 34, "CAT_ID": null, "CAT_DESC": null, "MSGID": "WTPN52 PGTW 300300", "VALIDTIME": "2025-11-24 18:00:00" }, "geometry": { "type": "Point", "coordinates": [ 100.099998, 4.5 ] } },
{ "type": "Feature", "properties": { "ID": 82977, "LAT": 4.5, "LON": 99.9, "VMAX": 30.0, "MSLP": 1010.40607, "RMAX": 44.21983, "FSPD": 2.61521, "FDIR": 281.34473, "RENV": 500.0, "PENV": 1012.0, "VALIDT": 0, "DTG": "2025-11-25 00:00", "LATNOW": 6.4, "LONNOW": 109.1, "WINDNOW": 25.0, "DIRNOW": 4.0, "SPDNOW": 1.0, "TECH": "TRAK", "ADVNR": 13, "ATCFID": "WP342025", "NAME": "THIRTYFOU", "FTECH": "JTWC", "FCST_DTG": "2025-11-30 00:00:00", "RUN_DTG": "2025-11-30 15:11:10", "BASIN": "WP", "STMNR": 34, "CAT_ID": null, "CAT_DESC": null, "MSGID": "WTPN52 PGTW 300300", "VALIDTIME": "2025-11-25 00:00:00" }, "geometry": { "type": "Point", "coordinates": [ 99.900002, 4.5 ] } },
{ "type": "Feature", "properties": { "ID": 82978, "LAT": 4.6, "LON": 99.4, "VMAX": 30.0, "MSLP": 1010.40607, "RMAX": 44.21983, "FSPD": 1.53838, "FDIR": 269.99997, "RENV": 500.0, "PENV": 1012.0, "VALIDT": 0, "DTG": "2025-11-25 06:00", "LATNOW": 6.4, "LONNOW": 109.1, "WINDNOW": 25.0, "DIRNOW": 4.0, "SPDNOW": 1.0, "TECH": "TRAK", "ADVNR": 13, "ATCFID": "WP342025", "NAME": "THIRTYFOU", "FTECH": "JTWC", "FCST_DTG": "2025-11-30 00:00:00", "RUN_DTG": "2025-11-30 15:11:10", "BASIN": "WP", "STMNR": 34, "CAT_ID": null, "CAT_DESC": null, "MSGID": "WTPN52 PGTW 300300", "VALIDTIME": "2025-11-25 06:00:00" }, "geometry": { "type": "Point", "coordinates": [ 99.400002, 4.6 ] } },
{ "type": "Feature", "properties": { "ID": 82979, "LAT": 4.6, "LON": 99.1, "VMAX": 40.0, "MSLP": 1006.833, "RMAX": 41.26637, "FSPD": 3.62642, "FDIR": 261.84448, "RENV": 500.0, "PENV": 1012.0, "VALIDT": 0, "DTG": "2025-11-25 12:00", "LATNOW": 6.4, "LONNOW": 109.1, "WINDNOW": 25.0, "DIRNOW": 4.0, "SPDNOW": 1.0, "TECH": "TRAK", "ADVNR": 13, "ATCFID": "WP342025", "NAME": "THIRTYFOU", "FTECH": "JTWC", "FCST_DTG": "2025-11-30 00:00:00", "RUN_DTG": "2025-11-30 15:11:10", "BASIN": "WP", "STMNR": 34, "CAT_ID": null, "CAT_DESC": null, "MSGID": "WTPN52 PGTW 300300", "VALIDTIME": "2025-11-25 12:00:00" }, "geometry": { "type": "Point", "coordinates": [ 99.099998, 4.6 ] } },
{ "type": "Feature", "properties": { "ID": 82980, "LAT": 4.5, "LON": 98.4, "VMAX": 45.0, "MSLP": 1004.66364, "RMAX": 39.89946, "FSPD": 1.85107, "FDIR": 236.23172, "RENV": 500.0, "PENV": 1012.0, "VALIDT": 0, "DTG": "2025-11-25 18:00", "LATNOW": 6.4, "LONNOW": 109.1, "WINDNOW": 25.0, "DIRNOW": 4.0, "SPDNOW": 1.0, "TECH": "TRAK", "ADVNR": 13, "ATCFID": "WP342025", "NAME": "THIRTYFOU", "FTECH": "JTWC", "FCST_DTG": "2025-11-30 00:00:00", "RUN_DTG": "2025-11-30 15:11:10", "BASIN": "WP", "STMNR": 34, "CAT_ID": null, "CAT_DESC": null, "MSGID": "WTPN52 PGTW 300300", "VALIDTIME": "2025-11-25 18:00:00" }, "geometry": { "type": "Point", "coordinates": [ 98.400002, 4.5 ] } },
{ "type": "Feature", "properties": { "ID": 82981, "LAT": 4.34, "LON": 98.16, "VMAX": 45.0, "MSLP": 1004.66364, "RMAX": 39.89946, "FSPD": 1.85116, "FDIR": 236.23357, "RENV": 500.0, "PENV": 1012.0, "VALIDT": 0, "DTG": "2025-11-25 22:00", "LATNOW": 6.4, "LONNOW": 109.1, "WINDNOW": 25.0, "DIRNOW": 4.0, "SPDNOW": 1.0, "TECH": "TRAK", "ADVNR": 13, "ATCFID": "WP342025", "NAME": "THIRTYFOU", "FTECH": "JTWC", "FCST_DTG": "2025-11-30 00:00:00", "RUN_DTG": "2025-11-30 15:11:10", "BASIN": "WP", "STMNR": 34, "CAT_ID": null, "CAT_DESC": null, "MSGID": "WTPN52 PGTW 300300", "VALIDTIME": "2025-11-25 22:00:00" }, "geometry": { "type": "Point", "coordinates": [ 98.159996, 4.34 ] } },
{ "type": "Feature", "properties": { "ID": 82982, "LAT": 4.3, "LON": 98.1, "VMAX": 45.0, "MSLP": 1004.66364, "RMAX": 39.89946, "FSPD": 2.12079, "FDIR": 165.99844, "RENV": 500.0, "PENV": 1012.0, "VALIDT": 0, "DTG": "2025-11-26 00:00", "LATNOW": 6.4, "LONNOW": 109.1, "WINDNOW": 25.0, "DIRNOW": 4.0, "SPDNOW": 1.0, "TECH": "TRAK", "ADVNR": 13, "ATCFID": "WP342025", "NAME": "THIRTYFOU", "FTECH": "JTWC", "FCST_DTG": "2025-11-30 00:00:00", "RUN_DTG": "2025-11-30 15:11:10", "BASIN": "WP", "STMNR": 34, "CAT_ID": null, "CAT_DESC": null, "MSGID": "WTPN52 PGTW 300300", "VALIDTIME": "2025-11-26 00:00:00" }, "geometry": { "type": "Point", "coordinates": [ 98.099998, 4.3 ] } },
{ "type": "Feature", "properties": { "ID": 82983, "LAT": 3.9, "LON": 98.2, "VMAX": 35.0, "MSLP": 1008.74713, "RMAX": 42.69135, "FSPD": 2.29663, "FDIR": 116.61539, "RENV": 500.0, "PENV": 1012.0, "VALIDT": 0, "DTG": "2025-11-26 06:00", "LATNOW": 6.4, "LONNOW": 109.1, "WINDNOW": 25.0, "DIRNOW": 4.0, "SPDNOW": 1.0, "TECH": "TRAK", "ADVNR": 13, "ATCFID": "WP342025", "NAME": "THIRTYFOU", "FTECH": "JTWC", "FCST_DTG": "2025-11-30 00:00:00", "RUN_DTG": "2025-11-30 15:11:10", "BASIN": "WP", "STMNR": 34, "CAT_ID": null, "CAT_DESC": null, "MSGID": "WTPN52 PGTW 300300", "VALIDTIME": "2025-11-26 06:00:00" }, "geometry": { "type": "Point", "coordinates": [ 98.199997, 3.9 ] } },
{ "type": "Feature", "properties": { "ID": 82984, "LAT": 3.7, "LON": 98.6, "VMAX": 35.0, "MSLP": 1008.74713, "RMAX": 42.69135, "FSPD": 3.63046, "FDIR": 98.1463, "RENV": 500.0, "PENV": 1012.0, "VALIDT": 0, "DTG": "2025-11-26 12:00", "LATNOW": 6.4, "LONNOW": 109.1, "WINDNOW": 25.0, "DIRNOW": 4.0, "SPDNOW": 1.0, "TECH": "TRAK", "ADVNR": 13, "ATCFID": "WP342025", "NAME": "THIRTYFOU", "FTECH": "JTWC", "FCST_DTG": "2025-11-30 00:00:00", "RUN_DTG": "2025-11-30 15:11:10", "BASIN": "WP", "STMNR": 34, "CAT_ID": null, "CAT_DESC": null, "MSGID": "WTPN52 PGTW 300300", "VALIDTIME": "2025-11-26 12:00:00" }, "geometry": { "type": "Point", "coordinates": [ 98.599998, 3.7 ] } },
{ "type": "Feature", "properties": { "ID": 82985, "LAT": 3.6, "LON": 99.3, "VMAX": 30.0, "MSLP": 1010.40607, "RMAX": 44.21983, "FSPD": 3.08057, "FDIR": 90.0, "RENV": 500.0, "PENV": 1012.0, "VALIDT": 0, "DTG": "2025-11-26 18:00", "LATNOW": 6.4, "LONNOW": 109.1, "WINDNOW": 25.0, "DIRNOW": 4.0, "SPDNOW": 1.0, "TECH": "TRAK", "ADVNR": 13, "ATCFID": "WP342025", "NAME": "THIRTYFOU", "FTECH": "JTWC", "FCST_DTG": "2025-11-30 00:00:00", "RUN_DTG": "2025-11-30 15:11:10", "BASIN": "WP", "STMNR": 34, "CAT_ID": null, "CAT_DESC": null, "MSGID": "WTPN52 PGTW 300300", "VALIDTIME": "2025-11-26 18:00:00" }, "geometry": { "type": "Point", "coordinates": [ 99.300003, 3.6 ] } },
{ "type": "Feature", "properties": { "ID": 82986, "LAT": 3.6, "LON": 99.9, "VMAX": 25.0, "MSLP": 1011.80975, "RMAX": 45.0, "FSPD": 2.56715, "FDIR": 90.0, "RENV": 500.0, "PENV": 1012.0, "VALIDT": 0, "DTG": "2025-11-27 00:00", "LATNOW": 6.4, "LONNOW": 109.1, "WINDNOW": 25.0, "DIRNOW": 4.0, "SPDNOW": 1.0, "TECH": "TRAK", "ADVNR": 13, "ATCFID": "WP342025", "NAME": "THIRTYFOU", "FTECH": "JTWC", "FCST_DTG": "2025-11-30 00:00:00", "RUN_DTG": "2025-11-30 15:11:10", "BASIN": "WP", "STMNR": 34, "CAT_ID": null, "CAT_DESC": null, "MSGID": "WTPN52 PGTW 300300", "VALIDTIME": "2025-11-27 00:00:00" }, "geometry": { "type": "Point", "coordinates": [ 99.900002, 3.6 ] } },
{ "type": "Feature", "properties": { "ID": 82987, "LAT": 3.6, "LON": 100.4, "VMAX": 25.0, "MSLP": 1011.80975, "RMAX": 45.0, "FSPD": 2.56715, "FDIR": 90.0, "RENV": 500.0, "PENV": 1012.0, "VALIDT": 0, "DTG": "2025-11-27 06:00", "LATNOW": 6.4, "LONNOW": 109.1, "WINDNOW": 25.0, "DIRNOW": 4.0, "SPDNOW": 1.0, "TECH": "TRAK", "ADVNR": 13, "ATCFID": "WP342025", "NAME": "THIRTYFOU", "FTECH": "JTWC", "FCST_DTG": "2025-11-30 00:00:00", "RUN_DTG": "2025-11-30 15:11:10", "BASIN": "WP", "STMNR": 34, "CAT_ID": null, "CAT_DESC": null, "MSGID": "WTPN52 PGTW 300300", "VALIDTIME": "2025-11-27 06:00:00" }, "geometry": { "type": "Point", "coordinates": [ 100.400002, 3.6 ] } },
{ "type": "Feature", "properties": { "ID": 82988, "LAT": 3.6, "LON": 100.9, "VMAX": 25.0, "MSLP": 1011.80975, "RMAX": 45.0, "FSPD": 4.64937, "FDIR": 83.64731, "RENV": 500.0, "PENV": 1012.0, "VALIDT": 0, "DTG": "2025-11-27 12:00", "LATNOW": 6.4, "LONNOW": 109.1, "WINDNOW": 25.0, "DIRNOW": 4.0, "SPDNOW": 1.0, "TECH": "TRAK", "ADVNR": 13, "ATCFID": "WP342025", "NAME": "THIRTYFOU", "FTECH": "JTWC", "FCST_DTG": "2025-11-30 00:00:00", "RUN_DTG": "2025-11-30 15:11:10", "BASIN": "WP", "STMNR": 34, "CAT_ID": null, "CAT_DESC": null, "MSGID": "WTPN52 PGTW 300300", "VALIDTIME": "2025-11-27 12:00:00" }, "geometry": { "type": "Point", "coordinates": [ 100.900002, 3.6 ] } },
{ "type": "Feature", "properties": { "ID": 82989, "LAT": 3.62, "LON": 101.08, "VMAX": 25.0, "MSLP": 1011.80975, "RMAX": 45.0, "FSPD": 4.64912, "FDIR": 83.64694, "RENV": 500.0, "PENV": 1012.0, "VALIDT": 0, "DTG": "2025-11-27 13:00", "LATNOW": 6.4, "LONNOW": 109.1, "WINDNOW": 25.0, "DIRNOW": 4.0, "SPDNOW": 1.0, "TECH": "TRAK", "ADVNR": 13, "ATCFID": "WP342025", "NAME": "THIRTYFOU", "FTECH": "JTWC", "FCST_DTG": "2025-11-30 00:00:00", "RUN_DTG": "2025-11-30 15:11:10", "BASIN": "WP", "STMNR": 34, "CAT_ID": null, "CAT_DESC": null, "MSGID": "WTPN52 PGTW 300300", "VALIDTIME": "2025-11-27 13:00:00" }, "geometry": { "type": "Point", "coordinates": [ 101.080002, 3.62 ] } },
{ "type": "Feature", "properties": { "ID": 82990, "LAT": 3.7, "LON": 101.8, "VMAX": 20.0, "MSLP": 1012.95825, "RMAX": 45.0, "FSPD": 4.10695, "FDIR": 90.0, "RENV": 500.0, "PENV": 1012.0, "VALIDT": 0, "DTG": "2025-11-27 18:00", "LATNOW": 6.4, "LONNOW": 109.1, "WINDNOW": 25.0, "DIRNOW": 4.0, "SPDNOW": 1.0, "TECH": "TRAK", "ADVNR": 13, "ATCFID": "WP342025", "NAME": "THIRTYFOU", "FTECH": "JTWC", "FCST_DTG": "2025-11-30 00:00:00", "RUN_DTG": "2025-11-30 15:11:10", "BASIN": "WP", "STMNR": 34, "CAT_ID": null, "CAT_DESC": null, "MSGID": "WTPN52 PGTW 300300", "VALIDTIME": "2025-11-27 18:00:00" }, "geometry": { "type": "Point", "coordinates": [ 101.800003, 3.7 ] } },
{ "type": "Feature", "properties": { "ID": 82991, "LAT": 3.7, "LON": 102.6, "VMAX": 20.0, "MSLP": 1012.95825, "RMAX": 45.0, "FSPD": 5.67015, "FDIR": 84.79449, "RENV": 500.0, "PENV": 1012.0, "VALIDT": 0, "DTG": "2025-11-28 00:00", "LATNOW": 6.4, "LONNOW": 109.1, "WINDNOW": 25.0, "DIRNOW": 4.0, "SPDNOW": 1.0, "TECH": "TRAK", "ADVNR": 13, "ATCFID": "WP342025", "NAME": "THIRTYFOU", "FTECH": "JTWC", "FCST_DTG": "2025-11-30 00:00:00", "RUN_DTG": "2025-11-30 15:11:10", "BASIN": "WP", "STMNR": 34, "CAT_ID": null, "CAT_DESC": null, "MSGID": "WTPN52 PGTW 300300", "VALIDTIME": "2025-11-28 00:00:00" }, "geometry": { "type": "Point", "coordinates": [ 102.599998, 3.7 ] } },
{ "type": "Feature", "properties": { "ID": 82992, "LAT": 3.8, "LON": 103.7, "VMAX": 30.0, "MSLP": 1010.40607, "RMAX": 44.21983, "FSPD": 4.84456, "FDIR": 57.93027, "RENV": 500.0, "PENV": 1012.0, "VALIDT": 0, "DTG": "2025-11-28 06:00", "LATNOW": 6.4, "LONNOW": 109.1, "WINDNOW": 25.0, "DIRNOW": 4.0, "SPDNOW": 1.0, "TECH": "TRAK", "ADVNR": 13, "ATCFID": "WP342025", "NAME": "THIRTYFOU", "FTECH": "JTWC", "FCST_DTG": "2025-11-30 00:00:00", "RUN_DTG": "2025-11-30 15:11:10", "BASIN": "WP", "STMNR": 34, "CAT_ID": null, "CAT_DESC": null, "MSGID": "WTPN52 PGTW 300300", "VALIDTIME": "2025-11-28 06:00:00" }, "geometry": { "type": "Point", "coordinates": [ 103.699997, 3.8 ] } },
{ "type": "Feature", "properties": { "ID": 82993, "LAT": 4.3, "LON": 104.5, "VMAX": 30.0, "MSLP": 1010.40607, "RMAX": 44.21983, "FSPD": 3.245, "FDIR": 71.51422, "RENV": 500.0, "PENV": 1012.0, "VALIDT": 0, "DTG": "2025-11-28 12:00", "LATNOW": 6.4, "LONNOW": 109.1, "WINDNOW": 25.0, "DIRNOW": 4.0, "SPDNOW": 1.0, "TECH": "TRAK", "ADVNR": 13, "ATCFID": "WP342025", "NAME": "THIRTYFOU", "FTECH": "JTWC", "FCST_DTG": "2025-11-30 00:00:00", "RUN_DTG": "2025-11-30 15:11:10", "BASIN": "WP", "STMNR": 34, "CAT_ID": null, "CAT_DESC": null, "MSGID": "WTPN52 PGTW 300300", "VALIDTIME": "2025-11-28 12:00:00" }, "geometry": { "type": "Point", "coordinates": [ 104.5, 4.3 ] } },
{ "type": "Feature", "properties": { "ID": 82994, "LAT": 4.5, "LON": 105.1, "VMAX": 30.0, "MSLP": 1003.0, "RMAX": 25.0, "FSPD": 4.84129, "FDIR": 57.90607, "RENV": 80.0, "PENV": 1008.0, "VALIDT": 0, "DTG": "2025-11-28 18:00", "LATNOW": 6.4, "LONNOW": 109.1, "WINDNOW": 25.0, "DIRNOW": 4.0, "SPDNOW": 1.0, "TECH": "TRAK", "ADVNR": 13, "ATCFID": "WP342025", "NAME": "THIRTYFOU", "FTECH": "JTWC", "FCST_DTG": "2025-11-30 00:00:00", "RUN_DTG": "2025-11-30 15:11:10", "BASIN": "WP", "STMNR": 34, "CAT_ID": null, "CAT_DESC": null, "MSGID": "WTPN52 PGTW 300300", "VALIDTIME": "2025-11-28 18:00:00" }, "geometry": { "type": "Point", "coordinates": [ 105.099998, 4.5 ] } },
{ "type": "Feature", "properties": { "ID": 82995, "LAT": 5.0, "LON": 105.9, "VMAX": 30.0, "MSLP": 1003.0, "RMAX": 25.0, "FSPD": 4.72643, "FDIR": 102.57324, "RENV": 80.0, "PENV": 1008.0, "VALIDT": 0, "DTG": "2025-11-29 00:00", "LATNOW": 6.4, "LONNOW": 109.1, "WINDNOW": 25.0, "DIRNOW": 4.0, "SPDNOW": 1.0, "TECH": "TRAK", "ADVNR": 13, "ATCFID": "WP342025", "NAME": "THIRTYFOU", "FTECH": "JTWC", "FCST_DTG": "2025-11-30 00:00:00", "RUN_DTG": "2025-11-30 15:11:10", "BASIN": "WP", "STMNR": 34, "CAT_ID": null, "CAT_DESC": null, "MSGID": "WTPN52 PGTW 300300", "VALIDTIME": "2025-11-29 00:00:00" }, "geometry": { "type": "Point", "coordinates": [ 105.900002, 5.0 ] } },
{ "type": "Feature", "properties": { "ID": 82996, "LAT": 4.8, "LON": 106.8, "VMAX": 30.0, "MSLP": 1003.0, "RMAX": 20.0, "FSPD": 4.13568, "FDIR": 60.16083, "RENV": 75.0, "PENV": 1009.0, "VALIDT": 0, "DTG": "2025-11-29 06:00", "LATNOW": 6.4, "LONNOW": 109.1, "WINDNOW": 25.0, "DIRNOW": 4.0, "SPDNOW": 1.0, "TECH": "TRAK", "ADVNR": 13, "ATCFID": "WP342025", "NAME": "THIRTYFOU", "FTECH": "JTWC", "FCST_DTG": "2025-11-30 00:00:00", "RUN_DTG": "2025-11-30 15:11:10", "BASIN": "WP", "STMNR": 34, "CAT_ID": null, "CAT_DESC": null, "MSGID": "WTPN52 PGTW 300300", "VALIDTIME": "2025-11-29 06:00:00" }, "geometry": { "type": "Point", "coordinates": [ 106.800003, 4.8 ] } },
{ "type": "Feature", "properties": { "ID": 82997, "LAT": 5.2, "LON": 107.5, "VMAX": 30.0, "MSLP": 1003.0, "RMAX": 20.0, "FSPD": 5.51954, "FDIR": 68.11057, "RENV": 80.0, "PENV": 1008.0, "VALIDT": 0, "DTG": "2025-11-29 12:00", "LATNOW": 6.4, "LONNOW": 109.1, "WINDNOW": 25.0, "DIRNOW": 4.0, "SPDNOW": 1.0, "TECH": "TRAK", "ADVNR": 13, "ATCFID": "WP342025", "NAME": "THIRTYFOU", "FTECH": "JTWC", "FCST_DTG": "2025-11-30 00:00:00", "RUN_DTG": "2025-11-30 15:11:10", "BASIN": "WP", "STMNR": 34, "CAT_ID": null, "CAT_DESC": null, "MSGID": "WTPN52 PGTW 300300", "VALIDTIME": "2025-11-29 12:00:00" }, "geometry": { "type": "Point", "coordinates": [ 107.5, 5.2 ] } },
{ "type": "Feature", "properties": { "ID": 82998, "LAT": 5.6, "LON": 108.5, "VMAX": 25.0, "MSLP": 1004.0, "RMAX": 20.0, "FSPD": 5.13431, "FDIR": 36.71887, "RENV": 80.0, "PENV": 1010.0, "VALIDT": 0, "DTG": "2025-11-29 18:00", "LATNOW": 6.4, "LONNOW": 109.1, "WINDNOW": 25.0, "DIRNOW": 4.0, "SPDNOW": 1.0, "TECH": "TRAK", "ADVNR": 13, "ATCFID": "WP342025", "NAME": "THIRTYFOU", "FTECH": "JTWC", "FCST_DTG": "2025-11-30 00:00:00", "RUN_DTG": "2025-11-30 15:11:10", "BASIN": "WP", "STMNR": 34, "CAT_ID": null, "CAT_DESC": null, "MSGID": "WTPN52 PGTW 300300", "VALIDTIME": "2025-11-29 18:00:00" }, "geometry": { "type": "Point", "coordinates": [ 108.5, 5.6 ] } },
{ "type": "Feature", "properties": { "ID": 82999, "LAT": 6.4, "LON": 109.1, "VMAX": 25.0, "MSLP": 1011.80975, "RMAX": 45.0, "FSPD": 4.17305, "FDIR": 42.29694, "RENV": 500.0, "PENV": 1012.0, "VALIDT": 0, "DTG": "2025-11-30 00:00", "LATNOW": 6.4, "LONNOW": 109.1, "WINDNOW": 25.0, "DIRNOW": 4.0, "SPDNOW": 1.0, "TECH": "TRAK", "ADVNR": 13, "ATCFID": "WP342025", "NAME": "THIRTYFOU", "FTECH": "JTWC", "FCST_DTG": "2025-11-30 00:00:00", "RUN_DTG": "2025-11-30 15:11:10", "BASIN": "WP", "STMNR": 34, "CAT_ID": null, "CAT_DESC": null, "MSGID": "WTPN52 PGTW 300300", "VALIDTIME": "2025-11-30 00:00:00" }, "geometry": { "type": "Point", "coordinates": [ 109.099998, 6.4 ] } },
{ "type": "Feature", "properties": { "ID": 83000, "LAT": 7.6, "LON": 110.2, "VMAX": 20.0, "MSLP": 1012.95825, "RMAX": 45.0, "FSPD": 3.84418, "FDIR": 36.58771, "RENV": 250.0, "PENV": 1012.0, "VALIDT": 12, "DTG": "2025-11-30 12:00", "LATNOW": 6.4, "LONNOW": 109.1, "WINDNOW": 25.0, "DIRNOW": 4.0, "SPDNOW": 1.0, "TECH": "FCST", "ADVNR": 13, "ATCFID": "WP342025", "NAME": "THIRTYFOU", "FTECH": "JTWC", "FCST_DTG": "2025-11-30 00:00:00", "RUN_DTG": "2025-11-30 15:11:10", "BASIN": "WP", "STMNR": 34, "CAT_ID": null, "CAT_DESC": null, "MSGID": "WTPN52 PGTW 300300", "VALIDTIME": "2025-11-30 12:00:00" }, "geometry": { "type": "Point", "coordinates": [ 110.199997, 7.6 ] } },
{ "type": "Feature", "properties": { "ID": 83001, "LAT": 8.8, "LON": 111.1, "VMAX": 20.0, "MSLP": 1012.95825, "RMAX": 45.0, "FSPD": 3.84418, "FDIR": 36.58771, "RENV": 250.0, "PENV": 1012.0, "VALIDT": 24, "DTG": "2025-12-01 00:00", "LATNOW": 6.4, "LONNOW": 109.1, "WINDNOW": 25.0, "DIRNOW": 4.0, "SPDNOW": 1.0, "TECH": "FCST", "ADVNR": 13, "ATCFID": "WP342025", "NAME": "THIRTYFOU", "FTECH": "JTWC", "FCST_DTG": "2025-11-30 00:00:00", "RUN_DTG": "2025-11-30 15:11:10", "BASIN": "WP", "STMNR": 34, "CAT_ID": null, "CAT_DESC": null, "MSGID": "WTPN52 PGTW 300300", "VALIDTIME": "2025-12-01 00:00:00" }, "geometry": { "type": "Point", "coordinates": [ 111.099998, 8.8 ] } },
{ "type": "Feature", "properties": { "ID": 82999, "LAT": 6.4, "LON": 109.1, "VMAX": 25.0, "MSLP": 1011.80975, "RMAX": 45.0, "FSPD": 4.17305, "FDIR": 42.29694, "RENV": 500.0, "PENV": 1012.0, "VALIDT": 0, "DTG": "2025-11-30 00:00", "LATNOW": 6.4, "LONNOW": 109.1, "WINDNOW": 25.0, "DIRNOW": 4.0, "SPDNOW": 1.0, "TECH": "TRAK", "ADVNR": 13, "ATCFID": "WP342025", "NAME": "THIRTYFOU", "FTECH": "JTWC", "FCST_DTG": "2025-11-30 00:00:00", "RUN_DTG": "2025-11-30 15:11:10", "BASIN": "WP", "STMNR": 34, "CAT_ID": null, "CAT_DESC": null, "MSGID": "WTPN52 PGTW 300300", "VALIDTIME": "2025-11-30 00:00:00" }, "geometry": { "type": "LineString", "coordinates": [ [ 100.5, 4.3 ], [ 100.3, 4.5 ], [ 100.1, 4.7 ], [ 100.1, 4.6 ], [ 100.1, 4.5 ], [ 99.9, 4.5 ], [ 99.4, 4.6 ], [ 99.1, 4.6 ], [ 98.4, 4.5 ], [ 98.16, 4.34 ], [ 98.1, 4.3 ], [ 98.2, 3.9 ], [ 98.6, 3.7 ], [ 99.3, 3.6 ], [ 99.9, 3.6 ], [ 100.4, 3.6 ], [ 100.9, 3.6 ], [ 101.08, 3.62 ], [ 101.8, 3.7 ], [ 102.6, 3.7 ], [ 103.7, 3.8 ], [ 104.5, 4.3 ], [ 105.1, 4.5 ], [ 105.9, 5.0 ], [ 106.8, 4.8 ], [ 107.5, 5.2 ], [ 108.5, 5.6 ], [ 109.1, 6.4 ] ] } },
{ "type": "Feature", "properties": { "ID": 83001, "LAT": 8.8, "LON": 111.1, "VMAX": 20.0, "MSLP": 1012.95825, "RMAX": 45.0, "FSPD": 3.84418, "FDIR": 36.58771, "RENV": 250.0, "PENV": 1012.0, "VALIDT": 24, "DTG": "2025-12-01 00:00", "LATNOW": 6.4, "LONNOW": 109.1, "WINDNOW": 25.0, "DIRNOW": 4.0, "SPDNOW": 1.0, "TECH": "FCST", "ADVNR": 13, "ATCFID": "WP342025", "NAME": "THIRTYFOU", "FTECH": "JTWC", "FCST_DTG": "2025-11-30 00:00:00", "RUN_DTG": "2025-11-30 15:11:10", "BASIN": "WP", "STMNR": 34, "CAT_ID": null, "CAT_DESC": null, "MSGID": "WTPN52 PGTW 300300", "VALIDTIME": "2025-12-01 00:00:00" }, "geometry": { "type": "LineString", "coordinates": [ [ 109.1, 6.4 ], [ 110.2, 7.6 ], [ 111.1, 8.8 ] ] } }
]
}
