{
"type": "FeatureCollection",
"crs": { "type": "name", "properties": { "name": "urn:ogc:def:crs:OGC:1.3:CRS84" } },
"features": [
{ "type": "Feature", "properties": { "ID": 289082, "LAT": 16.9, "LON": -76.5, "VMAX": 20.0, "MSLP": 1007.0, "RMAX": 13.99724, "FSPD": 1.11099, "FDIR": 242.41562, "RENV": 200.0, "PENV": 1010.0, "VALIDT": 0, "DTG": "2024-11-12 18:00", "LATNOW": 18.5, "LONNOW": -91.1, "WINDNOW": 25.0, "DIRNOW": 6.0, "SPDNOW": 2.0, "TECH": "TRAK", "ADVNR": 19, "ATCFID": "AL192024", "NAME": "SARA", "FTECH": "OFCL", "FCST_DTG": "2024-11-18 06:00:00", "RUN_DTG": "2024-11-18 20:24:35", "BASIN": "AL", "STMNR": 19, "CAT_ID": null, "CAT_DESC": null, "MSGID": "WTNT24 KNHC 180830", "VALIDTIME": "2024-11-12 18:00:00" }, "geometry": { "type": "Point", "coordinates": [ -76.5, 16.9 ] } },
{ "type": "Feature", "properties": { "ID": 289083, "LAT": 16.8, "LON": -76.7, "VMAX": 20.0, "MSLP": 1007.0, "RMAX": 13.94207, "FSPD": 4.30491, "FDIR": 233.30827, "RENV": 200.0, "PENV": 1010.0, "VALIDT": 0, "DTG": "2024-11-13 00:00", "LATNOW": 18.5, "LONNOW": -91.1, "WINDNOW": 25.0, "DIRNOW": 6.0, "SPDNOW": 2.0, "TECH": "TRAK", "ADVNR": 19, "ATCFID": "AL192024", "NAME": "SARA", "FTECH": "OFCL", "FCST_DTG": "2024-11-18 06:00:00", "RUN_DTG": "2024-11-18 20:24:35", "BASIN": "AL", "STMNR": 19, "CAT_ID": null, "CAT_DESC": null, "MSGID": "WTNT24 KNHC 180830", "VALIDTIME": "2024-11-13 00:00:00" }, "geometry": { "type": "Point", "coordinates": [ -76.699997, 16.799999 ] } },
{ "type": "Feature", "properties": { "ID": 289084, "LAT": 16.3, "LON": -77.4, "VMAX": 20.0, "MSLP": 1007.0, "RMAX": 30.0, "FSPD": 1.42646, "FDIR": 223.83931, "RENV": 200.0, "PENV": 1010.0, "VALIDT": 0, "DTG": "2024-11-13 06:00", "LATNOW": 18.5, "LONNOW": -91.1, "WINDNOW": 25.0, "DIRNOW": 6.0, "SPDNOW": 2.0, "TECH": "TRAK", "ADVNR": 19, "ATCFID": "AL192024", "NAME": "SARA", "FTECH": "OFCL", "FCST_DTG": "2024-11-18 06:00:00", "RUN_DTG": "2024-11-18 20:24:35", "BASIN": "AL", "STMNR": 19, "CAT_ID": null, "CAT_DESC": null, "MSGID": "WTNT24 KNHC 180830", "VALIDTIME": "2024-11-13 06:00:00" }, "geometry": { "type": "Point", "coordinates": [ -77.400002, 16.299999 ] } },
{ "type": "Feature", "properties": { "ID": 289085, "LAT": 16.1, "LON": -77.6, "VMAX": 20.0, "MSLP": 1007.0, "RMAX": 30.0, "FSPD": 3.98649, "FDIR": 277.41455, "RENV": 200.0, "PENV": 1010.0, "VALIDT": 0, "DTG": "2024-11-13 12:00", "LATNOW": 18.5, "LONNOW": -91.1, "WINDNOW": 25.0, "DIRNOW": 6.0, "SPDNOW": 2.0, "TECH": "TRAK", "ADVNR": 19, "ATCFID": "AL192024", "NAME": "SARA", "FTECH": "OFCL", "FCST_DTG": "2024-11-18 06:00:00", "RUN_DTG": "2024-11-18 20:24:35", "BASIN": "AL", "STMNR": 19, "CAT_ID": null, "CAT_DESC": null, "MSGID": "WTNT24 KNHC 180830", "VALIDTIME": "2024-11-13 12:00:00" }, "geometry": { "type": "Point", "coordinates": [ -77.599998, 16.1 ] } },
{ "type": "Feature", "properties": { "ID": 289086, "LAT": 16.2, "LON": -78.4, "VMAX": 25.0, "MSLP": 1007.0, "RMAX": 30.0, "FSPD": 6.4444, "FDIR": 265.42126, "RENV": 200.0, "PENV": 1010.0, "VALIDT": 0, "DTG": "2024-11-13 18:00", "LATNOW": 18.5, "LONNOW": -91.1, "WINDNOW": 25.0, "DIRNOW": 6.0, "SPDNOW": 2.0, "TECH": "TRAK", "ADVNR": 19, "ATCFID": "AL192024", "NAME": "SARA", "FTECH": "OFCL", "FCST_DTG": "2024-11-18 06:00:00", "RUN_DTG": "2024-11-18 20:24:35", "BASIN": "AL", "STMNR": 19, "CAT_ID": null, "CAT_DESC": null, "MSGID": "WTNT24 KNHC 180830", "VALIDTIME": "2024-11-13 18:00:00" }, "geometry": { "type": "Point", "coordinates": [ -78.400002, 16.200001 ] } },
{ "type": "Feature", "properties": { "ID": 289087, "LAT": 16.1, "LON": -79.7, "VMAX": 25.0, "MSLP": 1005.0, "RMAX": 30.0, "FSPD": 7.48875, "FDIR": 262.10303, "RENV": 200.0, "PENV": 1009.0, "VALIDT": 0, "DTG": "2024-11-14 00:00", "LATNOW": 18.5, "LONNOW": -91.1, "WINDNOW": 25.0, "DIRNOW": 6.0, "SPDNOW": 2.0, "TECH": "TRAK", "ADVNR": 19, "ATCFID": "AL192024", "NAME": "SARA", "FTECH": "OFCL", "FCST_DTG": "2024-11-18 06:00:00", "RUN_DTG": "2024-11-18 20:24:35", "BASIN": "AL", "STMNR": 19, "CAT_ID": null, "CAT_DESC": null, "MSGID": "WTNT24 KNHC 180830", "VALIDTIME": "2024-11-14 00:00:00" }, "geometry": { "type": "Point", "coordinates": [ -79.699997, 16.1 ] } },
{ "type": "Feature", "properties": { "ID": 289088, "LAT": 15.9, "LON": -81.2, "VMAX": 30.0, "MSLP": 1004.0, "RMAX": 40.0, "FSPD": 5.05588, "FDIR": 258.25806, "RENV": 200.0, "PENV": 1009.0, "VALIDT": 0, "DTG": "2024-11-14 06:00", "LATNOW": 18.5, "LONNOW": -91.1, "WINDNOW": 25.0, "DIRNOW": 6.0, "SPDNOW": 2.0, "TECH": "TRAK", "ADVNR": 19, "ATCFID": "AL192024", "NAME": "SARA", "FTECH": "OFCL", "FCST_DTG": "2024-11-18 06:00:00", "RUN_DTG": "2024-11-18 20:24:35", "BASIN": "AL", "STMNR": 19, "CAT_ID": null, "CAT_DESC": null, "MSGID": "WTNT24 KNHC 180830", "VALIDTIME": "2024-11-14 06:00:00" }, "geometry": { "type": "Point", "coordinates": [ -81.199997, 15.9 ] } },
{ "type": "Feature", "properties": { "ID": 289089, "LAT": 15.7, "LON": -82.2, "VMAX": 30.0, "MSLP": 1004.0, "RMAX": 40.0, "FSPD": 4.48577, "FDIR": 276.5854, "RENV": 200.0, "PENV": 1009.0, "VALIDT": 0, "DTG": "2024-11-14 12:00", "LATNOW": 18.5, "LONNOW": -91.1, "WINDNOW": 25.0, "DIRNOW": 6.0, "SPDNOW": 2.0, "TECH": "TRAK", "ADVNR": 19, "ATCFID": "AL192024", "NAME": "SARA", "FTECH": "OFCL", "FCST_DTG": "2024-11-18 06:00:00", "RUN_DTG": "2024-11-18 20:24:35", "BASIN": "AL", "STMNR": 19, "CAT_ID": null, "CAT_DESC": null, "MSGID": "WTNT24 KNHC 180830", "VALIDTIME": "2024-11-14 12:00:00" }, "geometry": { "type": "Point", "coordinates": [ -82.199997, 15.7 ] } },
{ "type": "Feature", "properties": { "ID": 289090, "LAT": 15.8, "LON": -83.1, "VMAX": 35.0, "MSLP": 998.0, "RMAX": 60.0, "FSPD": 4.48359, "FDIR": 276.58856, "RENV": 200.0, "PENV": 1007.0, "VALIDT": 0, "DTG": "2024-11-14 18:00", "LATNOW": 18.5, "LONNOW": -91.1, "WINDNOW": 25.0, "DIRNOW": 6.0, "SPDNOW": 2.0, "TECH": "TRAK", "ADVNR": 19, "ATCFID": "AL192024", "NAME": "SARA", "FTECH": "OFCL", "FCST_DTG": "2024-11-18 06:00:00", "RUN_DTG": "2024-11-18 20:24:35", "BASIN": "AL", "STMNR": 19, "CAT_ID": null, "CAT_DESC": null, "MSGID": "WTNT24 KNHC 180830", "VALIDTIME": "2024-11-14 18:00:00" }, "geometry": { "type": "Point", "coordinates": [ -83.099998, 15.8 ] } },
{ "type": "Feature", "properties": { "ID": 289091, "LAT": 15.9, "LON": -84.0, "VMAX": 35.0, "MSLP": 998.0, "RMAX": 50.0, "FSPD": 4.45287, "FDIR": 269.99997, "RENV": 180.0, "PENV": 1007.0, "VALIDT": 0, "DTG": "2024-11-15 00:00", "LATNOW": 18.5, "LONNOW": -91.1, "WINDNOW": 25.0, "DIRNOW": 6.0, "SPDNOW": 2.0, "TECH": "TRAK", "ADVNR": 19, "ATCFID": "AL192024", "NAME": "SARA", "FTECH": "OFCL", "FCST_DTG": "2024-11-18 06:00:00", "RUN_DTG": "2024-11-18 20:24:35", "BASIN": "AL", "STMNR": 19, "CAT_ID": null, "CAT_DESC": null, "MSGID": "WTNT24 KNHC 180830", "VALIDTIME": "2024-11-15 00:00:00" }, "geometry": { "type": "Point", "coordinates": [ -84.0, 15.9 ] } },
{ "type": "Feature", "properties": { "ID": 289092, "LAT": 15.9, "LON": -84.9, "VMAX": 40.0, "MSLP": 999.0, "RMAX": 50.0, "FSPD": 4.08771, "FDIR": 284.57834, "RENV": 180.0, "PENV": 1007.0, "VALIDT": 0, "DTG": "2024-11-15 06:00", "LATNOW": 18.5, "LONNOW": -91.1, "WINDNOW": 25.0, "DIRNOW": 6.0, "SPDNOW": 2.0, "TECH": "TRAK", "ADVNR": 19, "ATCFID": "AL192024", "NAME": "SARA", "FTECH": "OFCL", "FCST_DTG": "2024-11-18 06:00:00", "RUN_DTG": "2024-11-18 20:24:35", "BASIN": "AL", "STMNR": 19, "CAT_ID": null, "CAT_DESC": null, "MSGID": "WTNT24 KNHC 180830", "VALIDTIME": "2024-11-15 06:00:00" }, "geometry": { "type": "Point", "coordinates": [ -84.900002, 15.9 ] } },
{ "type": "Feature", "properties": { "ID": 289093, "LAT": 16.1, "LON": -85.7, "VMAX": 45.0, "MSLP": 997.0, "RMAX": 30.0, "FSPD": 1.97708, "FDIR": 269.99997, "RENV": 180.0, "PENV": 1007.0, "VALIDT": 0, "DTG": "2024-11-15 12:00", "LATNOW": 18.5, "LONNOW": -91.1, "WINDNOW": 25.0, "DIRNOW": 6.0, "SPDNOW": 2.0, "TECH": "TRAK", "ADVNR": 19, "ATCFID": "AL192024", "NAME": "SARA", "FTECH": "OFCL", "FCST_DTG": "2024-11-18 06:00:00", "RUN_DTG": "2024-11-18 20:24:35", "BASIN": "AL", "STMNR": 19, "CAT_ID": null, "CAT_DESC": null, "MSGID": "WTNT24 KNHC 180830", "VALIDTIME": "2024-11-15 12:00:00" }, "geometry": { "type": "Point", "coordinates": [ -85.699997, 16.1 ] } },
{ "type": "Feature", "properties": { "ID": 289094, "LAT": 16.1, "LON": -86.1, "VMAX": 45.0, "MSLP": 997.0, "RMAX": 40.0, "FSPD": 1.11418, "FDIR": 297.4984, "RENV": 180.0, "PENV": 1007.0, "VALIDT": 0, "DTG": "2024-11-15 18:00", "LATNOW": 18.5, "LONNOW": -91.1, "WINDNOW": 25.0, "DIRNOW": 6.0, "SPDNOW": 2.0, "TECH": "TRAK", "ADVNR": 19, "ATCFID": "AL192024", "NAME": "SARA", "FTECH": "OFCL", "FCST_DTG": "2024-11-18 06:00:00", "RUN_DTG": "2024-11-18 20:24:35", "BASIN": "AL", "STMNR": 19, "CAT_ID": null, "CAT_DESC": null, "MSGID": "WTNT24 KNHC 180830", "VALIDTIME": "2024-11-15 18:00:00" }, "geometry": { "type": "Point", "coordinates": [ -86.099998, 16.1 ] } },
{ "type": "Feature", "properties": { "ID": 289095, "LAT": 16.2, "LON": -86.3, "VMAX": 45.0, "MSLP": 997.0, "RMAX": 40.0, "FSPD": 0.51445, "FDIR": 179.99997, "RENV": 200.0, "PENV": 1007.0, "VALIDT": 0, "DTG": "2024-11-16 00:00", "LATNOW": 18.5, "LONNOW": -91.1, "WINDNOW": 25.0, "DIRNOW": 6.0, "SPDNOW": 2.0, "TECH": "TRAK", "ADVNR": 19, "ATCFID": "AL192024", "NAME": "SARA", "FTECH": "OFCL", "FCST_DTG": "2024-11-18 06:00:00", "RUN_DTG": "2024-11-18 20:24:35", "BASIN": "AL", "STMNR": 19, "CAT_ID": null, "CAT_DESC": null, "MSGID": "WTNT24 KNHC 180830", "VALIDTIME": "2024-11-16 00:00:00" }, "geometry": { "type": "Point", "coordinates": [ -86.300003, 16.200001 ] } },
{ "type": "Feature", "properties": { "ID": 289096, "LAT": 16.1, "LON": -86.3, "VMAX": 40.0, "MSLP": 999.0, "RMAX": 60.0, "FSPD": 0.51445, "FDIR": 360.0, "RENV": 200.0, "PENV": 1007.0, "VALIDT": 0, "DTG": "2024-11-16 06:00", "LATNOW": 18.5, "LONNOW": -91.1, "WINDNOW": 25.0, "DIRNOW": 6.0, "SPDNOW": 2.0, "TECH": "TRAK", "ADVNR": 19, "ATCFID": "AL192024", "NAME": "SARA", "FTECH": "OFCL", "FCST_DTG": "2024-11-18 06:00:00", "RUN_DTG": "2024-11-18 20:24:35", "BASIN": "AL", "STMNR": 19, "CAT_ID": null, "CAT_DESC": null, "MSGID": "WTNT24 KNHC 180830", "VALIDTIME": "2024-11-16 06:00:00" }, "geometry": { "type": "Point", "coordinates": [ -86.300003, 16.1 ] } },
{ "type": "Feature", "properties": { "ID": 289097, "LAT": 16.2, "LON": -86.3, "VMAX": 40.0, "MSLP": 999.0, "RMAX": 60.0, "FSPD": 2.52248, "FDIR": 281.76752, "RENV": 200.0, "PENV": 1007.0, "VALIDT": 0, "DTG": "2024-11-16 12:00", "LATNOW": 18.5, "LONNOW": -91.1, "WINDNOW": 25.0, "DIRNOW": 6.0, "SPDNOW": 2.0, "TECH": "TRAK", "ADVNR": 19, "ATCFID": "AL192024", "NAME": "SARA", "FTECH": "OFCL", "FCST_DTG": "2024-11-18 06:00:00", "RUN_DTG": "2024-11-18 20:24:35", "BASIN": "AL", "STMNR": 19, "CAT_ID": null, "CAT_DESC": null, "MSGID": "WTNT24 KNHC 180830", "VALIDTIME": "2024-11-16 12:00:00" }, "geometry": { "type": "Point", "coordinates": [ -86.300003, 16.200001 ] } },
{ "type": "Feature", "properties": { "ID": 289098, "LAT": 16.3, "LON": -86.8, "VMAX": 40.0, "MSLP": 1000.0, "RMAX": 50.0, "FSPD": 1.56771, "FDIR": 289.15662, "RENV": 150.0, "PENV": 1007.0, "VALIDT": 0, "DTG": "2024-11-16 18:00", "LATNOW": 18.5, "LONNOW": -91.1, "WINDNOW": 25.0, "DIRNOW": 6.0, "SPDNOW": 2.0, "TECH": "TRAK", "ADVNR": 19, "ATCFID": "AL192024", "NAME": "SARA", "FTECH": "OFCL", "FCST_DTG": "2024-11-18 06:00:00", "RUN_DTG": "2024-11-18 20:24:35", "BASIN": "AL", "STMNR": 19, "CAT_ID": null, "CAT_DESC": null, "MSGID": "WTNT24 KNHC 180830", "VALIDTIME": "2024-11-16 18:00:00" }, "geometry": { "type": "Point", "coordinates": [ -86.800003, 16.299999 ] } },
{ "type": "Feature", "properties": { "ID": 289099, "LAT": 16.4, "LON": -87.1, "VMAX": 35.0, "MSLP": 1000.0, "RMAX": 40.0, "FSPD": 2.2252, "FDIR": 297.5409, "RENV": 150.0, "PENV": 1007.0, "VALIDT": 0, "DTG": "2024-11-17 00:00", "LATNOW": 18.5, "LONNOW": -91.1, "WINDNOW": 25.0, "DIRNOW": 6.0, "SPDNOW": 2.0, "TECH": "TRAK", "ADVNR": 19, "ATCFID": "AL192024", "NAME": "SARA", "FTECH": "OFCL", "FCST_DTG": "2024-11-18 06:00:00", "RUN_DTG": "2024-11-18 20:24:35", "BASIN": "AL", "STMNR": 19, "CAT_ID": null, "CAT_DESC": null, "MSGID": "WTNT24 KNHC 180830", "VALIDTIME": "2024-11-17 00:00:00" }, "geometry": { "type": "Point", "coordinates": [ -87.099998, 16.4 ] } },
{ "type": "Feature", "properties": { "ID": 289100, "LAT": 16.6, "LON": -87.5, "VMAX": 35.0, "MSLP": 1002.0, "RMAX": 40.0, "FSPD": 2.22338, "FDIR": 297.56512, "RENV": 150.0, "PENV": 1007.0, "VALIDT": 0, "DTG": "2024-11-17 06:00", "LATNOW": 18.5, "LONNOW": -91.1, "WINDNOW": 25.0, "DIRNOW": 6.0, "SPDNOW": 2.0, "TECH": "TRAK", "ADVNR": 19, "ATCFID": "AL192024", "NAME": "SARA", "FTECH": "OFCL", "FCST_DTG": "2024-11-18 06:00:00", "RUN_DTG": "2024-11-18 20:24:35", "BASIN": "AL", "STMNR": 19, "CAT_ID": null, "CAT_DESC": null, "MSGID": "WTNT24 KNHC 180830", "VALIDTIME": "2024-11-17 06:00:00" }, "geometry": { "type": "Point", "coordinates": [ -87.5, 16.6 ] } },
{ "type": "Feature", "properties": { "ID": 289101, "LAT": 16.8, "LON": -87.9, "VMAX": 35.0, "MSLP": 1001.0, "RMAX": 30.0, "FSPD": 6.23123, "FDIR": 299.693, "RENV": 150.0, "PENV": 1007.0, "VALIDT": 0, "DTG": "2024-11-17 12:00", "LATNOW": 18.5, "LONNOW": -91.1, "WINDNOW": 25.0, "DIRNOW": 6.0, "SPDNOW": 2.0, "TECH": "TRAK", "ADVNR": 19, "ATCFID": "AL192024", "NAME": "SARA", "FTECH": "OFCL", "FCST_DTG": "2024-11-18 06:00:00", "RUN_DTG": "2024-11-18 20:24:35", "BASIN": "AL", "STMNR": 19, "CAT_ID": null, "CAT_DESC": null, "MSGID": "WTNT24 KNHC 180830", "VALIDTIME": "2024-11-17 12:00:00" }, "geometry": { "type": "Point", "coordinates": [ -87.900002, 16.799999 ] } },
{ "type": "Feature", "properties": { "ID": 289102, "LAT": 17.1, "LON": -88.45, "VMAX": 35.0, "MSLP": 1001.0, "RMAX": 30.0, "FSPD": 6.22374, "FDIR": 299.73254, "RENV": 150.0, "PENV": 1007.0, "VALIDT": 0, "DTG": "2024-11-17 15:00", "LATNOW": 18.5, "LONNOW": -91.1, "WINDNOW": 25.0, "DIRNOW": 6.0, "SPDNOW": 2.0, "TECH": "TRAK", "ADVNR": 19, "ATCFID": "AL192024", "NAME": "SARA", "FTECH": "OFCL", "FCST_DTG": "2024-11-18 06:00:00", "RUN_DTG": "2024-11-18 20:24:35", "BASIN": "AL", "STMNR": 19, "CAT_ID": null, "CAT_DESC": null, "MSGID": "WTNT24 KNHC 180830", "VALIDTIME": "2024-11-17 15:00:00" }, "geometry": { "type": "Point", "coordinates": [ -88.449997, 17.099998 ] } },
{ "type": "Feature", "properties": { "ID": 289103, "LAT": 17.4, "LON": -89.0, "VMAX": 30.0, "MSLP": 1003.0, "RMAX": 50.0, "FSPD": 6.64189, "FDIR": 297.69257, "RENV": 110.0, "PENV": 1006.0, "VALIDT": 0, "DTG": "2024-11-17 18:00", "LATNOW": 18.5, "LONNOW": -91.1, "WINDNOW": 25.0, "DIRNOW": 6.0, "SPDNOW": 2.0, "TECH": "TRAK", "ADVNR": 19, "ATCFID": "AL192024", "NAME": "SARA", "FTECH": "OFCL", "FCST_DTG": "2024-11-18 06:00:00", "RUN_DTG": "2024-11-18 20:24:35", "BASIN": "AL", "STMNR": 19, "CAT_ID": null, "CAT_DESC": null, "MSGID": "WTNT24 KNHC 180830", "VALIDTIME": "2024-11-17 18:00:00" }, "geometry": { "type": "Point", "coordinates": [ -89.0, 17.4 ] } },
{ "type": "Feature", "properties": { "ID": 289104, "LAT": 18.0, "LON": -90.2, "VMAX": 25.0, "MSLP": 1004.0, "RMAX": 50.0, "FSPD": 5.09421, "FDIR": 300.32672, "RENV": 100.0, "PENV": 1006.0, "VALIDT": 0, "DTG": "2024-11-18 00:00", "LATNOW": 18.5, "LONNOW": -91.1, "WINDNOW": 25.0, "DIRNOW": 6.0, "SPDNOW": 2.0, "TECH": "TRAK", "ADVNR": 19, "ATCFID": "AL192024", "NAME": "SARA", "FTECH": "OFCL", "FCST_DTG": "2024-11-18 06:00:00", "RUN_DTG": "2024-11-18 20:24:35", "BASIN": "AL", "STMNR": 19, "CAT_ID": null, "CAT_DESC": null, "MSGID": "WTNT24 KNHC 180830", "VALIDTIME": "2024-11-18 00:00:00" }, "geometry": { "type": "Point", "coordinates": [ -90.199997, 18.0 ] } },
{ "type": "Feature", "properties": { "ID": 289105, "LAT": 18.5, "LON": -91.1, "VMAX": 25.0, "MSLP": 1005.0, "RMAX": 50.0, "FSPD": 6.45393, "FDIR": 322.85434, "RENV": 100.0, "PENV": 1007.0, "VALIDT": 0, "DTG": "2024-11-18 06:00", "LATNOW": 18.5, "LONNOW": -91.1, "WINDNOW": 25.0, "DIRNOW": 6.0, "SPDNOW": 2.0, "TECH": "TRAK", "ADVNR": 19, "ATCFID": "AL192024", "NAME": "SARA", "FTECH": "OFCL", "FCST_DTG": "2024-11-18 06:00:00", "RUN_DTG": "2024-11-18 20:24:35", "BASIN": "AL", "STMNR": 19, "CAT_ID": null, "CAT_DESC": null, "MSGID": "WTNT24 KNHC 180830", "VALIDTIME": "2024-11-18 06:00:00" }, "geometry": { "type": "Point", "coordinates": [ -91.099998, 18.5 ] } },
{ "type": "Feature", "properties": { "ID": 289106, "LAT": 19.0, "LON": -91.5, "VMAX": 25.0, "MSLP": 1005.0, "RMAX": 50.99705, "FSPD": 5.32246, "FDIR": 326.89594, "RENV": 250.0, "PENV": 1012.0, "VALIDT": 3, "DTG": "2024-11-18 09:00", "LATNOW": 18.5, "LONNOW": -91.1, "WINDNOW": 25.0, "DIRNOW": 6.0, "SPDNOW": 2.0, "TECH": "FCST", "ADVNR": 19, "ATCFID": "AL192024", "NAME": "SARA", "FTECH": "OFCL", "FCST_DTG": "2024-11-18 06:00:00", "RUN_DTG": "2024-11-18 20:24:35", "BASIN": "AL", "STMNR": 19, "CAT_ID": null, "CAT_DESC": null, "MSGID": "WTNT24 KNHC 180830", "VALIDTIME": "2024-11-18 09:00:00" }, "geometry": { "type": "Point", "coordinates": [ -91.5, 19.0 ] } },
{ "type": "Feature", "properties": { "ID": 289107, "LAT": 20.3, "LON": -92.4, "VMAX": 20.0, "MSLP": 1012.95825, "RMAX": 53.85849, "FSPD": 5.32246, "FDIR": 326.89594, "RENV": 250.0, "PENV": 1012.0, "VALIDT": 12, "DTG": "2024-11-18 18:00", "LATNOW": 18.5, "LONNOW": -91.1, "WINDNOW": 25.0, "DIRNOW": 6.0, "SPDNOW": 2.0, "TECH": "FCST", "ADVNR": 19, "ATCFID": "AL192024", "NAME": "SARA", "FTECH": "OFCL", "FCST_DTG": "2024-11-18 06:00:00", "RUN_DTG": "2024-11-18 20:24:35", "BASIN": "AL", "STMNR": 19, "CAT_ID": null, "CAT_DESC": null, "MSGID": "WTNT24 KNHC 180830", "VALIDTIME": "2024-11-18 18:00:00" }, "geometry": { "type": "Point", "coordinates": [ -92.400002, 20.299999 ] } },
{ "type": "Feature", "properties": { "ID": 289105, "LAT": 18.5, "LON": -91.1, "VMAX": 25.0, "MSLP": 1005.0, "RMAX": 50.0, "FSPD": 6.45393, "FDIR": 322.85434, "RENV": 100.0, "PENV": 1007.0, "VALIDT": 0, "DTG": "2024-11-18 06:00", "LATNOW": 18.5, "LONNOW": -91.1, "WINDNOW": 25.0, "DIRNOW": 6.0, "SPDNOW": 2.0, "TECH": "TRAK", "ADVNR": 19, "ATCFID": "AL192024", "NAME": "SARA", "FTECH": "OFCL", "FCST_DTG": "2024-11-18 06:00:00", "RUN_DTG": "2024-11-18 20:24:35", "BASIN": "AL", "STMNR": 19, "CAT_ID": null, "CAT_DESC": null, "MSGID": "WTNT24 KNHC 180830", "VALIDTIME": "2024-11-18 06:00:00" }, "geometry": { "type": "LineString", "coordinates": [ [ -76.5, 16.9 ], [ -76.7, 16.8 ], [ -77.4, 16.3 ], [ -77.6, 16.1 ], [ -78.4, 16.2 ], [ -79.7, 16.1 ], [ -81.2, 15.9 ], [ -82.2, 15.7 ], [ -83.1, 15.8 ], [ -84.0, 15.9 ], [ -84.9, 15.9 ], [ -85.7, 16.1 ], [ -86.1, 16.1 ], [ -86.3, 16.2 ], [ -86.3, 16.1 ], [ -86.3, 16.2 ], [ -86.8, 16.3 ], [ -87.1, 16.4 ], [ -87.5, 16.6 ], [ -87.9, 16.8 ], [ -88.45, 17.1 ], [ -89.0, 17.4 ], [ -90.2, 18.0 ], [ -91.1, 18.5 ] ] } },
{ "type": "Feature", "properties": { "ID": 289107, "LAT": 20.3, "LON": -92.4, "VMAX": 20.0, "MSLP": 1012.95825, "RMAX": 53.85849, "FSPD": 5.32246, "FDIR": 326.89594, "RENV": 250.0, "PENV": 1012.0, "VALIDT": 12, "DTG": "2024-11-18 18:00", "LATNOW": 18.5, "LONNOW": -91.1, "WINDNOW": 25.0, "DIRNOW": 6.0, "SPDNOW": 2.0, "TECH": "FCST", "ADVNR": 19, "ATCFID": "AL192024", "NAME": "SARA", "FTECH": "OFCL", "FCST_DTG": "2024-11-18 06:00:00", "RUN_DTG": "2024-11-18 20:24:35", "BASIN": "AL", "STMNR": 19, "CAT_ID": null, "CAT_DESC": null, "MSGID": "WTNT24 KNHC 180830", "VALIDTIME": "2024-11-18 18:00:00" }, "geometry": { "type": "LineString", "coordinates": [ [ -91.1, 18.5 ], [ -91.5, 19.0 ], [ -92.4, 20.3 ] ] } }
]
}
