{
"type": "FeatureCollection",
"crs": { "type": "name", "properties": { "name": "urn:ogc:def:crs:OGC:1.3:CRS84" } },
"features": [
{ "type": "Feature", "properties": { "ID": 104641, "LAT": 11.5, "LON": -115.5, "VMAX": 20.0, "MSLP": 1009.0, "RMAX": 100.0, "FSPD": 3.02469, "FDIR": 269.99997, "RENV": 150.0, "PENV": 1012.0, "VALIDT": 0, "DTG": "2026-09-17 18:00", "LATNOW": 22.7, "LONNOW": -123.2, "WINDNOW": 40.0, "DIRNOW": 1.0, "SPDNOW": 1.0, "TECH": "TRAK", "ADVNR": 32, "ATCFID": "EP162026", "NAME": "ODALYS", "FTECH": "OFCL", "FCST_DTG": "2026-09-27 18:00:00", "RUN_DTG": "2026-09-28 11:09:40", "BASIN": "EP", "STMNR": 16, "CAT_ID": null, "CAT_DESC": null, "MSGID": "WTPZ21 KNHC 272037", "VALIDTIME": "2026-09-17 18:00:00" }, "geometry": { "type": "Point", "coordinates": [ -115.5, 11.5 ] } },
{ "type": "Feature", "properties": { "ID": 104642, "LAT": 11.5, "LON": -116.1, "VMAX": 20.0, "MSLP": 1009.0, "RMAX": 100.0, "FSPD": 7.03358, "FDIR": 300.79633, "RENV": 150.0, "PENV": 1012.0, "VALIDT": 0, "DTG": "2026-09-18 00:00", "LATNOW": 22.7, "LONNOW": -123.2, "WINDNOW": 40.0, "DIRNOW": 1.0, "SPDNOW": 1.0, "TECH": "TRAK", "ADVNR": 32, "ATCFID": "EP162026", "NAME": "ODALYS", "FTECH": "OFCL", "FCST_DTG": "2026-09-27 18:00:00", "RUN_DTG": "2026-09-28 11:09:40", "BASIN": "EP", "STMNR": 16, "CAT_ID": null, "CAT_DESC": null, "MSGID": "WTPZ21 KNHC 272037", "VALIDTIME": "2026-09-18 00:00:00" }, "geometry": { "type": "Point", "coordinates": [ -116.099998, 11.5 ] } },
{ "type": "Feature", "properties": { "ID": 104643, "LAT": 12.2, "LON": -117.3, "VMAX": 20.0, "MSLP": 1009.0, "RMAX": 100.0, "FSPD": 3.66834, "FDIR": 253.71123, "RENV": 150.0, "PENV": 1012.0, "VALIDT": 0, "DTG": "2026-09-18 06:00", "LATNOW": 22.7, "LONNOW": -123.2, "WINDNOW": 40.0, "DIRNOW": 1.0, "SPDNOW": 1.0, "TECH": "TRAK", "ADVNR": 32, "ATCFID": "EP162026", "NAME": "ODALYS", "FTECH": "OFCL", "FCST_DTG": "2026-09-27 18:00:00", "RUN_DTG": "2026-09-28 11:09:40", "BASIN": "EP", "STMNR": 16, "CAT_ID": null, "CAT_DESC": null, "MSGID": "WTPZ21 KNHC 272037", "VALIDTIME": "2026-09-18 06:00:00" }, "geometry": { "type": "Point", "coordinates": [ -117.300003, 12.2 ] } },
{ "type": "Feature", "properties": { "ID": 104644, "LAT": 12.0, "LON": -118.0, "VMAX": 20.0, "MSLP": 1009.0, "RMAX": 100.0, "FSPD": 3.1275, "FDIR": 170.73093, "RENV": 150.0, "PENV": 1012.0, "VALIDT": 0, "DTG": "2026-09-18 12:00", "LATNOW": 22.7, "LONNOW": -123.2, "WINDNOW": 40.0, "DIRNOW": 1.0, "SPDNOW": 1.0, "TECH": "TRAK", "ADVNR": 32, "ATCFID": "EP162026", "NAME": "ODALYS", "FTECH": "OFCL", "FCST_DTG": "2026-09-27 18:00:00", "RUN_DTG": "2026-09-28 11:09:40", "BASIN": "EP", "STMNR": 16, "CAT_ID": null, "CAT_DESC": null, "MSGID": "WTPZ21 KNHC 272037", "VALIDTIME": "2026-09-18 12:00:00" }, "geometry": { "type": "Point", "coordinates": [ -118.0, 12.0 ] } },
{ "type": "Feature", "properties": { "ID": 104645, "LAT": 11.4, "LON": -117.9, "VMAX": 20.0, "MSLP": 1009.0, "RMAX": 100.0, "FSPD": 3.25319, "FDIR": 309.23785, "RENV": 150.0, "PENV": 1012.0, "VALIDT": 0, "DTG": "2026-09-18 18:00", "LATNOW": 22.7, "LONNOW": -123.2, "WINDNOW": 40.0, "DIRNOW": 1.0, "SPDNOW": 1.0, "TECH": "TRAK", "ADVNR": 32, "ATCFID": "EP162026", "NAME": "ODALYS", "FTECH": "OFCL", "FCST_DTG": "2026-09-27 18:00:00", "RUN_DTG": "2026-09-28 11:09:40", "BASIN": "EP", "STMNR": 16, "CAT_ID": null, "CAT_DESC": null, "MSGID": "WTPZ21 KNHC 272037", "VALIDTIME": "2026-09-18 18:00:00" }, "geometry": { "type": "Point", "coordinates": [ -117.900002, 11.4 ] } },
{ "type": "Feature", "properties": { "ID": 104646, "LAT": 11.8, "LON": -118.4, "VMAX": 20.0, "MSLP": 1009.0, "RMAX": 100.0, "FSPD": 6.72238, "FDIR": 283.2724, "RENV": 150.0, "PENV": 1012.0, "VALIDT": 0, "DTG": "2026-09-19 00:00", "LATNOW": 22.7, "LONNOW": -123.2, "WINDNOW": 40.0, "DIRNOW": 1.0, "SPDNOW": 1.0, "TECH": "TRAK", "ADVNR": 32, "ATCFID": "EP162026", "NAME": "ODALYS", "FTECH": "OFCL", "FCST_DTG": "2026-09-27 18:00:00", "RUN_DTG": "2026-09-28 11:09:40", "BASIN": "EP", "STMNR": 16, "CAT_ID": null, "CAT_DESC": null, "MSGID": "WTPZ21 KNHC 272037", "VALIDTIME": "2026-09-19 00:00:00" }, "geometry": { "type": "Point", "coordinates": [ -118.400002, 11.8 ] } },
{ "type": "Feature", "properties": { "ID": 104647, "LAT": 12.1, "LON": -119.7, "VMAX": 25.0, "MSLP": 1009.0, "RMAX": 100.0, "FSPD": 9.755, "FDIR": 248.3364, "RENV": 150.0, "PENV": 1012.0, "VALIDT": 0, "DTG": "2026-09-19 06:00", "LATNOW": 22.7, "LONNOW": -123.2, "WINDNOW": 40.0, "DIRNOW": 1.0, "SPDNOW": 1.0, "TECH": "TRAK", "ADVNR": 32, "ATCFID": "EP162026", "NAME": "ODALYS", "FTECH": "OFCL", "FCST_DTG": "2026-09-27 18:00:00", "RUN_DTG": "2026-09-28 11:09:40", "BASIN": "EP", "STMNR": 16, "CAT_ID": null, "CAT_DESC": null, "MSGID": "WTPZ21 KNHC 272037", "VALIDTIME": "2026-09-19 06:00:00" }, "geometry": { "type": "Point", "coordinates": [ -119.699997, 12.1 ] } },
{ "type": "Feature", "properties": { "ID": 104648, "LAT": 11.4, "LON": -121.5, "VMAX": 25.0, "MSLP": 1008.0, "RMAX": 100.0, "FSPD": 5.14857, "FDIR": 258.4724, "RENV": 150.0, "PENV": 1011.0, "VALIDT": 0, "DTG": "2026-09-19 12:00", "LATNOW": 22.7, "LONNOW": -123.2, "WINDNOW": 40.0, "DIRNOW": 1.0, "SPDNOW": 1.0, "TECH": "TRAK", "ADVNR": 32, "ATCFID": "EP162026", "NAME": "ODALYS", "FTECH": "OFCL", "FCST_DTG": "2026-09-27 18:00:00", "RUN_DTG": "2026-09-28 11:09:40", "BASIN": "EP", "STMNR": 16, "CAT_ID": null, "CAT_DESC": null, "MSGID": "WTPZ21 KNHC 272037", "VALIDTIME": "2026-09-19 12:00:00" }, "geometry": { "type": "Point", "coordinates": [ -121.5, 11.4 ] } },
{ "type": "Feature", "properties": { "ID": 104649, "LAT": 11.2, "LON": -122.5, "VMAX": 25.0, "MSLP": 1008.0, "RMAX": 90.0, "FSPD": 5.07175, "FDIR": 275.82172, "RENV": 180.0, "PENV": 1012.0, "VALIDT": 0, "DTG": "2026-09-19 18:00", "LATNOW": 22.7, "LONNOW": -123.2, "WINDNOW": 40.0, "DIRNOW": 1.0, "SPDNOW": 1.0, "TECH": "TRAK", "ADVNR": 32, "ATCFID": "EP162026", "NAME": "ODALYS", "FTECH": "OFCL", "FCST_DTG": "2026-09-27 18:00:00", "RUN_DTG": "2026-09-28 11:09:40", "BASIN": "EP", "STMNR": 16, "CAT_ID": null, "CAT_DESC": null, "MSGID": "WTPZ21 KNHC 272037", "VALIDTIME": "2026-09-19 18:00:00" }, "geometry": { "type": "Point", "coordinates": [ -122.5, 11.2 ] } },
{ "type": "Feature", "properties": { "ID": 104650, "LAT": 11.3, "LON": -123.5, "VMAX": 25.0, "MSLP": 1008.0, "RMAX": 90.0, "FSPD": 3.56917, "FDIR": 261.7127, "RENV": 180.0, "PENV": 1012.0, "VALIDT": 0, "DTG": "2026-09-20 00:00", "LATNOW": 22.7, "LONNOW": -123.2, "WINDNOW": 40.0, "DIRNOW": 1.0, "SPDNOW": 1.0, "TECH": "TRAK", "ADVNR": 32, "ATCFID": "EP162026", "NAME": "ODALYS", "FTECH": "OFCL", "FCST_DTG": "2026-09-27 18:00:00", "RUN_DTG": "2026-09-28 11:09:40", "BASIN": "EP", "STMNR": 16, "CAT_ID": null, "CAT_DESC": null, "MSGID": "WTPZ21 KNHC 272037", "VALIDTIME": "2026-09-20 00:00:00" }, "geometry": { "type": "Point", "coordinates": [ -123.5, 11.3 ] } },
{ "type": "Feature", "properties": { "ID": 104651, "LAT": 11.2, "LON": -124.2, "VMAX": 35.0, "MSLP": 1005.0, "RMAX": 50.0, "FSPD": 5.07349, "FDIR": 264.1803, "RENV": 125.0, "PENV": 1010.0, "VALIDT": 0, "DTG": "2026-09-20 06:00", "LATNOW": 22.7, "LONNOW": -123.2, "WINDNOW": 40.0, "DIRNOW": 1.0, "SPDNOW": 1.0, "TECH": "TRAK", "ADVNR": 32, "ATCFID": "EP162026", "NAME": "ODALYS", "FTECH": "OFCL", "FCST_DTG": "2026-09-27 18:00:00", "RUN_DTG": "2026-09-28 11:09:40", "BASIN": "EP", "STMNR": 16, "CAT_ID": null, "CAT_DESC": null, "MSGID": "WTPZ21 KNHC 272037", "VALIDTIME": "2026-09-20 06:00:00" }, "geometry": { "type": "Point", "coordinates": [ -124.199997, 11.2 ] } },
{ "type": "Feature", "properties": { "ID": 104652, "LAT": 11.1, "LON": -125.2, "VMAX": 40.0, "MSLP": 1003.0, "RMAX": 50.0, "FSPD": 5.44827, "FDIR": 292.19086, "RENV": 120.0, "PENV": 1010.0, "VALIDT": 0, "DTG": "2026-09-20 12:00", "LATNOW": 22.7, "LONNOW": -123.2, "WINDNOW": 40.0, "DIRNOW": 1.0, "SPDNOW": 1.0, "TECH": "TRAK", "ADVNR": 32, "ATCFID": "EP162026", "NAME": "ODALYS", "FTECH": "OFCL", "FCST_DTG": "2026-09-27 18:00:00", "RUN_DTG": "2026-09-28 11:09:40", "BASIN": "EP", "STMNR": 16, "CAT_ID": null, "CAT_DESC": null, "MSGID": "WTPZ21 KNHC 272037", "VALIDTIME": "2026-09-20 12:00:00" }, "geometry": { "type": "Point", "coordinates": [ -125.199997, 11.1 ] } },
{ "type": "Feature", "properties": { "ID": 104653, "LAT": 11.5, "LON": -126.2, "VMAX": 45.0, "MSLP": 1002.0, "RMAX": 50.0, "FSPD": 8.67935, "FDIR": 320.40228, "RENV": 120.0, "PENV": 1010.0, "VALIDT": 0, "DTG": "2026-09-20 18:00", "LATNOW": 22.7, "LONNOW": -123.2, "WINDNOW": 40.0, "DIRNOW": 1.0, "SPDNOW": 1.0, "TECH": "TRAK", "ADVNR": 32, "ATCFID": "EP162026", "NAME": "ODALYS", "FTECH": "OFCL", "FCST_DTG": "2026-09-27 18:00:00", "RUN_DTG": "2026-09-28 11:09:40", "BASIN": "EP", "STMNR": 16, "CAT_ID": null, "CAT_DESC": null, "MSGID": "WTPZ21 KNHC 272037", "VALIDTIME": "2026-09-20 18:00:00" }, "geometry": { "type": "Point", "coordinates": [ -126.199997, 11.5 ] } },
{ "type": "Feature", "properties": { "ID": 104654, "LAT": 12.8, "LON": -127.3, "VMAX": 45.0, "MSLP": 1002.0, "RMAX": 50.0, "FSPD": 5.63314, "FDIR": 297.1694, "RENV": 120.0, "PENV": 1010.0, "VALIDT": 0, "DTG": "2026-09-21 00:00", "LATNOW": 22.7, "LONNOW": -123.2, "WINDNOW": 40.0, "DIRNOW": 1.0, "SPDNOW": 1.0, "TECH": "TRAK", "ADVNR": 32, "ATCFID": "EP162026", "NAME": "ODALYS", "FTECH": "OFCL", "FCST_DTG": "2026-09-27 18:00:00", "RUN_DTG": "2026-09-28 11:09:40", "BASIN": "EP", "STMNR": 16, "CAT_ID": null, "CAT_DESC": null, "MSGID": "WTPZ21 KNHC 272037", "VALIDTIME": "2026-09-21 00:00:00" }, "geometry": { "type": "Point", "coordinates": [ -127.300003, 12.8 ] } },
{ "type": "Feature", "properties": { "ID": 104655, "LAT": 13.3, "LON": -128.3, "VMAX": 40.0, "MSLP": 1004.0, "RMAX": 50.0, "FSPD": 4.49992, "FDIR": 297.21246, "RENV": 120.0, "PENV": 1010.0, "VALIDT": 0, "DTG": "2026-09-21 06:00", "LATNOW": 22.7, "LONNOW": -123.2, "WINDNOW": 40.0, "DIRNOW": 1.0, "SPDNOW": 1.0, "TECH": "TRAK", "ADVNR": 32, "ATCFID": "EP162026", "NAME": "ODALYS", "FTECH": "OFCL", "FCST_DTG": "2026-09-27 18:00:00", "RUN_DTG": "2026-09-28 11:09:40", "BASIN": "EP", "STMNR": 16, "CAT_ID": null, "CAT_DESC": null, "MSGID": "WTPZ21 KNHC 272037", "VALIDTIME": "2026-09-21 06:00:00" }, "geometry": { "type": "Point", "coordinates": [ -128.300003, 13.3 ] } },
{ "type": "Feature", "properties": { "ID": 104656, "LAT": 13.7, "LON": -129.1, "VMAX": 40.0, "MSLP": 1003.0, "RMAX": 50.0, "FSPD": 3.04198, "FDIR": 279.7364, "RENV": 150.0, "PENV": 1009.0, "VALIDT": 0, "DTG": "2026-09-21 12:00", "LATNOW": 22.7, "LONNOW": -123.2, "WINDNOW": 40.0, "DIRNOW": 1.0, "SPDNOW": 1.0, "TECH": "TRAK", "ADVNR": 32, "ATCFID": "EP162026", "NAME": "ODALYS", "FTECH": "OFCL", "FCST_DTG": "2026-09-27 18:00:00", "RUN_DTG": "2026-09-28 11:09:40", "BASIN": "EP", "STMNR": 16, "CAT_ID": null, "CAT_DESC": null, "MSGID": "WTPZ21 KNHC 272037", "VALIDTIME": "2026-09-21 12:00:00" }, "geometry": { "type": "Point", "coordinates": [ -129.100006, 13.7 ] } },
{ "type": "Feature", "properties": { "ID": 104657, "LAT": 13.8, "LON": -129.7, "VMAX": 45.0, "MSLP": 1002.0, "RMAX": 40.0, "FSPD": 5.01606, "FDIR": 315.88263, "RENV": 180.0, "PENV": 1012.0, "VALIDT": 0, "DTG": "2026-09-21 18:00", "LATNOW": 22.7, "LONNOW": -123.2, "WINDNOW": 40.0, "DIRNOW": 1.0, "SPDNOW": 1.0, "TECH": "TRAK", "ADVNR": 32, "ATCFID": "EP162026", "NAME": "ODALYS", "FTECH": "OFCL", "FCST_DTG": "2026-09-27 18:00:00", "RUN_DTG": "2026-09-28 11:09:40", "BASIN": "EP", "STMNR": 16, "CAT_ID": null, "CAT_DESC": null, "MSGID": "WTPZ21 KNHC 272037", "VALIDTIME": "2026-09-21 18:00:00" }, "geometry": { "type": "Point", "coordinates": [ -129.699997, 13.8 ] } },
{ "type": "Feature", "properties": { "ID": 104658, "LAT": 14.5, "LON": -130.4, "VMAX": 50.0, "MSLP": 1000.0, "RMAX": 30.0, "FSPD": 0.49809, "FDIR": 269.99997, "RENV": 200.0, "PENV": 1012.0, "VALIDT": 0, "DTG": "2026-09-22 00:00", "LATNOW": 22.7, "LONNOW": -123.2, "WINDNOW": 40.0, "DIRNOW": 1.0, "SPDNOW": 1.0, "TECH": "TRAK", "ADVNR": 32, "ATCFID": "EP162026", "NAME": "ODALYS", "FTECH": "OFCL", "FCST_DTG": "2026-09-27 18:00:00", "RUN_DTG": "2026-09-28 11:09:40", "BASIN": "EP", "STMNR": 16, "CAT_ID": null, "CAT_DESC": null, "MSGID": "WTPZ21 KNHC 272037", "VALIDTIME": "2026-09-22 00:00:00" }, "geometry": { "type": "Point", "coordinates": [ -130.399994, 14.5 ] } },
{ "type": "Feature", "properties": { "ID": 104659, "LAT": 14.5, "LON": -130.5, "VMAX": 50.0, "MSLP": 1000.0, "RMAX": 30.0, "FSPD": 1.54333, "FDIR": 360.0, "RENV": 200.0, "PENV": 1012.0, "VALIDT": 0, "DTG": "2026-09-22 06:00", "LATNOW": 22.7, "LONNOW": -123.2, "WINDNOW": 40.0, "DIRNOW": 1.0, "SPDNOW": 1.0, "TECH": "TRAK", "ADVNR": 32, "ATCFID": "EP162026", "NAME": "ODALYS", "FTECH": "OFCL", "FCST_DTG": "2026-09-27 18:00:00", "RUN_DTG": "2026-09-28 11:09:40", "BASIN": "EP", "STMNR": 16, "CAT_ID": null, "CAT_DESC": null, "MSGID": "WTPZ21 KNHC 272037", "VALIDTIME": "2026-09-22 06:00:00" }, "geometry": { "type": "Point", "coordinates": [ -130.5, 14.5 ] } },
{ "type": "Feature", "properties": { "ID": 104660, "LAT": 14.8, "LON": -130.5, "VMAX": 55.0, "MSLP": 998.0, "RMAX": 30.0, "FSPD": 1.14271, "FDIR": 25.79065, "RENV": 200.0, "PENV": 1012.0, "VALIDT": 0, "DTG": "2026-09-22 12:00", "LATNOW": 22.7, "LONNOW": -123.2, "WINDNOW": 40.0, "DIRNOW": 1.0, "SPDNOW": 1.0, "TECH": "TRAK", "ADVNR": 32, "ATCFID": "EP162026", "NAME": "ODALYS", "FTECH": "OFCL", "FCST_DTG": "2026-09-27 18:00:00", "RUN_DTG": "2026-09-28 11:09:40", "BASIN": "EP", "STMNR": 16, "CAT_ID": null, "CAT_DESC": null, "MSGID": "WTPZ21 KNHC 272037", "VALIDTIME": "2026-09-22 12:00:00" }, "geometry": { "type": "Point", "coordinates": [ -130.5, 14.8 ] } },
{ "type": "Feature", "properties": { "ID": 104661, "LAT": 15.0, "LON": -130.4, "VMAX": 60.0, "MSLP": 994.0, "RMAX": 20.0, "FSPD": 5.19996, "FDIR": 72.73465, "RENV": 200.0, "PENV": 1012.0, "VALIDT": 0, "DTG": "2026-09-22 18:00", "LATNOW": 22.7, "LONNOW": -123.2, "WINDNOW": 40.0, "DIRNOW": 1.0, "SPDNOW": 1.0, "TECH": "TRAK", "ADVNR": 32, "ATCFID": "EP162026", "NAME": "ODALYS", "FTECH": "OFCL", "FCST_DTG": "2026-09-27 18:00:00", "RUN_DTG": "2026-09-28 11:09:40", "BASIN": "EP", "STMNR": 16, "CAT_ID": null, "CAT_DESC": null, "MSGID": "WTPZ21 KNHC 272037", "VALIDTIME": "2026-09-22 18:00:00" }, "geometry": { "type": "Point", "coordinates": [ -130.399994, 15.0 ] } },
{ "type": "Feature", "properties": { "ID": 104662, "LAT": 15.3, "LON": -129.4, "VMAX": 60.0, "MSLP": 994.0, "RMAX": 30.0, "FSPD": 4.31883, "FDIR": 53.44574, "RENV": 220.0, "PENV": 1010.0, "VALIDT": 0, "DTG": "2026-09-23 00:00", "LATNOW": 22.7, "LONNOW": -123.2, "WINDNOW": 40.0, "DIRNOW": 1.0, "SPDNOW": 1.0, "TECH": "TRAK", "ADVNR": 32, "ATCFID": "EP162026", "NAME": "ODALYS", "FTECH": "OFCL", "FCST_DTG": "2026-09-27 18:00:00", "RUN_DTG": "2026-09-28 11:09:40", "BASIN": "EP", "STMNR": 16, "CAT_ID": null, "CAT_DESC": null, "MSGID": "WTPZ21 KNHC 272037", "VALIDTIME": "2026-09-23 00:00:00" }, "geometry": { "type": "Point", "coordinates": [ -129.399994, 15.3 ] } },
{ "type": "Feature", "properties": { "ID": 104663, "LAT": 15.8, "LON": -128.7, "VMAX": 65.0, "MSLP": 989.0, "RMAX": 10.0, "FSPD": 2.52734, "FDIR": 78.25531, "RENV": 210.0, "PENV": 1010.0, "VALIDT": 0, "DTG": "2026-09-23 06:00", "LATNOW": 22.7, "LONNOW": -123.2, "WINDNOW": 40.0, "DIRNOW": 1.0, "SPDNOW": 1.0, "TECH": "TRAK", "ADVNR": 32, "ATCFID": "EP162026", "NAME": "ODALYS", "FTECH": "OFCL", "FCST_DTG": "2026-09-27 18:00:00", "RUN_DTG": "2026-09-28 11:09:40", "BASIN": "EP", "STMNR": 16, "CAT_ID": null, "CAT_DESC": null, "MSGID": "WTPZ21 KNHC 272037", "VALIDTIME": "2026-09-23 06:00:00" }, "geometry": { "type": "Point", "coordinates": [ -128.699997, 15.8 ] } },
{ "type": "Feature", "properties": { "ID": 104664, "LAT": 15.9, "LON": -128.2, "VMAX": 65.0, "MSLP": 989.0, "RMAX": 10.0, "FSPD": 4.03147, "FDIR": 120.69229, "RENV": 210.0, "PENV": 1008.0, "VALIDT": 0, "DTG": "2026-09-23 12:00", "LATNOW": 22.7, "LONNOW": -123.2, "WINDNOW": 40.0, "DIRNOW": 1.0, "SPDNOW": 1.0, "TECH": "TRAK", "ADVNR": 32, "ATCFID": "EP162026", "NAME": "ODALYS", "FTECH": "OFCL", "FCST_DTG": "2026-09-27 18:00:00", "RUN_DTG": "2026-09-28 11:09:40", "BASIN": "EP", "STMNR": 16, "CAT_ID": null, "CAT_DESC": null, "MSGID": "WTPZ21 KNHC 272037", "VALIDTIME": "2026-09-23 12:00:00" }, "geometry": { "type": "Point", "coordinates": [ -128.199997, 15.9 ] } },
{ "type": "Feature", "properties": { "ID": 104665, "LAT": 15.5, "LON": -127.5, "VMAX": 70.0, "MSLP": 984.0, "RMAX": 20.0, "FSPD": 3.01785, "FDIR": 80.18497, "RENV": 230.0, "PENV": 1010.0, "VALIDT": 0, "DTG": "2026-09-23 18:00", "LATNOW": 22.7, "LONNOW": -123.2, "WINDNOW": 40.0, "DIRNOW": 1.0, "SPDNOW": 1.0, "TECH": "TRAK", "ADVNR": 32, "ATCFID": "EP162026", "NAME": "ODALYS", "FTECH": "OFCL", "FCST_DTG": "2026-09-27 18:00:00", "RUN_DTG": "2026-09-28 11:09:40", "BASIN": "EP", "STMNR": 16, "CAT_ID": null, "CAT_DESC": null, "MSGID": "WTPZ21 KNHC 272037", "VALIDTIME": "2026-09-23 18:00:00" }, "geometry": { "type": "Point", "coordinates": [ -127.5, 15.5 ] } },
{ "type": "Feature", "properties": { "ID": 104666, "LAT": 15.6, "LON": -126.9, "VMAX": 75.0, "MSLP": 978.0, "RMAX": 20.0, "FSPD": 3.34774, "FDIR": 62.54791, "RENV": 230.0, "PENV": 1008.0, "VALIDT": 0, "DTG": "2026-09-24 00:00", "LATNOW": 22.7, "LONNOW": -123.2, "WINDNOW": 40.0, "DIRNOW": 1.0, "SPDNOW": 1.0, "TECH": "TRAK", "ADVNR": 32, "ATCFID": "EP162026", "NAME": "ODALYS", "FTECH": "OFCL", "FCST_DTG": "2026-09-27 18:00:00", "RUN_DTG": "2026-09-28 11:09:40", "BASIN": "EP", "STMNR": 16, "CAT_ID": null, "CAT_DESC": null, "MSGID": "WTPZ21 KNHC 272037", "VALIDTIME": "2026-09-24 00:00:00" }, "geometry": { "type": "Point", "coordinates": [ -126.900002, 15.6 ] } },
{ "type": "Feature", "properties": { "ID": 104667, "LAT": 15.9, "LON": -126.3, "VMAX": 75.0, "MSLP": 978.0, "RMAX": 20.0, "FSPD": 2.91419, "FDIR": 58.02188, "RENV": 220.0, "PENV": 1011.0, "VALIDT": 0, "DTG": "2026-09-24 06:00", "LATNOW": 22.7, "LONNOW": -123.2, "WINDNOW": 40.0, "DIRNOW": 1.0, "SPDNOW": 1.0, "TECH": "TRAK", "ADVNR": 32, "ATCFID": "EP162026", "NAME": "ODALYS", "FTECH": "OFCL", "FCST_DTG": "2026-09-27 18:00:00", "RUN_DTG": "2026-09-28 11:09:40", "BASIN": "EP", "STMNR": 16, "CAT_ID": null, "CAT_DESC": null, "MSGID": "WTPZ21 KNHC 272037", "VALIDTIME": "2026-09-24 06:00:00" }, "geometry": { "type": "Point", "coordinates": [ -126.300003, 15.9 ] } },
{ "type": "Feature", "properties": { "ID": 104668, "LAT": 16.2, "LON": -125.8, "VMAX": 80.0, "MSLP": 976.0, "RMAX": 20.0, "FSPD": 4.02105, "FDIR": 59.21945, "RENV": 220.0, "PENV": 1011.0, "VALIDT": 0, "DTG": "2026-09-24 12:00", "LATNOW": 22.7, "LONNOW": -123.2, "WINDNOW": 40.0, "DIRNOW": 1.0, "SPDNOW": 1.0, "TECH": "TRAK", "ADVNR": 32, "ATCFID": "EP162026", "NAME": "ODALYS", "FTECH": "OFCL", "FCST_DTG": "2026-09-27 18:00:00", "RUN_DTG": "2026-09-28 11:09:40", "BASIN": "EP", "STMNR": 16, "CAT_ID": null, "CAT_DESC": null, "MSGID": "WTPZ21 KNHC 272037", "VALIDTIME": "2026-09-24 12:00:00" }, "geometry": { "type": "Point", "coordinates": [ -125.800003, 16.200001 ] } },
{ "type": "Feature", "properties": { "ID": 104669, "LAT": 16.6, "LON": -125.1, "VMAX": 80.0, "MSLP": 976.0, "RMAX": 20.0, "FSPD": 3.77792, "FDIR": 65.88855, "RENV": 220.0, "PENV": 1011.0, "VALIDT": 0, "DTG": "2026-09-24 18:00", "LATNOW": 22.7, "LONNOW": -123.2, "WINDNOW": 40.0, "DIRNOW": 1.0, "SPDNOW": 1.0, "TECH": "TRAK", "ADVNR": 32, "ATCFID": "EP162026", "NAME": "ODALYS", "FTECH": "OFCL", "FCST_DTG": "2026-09-27 18:00:00", "RUN_DTG": "2026-09-28 11:09:40", "BASIN": "EP", "STMNR": 16, "CAT_ID": null, "CAT_DESC": null, "MSGID": "WTPZ21 KNHC 272037", "VALIDTIME": "2026-09-24 18:00:00" }, "geometry": { "type": "Point", "coordinates": [ -125.099998, 16.6 ] } },
{ "type": "Feature", "properties": { "ID": 104670, "LAT": 16.9, "LON": -124.4, "VMAX": 90.0, "MSLP": 968.0, "RMAX": 20.0, "FSPD": 2.53188, "FDIR": 35.63495, "RENV": 220.0, "PENV": 1009.0, "VALIDT": 0, "DTG": "2026-09-25 00:00", "LATNOW": 22.7, "LONNOW": -123.2, "WINDNOW": 40.0, "DIRNOW": 1.0, "SPDNOW": 1.0, "TECH": "TRAK", "ADVNR": 32, "ATCFID": "EP162026", "NAME": "ODALYS", "FTECH": "OFCL", "FCST_DTG": "2026-09-27 18:00:00", "RUN_DTG": "2026-09-28 11:09:40", "BASIN": "EP", "STMNR": 16, "CAT_ID": null, "CAT_DESC": null, "MSGID": "WTPZ21 KNHC 272037", "VALIDTIME": "2026-09-25 00:00:00" }, "geometry": { "type": "Point", "coordinates": [ -124.400002, 16.9 ] } },
{ "type": "Feature", "properties": { "ID": 104671, "LAT": 17.3, "LON": -124.1, "VMAX": 100.0, "MSLP": 962.0, "RMAX": 20.0, "FSPD": 2.53, "FDIR": 35.57513, "RENV": 235.0, "PENV": 1010.0, "VALIDT": 0, "DTG": "2026-09-25 06:00", "LATNOW": 22.7, "LONNOW": -123.2, "WINDNOW": 40.0, "DIRNOW": 1.0, "SPDNOW": 1.0, "TECH": "TRAK", "ADVNR": 32, "ATCFID": "EP162026", "NAME": "ODALYS", "FTECH": "OFCL", "FCST_DTG": "2026-09-27 18:00:00", "RUN_DTG": "2026-09-28 11:09:40", "BASIN": "EP", "STMNR": 16, "CAT_ID": null, "CAT_DESC": null, "MSGID": "WTPZ21 KNHC 272037", "VALIDTIME": "2026-09-25 06:00:00" }, "geometry": { "type": "Point", "coordinates": [ -124.099998, 17.299999 ] } },
{ "type": "Feature", "properties": { "ID": 104672, "LAT": 17.7, "LON": -123.8, "VMAX": 115.0, "MSLP": 946.0, "RMAX": 20.0, "FSPD": 1.82786, "FDIR": 32.39883, "RENV": 235.0, "PENV": 1010.0, "VALIDT": 0, "DTG": "2026-09-25 12:00", "LATNOW": 22.7, "LONNOW": -123.2, "WINDNOW": 40.0, "DIRNOW": 1.0, "SPDNOW": 1.0, "TECH": "TRAK", "ADVNR": 32, "ATCFID": "EP162026", "NAME": "ODALYS", "FTECH": "OFCL", "FCST_DTG": "2026-09-27 18:00:00", "RUN_DTG": "2026-09-28 11:09:40", "BASIN": "EP", "STMNR": 16, "CAT_ID": null, "CAT_DESC": null, "MSGID": "WTPZ21 KNHC 272037", "VALIDTIME": "2026-09-25 12:00:00" }, "geometry": { "type": "Point", "coordinates": [ -123.800003, 17.700001 ] } },
{ "type": "Feature", "properties": { "ID": 104673, "LAT": 18.0, "LON": -123.6, "VMAX": 115.0, "MSLP": 947.0, "RMAX": 15.0, "FSPD": 3.12507, "FDIR": 351.00833, "RENV": 235.0, "PENV": 1010.0, "VALIDT": 0, "DTG": "2026-09-25 18:00", "LATNOW": 22.7, "LONNOW": -123.2, "WINDNOW": 40.0, "DIRNOW": 1.0, "SPDNOW": 1.0, "TECH": "TRAK", "ADVNR": 32, "ATCFID": "EP162026", "NAME": "ODALYS", "FTECH": "OFCL", "FCST_DTG": "2026-09-27 18:00:00", "RUN_DTG": "2026-09-28 11:09:40", "BASIN": "EP", "STMNR": 16, "CAT_ID": null, "CAT_DESC": null, "MSGID": "WTPZ21 KNHC 272037", "VALIDTIME": "2026-09-25 18:00:00" }, "geometry": { "type": "Point", "coordinates": [ -123.599998, 18.0 ] } },
{ "type": "Feature", "properties": { "ID": 104674, "LAT": 18.6, "LON": -123.7, "VMAX": 110.0, "MSLP": 947.0, "RMAX": 15.0, "FSPD": 1.13845, "FDIR": 334.65604, "RENV": 235.0, "PENV": 1007.0, "VALIDT": 0, "DTG": "2026-09-26 00:00", "LATNOW": 22.7, "LONNOW": -123.2, "WINDNOW": 40.0, "DIRNOW": 1.0, "SPDNOW": 1.0, "TECH": "TRAK", "ADVNR": 32, "ATCFID": "EP162026", "NAME": "ODALYS", "FTECH": "OFCL", "FCST_DTG": "2026-09-27 18:00:00", "RUN_DTG": "2026-09-28 11:09:40", "BASIN": "EP", "STMNR": 16, "CAT_ID": null, "CAT_DESC": null, "MSGID": "WTPZ21 KNHC 272037", "VALIDTIME": "2026-09-26 00:00:00" }, "geometry": { "type": "Point", "coordinates": [ -123.699997, 18.6 ] } },
{ "type": "Feature", "properties": { "ID": 104675, "LAT": 18.8, "LON": -123.8, "VMAX": 105.0, "MSLP": 951.0, "RMAX": 15.0, "FSPD": 3.63376, "FDIR": 7.68619, "RENV": 210.0, "PENV": 1007.0, "VALIDT": 0, "DTG": "2026-09-26 06:00", "LATNOW": 22.7, "LONNOW": -123.2, "WINDNOW": 40.0, "DIRNOW": 1.0, "SPDNOW": 1.0, "TECH": "TRAK", "ADVNR": 32, "ATCFID": "EP162026", "NAME": "ODALYS", "FTECH": "OFCL", "FCST_DTG": "2026-09-27 18:00:00", "RUN_DTG": "2026-09-28 11:09:40", "BASIN": "EP", "STMNR": 16, "CAT_ID": null, "CAT_DESC": null, "MSGID": "WTPZ21 KNHC 272037", "VALIDTIME": "2026-09-26 06:00:00" }, "geometry": { "type": "Point", "coordinates": [ -123.800003, 18.799999 ] } },
{ "type": "Feature", "properties": { "ID": 104676, "LAT": 19.5, "LON": -123.7, "VMAX": 90.0, "MSLP": 965.0, "RMAX": 10.0, "FSPD": 3.63348, "FDIR": 7.65283, "RENV": 210.0, "PENV": 1007.0, "VALIDT": 0, "DTG": "2026-09-26 12:00", "LATNOW": 22.7, "LONNOW": -123.2, "WINDNOW": 40.0, "DIRNOW": 1.0, "SPDNOW": 1.0, "TECH": "TRAK", "ADVNR": 32, "ATCFID": "EP162026", "NAME": "ODALYS", "FTECH": "OFCL", "FCST_DTG": "2026-09-27 18:00:00", "RUN_DTG": "2026-09-28 11:09:40", "BASIN": "EP", "STMNR": 16, "CAT_ID": null, "CAT_DESC": null, "MSGID": "WTPZ21 KNHC 272037", "VALIDTIME": "2026-09-26 12:00:00" }, "geometry": { "type": "Point", "coordinates": [ -123.699997, 19.5 ] } },
{ "type": "Feature", "properties": { "ID": 104677, "LAT": 20.2, "LON": -123.6, "VMAX": 80.0, "MSLP": 973.0, "RMAX": 15.0, "FSPD": 3.08666, "FDIR": 360.0, "RENV": 210.0, "PENV": 1007.0, "VALIDT": 0, "DTG": "2026-09-26 18:00", "LATNOW": 22.7, "LONNOW": -123.2, "WINDNOW": 40.0, "DIRNOW": 1.0, "SPDNOW": 1.0, "TECH": "TRAK", "ADVNR": 32, "ATCFID": "EP162026", "NAME": "ODALYS", "FTECH": "OFCL", "FCST_DTG": "2026-09-27 18:00:00", "RUN_DTG": "2026-09-28 11:09:40", "BASIN": "EP", "STMNR": 16, "CAT_ID": null, "CAT_DESC": null, "MSGID": "WTPZ21 KNHC 272037", "VALIDTIME": "2026-09-26 18:00:00" }, "geometry": { "type": "Point", "coordinates": [ -123.599998, 20.200001 ] } },
{ "type": "Feature", "properties": { "ID": 104678, "LAT": 20.8, "LON": -123.6, "VMAX": 75.0, "MSLP": 975.0, "RMAX": 15.0, "FSPD": 4.14341, "FDIR": 6.64719, "RENV": 180.0, "PENV": 1006.0, "VALIDT": 0, "DTG": "2026-09-27 00:00", "LATNOW": 22.7, "LONNOW": -123.2, "WINDNOW": 40.0, "DIRNOW": 1.0, "SPDNOW": 1.0, "TECH": "TRAK", "ADVNR": 32, "ATCFID": "EP162026", "NAME": "ODALYS", "FTECH": "OFCL", "FCST_DTG": "2026-09-27 18:00:00", "RUN_DTG": "2026-09-28 11:09:40", "BASIN": "EP", "STMNR": 16, "CAT_ID": null, "CAT_DESC": null, "MSGID": "WTPZ21 KNHC 272037", "VALIDTIME": "2026-09-27 00:00:00" }, "geometry": { "type": "Point", "coordinates": [ -123.599998, 20.799999 ] } },
{ "type": "Feature", "properties": { "ID": 104679, "LAT": 21.6, "LON": -123.5, "VMAX": 70.0, "MSLP": 982.0, "RMAX": 10.0, "FSPD": 4.1431, "FDIR": 6.61087, "RENV": 190.0, "PENV": 1009.0, "VALIDT": 0, "DTG": "2026-09-27 06:00", "LATNOW": 22.7, "LONNOW": -123.2, "WINDNOW": 40.0, "DIRNOW": 1.0, "SPDNOW": 1.0, "TECH": "TRAK", "ADVNR": 32, "ATCFID": "EP162026", "NAME": "ODALYS", "FTECH": "OFCL", "FCST_DTG": "2026-09-27 18:00:00", "RUN_DTG": "2026-09-28 11:09:40", "BASIN": "EP", "STMNR": 16, "CAT_ID": null, "CAT_DESC": null, "MSGID": "WTPZ21 KNHC 272037", "VALIDTIME": "2026-09-27 06:00:00" }, "geometry": { "type": "Point", "coordinates": [ -123.5, 21.6 ] } },
{ "type": "Feature", "properties": { "ID": 104680, "LAT": 22.4, "LON": -123.4, "VMAX": 55.0, "MSLP": 992.0, "RMAX": 15.0, "FSPD": 1.81242, "FDIR": 31.62094, "RENV": 190.0, "PENV": 1009.0, "VALIDT": 0, "DTG": "2026-09-27 12:00", "LATNOW": 22.7, "LONNOW": -123.2, "WINDNOW": 40.0, "DIRNOW": 1.0, "SPDNOW": 1.0, "TECH": "TRAK", "ADVNR": 32, "ATCFID": "EP162026", "NAME": "ODALYS", "FTECH": "OFCL", "FCST_DTG": "2026-09-27 18:00:00", "RUN_DTG": "2026-09-28 11:09:40", "BASIN": "EP", "STMNR": 16, "CAT_ID": null, "CAT_DESC": null, "MSGID": "WTPZ21 KNHC 272037", "VALIDTIME": "2026-09-27 12:00:00" }, "geometry": { "type": "Point", "coordinates": [ -123.400002, 22.4 ] } },
{ "type": "Feature", "properties": { "ID": 104681, "LAT": 22.7, "LON": -123.2, "VMAX": 40.0, "MSLP": 1000.0, "RMAX": 25.0, "FSPD": 1.39959, "FDIR": 42.68228, "RENV": 190.0, "PENV": 1009.0, "VALIDT": 0, "DTG": "2026-09-27 18:00", "LATNOW": 22.7, "LONNOW": -123.2, "WINDNOW": 40.0, "DIRNOW": 1.0, "SPDNOW": 1.0, "TECH": "TRAK", "ADVNR": 32, "ATCFID": "EP162026", "NAME": "ODALYS", "FTECH": "OFCL", "FCST_DTG": "2026-09-27 18:00:00", "RUN_DTG": "2026-09-28 11:09:40", "BASIN": "EP", "STMNR": 16, "CAT_ID": null, "CAT_DESC": null, "MSGID": "WTPZ21 KNHC 272037", "VALIDTIME": "2026-09-27 18:00:00" }, "geometry": { "type": "Point", "coordinates": [ -123.199997, 22.700001 ] } },
{ "type": "Feature", "properties": { "ID": 104682, "LAT": 22.8, "LON": -123.1, "VMAX": 40.0, "MSLP": 1000.0, "RMAX": 25.0, "FSPD": 0.71914, "FDIR": 61.5162, "RENV": 180.0, "PENV": 1012.0, "VALIDT": 3, "DTG": "2026-09-27 21:00", "LATNOW": 22.7, "LONNOW": -123.2, "WINDNOW": 40.0, "DIRNOW": 1.0, "SPDNOW": 1.0, "TECH": "FCST", "ADVNR": 32, "ATCFID": "EP162026", "NAME": "ODALYS", "FTECH": "OFCL", "FCST_DTG": "2026-09-27 18:00:00", "RUN_DTG": "2026-09-28 11:09:40", "BASIN": "EP", "STMNR": 16, "CAT_ID": null, "CAT_DESC": null, "MSGID": "WTPZ21 KNHC 272037", "VALIDTIME": "2026-09-27 21:00:00" }, "geometry": { "type": "Point", "coordinates": [ -123.099998, 22.799999 ] } },
{ "type": "Feature", "properties": { "ID": 104683, "LAT": 22.9, "LON": -122.9, "VMAX": 30.0, "MSLP": 1010.40607, "RMAX": 29.50443, "FSPD": 1.39985, "FDIR": 137.3071, "RENV": 250.0, "PENV": 1012.0, "VALIDT": 12, "DTG": "2026-09-28 06:00", "LATNOW": 22.7, "LONNOW": -123.2, "WINDNOW": 40.0, "DIRNOW": 1.0, "SPDNOW": 1.0, "TECH": "FCST", "ADVNR": 32, "ATCFID": "EP162026", "NAME": "ODALYS", "FTECH": "OFCL", "FCST_DTG": "2026-09-27 18:00:00", "RUN_DTG": "2026-09-28 11:09:40", "BASIN": "EP", "STMNR": 16, "CAT_ID": null, "CAT_DESC": null, "MSGID": "WTPZ21 KNHC 272037", "VALIDTIME": "2026-09-28 06:00:00" }, "geometry": { "type": "Point", "coordinates": [ -122.900002, 22.9 ] } },
{ "type": "Feature", "properties": { "ID": 104684, "LAT": 22.5, "LON": -122.5, "VMAX": 25.0, "MSLP": 1011.80975, "RMAX": 30.02497, "FSPD": 3.09588, "FDIR": 184.42117, "RENV": 250.0, "PENV": 1012.0, "VALIDT": 24, "DTG": "2026-09-28 18:00", "LATNOW": 22.7, "LONNOW": -123.2, "WINDNOW": 40.0, "DIRNOW": 1.0, "SPDNOW": 1.0, "TECH": "FCST", "ADVNR": 32, "ATCFID": "EP162026", "NAME": "ODALYS", "FTECH": "OFCL", "FCST_DTG": "2026-09-27 18:00:00", "RUN_DTG": "2026-09-28 11:09:40", "BASIN": "EP", "STMNR": 16, "CAT_ID": null, "CAT_DESC": null, "MSGID": "WTPZ21 KNHC 272037", "VALIDTIME": "2026-09-28 18:00:00" }, "geometry": { "type": "Point", "coordinates": [ -122.5, 22.5 ] } },
{ "type": "Feature", "properties": { "ID": 104685, "LAT": 21.3, "LON": -122.6, "VMAX": 25.0, "MSLP": 1011.80975, "RMAX": 30.02497, "FSPD": 2.92001, "FDIR": 194.30766, "RENV": 250.0, "PENV": 1012.0, "VALIDT": 36, "DTG": "2026-09-29 06:00", "LATNOW": 22.7, "LONNOW": -123.2, "WINDNOW": 40.0, "DIRNOW": 1.0, "SPDNOW": 1.0, "TECH": "FCST", "ADVNR": 32, "ATCFID": "EP162026", "NAME": "ODALYS", "FTECH": "OFCL", "FCST_DTG": "2026-09-27 18:00:00", "RUN_DTG": "2026-09-28 11:09:40", "BASIN": "EP", "STMNR": 16, "CAT_ID": null, "CAT_DESC": null, "MSGID": "WTPZ21 KNHC 272037", "VALIDTIME": "2026-09-29 06:00:00" }, "geometry": { "type": "Point", "coordinates": [ -122.599998, 21.299999 ] } },
{ "type": "Feature", "properties": { "ID": 104686, "LAT": 20.2, "LON": -122.9, "VMAX": 25.0, "MSLP": 1011.80975, "RMAX": 30.02497, "FSPD": 2.04415, "FDIR": 208.25703, "RENV": 250.0, "PENV": 1012.0, "VALIDT": 48, "DTG": "2026-09-29 18:00", "LATNOW": 22.7, "LONNOW": -123.2, "WINDNOW": 40.0, "DIRNOW": 1.0, "SPDNOW": 1.0, "TECH": "FCST", "ADVNR": 32, "ATCFID": "EP162026", "NAME": "ODALYS", "FTECH": "OFCL", "FCST_DTG": "2026-09-27 18:00:00", "RUN_DTG": "2026-09-28 11:09:40", "BASIN": "EP", "STMNR": 16, "CAT_ID": null, "CAT_DESC": null, "MSGID": "WTPZ21 KNHC 272037", "VALIDTIME": "2026-09-29 18:00:00" }, "geometry": { "type": "Point", "coordinates": [ -122.900002, 20.200001 ] } },
{ "type": "Feature", "properties": { "ID": 104687, "LAT": 19.5, "LON": -123.3, "VMAX": 20.0, "MSLP": 1012.95825, "RMAX": 30.02497, "FSPD": 2.04415, "FDIR": 208.25703, "RENV": 250.0, "PENV": 1012.0, "VALIDT": 60, "DTG": "2026-09-30 06:00", "LATNOW": 22.7, "LONNOW": -123.2, "WINDNOW": 40.0, "DIRNOW": 1.0, "SPDNOW": 1.0, "TECH": "FCST", "ADVNR": 32, "ATCFID": "EP162026", "NAME": "ODALYS", "FTECH": "OFCL", "FCST_DTG": "2026-09-27 18:00:00", "RUN_DTG": "2026-09-28 11:09:40", "BASIN": "EP", "STMNR": 16, "CAT_ID": null, "CAT_DESC": null, "MSGID": "WTPZ21 KNHC 272037", "VALIDTIME": "2026-09-30 06:00:00" }, "geometry": { "type": "Point", "coordinates": [ -123.300003, 19.5 ] } },
{ "type": "Feature", "properties": { "ID": 104681, "LAT": 22.7, "LON": -123.2, "VMAX": 40.0, "MSLP": 1000.0, "RMAX": 25.0, "FSPD": 1.39959, "FDIR": 42.68228, "RENV": 190.0, "PENV": 1009.0, "VALIDT": 0, "DTG": "2026-09-27 18:00", "LATNOW": 22.7, "LONNOW": -123.2, "WINDNOW": 40.0, "DIRNOW": 1.0, "SPDNOW": 1.0, "TECH": "TRAK", "ADVNR": 32, "ATCFID": "EP162026", "NAME": "ODALYS", "FTECH": "OFCL", "FCST_DTG": "2026-09-27 18:00:00", "RUN_DTG": "2026-09-28 11:09:40", "BASIN": "EP", "STMNR": 16, "CAT_ID": null, "CAT_DESC": null, "MSGID": "WTPZ21 KNHC 272037", "VALIDTIME": "2026-09-27 18:00:00" }, "geometry": { "type": "LineString", "coordinates": [ [ -115.5, 11.5 ], [ -116.1, 11.5 ], [ -117.3, 12.2 ], [ -118.0, 12.0 ], [ -117.9, 11.4 ], [ -118.4, 11.8 ], [ -119.7, 12.1 ], [ -121.5, 11.4 ], [ -122.5, 11.2 ], [ -123.5, 11.3 ], [ -124.2, 11.2 ], [ -125.2, 11.1 ], [ -126.2, 11.5 ], [ -127.3, 12.8 ], [ -128.3, 13.3 ], [ -129.1, 13.7 ], [ -129.7, 13.8 ], [ -130.4, 14.5 ], [ -130.5, 14.5 ], [ -130.5, 14.8 ], [ -130.4, 15.0 ], [ -129.4, 15.3 ], [ -128.7, 15.8 ], [ -128.2, 15.9 ], [ -127.5, 15.5 ], [ -126.9, 15.6 ], [ -126.3, 15.9 ], [ -125.8, 16.2 ], [ -125.1, 16.6 ], [ -124.4, 16.9 ], [ -124.1, 17.3 ], [ -123.8, 17.7 ], [ -123.6, 18.0 ], [ -123.7, 18.6 ], [ -123.8, 18.8 ], [ -123.7, 19.5 ], [ -123.6, 20.2 ], [ -123.6, 20.8 ], [ -123.5, 21.6 ], [ -123.4, 22.4 ], [ -123.2, 22.7 ] ] } },
{ "type": "Feature", "properties": { "ID": 104687, "LAT": 19.5, "LON": -123.3, "VMAX": 20.0, "MSLP": 1012.95825, "RMAX": 30.02497, "FSPD": 2.04415, "FDIR": 208.25703, "RENV": 250.0, "PENV": 1012.0, "VALIDT": 60, "DTG": "2026-09-30 06:00", "LATNOW": 22.7, "LONNOW": -123.2, "WINDNOW": 40.0, "DIRNOW": 1.0, "SPDNOW": 1.0, "TECH": "FCST", "ADVNR": 32, "ATCFID": "EP162026", "NAME": "ODALYS", "FTECH": "OFCL", "FCST_DTG": "2026-09-27 18:00:00", "RUN_DTG": "2026-09-28 11:09:40", "BASIN": "EP", "STMNR": 16, "CAT_ID": null, "CAT_DESC": null, "MSGID": "WTPZ21 KNHC 272037", "VALIDTIME": "2026-09-30 06:00:00" }, "geometry": { "type": "LineString", "coordinates": [ [ -123.2, 22.7 ], [ -123.1, 22.8 ], [ -122.9, 22.9 ], [ -122.5, 22.5 ], [ -122.6, 21.3 ], [ -122.9, 20.2 ], [ -123.3, 19.5 ] ] } }
]
}
