{
"type": "FeatureCollection",
"crs": { "type": "name", "properties": { "name": "urn:ogc:def:crs:OGC:1.3:CRS84" } },
"features": [
{ "type": "Feature", "properties": { "ID": 270041, "LAT": 10.1, "LON": -24.1, "VMAX": 25.0, "MSLP": 1008.0, "RMAX": 90.0, "FSPD": 1.60392, "FDIR": 288.70773, "RENV": 150.0, "PENV": 1010.0, "VALIDT": 0, "DTG": "2024-09-30 18:00", "LATNOW": 32.4, "LONNOW": -44.9, "WINDNOW": 45.0, "DIRNOW": 16.0, "SPDNOW": 1.0, "TECH": "TRAK", "ADVNR": 41, "ATCFID": "AL132024", "NAME": "LESLIE", "FTECH": "OFCL", "FCST_DTG": "2024-10-12 12:00:00", "RUN_DTG": "2024-10-12 15:10:18", "BASIN": "AL", "STMNR": 13, "CAT_ID": null, "CAT_DESC": null, "MSGID": "WTNT23 KNHC 121439", "VALIDTIME": "2024-09-30 18:00:00" }, "geometry": { "type": "Point", "coordinates": [ -24.1, 10.1 ] } },
{ "type": "Feature", "properties": { "ID": 270042, "LAT": 10.2, "LON": -24.4, "VMAX": 25.0, "MSLP": 1008.0, "RMAX": 70.0, "FSPD": 2.53157, "FDIR": 269.99997, "RENV": 150.0, "PENV": 1010.0, "VALIDT": 0, "DTG": "2024-10-01 00:00", "LATNOW": 32.4, "LONNOW": -44.9, "WINDNOW": 45.0, "DIRNOW": 16.0, "SPDNOW": 1.0, "TECH": "TRAK", "ADVNR": 41, "ATCFID": "AL132024", "NAME": "LESLIE", "FTECH": "OFCL", "FCST_DTG": "2024-10-12 12:00:00", "RUN_DTG": "2024-10-12 15:10:18", "BASIN": "AL", "STMNR": 13, "CAT_ID": null, "CAT_DESC": null, "MSGID": "WTNT23 KNHC 121439", "VALIDTIME": "2024-10-01 00:00:00" }, "geometry": { "type": "Point", "coordinates": [ -24.4, 10.2 ] } },
{ "type": "Feature", "properties": { "ID": 270043, "LAT": 10.2, "LON": -24.9, "VMAX": 25.0, "MSLP": 1007.0, "RMAX": 70.0, "FSPD": 4.09633, "FDIR": 300.15543, "RENV": 150.0, "PENV": 1009.0, "VALIDT": 0, "DTG": "2024-10-01 06:00", "LATNOW": 32.4, "LONNOW": -44.9, "WINDNOW": 45.0, "DIRNOW": 16.0, "SPDNOW": 1.0, "TECH": "TRAK", "ADVNR": 41, "ATCFID": "AL132024", "NAME": "LESLIE", "FTECH": "OFCL", "FCST_DTG": "2024-10-12 12:00:00", "RUN_DTG": "2024-10-12 15:10:18", "BASIN": "AL", "STMNR": 13, "CAT_ID": null, "CAT_DESC": null, "MSGID": "WTNT23 KNHC 121439", "VALIDTIME": "2024-10-01 06:00:00" }, "geometry": { "type": "Point", "coordinates": [ -24.9, 10.2 ] } },
{ "type": "Feature", "properties": { "ID": 270044, "LAT": 10.6, "LON": -25.6, "VMAX": 25.0, "MSLP": 1007.0, "RMAX": 50.0, "FSPD": 1.51699, "FDIR": 269.99997, "RENV": 100.0, "PENV": 1010.0, "VALIDT": 0, "DTG": "2024-10-01 12:00", "LATNOW": 32.4, "LONNOW": -44.9, "WINDNOW": 45.0, "DIRNOW": 16.0, "SPDNOW": 1.0, "TECH": "TRAK", "ADVNR": 41, "ATCFID": "AL132024", "NAME": "LESLIE", "FTECH": "OFCL", "FCST_DTG": "2024-10-12 12:00:00", "RUN_DTG": "2024-10-12 15:10:18", "BASIN": "AL", "STMNR": 13, "CAT_ID": null, "CAT_DESC": null, "MSGID": "WTNT23 KNHC 121439", "VALIDTIME": "2024-10-01 12:00:00" }, "geometry": { "type": "Point", "coordinates": [ -25.6, 10.6 ] } },
{ "type": "Feature", "properties": { "ID": 270045, "LAT": 10.6, "LON": -25.9, "VMAX": 30.0, "MSLP": 1007.0, "RMAX": 60.0, "FSPD": 4.07725, "FDIR": 277.24854, "RENV": 100.0, "PENV": 1010.0, "VALIDT": 0, "DTG": "2024-10-01 18:00", "LATNOW": 32.4, "LONNOW": -44.9, "WINDNOW": 45.0, "DIRNOW": 16.0, "SPDNOW": 1.0, "TECH": "TRAK", "ADVNR": 41, "ATCFID": "AL132024", "NAME": "LESLIE", "FTECH": "OFCL", "FCST_DTG": "2024-10-12 12:00:00", "RUN_DTG": "2024-10-12 15:10:18", "BASIN": "AL", "STMNR": 13, "CAT_ID": null, "CAT_DESC": null, "MSGID": "WTNT23 KNHC 121439", "VALIDTIME": "2024-10-01 18:00:00" }, "geometry": { "type": "Point", "coordinates": [ -25.9, 10.6 ] } },
{ "type": "Feature", "properties": { "ID": 270046, "LAT": 10.7, "LON": -26.7, "VMAX": 30.0, "MSLP": 1007.0, "RMAX": 60.0, "FSPD": 5.08193, "FDIR": 264.19, "RENV": 100.0, "PENV": 1010.0, "VALIDT": 0, "DTG": "2024-10-02 00:00", "LATNOW": 32.4, "LONNOW": -44.9, "WINDNOW": 45.0, "DIRNOW": 16.0, "SPDNOW": 1.0, "TECH": "TRAK", "ADVNR": 41, "ATCFID": "AL132024", "NAME": "LESLIE", "FTECH": "OFCL", "FCST_DTG": "2024-10-12 12:00:00", "RUN_DTG": "2024-10-12 15:10:18", "BASIN": "AL", "STMNR": 13, "CAT_ID": null, "CAT_DESC": null, "MSGID": "WTNT23 KNHC 121439", "VALIDTIME": "2024-10-02 00:00:00" }, "geometry": { "type": "Point", "coordinates": [ -26.700001, 10.7 ] } },
{ "type": "Feature", "properties": { "ID": 270047, "LAT": 10.6, "LON": -27.7, "VMAX": 30.0, "MSLP": 1007.0, "RMAX": 60.0, "FSPD": 5.56231, "FDIR": 269.99997, "RENV": 110.0, "PENV": 1010.0, "VALIDT": 0, "DTG": "2024-10-02 06:00", "LATNOW": 32.4, "LONNOW": -44.9, "WINDNOW": 45.0, "DIRNOW": 16.0, "SPDNOW": 1.0, "TECH": "TRAK", "ADVNR": 41, "ATCFID": "AL132024", "NAME": "LESLIE", "FTECH": "OFCL", "FCST_DTG": "2024-10-12 12:00:00", "RUN_DTG": "2024-10-12 15:10:18", "BASIN": "AL", "STMNR": 13, "CAT_ID": null, "CAT_DESC": null, "MSGID": "WTNT23 KNHC 121439", "VALIDTIME": "2024-10-02 06:00:00" }, "geometry": { "type": "Point", "coordinates": [ -27.700001, 10.6 ] } },
{ "type": "Feature", "properties": { "ID": 270048, "LAT": 10.6, "LON": -28.8, "VMAX": 30.0, "MSLP": 1006.0, "RMAX": 50.0, "FSPD": 2.58054, "FDIR": 258.50067, "RENV": 120.0, "PENV": 1010.0, "VALIDT": 0, "DTG": "2024-10-02 12:00", "LATNOW": 32.4, "LONNOW": -44.9, "WINDNOW": 45.0, "DIRNOW": 16.0, "SPDNOW": 1.0, "TECH": "TRAK", "ADVNR": 41, "ATCFID": "AL132024", "NAME": "LESLIE", "FTECH": "OFCL", "FCST_DTG": "2024-10-12 12:00:00", "RUN_DTG": "2024-10-12 15:10:18", "BASIN": "AL", "STMNR": 13, "CAT_ID": null, "CAT_DESC": null, "MSGID": "WTNT23 KNHC 121439", "VALIDTIME": "2024-10-02 12:00:00" }, "geometry": { "type": "Point", "coordinates": [ -28.799999, 10.6 ] } },
{ "type": "Feature", "properties": { "ID": 270049, "LAT": 10.5, "LON": -29.3, "VMAX": 30.0, "MSLP": 1006.0, "RMAX": 50.0, "FSPD": 2.58134, "FDIR": 258.50427, "RENV": 120.0, "PENV": 1010.0, "VALIDT": 0, "DTG": "2024-10-02 18:00", "LATNOW": 32.4, "LONNOW": -44.9, "WINDNOW": 45.0, "DIRNOW": 16.0, "SPDNOW": 1.0, "TECH": "TRAK", "ADVNR": 41, "ATCFID": "AL132024", "NAME": "LESLIE", "FTECH": "OFCL", "FCST_DTG": "2024-10-12 12:00:00", "RUN_DTG": "2024-10-12 15:10:18", "BASIN": "AL", "STMNR": 13, "CAT_ID": null, "CAT_DESC": null, "MSGID": "WTNT23 KNHC 121439", "VALIDTIME": "2024-10-02 18:00:00" }, "geometry": { "type": "Point", "coordinates": [ -29.299999, 10.5 ] } },
{ "type": "Feature", "properties": { "ID": 270050, "LAT": 10.4, "LON": -29.8, "VMAX": 35.0, "MSLP": 1005.0, "RMAX": 40.0, "FSPD": 2.08865, "FDIR": 255.74107, "RENV": 120.0, "PENV": 1010.0, "VALIDT": 0, "DTG": "2024-10-03 00:00", "LATNOW": 32.4, "LONNOW": -44.9, "WINDNOW": 45.0, "DIRNOW": 16.0, "SPDNOW": 1.0, "TECH": "TRAK", "ADVNR": 41, "ATCFID": "AL132024", "NAME": "LESLIE", "FTECH": "OFCL", "FCST_DTG": "2024-10-12 12:00:00", "RUN_DTG": "2024-10-12 15:10:18", "BASIN": "AL", "STMNR": 13, "CAT_ID": null, "CAT_DESC": null, "MSGID": "WTNT23 KNHC 121439", "VALIDTIME": "2024-10-03 00:00:00" }, "geometry": { "type": "Point", "coordinates": [ -29.799999, 10.4 ] } },
{ "type": "Feature", "properties": { "ID": 270051, "LAT": 10.3, "LON": -30.2, "VMAX": 35.0, "MSLP": 1005.0, "RMAX": 40.0, "FSPD": 2.27162, "FDIR": 243.06807, "RENV": 120.0, "PENV": 1010.0, "VALIDT": 0, "DTG": "2024-10-03 06:00", "LATNOW": 32.4, "LONNOW": -44.9, "WINDNOW": 45.0, "DIRNOW": 16.0, "SPDNOW": 1.0, "TECH": "TRAK", "ADVNR": 41, "ATCFID": "AL132024", "NAME": "LESLIE", "FTECH": "OFCL", "FCST_DTG": "2024-10-12 12:00:00", "RUN_DTG": "2024-10-12 15:10:18", "BASIN": "AL", "STMNR": 13, "CAT_ID": null, "CAT_DESC": null, "MSGID": "WTNT23 KNHC 121439", "VALIDTIME": "2024-10-03 06:00:00" }, "geometry": { "type": "Point", "coordinates": [ -30.200001, 10.3 ] } },
{ "type": "Feature", "properties": { "ID": 270052, "LAT": 10.1, "LON": -30.6, "VMAX": 40.0, "MSLP": 1002.0, "RMAX": 40.0, "FSPD": 3.03884, "FDIR": 269.99997, "RENV": 120.0, "PENV": 1012.0, "VALIDT": 0, "DTG": "2024-10-03 12:00", "LATNOW": 32.4, "LONNOW": -44.9, "WINDNOW": 45.0, "DIRNOW": 16.0, "SPDNOW": 1.0, "TECH": "TRAK", "ADVNR": 41, "ATCFID": "AL132024", "NAME": "LESLIE", "FTECH": "OFCL", "FCST_DTG": "2024-10-12 12:00:00", "RUN_DTG": "2024-10-12 15:10:18", "BASIN": "AL", "STMNR": 13, "CAT_ID": null, "CAT_DESC": null, "MSGID": "WTNT23 KNHC 121439", "VALIDTIME": "2024-10-03 12:00:00" }, "geometry": { "type": "Point", "coordinates": [ -30.6, 10.1 ] } },
{ "type": "Feature", "properties": { "ID": 270053, "LAT": 10.1, "LON": -31.2, "VMAX": 45.0, "MSLP": 1001.0, "RMAX": 30.0, "FSPD": 2.73413, "FDIR": 247.89435, "RENV": 120.0, "PENV": 1011.0, "VALIDT": 0, "DTG": "2024-10-03 18:00", "LATNOW": 32.4, "LONNOW": -44.9, "WINDNOW": 45.0, "DIRNOW": 16.0, "SPDNOW": 1.0, "TECH": "TRAK", "ADVNR": 41, "ATCFID": "AL132024", "NAME": "LESLIE", "FTECH": "OFCL", "FCST_DTG": "2024-10-12 12:00:00", "RUN_DTG": "2024-10-12 15:10:18", "BASIN": "AL", "STMNR": 13, "CAT_ID": null, "CAT_DESC": null, "MSGID": "WTNT23 KNHC 121439", "VALIDTIME": "2024-10-03 18:00:00" }, "geometry": { "type": "Point", "coordinates": [ -31.200001, 10.1 ] } },
{ "type": "Feature", "properties": { "ID": 270054, "LAT": 9.9, "LON": -31.7, "VMAX": 45.0, "MSLP": 1001.0, "RMAX": 30.0, "FSPD": 2.73555, "FDIR": 247.9066, "RENV": 120.0, "PENV": 1011.0, "VALIDT": 0, "DTG": "2024-10-04 00:00", "LATNOW": 32.4, "LONNOW": -44.9, "WINDNOW": 45.0, "DIRNOW": 16.0, "SPDNOW": 1.0, "TECH": "TRAK", "ADVNR": 41, "ATCFID": "AL132024", "NAME": "LESLIE", "FTECH": "OFCL", "FCST_DTG": "2024-10-12 12:00:00", "RUN_DTG": "2024-10-12 15:10:18", "BASIN": "AL", "STMNR": 13, "CAT_ID": null, "CAT_DESC": null, "MSGID": "WTNT23 KNHC 121439", "VALIDTIME": "2024-10-04 00:00:00" }, "geometry": { "type": "Point", "coordinates": [ -31.700001, 9.9 ] } },
{ "type": "Feature", "properties": { "ID": 270055, "LAT": 9.7, "LON": -32.2, "VMAX": 50.0, "MSLP": 997.0, "RMAX": 25.0, "FSPD": 2.73555, "FDIR": 292.09332, "RENV": 240.0, "PENV": 1011.0, "VALIDT": 0, "DTG": "2024-10-04 06:00", "LATNOW": 32.4, "LONNOW": -44.9, "WINDNOW": 45.0, "DIRNOW": 16.0, "SPDNOW": 1.0, "TECH": "TRAK", "ADVNR": 41, "ATCFID": "AL132024", "NAME": "LESLIE", "FTECH": "OFCL", "FCST_DTG": "2024-10-12 12:00:00", "RUN_DTG": "2024-10-12 15:10:18", "BASIN": "AL", "STMNR": 13, "CAT_ID": null, "CAT_DESC": null, "MSGID": "WTNT23 KNHC 121439", "VALIDTIME": "2024-10-04 06:00:00" }, "geometry": { "type": "Point", "coordinates": [ -32.200001, 9.7 ] } },
{ "type": "Feature", "properties": { "ID": 270056, "LAT": 9.9, "LON": -32.7, "VMAX": 55.0, "MSLP": 996.0, "RMAX": 20.0, "FSPD": 3.4087, "FDIR": 296.92114, "RENV": 240.0, "PENV": 1013.0, "VALIDT": 0, "DTG": "2024-10-04 12:00", "LATNOW": 32.4, "LONNOW": -44.9, "WINDNOW": 45.0, "DIRNOW": 16.0, "SPDNOW": 1.0, "TECH": "TRAK", "ADVNR": 41, "ATCFID": "AL132024", "NAME": "LESLIE", "FTECH": "OFCL", "FCST_DTG": "2024-10-12 12:00:00", "RUN_DTG": "2024-10-12 15:10:18", "BASIN": "AL", "STMNR": 13, "CAT_ID": null, "CAT_DESC": null, "MSGID": "WTNT23 KNHC 121439", "VALIDTIME": "2024-10-04 12:00:00" }, "geometry": { "type": "Point", "coordinates": [ -32.700001, 9.9 ] } },
{ "type": "Feature", "properties": { "ID": 270057, "LAT": 10.2, "LON": -33.3, "VMAX": 60.0, "MSLP": 993.0, "RMAX": 20.0, "FSPD": 3.08067, "FDIR": 279.6129, "RENV": 210.0, "PENV": 1011.0, "VALIDT": 0, "DTG": "2024-10-04 18:00", "LATNOW": 32.4, "LONNOW": -44.9, "WINDNOW": 45.0, "DIRNOW": 16.0, "SPDNOW": 1.0, "TECH": "TRAK", "ADVNR": 41, "ATCFID": "AL132024", "NAME": "LESLIE", "FTECH": "OFCL", "FCST_DTG": "2024-10-12 12:00:00", "RUN_DTG": "2024-10-12 15:10:18", "BASIN": "AL", "STMNR": 13, "CAT_ID": null, "CAT_DESC": null, "MSGID": "WTNT23 KNHC 121439", "VALIDTIME": "2024-10-04 18:00:00" }, "geometry": { "type": "Point", "coordinates": [ -33.299999, 10.2 ] } },
{ "type": "Feature", "properties": { "ID": 270058, "LAT": 10.3, "LON": -33.9, "VMAX": 65.0, "MSLP": 989.0, "RMAX": 10.0, "FSPD": 3.20556, "FDIR": 288.72156, "RENV": 210.0, "PENV": 1011.0, "VALIDT": 0, "DTG": "2024-10-05 00:00", "LATNOW": 32.4, "LONNOW": -44.9, "WINDNOW": 45.0, "DIRNOW": 16.0, "SPDNOW": 1.0, "TECH": "TRAK", "ADVNR": 41, "ATCFID": "AL132024", "NAME": "LESLIE", "FTECH": "OFCL", "FCST_DTG": "2024-10-12 12:00:00", "RUN_DTG": "2024-10-12 15:10:18", "BASIN": "AL", "STMNR": 13, "CAT_ID": null, "CAT_DESC": null, "MSGID": "WTNT23 KNHC 121439", "VALIDTIME": "2024-10-05 00:00:00" }, "geometry": { "type": "Point", "coordinates": [ -33.900002, 10.3 ] } },
{ "type": "Feature", "properties": { "ID": 270059, "LAT": 10.5, "LON": -34.5, "VMAX": 70.0, "MSLP": 985.0, "RMAX": 10.0, "FSPD": 3.25925, "FDIR": 309.15094, "RENV": 240.0, "PENV": 1011.0, "VALIDT": 0, "DTG": "2024-10-05 06:00", "LATNOW": 32.4, "LONNOW": -44.9, "WINDNOW": 45.0, "DIRNOW": 16.0, "SPDNOW": 1.0, "TECH": "TRAK", "ADVNR": 41, "ATCFID": "AL132024", "NAME": "LESLIE", "FTECH": "OFCL", "FCST_DTG": "2024-10-12 12:00:00", "RUN_DTG": "2024-10-12 15:10:18", "BASIN": "AL", "STMNR": 13, "CAT_ID": null, "CAT_DESC": null, "MSGID": "WTNT23 KNHC 121439", "VALIDTIME": "2024-10-05 06:00:00" }, "geometry": { "type": "Point", "coordinates": [ -34.5, 10.5 ] } },
{ "type": "Feature", "properties": { "ID": 270060, "LAT": 10.9, "LON": -35.0, "VMAX": 70.0, "MSLP": 985.0, "RMAX": 10.0, "FSPD": 4.37029, "FDIR": 306.0556, "RENV": 240.0, "PENV": 1011.0, "VALIDT": 0, "DTG": "2024-10-05 12:00", "LATNOW": 32.4, "LONNOW": -44.9, "WINDNOW": 45.0, "DIRNOW": 16.0, "SPDNOW": 1.0, "TECH": "TRAK", "ADVNR": 41, "ATCFID": "AL132024", "NAME": "LESLIE", "FTECH": "OFCL", "FCST_DTG": "2024-10-12 12:00:00", "RUN_DTG": "2024-10-12 15:10:18", "BASIN": "AL", "STMNR": 13, "CAT_ID": null, "CAT_DESC": null, "MSGID": "WTNT23 KNHC 121439", "VALIDTIME": "2024-10-05 12:00:00" }, "geometry": { "type": "Point", "coordinates": [ -35.0, 10.9 ] } },
{ "type": "Feature", "properties": { "ID": 270061, "LAT": 11.4, "LON": -35.7, "VMAX": 70.0, "MSLP": 985.0, "RMAX": 10.0, "FSPD": 5.78929, "FDIR": 308.4646, "RENV": 240.0, "PENV": 1011.0, "VALIDT": 0, "DTG": "2024-10-05 18:00", "LATNOW": 32.4, "LONNOW": -44.9, "WINDNOW": 45.0, "DIRNOW": 16.0, "SPDNOW": 1.0, "TECH": "TRAK", "ADVNR": 41, "ATCFID": "AL132024", "NAME": "LESLIE", "FTECH": "OFCL", "FCST_DTG": "2024-10-12 12:00:00", "RUN_DTG": "2024-10-12 15:10:18", "BASIN": "AL", "STMNR": 13, "CAT_ID": null, "CAT_DESC": null, "MSGID": "WTNT23 KNHC 121439", "VALIDTIME": "2024-10-05 18:00:00" }, "geometry": { "type": "Point", "coordinates": [ -35.700001, 11.4 ] } },
{ "type": "Feature", "properties": { "ID": 270062, "LAT": 12.1, "LON": -36.6, "VMAX": 70.0, "MSLP": 985.0, "RMAX": 10.0, "FSPD": 3.59583, "FDIR": 315.67065, "RENV": 240.0, "PENV": 1011.0, "VALIDT": 0, "DTG": "2024-10-06 00:00", "LATNOW": 32.4, "LONNOW": -44.9, "WINDNOW": 45.0, "DIRNOW": 16.0, "SPDNOW": 1.0, "TECH": "TRAK", "ADVNR": 41, "ATCFID": "AL132024", "NAME": "LESLIE", "FTECH": "OFCL", "FCST_DTG": "2024-10-12 12:00:00", "RUN_DTG": "2024-10-12 15:10:18", "BASIN": "AL", "STMNR": 13, "CAT_ID": null, "CAT_DESC": null, "MSGID": "WTNT23 KNHC 121439", "VALIDTIME": "2024-10-06 00:00:00" }, "geometry": { "type": "Point", "coordinates": [ -36.599998, 12.1 ] } },
{ "type": "Feature", "properties": { "ID": 270063, "LAT": 12.6, "LON": -37.1, "VMAX": 70.0, "MSLP": 985.0, "RMAX": 10.0, "FSPD": 3.24438, "FDIR": 309.365, "RENV": 240.0, "PENV": 1011.0, "VALIDT": 0, "DTG": "2024-10-06 06:00", "LATNOW": 32.4, "LONNOW": -44.9, "WINDNOW": 45.0, "DIRNOW": 16.0, "SPDNOW": 1.0, "TECH": "TRAK", "ADVNR": 41, "ATCFID": "AL132024", "NAME": "LESLIE", "FTECH": "OFCL", "FCST_DTG": "2024-10-12 12:00:00", "RUN_DTG": "2024-10-12 15:10:18", "BASIN": "AL", "STMNR": 13, "CAT_ID": null, "CAT_DESC": null, "MSGID": "WTNT23 KNHC 121439", "VALIDTIME": "2024-10-06 06:00:00" }, "geometry": { "type": "Point", "coordinates": [ -37.099998, 12.6 ] } },
{ "type": "Feature", "properties": { "ID": 270064, "LAT": 13.0, "LON": -37.6, "VMAX": 80.0, "MSLP": 982.0, "RMAX": 10.0, "FSPD": 4.6891, "FDIR": 320.17242, "RENV": 240.0, "PENV": 1011.0, "VALIDT": 0, "DTG": "2024-10-06 12:00", "LATNOW": 32.4, "LONNOW": -44.9, "WINDNOW": 45.0, "DIRNOW": 16.0, "SPDNOW": 1.0, "TECH": "TRAK", "ADVNR": 41, "ATCFID": "AL132024", "NAME": "LESLIE", "FTECH": "OFCL", "FCST_DTG": "2024-10-12 12:00:00", "RUN_DTG": "2024-10-12 15:10:18", "BASIN": "AL", "STMNR": 13, "CAT_ID": null, "CAT_DESC": null, "MSGID": "WTNT23 KNHC 121439", "VALIDTIME": "2024-10-06 12:00:00" }, "geometry": { "type": "Point", "coordinates": [ -37.599998, 13.0 ] } },
{ "type": "Feature", "properties": { "ID": 270065, "LAT": 13.7, "LON": -38.2, "VMAX": 80.0, "MSLP": 982.0, "RMAX": 10.0, "FSPD": 6.11248, "FDIR": 319.24133, "RENV": 240.0, "PENV": 1011.0, "VALIDT": 0, "DTG": "2024-10-06 18:00", "LATNOW": 32.4, "LONNOW": -44.9, "WINDNOW": 45.0, "DIRNOW": 16.0, "SPDNOW": 1.0, "TECH": "TRAK", "ADVNR": 41, "ATCFID": "AL132024", "NAME": "LESLIE", "FTECH": "OFCL", "FCST_DTG": "2024-10-12 12:00:00", "RUN_DTG": "2024-10-12 15:10:18", "BASIN": "AL", "STMNR": 13, "CAT_ID": null, "CAT_DESC": null, "MSGID": "WTNT23 KNHC 121439", "VALIDTIME": "2024-10-06 18:00:00" }, "geometry": { "type": "Point", "coordinates": [ -38.200001, 13.7 ] } },
{ "type": "Feature", "properties": { "ID": 270066, "LAT": 14.6, "LON": -39.0, "VMAX": 80.0, "MSLP": 980.0, "RMAX": 10.0, "FSPD": 5.85175, "FDIR": 301.8351, "RENV": 180.0, "PENV": 1010.0, "VALIDT": 0, "DTG": "2024-10-07 00:00", "LATNOW": 32.4, "LONNOW": -44.9, "WINDNOW": 45.0, "DIRNOW": 16.0, "SPDNOW": 1.0, "TECH": "TRAK", "ADVNR": 41, "ATCFID": "AL132024", "NAME": "LESLIE", "FTECH": "OFCL", "FCST_DTG": "2024-10-12 12:00:00", "RUN_DTG": "2024-10-12 15:10:18", "BASIN": "AL", "STMNR": 13, "CAT_ID": null, "CAT_DESC": null, "MSGID": "WTNT23 KNHC 121439", "VALIDTIME": "2024-10-07 00:00:00" }, "geometry": { "type": "Point", "coordinates": [ -39.0, 14.6 ] } },
{ "type": "Feature", "properties": { "ID": 270067, "LAT": 15.2, "LON": -40.0, "VMAX": 80.0, "MSLP": 980.0, "RMAX": 10.0, "FSPD": 5.71408, "FDIR": 316.075, "RENV": 180.0, "PENV": 1010.0, "VALIDT": 0, "DTG": "2024-10-07 06:00", "LATNOW": 32.4, "LONNOW": -44.9, "WINDNOW": 45.0, "DIRNOW": 16.0, "SPDNOW": 1.0, "TECH": "TRAK", "ADVNR": 41, "ATCFID": "AL132024", "NAME": "LESLIE", "FTECH": "OFCL", "FCST_DTG": "2024-10-12 12:00:00", "RUN_DTG": "2024-10-12 15:10:18", "BASIN": "AL", "STMNR": 13, "CAT_ID": null, "CAT_DESC": null, "MSGID": "WTNT23 KNHC 121439", "VALIDTIME": "2024-10-07 06:00:00" }, "geometry": { "type": "Point", "coordinates": [ -40.0, 15.2 ] } },
{ "type": "Feature", "properties": { "ID": 270068, "LAT": 16.0, "LON": -40.8, "VMAX": 75.0, "MSLP": 985.0, "RMAX": 10.0, "FSPD": 6.79508, "FDIR": 319.2078, "RENV": 170.0, "PENV": 1011.0, "VALIDT": 0, "DTG": "2024-10-07 12:00", "LATNOW": 32.4, "LONNOW": -44.9, "WINDNOW": 45.0, "DIRNOW": 16.0, "SPDNOW": 1.0, "TECH": "TRAK", "ADVNR": 41, "ATCFID": "AL132024", "NAME": "LESLIE", "FTECH": "OFCL", "FCST_DTG": "2024-10-12 12:00:00", "RUN_DTG": "2024-10-12 15:10:18", "BASIN": "AL", "STMNR": 13, "CAT_ID": null, "CAT_DESC": null, "MSGID": "WTNT23 KNHC 121439", "VALIDTIME": "2024-10-07 12:00:00" }, "geometry": { "type": "Point", "coordinates": [ -40.799999, 16.0 ] } },
{ "type": "Feature", "properties": { "ID": 270069, "LAT": 17.0, "LON": -41.7, "VMAX": 70.0, "MSLP": 988.0, "RMAX": 10.0, "FSPD": 8.19435, "FDIR": 308.8883, "RENV": 170.0, "PENV": 1011.0, "VALIDT": 0, "DTG": "2024-10-07 18:00", "LATNOW": 32.4, "LONNOW": -44.9, "WINDNOW": 45.0, "DIRNOW": 16.0, "SPDNOW": 1.0, "TECH": "TRAK", "ADVNR": 41, "ATCFID": "AL132024", "NAME": "LESLIE", "FTECH": "OFCL", "FCST_DTG": "2024-10-12 12:00:00", "RUN_DTG": "2024-10-12 15:10:18", "BASIN": "AL", "STMNR": 13, "CAT_ID": null, "CAT_DESC": null, "MSGID": "WTNT23 KNHC 121439", "VALIDTIME": "2024-10-07 18:00:00" }, "geometry": { "type": "Point", "coordinates": [ -41.700001, 17.0 ] } },
{ "type": "Feature", "properties": { "ID": 270070, "LAT": 18.0, "LON": -43.0, "VMAX": 65.0, "MSLP": 988.0, "RMAX": 15.0, "FSPD": 4.67899, "FDIR": 303.34906, "RENV": 170.0, "PENV": 1011.0, "VALIDT": 0, "DTG": "2024-10-08 00:00", "LATNOW": 32.4, "LONNOW": -44.9, "WINDNOW": 45.0, "DIRNOW": 16.0, "SPDNOW": 1.0, "TECH": "TRAK", "ADVNR": 41, "ATCFID": "AL132024", "NAME": "LESLIE", "FTECH": "OFCL", "FCST_DTG": "2024-10-12 12:00:00", "RUN_DTG": "2024-10-12 15:10:18", "BASIN": "AL", "STMNR": 13, "CAT_ID": null, "CAT_DESC": null, "MSGID": "WTNT23 KNHC 121439", "VALIDTIME": "2024-10-08 00:00:00" }, "geometry": { "type": "Point", "coordinates": [ -43.0, 18.0 ] } },
{ "type": "Feature", "properties": { "ID": 270071, "LAT": 18.5, "LON": -43.8, "VMAX": 65.0, "MSLP": 988.0, "RMAX": 15.0, "FSPD": 6.8353, "FDIR": 292.10553, "RENV": 170.0, "PENV": 1011.0, "VALIDT": 0, "DTG": "2024-10-08 06:00", "LATNOW": 32.4, "LONNOW": -44.9, "WINDNOW": 45.0, "DIRNOW": 16.0, "SPDNOW": 1.0, "TECH": "TRAK", "ADVNR": 41, "ATCFID": "AL132024", "NAME": "LESLIE", "FTECH": "OFCL", "FCST_DTG": "2024-10-12 12:00:00", "RUN_DTG": "2024-10-12 15:10:18", "BASIN": "AL", "STMNR": 13, "CAT_ID": null, "CAT_DESC": null, "MSGID": "WTNT23 KNHC 121439", "VALIDTIME": "2024-10-08 06:00:00" }, "geometry": { "type": "Point", "coordinates": [ -43.799999, 18.5 ] } },
{ "type": "Feature", "properties": { "ID": 270072, "LAT": 19.0, "LON": -45.1, "VMAX": 60.0, "MSLP": 994.0, "RMAX": 15.0, "FSPD": 6.04383, "FDIR": 306.57208, "RENV": 180.0, "PENV": 1012.0, "VALIDT": 0, "DTG": "2024-10-08 12:00", "LATNOW": 32.4, "LONNOW": -44.9, "WINDNOW": 45.0, "DIRNOW": 16.0, "SPDNOW": 1.0, "TECH": "TRAK", "ADVNR": 41, "ATCFID": "AL132024", "NAME": "LESLIE", "FTECH": "OFCL", "FCST_DTG": "2024-10-12 12:00:00", "RUN_DTG": "2024-10-12 15:10:18", "BASIN": "AL", "STMNR": 13, "CAT_ID": null, "CAT_DESC": null, "MSGID": "WTNT23 KNHC 121439", "VALIDTIME": "2024-10-08 12:00:00" }, "geometry": { "type": "Point", "coordinates": [ -45.099998, 19.0 ] } },
{ "type": "Feature", "properties": { "ID": 270073, "LAT": 19.7, "LON": -46.1, "VMAX": 65.0, "MSLP": 992.0, "RMAX": 15.0, "FSPD": 4.62338, "FDIR": 321.159, "RENV": 170.0, "PENV": 1012.0, "VALIDT": 0, "DTG": "2024-10-08 18:00", "LATNOW": 32.4, "LONNOW": -44.9, "WINDNOW": 45.0, "DIRNOW": 16.0, "SPDNOW": 1.0, "TECH": "TRAK", "ADVNR": 41, "ATCFID": "AL132024", "NAME": "LESLIE", "FTECH": "OFCL", "FCST_DTG": "2024-10-12 12:00:00", "RUN_DTG": "2024-10-12 15:10:18", "BASIN": "AL", "STMNR": 13, "CAT_ID": null, "CAT_DESC": null, "MSGID": "WTNT23 KNHC 121439", "VALIDTIME": "2024-10-08 18:00:00" }, "geometry": { "type": "Point", "coordinates": [ -46.099998, 19.700001 ] } },
{ "type": "Feature", "properties": { "ID": 270074, "LAT": 20.4, "LON": -46.7, "VMAX": 70.0, "MSLP": 987.0, "RMAX": 15.0, "FSPD": 4.63115, "FDIR": 303.73944, "RENV": 140.0, "PENV": 1013.0, "VALIDT": 0, "DTG": "2024-10-09 00:00", "LATNOW": 32.4, "LONNOW": -44.9, "WINDNOW": 45.0, "DIRNOW": 16.0, "SPDNOW": 1.0, "TECH": "TRAK", "ADVNR": 41, "ATCFID": "AL132024", "NAME": "LESLIE", "FTECH": "OFCL", "FCST_DTG": "2024-10-12 12:00:00", "RUN_DTG": "2024-10-12 15:10:18", "BASIN": "AL", "STMNR": 13, "CAT_ID": null, "CAT_DESC": null, "MSGID": "WTNT23 KNHC 121439", "VALIDTIME": "2024-10-09 00:00:00" }, "geometry": { "type": "Point", "coordinates": [ -46.700001, 20.4 ] } },
{ "type": "Feature", "properties": { "ID": 270075, "LAT": 20.9, "LON": -47.5, "VMAX": 70.0, "MSLP": 987.0, "RMAX": 15.0, "FSPD": 4.23038, "FDIR": 307.44757, "RENV": 140.0, "PENV": 1013.0, "VALIDT": 0, "DTG": "2024-10-09 06:00", "LATNOW": 32.4, "LONNOW": -44.9, "WINDNOW": 45.0, "DIRNOW": 16.0, "SPDNOW": 1.0, "TECH": "TRAK", "ADVNR": 41, "ATCFID": "AL132024", "NAME": "LESLIE", "FTECH": "OFCL", "FCST_DTG": "2024-10-12 12:00:00", "RUN_DTG": "2024-10-12 15:10:18", "BASIN": "AL", "STMNR": 13, "CAT_ID": null, "CAT_DESC": null, "MSGID": "WTNT23 KNHC 121439", "VALIDTIME": "2024-10-09 06:00:00" }, "geometry": { "type": "Point", "coordinates": [ -47.5, 20.9 ] } },
{ "type": "Feature", "properties": { "ID": 270076, "LAT": 21.4, "LON": -48.2, "VMAX": 75.0, "MSLP": 985.0, "RMAX": 15.0, "FSPD": 3.85318, "FDIR": 311.8789, "RENV": 130.0, "PENV": 1014.0, "VALIDT": 0, "DTG": "2024-10-09 12:00", "LATNOW": 32.4, "LONNOW": -44.9, "WINDNOW": 45.0, "DIRNOW": 16.0, "SPDNOW": 1.0, "TECH": "TRAK", "ADVNR": 41, "ATCFID": "AL132024", "NAME": "LESLIE", "FTECH": "OFCL", "FCST_DTG": "2024-10-12 12:00:00", "RUN_DTG": "2024-10-12 15:10:18", "BASIN": "AL", "STMNR": 13, "CAT_ID": null, "CAT_DESC": null, "MSGID": "WTNT23 KNHC 121439", "VALIDTIME": "2024-10-09 12:00:00" }, "geometry": { "type": "Point", "coordinates": [ -48.200001, 21.4 ] } },
{ "type": "Feature", "properties": { "ID": 270077, "LAT": 21.9, "LON": -48.8, "VMAX": 80.0, "MSLP": 982.0, "RMAX": 15.0, "FSPD": 2.26787, "FDIR": 335.14328, "RENV": 130.0, "PENV": 1014.0, "VALIDT": 0, "DTG": "2024-10-09 18:00", "LATNOW": 32.4, "LONNOW": -44.9, "WINDNOW": 45.0, "DIRNOW": 16.0, "SPDNOW": 1.0, "TECH": "TRAK", "ADVNR": 41, "ATCFID": "AL132024", "NAME": "LESLIE", "FTECH": "OFCL", "FCST_DTG": "2024-10-12 12:00:00", "RUN_DTG": "2024-10-12 15:10:18", "BASIN": "AL", "STMNR": 13, "CAT_ID": null, "CAT_DESC": null, "MSGID": "WTNT23 KNHC 121439", "VALIDTIME": "2024-10-09 18:00:00" }, "geometry": { "type": "Point", "coordinates": [ -48.799999, 21.9 ] } },
{ "type": "Feature", "properties": { "ID": 270078, "LAT": 22.3, "LON": -49.0, "VMAX": 90.0, "MSLP": 972.0, "RMAX": 10.0, "FSPD": 3.24345, "FDIR": 298.41357, "RENV": 130.0, "PENV": 1014.0, "VALIDT": 0, "DTG": "2024-10-10 00:00", "LATNOW": 32.4, "LONNOW": -44.9, "WINDNOW": 45.0, "DIRNOW": 16.0, "SPDNOW": 1.0, "TECH": "TRAK", "ADVNR": 41, "ATCFID": "AL132024", "NAME": "LESLIE", "FTECH": "OFCL", "FCST_DTG": "2024-10-12 12:00:00", "RUN_DTG": "2024-10-12 15:10:18", "BASIN": "AL", "STMNR": 13, "CAT_ID": null, "CAT_DESC": null, "MSGID": "WTNT23 KNHC 121439", "VALIDTIME": "2024-10-10 00:00:00" }, "geometry": { "type": "Point", "coordinates": [ -49.0, 22.299999 ] } },
{ "type": "Feature", "properties": { "ID": 270079, "LAT": 22.6, "LON": -49.6, "VMAX": 90.0, "MSLP": 972.0, "RMAX": 10.0, "FSPD": 3.238, "FDIR": 298.46555, "RENV": 130.0, "PENV": 1014.0, "VALIDT": 0, "DTG": "2024-10-10 06:00", "LATNOW": 32.4, "LONNOW": -44.9, "WINDNOW": 45.0, "DIRNOW": 16.0, "SPDNOW": 1.0, "TECH": "TRAK", "ADVNR": 41, "ATCFID": "AL132024", "NAME": "LESLIE", "FTECH": "OFCL", "FCST_DTG": "2024-10-12 12:00:00", "RUN_DTG": "2024-10-12 15:10:18", "BASIN": "AL", "STMNR": 13, "CAT_ID": null, "CAT_DESC": null, "MSGID": "WTNT23 KNHC 121439", "VALIDTIME": "2024-10-10 06:00:00" }, "geometry": { "type": "Point", "coordinates": [ -49.599998, 22.6 ] } },
{ "type": "Feature", "properties": { "ID": 270080, "LAT": 22.9, "LON": -50.2, "VMAX": 85.0, "MSLP": 977.0, "RMAX": 10.0, "FSPD": 4.19242, "FDIR": 317.41284, "RENV": 130.0, "PENV": 1014.0, "VALIDT": 0, "DTG": "2024-10-10 12:00", "LATNOW": 32.4, "LONNOW": -44.9, "WINDNOW": 45.0, "DIRNOW": 16.0, "SPDNOW": 1.0, "TECH": "TRAK", "ADVNR": 41, "ATCFID": "AL132024", "NAME": "LESLIE", "FTECH": "OFCL", "FCST_DTG": "2024-10-12 12:00:00", "RUN_DTG": "2024-10-12 15:10:18", "BASIN": "AL", "STMNR": 13, "CAT_ID": null, "CAT_DESC": null, "MSGID": "WTNT23 KNHC 121439", "VALIDTIME": "2024-10-10 12:00:00" }, "geometry": { "type": "Point", "coordinates": [ -50.200001, 22.9 ] } },
{ "type": "Feature", "properties": { "ID": 270081, "LAT": 23.5, "LON": -50.8, "VMAX": 60.0, "MSLP": 992.0, "RMAX": 10.0, "FSPD": 3.39433, "FDIR": 335.41693, "RENV": 140.0, "PENV": 1013.0, "VALIDT": 0, "DTG": "2024-10-10 18:00", "LATNOW": 32.4, "LONNOW": -44.9, "WINDNOW": 45.0, "DIRNOW": 16.0, "SPDNOW": 1.0, "TECH": "TRAK", "ADVNR": 41, "ATCFID": "AL132024", "NAME": "LESLIE", "FTECH": "OFCL", "FCST_DTG": "2024-10-12 12:00:00", "RUN_DTG": "2024-10-12 15:10:18", "BASIN": "AL", "STMNR": 13, "CAT_ID": null, "CAT_DESC": null, "MSGID": "WTNT23 KNHC 121439", "VALIDTIME": "2024-10-10 18:00:00" }, "geometry": { "type": "Point", "coordinates": [ -50.799999, 23.5 ] } },
{ "type": "Feature", "properties": { "ID": 270082, "LAT": 24.1, "LON": -51.1, "VMAX": 50.0, "MSLP": 997.0, "RMAX": 10.0, "FSPD": 4.11555, "FDIR": 360.0, "RENV": 140.0, "PENV": 1013.0, "VALIDT": 0, "DTG": "2024-10-11 00:00", "LATNOW": 32.4, "LONNOW": -44.9, "WINDNOW": 45.0, "DIRNOW": 16.0, "SPDNOW": 1.0, "TECH": "TRAK", "ADVNR": 41, "ATCFID": "AL132024", "NAME": "LESLIE", "FTECH": "OFCL", "FCST_DTG": "2024-10-12 12:00:00", "RUN_DTG": "2024-10-12 15:10:18", "BASIN": "AL", "STMNR": 13, "CAT_ID": null, "CAT_DESC": null, "MSGID": "WTNT23 KNHC 121439", "VALIDTIME": "2024-10-11 00:00:00" }, "geometry": { "type": "Point", "coordinates": [ -51.099998, 24.1 ] } },
{ "type": "Feature", "properties": { "ID": 270083, "LAT": 24.9, "LON": -51.1, "VMAX": 50.0, "MSLP": 999.0, "RMAX": 10.0, "FSPD": 4.83551, "FDIR": 16.76416, "RENV": 140.0, "PENV": 1013.0, "VALIDT": 0, "DTG": "2024-10-11 06:00", "LATNOW": 32.4, "LONNOW": -44.9, "WINDNOW": 45.0, "DIRNOW": 16.0, "SPDNOW": 1.0, "TECH": "TRAK", "ADVNR": 41, "ATCFID": "AL132024", "NAME": "LESLIE", "FTECH": "OFCL", "FCST_DTG": "2024-10-12 12:00:00", "RUN_DTG": "2024-10-12 15:10:18", "BASIN": "AL", "STMNR": 13, "CAT_ID": null, "CAT_DESC": null, "MSGID": "WTNT23 KNHC 121439", "VALIDTIME": "2024-10-11 06:00:00" }, "geometry": { "type": "Point", "coordinates": [ -51.099998, 24.9 ] } },
{ "type": "Feature", "properties": { "ID": 270084, "LAT": 25.8, "LON": -50.8, "VMAX": 45.0, "MSLP": 1000.0, "RMAX": 20.0, "FSPD": 7.19022, "FDIR": 30.84311, "RENV": 120.0, "PENV": 1011.0, "VALIDT": 0, "DTG": "2024-10-11 12:00", "LATNOW": 32.4, "LONNOW": -44.9, "WINDNOW": 45.0, "DIRNOW": 16.0, "SPDNOW": 1.0, "TECH": "TRAK", "ADVNR": 41, "ATCFID": "AL132024", "NAME": "LESLIE", "FTECH": "OFCL", "FCST_DTG": "2024-10-12 12:00:00", "RUN_DTG": "2024-10-12 15:10:18", "BASIN": "AL", "STMNR": 13, "CAT_ID": null, "CAT_DESC": null, "MSGID": "WTNT23 KNHC 121439", "VALIDTIME": "2024-10-11 12:00:00" }, "geometry": { "type": "Point", "coordinates": [ -50.799999, 25.799999 ] } },
{ "type": "Feature", "properties": { "ID": 270085, "LAT": 27.0, "LON": -50.0, "VMAX": 45.0, "MSLP": 1000.0, "RMAX": 20.0, "FSPD": 9.04142, "FDIR": 37.19519, "RENV": 120.0, "PENV": 1011.0, "VALIDT": 0, "DTG": "2024-10-11 18:00", "LATNOW": 32.4, "LONNOW": -44.9, "WINDNOW": 45.0, "DIRNOW": 16.0, "SPDNOW": 1.0, "TECH": "TRAK", "ADVNR": 41, "ATCFID": "AL132024", "NAME": "LESLIE", "FTECH": "OFCL", "FCST_DTG": "2024-10-12 12:00:00", "RUN_DTG": "2024-10-12 15:10:18", "BASIN": "AL", "STMNR": 13, "CAT_ID": null, "CAT_DESC": null, "MSGID": "WTNT23 KNHC 121439", "VALIDTIME": "2024-10-11 18:00:00" }, "geometry": { "type": "Point", "coordinates": [ -50.0, 27.0 ] } },
{ "type": "Feature", "properties": { "ID": 270086, "LAT": 28.4, "LON": -48.8, "VMAX": 45.0, "MSLP": 1001.0, "RMAX": 20.0, "FSPD": 12.8029, "FDIR": 36.52112, "RENV": 120.0, "PENV": 1011.0, "VALIDT": 0, "DTG": "2024-10-12 00:00", "LATNOW": 32.4, "LONNOW": -44.9, "WINDNOW": 45.0, "DIRNOW": 16.0, "SPDNOW": 1.0, "TECH": "TRAK", "ADVNR": 41, "ATCFID": "AL132024", "NAME": "LESLIE", "FTECH": "OFCL", "FCST_DTG": "2024-10-12 12:00:00", "RUN_DTG": "2024-10-12 15:10:18", "BASIN": "AL", "STMNR": 13, "CAT_ID": null, "CAT_DESC": null, "MSGID": "WTNT23 KNHC 121439", "VALIDTIME": "2024-10-12 00:00:00" }, "geometry": { "type": "Point", "coordinates": [ -48.799999, 28.4 ] } },
{ "type": "Feature", "properties": { "ID": 270087, "LAT": 30.4, "LON": -47.1, "VMAX": 45.0, "MSLP": 1002.0, "RMAX": 20.0, "FSPD": 14.1132, "FDIR": 43.19516, "RENV": 90.0, "PENV": 1008.0, "VALIDT": 0, "DTG": "2024-10-12 06:00", "LATNOW": 32.4, "LONNOW": -44.9, "WINDNOW": 45.0, "DIRNOW": 16.0, "SPDNOW": 1.0, "TECH": "TRAK", "ADVNR": 41, "ATCFID": "AL132024", "NAME": "LESLIE", "FTECH": "OFCL", "FCST_DTG": "2024-10-12 12:00:00", "RUN_DTG": "2024-10-12 15:10:18", "BASIN": "AL", "STMNR": 13, "CAT_ID": null, "CAT_DESC": null, "MSGID": "WTNT23 KNHC 121439", "VALIDTIME": "2024-10-12 06:00:00" }, "geometry": { "type": "Point", "coordinates": [ -47.099998, 30.4 ] } },
{ "type": "Feature", "properties": { "ID": 270088, "LAT": 32.4, "LON": -44.9, "VMAX": 45.0, "MSLP": 1000.0, "RMAX": 20.0, "FSPD": 15.93267, "FDIR": 54.46539, "RENV": 70.0, "PENV": 1009.0, "VALIDT": 0, "DTG": "2024-10-12 12:00", "LATNOW": 32.4, "LONNOW": -44.9, "WINDNOW": 45.0, "DIRNOW": 16.0, "SPDNOW": 1.0, "TECH": "TRAK", "ADVNR": 41, "ATCFID": "AL132024", "NAME": "LESLIE", "FTECH": "OFCL", "FCST_DTG": "2024-10-12 12:00:00", "RUN_DTG": "2024-10-12 15:10:18", "BASIN": "AL", "STMNR": 13, "CAT_ID": null, "CAT_DESC": null, "MSGID": "WTNT23 KNHC 121439", "VALIDTIME": "2024-10-12 12:00:00" }, "geometry": { "type": "Point", "coordinates": [ -44.900002, 32.400002 ] } },
{ "type": "Feature", "properties": { "ID": 270089, "LAT": 33.3, "LON": -43.4, "VMAX": 45.0, "MSLP": 1000.0, "RMAX": 20.7236, "FSPD": 14.18387, "FDIR": 52.80753, "RENV": 180.0, "PENV": 1012.0, "VALIDT": 3, "DTG": "2024-10-12 15:00", "LATNOW": 32.4, "LONNOW": -44.9, "WINDNOW": 45.0, "DIRNOW": 16.0, "SPDNOW": 1.0, "TECH": "FCST", "ADVNR": 41, "ATCFID": "AL132024", "NAME": "LESLIE", "FTECH": "OFCL", "FCST_DTG": "2024-10-12 12:00:00", "RUN_DTG": "2024-10-12 15:10:18", "BASIN": "AL", "STMNR": 13, "CAT_ID": null, "CAT_DESC": null, "MSGID": "WTNT23 KNHC 121439", "VALIDTIME": "2024-10-12 15:00:00" }, "geometry": { "type": "Point", "coordinates": [ -43.400002, 33.299999 ] } },
{ "type": "Feature", "properties": { "ID": 270090, "LAT": 35.8, "LON": -39.4, "VMAX": 45.0, "MSLP": 1004.66364, "RMAX": 22.98998, "FSPD": 14.18387, "FDIR": 52.80753, "RENV": 180.0, "PENV": 1012.0, "VALIDT": 12, "DTG": "2024-10-13 00:00", "LATNOW": 32.4, "LONNOW": -44.9, "WINDNOW": 45.0, "DIRNOW": 16.0, "SPDNOW": 1.0, "TECH": "FCST", "ADVNR": 41, "ATCFID": "AL132024", "NAME": "LESLIE", "FTECH": "OFCL", "FCST_DTG": "2024-10-12 12:00:00", "RUN_DTG": "2024-10-12 15:10:18", "BASIN": "AL", "STMNR": 13, "CAT_ID": null, "CAT_DESC": null, "MSGID": "WTNT23 KNHC 121439", "VALIDTIME": "2024-10-13 00:00:00" }, "geometry": { "type": "Point", "coordinates": [ -39.400002, 35.799999 ] } },
{ "type": "Feature", "properties": { "ID": 270088, "LAT": 32.4, "LON": -44.9, "VMAX": 45.0, "MSLP": 1000.0, "RMAX": 20.0, "FSPD": 15.93267, "FDIR": 54.46539, "RENV": 70.0, "PENV": 1009.0, "VALIDT": 0, "DTG": "2024-10-12 12:00", "LATNOW": 32.4, "LONNOW": -44.9, "WINDNOW": 45.0, "DIRNOW": 16.0, "SPDNOW": 1.0, "TECH": "TRAK", "ADVNR": 41, "ATCFID": "AL132024", "NAME": "LESLIE", "FTECH": "OFCL", "FCST_DTG": "2024-10-12 12:00:00", "RUN_DTG": "2024-10-12 15:10:18", "BASIN": "AL", "STMNR": 13, "CAT_ID": null, "CAT_DESC": null, "MSGID": "WTNT23 KNHC 121439", "VALIDTIME": "2024-10-12 12:00:00" }, "geometry": { "type": "LineString", "coordinates": [ [ -24.1, 10.1 ], [ -24.4, 10.2 ], [ -24.9, 10.2 ], [ -25.6, 10.6 ], [ -25.9, 10.6 ], [ -26.7, 10.7 ], [ -27.7, 10.6 ], [ -28.8, 10.6 ], [ -29.3, 10.5 ], [ -29.8, 10.4 ], [ -30.2, 10.3 ], [ -30.6, 10.1 ], [ -31.2, 10.1 ], [ -31.7, 9.9 ], [ -32.2, 9.7 ], [ -32.7, 9.9 ], [ -33.3, 10.2 ], [ -33.9, 10.3 ], [ -34.5, 10.5 ], [ -35.0, 10.9 ], [ -35.7, 11.4 ], [ -36.6, 12.1 ], [ -37.1, 12.6 ], [ -37.6, 13.0 ], [ -38.2, 13.7 ], [ -39.0, 14.6 ], [ -40.0, 15.2 ], [ -40.8, 16.0 ], [ -41.7, 17.0 ], [ -43.0, 18.0 ], [ -43.8, 18.5 ], [ -45.1, 19.0 ], [ -46.1, 19.7 ], [ -46.7, 20.4 ], [ -47.5, 20.9 ], [ -48.2, 21.4 ], [ -48.8, 21.9 ], [ -49.0, 22.3 ], [ -49.6, 22.6 ], [ -50.2, 22.9 ], [ -50.8, 23.5 ], [ -51.1, 24.1 ], [ -51.1, 24.9 ], [ -50.8, 25.8 ], [ -50.0, 27.0 ], [ -48.8, 28.4 ], [ -47.1, 30.4 ], [ -44.9, 32.4 ] ] } },
{ "type": "Feature", "properties": { "ID": 270090, "LAT": 35.8, "LON": -39.4, "VMAX": 45.0, "MSLP": 1004.66364, "RMAX": 22.98998, "FSPD": 14.18387, "FDIR": 52.80753, "RENV": 180.0, "PENV": 1012.0, "VALIDT": 12, "DTG": "2024-10-13 00:00", "LATNOW": 32.4, "LONNOW": -44.9, "WINDNOW": 45.0, "DIRNOW": 16.0, "SPDNOW": 1.0, "TECH": "FCST", "ADVNR": 41, "ATCFID": "AL132024", "NAME": "LESLIE", "FTECH": "OFCL", "FCST_DTG": "2024-10-12 12:00:00", "RUN_DTG": "2024-10-12 15:10:18", "BASIN": "AL", "STMNR": 13, "CAT_ID": null, "CAT_DESC": null, "MSGID": "WTNT23 KNHC 121439", "VALIDTIME": "2024-10-13 00:00:00" }, "geometry": { "type": "LineString", "coordinates": [ [ -44.9, 32.4 ], [ -43.4, 33.3 ], [ -39.4, 35.8 ] ] } }
]
}
