{
"type": "FeatureCollection",
"crs": { "type": "name", "properties": { "name": "urn:ogc:def:crs:OGC:1.3:CRS84" } },
"features": [
{ "type": "Feature", "properties": { "ID": 61590, "LAT": 6.5, "LON": 155.3, "VMAX": 15.0, "MSLP": 1013.8515, "RMAX": 40.0, "FSPD": 5.03786, "FDIR": 294.10834, "RENV": 500.0, "PENV": 1012.0, "VALIDT": 0, "DTG": "2025-10-04 06:00", "LATNOW": 35.4, "LONNOW": 158.0, "WINDNOW": 70.0, "DIRNOW": 14.0, "SPDNOW": 0.0, "TECH": "TRAK", "ADVNR": 26, "ATCFID": "WP292025", "NAME": "NAKRI", "FTECH": "JTWC", "FCST_DTG": "2025-10-14 12:00:00", "RUN_DTG": "2025-10-15 06:26:19", "BASIN": "WP", "STMNR": 29, "CAT_ID": null, "CAT_DESC": null, "MSGID": "WTPN31 PGTW 141500", "VALIDTIME": "2025-10-04 06:00:00" }, "geometry": { "type": "Point", "coordinates": [ 155.300003, 6.5 ] } },
{ "type": "Feature", "properties": { "ID": 61591, "LAT": 6.9, "LON": 154.4, "VMAX": 15.0, "MSLP": 1013.8515, "RMAX": 40.0, "FSPD": 6.66937, "FDIR": 302.68005, "RENV": 500.0, "PENV": 1012.0, "VALIDT": 0, "DTG": "2025-10-04 12:00", "LATNOW": 35.4, "LONNOW": 158.0, "WINDNOW": 70.0, "DIRNOW": 14.0, "SPDNOW": 0.0, "TECH": "TRAK", "ADVNR": 26, "ATCFID": "WP292025", "NAME": "NAKRI", "FTECH": "JTWC", "FCST_DTG": "2025-10-14 12:00:00", "RUN_DTG": "2025-10-15 06:26:19", "BASIN": "WP", "STMNR": 29, "CAT_ID": null, "CAT_DESC": null, "MSGID": "WTPN31 PGTW 141500", "VALIDTIME": "2025-10-04 12:00:00" }, "geometry": { "type": "Point", "coordinates": [ 154.399994, 6.9 ] } },
{ "type": "Feature", "properties": { "ID": 61592, "LAT": 7.6, "LON": 153.3, "VMAX": 15.0, "MSLP": 1013.8515, "RMAX": 40.0, "FSPD": 10.53959, "FDIR": 309.38574, "RENV": 500.0, "PENV": 1012.0, "VALIDT": 0, "DTG": "2025-10-04 18:00", "LATNOW": 35.4, "LONNOW": 158.0, "WINDNOW": 70.0, "DIRNOW": 14.0, "SPDNOW": 0.0, "TECH": "TRAK", "ADVNR": 26, "ATCFID": "WP292025", "NAME": "NAKRI", "FTECH": "JTWC", "FCST_DTG": "2025-10-14 12:00:00", "RUN_DTG": "2025-10-15 06:26:19", "BASIN": "WP", "STMNR": 29, "CAT_ID": null, "CAT_DESC": null, "MSGID": "WTPN31 PGTW 141500", "VALIDTIME": "2025-10-04 18:00:00" }, "geometry": { "type": "Point", "coordinates": [ 153.300003, 7.6 ] } },
{ "type": "Feature", "properties": { "ID": 61593, "LAT": 8.9, "LON": 151.7, "VMAX": 15.0, "MSLP": 1013.8515, "RMAX": 40.0, "FSPD": 10.37251, "FDIR": 327.47406, "RENV": 500.0, "PENV": 1012.0, "VALIDT": 0, "DTG": "2025-10-05 00:00", "LATNOW": 35.4, "LONNOW": 158.0, "WINDNOW": 70.0, "DIRNOW": 14.0, "SPDNOW": 0.0, "TECH": "TRAK", "ADVNR": 26, "ATCFID": "WP292025", "NAME": "NAKRI", "FTECH": "JTWC", "FCST_DTG": "2025-10-14 12:00:00", "RUN_DTG": "2025-10-15 06:26:19", "BASIN": "WP", "STMNR": 29, "CAT_ID": null, "CAT_DESC": null, "MSGID": "WTPN31 PGTW 141500", "VALIDTIME": "2025-10-05 00:00:00" }, "geometry": { "type": "Point", "coordinates": [ 151.699997, 8.9 ] } },
{ "type": "Feature", "properties": { "ID": 61594, "LAT": 10.6, "LON": 150.6, "VMAX": 15.0, "MSLP": 1013.8515, "RMAX": 40.0, "FSPD": 4.37324, "FDIR": 306.0274, "RENV": 500.0, "PENV": 1012.0, "VALIDT": 0, "DTG": "2025-10-05 06:00", "LATNOW": 35.4, "LONNOW": 158.0, "WINDNOW": 70.0, "DIRNOW": 14.0, "SPDNOW": 0.0, "TECH": "TRAK", "ADVNR": 26, "ATCFID": "WP292025", "NAME": "NAKRI", "FTECH": "JTWC", "FCST_DTG": "2025-10-14 12:00:00", "RUN_DTG": "2025-10-15 06:26:19", "BASIN": "WP", "STMNR": 29, "CAT_ID": null, "CAT_DESC": null, "MSGID": "WTPN31 PGTW 141500", "VALIDTIME": "2025-10-05 06:00:00" }, "geometry": { "type": "Point", "coordinates": [ 150.600006, 10.6 ] } },
{ "type": "Feature", "properties": { "ID": 61595, "LAT": 11.1, "LON": 149.9, "VMAX": 15.0, "MSLP": 1013.8515, "RMAX": 40.0, "FSPD": 2.16169, "FDIR": 315.5569, "RENV": 500.0, "PENV": 1012.0, "VALIDT": 0, "DTG": "2025-10-05 12:00", "LATNOW": 35.4, "LONNOW": 158.0, "WINDNOW": 70.0, "DIRNOW": 14.0, "SPDNOW": 0.0, "TECH": "TRAK", "ADVNR": 26, "ATCFID": "WP292025", "NAME": "NAKRI", "FTECH": "JTWC", "FCST_DTG": "2025-10-14 12:00:00", "RUN_DTG": "2025-10-15 06:26:19", "BASIN": "WP", "STMNR": 29, "CAT_ID": null, "CAT_DESC": null, "MSGID": "WTPN31 PGTW 141500", "VALIDTIME": "2025-10-05 12:00:00" }, "geometry": { "type": "Point", "coordinates": [ 149.899994, 11.1 ] } },
{ "type": "Feature", "properties": { "ID": 61596, "LAT": 11.4, "LON": 149.6, "VMAX": 15.0, "MSLP": 1013.8515, "RMAX": 40.0, "FSPD": 3.19494, "FDIR": 288.78625, "RENV": 500.0, "PENV": 1012.0, "VALIDT": 0, "DTG": "2025-10-05 18:00", "LATNOW": 35.4, "LONNOW": 158.0, "WINDNOW": 70.0, "DIRNOW": 14.0, "SPDNOW": 0.0, "TECH": "TRAK", "ADVNR": 26, "ATCFID": "WP292025", "NAME": "NAKRI", "FTECH": "JTWC", "FCST_DTG": "2025-10-14 12:00:00", "RUN_DTG": "2025-10-15 06:26:19", "BASIN": "WP", "STMNR": 29, "CAT_ID": null, "CAT_DESC": null, "MSGID": "WTPN31 PGTW 141500", "VALIDTIME": "2025-10-05 18:00:00" }, "geometry": { "type": "Point", "coordinates": [ 149.600006, 11.4 ] } },
{ "type": "Feature", "properties": { "ID": 61597, "LAT": 11.6, "LON": 149.0, "VMAX": 15.0, "MSLP": 1013.8515, "RMAX": 40.0, "FSPD": 5.9092, "FDIR": 290.3792, "RENV": 500.0, "PENV": 1012.0, "VALIDT": 0, "DTG": "2025-10-06 00:00", "LATNOW": 35.4, "LONNOW": 158.0, "WINDNOW": 70.0, "DIRNOW": 14.0, "SPDNOW": 0.0, "TECH": "TRAK", "ADVNR": 26, "ATCFID": "WP292025", "NAME": "NAKRI", "FTECH": "JTWC", "FCST_DTG": "2025-10-14 12:00:00", "RUN_DTG": "2025-10-15 06:26:19", "BASIN": "WP", "STMNR": 29, "CAT_ID": null, "CAT_DESC": null, "MSGID": "WTPN31 PGTW 141500", "VALIDTIME": "2025-10-06 00:00:00" }, "geometry": { "type": "Point", "coordinates": [ 149.0, 11.6 ] } },
{ "type": "Feature", "properties": { "ID": 61598, "LAT": 12.0, "LON": 147.9, "VMAX": 15.0, "MSLP": 1013.8515, "RMAX": 40.0, "FSPD": 8.81017, "FDIR": 294.12598, "RENV": 500.0, "PENV": 1012.0, "VALIDT": 0, "DTG": "2025-10-06 06:00", "LATNOW": 35.4, "LONNOW": 158.0, "WINDNOW": 70.0, "DIRNOW": 14.0, "SPDNOW": 0.0, "TECH": "TRAK", "ADVNR": 26, "ATCFID": "WP292025", "NAME": "NAKRI", "FTECH": "JTWC", "FCST_DTG": "2025-10-14 12:00:00", "RUN_DTG": "2025-10-15 06:26:19", "BASIN": "WP", "STMNR": 29, "CAT_ID": null, "CAT_DESC": null, "MSGID": "WTPN31 PGTW 141500", "VALIDTIME": "2025-10-06 06:00:00" }, "geometry": { "type": "Point", "coordinates": [ 147.899994, 12.0 ] } },
{ "type": "Feature", "properties": { "ID": 61599, "LAT": 12.7, "LON": 146.3, "VMAX": 20.0, "MSLP": 1012.95825, "RMAX": 45.0, "FSPD": 4.69147, "FDIR": 320.13763, "RENV": 500.0, "PENV": 1012.0, "VALIDT": 0, "DTG": "2025-10-06 12:00", "LATNOW": 35.4, "LONNOW": 158.0, "WINDNOW": 70.0, "DIRNOW": 14.0, "SPDNOW": 0.0, "TECH": "TRAK", "ADVNR": 26, "ATCFID": "WP292025", "NAME": "NAKRI", "FTECH": "JTWC", "FCST_DTG": "2025-10-14 12:00:00", "RUN_DTG": "2025-10-15 06:26:19", "BASIN": "WP", "STMNR": 29, "CAT_ID": null, "CAT_DESC": null, "MSGID": "WTPN31 PGTW 141500", "VALIDTIME": "2025-10-06 12:00:00" }, "geometry": { "type": "Point", "coordinates": [ 146.300003, 12.7 ] } },
{ "type": "Feature", "properties": { "ID": 61600, "LAT": 13.4, "LON": 145.7, "VMAX": 20.0, "MSLP": 1012.95825, "RMAX": 45.0, "FSPD": 8.9772, "FDIR": 318.1568, "RENV": 500.0, "PENV": 1012.0, "VALIDT": 0, "DTG": "2025-10-06 18:00", "LATNOW": 35.4, "LONNOW": 158.0, "WINDNOW": 70.0, "DIRNOW": 14.0, "SPDNOW": 0.0, "TECH": "TRAK", "ADVNR": 26, "ATCFID": "WP292025", "NAME": "NAKRI", "FTECH": "JTWC", "FCST_DTG": "2025-10-14 12:00:00", "RUN_DTG": "2025-10-15 06:26:19", "BASIN": "WP", "STMNR": 29, "CAT_ID": null, "CAT_DESC": null, "MSGID": "WTPN31 PGTW 141500", "VALIDTIME": "2025-10-06 18:00:00" }, "geometry": { "type": "Point", "coordinates": [ 145.699997, 13.4 ] } },
{ "type": "Feature", "properties": { "ID": 61601, "LAT": 14.7, "LON": 144.5, "VMAX": 20.0, "MSLP": 1012.95825, "RMAX": 45.0, "FSPD": 11.67634, "FDIR": 290.63843, "RENV": 500.0, "PENV": 1012.0, "VALIDT": 0, "DTG": "2025-10-07 00:00", "LATNOW": 35.4, "LONNOW": 158.0, "WINDNOW": 70.0, "DIRNOW": 14.0, "SPDNOW": 0.0, "TECH": "TRAK", "ADVNR": 26, "ATCFID": "WP292025", "NAME": "NAKRI", "FTECH": "JTWC", "FCST_DTG": "2025-10-14 12:00:00", "RUN_DTG": "2025-10-15 06:26:19", "BASIN": "WP", "STMNR": 29, "CAT_ID": null, "CAT_DESC": null, "MSGID": "WTPN31 PGTW 141500", "VALIDTIME": "2025-10-07 00:00:00" }, "geometry": { "type": "Point", "coordinates": [ 144.5, 14.7 ] } },
{ "type": "Feature", "properties": { "ID": 61602, "LAT": 15.5, "LON": 142.3, "VMAX": 20.0, "MSLP": 1012.95825, "RMAX": 45.0, "FSPD": 6.69418, "FDIR": 297.45795, "RENV": 500.0, "PENV": 1012.0, "VALIDT": 0, "DTG": "2025-10-07 06:00", "LATNOW": 35.4, "LONNOW": 158.0, "WINDNOW": 70.0, "DIRNOW": 14.0, "SPDNOW": 0.0, "TECH": "TRAK", "ADVNR": 26, "ATCFID": "WP292025", "NAME": "NAKRI", "FTECH": "JTWC", "FCST_DTG": "2025-10-14 12:00:00", "RUN_DTG": "2025-10-15 06:26:19", "BASIN": "WP", "STMNR": 29, "CAT_ID": null, "CAT_DESC": null, "MSGID": "WTPN31 PGTW 141500", "VALIDTIME": "2025-10-07 06:00:00" }, "geometry": { "type": "Point", "coordinates": [ 142.300003, 15.5 ] } },
{ "type": "Feature", "properties": { "ID": 61603, "LAT": 16.1, "LON": 141.1, "VMAX": 25.0, "MSLP": 1011.80975, "RMAX": 45.0, "FSPD": 8.54832, "FDIR": 316.23383, "RENV": 500.0, "PENV": 1012.0, "VALIDT": 0, "DTG": "2025-10-07 12:00", "LATNOW": 35.4, "LONNOW": 158.0, "WINDNOW": 70.0, "DIRNOW": 14.0, "SPDNOW": 0.0, "TECH": "TRAK", "ADVNR": 26, "ATCFID": "WP292025", "NAME": "NAKRI", "FTECH": "JTWC", "FCST_DTG": "2025-10-14 12:00:00", "RUN_DTG": "2025-10-15 06:26:19", "BASIN": "WP", "STMNR": 29, "CAT_ID": null, "CAT_DESC": null, "MSGID": "WTPN31 PGTW 141500", "VALIDTIME": "2025-10-07 12:00:00" }, "geometry": { "type": "Point", "coordinates": [ 141.100006, 16.1 ] } },
{ "type": "Feature", "properties": { "ID": 61604, "LAT": 17.3, "LON": 139.9, "VMAX": 25.0, "MSLP": 1011.80975, "RMAX": 45.0, "FSPD": 7.48343, "FDIR": 319.1294, "RENV": 500.0, "PENV": 1012.0, "VALIDT": 0, "DTG": "2025-10-07 18:00", "LATNOW": 35.4, "LONNOW": 158.0, "WINDNOW": 70.0, "DIRNOW": 14.0, "SPDNOW": 0.0, "TECH": "TRAK", "ADVNR": 26, "ATCFID": "WP292025", "NAME": "NAKRI", "FTECH": "JTWC", "FCST_DTG": "2025-10-14 12:00:00", "RUN_DTG": "2025-10-15 06:26:19", "BASIN": "WP", "STMNR": 29, "CAT_ID": null, "CAT_DESC": null, "MSGID": "WTPN31 PGTW 141500", "VALIDTIME": "2025-10-07 18:00:00" }, "geometry": { "type": "Point", "coordinates": [ 139.899994, 17.299999 ] } },
{ "type": "Feature", "properties": { "ID": 61605, "LAT": 18.4, "LON": 138.9, "VMAX": 25.0, "MSLP": 1011.80975, "RMAX": 45.0, "FSPD": 3.65056, "FDIR": 327.72906, "RENV": 500.0, "PENV": 1012.0, "VALIDT": 0, "DTG": "2025-10-08 00:00", "LATNOW": 35.4, "LONNOW": 158.0, "WINDNOW": 70.0, "DIRNOW": 14.0, "SPDNOW": 0.0, "TECH": "TRAK", "ADVNR": 26, "ATCFID": "WP292025", "NAME": "NAKRI", "FTECH": "JTWC", "FCST_DTG": "2025-10-14 12:00:00", "RUN_DTG": "2025-10-15 06:26:19", "BASIN": "WP", "STMNR": 29, "CAT_ID": null, "CAT_DESC": null, "MSGID": "WTPN31 PGTW 141500", "VALIDTIME": "2025-10-08 00:00:00" }, "geometry": { "type": "Point", "coordinates": [ 138.899994, 18.4 ] } },
{ "type": "Feature", "properties": { "ID": 61606, "LAT": 19.0, "LON": 138.5, "VMAX": 25.0, "MSLP": 1001.0, "RMAX": 30.0, "FSPD": 9.65946, "FDIR": 323.02246, "RENV": 130.0, "PENV": 1006.0, "VALIDT": 0, "DTG": "2025-10-08 06:00", "LATNOW": 35.4, "LONNOW": 158.0, "WINDNOW": 70.0, "DIRNOW": 14.0, "SPDNOW": 0.0, "TECH": "TRAK", "ADVNR": 26, "ATCFID": "WP292025", "NAME": "NAKRI", "FTECH": "JTWC", "FCST_DTG": "2025-10-14 12:00:00", "RUN_DTG": "2025-10-15 06:26:19", "BASIN": "WP", "STMNR": 29, "CAT_ID": null, "CAT_DESC": null, "MSGID": "WTPN31 PGTW 141500", "VALIDTIME": "2025-10-08 06:00:00" }, "geometry": { "type": "Point", "coordinates": [ 138.5, 19.0 ] } },
{ "type": "Feature", "properties": { "ID": 61607, "LAT": 20.5, "LON": 137.3, "VMAX": 35.0, "MSLP": 1001.0, "RMAX": 30.0, "FSPD": 8.23081, "FDIR": 324.34375, "RENV": 130.0, "PENV": 1006.0, "VALIDT": 0, "DTG": "2025-10-08 12:00", "LATNOW": 35.4, "LONNOW": 158.0, "WINDNOW": 70.0, "DIRNOW": 14.0, "SPDNOW": 0.0, "TECH": "TRAK", "ADVNR": 26, "ATCFID": "WP292025", "NAME": "NAKRI", "FTECH": "JTWC", "FCST_DTG": "2025-10-14 12:00:00", "RUN_DTG": "2025-10-15 06:26:19", "BASIN": "WP", "STMNR": 29, "CAT_ID": null, "CAT_DESC": null, "MSGID": "WTPN31 PGTW 141500", "VALIDTIME": "2025-10-08 12:00:00" }, "geometry": { "type": "Point", "coordinates": [ 137.300003, 20.5 ] } },
{ "type": "Feature", "properties": { "ID": 61608, "LAT": 21.8, "LON": 136.3, "VMAX": 40.0, "MSLP": 1001.0, "RMAX": 30.0, "FSPD": 6.33822, "FDIR": 333.22977, "RENV": 130.0, "PENV": 1008.0, "VALIDT": 0, "DTG": "2025-10-08 18:00", "LATNOW": 35.4, "LONNOW": 158.0, "WINDNOW": 70.0, "DIRNOW": 14.0, "SPDNOW": 0.0, "TECH": "TRAK", "ADVNR": 26, "ATCFID": "WP292025", "NAME": "NAKRI", "FTECH": "JTWC", "FCST_DTG": "2025-10-14 12:00:00", "RUN_DTG": "2025-10-15 06:26:19", "BASIN": "WP", "STMNR": 29, "CAT_ID": null, "CAT_DESC": null, "MSGID": "WTPN31 PGTW 141500", "VALIDTIME": "2025-10-08 18:00:00" }, "geometry": { "type": "Point", "coordinates": [ 136.300003, 21.799999 ] } },
{ "type": "Feature", "properties": { "ID": 61609, "LAT": 22.9, "LON": 135.7, "VMAX": 40.0, "MSLP": 1000.0, "RMAX": 30.0, "FSPD": 7.49255, "FDIR": 325.4802, "RENV": 130.0, "PENV": 1008.0, "VALIDT": 0, "DTG": "2025-10-09 00:00", "LATNOW": 35.4, "LONNOW": 158.0, "WINDNOW": 70.0, "DIRNOW": 14.0, "SPDNOW": 0.0, "TECH": "TRAK", "ADVNR": 26, "ATCFID": "WP292025", "NAME": "NAKRI", "FTECH": "JTWC", "FCST_DTG": "2025-10-14 12:00:00", "RUN_DTG": "2025-10-15 06:26:19", "BASIN": "WP", "STMNR": 29, "CAT_ID": null, "CAT_DESC": null, "MSGID": "WTPN31 PGTW 141500", "VALIDTIME": "2025-10-09 00:00:00" }, "geometry": { "type": "Point", "coordinates": [ 135.699997, 22.9 ] } },
{ "type": "Feature", "properties": { "ID": 61610, "LAT": 24.1, "LON": 134.8, "VMAX": 35.0, "MSLP": 1000.0, "RMAX": 25.0, "FSPD": 3.87489, "FDIR": 322.80502, "RENV": 130.0, "PENV": 1008.0, "VALIDT": 0, "DTG": "2025-10-09 06:00", "LATNOW": 35.4, "LONNOW": 158.0, "WINDNOW": 70.0, "DIRNOW": 14.0, "SPDNOW": 0.0, "TECH": "TRAK", "ADVNR": 26, "ATCFID": "WP292025", "NAME": "NAKRI", "FTECH": "JTWC", "FCST_DTG": "2025-10-14 12:00:00", "RUN_DTG": "2025-10-15 06:26:19", "BASIN": "WP", "STMNR": 29, "CAT_ID": null, "CAT_DESC": null, "MSGID": "WTPN31 PGTW 141500", "VALIDTIME": "2025-10-09 06:00:00" }, "geometry": { "type": "Point", "coordinates": [ 134.800003, 24.1 ] } },
{ "type": "Feature", "properties": { "ID": 61611, "LAT": 24.7, "LON": 134.3, "VMAX": 35.0, "MSLP": 1002.0, "RMAX": 45.0, "FSPD": 5.9571, "FDIR": 341.7939, "RENV": 145.0, "PENV": 1008.0, "VALIDT": 0, "DTG": "2025-10-09 12:00", "LATNOW": 35.4, "LONNOW": 158.0, "WINDNOW": 70.0, "DIRNOW": 14.0, "SPDNOW": 0.0, "TECH": "TRAK", "ADVNR": 26, "ATCFID": "WP292025", "NAME": "NAKRI", "FTECH": "JTWC", "FCST_DTG": "2025-10-14 12:00:00", "RUN_DTG": "2025-10-15 06:26:19", "BASIN": "WP", "STMNR": 29, "CAT_ID": null, "CAT_DESC": null, "MSGID": "WTPN31 PGTW 141500", "VALIDTIME": "2025-10-09 12:00:00" }, "geometry": { "type": "Point", "coordinates": [ 134.300003, 24.700001 ] } },
{ "type": "Feature", "properties": { "ID": 61612, "LAT": 25.8, "LON": 133.9, "VMAX": 35.0, "MSLP": 1001.0, "RMAX": 40.0, "FSPD": 7.21746, "FDIR": 309.9038, "RENV": 150.0, "PENV": 1010.0, "VALIDT": 0, "DTG": "2025-10-09 18:00", "LATNOW": 35.4, "LONNOW": 158.0, "WINDNOW": 70.0, "DIRNOW": 14.0, "SPDNOW": 0.0, "TECH": "TRAK", "ADVNR": 26, "ATCFID": "WP292025", "NAME": "NAKRI", "FTECH": "JTWC", "FCST_DTG": "2025-10-14 12:00:00", "RUN_DTG": "2025-10-15 06:26:19", "BASIN": "WP", "STMNR": 29, "CAT_ID": null, "CAT_DESC": null, "MSGID": "WTPN31 PGTW 141500", "VALIDTIME": "2025-10-09 18:00:00" }, "geometry": { "type": "Point", "coordinates": [ 133.899994, 25.799999 ] } },
{ "type": "Feature", "properties": { "ID": 61613, "LAT": 26.7, "LON": 132.7, "VMAX": 35.0, "MSLP": 1002.0, "RMAX": 30.0, "FSPD": 5.66227, "FDIR": 297.0182, "RENV": 150.0, "PENV": 1010.0, "VALIDT": 0, "DTG": "2025-10-10 00:00", "LATNOW": 35.4, "LONNOW": 158.0, "WINDNOW": 70.0, "DIRNOW": 14.0, "SPDNOW": 0.0, "TECH": "TRAK", "ADVNR": 26, "ATCFID": "WP292025", "NAME": "NAKRI", "FTECH": "JTWC", "FCST_DTG": "2025-10-14 12:00:00", "RUN_DTG": "2025-10-15 06:26:19", "BASIN": "WP", "STMNR": 29, "CAT_ID": null, "CAT_DESC": null, "MSGID": "WTPN31 PGTW 141500", "VALIDTIME": "2025-10-10 00:00:00" }, "geometry": { "type": "Point", "coordinates": [ 132.699997, 26.700001 ] } },
{ "type": "Feature", "properties": { "ID": 61614, "LAT": 27.2, "LON": 131.6, "VMAX": 35.0, "MSLP": 1002.0, "RMAX": 30.0, "FSPD": 5.14303, "FDIR": 225.55742, "RENV": 135.0, "PENV": 1010.0, "VALIDT": 0, "DTG": "2025-10-10 06:00", "LATNOW": 35.4, "LONNOW": 158.0, "WINDNOW": 70.0, "DIRNOW": 14.0, "SPDNOW": 0.0, "TECH": "TRAK", "ADVNR": 26, "ATCFID": "WP292025", "NAME": "NAKRI", "FTECH": "JTWC", "FCST_DTG": "2025-10-14 12:00:00", "RUN_DTG": "2025-10-15 06:26:19", "BASIN": "WP", "STMNR": 29, "CAT_ID": null, "CAT_DESC": null, "MSGID": "WTPN31 PGTW 141500", "VALIDTIME": "2025-10-10 06:00:00" }, "geometry": { "type": "Point", "coordinates": [ 131.600006, 27.200001 ] } },
{ "type": "Feature", "properties": { "ID": 61615, "LAT": 26.5, "LON": 130.8, "VMAX": 35.0, "MSLP": 1003.0, "RMAX": 30.0, "FSPD": 1.38021, "FDIR": 318.1989, "RENV": 125.0, "PENV": 1008.0, "VALIDT": 0, "DTG": "2025-10-10 12:00", "LATNOW": 35.4, "LONNOW": 158.0, "WINDNOW": 70.0, "DIRNOW": 14.0, "SPDNOW": 0.0, "TECH": "TRAK", "ADVNR": 26, "ATCFID": "WP292025", "NAME": "NAKRI", "FTECH": "JTWC", "FCST_DTG": "2025-10-14 12:00:00", "RUN_DTG": "2025-10-15 06:26:19", "BASIN": "WP", "STMNR": 29, "CAT_ID": null, "CAT_DESC": null, "MSGID": "WTPN31 PGTW 141500", "VALIDTIME": "2025-10-10 12:00:00" }, "geometry": { "type": "Point", "coordinates": [ 130.800003, 26.5 ] } },
{ "type": "Feature", "properties": { "ID": 61616, "LAT": 26.7, "LON": 130.6, "VMAX": 40.0, "MSLP": 1001.0, "RMAX": 30.0, "FSPD": 2.91702, "FDIR": 331.86002, "RENV": 140.0, "PENV": 1011.0, "VALIDT": 0, "DTG": "2025-10-10 18:00", "LATNOW": 35.4, "LONNOW": 158.0, "WINDNOW": 70.0, "DIRNOW": 14.0, "SPDNOW": 0.0, "TECH": "TRAK", "ADVNR": 26, "ATCFID": "WP292025", "NAME": "NAKRI", "FTECH": "JTWC", "FCST_DTG": "2025-10-14 12:00:00", "RUN_DTG": "2025-10-15 06:26:19", "BASIN": "WP", "STMNR": 29, "CAT_ID": null, "CAT_DESC": null, "MSGID": "WTPN31 PGTW 141500", "VALIDTIME": "2025-10-10 18:00:00" }, "geometry": { "type": "Point", "coordinates": [ 130.600006, 26.700001 ] } },
{ "type": "Feature", "properties": { "ID": 61617, "LAT": 27.2, "LON": 130.3, "VMAX": 35.0, "MSLP": 1000.0, "RMAX": 30.0, "FSPD": 4.10226, "FDIR": 51.16904, "RENV": 130.0, "PENV": 1010.0, "VALIDT": 0, "DTG": "2025-10-11 00:00", "LATNOW": 35.4, "LONNOW": 158.0, "WINDNOW": 70.0, "DIRNOW": 14.0, "SPDNOW": 0.0, "TECH": "TRAK", "ADVNR": 26, "ATCFID": "WP292025", "NAME": "NAKRI", "FTECH": "JTWC", "FCST_DTG": "2025-10-14 12:00:00", "RUN_DTG": "2025-10-15 06:26:19", "BASIN": "WP", "STMNR": 29, "CAT_ID": null, "CAT_DESC": null, "MSGID": "WTPN31 PGTW 141500", "VALIDTIME": "2025-10-11 00:00:00" }, "geometry": { "type": "Point", "coordinates": [ 130.300003, 27.200001 ] } },
{ "type": "Feature", "properties": { "ID": 61618, "LAT": 27.7, "LON": 131.0, "VMAX": 35.0, "MSLP": 1000.0, "RMAX": 30.0, "FSPD": 5.62176, "FDIR": 23.78076, "RENV": 150.0, "PENV": 1010.0, "VALIDT": 0, "DTG": "2025-10-11 06:00", "LATNOW": 35.4, "LONNOW": 158.0, "WINDNOW": 70.0, "DIRNOW": 14.0, "SPDNOW": 0.0, "TECH": "TRAK", "ADVNR": 26, "ATCFID": "WP292025", "NAME": "NAKRI", "FTECH": "JTWC", "FCST_DTG": "2025-10-14 12:00:00", "RUN_DTG": "2025-10-15 06:26:19", "BASIN": "WP", "STMNR": 29, "CAT_ID": null, "CAT_DESC": null, "MSGID": "WTPN31 PGTW 141500", "VALIDTIME": "2025-10-11 06:00:00" }, "geometry": { "type": "Point", "coordinates": [ 131.0, 27.700001 ] } },
{ "type": "Feature", "properties": { "ID": 61619, "LAT": 28.7, "LON": 131.5, "VMAX": 45.0, "MSLP": 1000.0, "RMAX": 30.0, "FSPD": 3.36891, "FDIR": 23.62048, "RENV": 170.0, "PENV": 1009.0, "VALIDT": 0, "DTG": "2025-10-11 12:00", "LATNOW": 35.4, "LONNOW": 158.0, "WINDNOW": 70.0, "DIRNOW": 14.0, "SPDNOW": 0.0, "TECH": "TRAK", "ADVNR": 26, "ATCFID": "WP292025", "NAME": "NAKRI", "FTECH": "JTWC", "FCST_DTG": "2025-10-14 12:00:00", "RUN_DTG": "2025-10-15 06:26:19", "BASIN": "WP", "STMNR": 29, "CAT_ID": null, "CAT_DESC": null, "MSGID": "WTPN31 PGTW 141500", "VALIDTIME": "2025-10-11 12:00:00" }, "geometry": { "type": "Point", "coordinates": [ 131.5, 28.700001 ] } },
{ "type": "Feature", "properties": { "ID": 61620, "LAT": 29.3, "LON": 131.8, "VMAX": 55.0, "MSLP": 997.0, "RMAX": 15.0, "FSPD": 8.63985, "FDIR": 61.55295, "RENV": 165.0, "PENV": 1009.0, "VALIDT": 0, "DTG": "2025-10-11 18:00", "LATNOW": 35.4, "LONNOW": 158.0, "WINDNOW": 70.0, "DIRNOW": 14.0, "SPDNOW": 0.0, "TECH": "TRAK", "ADVNR": 26, "ATCFID": "WP292025", "NAME": "NAKRI", "FTECH": "JTWC", "FCST_DTG": "2025-10-14 12:00:00", "RUN_DTG": "2025-10-15 06:26:19", "BASIN": "WP", "STMNR": 29, "CAT_ID": null, "CAT_DESC": null, "MSGID": "WTPN31 PGTW 141500", "VALIDTIME": "2025-10-11 18:00:00" }, "geometry": { "type": "Point", "coordinates": [ 131.800003, 29.299999 ] } },
{ "type": "Feature", "properties": { "ID": 61621, "LAT": 30.1, "LON": 133.5, "VMAX": 60.0, "MSLP": 993.0, "RMAX": 25.0, "FSPD": 8.58605, "FDIR": 61.35834, "RENV": 155.0, "PENV": 1010.0, "VALIDT": 0, "DTG": "2025-10-12 00:00", "LATNOW": 35.4, "LONNOW": 158.0, "WINDNOW": 70.0, "DIRNOW": 14.0, "SPDNOW": 0.0, "TECH": "TRAK", "ADVNR": 26, "ATCFID": "WP292025", "NAME": "NAKRI", "FTECH": "JTWC", "FCST_DTG": "2025-10-14 12:00:00", "RUN_DTG": "2025-10-15 06:26:19", "BASIN": "WP", "STMNR": 29, "CAT_ID": null, "CAT_DESC": null, "MSGID": "WTPN31 PGTW 141500", "VALIDTIME": "2025-10-12 00:00:00" }, "geometry": { "type": "Point", "coordinates": [ 133.5, 30.1 ] } },
{ "type": "Feature", "properties": { "ID": 61622, "LAT": 30.9, "LON": 135.2, "VMAX": 60.0, "MSLP": 984.0, "RMAX": 25.0, "FSPD": 7.04221, "FDIR": 54.23843, "RENV": 150.0, "PENV": 1010.0, "VALIDT": 0, "DTG": "2025-10-12 06:00", "LATNOW": 35.4, "LONNOW": 158.0, "WINDNOW": 70.0, "DIRNOW": 14.0, "SPDNOW": 0.0, "TECH": "TRAK", "ADVNR": 26, "ATCFID": "WP292025", "NAME": "NAKRI", "FTECH": "JTWC", "FCST_DTG": "2025-10-14 12:00:00", "RUN_DTG": "2025-10-15 06:26:19", "BASIN": "WP", "STMNR": 29, "CAT_ID": null, "CAT_DESC": null, "MSGID": "WTPN31 PGTW 141500", "VALIDTIME": "2025-10-12 06:00:00" }, "geometry": { "type": "Point", "coordinates": [ 135.199997, 30.9 ] } },
{ "type": "Feature", "properties": { "ID": 61623, "LAT": 31.7, "LON": 136.5, "VMAX": 65.0, "MSLP": 984.0, "RMAX": 30.0, "FSPD": 8.26754, "FDIR": 71.87308, "RENV": 180.0, "PENV": 1010.0, "VALIDT": 0, "DTG": "2025-10-12 12:00", "LATNOW": 35.4, "LONNOW": 158.0, "WINDNOW": 70.0, "DIRNOW": 14.0, "SPDNOW": 0.0, "TECH": "TRAK", "ADVNR": 26, "ATCFID": "WP292025", "NAME": "NAKRI", "FTECH": "JTWC", "FCST_DTG": "2025-10-14 12:00:00", "RUN_DTG": "2025-10-15 06:26:19", "BASIN": "WP", "STMNR": 29, "CAT_ID": null, "CAT_DESC": null, "MSGID": "WTPN31 PGTW 141500", "VALIDTIME": "2025-10-12 12:00:00" }, "geometry": { "type": "Point", "coordinates": [ 136.5, 31.700001 ] } },
{ "type": "Feature", "properties": { "ID": 61624, "LAT": 32.2, "LON": 138.3, "VMAX": 70.0, "MSLP": 982.0, "RMAX": 30.0, "FSPD": 9.8227, "FDIR": 61.87762, "RENV": 170.0, "PENV": 1010.0, "VALIDT": 0, "DTG": "2025-10-12 18:00", "LATNOW": 35.4, "LONNOW": 158.0, "WINDNOW": 70.0, "DIRNOW": 14.0, "SPDNOW": 0.0, "TECH": "TRAK", "ADVNR": 26, "ATCFID": "WP292025", "NAME": "NAKRI", "FTECH": "JTWC", "FCST_DTG": "2025-10-14 12:00:00", "RUN_DTG": "2025-10-15 06:26:19", "BASIN": "WP", "STMNR": 29, "CAT_ID": null, "CAT_DESC": null, "MSGID": "WTPN31 PGTW 141500", "VALIDTIME": "2025-10-12 18:00:00" }, "geometry": { "type": "Point", "coordinates": [ 138.300003, 32.200001 ] } },
{ "type": "Feature", "properties": { "ID": 61625, "LAT": 33.1, "LON": 140.3, "VMAX": 75.0, "MSLP": 978.0, "RMAX": 30.0, "FSPD": 11.31901, "FDIR": 71.44907, "RENV": 175.0, "PENV": 1010.0, "VALIDT": 0, "DTG": "2025-10-13 00:00", "LATNOW": 35.4, "LONNOW": 158.0, "WINDNOW": 70.0, "DIRNOW": 14.0, "SPDNOW": 0.0, "TECH": "TRAK", "ADVNR": 26, "ATCFID": "WP292025", "NAME": "NAKRI", "FTECH": "JTWC", "FCST_DTG": "2025-10-14 12:00:00", "RUN_DTG": "2025-10-15 06:26:19", "BASIN": "WP", "STMNR": 29, "CAT_ID": null, "CAT_DESC": null, "MSGID": "WTPN31 PGTW 141500", "VALIDTIME": "2025-10-13 00:00:00" }, "geometry": { "type": "Point", "coordinates": [ 140.300003, 33.099998 ] } },
{ "type": "Feature", "properties": { "ID": 61626, "LAT": 33.8, "LON": 142.8, "VMAX": 65.0, "MSLP": 974.0, "RMAX": 35.0, "FSPD": 10.96212, "FDIR": 76.42923, "RENV": 175.0, "PENV": 1010.0, "VALIDT": 0, "DTG": "2025-10-13 06:00", "LATNOW": 35.4, "LONNOW": 158.0, "WINDNOW": 70.0, "DIRNOW": 14.0, "SPDNOW": 0.0, "TECH": "TRAK", "ADVNR": 26, "ATCFID": "WP292025", "NAME": "NAKRI", "FTECH": "JTWC", "FCST_DTG": "2025-10-14 12:00:00", "RUN_DTG": "2025-10-15 06:26:19", "BASIN": "WP", "STMNR": 29, "CAT_ID": null, "CAT_DESC": null, "MSGID": "WTPN31 PGTW 141500", "VALIDTIME": "2025-10-13 06:00:00" }, "geometry": { "type": "Point", "coordinates": [ 142.800003, 33.799999 ] } },
{ "type": "Feature", "properties": { "ID": 61627, "LAT": 34.3, "LON": 145.3, "VMAX": 65.0, "MSLP": 981.0, "RMAX": 35.0, "FSPD": 10.21856, "FDIR": 92.88562, "RENV": 170.0, "PENV": 1010.0, "VALIDT": 0, "DTG": "2025-10-13 12:00", "LATNOW": 35.4, "LONNOW": 158.0, "WINDNOW": 70.0, "DIRNOW": 14.0, "SPDNOW": 0.0, "TECH": "TRAK", "ADVNR": 26, "ATCFID": "WP292025", "NAME": "NAKRI", "FTECH": "JTWC", "FCST_DTG": "2025-10-14 12:00:00", "RUN_DTG": "2025-10-15 06:26:19", "BASIN": "WP", "STMNR": 29, "CAT_ID": null, "CAT_DESC": null, "MSGID": "WTPN31 PGTW 141500", "VALIDTIME": "2025-10-13 12:00:00" }, "geometry": { "type": "Point", "coordinates": [ 145.300003, 34.299999 ] } },
{ "type": "Feature", "properties": { "ID": 61628, "LAT": 34.2, "LON": 147.7, "VMAX": 60.0, "MSLP": 980.0, "RMAX": 35.0, "FSPD": 14.43881, "FDIR": 75.55768, "RENV": 180.0, "PENV": 1008.0, "VALIDT": 0, "DTG": "2025-10-13 18:00", "LATNOW": 35.4, "LONNOW": 158.0, "WINDNOW": 70.0, "DIRNOW": 14.0, "SPDNOW": 0.0, "TECH": "TRAK", "ADVNR": 26, "ATCFID": "WP292025", "NAME": "NAKRI", "FTECH": "JTWC", "FCST_DTG": "2025-10-14 12:00:00", "RUN_DTG": "2025-10-15 06:26:19", "BASIN": "WP", "STMNR": 29, "CAT_ID": null, "CAT_DESC": null, "MSGID": "WTPN31 PGTW 141500", "VALIDTIME": "2025-10-13 18:00:00" }, "geometry": { "type": "Point", "coordinates": [ 147.699997, 34.200001 ] } },
{ "type": "Feature", "properties": { "ID": 61629, "LAT": 34.9, "LON": 151.0, "VMAX": 60.0, "MSLP": 983.0, "RMAX": 35.0, "FSPD": 15.1887, "FDIR": 88.05905, "RENV": 210.0, "PENV": 1010.0, "VALIDT": 0, "DTG": "2025-10-14 00:00", "LATNOW": 35.4, "LONNOW": 158.0, "WINDNOW": 70.0, "DIRNOW": 14.0, "SPDNOW": 0.0, "TECH": "TRAK", "ADVNR": 26, "ATCFID": "WP292025", "NAME": "NAKRI", "FTECH": "JTWC", "FCST_DTG": "2025-10-14 12:00:00", "RUN_DTG": "2025-10-15 06:26:19", "BASIN": "WP", "STMNR": 29, "CAT_ID": null, "CAT_DESC": null, "MSGID": "WTPN31 PGTW 141500", "VALIDTIME": "2025-10-14 00:00:00" }, "geometry": { "type": "Point", "coordinates": [ 151.0, 34.900002 ] } },
{ "type": "Feature", "properties": { "ID": 61630, "LAT": 35.0, "LON": 154.6, "VMAX": 70.0, "MSLP": 983.0, "RMAX": 35.0, "FSPD": 14.44012, "FDIR": 81.80719, "RENV": 210.0, "PENV": 1010.0, "VALIDT": 0, "DTG": "2025-10-14 06:00", "LATNOW": 35.4, "LONNOW": 158.0, "WINDNOW": 70.0, "DIRNOW": 14.0, "SPDNOW": 0.0, "TECH": "TRAK", "ADVNR": 26, "ATCFID": "WP292025", "NAME": "NAKRI", "FTECH": "JTWC", "FCST_DTG": "2025-10-14 12:00:00", "RUN_DTG": "2025-10-15 06:26:19", "BASIN": "WP", "STMNR": 29, "CAT_ID": null, "CAT_DESC": null, "MSGID": "WTPN31 PGTW 141500", "VALIDTIME": "2025-10-14 06:00:00" }, "geometry": { "type": "Point", "coordinates": [ 154.600006, 35.0 ] } },
{ "type": "Feature", "properties": { "ID": 61631, "LAT": 35.4, "LON": 158.0, "VMAX": 70.0, "MSLP": 979.0, "RMAX": 50.0, "FSPD": 13.84205, "FDIR": 85.73724, "RENV": 220.0, "PENV": 1011.0, "VALIDT": 0, "DTG": "2025-10-14 12:00", "LATNOW": 35.4, "LONNOW": 158.0, "WINDNOW": 70.0, "DIRNOW": 14.0, "SPDNOW": 0.0, "TECH": "TRAK", "ADVNR": 26, "ATCFID": "WP292025", "NAME": "NAKRI", "FTECH": "JTWC", "FCST_DTG": "2025-10-14 12:00:00", "RUN_DTG": "2025-10-15 06:26:19", "BASIN": "WP", "STMNR": 29, "CAT_ID": null, "CAT_DESC": null, "MSGID": "WTPN31 PGTW 141500", "VALIDTIME": "2025-10-14 12:00:00" }, "geometry": { "type": "Point", "coordinates": [ 158.0, 35.400002 ] } },
{ "type": "Feature", "properties": { "ID": 61632, "LAT": 35.8, "LON": 164.6, "VMAX": 65.0, "MSLP": 993.434, "RMAX": 30.0, "FSPD": 13.59702, "FDIR": 83.48254, "RENV": 180.0, "PENV": 1012.0, "VALIDT": 12, "DTG": "2025-10-15 00:00", "LATNOW": 35.4, "LONNOW": 158.0, "WINDNOW": 70.0, "DIRNOW": 14.0, "SPDNOW": 0.0, "TECH": "FCST", "ADVNR": 26, "ATCFID": "WP292025", "NAME": "NAKRI", "FTECH": "JTWC", "FCST_DTG": "2025-10-14 12:00:00", "RUN_DTG": "2025-10-15 06:26:19", "BASIN": "WP", "STMNR": 29, "CAT_ID": null, "CAT_DESC": null, "MSGID": "WTPN31 PGTW 141500", "VALIDTIME": "2025-10-15 00:00:00" }, "geometry": { "type": "Point", "coordinates": [ 164.600006, 35.799999 ] } },
{ "type": "Feature", "properties": { "ID": 61633, "LAT": 36.4, "LON": 171.1, "VMAX": 60.0, "MSLP": 996.62427, "RMAX": 60.08404, "FSPD": 13.59702, "FDIR": 83.48254, "RENV": 250.0, "PENV": 1012.0, "VALIDT": 24, "DTG": "2025-10-15 12:00", "LATNOW": 35.4, "LONNOW": 158.0, "WINDNOW": 70.0, "DIRNOW": 14.0, "SPDNOW": 0.0, "TECH": "FCST", "ADVNR": 26, "ATCFID": "WP292025", "NAME": "NAKRI", "FTECH": "JTWC", "FCST_DTG": "2025-10-14 12:00:00", "RUN_DTG": "2025-10-15 06:26:19", "BASIN": "WP", "STMNR": 29, "CAT_ID": null, "CAT_DESC": null, "MSGID": "WTPN31 PGTW 141500", "VALIDTIME": "2025-10-15 12:00:00" }, "geometry": { "type": "Point", "coordinates": [ 171.100006, 36.400002 ] } },
{ "type": "Feature", "properties": { "ID": 61631, "LAT": 35.4, "LON": 158.0, "VMAX": 70.0, "MSLP": 979.0, "RMAX": 50.0, "FSPD": 13.84205, "FDIR": 85.73724, "RENV": 220.0, "PENV": 1011.0, "VALIDT": 0, "DTG": "2025-10-14 12:00", "LATNOW": 35.4, "LONNOW": 158.0, "WINDNOW": 70.0, "DIRNOW": 14.0, "SPDNOW": 0.0, "TECH": "TRAK", "ADVNR": 26, "ATCFID": "WP292025", "NAME": "NAKRI", "FTECH": "JTWC", "FCST_DTG": "2025-10-14 12:00:00", "RUN_DTG": "2025-10-15 06:26:19", "BASIN": "WP", "STMNR": 29, "CAT_ID": null, "CAT_DESC": null, "MSGID": "WTPN31 PGTW 141500", "VALIDTIME": "2025-10-14 12:00:00" }, "geometry": { "type": "LineString", "coordinates": [ [ 155.3, 6.5 ], [ 154.4, 6.9 ], [ 153.3, 7.6 ], [ 151.7, 8.9 ], [ 150.6, 10.6 ], [ 149.9, 11.1 ], [ 149.6, 11.4 ], [ 149.0, 11.6 ], [ 147.9, 12.0 ], [ 146.3, 12.7 ], [ 145.7, 13.4 ], [ 144.5, 14.7 ], [ 142.3, 15.5 ], [ 141.1, 16.1 ], [ 139.9, 17.3 ], [ 138.9, 18.4 ], [ 138.5, 19.0 ], [ 137.3, 20.5 ], [ 136.3, 21.8 ], [ 135.7, 22.9 ], [ 134.8, 24.1 ], [ 134.3, 24.7 ], [ 133.9, 25.8 ], [ 132.7, 26.7 ], [ 131.6, 27.2 ], [ 130.8, 26.5 ], [ 130.6, 26.7 ], [ 130.3, 27.2 ], [ 131.0, 27.7 ], [ 131.5, 28.7 ], [ 131.8, 29.3 ], [ 133.5, 30.1 ], [ 135.2, 30.9 ], [ 136.5, 31.7 ], [ 138.3, 32.2 ], [ 140.3, 33.1 ], [ 142.8, 33.8 ], [ 145.3, 34.3 ], [ 147.7, 34.2 ], [ 151.0, 34.9 ], [ 154.6, 35.0 ], [ 158.0, 35.4 ] ] } },
{ "type": "Feature", "properties": { "ID": 61633, "LAT": 36.4, "LON": 171.1, "VMAX": 60.0, "MSLP": 996.62427, "RMAX": 60.08404, "FSPD": 13.59702, "FDIR": 83.48254, "RENV": 250.0, "PENV": 1012.0, "VALIDT": 24, "DTG": "2025-10-15 12:00", "LATNOW": 35.4, "LONNOW": 158.0, "WINDNOW": 70.0, "DIRNOW": 14.0, "SPDNOW": 0.0, "TECH": "FCST", "ADVNR": 26, "ATCFID": "WP292025", "NAME": "NAKRI", "FTECH": "JTWC", "FCST_DTG": "2025-10-14 12:00:00", "RUN_DTG": "2025-10-15 06:26:19", "BASIN": "WP", "STMNR": 29, "CAT_ID": null, "CAT_DESC": null, "MSGID": "WTPN31 PGTW 141500", "VALIDTIME": "2025-10-15 12:00:00" }, "geometry": { "type": "LineString", "coordinates": [ [ 158.0, 35.4 ], [ 164.6, 35.8 ], [ 171.1, 36.4 ] ] } }
]
}
