{
"type": "FeatureCollection",
"crs": { "type": "name", "properties": { "name": "urn:ogc:def:crs:OGC:1.3:CRS84" } },
"features": [
{ "type": "Feature", "properties": { "ID": 303946, "LAT": -14.8, "LON": 126.9, "VMAX": 15.0, "MSLP": 1013.8515, "RMAX": 40.0, "FSPD": 0.0, "FDIR": 90.0, "RENV": 500.0, "PENV": 1012.0, "VALIDT": 0, "DTG": "2025-02-07 00:00", "LATNOW": -20.2, "LONNOW": 119.1, "WINDNOW": 105.0, "DIRNOW": 4.0, "SPDNOW": 5.0, "TECH": "TRAK", "ADVNR": 13, "ATCFID": "SH172025", "NAME": "ZELIA", "FTECH": "JTWC", "FCST_DTG": "2025-02-14 06:00:00", "RUN_DTG": "2025-02-14 21:14:37", "BASIN": "SH", "STMNR": 17, "CAT_ID": null, "CAT_DESC": null, "MSGID": "WTXS51 PGTW 140900", "VALIDTIME": "2025-02-07 00:00:00" }, "geometry": { "type": "Point", "coordinates": [ 126.900002, -14.8 ] } },
{ "type": "Feature", "properties": { "ID": 303947, "LAT": -14.8, "LON": 126.9, "VMAX": 15.0, "MSLP": 1013.8515, "RMAX": 40.0, "FSPD": 2.54264, "FDIR": 324.0283, "RENV": 500.0, "PENV": 1012.0, "VALIDT": 0, "DTG": "2025-02-07 00:00", "LATNOW": -20.2, "LONNOW": 119.1, "WINDNOW": 105.0, "DIRNOW": 4.0, "SPDNOW": 5.0, "TECH": "TRAK", "ADVNR": 13, "ATCFID": "SH172025", "NAME": "ZELIA", "FTECH": "JTWC", "FCST_DTG": "2025-02-14 06:00:00", "RUN_DTG": "2025-02-14 21:14:37", "BASIN": "SH", "STMNR": 17, "CAT_ID": null, "CAT_DESC": null, "MSGID": "WTXS51 PGTW 140900", "VALIDTIME": "2025-02-07 00:00:00" }, "geometry": { "type": "Point", "coordinates": [ 126.900002, -14.8 ] } },
{ "type": "Feature", "properties": { "ID": 303948, "LAT": -14.4, "LON": 126.6, "VMAX": 15.0, "MSLP": 1013.8515, "RMAX": 40.0, "FSPD": 1.54333, "FDIR": 360.0, "RENV": 500.0, "PENV": 1012.0, "VALIDT": 0, "DTG": "2025-02-07 06:00", "LATNOW": -20.2, "LONNOW": 119.1, "WINDNOW": 105.0, "DIRNOW": 4.0, "SPDNOW": 5.0, "TECH": "TRAK", "ADVNR": 13, "ATCFID": "SH172025", "NAME": "ZELIA", "FTECH": "JTWC", "FCST_DTG": "2025-02-14 06:00:00", "RUN_DTG": "2025-02-14 21:14:37", "BASIN": "SH", "STMNR": 17, "CAT_ID": null, "CAT_DESC": null, "MSGID": "WTXS51 PGTW 140900", "VALIDTIME": "2025-02-07 06:00:00" }, "geometry": { "type": "Point", "coordinates": [ 126.599998, -14.4 ] } },
{ "type": "Feature", "properties": { "ID": 303949, "LAT": -14.1, "LON": 126.6, "VMAX": 15.0, "MSLP": 1013.8515, "RMAX": 40.0, "FSPD": 2.15064, "FDIR": 315.85797, "RENV": 500.0, "PENV": 1012.0, "VALIDT": 0, "DTG": "2025-02-07 12:00", "LATNOW": -20.2, "LONNOW": 119.1, "WINDNOW": 105.0, "DIRNOW": 4.0, "SPDNOW": 5.0, "TECH": "TRAK", "ADVNR": 13, "ATCFID": "SH172025", "NAME": "ZELIA", "FTECH": "JTWC", "FCST_DTG": "2025-02-14 06:00:00", "RUN_DTG": "2025-02-14 21:14:37", "BASIN": "SH", "STMNR": 17, "CAT_ID": null, "CAT_DESC": null, "MSGID": "WTXS51 PGTW 140900", "VALIDTIME": "2025-02-07 12:00:00" }, "geometry": { "type": "Point", "coordinates": [ 126.599998, -14.1 ] } },
{ "type": "Feature", "properties": { "ID": 303950, "LAT": -13.8, "LON": 126.3, "VMAX": 15.0, "MSLP": 1013.8515, "RMAX": 40.0, "FSPD": 3.6338, "FDIR": 235.50826, "RENV": 500.0, "PENV": 1012.0, "VALIDT": 0, "DTG": "2025-02-07 18:00", "LATNOW": -20.2, "LONNOW": 119.1, "WINDNOW": 105.0, "DIRNOW": 4.0, "SPDNOW": 5.0, "TECH": "TRAK", "ADVNR": 13, "ATCFID": "SH172025", "NAME": "ZELIA", "FTECH": "JTWC", "FCST_DTG": "2025-02-14 06:00:00", "RUN_DTG": "2025-02-14 21:14:37", "BASIN": "SH", "STMNR": 17, "CAT_ID": null, "CAT_DESC": null, "MSGID": "WTXS51 PGTW 140900", "VALIDTIME": "2025-02-07 18:00:00" }, "geometry": { "type": "Point", "coordinates": [ 126.300003, -13.8 ] } },
{ "type": "Feature", "properties": { "ID": 303951, "LAT": -14.2, "LON": 125.7, "VMAX": 25.0, "MSLP": 1011.80975, "RMAX": 45.0, "FSPD": 2.49363, "FDIR": 269.99997, "RENV": 500.0, "PENV": 1012.0, "VALIDT": 0, "DTG": "2025-02-08 00:00", "LATNOW": -20.2, "LONNOW": 119.1, "WINDNOW": 105.0, "DIRNOW": 4.0, "SPDNOW": 5.0, "TECH": "TRAK", "ADVNR": 13, "ATCFID": "SH172025", "NAME": "ZELIA", "FTECH": "JTWC", "FCST_DTG": "2025-02-14 06:00:00", "RUN_DTG": "2025-02-14 21:14:37", "BASIN": "SH", "STMNR": 17, "CAT_ID": null, "CAT_DESC": null, "MSGID": "WTXS51 PGTW 140900", "VALIDTIME": "2025-02-08 00:00:00" }, "geometry": { "type": "Point", "coordinates": [ 125.699997, -14.2 ] } },
{ "type": "Feature", "properties": { "ID": 303952, "LAT": -14.2, "LON": 125.2, "VMAX": 25.0, "MSLP": 1011.80975, "RMAX": 45.0, "FSPD": 2.05971, "FDIR": 255.53629, "RENV": 500.0, "PENV": 1012.0, "VALIDT": 0, "DTG": "2025-02-08 06:00", "LATNOW": -20.2, "LONNOW": 119.1, "WINDNOW": 105.0, "DIRNOW": 4.0, "SPDNOW": 5.0, "TECH": "TRAK", "ADVNR": 13, "ATCFID": "SH172025", "NAME": "ZELIA", "FTECH": "JTWC", "FCST_DTG": "2025-02-14 06:00:00", "RUN_DTG": "2025-02-14 21:14:37", "BASIN": "SH", "STMNR": 17, "CAT_ID": null, "CAT_DESC": null, "MSGID": "WTXS51 PGTW 140900", "VALIDTIME": "2025-02-08 06:00:00" }, "geometry": { "type": "Point", "coordinates": [ 125.199997, -14.2 ] } },
{ "type": "Feature", "properties": { "ID": 303953, "LAT": -14.3, "LON": 124.8, "VMAX": 25.0, "MSLP": 1011.80975, "RMAX": 45.0, "FSPD": 3.57981, "FDIR": 224.0663, "RENV": 500.0, "PENV": 1012.0, "VALIDT": 0, "DTG": "2025-02-08 12:00", "LATNOW": -20.2, "LONNOW": 119.1, "WINDNOW": 105.0, "DIRNOW": 4.0, "SPDNOW": 5.0, "TECH": "TRAK", "ADVNR": 13, "ATCFID": "SH172025", "NAME": "ZELIA", "FTECH": "JTWC", "FCST_DTG": "2025-02-14 06:00:00", "RUN_DTG": "2025-02-14 21:14:37", "BASIN": "SH", "STMNR": 17, "CAT_ID": null, "CAT_DESC": null, "MSGID": "WTXS51 PGTW 140900", "VALIDTIME": "2025-02-08 12:00:00" }, "geometry": { "type": "Point", "coordinates": [ 124.800003, -14.3 ] } },
{ "type": "Feature", "properties": { "ID": 303954, "LAT": -14.8, "LON": 124.3, "VMAX": 25.0, "MSLP": 1011.80975, "RMAX": 45.0, "FSPD": 2.86099, "FDIR": 224.00713, "RENV": 500.0, "PENV": 1012.0, "VALIDT": 0, "DTG": "2025-02-08 18:00", "LATNOW": -20.2, "LONNOW": 119.1, "WINDNOW": 105.0, "DIRNOW": 4.0, "SPDNOW": 5.0, "TECH": "TRAK", "ADVNR": 13, "ATCFID": "SH172025", "NAME": "ZELIA", "FTECH": "JTWC", "FCST_DTG": "2025-02-14 06:00:00", "RUN_DTG": "2025-02-14 21:14:37", "BASIN": "SH", "STMNR": 17, "CAT_ID": null, "CAT_DESC": null, "MSGID": "WTXS51 PGTW 140900", "VALIDTIME": "2025-02-08 18:00:00" }, "geometry": { "type": "Point", "coordinates": [ 124.300003, -14.8 ] } },
{ "type": "Feature", "properties": { "ID": 303955, "LAT": -15.2, "LON": 123.9, "VMAX": 25.0, "MSLP": 1011.80975, "RMAX": 45.0, "FSPD": 1.57537, "FDIR": 250.94008, "RENV": 500.0, "PENV": 1012.0, "VALIDT": 0, "DTG": "2025-02-09 00:00", "LATNOW": -20.2, "LONNOW": 119.1, "WINDNOW": 105.0, "DIRNOW": 4.0, "SPDNOW": 5.0, "TECH": "TRAK", "ADVNR": 13, "ATCFID": "SH172025", "NAME": "ZELIA", "FTECH": "JTWC", "FCST_DTG": "2025-02-14 06:00:00", "RUN_DTG": "2025-02-14 21:14:37", "BASIN": "SH", "STMNR": 17, "CAT_ID": null, "CAT_DESC": null, "MSGID": "WTXS51 PGTW 140900", "VALIDTIME": "2025-02-09 00:00:00" }, "geometry": { "type": "Point", "coordinates": [ 123.900002, -15.2 ] } },
{ "type": "Feature", "properties": { "ID": 303956, "LAT": -15.3, "LON": 123.6, "VMAX": 25.0, "MSLP": 1011.80975, "RMAX": 45.0, "FSPD": 1.57466, "FDIR": 250.93135, "RENV": 500.0, "PENV": 1012.0, "VALIDT": 0, "DTG": "2025-02-09 06:00", "LATNOW": -20.2, "LONNOW": 119.1, "WINDNOW": 105.0, "DIRNOW": 4.0, "SPDNOW": 5.0, "TECH": "TRAK", "ADVNR": 13, "ATCFID": "SH172025", "NAME": "ZELIA", "FTECH": "JTWC", "FCST_DTG": "2025-02-14 06:00:00", "RUN_DTG": "2025-02-14 21:14:37", "BASIN": "SH", "STMNR": 17, "CAT_ID": null, "CAT_DESC": null, "MSGID": "WTXS51 PGTW 140900", "VALIDTIME": "2025-02-09 06:00:00" }, "geometry": { "type": "Point", "coordinates": [ 123.599998, -15.3 ] } },
{ "type": "Feature", "properties": { "ID": 303957, "LAT": -15.4, "LON": 123.3, "VMAX": 25.0, "MSLP": 1011.80975, "RMAX": 45.0, "FSPD": 1.9839, "FDIR": 269.99997, "RENV": 500.0, "PENV": 1012.0, "VALIDT": 0, "DTG": "2025-02-09 12:00", "LATNOW": -20.2, "LONNOW": 119.1, "WINDNOW": 105.0, "DIRNOW": 4.0, "SPDNOW": 5.0, "TECH": "TRAK", "ADVNR": 13, "ATCFID": "SH172025", "NAME": "ZELIA", "FTECH": "JTWC", "FCST_DTG": "2025-02-14 06:00:00", "RUN_DTG": "2025-02-14 21:14:37", "BASIN": "SH", "STMNR": 17, "CAT_ID": null, "CAT_DESC": null, "MSGID": "WTXS51 PGTW 140900", "VALIDTIME": "2025-02-09 12:00:00" }, "geometry": { "type": "Point", "coordinates": [ 123.300003, -15.4 ] } },
{ "type": "Feature", "properties": { "ID": 303958, "LAT": -15.4, "LON": 122.9, "VMAX": 25.0, "MSLP": 1011.80975, "RMAX": 45.0, "FSPD": 3.47184, "FDIR": 269.99997, "RENV": 500.0, "PENV": 1012.0, "VALIDT": 0, "DTG": "2025-02-09 18:00", "LATNOW": -20.2, "LONNOW": 119.1, "WINDNOW": 105.0, "DIRNOW": 4.0, "SPDNOW": 5.0, "TECH": "TRAK", "ADVNR": 13, "ATCFID": "SH172025", "NAME": "ZELIA", "FTECH": "JTWC", "FCST_DTG": "2025-02-14 06:00:00", "RUN_DTG": "2025-02-14 21:14:37", "BASIN": "SH", "STMNR": 17, "CAT_ID": null, "CAT_DESC": null, "MSGID": "WTXS51 PGTW 140900", "VALIDTIME": "2025-02-09 18:00:00" }, "geometry": { "type": "Point", "coordinates": [ 122.900002, -15.4 ] } },
{ "type": "Feature", "properties": { "ID": 303959, "LAT": -15.4, "LON": 122.2, "VMAX": 25.0, "MSLP": 1011.80975, "RMAX": 45.0, "FSPD": 7.23566, "FDIR": 253.47733, "RENV": 500.0, "PENV": 1012.0, "VALIDT": 0, "DTG": "2025-02-10 00:00", "LATNOW": -20.2, "LONNOW": 119.1, "WINDNOW": 105.0, "DIRNOW": 4.0, "SPDNOW": 5.0, "TECH": "TRAK", "ADVNR": 13, "ATCFID": "SH172025", "NAME": "ZELIA", "FTECH": "JTWC", "FCST_DTG": "2025-02-14 06:00:00", "RUN_DTG": "2025-02-14 21:14:37", "BASIN": "SH", "STMNR": 17, "CAT_ID": null, "CAT_DESC": null, "MSGID": "WTXS51 PGTW 140900", "VALIDTIME": "2025-02-10 00:00:00" }, "geometry": { "type": "Point", "coordinates": [ 122.199997, -15.4 ] } },
{ "type": "Feature", "properties": { "ID": 303960, "LAT": -15.8, "LON": 120.8, "VMAX": 25.0, "MSLP": 1011.80975, "RMAX": 45.0, "FSPD": 1.42752, "FDIR": 223.88338, "RENV": 500.0, "PENV": 1012.0, "VALIDT": 0, "DTG": "2025-02-10 06:00", "LATNOW": -20.2, "LONNOW": 119.1, "WINDNOW": 105.0, "DIRNOW": 4.0, "SPDNOW": 5.0, "TECH": "TRAK", "ADVNR": 13, "ATCFID": "SH172025", "NAME": "ZELIA", "FTECH": "JTWC", "FCST_DTG": "2025-02-14 06:00:00", "RUN_DTG": "2025-02-14 21:14:37", "BASIN": "SH", "STMNR": 17, "CAT_ID": null, "CAT_DESC": null, "MSGID": "WTXS51 PGTW 140900", "VALIDTIME": "2025-02-10 06:00:00" }, "geometry": { "type": "Point", "coordinates": [ 120.800003, -15.8 ] } },
{ "type": "Feature", "properties": { "ID": 303961, "LAT": -16.0, "LON": 120.6, "VMAX": 25.0, "MSLP": 1011.80975, "RMAX": 45.0, "FSPD": 2.50773, "FDIR": 232.01695, "RENV": 500.0, "PENV": 1012.0, "VALIDT": 0, "DTG": "2025-02-10 12:00", "LATNOW": -20.2, "LONNOW": 119.1, "WINDNOW": 105.0, "DIRNOW": 4.0, "SPDNOW": 5.0, "TECH": "TRAK", "ADVNR": 13, "ATCFID": "SH172025", "NAME": "ZELIA", "FTECH": "JTWC", "FCST_DTG": "2025-02-14 06:00:00", "RUN_DTG": "2025-02-14 21:14:37", "BASIN": "SH", "STMNR": 17, "CAT_ID": null, "CAT_DESC": null, "MSGID": "WTXS51 PGTW 140900", "VALIDTIME": "2025-02-10 12:00:00" }, "geometry": { "type": "Point", "coordinates": [ 120.599998, -16.0 ] } },
{ "type": "Feature", "properties": { "ID": 303962, "LAT": -16.3, "LON": 120.2, "VMAX": 25.0, "MSLP": 1011.80975, "RMAX": 45.0, "FSPD": 1.14113, "FDIR": 205.62457, "RENV": 500.0, "PENV": 1012.0, "VALIDT": 0, "DTG": "2025-02-10 18:00", "LATNOW": -20.2, "LONNOW": 119.1, "WINDNOW": 105.0, "DIRNOW": 4.0, "SPDNOW": 5.0, "TECH": "TRAK", "ADVNR": 13, "ATCFID": "SH172025", "NAME": "ZELIA", "FTECH": "JTWC", "FCST_DTG": "2025-02-14 06:00:00", "RUN_DTG": "2025-02-14 21:14:37", "BASIN": "SH", "STMNR": 17, "CAT_ID": null, "CAT_DESC": null, "MSGID": "WTXS51 PGTW 140900", "VALIDTIME": "2025-02-10 18:00:00" }, "geometry": { "type": "Point", "coordinates": [ 120.199997, -16.299999 ] } },
{ "type": "Feature", "properties": { "ID": 303963, "LAT": -16.5, "LON": 120.1, "VMAX": 40.0, "MSLP": 1006.833, "RMAX": 41.26637, "FSPD": 2.53369, "FDIR": 215.6918, "RENV": 500.0, "PENV": 1012.0, "VALIDT": 0, "DTG": "2025-02-11 00:00", "LATNOW": -20.2, "LONNOW": 119.1, "WINDNOW": 105.0, "DIRNOW": 4.0, "SPDNOW": 5.0, "TECH": "TRAK", "ADVNR": 13, "ATCFID": "SH172025", "NAME": "ZELIA", "FTECH": "JTWC", "FCST_DTG": "2025-02-14 06:00:00", "RUN_DTG": "2025-02-14 21:14:37", "BASIN": "SH", "STMNR": 17, "CAT_ID": null, "CAT_DESC": null, "MSGID": "WTXS51 PGTW 140900", "VALIDTIME": "2025-02-11 00:00:00" }, "geometry": { "type": "Point", "coordinates": [ 120.099998, -16.5 ] } },
{ "type": "Feature", "properties": { "ID": 303964, "LAT": -16.9, "LON": 119.8, "VMAX": 40.0, "MSLP": 992.0, "RMAX": 40.0, "FSPD": 6.18658, "FDIR": 213.74182, "RENV": 130.0, "PENV": 1000.0, "VALIDT": 0, "DTG": "2025-02-11 06:00", "LATNOW": -20.2, "LONNOW": 119.1, "WINDNOW": 105.0, "DIRNOW": 4.0, "SPDNOW": 5.0, "TECH": "TRAK", "ADVNR": 13, "ATCFID": "SH172025", "NAME": "ZELIA", "FTECH": "JTWC", "FCST_DTG": "2025-02-14 06:00:00", "RUN_DTG": "2025-02-14 21:14:37", "BASIN": "SH", "STMNR": 17, "CAT_ID": null, "CAT_DESC": null, "MSGID": "WTXS51 PGTW 140900", "VALIDTIME": "2025-02-11 06:00:00" }, "geometry": { "type": "Point", "coordinates": [ 119.800003, -16.9 ] } },
{ "type": "Feature", "properties": { "ID": 303965, "LAT": -17.9, "LON": 119.1, "VMAX": 40.0, "MSLP": 992.0, "RMAX": 40.0, "FSPD": 3.23772, "FDIR": 197.57047, "RENV": 130.0, "PENV": 1000.0, "VALIDT": 0, "DTG": "2025-02-11 12:00", "LATNOW": -20.2, "LONNOW": 119.1, "WINDNOW": 105.0, "DIRNOW": 4.0, "SPDNOW": 5.0, "TECH": "TRAK", "ADVNR": 13, "ATCFID": "SH172025", "NAME": "ZELIA", "FTECH": "JTWC", "FCST_DTG": "2025-02-14 06:00:00", "RUN_DTG": "2025-02-14 21:14:37", "BASIN": "SH", "STMNR": 17, "CAT_ID": null, "CAT_DESC": null, "MSGID": "WTXS51 PGTW 140900", "VALIDTIME": "2025-02-11 12:00:00" }, "geometry": { "type": "Point", "coordinates": [ 119.099998, -17.9 ] } },
{ "type": "Feature", "properties": { "ID": 303966, "LAT": -18.5, "LON": 118.9, "VMAX": 50.0, "MSLP": 1002.2391, "RMAX": 38.56918, "FSPD": 3.41498, "FDIR": 205.32954, "RENV": 500.0, "PENV": 1012.0, "VALIDT": 0, "DTG": "2025-02-11 18:00", "LATNOW": -20.2, "LONNOW": 119.1, "WINDNOW": 105.0, "DIRNOW": 4.0, "SPDNOW": 5.0, "TECH": "TRAK", "ADVNR": 13, "ATCFID": "SH172025", "NAME": "ZELIA", "FTECH": "JTWC", "FCST_DTG": "2025-02-14 06:00:00", "RUN_DTG": "2025-02-14 21:14:37", "BASIN": "SH", "STMNR": 17, "CAT_ID": null, "CAT_DESC": null, "MSGID": "WTXS51 PGTW 140900", "VALIDTIME": "2025-02-11 18:00:00" }, "geometry": { "type": "Point", "coordinates": [ 118.900002, -18.5 ] } },
{ "type": "Feature", "properties": { "ID": 303967, "LAT": -19.1, "LON": 118.6, "VMAX": 60.0, "MSLP": 992.0, "RMAX": 40.0, "FSPD": 0.70789, "FDIR": 43.38678, "RENV": 130.0, "PENV": 1000.0, "VALIDT": 0, "DTG": "2025-02-12 00:00", "LATNOW": -20.2, "LONNOW": 119.1, "WINDNOW": 105.0, "DIRNOW": 4.0, "SPDNOW": 5.0, "TECH": "TRAK", "ADVNR": 13, "ATCFID": "SH172025", "NAME": "ZELIA", "FTECH": "JTWC", "FCST_DTG": "2025-02-14 06:00:00", "RUN_DTG": "2025-02-14 21:14:37", "BASIN": "SH", "STMNR": 17, "CAT_ID": null, "CAT_DESC": null, "MSGID": "WTXS51 PGTW 140900", "VALIDTIME": "2025-02-12 00:00:00" }, "geometry": { "type": "Point", "coordinates": [ 118.599998, -19.1 ] } },
{ "type": "Feature", "properties": { "ID": 303968, "LAT": -19.0, "LON": 118.7, "VMAX": 65.0, "MSLP": 982.0, "RMAX": 40.0, "FSPD": 0.70789, "FDIR": 223.38675, "RENV": 175.0, "PENV": 1001.0, "VALIDT": 0, "DTG": "2025-02-12 06:00", "LATNOW": -20.2, "LONNOW": 119.1, "WINDNOW": 105.0, "DIRNOW": 4.0, "SPDNOW": 5.0, "TECH": "TRAK", "ADVNR": 13, "ATCFID": "SH172025", "NAME": "ZELIA", "FTECH": "JTWC", "FCST_DTG": "2025-02-14 06:00:00", "RUN_DTG": "2025-02-14 21:14:37", "BASIN": "SH", "STMNR": 17, "CAT_ID": null, "CAT_DESC": null, "MSGID": "WTXS51 PGTW 140900", "VALIDTIME": "2025-02-12 06:00:00" }, "geometry": { "type": "Point", "coordinates": [ 118.699997, -19.0 ] } },
{ "type": "Feature", "properties": { "ID": 303969, "LAT": -19.1, "LON": 118.6, "VMAX": 70.0, "MSLP": 978.0, "RMAX": 30.0, "FSPD": 1.54601, "FDIR": 250.56375, "RENV": 190.0, "PENV": 1001.0, "VALIDT": 0, "DTG": "2025-02-12 12:00", "LATNOW": -20.2, "LONNOW": 119.1, "WINDNOW": 105.0, "DIRNOW": 4.0, "SPDNOW": 5.0, "TECH": "TRAK", "ADVNR": 13, "ATCFID": "SH172025", "NAME": "ZELIA", "FTECH": "JTWC", "FCST_DTG": "2025-02-14 06:00:00", "RUN_DTG": "2025-02-14 21:14:37", "BASIN": "SH", "STMNR": 17, "CAT_ID": null, "CAT_DESC": null, "MSGID": "WTXS51 PGTW 140900", "VALIDTIME": "2025-02-12 12:00:00" }, "geometry": { "type": "Point", "coordinates": [ 118.599998, -19.1 ] } },
{ "type": "Feature", "properties": { "ID": 303970, "LAT": -19.2, "LON": 118.3, "VMAX": 85.0, "MSLP": 976.0, "RMAX": 20.0, "FSPD": 0.70771, "FDIR": 316.6283, "RENV": 150.0, "PENV": 1002.0, "VALIDT": 0, "DTG": "2025-02-12 18:00", "LATNOW": -20.2, "LONNOW": 119.1, "WINDNOW": 105.0, "DIRNOW": 4.0, "SPDNOW": 5.0, "TECH": "TRAK", "ADVNR": 13, "ATCFID": "SH172025", "NAME": "ZELIA", "FTECH": "JTWC", "FCST_DTG": "2025-02-14 06:00:00", "RUN_DTG": "2025-02-14 21:14:37", "BASIN": "SH", "STMNR": 17, "CAT_ID": null, "CAT_DESC": null, "MSGID": "WTXS51 PGTW 140900", "VALIDTIME": "2025-02-12 18:00:00" }, "geometry": { "type": "Point", "coordinates": [ 118.300003, -19.200001 ] } },
{ "type": "Feature", "properties": { "ID": 303971, "LAT": -19.1, "LON": 118.2, "VMAX": 120.0, "MSLP": 964.0, "RMAX": 20.0, "FSPD": 0.0, "FDIR": 90.0, "RENV": 170.0, "PENV": 1002.0, "VALIDT": 0, "DTG": "2025-02-13 00:00", "LATNOW": -20.2, "LONNOW": 119.1, "WINDNOW": 105.0, "DIRNOW": 4.0, "SPDNOW": 5.0, "TECH": "TRAK", "ADVNR": 13, "ATCFID": "SH172025", "NAME": "ZELIA", "FTECH": "JTWC", "FCST_DTG": "2025-02-14 06:00:00", "RUN_DTG": "2025-02-14 21:14:37", "BASIN": "SH", "STMNR": 17, "CAT_ID": null, "CAT_DESC": null, "MSGID": "WTXS51 PGTW 140900", "VALIDTIME": "2025-02-13 00:00:00" }, "geometry": { "type": "Point", "coordinates": [ 118.199997, -19.1 ] } },
{ "type": "Feature", "properties": { "ID": 303972, "LAT": -19.1, "LON": 118.2, "VMAX": 125.0, "MSLP": 940.0, "RMAX": 20.0, "FSPD": 1.02888, "FDIR": 179.99997, "RENV": 265.0, "PENV": 1008.0, "VALIDT": 0, "DTG": "2025-02-13 06:00", "LATNOW": -20.2, "LONNOW": 119.1, "WINDNOW": 105.0, "DIRNOW": 4.0, "SPDNOW": 5.0, "TECH": "TRAK", "ADVNR": 13, "ATCFID": "SH172025", "NAME": "ZELIA", "FTECH": "JTWC", "FCST_DTG": "2025-02-14 06:00:00", "RUN_DTG": "2025-02-14 21:14:37", "BASIN": "SH", "STMNR": 17, "CAT_ID": null, "CAT_DESC": null, "MSGID": "WTXS51 PGTW 140900", "VALIDTIME": "2025-02-13 06:00:00" }, "geometry": { "type": "Point", "coordinates": [ 118.199997, -19.1 ] } },
{ "type": "Feature", "properties": { "ID": 303973, "LAT": -19.3, "LON": 118.2, "VMAX": 130.0, "MSLP": 929.0, "RMAX": 5.0, "FSPD": 0.48556, "FDIR": 90.0, "RENV": 200.0, "PENV": 1002.0, "VALIDT": 0, "DTG": "2025-02-13 12:00", "LATNOW": -20.2, "LONNOW": 119.1, "WINDNOW": 105.0, "DIRNOW": 4.0, "SPDNOW": 5.0, "TECH": "TRAK", "ADVNR": 13, "ATCFID": "SH172025", "NAME": "ZELIA", "FTECH": "JTWC", "FCST_DTG": "2025-02-14 06:00:00", "RUN_DTG": "2025-02-14 21:14:37", "BASIN": "SH", "STMNR": 17, "CAT_ID": null, "CAT_DESC": null, "MSGID": "WTXS51 PGTW 140900", "VALIDTIME": "2025-02-13 12:00:00" }, "geometry": { "type": "Point", "coordinates": [ 118.199997, -19.299999 ] } },
{ "type": "Feature", "properties": { "ID": 303974, "LAT": -19.3, "LON": 118.3, "VMAX": 115.0, "MSLP": 923.0, "RMAX": 6.0, "FSPD": 2.19676, "FDIR": 117.92834, "RENV": 135.0, "PENV": 1002.0, "VALIDT": 0, "DTG": "2025-02-13 18:00", "LATNOW": -20.2, "LONNOW": 119.1, "WINDNOW": 105.0, "DIRNOW": 4.0, "SPDNOW": 5.0, "TECH": "TRAK", "ADVNR": 13, "ATCFID": "SH172025", "NAME": "ZELIA", "FTECH": "JTWC", "FCST_DTG": "2025-02-14 06:00:00", "RUN_DTG": "2025-02-14 21:14:37", "BASIN": "SH", "STMNR": 17, "CAT_ID": null, "CAT_DESC": null, "MSGID": "WTXS51 PGTW 140900", "VALIDTIME": "2025-02-13 18:00:00" }, "geometry": { "type": "Point", "coordinates": [ 118.300003, -19.299999 ] } },
{ "type": "Feature", "properties": { "ID": 303975, "LAT": -19.5, "LON": 118.7, "VMAX": 115.0, "MSLP": 937.0, "RMAX": 5.0, "FSPD": 4.08871, "FDIR": 151.73251, "RENV": 135.0, "PENV": 1002.0, "VALIDT": 0, "DTG": "2025-02-14 00:00", "LATNOW": -20.2, "LONNOW": 119.1, "WINDNOW": 105.0, "DIRNOW": 4.0, "SPDNOW": 5.0, "TECH": "TRAK", "ADVNR": 13, "ATCFID": "SH172025", "NAME": "ZELIA", "FTECH": "JTWC", "FCST_DTG": "2025-02-14 06:00:00", "RUN_DTG": "2025-02-14 21:14:37", "BASIN": "SH", "STMNR": 17, "CAT_ID": null, "CAT_DESC": null, "MSGID": "WTXS51 PGTW 140900", "VALIDTIME": "2025-02-14 00:00:00" }, "geometry": { "type": "Point", "coordinates": [ 118.699997, -19.5 ] } },
{ "type": "Feature", "properties": { "ID": 303976, "LAT": -20.06, "LON": 119.02, "VMAX": 115.0, "MSLP": 937.0, "RMAX": 5.0, "FSPD": 4.08668, "FDIR": 151.78476, "RENV": 135.0, "PENV": 1002.0, "VALIDT": 0, "DTG": "2025-02-14 04:00", "LATNOW": -20.2, "LONNOW": 119.1, "WINDNOW": 105.0, "DIRNOW": 4.0, "SPDNOW": 5.0, "TECH": "TRAK", "ADVNR": 13, "ATCFID": "SH172025", "NAME": "ZELIA", "FTECH": "JTWC", "FCST_DTG": "2025-02-14 06:00:00", "RUN_DTG": "2025-02-14 21:14:37", "BASIN": "SH", "STMNR": 17, "CAT_ID": null, "CAT_DESC": null, "MSGID": "WTXS51 PGTW 140900", "VALIDTIME": "2025-02-14 04:00:00" }, "geometry": { "type": "Point", "coordinates": [ 119.019997, -20.060001 ] } },
{ "type": "Feature", "properties": { "ID": 303977, "LAT": -20.2, "LON": 119.1, "VMAX": 105.0, "MSLP": 958.7243, "RMAX": 24.73938, "FSPD": 3.60912, "FDIR": 176.18237, "RENV": 371.0907, "PENV": 1012.0, "VALIDT": 0, "DTG": "2025-02-14 06:00", "LATNOW": -20.2, "LONNOW": 119.1, "WINDNOW": 105.0, "DIRNOW": 4.0, "SPDNOW": 5.0, "TECH": "TRAK", "ADVNR": 13, "ATCFID": "SH172025", "NAME": "ZELIA", "FTECH": "JTWC", "FCST_DTG": "2025-02-14 06:00:00", "RUN_DTG": "2025-02-14 21:14:37", "BASIN": "SH", "STMNR": 17, "CAT_ID": null, "CAT_DESC": null, "MSGID": "WTXS51 PGTW 140900", "VALIDTIME": "2025-02-14 06:00:00" }, "geometry": { "type": "Point", "coordinates": [ 119.099998, -20.200001 ] } },
{ "type": "Feature", "properties": { "ID": 303978, "LAT": -21.6, "LON": 119.2, "VMAX": 75.0, "MSLP": 986.2879, "RMAX": 30.0, "FSPD": 4.68456, "FDIR": 188.75348, "RENV": 250.0, "PENV": 1012.0, "VALIDT": 12, "DTG": "2025-02-14 18:00", "LATNOW": -20.2, "LONNOW": 119.1, "WINDNOW": 105.0, "DIRNOW": 4.0, "SPDNOW": 5.0, "TECH": "FCST", "ADVNR": 13, "ATCFID": "SH172025", "NAME": "ZELIA", "FTECH": "JTWC", "FCST_DTG": "2025-02-14 06:00:00", "RUN_DTG": "2025-02-14 21:14:37", "BASIN": "SH", "STMNR": 17, "CAT_ID": null, "CAT_DESC": null, "MSGID": "WTXS51 PGTW 140900", "VALIDTIME": "2025-02-14 18:00:00" }, "geometry": { "type": "Point", "coordinates": [ 119.199997, -21.6 ] } },
{ "type": "Feature", "properties": { "ID": 303979, "LAT": -23.4, "LON": 118.9, "VMAX": 50.0, "MSLP": 1002.2391, "RMAX": 38.56918, "FSPD": 3.86687, "FDIR": 201.36609, "RENV": 250.0, "PENV": 1012.0, "VALIDT": 24, "DTG": "2025-02-15 06:00", "LATNOW": -20.2, "LONNOW": 119.1, "WINDNOW": 105.0, "DIRNOW": 4.0, "SPDNOW": 5.0, "TECH": "FCST", "ADVNR": 13, "ATCFID": "SH172025", "NAME": "ZELIA", "FTECH": "JTWC", "FCST_DTG": "2025-02-14 06:00:00", "RUN_DTG": "2025-02-14 21:14:37", "BASIN": "SH", "STMNR": 17, "CAT_ID": null, "CAT_DESC": null, "MSGID": "WTXS51 PGTW 140900", "VALIDTIME": "2025-02-15 06:00:00" }, "geometry": { "type": "Point", "coordinates": [ 118.900002, -23.4 ] } },
{ "type": "Feature", "properties": { "ID": 303980, "LAT": -24.8, "LON": 118.3, "VMAX": 35.0, "MSLP": 1008.74713, "RMAX": 42.69135, "FSPD": 4.68192, "FDIR": 188.54086, "RENV": 250.0, "PENV": 1012.0, "VALIDT": 36, "DTG": "2025-02-15 18:00", "LATNOW": -20.2, "LONNOW": 119.1, "WINDNOW": 105.0, "DIRNOW": 4.0, "SPDNOW": 5.0, "TECH": "FCST", "ADVNR": 13, "ATCFID": "SH172025", "NAME": "ZELIA", "FTECH": "JTWC", "FCST_DTG": "2025-02-14 06:00:00", "RUN_DTG": "2025-02-14 21:14:37", "BASIN": "SH", "STMNR": 17, "CAT_ID": null, "CAT_DESC": null, "MSGID": "WTXS51 PGTW 140900", "VALIDTIME": "2025-02-15 18:00:00" }, "geometry": { "type": "Point", "coordinates": [ 118.300003, -24.799999 ] } },
{ "type": "Feature", "properties": { "ID": 303981, "LAT": -26.6, "LON": 118.0, "VMAX": 25.0, "MSLP": 1011.80975, "RMAX": 45.0, "FSPD": 4.68192, "FDIR": 188.54086, "RENV": 250.0, "PENV": 1012.0, "VALIDT": 48, "DTG": "2025-02-16 06:00", "LATNOW": -20.2, "LONNOW": 119.1, "WINDNOW": 105.0, "DIRNOW": 4.0, "SPDNOW": 5.0, "TECH": "FCST", "ADVNR": 13, "ATCFID": "SH172025", "NAME": "ZELIA", "FTECH": "JTWC", "FCST_DTG": "2025-02-14 06:00:00", "RUN_DTG": "2025-02-14 21:14:37", "BASIN": "SH", "STMNR": 17, "CAT_ID": null, "CAT_DESC": null, "MSGID": "WTXS51 PGTW 140900", "VALIDTIME": "2025-02-16 06:00:00" }, "geometry": { "type": "Point", "coordinates": [ 118.0, -26.6 ] } },
{ "type": "Feature", "properties": { "ID": 303977, "LAT": -20.2, "LON": 119.1, "VMAX": 105.0, "MSLP": 958.7243, "RMAX": 24.73938, "FSPD": 3.60912, "FDIR": 176.18237, "RENV": 371.0907, "PENV": 1012.0, "VALIDT": 0, "DTG": "2025-02-14 06:00", "LATNOW": -20.2, "LONNOW": 119.1, "WINDNOW": 105.0, "DIRNOW": 4.0, "SPDNOW": 5.0, "TECH": "TRAK", "ADVNR": 13, "ATCFID": "SH172025", "NAME": "ZELIA", "FTECH": "JTWC", "FCST_DTG": "2025-02-14 06:00:00", "RUN_DTG": "2025-02-14 21:14:37", "BASIN": "SH", "STMNR": 17, "CAT_ID": null, "CAT_DESC": null, "MSGID": "WTXS51 PGTW 140900", "VALIDTIME": "2025-02-14 06:00:00" }, "geometry": { "type": "LineString", "coordinates": [ [ 126.9, -14.8 ], [ 126.9, -14.8 ], [ 126.6, -14.4 ], [ 126.6, -14.1 ], [ 126.3, -13.8 ], [ 125.7, -14.2 ], [ 125.2, -14.2 ], [ 124.8, -14.3 ], [ 124.3, -14.8 ], [ 123.9, -15.2 ], [ 123.6, -15.3 ], [ 123.3, -15.4 ], [ 122.9, -15.4 ], [ 122.2, -15.4 ], [ 120.8, -15.8 ], [ 120.6, -16.0 ], [ 120.2, -16.3 ], [ 120.1, -16.5 ], [ 119.8, -16.9 ], [ 119.1, -17.9 ], [ 118.9, -18.5 ], [ 118.6, -19.1 ], [ 118.7, -19.0 ], [ 118.6, -19.1 ], [ 118.3, -19.2 ], [ 118.2, -19.1 ], [ 118.2, -19.1 ], [ 118.2, -19.3 ], [ 118.3, -19.3 ], [ 118.7, -19.5 ], [ 119.02, -20.06 ], [ 119.1, -20.2 ] ] } },
{ "type": "Feature", "properties": { "ID": 303981, "LAT": -26.6, "LON": 118.0, "VMAX": 25.0, "MSLP": 1011.80975, "RMAX": 45.0, "FSPD": 4.68192, "FDIR": 188.54086, "RENV": 250.0, "PENV": 1012.0, "VALIDT": 48, "DTG": "2025-02-16 06:00", "LATNOW": -20.2, "LONNOW": 119.1, "WINDNOW": 105.0, "DIRNOW": 4.0, "SPDNOW": 5.0, "TECH": "FCST", "ADVNR": 13, "ATCFID": "SH172025", "NAME": "ZELIA", "FTECH": "JTWC", "FCST_DTG": "2025-02-14 06:00:00", "RUN_DTG": "2025-02-14 21:14:37", "BASIN": "SH", "STMNR": 17, "CAT_ID": null, "CAT_DESC": null, "MSGID": "WTXS51 PGTW 140900", "VALIDTIME": "2025-02-16 06:00:00" }, "geometry": { "type": "LineString", "coordinates": [ [ 119.1, -20.2 ], [ 119.2, -21.6 ], [ 118.9, -23.4 ], [ 118.3, -24.8 ], [ 118.0, -26.6 ] ] } }
]
}
