{
"type": "FeatureCollection",
"crs": { "type": "name", "properties": { "name": "urn:ogc:def:crs:OGC:1.3:CRS84" } },
"features": [
{ "type": "Feature", "properties": { "ID": 280043, "LAT": 11.4, "LON": -110.4, "VMAX": 25.0, "MSLP": 1007.0, "RMAX": 30.0, "FSPD": 1.51286, "FDIR": 269.99997, "RENV": 120.0, "PENV": 1012.0, "VALIDT": 0, "DTG": "2024-11-02 18:00", "LATNOW": 12.7, "LONNOW": -104.0, "WINDNOW": 20.0, "DIRNOW": 2.0, "SPDNOW": 6.0, "TECH": "TRAK", "ADVNR": 6, "ATCFID": "EP142024", "NAME": "FOURTEEN", "FTECH": "OFCL", "FCST_DTG": "2024-11-07 18:00:00", "RUN_DTG": "2024-11-08 09:42:50", "BASIN": "EP", "STMNR": 14, "CAT_ID": null, "CAT_DESC": null, "MSGID": "WTPZ24 KNHC 072038", "VALIDTIME": "2024-11-02 18:00:00" }, "geometry": { "type": "Point", "coordinates": [ -110.400002, 11.4 ] } },
{ "type": "Feature", "properties": { "ID": 280044, "LAT": 11.4, "LON": -110.7, "VMAX": 25.0, "MSLP": 1007.0, "RMAX": 30.0, "FSPD": 1.5129, "FDIR": 269.99997, "RENV": 120.0, "PENV": 1012.0, "VALIDT": 0, "DTG": "2024-11-03 00:00", "LATNOW": 12.7, "LONNOW": -104.0, "WINDNOW": 20.0, "DIRNOW": 2.0, "SPDNOW": 6.0, "TECH": "TRAK", "ADVNR": 6, "ATCFID": "EP142024", "NAME": "FOURTEEN", "FTECH": "OFCL", "FCST_DTG": "2024-11-07 18:00:00", "RUN_DTG": "2024-11-08 09:42:50", "BASIN": "EP", "STMNR": 14, "CAT_ID": null, "CAT_DESC": null, "MSGID": "WTPZ24 KNHC 072038", "VALIDTIME": "2024-11-03 00:00:00" }, "geometry": { "type": "Point", "coordinates": [ -110.699997, 11.4 ] } },
{ "type": "Feature", "properties": { "ID": 280045, "LAT": 11.4, "LON": -111.0, "VMAX": 25.0, "MSLP": 1008.0, "RMAX": 30.0, "FSPD": 0.51445, "FDIR": 360.0, "RENV": 120.0, "PENV": 1013.0, "VALIDT": 0, "DTG": "2024-11-03 06:00", "LATNOW": 12.7, "LONNOW": -104.0, "WINDNOW": 20.0, "DIRNOW": 2.0, "SPDNOW": 6.0, "TECH": "TRAK", "ADVNR": 6, "ATCFID": "EP142024", "NAME": "FOURTEEN", "FTECH": "OFCL", "FCST_DTG": "2024-11-07 18:00:00", "RUN_DTG": "2024-11-08 09:42:50", "BASIN": "EP", "STMNR": 14, "CAT_ID": null, "CAT_DESC": null, "MSGID": "WTPZ24 KNHC 072038", "VALIDTIME": "2024-11-03 06:00:00" }, "geometry": { "type": "Point", "coordinates": [ -111.0, 11.4 ] } },
{ "type": "Feature", "properties": { "ID": 280046, "LAT": 11.5, "LON": -111.0, "VMAX": 25.0, "MSLP": 1008.0, "RMAX": 30.0, "FSPD": 1.44078, "FDIR": 135.57117, "RENV": 120.0, "PENV": 1013.0, "VALIDT": 0, "DTG": "2024-11-03 12:00", "LATNOW": 12.7, "LONNOW": -104.0, "WINDNOW": 20.0, "DIRNOW": 2.0, "SPDNOW": 6.0, "TECH": "TRAK", "ADVNR": 6, "ATCFID": "EP142024", "NAME": "FOURTEEN", "FTECH": "OFCL", "FCST_DTG": "2024-11-07 18:00:00", "RUN_DTG": "2024-11-08 09:42:50", "BASIN": "EP", "STMNR": 14, "CAT_ID": null, "CAT_DESC": null, "MSGID": "WTPZ24 KNHC 072038", "VALIDTIME": "2024-11-03 12:00:00" }, "geometry": { "type": "Point", "coordinates": [ -111.0, 11.5 ] } },
{ "type": "Feature", "properties": { "ID": 280047, "LAT": 11.3, "LON": -110.8, "VMAX": 25.0, "MSLP": 1008.0, "RMAX": 30.0, "FSPD": 0.7206, "FDIR": 135.55408, "RENV": 120.0, "PENV": 1013.0, "VALIDT": 0, "DTG": "2024-11-03 18:00", "LATNOW": 12.7, "LONNOW": -104.0, "WINDNOW": 20.0, "DIRNOW": 2.0, "SPDNOW": 6.0, "TECH": "TRAK", "ADVNR": 6, "ATCFID": "EP142024", "NAME": "FOURTEEN", "FTECH": "OFCL", "FCST_DTG": "2024-11-07 18:00:00", "RUN_DTG": "2024-11-08 09:42:50", "BASIN": "EP", "STMNR": 14, "CAT_ID": null, "CAT_DESC": null, "MSGID": "WTPZ24 KNHC 072038", "VALIDTIME": "2024-11-03 18:00:00" }, "geometry": { "type": "Point", "coordinates": [ -110.800003, 11.3 ] } },
{ "type": "Feature", "properties": { "ID": 280048, "LAT": 11.2, "LON": -110.7, "VMAX": 30.0, "MSLP": 1007.0, "RMAX": 20.0, "FSPD": 3.02787, "FDIR": 90.0, "RENV": 120.0, "PENV": 1011.0, "VALIDT": 0, "DTG": "2024-11-04 00:00", "LATNOW": 12.7, "LONNOW": -104.0, "WINDNOW": 20.0, "DIRNOW": 2.0, "SPDNOW": 6.0, "TECH": "TRAK", "ADVNR": 6, "ATCFID": "EP142024", "NAME": "FOURTEEN", "FTECH": "OFCL", "FCST_DTG": "2024-11-07 18:00:00", "RUN_DTG": "2024-11-08 09:42:50", "BASIN": "EP", "STMNR": 14, "CAT_ID": null, "CAT_DESC": null, "MSGID": "WTPZ24 KNHC 072038", "VALIDTIME": "2024-11-04 00:00:00" }, "geometry": { "type": "Point", "coordinates": [ -110.699997, 11.2 ] } },
{ "type": "Feature", "properties": { "ID": 280049, "LAT": 11.2, "LON": -110.1, "VMAX": 30.0, "MSLP": 1007.0, "RMAX": 20.0, "FSPD": 1.83088, "FDIR": 124.19159, "RENV": 120.0, "PENV": 1011.0, "VALIDT": 0, "DTG": "2024-11-04 06:00", "LATNOW": 12.7, "LONNOW": -104.0, "WINDNOW": 20.0, "DIRNOW": 2.0, "SPDNOW": 6.0, "TECH": "TRAK", "ADVNR": 6, "ATCFID": "EP142024", "NAME": "FOURTEEN", "FTECH": "OFCL", "FCST_DTG": "2024-11-07 18:00:00", "RUN_DTG": "2024-11-08 09:42:50", "BASIN": "EP", "STMNR": 14, "CAT_ID": null, "CAT_DESC": null, "MSGID": "WTPZ24 KNHC 072038", "VALIDTIME": "2024-11-04 06:00:00" }, "geometry": { "type": "Point", "coordinates": [ -110.099998, 11.2 ] } },
{ "type": "Feature", "properties": { "ID": 280050, "LAT": 11.0, "LON": -109.8, "VMAX": 30.0, "MSLP": 1007.0, "RMAX": 20.0, "FSPD": 3.02999, "FDIR": 90.0, "RENV": 120.0, "PENV": 1011.0, "VALIDT": 0, "DTG": "2024-11-04 12:00", "LATNOW": 12.7, "LONNOW": -104.0, "WINDNOW": 20.0, "DIRNOW": 2.0, "SPDNOW": 6.0, "TECH": "TRAK", "ADVNR": 6, "ATCFID": "EP142024", "NAME": "FOURTEEN", "FTECH": "OFCL", "FCST_DTG": "2024-11-07 18:00:00", "RUN_DTG": "2024-11-08 09:42:50", "BASIN": "EP", "STMNR": 14, "CAT_ID": null, "CAT_DESC": null, "MSGID": "WTPZ24 KNHC 072038", "VALIDTIME": "2024-11-04 12:00:00" }, "geometry": { "type": "Point", "coordinates": [ -109.800003, 11.0 ] } },
{ "type": "Feature", "properties": { "ID": 280051, "LAT": 11.0, "LON": -109.2, "VMAX": 30.0, "MSLP": 1007.0, "RMAX": 20.0, "FSPD": 2.08409, "FDIR": 75.70911, "RENV": 120.0, "PENV": 1011.0, "VALIDT": 0, "DTG": "2024-11-04 18:00", "LATNOW": 12.7, "LONNOW": -104.0, "WINDNOW": 20.0, "DIRNOW": 2.0, "SPDNOW": 6.0, "TECH": "TRAK", "ADVNR": 6, "ATCFID": "EP142024", "NAME": "FOURTEEN", "FTECH": "OFCL", "FCST_DTG": "2024-11-07 18:00:00", "RUN_DTG": "2024-11-08 09:42:50", "BASIN": "EP", "STMNR": 14, "CAT_ID": null, "CAT_DESC": null, "MSGID": "WTPZ24 KNHC 072038", "VALIDTIME": "2024-11-04 18:00:00" }, "geometry": { "type": "Point", "coordinates": [ -109.199997, 11.0 ] } },
{ "type": "Feature", "properties": { "ID": 280052, "LAT": 11.1, "LON": -108.8, "VMAX": 30.0, "MSLP": 1007.0, "RMAX": 20.0, "FSPD": 3.19795, "FDIR": 71.23218, "RENV": 120.0, "PENV": 1010.0, "VALIDT": 0, "DTG": "2024-11-05 00:00", "LATNOW": 12.7, "LONNOW": -104.0, "WINDNOW": 20.0, "DIRNOW": 2.0, "SPDNOW": 6.0, "TECH": "TRAK", "ADVNR": 6, "ATCFID": "EP142024", "NAME": "FOURTEEN", "FTECH": "OFCL", "FCST_DTG": "2024-11-07 18:00:00", "RUN_DTG": "2024-11-08 09:42:50", "BASIN": "EP", "STMNR": 14, "CAT_ID": null, "CAT_DESC": null, "MSGID": "WTPZ24 KNHC 072038", "VALIDTIME": "2024-11-05 00:00:00" }, "geometry": { "type": "Point", "coordinates": [ -108.800003, 11.1 ] } },
{ "type": "Feature", "properties": { "ID": 280053, "LAT": 11.3, "LON": -108.2, "VMAX": 30.0, "MSLP": 1007.0, "RMAX": 20.0, "FSPD": 3.39616, "FDIR": 62.97137, "RENV": 120.0, "PENV": 1010.0, "VALIDT": 0, "DTG": "2024-11-05 06:00", "LATNOW": 12.7, "LONNOW": -104.0, "WINDNOW": 20.0, "DIRNOW": 2.0, "SPDNOW": 6.0, "TECH": "TRAK", "ADVNR": 6, "ATCFID": "EP142024", "NAME": "FOURTEEN", "FTECH": "OFCL", "FCST_DTG": "2024-11-07 18:00:00", "RUN_DTG": "2024-11-08 09:42:50", "BASIN": "EP", "STMNR": 14, "CAT_ID": null, "CAT_DESC": null, "MSGID": "WTPZ24 KNHC 072038", "VALIDTIME": "2024-11-05 06:00:00" }, "geometry": { "type": "Point", "coordinates": [ -108.199997, 11.3 ] } },
{ "type": "Feature", "properties": { "ID": 280054, "LAT": 11.6, "LON": -107.6, "VMAX": 30.0, "MSLP": 1007.0, "RMAX": 20.0, "FSPD": 3.59912, "FDIR": 44.3829, "RENV": 120.0, "PENV": 1010.0, "VALIDT": 0, "DTG": "2024-11-05 12:00", "LATNOW": 12.7, "LONNOW": -104.0, "WINDNOW": 20.0, "DIRNOW": 2.0, "SPDNOW": 6.0, "TECH": "TRAK", "ADVNR": 6, "ATCFID": "EP142024", "NAME": "FOURTEEN", "FTECH": "OFCL", "FCST_DTG": "2024-11-07 18:00:00", "RUN_DTG": "2024-11-08 09:42:50", "BASIN": "EP", "STMNR": 14, "CAT_ID": null, "CAT_DESC": null, "MSGID": "WTPZ24 KNHC 072038", "VALIDTIME": "2024-11-05 12:00:00" }, "geometry": { "type": "Point", "coordinates": [ -107.599998, 11.6 ] } },
{ "type": "Feature", "properties": { "ID": 280055, "LAT": 12.1, "LON": -107.1, "VMAX": 25.0, "MSLP": 1007.0, "RMAX": 20.0, "FSPD": 2.76161, "FDIR": 21.34247, "RENV": 120.0, "PENV": 1010.0, "VALIDT": 0, "DTG": "2024-11-05 18:00", "LATNOW": 12.7, "LONNOW": -104.0, "WINDNOW": 20.0, "DIRNOW": 2.0, "SPDNOW": 6.0, "TECH": "TRAK", "ADVNR": 6, "ATCFID": "EP142024", "NAME": "FOURTEEN", "FTECH": "OFCL", "FCST_DTG": "2024-11-07 18:00:00", "RUN_DTG": "2024-11-08 09:42:50", "BASIN": "EP", "STMNR": 14, "CAT_ID": null, "CAT_DESC": null, "MSGID": "WTPZ24 KNHC 072038", "VALIDTIME": "2024-11-05 18:00:00" }, "geometry": { "type": "Point", "coordinates": [ -107.099998, 12.1 ] } },
{ "type": "Feature", "properties": { "ID": 280056, "LAT": 12.6, "LON": -106.9, "VMAX": 25.0, "MSLP": 1007.0, "RMAX": 20.0, "FSPD": 2.25575, "FDIR": 62.86316, "RENV": 120.0, "PENV": 1010.0, "VALIDT": 0, "DTG": "2024-11-06 00:00", "LATNOW": 12.7, "LONNOW": -104.0, "WINDNOW": 20.0, "DIRNOW": 2.0, "SPDNOW": 6.0, "TECH": "TRAK", "ADVNR": 6, "ATCFID": "EP142024", "NAME": "FOURTEEN", "FTECH": "OFCL", "FCST_DTG": "2024-11-07 18:00:00", "RUN_DTG": "2024-11-08 09:42:50", "BASIN": "EP", "STMNR": 14, "CAT_ID": null, "CAT_DESC": null, "MSGID": "WTPZ24 KNHC 072038", "VALIDTIME": "2024-11-06 00:00:00" }, "geometry": { "type": "Point", "coordinates": [ -106.900002, 12.6 ] } },
{ "type": "Feature", "properties": { "ID": 280057, "LAT": 12.8, "LON": -106.5, "VMAX": 30.0, "MSLP": 1006.0, "RMAX": 20.0, "FSPD": 1.62272, "FDIR": 17.9964, "RENV": 120.0, "PENV": 1010.0, "VALIDT": 0, "DTG": "2024-11-06 06:00", "LATNOW": 12.7, "LONNOW": -104.0, "WINDNOW": 20.0, "DIRNOW": 2.0, "SPDNOW": 6.0, "TECH": "TRAK", "ADVNR": 6, "ATCFID": "EP142024", "NAME": "FOURTEEN", "FTECH": "OFCL", "FCST_DTG": "2024-11-07 18:00:00", "RUN_DTG": "2024-11-08 09:42:50", "BASIN": "EP", "STMNR": 14, "CAT_ID": null, "CAT_DESC": null, "MSGID": "WTPZ24 KNHC 072038", "VALIDTIME": "2024-11-06 06:00:00" }, "geometry": { "type": "Point", "coordinates": [ -106.5, 12.8 ] } },
{ "type": "Feature", "properties": { "ID": 280058, "LAT": 13.1, "LON": -106.4, "VMAX": 30.0, "MSLP": 1006.0, "RMAX": 20.0, "FSPD": 5.62767, "FDIR": 62.80197, "RENV": 120.0, "PENV": 1010.0, "VALIDT": 0, "DTG": "2024-11-06 12:00", "LATNOW": 12.7, "LONNOW": -104.0, "WINDNOW": 20.0, "DIRNOW": 2.0, "SPDNOW": 6.0, "TECH": "TRAK", "ADVNR": 6, "ATCFID": "EP142024", "NAME": "FOURTEEN", "FTECH": "OFCL", "FCST_DTG": "2024-11-07 18:00:00", "RUN_DTG": "2024-11-08 09:42:50", "BASIN": "EP", "STMNR": 14, "CAT_ID": null, "CAT_DESC": null, "MSGID": "WTPZ24 KNHC 072038", "VALIDTIME": "2024-11-06 12:00:00" }, "geometry": { "type": "Point", "coordinates": [ -106.400002, 13.1 ] } },
{ "type": "Feature", "properties": { "ID": 280059, "LAT": 13.6, "LON": -105.4, "VMAX": 25.0, "MSLP": 1006.0, "RMAX": 70.0, "FSPD": 1.58614, "FDIR": 108.92551, "RENV": 120.0, "PENV": 1010.0, "VALIDT": 0, "DTG": "2024-11-06 18:00", "LATNOW": 12.7, "LONNOW": -104.0, "WINDNOW": 20.0, "DIRNOW": 2.0, "SPDNOW": 6.0, "TECH": "TRAK", "ADVNR": 6, "ATCFID": "EP142024", "NAME": "FOURTEEN", "FTECH": "OFCL", "FCST_DTG": "2024-11-07 18:00:00", "RUN_DTG": "2024-11-08 09:42:50", "BASIN": "EP", "STMNR": 14, "CAT_ID": null, "CAT_DESC": null, "MSGID": "WTPZ24 KNHC 072038", "VALIDTIME": "2024-11-06 18:00:00" }, "geometry": { "type": "Point", "coordinates": [ -105.400002, 13.6 ] } },
{ "type": "Feature", "properties": { "ID": 280060, "LAT": 13.5, "LON": -105.1, "VMAX": 25.0, "MSLP": 1007.0, "RMAX": 70.0, "FSPD": 0.50022, "FDIR": 90.0, "RENV": 120.0, "PENV": 1010.0, "VALIDT": 0, "DTG": "2024-11-07 00:00", "LATNOW": 12.7, "LONNOW": -104.0, "WINDNOW": 20.0, "DIRNOW": 2.0, "SPDNOW": 6.0, "TECH": "TRAK", "ADVNR": 6, "ATCFID": "EP142024", "NAME": "FOURTEEN", "FTECH": "OFCL", "FCST_DTG": "2024-11-07 18:00:00", "RUN_DTG": "2024-11-08 09:42:50", "BASIN": "EP", "STMNR": 14, "CAT_ID": null, "CAT_DESC": null, "MSGID": "WTPZ24 KNHC 072038", "VALIDTIME": "2024-11-07 00:00:00" }, "geometry": { "type": "Point", "coordinates": [ -105.099998, 13.5 ] } },
{ "type": "Feature", "properties": { "ID": 280061, "LAT": 13.5, "LON": -105.0, "VMAX": 25.0, "MSLP": 1007.0, "RMAX": 70.0, "FSPD": 2.06641, "FDIR": 104.41571, "RENV": 120.0, "PENV": 1010.0, "VALIDT": 0, "DTG": "2024-11-07 06:00", "LATNOW": 12.7, "LONNOW": -104.0, "WINDNOW": 20.0, "DIRNOW": 2.0, "SPDNOW": 6.0, "TECH": "TRAK", "ADVNR": 6, "ATCFID": "EP142024", "NAME": "FOURTEEN", "FTECH": "OFCL", "FCST_DTG": "2024-11-07 18:00:00", "RUN_DTG": "2024-11-08 09:42:50", "BASIN": "EP", "STMNR": 14, "CAT_ID": null, "CAT_DESC": null, "MSGID": "WTPZ24 KNHC 072038", "VALIDTIME": "2024-11-07 06:00:00" }, "geometry": { "type": "Point", "coordinates": [ -105.0, 13.5 ] } },
{ "type": "Feature", "properties": { "ID": 280062, "LAT": 13.4, "LON": -104.6, "VMAX": 25.0, "MSLP": 1007.0, "RMAX": 70.0, "FSPD": 4.69145, "FDIR": 140.13794, "RENV": 120.0, "PENV": 1010.0, "VALIDT": 0, "DTG": "2024-11-07 12:00", "LATNOW": 12.7, "LONNOW": -104.0, "WINDNOW": 20.0, "DIRNOW": 2.0, "SPDNOW": 6.0, "TECH": "TRAK", "ADVNR": 6, "ATCFID": "EP142024", "NAME": "FOURTEEN", "FTECH": "OFCL", "FCST_DTG": "2024-11-07 18:00:00", "RUN_DTG": "2024-11-08 09:42:50", "BASIN": "EP", "STMNR": 14, "CAT_ID": null, "CAT_DESC": null, "MSGID": "WTPZ24 KNHC 072038", "VALIDTIME": "2024-11-07 12:00:00" }, "geometry": { "type": "Point", "coordinates": [ -104.599998, 13.4 ] } },
{ "type": "Feature", "properties": { "ID": 280063, "LAT": 12.7, "LON": -104.0, "VMAX": 20.0, "MSLP": 1009.0, "RMAX": 70.0, "FSPD": 2.25607, "FDIR": 117.13254, "RENV": 120.0, "PENV": 1010.0, "VALIDT": 0, "DTG": "2024-11-07 18:00", "LATNOW": 12.7, "LONNOW": -104.0, "WINDNOW": 20.0, "DIRNOW": 2.0, "SPDNOW": 6.0, "TECH": "TRAK", "ADVNR": 6, "ATCFID": "EP142024", "NAME": "FOURTEEN", "FTECH": "OFCL", "FCST_DTG": "2024-11-07 18:00:00", "RUN_DTG": "2024-11-08 09:42:50", "BASIN": "EP", "STMNR": 14, "CAT_ID": null, "CAT_DESC": null, "MSGID": "WTPZ24 KNHC 072038", "VALIDTIME": "2024-11-07 18:00:00" }, "geometry": { "type": "Point", "coordinates": [ -104.0, 12.7 ] } },
{ "type": "Feature", "properties": { "ID": 280064, "LAT": 12.6, "LON": -103.8, "VMAX": 20.0, "MSLP": 1009.0, "RMAX": 70.0, "FSPD": 2.25607, "FDIR": 117.13254, "RENV": 250.0, "PENV": 1012.0, "VALIDT": 3, "DTG": "2024-11-07 21:00", "LATNOW": 12.7, "LONNOW": -104.0, "WINDNOW": 20.0, "DIRNOW": 2.0, "SPDNOW": 6.0, "TECH": "FCST", "ADVNR": 6, "ATCFID": "EP142024", "NAME": "FOURTEEN", "FTECH": "OFCL", "FCST_DTG": "2024-11-07 18:00:00", "RUN_DTG": "2024-11-08 09:42:50", "BASIN": "EP", "STMNR": 14, "CAT_ID": null, "CAT_DESC": null, "MSGID": "WTPZ24 KNHC 072038", "VALIDTIME": "2024-11-07 21:00:00" }, "geometry": { "type": "Point", "coordinates": [ -103.800003, 12.6 ] } },
{ "type": "Feature", "properties": { "ID": 280063, "LAT": 12.7, "LON": -104.0, "VMAX": 20.0, "MSLP": 1009.0, "RMAX": 70.0, "FSPD": 2.25607, "FDIR": 117.13254, "RENV": 120.0, "PENV": 1010.0, "VALIDT": 0, "DTG": "2024-11-07 18:00", "LATNOW": 12.7, "LONNOW": -104.0, "WINDNOW": 20.0, "DIRNOW": 2.0, "SPDNOW": 6.0, "TECH": "TRAK", "ADVNR": 6, "ATCFID": "EP142024", "NAME": "FOURTEEN", "FTECH": "OFCL", "FCST_DTG": "2024-11-07 18:00:00", "RUN_DTG": "2024-11-08 09:42:50", "BASIN": "EP", "STMNR": 14, "CAT_ID": null, "CAT_DESC": null, "MSGID": "WTPZ24 KNHC 072038", "VALIDTIME": "2024-11-07 18:00:00" }, "geometry": { "type": "LineString", "coordinates": [ [ -110.4, 11.4 ], [ -110.7, 11.4 ], [ -111.0, 11.4 ], [ -111.0, 11.5 ], [ -110.8, 11.3 ], [ -110.7, 11.2 ], [ -110.1, 11.2 ], [ -109.8, 11.0 ], [ -109.2, 11.0 ], [ -108.8, 11.1 ], [ -108.2, 11.3 ], [ -107.6, 11.6 ], [ -107.1, 12.1 ], [ -106.9, 12.6 ], [ -106.5, 12.8 ], [ -106.4, 13.1 ], [ -105.4, 13.6 ], [ -105.1, 13.5 ], [ -105.0, 13.5 ], [ -104.6, 13.4 ], [ -104.0, 12.7 ] ] } },
{ "type": "Feature", "properties": { "ID": 280064, "LAT": 12.6, "LON": -103.8, "VMAX": 20.0, "MSLP": 1009.0, "RMAX": 70.0, "FSPD": 2.25607, "FDIR": 117.13254, "RENV": 250.0, "PENV": 1012.0, "VALIDT": 3, "DTG": "2024-11-07 21:00", "LATNOW": 12.7, "LONNOW": -104.0, "WINDNOW": 20.0, "DIRNOW": 2.0, "SPDNOW": 6.0, "TECH": "FCST", "ADVNR": 6, "ATCFID": "EP142024", "NAME": "FOURTEEN", "FTECH": "OFCL", "FCST_DTG": "2024-11-07 18:00:00", "RUN_DTG": "2024-11-08 09:42:50", "BASIN": "EP", "STMNR": 14, "CAT_ID": null, "CAT_DESC": null, "MSGID": "WTPZ24 KNHC 072038", "VALIDTIME": "2024-11-07 21:00:00" }, "geometry": { "type": "LineString", "coordinates": [ [ -104.0, 12.7 ], [ -103.8, 12.6 ] ] } }
]
}
