{
"type": "FeatureCollection",
"crs": { "type": "name", "properties": { "name": "urn:ogc:def:crs:OGC:1.3:CRS84" } },
"features": [
{ "type": "Feature", "properties": { "ID": 268396, "LAT": 8.4, "LON": 156.7, "VMAX": 15.0, "MSLP": 1013.8515, "RMAX": 40.0, "FSPD": 4.35263, "FDIR": 290.76736, "RENV": 500.0, "PENV": 1012.0, "VALIDT": 0, "DTG": "2024-10-02 06:00", "LATNOW": 31.5, "LONNOW": 149.2, "WINDNOW": 30.0, "DIRNOW": 8.0, "SPDNOW": 1.0, "TECH": "TRAK", "ADVNR": 13, "ATCFID": "WP212024", "NAME": "BARIJAT", "FTECH": "JTWC", "FCST_DTG": "2024-10-09 18:00:00", "RUN_DTG": "2024-10-09 21:24:47", "BASIN": "WP", "STMNR": 21, "CAT_ID": null, "CAT_DESC": null, "MSGID": "WTPN51 PGTW 092100", "VALIDTIME": "2024-10-02 06:00:00" }, "geometry": { "type": "Point", "coordinates": [ 156.699997, 8.4 ] } },
{ "type": "Feature", "properties": { "ID": 268397, "LAT": 8.7, "LON": 155.9, "VMAX": 15.0, "MSLP": 1013.8515, "RMAX": 40.0, "FSPD": 5.01577, "FDIR": 294.22128, "RENV": 500.0, "PENV": 1012.0, "VALIDT": 0, "DTG": "2024-10-02 12:00", "LATNOW": 31.5, "LONNOW": 149.2, "WINDNOW": 30.0, "DIRNOW": 8.0, "SPDNOW": 1.0, "TECH": "TRAK", "ADVNR": 13, "ATCFID": "WP212024", "NAME": "BARIJAT", "FTECH": "JTWC", "FCST_DTG": "2024-10-09 18:00:00", "RUN_DTG": "2024-10-09 21:24:47", "BASIN": "WP", "STMNR": 21, "CAT_ID": null, "CAT_DESC": null, "MSGID": "WTPN51 PGTW 092100", "VALIDTIME": "2024-10-02 12:00:00" }, "geometry": { "type": "Point", "coordinates": [ 155.899994, 8.7 ] } },
{ "type": "Feature", "properties": { "ID": 268398, "LAT": 9.1, "LON": 155.0, "VMAX": 15.0, "MSLP": 1013.8515, "RMAX": 40.0, "FSPD": 4.55302, "FDIR": 296.8694, "RENV": 500.0, "PENV": 1012.0, "VALIDT": 0, "DTG": "2024-10-02 18:00", "LATNOW": 31.5, "LONNOW": 149.2, "WINDNOW": 30.0, "DIRNOW": 8.0, "SPDNOW": 1.0, "TECH": "TRAK", "ADVNR": 13, "ATCFID": "WP212024", "NAME": "BARIJAT", "FTECH": "JTWC", "FCST_DTG": "2024-10-09 18:00:00", "RUN_DTG": "2024-10-09 21:24:47", "BASIN": "WP", "STMNR": 21, "CAT_ID": null, "CAT_DESC": null, "MSGID": "WTPN51 PGTW 092100", "VALIDTIME": "2024-10-02 18:00:00" }, "geometry": { "type": "Point", "coordinates": [ 155.0, 9.1 ] } },
{ "type": "Feature", "properties": { "ID": 268399, "LAT": 9.5, "LON": 154.2, "VMAX": 15.0, "MSLP": 1013.8515, "RMAX": 40.0, "FSPD": 5.67367, "FDIR": 280.44806, "RENV": 500.0, "PENV": 1012.0, "VALIDT": 0, "DTG": "2024-10-03 00:00", "LATNOW": 31.5, "LONNOW": 149.2, "WINDNOW": 30.0, "DIRNOW": 8.0, "SPDNOW": 1.0, "TECH": "TRAK", "ADVNR": 13, "ATCFID": "WP212024", "NAME": "BARIJAT", "FTECH": "JTWC", "FCST_DTG": "2024-10-09 18:00:00", "RUN_DTG": "2024-10-09 21:24:47", "BASIN": "WP", "STMNR": 21, "CAT_ID": null, "CAT_DESC": null, "MSGID": "WTPN51 PGTW 092100", "VALIDTIME": "2024-10-03 00:00:00" }, "geometry": { "type": "Point", "coordinates": [ 154.199997, 9.5 ] } },
{ "type": "Feature", "properties": { "ID": 268400, "LAT": 9.7, "LON": 153.1, "VMAX": 15.0, "MSLP": 1013.8515, "RMAX": 40.0, "FSPD": 3.86921, "FDIR": 293.50787, "RENV": 500.0, "PENV": 1012.0, "VALIDT": 0, "DTG": "2024-10-03 06:00", "LATNOW": 31.5, "LONNOW": 149.2, "WINDNOW": 30.0, "DIRNOW": 8.0, "SPDNOW": 1.0, "TECH": "TRAK", "ADVNR": 13, "ATCFID": "WP212024", "NAME": "BARIJAT", "FTECH": "JTWC", "FCST_DTG": "2024-10-09 18:00:00", "RUN_DTG": "2024-10-09 21:24:47", "BASIN": "WP", "STMNR": 21, "CAT_ID": null, "CAT_DESC": null, "MSGID": "WTPN51 PGTW 092100", "VALIDTIME": "2024-10-03 06:00:00" }, "geometry": { "type": "Point", "coordinates": [ 153.100006, 9.7 ] } },
{ "type": "Feature", "properties": { "ID": 268401, "LAT": 10.0, "LON": 152.4, "VMAX": 15.0, "MSLP": 1013.8515, "RMAX": 40.0, "FSPD": 6.63, "FDIR": 302.8986, "RENV": 500.0, "PENV": 1012.0, "VALIDT": 0, "DTG": "2024-10-03 12:00", "LATNOW": 31.5, "LONNOW": 149.2, "WINDNOW": 30.0, "DIRNOW": 8.0, "SPDNOW": 1.0, "TECH": "TRAK", "ADVNR": 13, "ATCFID": "WP212024", "NAME": "BARIJAT", "FTECH": "JTWC", "FCST_DTG": "2024-10-09 18:00:00", "RUN_DTG": "2024-10-09 21:24:47", "BASIN": "WP", "STMNR": 21, "CAT_ID": null, "CAT_DESC": null, "MSGID": "WTPN51 PGTW 092100", "VALIDTIME": "2024-10-03 12:00:00" }, "geometry": { "type": "Point", "coordinates": [ 152.399994, 10.0 ] } },
{ "type": "Feature", "properties": { "ID": 268402, "LAT": 10.7, "LON": 151.3, "VMAX": 15.0, "MSLP": 1013.8515, "RMAX": 40.0, "FSPD": 5.66804, "FDIR": 296.98846, "RENV": 500.0, "PENV": 1012.0, "VALIDT": 0, "DTG": "2024-10-03 18:00", "LATNOW": 31.5, "LONNOW": 149.2, "WINDNOW": 30.0, "DIRNOW": 8.0, "SPDNOW": 1.0, "TECH": "TRAK", "ADVNR": 13, "ATCFID": "WP212024", "NAME": "BARIJAT", "FTECH": "JTWC", "FCST_DTG": "2024-10-09 18:00:00", "RUN_DTG": "2024-10-09 21:24:47", "BASIN": "WP", "STMNR": 21, "CAT_ID": null, "CAT_DESC": null, "MSGID": "WTPN51 PGTW 092100", "VALIDTIME": "2024-10-03 18:00:00" }, "geometry": { "type": "Point", "coordinates": [ 151.300003, 10.7 ] } },
{ "type": "Feature", "properties": { "ID": 268403, "LAT": 11.2, "LON": 150.3, "VMAX": 15.0, "MSLP": 1013.8515, "RMAX": 40.0, "FSPD": 4.54187, "FDIR": 269.99997, "RENV": 500.0, "PENV": 1012.0, "VALIDT": 0, "DTG": "2024-10-04 00:00", "LATNOW": 31.5, "LONNOW": 149.2, "WINDNOW": 30.0, "DIRNOW": 8.0, "SPDNOW": 1.0, "TECH": "TRAK", "ADVNR": 13, "ATCFID": "WP212024", "NAME": "BARIJAT", "FTECH": "JTWC", "FCST_DTG": "2024-10-09 18:00:00", "RUN_DTG": "2024-10-09 21:24:47", "BASIN": "WP", "STMNR": 21, "CAT_ID": null, "CAT_DESC": null, "MSGID": "WTPN51 PGTW 092100", "VALIDTIME": "2024-10-04 00:00:00" }, "geometry": { "type": "Point", "coordinates": [ 150.300003, 11.2 ] } },
{ "type": "Feature", "properties": { "ID": 268404, "LAT": 11.2, "LON": 149.4, "VMAX": 15.0, "MSLP": 1013.8515, "RMAX": 40.0, "FSPD": 3.02784, "FDIR": 269.99997, "RENV": 500.0, "PENV": 1012.0, "VALIDT": 0, "DTG": "2024-10-04 06:00", "LATNOW": 31.5, "LONNOW": 149.2, "WINDNOW": 30.0, "DIRNOW": 8.0, "SPDNOW": 1.0, "TECH": "TRAK", "ADVNR": 13, "ATCFID": "WP212024", "NAME": "BARIJAT", "FTECH": "JTWC", "FCST_DTG": "2024-10-09 18:00:00", "RUN_DTG": "2024-10-09 21:24:47", "BASIN": "WP", "STMNR": 21, "CAT_ID": null, "CAT_DESC": null, "MSGID": "WTPN51 PGTW 092100", "VALIDTIME": "2024-10-04 06:00:00" }, "geometry": { "type": "Point", "coordinates": [ 149.399994, 11.2 ] } },
{ "type": "Feature", "properties": { "ID": 268405, "LAT": 11.2, "LON": 148.8, "VMAX": 20.0, "MSLP": 1012.95825, "RMAX": 45.0, "FSPD": 7.03918, "FDIR": 300.76917, "RENV": 500.0, "PENV": 1012.0, "VALIDT": 0, "DTG": "2024-10-04 12:00", "LATNOW": 31.5, "LONNOW": 149.2, "WINDNOW": 30.0, "DIRNOW": 8.0, "SPDNOW": 1.0, "TECH": "TRAK", "ADVNR": 13, "ATCFID": "WP212024", "NAME": "BARIJAT", "FTECH": "JTWC", "FCST_DTG": "2024-10-09 18:00:00", "RUN_DTG": "2024-10-09 21:24:47", "BASIN": "WP", "STMNR": 21, "CAT_ID": null, "CAT_DESC": null, "MSGID": "WTPN51 PGTW 092100", "VALIDTIME": "2024-10-04 12:00:00" }, "geometry": { "type": "Point", "coordinates": [ 148.800003, 11.2 ] } },
{ "type": "Feature", "properties": { "ID": 268406, "LAT": 11.9, "LON": 147.6, "VMAX": 15.0, "MSLP": 1013.8515, "RMAX": 40.0, "FSPD": 4.73785, "FDIR": 347.75153, "RENV": 500.0, "PENV": 1012.0, "VALIDT": 0, "DTG": "2024-10-04 18:00", "LATNOW": 31.5, "LONNOW": 149.2, "WINDNOW": 30.0, "DIRNOW": 8.0, "SPDNOW": 1.0, "TECH": "TRAK", "ADVNR": 13, "ATCFID": "WP212024", "NAME": "BARIJAT", "FTECH": "JTWC", "FCST_DTG": "2024-10-09 18:00:00", "RUN_DTG": "2024-10-09 21:24:47", "BASIN": "WP", "STMNR": 21, "CAT_ID": null, "CAT_DESC": null, "MSGID": "WTPN51 PGTW 092100", "VALIDTIME": "2024-10-04 18:00:00" }, "geometry": { "type": "Point", "coordinates": [ 147.600006, 11.9 ] } },
{ "type": "Feature", "properties": { "ID": 268407, "LAT": 12.8, "LON": 147.4, "VMAX": 20.0, "MSLP": 1012.95825, "RMAX": 45.0, "FSPD": 4.2357, "FDIR": 346.32068, "RENV": 500.0, "PENV": 1012.0, "VALIDT": 0, "DTG": "2024-10-05 00:00", "LATNOW": 31.5, "LONNOW": 149.2, "WINDNOW": 30.0, "DIRNOW": 8.0, "SPDNOW": 1.0, "TECH": "TRAK", "ADVNR": 13, "ATCFID": "WP212024", "NAME": "BARIJAT", "FTECH": "JTWC", "FCST_DTG": "2024-10-09 18:00:00", "RUN_DTG": "2024-10-09 21:24:47", "BASIN": "WP", "STMNR": 21, "CAT_ID": null, "CAT_DESC": null, "MSGID": "WTPN51 PGTW 092100", "VALIDTIME": "2024-10-05 00:00:00" }, "geometry": { "type": "Point", "coordinates": [ 147.399994, 12.8 ] } },
{ "type": "Feature", "properties": { "ID": 268408, "LAT": 13.6, "LON": 147.2, "VMAX": 20.0, "MSLP": 1012.95825, "RMAX": 45.0, "FSPD": 3.67661, "FDIR": 327.09167, "RENV": 500.0, "PENV": 1012.0, "VALIDT": 0, "DTG": "2024-10-05 06:00", "LATNOW": 31.5, "LONNOW": 149.2, "WINDNOW": 30.0, "DIRNOW": 8.0, "SPDNOW": 1.0, "TECH": "TRAK", "ADVNR": 13, "ATCFID": "WP212024", "NAME": "BARIJAT", "FTECH": "JTWC", "FCST_DTG": "2024-10-09 18:00:00", "RUN_DTG": "2024-10-09 21:24:47", "BASIN": "WP", "STMNR": 21, "CAT_ID": null, "CAT_DESC": null, "MSGID": "WTPN51 PGTW 092100", "VALIDTIME": "2024-10-05 06:00:00" }, "geometry": { "type": "Point", "coordinates": [ 147.199997, 13.6 ] } },
{ "type": "Feature", "properties": { "ID": 268409, "LAT": 14.2, "LON": 146.8, "VMAX": 20.0, "MSLP": 1012.95825, "RMAX": 45.0, "FSPD": 5.23982, "FDIR": 349.05133, "RENV": 500.0, "PENV": 1012.0, "VALIDT": 0, "DTG": "2024-10-05 12:00", "LATNOW": 31.5, "LONNOW": 149.2, "WINDNOW": 30.0, "DIRNOW": 8.0, "SPDNOW": 1.0, "TECH": "TRAK", "ADVNR": 13, "ATCFID": "WP212024", "NAME": "BARIJAT", "FTECH": "JTWC", "FCST_DTG": "2024-10-09 18:00:00", "RUN_DTG": "2024-10-09 21:24:47", "BASIN": "WP", "STMNR": 21, "CAT_ID": null, "CAT_DESC": null, "MSGID": "WTPN51 PGTW 092100", "VALIDTIME": "2024-10-05 12:00:00" }, "geometry": { "type": "Point", "coordinates": [ 146.800003, 14.2 ] } },
{ "type": "Feature", "properties": { "ID": 268410, "LAT": 15.2, "LON": 146.6, "VMAX": 20.0, "MSLP": 1012.95825, "RMAX": 45.0, "FSPD": 8.90873, "FDIR": 330.01904, "RENV": 500.0, "PENV": 1012.0, "VALIDT": 0, "DTG": "2024-10-05 18:00", "LATNOW": 31.5, "LONNOW": 149.2, "WINDNOW": 30.0, "DIRNOW": 8.0, "SPDNOW": 1.0, "TECH": "TRAK", "ADVNR": 13, "ATCFID": "WP212024", "NAME": "BARIJAT", "FTECH": "JTWC", "FCST_DTG": "2024-10-09 18:00:00", "RUN_DTG": "2024-10-09 21:24:47", "BASIN": "WP", "STMNR": 21, "CAT_ID": null, "CAT_DESC": null, "MSGID": "WTPN51 PGTW 092100", "VALIDTIME": "2024-10-05 18:00:00" }, "geometry": { "type": "Point", "coordinates": [ 146.600006, 15.2 ] } },
{ "type": "Feature", "properties": { "ID": 268411, "LAT": 16.7, "LON": 145.7, "VMAX": 20.0, "MSLP": 1012.95825, "RMAX": 45.0, "FSPD": 5.74356, "FDIR": 350.1495, "RENV": 500.0, "PENV": 1012.0, "VALIDT": 0, "DTG": "2024-10-06 00:00", "LATNOW": 31.5, "LONNOW": 149.2, "WINDNOW": 30.0, "DIRNOW": 8.0, "SPDNOW": 1.0, "TECH": "TRAK", "ADVNR": 13, "ATCFID": "WP212024", "NAME": "BARIJAT", "FTECH": "JTWC", "FCST_DTG": "2024-10-09 18:00:00", "RUN_DTG": "2024-10-09 21:24:47", "BASIN": "WP", "STMNR": 21, "CAT_ID": null, "CAT_DESC": null, "MSGID": "WTPN51 PGTW 092100", "VALIDTIME": "2024-10-06 00:00:00" }, "geometry": { "type": "Point", "coordinates": [ 145.699997, 16.700001 ] } },
{ "type": "Feature", "properties": { "ID": 268412, "LAT": 17.8, "LON": 145.5, "VMAX": 25.0, "MSLP": 1007.0, "RMAX": 25.0, "FSPD": 3.60111, "FDIR": 360.0, "RENV": 80.0, "PENV": 1009.0, "VALIDT": 0, "DTG": "2024-10-06 06:00", "LATNOW": 31.5, "LONNOW": 149.2, "WINDNOW": 30.0, "DIRNOW": 8.0, "SPDNOW": 1.0, "TECH": "TRAK", "ADVNR": 13, "ATCFID": "WP212024", "NAME": "BARIJAT", "FTECH": "JTWC", "FCST_DTG": "2024-10-09 18:00:00", "RUN_DTG": "2024-10-09 21:24:47", "BASIN": "WP", "STMNR": 21, "CAT_ID": null, "CAT_DESC": null, "MSGID": "WTPN51 PGTW 092100", "VALIDTIME": "2024-10-06 06:00:00" }, "geometry": { "type": "Point", "coordinates": [ 145.5, 17.799999 ] } },
{ "type": "Feature", "properties": { "ID": 268413, "LAT": 18.5, "LON": 145.5, "VMAX": 30.0, "MSLP": 1007.0, "RMAX": 25.0, "FSPD": 7.26747, "FDIR": 7.68332, "RENV": 80.0, "PENV": 1009.0, "VALIDT": 0, "DTG": "2024-10-06 12:00", "LATNOW": 31.5, "LONNOW": 149.2, "WINDNOW": 30.0, "DIRNOW": 8.0, "SPDNOW": 1.0, "TECH": "TRAK", "ADVNR": 13, "ATCFID": "WP212024", "NAME": "BARIJAT", "FTECH": "JTWC", "FCST_DTG": "2024-10-09 18:00:00", "RUN_DTG": "2024-10-09 21:24:47", "BASIN": "WP", "STMNR": 21, "CAT_ID": null, "CAT_DESC": null, "MSGID": "WTPN51 PGTW 092100", "VALIDTIME": "2024-10-06 12:00:00" }, "geometry": { "type": "Point", "coordinates": [ 145.5, 18.5 ] } },
{ "type": "Feature", "properties": { "ID": 268414, "LAT": 19.9, "LON": 145.7, "VMAX": 30.0, "MSLP": 1007.0, "RMAX": 25.0, "FSPD": 5.34395, "FDIR": 15.70532, "RENV": 130.0, "PENV": 1012.0, "VALIDT": 0, "DTG": "2024-10-06 18:00", "LATNOW": 31.5, "LONNOW": 149.2, "WINDNOW": 30.0, "DIRNOW": 8.0, "SPDNOW": 1.0, "TECH": "TRAK", "ADVNR": 13, "ATCFID": "WP212024", "NAME": "BARIJAT", "FTECH": "JTWC", "FCST_DTG": "2024-10-09 18:00:00", "RUN_DTG": "2024-10-09 21:24:47", "BASIN": "WP", "STMNR": 21, "CAT_ID": null, "CAT_DESC": null, "MSGID": "WTPN51 PGTW 092100", "VALIDTIME": "2024-10-06 18:00:00" }, "geometry": { "type": "Point", "coordinates": [ 145.699997, 19.9 ] } },
{ "type": "Feature", "properties": { "ID": 268415, "LAT": 20.9, "LON": 146.0, "VMAX": 40.0, "MSLP": 1007.0, "RMAX": 25.0, "FSPD": 4.76247, "FDIR": 30.21249, "RENV": 150.0, "PENV": 1010.0, "VALIDT": 0, "DTG": "2024-10-07 00:00", "LATNOW": 31.5, "LONNOW": 149.2, "WINDNOW": 30.0, "DIRNOW": 8.0, "SPDNOW": 1.0, "TECH": "TRAK", "ADVNR": 13, "ATCFID": "WP212024", "NAME": "BARIJAT", "FTECH": "JTWC", "FCST_DTG": "2024-10-09 18:00:00", "RUN_DTG": "2024-10-09 21:24:47", "BASIN": "WP", "STMNR": 21, "CAT_ID": null, "CAT_DESC": null, "MSGID": "WTPN51 PGTW 092100", "VALIDTIME": "2024-10-07 00:00:00" }, "geometry": { "type": "Point", "coordinates": [ 146.0, 20.9 ] } },
{ "type": "Feature", "properties": { "ID": 268416, "LAT": 21.7, "LON": 146.5, "VMAX": 40.0, "MSLP": 1002.0, "RMAX": 25.0, "FSPD": 8.40379, "FDIR": 23.33041, "RENV": 140.0, "PENV": 1007.0, "VALIDT": 0, "DTG": "2024-10-07 06:00", "LATNOW": 31.5, "LONNOW": 149.2, "WINDNOW": 30.0, "DIRNOW": 8.0, "SPDNOW": 1.0, "TECH": "TRAK", "ADVNR": 13, "ATCFID": "WP212024", "NAME": "BARIJAT", "FTECH": "JTWC", "FCST_DTG": "2024-10-09 18:00:00", "RUN_DTG": "2024-10-09 21:24:47", "BASIN": "WP", "STMNR": 21, "CAT_ID": null, "CAT_DESC": null, "MSGID": "WTPN51 PGTW 092100", "VALIDTIME": "2024-10-07 06:00:00" }, "geometry": { "type": "Point", "coordinates": [ 146.5, 21.700001 ] } },
{ "type": "Feature", "properties": { "ID": 268417, "LAT": 23.2, "LON": 147.2, "VMAX": 35.0, "MSLP": 1003.0, "RMAX": 25.0, "FSPD": 4.22217, "FDIR": 12.90308, "RENV": 140.0, "PENV": 1009.0, "VALIDT": 0, "DTG": "2024-10-07 12:00", "LATNOW": 31.5, "LONNOW": 149.2, "WINDNOW": 30.0, "DIRNOW": 8.0, "SPDNOW": 1.0, "TECH": "TRAK", "ADVNR": 13, "ATCFID": "WP212024", "NAME": "BARIJAT", "FTECH": "JTWC", "FCST_DTG": "2024-10-09 18:00:00", "RUN_DTG": "2024-10-09 21:24:47", "BASIN": "WP", "STMNR": 21, "CAT_ID": null, "CAT_DESC": null, "MSGID": "WTPN51 PGTW 092100", "VALIDTIME": "2024-10-07 12:00:00" }, "geometry": { "type": "Point", "coordinates": [ 147.199997, 23.200001 ] } },
{ "type": "Feature", "properties": { "ID": 268418, "LAT": 24.0, "LON": 147.4, "VMAX": 35.0, "MSLP": 1003.0, "RMAX": 30.0, "FSPD": 1.87984, "FDIR": 269.99997, "RENV": 140.0, "PENV": 1009.0, "VALIDT": 0, "DTG": "2024-10-07 18:00", "LATNOW": 31.5, "LONNOW": 149.2, "WINDNOW": 30.0, "DIRNOW": 8.0, "SPDNOW": 1.0, "TECH": "TRAK", "ADVNR": 13, "ATCFID": "WP212024", "NAME": "BARIJAT", "FTECH": "JTWC", "FCST_DTG": "2024-10-09 18:00:00", "RUN_DTG": "2024-10-09 21:24:47", "BASIN": "WP", "STMNR": 21, "CAT_ID": null, "CAT_DESC": null, "MSGID": "WTPN51 PGTW 092100", "VALIDTIME": "2024-10-07 18:00:00" }, "geometry": { "type": "Point", "coordinates": [ 147.399994, 24.0 ] } },
{ "type": "Feature", "properties": { "ID": 268419, "LAT": 24.0, "LON": 147.0, "VMAX": 30.0, "MSLP": 1004.0, "RMAX": 55.0, "FSPD": 0.69694, "FDIR": 222.4258, "RENV": 150.0, "PENV": 1007.0, "VALIDT": 0, "DTG": "2024-10-08 00:00", "LATNOW": 31.5, "LONNOW": 149.2, "WINDNOW": 30.0, "DIRNOW": 8.0, "SPDNOW": 1.0, "TECH": "TRAK", "ADVNR": 13, "ATCFID": "WP212024", "NAME": "BARIJAT", "FTECH": "JTWC", "FCST_DTG": "2024-10-09 18:00:00", "RUN_DTG": "2024-10-09 21:24:47", "BASIN": "WP", "STMNR": 21, "CAT_ID": null, "CAT_DESC": null, "MSGID": "WTPN51 PGTW 092100", "VALIDTIME": "2024-10-08 00:00:00" }, "geometry": { "type": "Point", "coordinates": [ 147.0, 24.0 ] } },
{ "type": "Feature", "properties": { "ID": 268420, "LAT": 23.9, "LON": 146.9, "VMAX": 30.0, "MSLP": 1004.0, "RMAX": 15.0, "FSPD": 2.40639, "FDIR": 77.65582, "RENV": 155.0, "PENV": 1008.0, "VALIDT": 0, "DTG": "2024-10-08 06:00", "LATNOW": 31.5, "LONNOW": 149.2, "WINDNOW": 30.0, "DIRNOW": 8.0, "SPDNOW": 1.0, "TECH": "TRAK", "ADVNR": 13, "ATCFID": "WP212024", "NAME": "BARIJAT", "FTECH": "JTWC", "FCST_DTG": "2024-10-09 18:00:00", "RUN_DTG": "2024-10-09 21:24:47", "BASIN": "WP", "STMNR": 21, "CAT_ID": null, "CAT_DESC": null, "MSGID": "WTPN51 PGTW 092100", "VALIDTIME": "2024-10-08 06:00:00" }, "geometry": { "type": "Point", "coordinates": [ 146.899994, 23.9 ] } },
{ "type": "Feature", "properties": { "ID": 268421, "LAT": 24.0, "LON": 147.4, "VMAX": 30.0, "MSLP": 1002.0, "RMAX": 15.0, "FSPD": 4.85769, "FDIR": 50.54889, "RENV": 220.0, "PENV": 1006.0, "VALIDT": 0, "DTG": "2024-10-08 12:00", "LATNOW": 31.5, "LONNOW": 149.2, "WINDNOW": 30.0, "DIRNOW": 8.0, "SPDNOW": 1.0, "TECH": "TRAK", "ADVNR": 13, "ATCFID": "WP212024", "NAME": "BARIJAT", "FTECH": "JTWC", "FCST_DTG": "2024-10-09 18:00:00", "RUN_DTG": "2024-10-09 21:24:47", "BASIN": "WP", "STMNR": 21, "CAT_ID": null, "CAT_DESC": null, "MSGID": "WTPN51 PGTW 092100", "VALIDTIME": "2024-10-08 12:00:00" }, "geometry": { "type": "Point", "coordinates": [ 147.399994, 24.0 ] } },
{ "type": "Feature", "properties": { "ID": 268422, "LAT": 24.6, "LON": 148.2, "VMAX": 25.0, "MSLP": 1002.0, "RMAX": 15.0, "FSPD": 7.20953, "FDIR": 31.09924, "RENV": 290.0, "PENV": 1008.0, "VALIDT": 0, "DTG": "2024-10-08 18:00", "LATNOW": 31.5, "LONNOW": 149.2, "WINDNOW": 30.0, "DIRNOW": 8.0, "SPDNOW": 1.0, "TECH": "TRAK", "ADVNR": 13, "ATCFID": "WP212024", "NAME": "BARIJAT", "FTECH": "JTWC", "FCST_DTG": "2024-10-09 18:00:00", "RUN_DTG": "2024-10-09 21:24:47", "BASIN": "WP", "STMNR": 21, "CAT_ID": null, "CAT_DESC": null, "MSGID": "WTPN51 PGTW 092100", "VALIDTIME": "2024-10-08 18:00:00" }, "geometry": { "type": "Point", "coordinates": [ 148.199997, 24.6 ] } },
{ "type": "Feature", "properties": { "ID": 268423, "LAT": 25.8, "LON": 149.0, "VMAX": 25.0, "MSLP": 1002.0, "RMAX": 15.0, "FSPD": 10.45154, "FDIR": 10.12149, "RENV": 290.0, "PENV": 1008.0, "VALIDT": 0, "DTG": "2024-10-09 00:00", "LATNOW": 31.5, "LONNOW": 149.2, "WINDNOW": 30.0, "DIRNOW": 8.0, "SPDNOW": 1.0, "TECH": "TRAK", "ADVNR": 13, "ATCFID": "WP212024", "NAME": "BARIJAT", "FTECH": "JTWC", "FCST_DTG": "2024-10-09 18:00:00", "RUN_DTG": "2024-10-09 21:24:47", "BASIN": "WP", "STMNR": 21, "CAT_ID": null, "CAT_DESC": null, "MSGID": "WTPN51 PGTW 092100", "VALIDTIME": "2024-10-09 00:00:00" }, "geometry": { "type": "Point", "coordinates": [ 149.0, 25.799999 ] } },
{ "type": "Feature", "properties": { "ID": 268424, "LAT": 27.8, "LON": 149.4, "VMAX": 30.0, "MSLP": 1002.0, "RMAX": 30.0, "FSPD": 9.93955, "FDIR": 349.54254, "RENV": 290.0, "PENV": 1008.0, "VALIDT": 0, "DTG": "2024-10-09 06:00", "LATNOW": 31.5, "LONNOW": 149.2, "WINDNOW": 30.0, "DIRNOW": 8.0, "SPDNOW": 1.0, "TECH": "TRAK", "ADVNR": 13, "ATCFID": "WP212024", "NAME": "BARIJAT", "FTECH": "JTWC", "FCST_DTG": "2024-10-09 18:00:00", "RUN_DTG": "2024-10-09 21:24:47", "BASIN": "WP", "STMNR": 21, "CAT_ID": null, "CAT_DESC": null, "MSGID": "WTPN51 PGTW 092100", "VALIDTIME": "2024-10-09 06:00:00" }, "geometry": { "type": "Point", "coordinates": [ 149.399994, 27.799999 ] } },
{ "type": "Feature", "properties": { "ID": 268425, "LAT": 29.7, "LON": 149.0, "VMAX": 30.0, "MSLP": 998.0, "RMAX": 25.0, "FSPD": 9.30225, "FDIR": 5.46295, "RENV": 310.0, "PENV": 1004.0, "VALIDT": 0, "DTG": "2024-10-09 12:00", "LATNOW": 31.5, "LONNOW": 149.2, "WINDNOW": 30.0, "DIRNOW": 8.0, "SPDNOW": 1.0, "TECH": "TRAK", "ADVNR": 13, "ATCFID": "WP212024", "NAME": "BARIJAT", "FTECH": "JTWC", "FCST_DTG": "2024-10-09 18:00:00", "RUN_DTG": "2024-10-09 21:24:47", "BASIN": "WP", "STMNR": 21, "CAT_ID": null, "CAT_DESC": null, "MSGID": "WTPN51 PGTW 092100", "VALIDTIME": "2024-10-09 12:00:00" }, "geometry": { "type": "Point", "coordinates": [ 149.0, 29.700001 ] } },
{ "type": "Feature", "properties": { "ID": 268426, "LAT": 31.5, "LON": 149.2, "VMAX": 30.0, "MSLP": 997.0, "RMAX": 40.0, "FSPD": 8.0483, "FDIR": 22.05322, "RENV": 250.0, "PENV": 1004.0, "VALIDT": 0, "DTG": "2024-10-09 18:00", "LATNOW": 31.5, "LONNOW": 149.2, "WINDNOW": 30.0, "DIRNOW": 8.0, "SPDNOW": 1.0, "TECH": "TRAK", "ADVNR": 13, "ATCFID": "WP212024", "NAME": "BARIJAT", "FTECH": "JTWC", "FCST_DTG": "2024-10-09 18:00:00", "RUN_DTG": "2024-10-09 21:24:47", "BASIN": "WP", "STMNR": 21, "CAT_ID": null, "CAT_DESC": null, "MSGID": "WTPN51 PGTW 092100", "VALIDTIME": "2024-10-09 18:00:00" }, "geometry": { "type": "Point", "coordinates": [ 149.199997, 31.5 ] } },
{ "type": "Feature", "properties": { "ID": 268427, "LAT": 34.4, "LON": 150.6, "VMAX": 35.0, "MSLP": 1008.74713, "RMAX": 47.25893, "FSPD": 11.252, "FDIR": 23.87854, "RENV": 250.0, "PENV": 1012.0, "VALIDT": 12, "DTG": "2024-10-10 06:00", "LATNOW": 31.5, "LONNOW": 149.2, "WINDNOW": 30.0, "DIRNOW": 8.0, "SPDNOW": 1.0, "TECH": "FCST", "ADVNR": 13, "ATCFID": "WP212024", "NAME": "BARIJAT", "FTECH": "JTWC", "FCST_DTG": "2024-10-09 18:00:00", "RUN_DTG": "2024-10-09 21:24:47", "BASIN": "WP", "STMNR": 21, "CAT_ID": null, "CAT_DESC": null, "MSGID": "WTPN51 PGTW 092100", "VALIDTIME": "2024-10-10 06:00:00" }, "geometry": { "type": "Point", "coordinates": [ 150.600006, 34.400002 ] } },
{ "type": "Feature", "properties": { "ID": 268428, "LAT": 38.4, "LON": 152.8, "VMAX": 35.0, "MSLP": 1008.74713, "RMAX": 47.25893, "FSPD": 11.60658, "FDIR": 17.64444, "RENV": 250.0, "PENV": 1012.0, "VALIDT": 24, "DTG": "2024-10-10 18:00", "LATNOW": 31.5, "LONNOW": 149.2, "WINDNOW": 30.0, "DIRNOW": 8.0, "SPDNOW": 1.0, "TECH": "FCST", "ADVNR": 13, "ATCFID": "WP212024", "NAME": "BARIJAT", "FTECH": "JTWC", "FCST_DTG": "2024-10-09 18:00:00", "RUN_DTG": "2024-10-09 21:24:47", "BASIN": "WP", "STMNR": 21, "CAT_ID": null, "CAT_DESC": null, "MSGID": "WTPN51 PGTW 092100", "VALIDTIME": "2024-10-10 18:00:00" }, "geometry": { "type": "Point", "coordinates": [ 152.800003, 38.400002 ] } },
{ "type": "Feature", "properties": { "ID": 268429, "LAT": 42.7, "LON": 154.6, "VMAX": 40.0, "MSLP": 1006.833, "RMAX": 45.68148, "FSPD": 11.60658, "FDIR": 17.64444, "RENV": 250.0, "PENV": 1012.0, "VALIDT": 36, "DTG": "2024-10-11 06:00", "LATNOW": 31.5, "LONNOW": 149.2, "WINDNOW": 30.0, "DIRNOW": 8.0, "SPDNOW": 1.0, "TECH": "FCST", "ADVNR": 13, "ATCFID": "WP212024", "NAME": "BARIJAT", "FTECH": "JTWC", "FCST_DTG": "2024-10-09 18:00:00", "RUN_DTG": "2024-10-09 21:24:47", "BASIN": "WP", "STMNR": 21, "CAT_ID": null, "CAT_DESC": null, "MSGID": "WTPN51 PGTW 092100", "VALIDTIME": "2024-10-11 06:00:00" }, "geometry": { "type": "Point", "coordinates": [ 154.600006, 42.700001 ] } },
{ "type": "Feature", "properties": { "ID": 268426, "LAT": 31.5, "LON": 149.2, "VMAX": 30.0, "MSLP": 997.0, "RMAX": 40.0, "FSPD": 8.0483, "FDIR": 22.05322, "RENV": 250.0, "PENV": 1004.0, "VALIDT": 0, "DTG": "2024-10-09 18:00", "LATNOW": 31.5, "LONNOW": 149.2, "WINDNOW": 30.0, "DIRNOW": 8.0, "SPDNOW": 1.0, "TECH": "TRAK", "ADVNR": 13, "ATCFID": "WP212024", "NAME": "BARIJAT", "FTECH": "JTWC", "FCST_DTG": "2024-10-09 18:00:00", "RUN_DTG": "2024-10-09 21:24:47", "BASIN": "WP", "STMNR": 21, "CAT_ID": null, "CAT_DESC": null, "MSGID": "WTPN51 PGTW 092100", "VALIDTIME": "2024-10-09 18:00:00" }, "geometry": { "type": "LineString", "coordinates": [ [ 156.7, 8.4 ], [ 155.9, 8.7 ], [ 155.0, 9.1 ], [ 154.2, 9.5 ], [ 153.1, 9.7 ], [ 152.4, 10.0 ], [ 151.3, 10.7 ], [ 150.3, 11.2 ], [ 149.4, 11.2 ], [ 148.8, 11.2 ], [ 147.6, 11.9 ], [ 147.4, 12.8 ], [ 147.2, 13.6 ], [ 146.8, 14.2 ], [ 146.6, 15.2 ], [ 145.7, 16.7 ], [ 145.5, 17.8 ], [ 145.5, 18.5 ], [ 145.7, 19.9 ], [ 146.0, 20.9 ], [ 146.5, 21.7 ], [ 147.2, 23.2 ], [ 147.4, 24.0 ], [ 147.0, 24.0 ], [ 146.9, 23.9 ], [ 147.4, 24.0 ], [ 148.2, 24.6 ], [ 149.0, 25.8 ], [ 149.4, 27.8 ], [ 149.0, 29.7 ], [ 149.2, 31.5 ] ] } },
{ "type": "Feature", "properties": { "ID": 268429, "LAT": 42.7, "LON": 154.6, "VMAX": 40.0, "MSLP": 1006.833, "RMAX": 45.68148, "FSPD": 11.60658, "FDIR": 17.64444, "RENV": 250.0, "PENV": 1012.0, "VALIDT": 36, "DTG": "2024-10-11 06:00", "LATNOW": 31.5, "LONNOW": 149.2, "WINDNOW": 30.0, "DIRNOW": 8.0, "SPDNOW": 1.0, "TECH": "FCST", "ADVNR": 13, "ATCFID": "WP212024", "NAME": "BARIJAT", "FTECH": "JTWC", "FCST_DTG": "2024-10-09 18:00:00", "RUN_DTG": "2024-10-09 21:24:47", "BASIN": "WP", "STMNR": 21, "CAT_ID": null, "CAT_DESC": null, "MSGID": "WTPN51 PGTW 092100", "VALIDTIME": "2024-10-11 06:00:00" }, "geometry": { "type": "LineString", "coordinates": [ [ 149.2, 31.5 ], [ 150.6, 34.4 ], [ 152.8, 38.4 ], [ 154.6, 42.7 ] ] } }
]
}
