{
"type": "FeatureCollection",
"crs": { "type": "name", "properties": { "name": "urn:ogc:def:crs:OGC:1.3:CRS84" } },
"features": [
{ "type": "Feature", "properties": { "ID": 50598, "LAT": 11.1, "LON": 141.2, "VMAX": 15.0, "MSLP": 1013.8515, "RMAX": 40.0, "FSPD": 4.58299, "FDIR": 333.8972, "RENV": 500.0, "PENV": 1012.0, "VALIDT": 0, "DTG": "2026-07-28 12:00", "LATNOW": 16.7, "LONNOW": 122.9, "WINDNOW": 25.0, "DIRNOW": 6.0, "SPDNOW": 0.0, "TECH": "TRAK", "ADVNR": 8, "ATCFID": "WP132026", "NAME": "KUJIRA", "FTECH": "JTWC", "FCST_DTG": "2026-08-06 12:00:00", "RUN_DTG": "2026-08-07 06:27:24", "BASIN": "WP", "STMNR": 13, "CAT_ID": null, "CAT_DESC": null, "MSGID": "WTPN52 PGTW 061500", "VALIDTIME": "2026-07-28 12:00:00" }, "geometry": { "type": "Point", "coordinates": [ 141.199997, 11.1 ] } },
{ "type": "Feature", "properties": { "ID": 50599, "LAT": 11.9, "LON": 140.8, "VMAX": 15.0, "MSLP": 1013.8515, "RMAX": 40.0, "FSPD": 2.11838, "FDIR": 346.26285, "RENV": 500.0, "PENV": 1012.0, "VALIDT": 0, "DTG": "2026-07-28 18:00", "LATNOW": 16.7, "LONNOW": 122.9, "WINDNOW": 25.0, "DIRNOW": 6.0, "SPDNOW": 0.0, "TECH": "TRAK", "ADVNR": 8, "ATCFID": "WP132026", "NAME": "KUJIRA", "FTECH": "JTWC", "FCST_DTG": "2026-08-06 12:00:00", "RUN_DTG": "2026-08-07 06:27:24", "BASIN": "WP", "STMNR": 13, "CAT_ID": null, "CAT_DESC": null, "MSGID": "WTPN52 PGTW 061500", "VALIDTIME": "2026-07-28 18:00:00" }, "geometry": { "type": "Point", "coordinates": [ 140.800003, 11.9 ] } },
{ "type": "Feature", "properties": { "ID": 50600, "LAT": 12.3, "LON": 140.7, "VMAX": 15.0, "MSLP": 1013.8515, "RMAX": 40.0, "FSPD": 1.84154, "FDIR": 326.93668, "RENV": 500.0, "PENV": 1012.0, "VALIDT": 0, "DTG": "2026-07-29 00:00", "LATNOW": 16.7, "LONNOW": 122.9, "WINDNOW": 25.0, "DIRNOW": 6.0, "SPDNOW": 0.0, "TECH": "TRAK", "ADVNR": 8, "ATCFID": "WP132026", "NAME": "KUJIRA", "FTECH": "JTWC", "FCST_DTG": "2026-08-06 12:00:00", "RUN_DTG": "2026-08-07 06:27:24", "BASIN": "WP", "STMNR": 13, "CAT_ID": null, "CAT_DESC": null, "MSGID": "WTPN52 PGTW 061500", "VALIDTIME": "2026-07-29 00:00:00" }, "geometry": { "type": "Point", "coordinates": [ 140.699997, 12.3 ] } },
{ "type": "Feature", "properties": { "ID": 50601, "LAT": 12.6, "LON": 140.5, "VMAX": 15.0, "MSLP": 1013.8515, "RMAX": 40.0, "FSPD": 1.43737, "FDIR": 315.7099, "RENV": 500.0, "PENV": 1012.0, "VALIDT": 0, "DTG": "2026-07-29 06:00", "LATNOW": 16.7, "LONNOW": 122.9, "WINDNOW": 25.0, "DIRNOW": 6.0, "SPDNOW": 0.0, "TECH": "TRAK", "ADVNR": 8, "ATCFID": "WP132026", "NAME": "KUJIRA", "FTECH": "JTWC", "FCST_DTG": "2026-08-06 12:00:00", "RUN_DTG": "2026-08-07 06:27:24", "BASIN": "WP", "STMNR": 13, "CAT_ID": null, "CAT_DESC": null, "MSGID": "WTPN52 PGTW 061500", "VALIDTIME": "2026-07-29 06:00:00" }, "geometry": { "type": "Point", "coordinates": [ 140.5, 12.6 ] } },
{ "type": "Feature", "properties": { "ID": 50602, "LAT": 12.8, "LON": 140.3, "VMAX": 15.0, "MSLP": 1013.8515, "RMAX": 40.0, "FSPD": 2.5083, "FDIR": 269.99997, "RENV": 500.0, "PENV": 1012.0, "VALIDT": 0, "DTG": "2026-07-29 12:00", "LATNOW": 16.7, "LONNOW": 122.9, "WINDNOW": 25.0, "DIRNOW": 6.0, "SPDNOW": 0.0, "TECH": "TRAK", "ADVNR": 8, "ATCFID": "WP132026", "NAME": "KUJIRA", "FTECH": "JTWC", "FCST_DTG": "2026-08-06 12:00:00", "RUN_DTG": "2026-08-07 06:27:24", "BASIN": "WP", "STMNR": 13, "CAT_ID": null, "CAT_DESC": null, "MSGID": "WTPN52 PGTW 061500", "VALIDTIME": "2026-07-29 12:00:00" }, "geometry": { "type": "Point", "coordinates": [ 140.300003, 12.8 ] } },
{ "type": "Feature", "properties": { "ID": 50603, "LAT": 12.8, "LON": 139.8, "VMAX": 15.0, "MSLP": 1013.8515, "RMAX": 40.0, "FSPD": 4.04692, "FDIR": 262.69672, "RENV": 500.0, "PENV": 1012.0, "VALIDT": 0, "DTG": "2026-07-29 18:00", "LATNOW": 16.7, "LONNOW": 122.9, "WINDNOW": 25.0, "DIRNOW": 6.0, "SPDNOW": 0.0, "TECH": "TRAK", "ADVNR": 8, "ATCFID": "WP132026", "NAME": "KUJIRA", "FTECH": "JTWC", "FCST_DTG": "2026-08-06 12:00:00", "RUN_DTG": "2026-08-07 06:27:24", "BASIN": "WP", "STMNR": 13, "CAT_ID": null, "CAT_DESC": null, "MSGID": "WTPN52 PGTW 061500", "VALIDTIME": "2026-07-29 18:00:00" }, "geometry": { "type": "Point", "coordinates": [ 139.800003, 12.8 ] } },
{ "type": "Feature", "properties": { "ID": 50604, "LAT": 12.7, "LON": 139.0, "VMAX": 15.0, "MSLP": 1013.8515, "RMAX": 40.0, "FSPD": 5.01858, "FDIR": 269.99997, "RENV": 500.0, "PENV": 1012.0, "VALIDT": 0, "DTG": "2026-07-30 00:00", "LATNOW": 16.7, "LONNOW": 122.9, "WINDNOW": 25.0, "DIRNOW": 6.0, "SPDNOW": 0.0, "TECH": "TRAK", "ADVNR": 8, "ATCFID": "WP132026", "NAME": "KUJIRA", "FTECH": "JTWC", "FCST_DTG": "2026-08-06 12:00:00", "RUN_DTG": "2026-08-07 06:27:24", "BASIN": "WP", "STMNR": 13, "CAT_ID": null, "CAT_DESC": null, "MSGID": "WTPN52 PGTW 061500", "VALIDTIME": "2026-07-30 00:00:00" }, "geometry": { "type": "Point", "coordinates": [ 139.0, 12.7 ] } },
{ "type": "Feature", "properties": { "ID": 50605, "LAT": 12.7, "LON": 138.0, "VMAX": 15.0, "MSLP": 1013.8515, "RMAX": 40.0, "FSPD": 7.47548, "FDIR": 290.1261, "RENV": 500.0, "PENV": 1012.0, "VALIDT": 0, "DTG": "2026-07-30 06:00", "LATNOW": 16.7, "LONNOW": 122.9, "WINDNOW": 25.0, "DIRNOW": 6.0, "SPDNOW": 0.0, "TECH": "TRAK", "ADVNR": 8, "ATCFID": "WP132026", "NAME": "KUJIRA", "FTECH": "JTWC", "FCST_DTG": "2026-08-06 12:00:00", "RUN_DTG": "2026-08-07 06:27:24", "BASIN": "WP", "STMNR": 13, "CAT_ID": null, "CAT_DESC": null, "MSGID": "WTPN52 PGTW 061500", "VALIDTIME": "2026-07-30 06:00:00" }, "geometry": { "type": "Point", "coordinates": [ 138.0, 12.7 ] } },
{ "type": "Feature", "properties": { "ID": 50606, "LAT": 13.2, "LON": 136.6, "VMAX": 15.0, "MSLP": 1013.8515, "RMAX": 40.0, "FSPD": 6.03104, "FDIR": 274.89325, "RENV": 500.0, "PENV": 1012.0, "VALIDT": 0, "DTG": "2026-07-30 12:00", "LATNOW": 16.7, "LONNOW": 122.9, "WINDNOW": 25.0, "DIRNOW": 6.0, "SPDNOW": 0.0, "TECH": "TRAK", "ADVNR": 8, "ATCFID": "WP132026", "NAME": "KUJIRA", "FTECH": "JTWC", "FCST_DTG": "2026-08-06 12:00:00", "RUN_DTG": "2026-08-07 06:27:24", "BASIN": "WP", "STMNR": 13, "CAT_ID": null, "CAT_DESC": null, "MSGID": "WTPN52 PGTW 061500", "VALIDTIME": "2026-07-30 12:00:00" }, "geometry": { "type": "Point", "coordinates": [ 136.600006, 13.2 ] } },
{ "type": "Feature", "properties": { "ID": 50607, "LAT": 13.3, "LON": 135.4, "VMAX": 15.0, "MSLP": 1013.8515, "RMAX": 40.0, "FSPD": 6.50834, "FDIR": 269.99997, "RENV": 500.0, "PENV": 1012.0, "VALIDT": 0, "DTG": "2026-07-30 18:00", "LATNOW": 16.7, "LONNOW": 122.9, "WINDNOW": 25.0, "DIRNOW": 6.0, "SPDNOW": 0.0, "TECH": "TRAK", "ADVNR": 8, "ATCFID": "WP132026", "NAME": "KUJIRA", "FTECH": "JTWC", "FCST_DTG": "2026-08-06 12:00:00", "RUN_DTG": "2026-08-07 06:27:24", "BASIN": "WP", "STMNR": 13, "CAT_ID": null, "CAT_DESC": null, "MSGID": "WTPN52 PGTW 061500", "VALIDTIME": "2026-07-30 18:00:00" }, "geometry": { "type": "Point", "coordinates": [ 135.399994, 13.3 ] } },
{ "type": "Feature", "properties": { "ID": 50608, "LAT": 13.3, "LON": 134.1, "VMAX": 15.0, "MSLP": 1013.8515, "RMAX": 40.0, "FSPD": 7.45932, "FDIR": 290.17157, "RENV": 500.0, "PENV": 1012.0, "VALIDT": 0, "DTG": "2026-07-31 00:00", "LATNOW": 16.7, "LONNOW": 122.9, "WINDNOW": 25.0, "DIRNOW": 6.0, "SPDNOW": 0.0, "TECH": "TRAK", "ADVNR": 8, "ATCFID": "WP132026", "NAME": "KUJIRA", "FTECH": "JTWC", "FCST_DTG": "2026-08-06 12:00:00", "RUN_DTG": "2026-08-07 06:27:24", "BASIN": "WP", "STMNR": 13, "CAT_ID": null, "CAT_DESC": null, "MSGID": "WTPN52 PGTW 061500", "VALIDTIME": "2026-07-31 00:00:00" }, "geometry": { "type": "Point", "coordinates": [ 134.100006, 13.3 ] } },
{ "type": "Feature", "properties": { "ID": 50609, "LAT": 13.8, "LON": 132.7, "VMAX": 15.0, "MSLP": 1013.8515, "RMAX": 40.0, "FSPD": 5.86368, "FDIR": 290.54456, "RENV": 500.0, "PENV": 1012.0, "VALIDT": 0, "DTG": "2026-07-31 06:00", "LATNOW": 16.7, "LONNOW": 122.9, "WINDNOW": 25.0, "DIRNOW": 6.0, "SPDNOW": 0.0, "TECH": "TRAK", "ADVNR": 8, "ATCFID": "WP132026", "NAME": "KUJIRA", "FTECH": "JTWC", "FCST_DTG": "2026-08-06 12:00:00", "RUN_DTG": "2026-08-07 06:27:24", "BASIN": "WP", "STMNR": 13, "CAT_ID": null, "CAT_DESC": null, "MSGID": "WTPN52 PGTW 061500", "VALIDTIME": "2026-07-31 06:00:00" }, "geometry": { "type": "Point", "coordinates": [ 132.699997, 13.8 ] } },
{ "type": "Feature", "properties": { "ID": 50610, "LAT": 14.2, "LON": 131.6, "VMAX": 15.0, "MSLP": 1013.8515, "RMAX": 40.0, "FSPD": 6.72675, "FDIR": 297.31384, "RENV": 500.0, "PENV": 1012.0, "VALIDT": 0, "DTG": "2026-07-31 12:00", "LATNOW": 16.7, "LONNOW": 122.9, "WINDNOW": 25.0, "DIRNOW": 6.0, "SPDNOW": 0.0, "TECH": "TRAK", "ADVNR": 8, "ATCFID": "WP132026", "NAME": "KUJIRA", "FTECH": "JTWC", "FCST_DTG": "2026-08-06 12:00:00", "RUN_DTG": "2026-08-07 06:27:24", "BASIN": "WP", "STMNR": 13, "CAT_ID": null, "CAT_DESC": null, "MSGID": "WTPN52 PGTW 061500", "VALIDTIME": "2026-07-31 12:00:00" }, "geometry": { "type": "Point", "coordinates": [ 131.600006, 14.2 ] } },
{ "type": "Feature", "properties": { "ID": 50611, "LAT": 14.8, "LON": 130.4, "VMAX": 15.0, "MSLP": 1013.8515, "RMAX": 40.0, "FSPD": 7.61353, "FDIR": 281.69543, "RENV": 500.0, "PENV": 1012.0, "VALIDT": 0, "DTG": "2026-07-31 18:00", "LATNOW": 16.7, "LONNOW": 122.9, "WINDNOW": 25.0, "DIRNOW": 6.0, "SPDNOW": 0.0, "TECH": "TRAK", "ADVNR": 8, "ATCFID": "WP132026", "NAME": "KUJIRA", "FTECH": "JTWC", "FCST_DTG": "2026-08-06 12:00:00", "RUN_DTG": "2026-08-07 06:27:24", "BASIN": "WP", "STMNR": 13, "CAT_ID": null, "CAT_DESC": null, "MSGID": "WTPN52 PGTW 061500", "VALIDTIME": "2026-07-31 18:00:00" }, "geometry": { "type": "Point", "coordinates": [ 130.399994, 14.8 ] } },
{ "type": "Feature", "properties": { "ID": 50612, "LAT": 15.1, "LON": 128.9, "VMAX": 15.0, "MSLP": 1013.8515, "RMAX": 40.0, "FSPD": 7.46968, "FDIR": 266.0508, "RENV": 500.0, "PENV": 1012.0, "VALIDT": 0, "DTG": "2026-08-01 00:00", "LATNOW": 16.7, "LONNOW": 122.9, "WINDNOW": 25.0, "DIRNOW": 6.0, "SPDNOW": 0.0, "TECH": "TRAK", "ADVNR": 8, "ATCFID": "WP132026", "NAME": "KUJIRA", "FTECH": "JTWC", "FCST_DTG": "2026-08-06 12:00:00", "RUN_DTG": "2026-08-07 06:27:24", "BASIN": "WP", "STMNR": 13, "CAT_ID": null, "CAT_DESC": null, "MSGID": "WTPN52 PGTW 061500", "VALIDTIME": "2026-08-01 00:00:00" }, "geometry": { "type": "Point", "coordinates": [ 128.899994, 15.1 ] } },
{ "type": "Feature", "properties": { "ID": 50613, "LAT": 15.0, "LON": 127.4, "VMAX": 20.0, "MSLP": 1012.95825, "RMAX": 45.0, "FSPD": 4.47963, "FDIR": 242.65399, "RENV": 500.0, "PENV": 1012.0, "VALIDT": 0, "DTG": "2026-08-01 06:00", "LATNOW": 16.7, "LONNOW": 122.9, "WINDNOW": 25.0, "DIRNOW": 6.0, "SPDNOW": 0.0, "TECH": "TRAK", "ADVNR": 8, "ATCFID": "WP132026", "NAME": "KUJIRA", "FTECH": "JTWC", "FCST_DTG": "2026-08-06 12:00:00", "RUN_DTG": "2026-08-07 06:27:24", "BASIN": "WP", "STMNR": 13, "CAT_ID": null, "CAT_DESC": null, "MSGID": "WTPN52 PGTW 061500", "VALIDTIME": "2026-08-01 06:00:00" }, "geometry": { "type": "Point", "coordinates": [ 127.400002, 15.0 ] } },
{ "type": "Feature", "properties": { "ID": 50614, "LAT": 14.6, "LON": 126.6, "VMAX": 15.0, "MSLP": 1013.8515, "RMAX": 40.0, "FSPD": 4.11164, "FDIR": 284.49158, "RENV": 500.0, "PENV": 1012.0, "VALIDT": 0, "DTG": "2026-08-01 12:00", "LATNOW": 16.7, "LONNOW": 122.9, "WINDNOW": 25.0, "DIRNOW": 6.0, "SPDNOW": 0.0, "TECH": "TRAK", "ADVNR": 8, "ATCFID": "WP132026", "NAME": "KUJIRA", "FTECH": "JTWC", "FCST_DTG": "2026-08-06 12:00:00", "RUN_DTG": "2026-08-07 06:27:24", "BASIN": "WP", "STMNR": 13, "CAT_ID": null, "CAT_DESC": null, "MSGID": "WTPN52 PGTW 061500", "VALIDTIME": "2026-08-01 12:00:00" }, "geometry": { "type": "Point", "coordinates": [ 126.599998, 14.6 ] } },
{ "type": "Feature", "properties": { "ID": 50615, "LAT": 14.8, "LON": 125.8, "VMAX": 15.0, "MSLP": 1013.8515, "RMAX": 40.0, "FSPD": 4.73416, "FDIR": 302.9108, "RENV": 500.0, "PENV": 1012.0, "VALIDT": 0, "DTG": "2026-08-01 18:00", "LATNOW": 16.7, "LONNOW": 122.9, "WINDNOW": 25.0, "DIRNOW": 6.0, "SPDNOW": 0.0, "TECH": "TRAK", "ADVNR": 8, "ATCFID": "WP132026", "NAME": "KUJIRA", "FTECH": "JTWC", "FCST_DTG": "2026-08-06 12:00:00", "RUN_DTG": "2026-08-07 06:27:24", "BASIN": "WP", "STMNR": 13, "CAT_ID": null, "CAT_DESC": null, "MSGID": "WTPN52 PGTW 061500", "VALIDTIME": "2026-08-01 18:00:00" }, "geometry": { "type": "Point", "coordinates": [ 125.800003, 14.8 ] } },
{ "type": "Feature", "properties": { "ID": 50616, "LAT": 15.3, "LON": 125.0, "VMAX": 15.0, "MSLP": 1013.8515, "RMAX": 40.0, "FSPD": 3.02068, "FDIR": 279.80563, "RENV": 500.0, "PENV": 1012.0, "VALIDT": 0, "DTG": "2026-08-02 00:00", "LATNOW": 16.7, "LONNOW": 122.9, "WINDNOW": 25.0, "DIRNOW": 6.0, "SPDNOW": 0.0, "TECH": "TRAK", "ADVNR": 8, "ATCFID": "WP132026", "NAME": "KUJIRA", "FTECH": "JTWC", "FCST_DTG": "2026-08-06 12:00:00", "RUN_DTG": "2026-08-07 06:27:24", "BASIN": "WP", "STMNR": 13, "CAT_ID": null, "CAT_DESC": null, "MSGID": "WTPN52 PGTW 061500", "VALIDTIME": "2026-08-02 00:00:00" }, "geometry": { "type": "Point", "coordinates": [ 125.0, 15.3 ] } },
{ "type": "Feature", "properties": { "ID": 50617, "LAT": 15.4, "LON": 124.4, "VMAX": 20.0, "MSLP": 1012.95825, "RMAX": 45.0, "FSPD": 3.93071, "FDIR": 310.8735, "RENV": 500.0, "PENV": 1012.0, "VALIDT": 0, "DTG": "2026-08-02 06:00", "LATNOW": 16.7, "LONNOW": 122.9, "WINDNOW": 25.0, "DIRNOW": 6.0, "SPDNOW": 0.0, "TECH": "TRAK", "ADVNR": 8, "ATCFID": "WP132026", "NAME": "KUJIRA", "FTECH": "JTWC", "FCST_DTG": "2026-08-06 12:00:00", "RUN_DTG": "2026-08-07 06:27:24", "BASIN": "WP", "STMNR": 13, "CAT_ID": null, "CAT_DESC": null, "MSGID": "WTPN52 PGTW 061500", "VALIDTIME": "2026-08-02 06:00:00" }, "geometry": { "type": "Point", "coordinates": [ 124.400002, 15.4 ] } },
{ "type": "Feature", "properties": { "ID": 50618, "LAT": 15.9, "LON": 123.8, "VMAX": 25.0, "MSLP": 1011.80975, "RMAX": 45.0, "FSPD": 3.46336, "FDIR": 269.99997, "RENV": 500.0, "PENV": 1012.0, "VALIDT": 0, "DTG": "2026-08-02 12:00", "LATNOW": 16.7, "LONNOW": 122.9, "WINDNOW": 25.0, "DIRNOW": 6.0, "SPDNOW": 0.0, "TECH": "TRAK", "ADVNR": 8, "ATCFID": "WP132026", "NAME": "KUJIRA", "FTECH": "JTWC", "FCST_DTG": "2026-08-06 12:00:00", "RUN_DTG": "2026-08-07 06:27:24", "BASIN": "WP", "STMNR": 13, "CAT_ID": null, "CAT_DESC": null, "MSGID": "WTPN52 PGTW 061500", "VALIDTIME": "2026-08-02 12:00:00" }, "geometry": { "type": "Point", "coordinates": [ 123.800003, 15.9 ] } },
{ "type": "Feature", "properties": { "ID": 50619, "LAT": 15.9, "LON": 123.1, "VMAX": 25.0, "MSLP": 1011.80975, "RMAX": 45.0, "FSPD": 3.12595, "FDIR": 9.09286, "RENV": 500.0, "PENV": 1012.0, "VALIDT": 0, "DTG": "2026-08-02 18:00", "LATNOW": 16.7, "LONNOW": 122.9, "WINDNOW": 25.0, "DIRNOW": 6.0, "SPDNOW": 0.0, "TECH": "TRAK", "ADVNR": 8, "ATCFID": "WP132026", "NAME": "KUJIRA", "FTECH": "JTWC", "FCST_DTG": "2026-08-06 12:00:00", "RUN_DTG": "2026-08-07 06:27:24", "BASIN": "WP", "STMNR": 13, "CAT_ID": null, "CAT_DESC": null, "MSGID": "WTPN52 PGTW 061500", "VALIDTIME": "2026-08-02 18:00:00" }, "geometry": { "type": "Point", "coordinates": [ 123.099998, 15.9 ] } },
{ "type": "Feature", "properties": { "ID": 50620, "LAT": 16.5, "LON": 123.2, "VMAX": 20.0, "MSLP": 1012.95825, "RMAX": 45.0, "FSPD": 5.03103, "FDIR": 336.96814, "RENV": 500.0, "PENV": 1012.0, "VALIDT": 0, "DTG": "2026-08-03 00:00", "LATNOW": 16.7, "LONNOW": 122.9, "WINDNOW": 25.0, "DIRNOW": 6.0, "SPDNOW": 0.0, "TECH": "TRAK", "ADVNR": 8, "ATCFID": "WP132026", "NAME": "KUJIRA", "FTECH": "JTWC", "FCST_DTG": "2026-08-06 12:00:00", "RUN_DTG": "2026-08-07 06:27:24", "BASIN": "WP", "STMNR": 13, "CAT_ID": null, "CAT_DESC": null, "MSGID": "WTPN52 PGTW 061500", "VALIDTIME": "2026-08-03 00:00:00" }, "geometry": { "type": "Point", "coordinates": [ 123.199997, 16.5 ] } },
{ "type": "Feature", "properties": { "ID": 50621, "LAT": 17.4, "LON": 122.8, "VMAX": 20.0, "MSLP": 1012.95825, "RMAX": 45.0, "FSPD": 5.14286, "FDIR": 287.46326, "RENV": 500.0, "PENV": 1012.0, "VALIDT": 0, "DTG": "2026-08-03 06:00", "LATNOW": 16.7, "LONNOW": 122.9, "WINDNOW": 25.0, "DIRNOW": 6.0, "SPDNOW": 0.0, "TECH": "TRAK", "ADVNR": 8, "ATCFID": "WP132026", "NAME": "KUJIRA", "FTECH": "JTWC", "FCST_DTG": "2026-08-06 12:00:00", "RUN_DTG": "2026-08-07 06:27:24", "BASIN": "WP", "STMNR": 13, "CAT_ID": null, "CAT_DESC": null, "MSGID": "WTPN52 PGTW 061500", "VALIDTIME": "2026-08-03 06:00:00" }, "geometry": { "type": "Point", "coordinates": [ 122.800003, 17.4 ] } },
{ "type": "Feature", "properties": { "ID": 50622, "LAT": 17.64, "LON": 122.0, "VMAX": 20.0, "MSLP": 1012.95825, "RMAX": 45.0, "FSPD": 5.13888, "FDIR": 287.47693, "RENV": 500.0, "PENV": 1012.0, "VALIDT": 0, "DTG": "2026-08-03 10:00", "LATNOW": 16.7, "LONNOW": 122.9, "WINDNOW": 25.0, "DIRNOW": 6.0, "SPDNOW": 0.0, "TECH": "TRAK", "ADVNR": 8, "ATCFID": "WP132026", "NAME": "KUJIRA", "FTECH": "JTWC", "FCST_DTG": "2026-08-06 12:00:00", "RUN_DTG": "2026-08-07 06:27:24", "BASIN": "WP", "STMNR": 13, "CAT_ID": null, "CAT_DESC": null, "MSGID": "WTPN52 PGTW 061500", "VALIDTIME": "2026-08-03 10:00:00" }, "geometry": { "type": "Point", "coordinates": [ 122.0, 17.640001 ] } },
{ "type": "Feature", "properties": { "ID": 50623, "LAT": 17.7, "LON": 121.8, "VMAX": 15.0, "MSLP": 1013.8515, "RMAX": 40.0, "FSPD": 5.49128, "FDIR": 259.2007, "RENV": 500.0, "PENV": 1012.0, "VALIDT": 0, "DTG": "2026-08-03 12:00", "LATNOW": 16.7, "LONNOW": 122.9, "WINDNOW": 25.0, "DIRNOW": 6.0, "SPDNOW": 0.0, "TECH": "TRAK", "ADVNR": 8, "ATCFID": "WP132026", "NAME": "KUJIRA", "FTECH": "JTWC", "FCST_DTG": "2026-08-06 12:00:00", "RUN_DTG": "2026-08-07 06:27:24", "BASIN": "WP", "STMNR": 13, "CAT_ID": null, "CAT_DESC": null, "MSGID": "WTPN52 PGTW 061500", "VALIDTIME": "2026-08-03 12:00:00" }, "geometry": { "type": "Point", "coordinates": [ 121.800003, 17.700001 ] } },
{ "type": "Feature", "properties": { "ID": 50624, "LAT": 17.5, "LON": 120.7, "VMAX": 15.0, "MSLP": 1013.8515, "RMAX": 40.0, "FSPD": 4.43556, "FDIR": 242.35919, "RENV": 500.0, "PENV": 1012.0, "VALIDT": 0, "DTG": "2026-08-03 18:00", "LATNOW": 16.7, "LONNOW": 122.9, "WINDNOW": 25.0, "DIRNOW": 6.0, "SPDNOW": 0.0, "TECH": "TRAK", "ADVNR": 8, "ATCFID": "WP132026", "NAME": "KUJIRA", "FTECH": "JTWC", "FCST_DTG": "2026-08-06 12:00:00", "RUN_DTG": "2026-08-07 06:27:24", "BASIN": "WP", "STMNR": 13, "CAT_ID": null, "CAT_DESC": null, "MSGID": "WTPN52 PGTW 061500", "VALIDTIME": "2026-08-03 18:00:00" }, "geometry": { "type": "Point", "coordinates": [ 120.699997, 17.5 ] } },
{ "type": "Feature", "properties": { "ID": 50625, "LAT": 17.1, "LON": 119.9, "VMAX": 20.0, "MSLP": 1012.95825, "RMAX": 45.0, "FSPD": 2.95021, "FDIR": 269.99997, "RENV": 500.0, "PENV": 1012.0, "VALIDT": 0, "DTG": "2026-08-04 00:00", "LATNOW": 16.7, "LONNOW": 122.9, "WINDNOW": 25.0, "DIRNOW": 6.0, "SPDNOW": 0.0, "TECH": "TRAK", "ADVNR": 8, "ATCFID": "WP132026", "NAME": "KUJIRA", "FTECH": "JTWC", "FCST_DTG": "2026-08-06 12:00:00", "RUN_DTG": "2026-08-07 06:27:24", "BASIN": "WP", "STMNR": 13, "CAT_ID": null, "CAT_DESC": null, "MSGID": "WTPN52 PGTW 061500", "VALIDTIME": "2026-08-04 00:00:00" }, "geometry": { "type": "Point", "coordinates": [ 119.900002, 17.1 ] } },
{ "type": "Feature", "properties": { "ID": 50626, "LAT": 17.1, "LON": 119.3, "VMAX": 25.0, "MSLP": 1011.80975, "RMAX": 45.0, "FSPD": 1.79784, "FDIR": 304.90985, "RENV": 500.0, "PENV": 1012.0, "VALIDT": 0, "DTG": "2026-08-04 06:00", "LATNOW": 16.7, "LONNOW": 122.9, "WINDNOW": 25.0, "DIRNOW": 6.0, "SPDNOW": 0.0, "TECH": "TRAK", "ADVNR": 8, "ATCFID": "WP132026", "NAME": "KUJIRA", "FTECH": "JTWC", "FCST_DTG": "2026-08-06 12:00:00", "RUN_DTG": "2026-08-07 06:27:24", "BASIN": "WP", "STMNR": 13, "CAT_ID": null, "CAT_DESC": null, "MSGID": "WTPN52 PGTW 061500", "VALIDTIME": "2026-08-04 06:00:00" }, "geometry": { "type": "Point", "coordinates": [ 119.300003, 17.1 ] } },
{ "type": "Feature", "properties": { "ID": 50627, "LAT": 17.3, "LON": 119.0, "VMAX": 30.0, "MSLP": 1010.40607, "RMAX": 44.21983, "FSPD": 1.14, "FDIR": 334.49365, "RENV": 500.0, "PENV": 1012.0, "VALIDT": 0, "DTG": "2026-08-04 12:00", "LATNOW": 16.7, "LONNOW": 122.9, "WINDNOW": 25.0, "DIRNOW": 6.0, "SPDNOW": 0.0, "TECH": "TRAK", "ADVNR": 8, "ATCFID": "WP132026", "NAME": "KUJIRA", "FTECH": "JTWC", "FCST_DTG": "2026-08-06 12:00:00", "RUN_DTG": "2026-08-07 06:27:24", "BASIN": "WP", "STMNR": 13, "CAT_ID": null, "CAT_DESC": null, "MSGID": "WTPN52 PGTW 061500", "VALIDTIME": "2026-08-04 12:00:00" }, "geometry": { "type": "Point", "coordinates": [ 119.0, 17.299999 ] } },
{ "type": "Feature", "properties": { "ID": 50628, "LAT": 17.5, "LON": 118.9, "VMAX": 30.0, "MSLP": 1010.40607, "RMAX": 44.21983, "FSPD": 1.10773, "FDIR": 297.67245, "RENV": 500.0, "PENV": 1012.0, "VALIDT": 0, "DTG": "2026-08-04 18:00", "LATNOW": 16.7, "LONNOW": 122.9, "WINDNOW": 25.0, "DIRNOW": 6.0, "SPDNOW": 0.0, "TECH": "TRAK", "ADVNR": 8, "ATCFID": "WP132026", "NAME": "KUJIRA", "FTECH": "JTWC", "FCST_DTG": "2026-08-06 12:00:00", "RUN_DTG": "2026-08-07 06:27:24", "BASIN": "WP", "STMNR": 13, "CAT_ID": null, "CAT_DESC": null, "MSGID": "WTPN52 PGTW 061500", "VALIDTIME": "2026-08-04 18:00:00" }, "geometry": { "type": "Point", "coordinates": [ 118.900002, 17.5 ] } },
{ "type": "Feature", "properties": { "ID": 50629, "LAT": 17.6, "LON": 118.7, "VMAX": 30.0, "MSLP": 999.0, "RMAX": 45.0, "FSPD": 1.79453, "FDIR": 55.01633, "RENV": 110.0, "PENV": 1004.0, "VALIDT": 0, "DTG": "2026-08-05 00:00", "LATNOW": 16.7, "LONNOW": 122.9, "WINDNOW": 25.0, "DIRNOW": 6.0, "SPDNOW": 0.0, "TECH": "TRAK", "ADVNR": 8, "ATCFID": "WP132026", "NAME": "KUJIRA", "FTECH": "JTWC", "FCST_DTG": "2026-08-06 12:00:00", "RUN_DTG": "2026-08-07 06:27:24", "BASIN": "WP", "STMNR": 13, "CAT_ID": null, "CAT_DESC": null, "MSGID": "WTPN52 PGTW 061500", "VALIDTIME": "2026-08-05 00:00:00" }, "geometry": { "type": "Point", "coordinates": [ 118.699997, 17.6 ] } },
{ "type": "Feature", "properties": { "ID": 50630, "LAT": 17.8, "LON": 119.0, "VMAX": 35.0, "MSLP": 999.0, "RMAX": 45.0, "FSPD": 3.91856, "FDIR": 90.0, "RENV": 110.0, "PENV": 1004.0, "VALIDT": 0, "DTG": "2026-08-05 06:00", "LATNOW": 16.7, "LONNOW": 122.9, "WINDNOW": 25.0, "DIRNOW": 6.0, "SPDNOW": 0.0, "TECH": "TRAK", "ADVNR": 8, "ATCFID": "WP132026", "NAME": "KUJIRA", "FTECH": "JTWC", "FCST_DTG": "2026-08-06 12:00:00", "RUN_DTG": "2026-08-07 06:27:24", "BASIN": "WP", "STMNR": 13, "CAT_ID": null, "CAT_DESC": null, "MSGID": "WTPN52 PGTW 061500", "VALIDTIME": "2026-08-05 06:00:00" }, "geometry": { "type": "Point", "coordinates": [ 119.0, 17.799999 ] } },
{ "type": "Feature", "properties": { "ID": 50631, "LAT": 17.8, "LON": 119.8, "VMAX": 35.0, "MSLP": 997.0, "RMAX": 35.0, "FSPD": 2.02618, "FDIR": 104.70804, "RENV": 115.0, "PENV": 1004.0, "VALIDT": 0, "DTG": "2026-08-05 12:00", "LATNOW": 16.7, "LONNOW": 122.9, "WINDNOW": 25.0, "DIRNOW": 6.0, "SPDNOW": 0.0, "TECH": "TRAK", "ADVNR": 8, "ATCFID": "WP132026", "NAME": "KUJIRA", "FTECH": "JTWC", "FCST_DTG": "2026-08-06 12:00:00", "RUN_DTG": "2026-08-07 06:27:24", "BASIN": "WP", "STMNR": 13, "CAT_ID": null, "CAT_DESC": null, "MSGID": "WTPN52 PGTW 061500", "VALIDTIME": "2026-08-05 12:00:00" }, "geometry": { "type": "Point", "coordinates": [ 119.800003, 17.799999 ] } },
{ "type": "Feature", "properties": { "ID": 50632, "LAT": 17.7, "LON": 120.2, "VMAX": 35.0, "MSLP": 998.0, "RMAX": 35.0, "FSPD": 2.89703, "FDIR": 122.19016, "RENV": 110.0, "PENV": 1006.0, "VALIDT": 0, "DTG": "2026-08-05 18:00", "LATNOW": 16.7, "LONNOW": 122.9, "WINDNOW": 25.0, "DIRNOW": 6.0, "SPDNOW": 0.0, "TECH": "TRAK", "ADVNR": 8, "ATCFID": "WP132026", "NAME": "KUJIRA", "FTECH": "JTWC", "FCST_DTG": "2026-08-06 12:00:00", "RUN_DTG": "2026-08-07 06:27:24", "BASIN": "WP", "STMNR": 13, "CAT_ID": null, "CAT_DESC": null, "MSGID": "WTPN52 PGTW 061500", "VALIDTIME": "2026-08-05 18:00:00" }, "geometry": { "type": "Point", "coordinates": [ 120.199997, 17.700001 ] } },
{ "type": "Feature", "properties": { "ID": 50633, "LAT": 17.52, "LON": 120.5, "VMAX": 35.0, "MSLP": 998.0, "RMAX": 35.0, "FSPD": 2.89869, "FDIR": 122.16956, "RENV": 110.0, "PENV": 1006.0, "VALIDT": 0, "DTG": "2026-08-05 21:00", "LATNOW": 16.7, "LONNOW": 122.9, "WINDNOW": 25.0, "DIRNOW": 6.0, "SPDNOW": 0.0, "TECH": "TRAK", "ADVNR": 8, "ATCFID": "WP132026", "NAME": "KUJIRA", "FTECH": "JTWC", "FCST_DTG": "2026-08-06 12:00:00", "RUN_DTG": "2026-08-07 06:27:24", "BASIN": "WP", "STMNR": 13, "CAT_ID": null, "CAT_DESC": null, "MSGID": "WTPN52 PGTW 061500", "VALIDTIME": "2026-08-05 21:00:00" }, "geometry": { "type": "Point", "coordinates": [ 120.5, 17.52 ] } },
{ "type": "Feature", "properties": { "ID": 50634, "LAT": 17.4, "LON": 120.7, "VMAX": 30.0, "MSLP": 994.0, "RMAX": 35.0, "FSPD": 5.32781, "FDIR": 112.72028, "RENV": 75.0, "PENV": 1002.0, "VALIDT": 0, "DTG": "2026-08-06 00:00", "LATNOW": 16.7, "LONNOW": 122.9, "WINDNOW": 25.0, "DIRNOW": 6.0, "SPDNOW": 0.0, "TECH": "TRAK", "ADVNR": 8, "ATCFID": "WP132026", "NAME": "KUJIRA", "FTECH": "JTWC", "FCST_DTG": "2026-08-06 12:00:00", "RUN_DTG": "2026-08-07 06:27:24", "BASIN": "WP", "STMNR": 13, "CAT_ID": null, "CAT_DESC": null, "MSGID": "WTPN52 PGTW 061500", "VALIDTIME": "2026-08-06 00:00:00" }, "geometry": { "type": "Point", "coordinates": [ 120.699997, 17.4 ] } },
{ "type": "Feature", "properties": { "ID": 50635, "LAT": 17.0, "LON": 121.7, "VMAX": 25.0, "MSLP": 997.0, "RMAX": 35.0, "FSPD": 6.10656, "FDIR": 104.63925, "RENV": 65.0, "PENV": 1002.0, "VALIDT": 0, "DTG": "2026-08-06 06:00", "LATNOW": 16.7, "LONNOW": 122.9, "WINDNOW": 25.0, "DIRNOW": 6.0, "SPDNOW": 0.0, "TECH": "TRAK", "ADVNR": 8, "ATCFID": "WP132026", "NAME": "KUJIRA", "FTECH": "JTWC", "FCST_DTG": "2026-08-06 12:00:00", "RUN_DTG": "2026-08-07 06:27:24", "BASIN": "WP", "STMNR": 13, "CAT_ID": null, "CAT_DESC": null, "MSGID": "WTPN52 PGTW 061500", "VALIDTIME": "2026-08-06 06:00:00" }, "geometry": { "type": "Point", "coordinates": [ 121.699997, 17.0 ] } },
{ "type": "Feature", "properties": { "ID": 50636, "LAT": 16.7, "LON": 122.9, "VMAX": 25.0, "MSLP": 1000.0, "RMAX": 35.0, "FSPD": 5.99567, "FDIR": 80.11884, "RENV": 65.0, "PENV": 1002.0, "VALIDT": 0, "DTG": "2026-08-06 12:00", "LATNOW": 16.7, "LONNOW": 122.9, "WINDNOW": 25.0, "DIRNOW": 6.0, "SPDNOW": 0.0, "TECH": "TRAK", "ADVNR": 8, "ATCFID": "WP132026", "NAME": "KUJIRA", "FTECH": "JTWC", "FCST_DTG": "2026-08-06 12:00:00", "RUN_DTG": "2026-08-07 06:27:24", "BASIN": "WP", "STMNR": 13, "CAT_ID": null, "CAT_DESC": null, "MSGID": "WTPN52 PGTW 061500", "VALIDTIME": "2026-08-06 12:00:00" }, "geometry": { "type": "Point", "coordinates": [ 122.900002, 16.700001 ] } },
{ "type": "Feature", "properties": { "ID": 50637, "LAT": 17.1, "LON": 125.3, "VMAX": 25.0, "MSLP": 1011.80975, "RMAX": 42.03496, "FSPD": 6.15832, "FDIR": 72.99966, "RENV": 250.0, "PENV": 1012.0, "VALIDT": 12, "DTG": "2026-08-07 00:00", "LATNOW": 16.7, "LONNOW": 122.9, "WINDNOW": 25.0, "DIRNOW": 6.0, "SPDNOW": 0.0, "TECH": "FCST", "ADVNR": 8, "ATCFID": "WP132026", "NAME": "KUJIRA", "FTECH": "JTWC", "FCST_DTG": "2026-08-06 12:00:00", "RUN_DTG": "2026-08-07 06:27:24", "BASIN": "WP", "STMNR": 13, "CAT_ID": null, "CAT_DESC": null, "MSGID": "WTPN52 PGTW 061500", "VALIDTIME": "2026-08-07 00:00:00" }, "geometry": { "type": "Point", "coordinates": [ 125.300003, 17.1 ] } },
{ "type": "Feature", "properties": { "ID": 50638, "LAT": 17.8, "LON": 127.7, "VMAX": 25.0, "MSLP": 1011.80975, "RMAX": 42.03496, "FSPD": 6.15832, "FDIR": 72.99966, "RENV": 250.0, "PENV": 1012.0, "VALIDT": 24, "DTG": "2026-08-07 12:00", "LATNOW": 16.7, "LONNOW": 122.9, "WINDNOW": 25.0, "DIRNOW": 6.0, "SPDNOW": 0.0, "TECH": "FCST", "ADVNR": 8, "ATCFID": "WP132026", "NAME": "KUJIRA", "FTECH": "JTWC", "FCST_DTG": "2026-08-06 12:00:00", "RUN_DTG": "2026-08-07 06:27:24", "BASIN": "WP", "STMNR": 13, "CAT_ID": null, "CAT_DESC": null, "MSGID": "WTPN52 PGTW 061500", "VALIDTIME": "2026-08-07 12:00:00" }, "geometry": { "type": "Point", "coordinates": [ 127.699997, 17.799999 ] } },
{ "type": "Feature", "properties": { "ID": 50636, "LAT": 16.7, "LON": 122.9, "VMAX": 25.0, "MSLP": 1000.0, "RMAX": 35.0, "FSPD": 5.99567, "FDIR": 80.11884, "RENV": 65.0, "PENV": 1002.0, "VALIDT": 0, "DTG": "2026-08-06 12:00", "LATNOW": 16.7, "LONNOW": 122.9, "WINDNOW": 25.0, "DIRNOW": 6.0, "SPDNOW": 0.0, "TECH": "TRAK", "ADVNR": 8, "ATCFID": "WP132026", "NAME": "KUJIRA", "FTECH": "JTWC", "FCST_DTG": "2026-08-06 12:00:00", "RUN_DTG": "2026-08-07 06:27:24", "BASIN": "WP", "STMNR": 13, "CAT_ID": null, "CAT_DESC": null, "MSGID": "WTPN52 PGTW 061500", "VALIDTIME": "2026-08-06 12:00:00" }, "geometry": { "type": "LineString", "coordinates": [ [ 141.2, 11.1 ], [ 140.8, 11.9 ], [ 140.7, 12.3 ], [ 140.5, 12.6 ], [ 140.3, 12.8 ], [ 139.8, 12.8 ], [ 139.0, 12.7 ], [ 138.0, 12.7 ], [ 136.6, 13.2 ], [ 135.4, 13.3 ], [ 134.1, 13.3 ], [ 132.7, 13.8 ], [ 131.6, 14.2 ], [ 130.4, 14.8 ], [ 128.9, 15.1 ], [ 127.4, 15.0 ], [ 126.6, 14.6 ], [ 125.8, 14.8 ], [ 125.0, 15.3 ], [ 124.4, 15.4 ], [ 123.8, 15.9 ], [ 123.1, 15.9 ], [ 123.2, 16.5 ], [ 122.8, 17.4 ], [ 122.0, 17.64 ], [ 121.8, 17.7 ], [ 120.7, 17.5 ], [ 119.9, 17.1 ], [ 119.3, 17.1 ], [ 119.0, 17.3 ], [ 118.9, 17.5 ], [ 118.7, 17.6 ], [ 119.0, 17.8 ], [ 119.8, 17.8 ], [ 120.2, 17.7 ], [ 120.5, 17.52 ], [ 120.7, 17.4 ], [ 121.7, 17.0 ], [ 122.9, 16.7 ] ] } },
{ "type": "Feature", "properties": { "ID": 50638, "LAT": 17.8, "LON": 127.7, "VMAX": 25.0, "MSLP": 1011.80975, "RMAX": 42.03496, "FSPD": 6.15832, "FDIR": 72.99966, "RENV": 250.0, "PENV": 1012.0, "VALIDT": 24, "DTG": "2026-08-07 12:00", "LATNOW": 16.7, "LONNOW": 122.9, "WINDNOW": 25.0, "DIRNOW": 6.0, "SPDNOW": 0.0, "TECH": "FCST", "ADVNR": 8, "ATCFID": "WP132026", "NAME": "KUJIRA", "FTECH": "JTWC", "FCST_DTG": "2026-08-06 12:00:00", "RUN_DTG": "2026-08-07 06:27:24", "BASIN": "WP", "STMNR": 13, "CAT_ID": null, "CAT_DESC": null, "MSGID": "WTPN52 PGTW 061500", "VALIDTIME": "2026-08-07 12:00:00" }, "geometry": { "type": "LineString", "coordinates": [ [ 122.9, 16.7 ], [ 125.3, 17.1 ], [ 127.7, 17.8 ] ] } }
]
}
