{
"type": "FeatureCollection",
"crs": { "type": "name", "properties": { "name": "urn:ogc:def:crs:OGC:1.3:CRS84" } },
"features": [
{ "type": "Feature", "properties": { "ID": 311674, "LAT": -12.2, "LON": 58.1, "VMAX": 15.0, "MSLP": 1013.8515, "RMAX": 40.0, "FSPD": 6.05692, "FDIR": 274.87225, "RENV": 500.0, "PENV": 1012.0, "VALIDT": 0, "DTG": "2025-03-06 06:00", "LATNOW": -15.2, "LONNOW": 39.9, "WINDNOW": 65.0, "DIRNOW": 4.0, "SPDNOW": 3.0, "TECH": "TRAK", "ADVNR": 4, "ATCFID": "SH252025", "NAME": "JUDE", "FTECH": "JTWC", "FCST_DTG": "2025-03-10 06:00:00", "RUN_DTG": "2025-03-10 20:44:06", "BASIN": "SH", "STMNR": 25, "CAT_ID": null, "CAT_DESC": null, "MSGID": "WTXS52 PGTW 100900", "VALIDTIME": "2025-03-06 06:00:00" }, "geometry": { "type": "Point", "coordinates": [ 58.099998, -12.2 ] } },
{ "type": "Feature", "properties": { "ID": 311675, "LAT": -12.1, "LON": 56.9, "VMAX": 15.0, "MSLP": 1013.8515, "RMAX": 40.0, "FSPD": 6.03619, "FDIR": 269.99997, "RENV": 500.0, "PENV": 1012.0, "VALIDT": 0, "DTG": "2025-03-06 12:00", "LATNOW": -15.2, "LONNOW": 39.9, "WINDNOW": 65.0, "DIRNOW": 4.0, "SPDNOW": 3.0, "TECH": "TRAK", "ADVNR": 4, "ATCFID": "SH252025", "NAME": "JUDE", "FTECH": "JTWC", "FCST_DTG": "2025-03-10 06:00:00", "RUN_DTG": "2025-03-10 20:44:06", "BASIN": "SH", "STMNR": 25, "CAT_ID": null, "CAT_DESC": null, "MSGID": "WTXS52 PGTW 100900", "VALIDTIME": "2025-03-06 12:00:00" }, "geometry": { "type": "Point", "coordinates": [ 56.900002, -12.1 ] } },
{ "type": "Feature", "properties": { "ID": 311676, "LAT": -12.1, "LON": 55.7, "VMAX": 15.0, "MSLP": 1013.8515, "RMAX": 40.0, "FSPD": 5.53318, "FDIR": 269.99997, "RENV": 500.0, "PENV": 1012.0, "VALIDT": 0, "DTG": "2025-03-06 18:00", "LATNOW": -15.2, "LONNOW": 39.9, "WINDNOW": 65.0, "DIRNOW": 4.0, "SPDNOW": 3.0, "TECH": "TRAK", "ADVNR": 4, "ATCFID": "SH252025", "NAME": "JUDE", "FTECH": "JTWC", "FCST_DTG": "2025-03-10 06:00:00", "RUN_DTG": "2025-03-10 20:44:06", "BASIN": "SH", "STMNR": 25, "CAT_ID": null, "CAT_DESC": null, "MSGID": "WTXS52 PGTW 100900", "VALIDTIME": "2025-03-06 18:00:00" }, "geometry": { "type": "Point", "coordinates": [ 55.700001, -12.1 ] } },
{ "type": "Feature", "properties": { "ID": 311677, "LAT": -12.1, "LON": 54.6, "VMAX": 15.0, "MSLP": 1013.8515, "RMAX": 40.0, "FSPD": 4.05612, "FDIR": 262.71344, "RENV": 500.0, "PENV": 1012.0, "VALIDT": 0, "DTG": "2025-03-07 00:00", "LATNOW": -15.2, "LONNOW": 39.9, "WINDNOW": 65.0, "DIRNOW": 4.0, "SPDNOW": 3.0, "TECH": "TRAK", "ADVNR": 4, "ATCFID": "SH252025", "NAME": "JUDE", "FTECH": "JTWC", "FCST_DTG": "2025-03-10 06:00:00", "RUN_DTG": "2025-03-10 20:44:06", "BASIN": "SH", "STMNR": 25, "CAT_ID": null, "CAT_DESC": null, "MSGID": "WTXS52 PGTW 100900", "VALIDTIME": "2025-03-07 00:00:00" }, "geometry": { "type": "Point", "coordinates": [ 54.599998, -12.1 ] } },
{ "type": "Feature", "properties": { "ID": 311678, "LAT": -12.2, "LON": 53.8, "VMAX": 25.0, "MSLP": 1011.80975, "RMAX": 45.0, "FSPD": 5.73933, "FDIR": 254.40085, "RENV": 500.0, "PENV": 1012.0, "VALIDT": 0, "DTG": "2025-03-07 06:00", "LATNOW": -15.2, "LONNOW": 39.9, "WINDNOW": 65.0, "DIRNOW": 4.0, "SPDNOW": 3.0, "TECH": "TRAK", "ADVNR": 4, "ATCFID": "SH252025", "NAME": "JUDE", "FTECH": "JTWC", "FCST_DTG": "2025-03-10 06:00:00", "RUN_DTG": "2025-03-10 20:44:06", "BASIN": "SH", "STMNR": 25, "CAT_ID": null, "CAT_DESC": null, "MSGID": "WTXS52 PGTW 100900", "VALIDTIME": "2025-03-07 06:00:00" }, "geometry": { "type": "Point", "coordinates": [ 53.799999, -12.2 ] } },
{ "type": "Feature", "properties": { "ID": 311679, "LAT": -12.5, "LON": 52.7, "VMAX": 25.0, "MSLP": 1011.80975, "RMAX": 45.0, "FSPD": 9.81428, "FDIR": 234.78836, "RENV": 500.0, "PENV": 1012.0, "VALIDT": 0, "DTG": "2025-03-07 12:00", "LATNOW": -15.2, "LONNOW": 39.9, "WINDNOW": 65.0, "DIRNOW": 4.0, "SPDNOW": 3.0, "TECH": "TRAK", "ADVNR": 4, "ATCFID": "SH252025", "NAME": "JUDE", "FTECH": "JTWC", "FCST_DTG": "2025-03-10 06:00:00", "RUN_DTG": "2025-03-10 20:44:06", "BASIN": "SH", "STMNR": 25, "CAT_ID": null, "CAT_DESC": null, "MSGID": "WTXS52 PGTW 100900", "VALIDTIME": "2025-03-07 12:00:00" }, "geometry": { "type": "Point", "coordinates": [ 52.700001, -12.5 ] } },
{ "type": "Feature", "properties": { "ID": 311680, "LAT": -13.6, "LON": 51.1, "VMAX": 25.0, "MSLP": 1011.80975, "RMAX": 45.0, "FSPD": 9.12832, "FDIR": 260.2662, "RENV": 500.0, "PENV": 1012.0, "VALIDT": 0, "DTG": "2025-03-07 18:00", "LATNOW": -15.2, "LONNOW": 39.9, "WINDNOW": 65.0, "DIRNOW": 4.0, "SPDNOW": 3.0, "TECH": "TRAK", "ADVNR": 4, "ATCFID": "SH252025", "NAME": "JUDE", "FTECH": "JTWC", "FCST_DTG": "2025-03-10 06:00:00", "RUN_DTG": "2025-03-10 20:44:06", "BASIN": "SH", "STMNR": 25, "CAT_ID": null, "CAT_DESC": null, "MSGID": "WTXS52 PGTW 100900", "VALIDTIME": "2025-03-07 18:00:00" }, "geometry": { "type": "Point", "coordinates": [ 51.099998, -13.6 ] } },
{ "type": "Feature", "properties": { "ID": 311681, "LAT": -13.78, "LON": 50.02, "VMAX": 25.0, "MSLP": 1011.80975, "RMAX": 45.0, "FSPD": 9.12267, "FDIR": 260.26007, "RENV": 500.0, "PENV": 1012.0, "VALIDT": 0, "DTG": "2025-03-07 21:00", "LATNOW": -15.2, "LONNOW": 39.9, "WINDNOW": 65.0, "DIRNOW": 4.0, "SPDNOW": 3.0, "TECH": "TRAK", "ADVNR": 4, "ATCFID": "SH252025", "NAME": "JUDE", "FTECH": "JTWC", "FCST_DTG": "2025-03-10 06:00:00", "RUN_DTG": "2025-03-10 20:44:06", "BASIN": "SH", "STMNR": 25, "CAT_ID": null, "CAT_DESC": null, "MSGID": "WTXS52 PGTW 100900", "VALIDTIME": "2025-03-07 21:00:00" }, "geometry": { "type": "Point", "coordinates": [ 50.02, -13.78 ] } },
{ "type": "Feature", "properties": { "ID": 311682, "LAT": -13.9, "LON": 49.3, "VMAX": 25.0, "MSLP": 1011.80975, "RMAX": 45.0, "FSPD": 8.05261, "FDIR": 262.65915, "RENV": 500.0, "PENV": 1012.0, "VALIDT": 0, "DTG": "2025-03-08 00:00", "LATNOW": -15.2, "LONNOW": 39.9, "WINDNOW": 65.0, "DIRNOW": 4.0, "SPDNOW": 3.0, "TECH": "TRAK", "ADVNR": 4, "ATCFID": "SH252025", "NAME": "JUDE", "FTECH": "JTWC", "FCST_DTG": "2025-03-10 06:00:00", "RUN_DTG": "2025-03-10 20:44:06", "BASIN": "SH", "STMNR": 25, "CAT_ID": null, "CAT_DESC": null, "MSGID": "WTXS52 PGTW 100900", "VALIDTIME": "2025-03-08 00:00:00" }, "geometry": { "type": "Point", "coordinates": [ 49.299999, -13.9 ] } },
{ "type": "Feature", "properties": { "ID": 311683, "LAT": -14.1, "LON": 47.7, "VMAX": 25.0, "MSLP": 1011.80975, "RMAX": 45.0, "FSPD": 6.07251, "FDIR": 260.24506, "RENV": 500.0, "PENV": 1012.0, "VALIDT": 0, "DTG": "2025-03-08 06:00", "LATNOW": -15.2, "LONNOW": 39.9, "WINDNOW": 65.0, "DIRNOW": 4.0, "SPDNOW": 3.0, "TECH": "TRAK", "ADVNR": 4, "ATCFID": "SH252025", "NAME": "JUDE", "FTECH": "JTWC", "FCST_DTG": "2025-03-10 06:00:00", "RUN_DTG": "2025-03-10 20:44:06", "BASIN": "SH", "STMNR": 25, "CAT_ID": null, "CAT_DESC": null, "MSGID": "WTXS52 PGTW 100900", "VALIDTIME": "2025-03-08 06:00:00" }, "geometry": { "type": "Point", "coordinates": [ 47.700001, -14.1 ] } },
{ "type": "Feature", "properties": { "ID": 311684, "LAT": -14.3, "LON": 46.5, "VMAX": 30.0, "MSLP": 1010.40607, "RMAX": 44.21983, "FSPD": 4.60106, "FDIR": 257.07825, "RENV": 500.0, "PENV": 1012.0, "VALIDT": 0, "DTG": "2025-03-08 12:00", "LATNOW": -15.2, "LONNOW": 39.9, "WINDNOW": 65.0, "DIRNOW": 4.0, "SPDNOW": 3.0, "TECH": "TRAK", "ADVNR": 4, "ATCFID": "SH252025", "NAME": "JUDE", "FTECH": "JTWC", "FCST_DTG": "2025-03-10 06:00:00", "RUN_DTG": "2025-03-10 20:44:06", "BASIN": "SH", "STMNR": 25, "CAT_ID": null, "CAT_DESC": null, "MSGID": "WTXS52 PGTW 100900", "VALIDTIME": "2025-03-08 12:00:00" }, "geometry": { "type": "Point", "coordinates": [ 46.5, -14.3 ] } },
{ "type": "Feature", "properties": { "ID": 311685, "LAT": -14.5, "LON": 45.6, "VMAX": 35.0, "MSLP": 996.0, "RMAX": 40.0, "FSPD": 5.21098, "FDIR": 252.77228, "RENV": 180.0, "PENV": 1007.0, "VALIDT": 0, "DTG": "2025-03-08 18:00", "LATNOW": -15.2, "LONNOW": 39.9, "WINDNOW": 65.0, "DIRNOW": 4.0, "SPDNOW": 3.0, "TECH": "TRAK", "ADVNR": 4, "ATCFID": "SH252025", "NAME": "JUDE", "FTECH": "JTWC", "FCST_DTG": "2025-03-10 06:00:00", "RUN_DTG": "2025-03-10 20:44:06", "BASIN": "SH", "STMNR": 25, "CAT_ID": null, "CAT_DESC": null, "MSGID": "WTXS52 PGTW 100900", "VALIDTIME": "2025-03-08 18:00:00" }, "geometry": { "type": "Point", "coordinates": [ 45.599998, -14.5 ] } },
{ "type": "Feature", "properties": { "ID": 311686, "LAT": -14.8, "LON": 44.6, "VMAX": 45.0, "MSLP": 996.0, "RMAX": 40.0, "FSPD": 5.47114, "FDIR": 269.99997, "RENV": 180.0, "PENV": 1007.0, "VALIDT": 0, "DTG": "2025-03-09 00:00", "LATNOW": -15.2, "LONNOW": 39.9, "WINDNOW": 65.0, "DIRNOW": 4.0, "SPDNOW": 3.0, "TECH": "TRAK", "ADVNR": 4, "ATCFID": "SH252025", "NAME": "JUDE", "FTECH": "JTWC", "FCST_DTG": "2025-03-10 06:00:00", "RUN_DTG": "2025-03-10 20:44:06", "BASIN": "SH", "STMNR": 25, "CAT_ID": null, "CAT_DESC": null, "MSGID": "WTXS52 PGTW 100900", "VALIDTIME": "2025-03-09 00:00:00" }, "geometry": { "type": "Point", "coordinates": [ 44.599998, -14.8 ] } },
{ "type": "Feature", "properties": { "ID": 311687, "LAT": -14.8, "LON": 43.5, "VMAX": 55.0, "MSLP": 996.0, "RMAX": 30.0, "FSPD": 6.95176, "FDIR": 248.28372, "RENV": 200.0, "PENV": 1005.0, "VALIDT": 0, "DTG": "2025-03-09 06:00", "LATNOW": -15.2, "LONNOW": 39.9, "WINDNOW": 65.0, "DIRNOW": 4.0, "SPDNOW": 3.0, "TECH": "TRAK", "ADVNR": 4, "ATCFID": "SH252025", "NAME": "JUDE", "FTECH": "JTWC", "FCST_DTG": "2025-03-10 06:00:00", "RUN_DTG": "2025-03-10 20:44:06", "BASIN": "SH", "STMNR": 25, "CAT_ID": null, "CAT_DESC": null, "MSGID": "WTXS52 PGTW 100900", "VALIDTIME": "2025-03-09 06:00:00" }, "geometry": { "type": "Point", "coordinates": [ 43.5, -14.8 ] } },
{ "type": "Feature", "properties": { "ID": 311688, "LAT": -15.3, "LON": 42.2, "VMAX": 65.0, "MSLP": 989.0, "RMAX": 20.0, "FSPD": 5.37622, "FDIR": 292.5045, "RENV": 230.0, "PENV": 1004.0, "VALIDT": 0, "DTG": "2025-03-09 12:00", "LATNOW": -15.2, "LONNOW": 39.9, "WINDNOW": 65.0, "DIRNOW": 4.0, "SPDNOW": 3.0, "TECH": "TRAK", "ADVNR": 4, "ATCFID": "SH252025", "NAME": "JUDE", "FTECH": "JTWC", "FCST_DTG": "2025-03-10 06:00:00", "RUN_DTG": "2025-03-10 20:44:06", "BASIN": "SH", "STMNR": 25, "CAT_ID": null, "CAT_DESC": null, "MSGID": "WTXS52 PGTW 100900", "VALIDTIME": "2025-03-09 12:00:00" }, "geometry": { "type": "Point", "coordinates": [ 42.200001, -15.3 ] } },
{ "type": "Feature", "properties": { "ID": 311689, "LAT": -14.9, "LON": 41.2, "VMAX": 80.0, "MSLP": 983.0, "RMAX": 15.0, "FSPD": 2.48573, "FDIR": 269.99997, "RENV": 230.0, "PENV": 1004.0, "VALIDT": 0, "DTG": "2025-03-09 18:00", "LATNOW": -15.2, "LONNOW": 39.9, "WINDNOW": 65.0, "DIRNOW": 4.0, "SPDNOW": 3.0, "TECH": "TRAK", "ADVNR": 4, "ATCFID": "SH252025", "NAME": "JUDE", "FTECH": "JTWC", "FCST_DTG": "2025-03-10 06:00:00", "RUN_DTG": "2025-03-10 20:44:06", "BASIN": "SH", "STMNR": 25, "CAT_ID": null, "CAT_DESC": null, "MSGID": "WTXS52 PGTW 100900", "VALIDTIME": "2025-03-09 18:00:00" }, "geometry": { "type": "Point", "coordinates": [ 41.200001, -14.9 ] } },
{ "type": "Feature", "properties": { "ID": 311690, "LAT": -14.9, "LON": 40.7, "VMAX": 75.0, "MSLP": 975.0, "RMAX": 15.0, "FSPD": 4.26577, "FDIR": 248.78967, "RENV": 180.0, "PENV": 1007.0, "VALIDT": 0, "DTG": "2025-03-10 00:00", "LATNOW": -15.2, "LONNOW": 39.9, "WINDNOW": 65.0, "DIRNOW": 4.0, "SPDNOW": 3.0, "TECH": "TRAK", "ADVNR": 4, "ATCFID": "SH252025", "NAME": "JUDE", "FTECH": "JTWC", "FCST_DTG": "2025-03-10 06:00:00", "RUN_DTG": "2025-03-10 20:44:06", "BASIN": "SH", "STMNR": 25, "CAT_ID": null, "CAT_DESC": null, "MSGID": "WTXS52 PGTW 100900", "VALIDTIME": "2025-03-10 00:00:00" }, "geometry": { "type": "Point", "coordinates": [ 40.700001, -14.9 ] } },
{ "type": "Feature", "properties": { "ID": 311691, "LAT": -14.93, "LON": 40.62, "VMAX": 75.0, "MSLP": 975.0, "RMAX": 15.0, "FSPD": 4.26327, "FDIR": 248.77644, "RENV": 180.0, "PENV": 1007.0, "VALIDT": 0, "DTG": "2025-03-10 00:00", "LATNOW": -15.2, "LONNOW": 39.9, "WINDNOW": 65.0, "DIRNOW": 4.0, "SPDNOW": 3.0, "TECH": "TRAK", "ADVNR": 4, "ATCFID": "SH252025", "NAME": "JUDE", "FTECH": "JTWC", "FCST_DTG": "2025-03-10 06:00:00", "RUN_DTG": "2025-03-10 20:44:06", "BASIN": "SH", "STMNR": 25, "CAT_ID": null, "CAT_DESC": null, "MSGID": "WTXS52 PGTW 100900", "VALIDTIME": "2025-03-10 00:00:00" }, "geometry": { "type": "Point", "coordinates": [ 40.620003, -14.929999 ] } },
{ "type": "Feature", "properties": { "ID": 311692, "LAT": -15.2, "LON": 39.9, "VMAX": 65.0, "MSLP": 977.0, "RMAX": 15.0, "FSPD": 3.73135, "FDIR": 266.04712, "RENV": 200.0, "PENV": 1006.0, "VALIDT": 0, "DTG": "2025-03-10 06:00", "LATNOW": -15.2, "LONNOW": 39.9, "WINDNOW": 65.0, "DIRNOW": 4.0, "SPDNOW": 3.0, "TECH": "TRAK", "ADVNR": 4, "ATCFID": "SH252025", "NAME": "JUDE", "FTECH": "JTWC", "FCST_DTG": "2025-03-10 06:00:00", "RUN_DTG": "2025-03-10 20:44:06", "BASIN": "SH", "STMNR": 25, "CAT_ID": null, "CAT_DESC": null, "MSGID": "WTXS52 PGTW 100900", "VALIDTIME": "2025-03-10 06:00:00" }, "geometry": { "type": "Point", "coordinates": [ 39.900002, -15.2 ] } },
{ "type": "Feature", "properties": { "ID": 311693, "LAT": -15.3, "LON": 38.4, "VMAX": 45.0, "MSLP": 1004.66364, "RMAX": 20.38044, "FSPD": 4.24705, "FDIR": 263.04266, "RENV": 180.0, "PENV": 1012.0, "VALIDT": 12, "DTG": "2025-03-10 18:00", "LATNOW": -15.2, "LONNOW": 39.9, "WINDNOW": 65.0, "DIRNOW": 4.0, "SPDNOW": 3.0, "TECH": "FCST", "ADVNR": 4, "ATCFID": "SH252025", "NAME": "JUDE", "FTECH": "JTWC", "FCST_DTG": "2025-03-10 06:00:00", "RUN_DTG": "2025-03-10 20:44:06", "BASIN": "SH", "STMNR": 25, "CAT_ID": null, "CAT_DESC": null, "MSGID": "WTXS52 PGTW 100900", "VALIDTIME": "2025-03-10 18:00:00" }, "geometry": { "type": "Point", "coordinates": [ 38.400002, -15.3 ] } },
{ "type": "Feature", "properties": { "ID": 311694, "LAT": -15.5, "LON": 36.7, "VMAX": 35.0, "MSLP": 1008.74713, "RMAX": 21.80652, "FSPD": 3.23722, "FDIR": 246.5912, "RENV": 250.0, "PENV": 1012.0, "VALIDT": 24, "DTG": "2025-03-11 06:00", "LATNOW": -15.2, "LONNOW": 39.9, "WINDNOW": 65.0, "DIRNOW": 4.0, "SPDNOW": 3.0, "TECH": "FCST", "ADVNR": 4, "ATCFID": "SH252025", "NAME": "JUDE", "FTECH": "JTWC", "FCST_DTG": "2025-03-10 06:00:00", "RUN_DTG": "2025-03-10 20:44:06", "BASIN": "SH", "STMNR": 25, "CAT_ID": null, "CAT_DESC": null, "MSGID": "WTXS52 PGTW 100900", "VALIDTIME": "2025-03-11 06:00:00" }, "geometry": { "type": "Point", "coordinates": [ 36.700001, -15.5 ] } },
{ "type": "Feature", "properties": { "ID": 311695, "LAT": -16.0, "LON": 35.5, "VMAX": 30.0, "MSLP": 1010.40607, "RMAX": 22.58726, "FSPD": 3.23722, "FDIR": 246.5912, "RENV": 250.0, "PENV": 1012.0, "VALIDT": 36, "DTG": "2025-03-11 18:00", "LATNOW": -15.2, "LONNOW": 39.9, "WINDNOW": 65.0, "DIRNOW": 4.0, "SPDNOW": 3.0, "TECH": "FCST", "ADVNR": 4, "ATCFID": "SH252025", "NAME": "JUDE", "FTECH": "JTWC", "FCST_DTG": "2025-03-10 06:00:00", "RUN_DTG": "2025-03-10 20:44:06", "BASIN": "SH", "STMNR": 25, "CAT_ID": null, "CAT_DESC": null, "MSGID": "WTXS52 PGTW 100900", "VALIDTIME": "2025-03-11 18:00:00" }, "geometry": { "type": "Point", "coordinates": [ 35.5, -16.0 ] } },
{ "type": "Feature", "properties": { "ID": 311692, "LAT": -15.2, "LON": 39.9, "VMAX": 65.0, "MSLP": 977.0, "RMAX": 15.0, "FSPD": 3.73135, "FDIR": 266.04712, "RENV": 200.0, "PENV": 1006.0, "VALIDT": 0, "DTG": "2025-03-10 06:00", "LATNOW": -15.2, "LONNOW": 39.9, "WINDNOW": 65.0, "DIRNOW": 4.0, "SPDNOW": 3.0, "TECH": "TRAK", "ADVNR": 4, "ATCFID": "SH252025", "NAME": "JUDE", "FTECH": "JTWC", "FCST_DTG": "2025-03-10 06:00:00", "RUN_DTG": "2025-03-10 20:44:06", "BASIN": "SH", "STMNR": 25, "CAT_ID": null, "CAT_DESC": null, "MSGID": "WTXS52 PGTW 100900", "VALIDTIME": "2025-03-10 06:00:00" }, "geometry": { "type": "LineString", "coordinates": [ [ 58.1, -12.2 ], [ 56.9, -12.1 ], [ 55.7, -12.1 ], [ 54.6, -12.1 ], [ 53.8, -12.2 ], [ 52.7, -12.5 ], [ 51.1, -13.6 ], [ 50.02, -13.78 ], [ 49.3, -13.9 ], [ 47.7, -14.1 ], [ 46.5, -14.3 ], [ 45.6, -14.5 ], [ 44.6, -14.8 ], [ 43.5, -14.8 ], [ 42.2, -15.3 ], [ 41.2, -14.9 ], [ 40.7, -14.9 ], [ 40.62, -14.93 ], [ 39.9, -15.2 ] ] } },
{ "type": "Feature", "properties": { "ID": 311695, "LAT": -16.0, "LON": 35.5, "VMAX": 30.0, "MSLP": 1010.40607, "RMAX": 22.58726, "FSPD": 3.23722, "FDIR": 246.5912, "RENV": 250.0, "PENV": 1012.0, "VALIDT": 36, "DTG": "2025-03-11 18:00", "LATNOW": -15.2, "LONNOW": 39.9, "WINDNOW": 65.0, "DIRNOW": 4.0, "SPDNOW": 3.0, "TECH": "FCST", "ADVNR": 4, "ATCFID": "SH252025", "NAME": "JUDE", "FTECH": "JTWC", "FCST_DTG": "2025-03-10 06:00:00", "RUN_DTG": "2025-03-10 20:44:06", "BASIN": "SH", "STMNR": 25, "CAT_ID": null, "CAT_DESC": null, "MSGID": "WTXS52 PGTW 100900", "VALIDTIME": "2025-03-11 18:00:00" }, "geometry": { "type": "LineString", "coordinates": [ [ 39.9, -15.2 ], [ 38.4, -15.3 ], [ 36.7, -15.5 ], [ 35.5, -16.0 ] ] } }
]
}
