{
"type": "FeatureCollection",
"crs": { "type": "name", "properties": { "name": "urn:ogc:def:crs:OGC:1.3:CRS84" } },
"features": [
{ "type": "Feature", "properties": { "ID": 82695, "LAT": 14.3, "LON": 141.4, "VMAX": 15.0, "MSLP": 1013.8515, "RMAX": 40.0, "FSPD": 2.97451, "FDIR": 329.8548, "RENV": 500.0, "PENV": 1012.0, "VALIDT": 0, "DTG": "2026-09-02 12:00", "LATNOW": 28.5, "LONNOW": 133.8, "WINDNOW": 25.0, "DIRNOW": 5.0, "SPDNOW": 2.0, "TECH": "TRAK", "ADVNR": 5, "ATCFID": "WP232026", "NAME": "TWENTY-TH", "FTECH": "JTWC", "FCST_DTG": "2026-09-05 12:00:00", "RUN_DTG": "2026-09-05 23:03:51", "BASIN": "WP", "STMNR": 23, "CAT_ID": null, "CAT_DESC": null, "MSGID": "WTPN52 PGTW 051500", "VALIDTIME": "2026-09-02 12:00:00" }, "geometry": { "type": "Point", "coordinates": [ 141.399994, 14.3 ] } },
{ "type": "Feature", "properties": { "ID": 82696, "LAT": 14.8, "LON": 141.1, "VMAX": 20.0, "MSLP": 1012.95825, "RMAX": 45.0, "FSPD": 2.97282, "FDIR": 329.9109, "RENV": 500.0, "PENV": 1012.0, "VALIDT": 0, "DTG": "2026-09-02 18:00", "LATNOW": 28.5, "LONNOW": 133.8, "WINDNOW": 25.0, "DIRNOW": 5.0, "SPDNOW": 2.0, "TECH": "TRAK", "ADVNR": 5, "ATCFID": "WP232026", "NAME": "TWENTY-TH", "FTECH": "JTWC", "FCST_DTG": "2026-09-05 12:00:00", "RUN_DTG": "2026-09-05 23:03:51", "BASIN": "WP", "STMNR": 23, "CAT_ID": null, "CAT_DESC": null, "MSGID": "WTPN52 PGTW 051500", "VALIDTIME": "2026-09-02 18:00:00" }, "geometry": { "type": "Point", "coordinates": [ 141.100006, 14.8 ] } },
{ "type": "Feature", "properties": { "ID": 82697, "LAT": 15.3, "LON": 140.8, "VMAX": 20.0, "MSLP": 1012.95825, "RMAX": 45.0, "FSPD": 6.4261, "FDIR": 316.09573, "RENV": 500.0, "PENV": 1012.0, "VALIDT": 0, "DTG": "2026-09-03 00:00", "LATNOW": 28.5, "LONNOW": 133.8, "WINDNOW": 25.0, "DIRNOW": 5.0, "SPDNOW": 2.0, "TECH": "TRAK", "ADVNR": 5, "ATCFID": "WP232026", "NAME": "TWENTY-TH", "FTECH": "JTWC", "FCST_DTG": "2026-09-05 12:00:00", "RUN_DTG": "2026-09-05 23:03:51", "BASIN": "WP", "STMNR": 23, "CAT_ID": null, "CAT_DESC": null, "MSGID": "WTPN52 PGTW 051500", "VALIDTIME": "2026-09-03 00:00:00" }, "geometry": { "type": "Point", "coordinates": [ 140.800003, 15.3 ] } },
{ "type": "Feature", "properties": { "ID": 82698, "LAT": 16.2, "LON": 139.9, "VMAX": 20.0, "MSLP": 1012.95825, "RMAX": 45.0, "FSPD": 10.03368, "FDIR": 330.64737, "RENV": 500.0, "PENV": 1012.0, "VALIDT": 0, "DTG": "2026-09-03 06:00", "LATNOW": 28.5, "LONNOW": 133.8, "WINDNOW": 25.0, "DIRNOW": 5.0, "SPDNOW": 2.0, "TECH": "TRAK", "ADVNR": 5, "ATCFID": "WP232026", "NAME": "TWENTY-TH", "FTECH": "JTWC", "FCST_DTG": "2026-09-05 12:00:00", "RUN_DTG": "2026-09-05 23:03:51", "BASIN": "WP", "STMNR": 23, "CAT_ID": null, "CAT_DESC": null, "MSGID": "WTPN52 PGTW 051500", "VALIDTIME": "2026-09-03 06:00:00" }, "geometry": { "type": "Point", "coordinates": [ 139.899994, 16.200001 ] } },
{ "type": "Feature", "properties": { "ID": 82699, "LAT": 17.9, "LON": 138.9, "VMAX": 20.0, "MSLP": 1012.95825, "RMAX": 45.0, "FSPD": 5.31453, "FDIR": 312.6562, "RENV": 500.0, "PENV": 1012.0, "VALIDT": 0, "DTG": "2026-09-03 12:00", "LATNOW": 28.5, "LONNOW": 133.8, "WINDNOW": 25.0, "DIRNOW": 5.0, "SPDNOW": 2.0, "TECH": "TRAK", "ADVNR": 5, "ATCFID": "WP232026", "NAME": "TWENTY-TH", "FTECH": "JTWC", "FCST_DTG": "2026-09-05 12:00:00", "RUN_DTG": "2026-09-05 23:03:51", "BASIN": "WP", "STMNR": 23, "CAT_ID": null, "CAT_DESC": null, "MSGID": "WTPN52 PGTW 051500", "VALIDTIME": "2026-09-03 12:00:00" }, "geometry": { "type": "Point", "coordinates": [ 138.899994, 17.9 ] } },
{ "type": "Feature", "properties": { "ID": 82700, "LAT": 18.6, "LON": 138.1, "VMAX": 20.0, "MSLP": 1012.95825, "RMAX": 45.0, "FSPD": 4.73105, "FDIR": 348.13666, "RENV": 500.0, "PENV": 1012.0, "VALIDT": 0, "DTG": "2026-09-03 18:00", "LATNOW": 28.5, "LONNOW": 133.8, "WINDNOW": 25.0, "DIRNOW": 5.0, "SPDNOW": 2.0, "TECH": "TRAK", "ADVNR": 5, "ATCFID": "WP232026", "NAME": "TWENTY-TH", "FTECH": "JTWC", "FCST_DTG": "2026-09-05 12:00:00", "RUN_DTG": "2026-09-05 23:03:51", "BASIN": "WP", "STMNR": 23, "CAT_ID": null, "CAT_DESC": null, "MSGID": "WTPN52 PGTW 051500", "VALIDTIME": "2026-09-03 18:00:00" }, "geometry": { "type": "Point", "coordinates": [ 138.100006, 18.6 ] } },
{ "type": "Feature", "properties": { "ID": 82701, "LAT": 19.5, "LON": 137.9, "VMAX": 20.0, "MSLP": 1012.95825, "RMAX": 45.0, "FSPD": 5.67948, "FDIR": 355.11926, "RENV": 500.0, "PENV": 1012.0, "VALIDT": 0, "DTG": "2026-09-04 00:00", "LATNOW": 28.5, "LONNOW": 133.8, "WINDNOW": 25.0, "DIRNOW": 5.0, "SPDNOW": 2.0, "TECH": "TRAK", "ADVNR": 5, "ATCFID": "WP232026", "NAME": "TWENTY-TH", "FTECH": "JTWC", "FCST_DTG": "2026-09-05 12:00:00", "RUN_DTG": "2026-09-05 23:03:51", "BASIN": "WP", "STMNR": 23, "CAT_ID": null, "CAT_DESC": null, "MSGID": "WTPN52 PGTW 051500", "VALIDTIME": "2026-09-04 00:00:00" }, "geometry": { "type": "Point", "coordinates": [ 137.899994, 19.5 ] } },
{ "type": "Feature", "properties": { "ID": 82702, "LAT": 20.6, "LON": 137.8, "VMAX": 30.0, "MSLP": 1010.40607, "RMAX": 44.21983, "FSPD": 9.26, "FDIR": 360.0, "RENV": 500.0, "PENV": 1012.0, "VALIDT": 0, "DTG": "2026-09-04 06:00", "LATNOW": 28.5, "LONNOW": 133.8, "WINDNOW": 25.0, "DIRNOW": 5.0, "SPDNOW": 2.0, "TECH": "TRAK", "ADVNR": 5, "ATCFID": "WP232026", "NAME": "TWENTY-TH", "FTECH": "JTWC", "FCST_DTG": "2026-09-05 12:00:00", "RUN_DTG": "2026-09-05 23:03:51", "BASIN": "WP", "STMNR": 23, "CAT_ID": null, "CAT_DESC": null, "MSGID": "WTPN52 PGTW 051500", "VALIDTIME": "2026-09-04 06:00:00" }, "geometry": { "type": "Point", "coordinates": [ 137.800003, 20.6 ] } },
{ "type": "Feature", "properties": { "ID": 82703, "LAT": 22.4, "LON": 137.8, "VMAX": 40.0, "MSLP": 996.0, "RMAX": 25.0, "FSPD": 8.87168, "FDIR": 338.09393, "RENV": 110.0, "PENV": 1004.0, "VALIDT": 0, "DTG": "2026-09-04 12:00", "LATNOW": 28.5, "LONNOW": 133.8, "WINDNOW": 25.0, "DIRNOW": 5.0, "SPDNOW": 2.0, "TECH": "TRAK", "ADVNR": 5, "ATCFID": "WP232026", "NAME": "TWENTY-TH", "FTECH": "JTWC", "FCST_DTG": "2026-09-05 12:00:00", "RUN_DTG": "2026-09-05 23:03:51", "BASIN": "WP", "STMNR": 23, "CAT_ID": null, "CAT_DESC": null, "MSGID": "WTPN52 PGTW 051500", "VALIDTIME": "2026-09-04 12:00:00" }, "geometry": { "type": "Point", "coordinates": [ 137.800003, 22.4 ] } },
{ "type": "Feature", "properties": { "ID": 82704, "LAT": 24.0, "LON": 137.1, "VMAX": 30.0, "MSLP": 996.0, "RMAX": 25.0, "FSPD": 12.40484, "FDIR": 342.52322, "RENV": 110.0, "PENV": 1004.0, "VALIDT": 0, "DTG": "2026-09-04 18:00", "LATNOW": 28.5, "LONNOW": 133.8, "WINDNOW": 25.0, "DIRNOW": 5.0, "SPDNOW": 2.0, "TECH": "TRAK", "ADVNR": 5, "ATCFID": "WP232026", "NAME": "TWENTY-TH", "FTECH": "JTWC", "FCST_DTG": "2026-09-05 12:00:00", "RUN_DTG": "2026-09-05 23:03:51", "BASIN": "WP", "STMNR": 23, "CAT_ID": null, "CAT_DESC": null, "MSGID": "WTPN52 PGTW 051500", "VALIDTIME": "2026-09-04 18:00:00" }, "geometry": { "type": "Point", "coordinates": [ 137.100006, 24.0 ] } },
{ "type": "Feature", "properties": { "ID": 82705, "LAT": 26.3, "LON": 136.3, "VMAX": 25.0, "MSLP": 996.0, "RMAX": 25.0, "FSPD": 8.37688, "FDIR": 322.97394, "RENV": 130.0, "PENV": 1001.0, "VALIDT": 0, "DTG": "2026-09-05 00:00", "LATNOW": 28.5, "LONNOW": 133.8, "WINDNOW": 25.0, "DIRNOW": 5.0, "SPDNOW": 2.0, "TECH": "TRAK", "ADVNR": 5, "ATCFID": "WP232026", "NAME": "TWENTY-TH", "FTECH": "JTWC", "FCST_DTG": "2026-09-05 12:00:00", "RUN_DTG": "2026-09-05 23:03:51", "BASIN": "WP", "STMNR": 23, "CAT_ID": null, "CAT_DESC": null, "MSGID": "WTPN52 PGTW 051500", "VALIDTIME": "2026-09-05 00:00:00" }, "geometry": { "type": "Point", "coordinates": [ 136.300003, 26.299999 ] } },
{ "type": "Feature", "properties": { "ID": 82706, "LAT": 27.6, "LON": 135.2, "VMAX": 25.0, "MSLP": 999.0, "RMAX": 25.0, "FSPD": 7.86373, "FDIR": 306.0704, "RENV": 115.0, "PENV": 1001.0, "VALIDT": 0, "DTG": "2026-09-05 06:00", "LATNOW": 28.5, "LONNOW": 133.8, "WINDNOW": 25.0, "DIRNOW": 5.0, "SPDNOW": 2.0, "TECH": "TRAK", "ADVNR": 5, "ATCFID": "WP232026", "NAME": "TWENTY-TH", "FTECH": "JTWC", "FCST_DTG": "2026-09-05 12:00:00", "RUN_DTG": "2026-09-05 23:03:51", "BASIN": "WP", "STMNR": 23, "CAT_ID": null, "CAT_DESC": null, "MSGID": "WTPN52 PGTW 051500", "VALIDTIME": "2026-09-05 06:00:00" }, "geometry": { "type": "Point", "coordinates": [ 135.199997, 27.6 ] } },
{ "type": "Feature", "properties": { "ID": 82707, "LAT": 28.5, "LON": 133.8, "VMAX": 25.0, "MSLP": 998.0, "RMAX": 30.0, "FSPD": 4.91183, "FDIR": 308.9333, "RENV": 100.0, "PENV": 1000.0, "VALIDT": 0, "DTG": "2026-09-05 12:00", "LATNOW": 28.5, "LONNOW": 133.8, "WINDNOW": 25.0, "DIRNOW": 5.0, "SPDNOW": 2.0, "TECH": "TRAK", "ADVNR": 5, "ATCFID": "WP232026", "NAME": "TWENTY-TH", "FTECH": "JTWC", "FCST_DTG": "2026-09-05 12:00:00", "RUN_DTG": "2026-09-05 23:03:51", "BASIN": "WP", "STMNR": 23, "CAT_ID": null, "CAT_DESC": null, "MSGID": "WTPN52 PGTW 051500", "VALIDTIME": "2026-09-05 12:00:00" }, "geometry": { "type": "Point", "coordinates": [ 133.800003, 28.5 ] } },
{ "type": "Feature", "properties": { "ID": 82708, "LAT": 29.7, "LON": 132.1, "VMAX": 20.0, "MSLP": 1012.95825, "RMAX": 36.92175, "FSPD": 3.70406, "FDIR": 308.6814, "RENV": 250.0, "PENV": 1012.0, "VALIDT": 12, "DTG": "2026-09-06 00:00", "LATNOW": 28.5, "LONNOW": 133.8, "WINDNOW": 25.0, "DIRNOW": 5.0, "SPDNOW": 2.0, "TECH": "FCST", "ADVNR": 5, "ATCFID": "WP232026", "NAME": "TWENTY-TH", "FTECH": "JTWC", "FCST_DTG": "2026-09-05 12:00:00", "RUN_DTG": "2026-09-05 23:03:51", "BASIN": "WP", "STMNR": 23, "CAT_ID": null, "CAT_DESC": null, "MSGID": "WTPN52 PGTW 051500", "VALIDTIME": "2026-09-06 00:00:00" }, "geometry": { "type": "Point", "coordinates": [ 132.100006, 29.700001 ] } },
{ "type": "Feature", "properties": { "ID": 82709, "LAT": 30.6, "LON": 130.8, "VMAX": 20.0, "MSLP": 1012.95825, "RMAX": 36.92175, "FSPD": 3.70406, "FDIR": 308.6814, "RENV": 250.0, "PENV": 1012.0, "VALIDT": 24, "DTG": "2026-09-06 12:00", "LATNOW": 28.5, "LONNOW": 133.8, "WINDNOW": 25.0, "DIRNOW": 5.0, "SPDNOW": 2.0, "TECH": "FCST", "ADVNR": 5, "ATCFID": "WP232026", "NAME": "TWENTY-TH", "FTECH": "JTWC", "FCST_DTG": "2026-09-05 12:00:00", "RUN_DTG": "2026-09-05 23:03:51", "BASIN": "WP", "STMNR": 23, "CAT_ID": null, "CAT_DESC": null, "MSGID": "WTPN52 PGTW 051500", "VALIDTIME": "2026-09-06 12:00:00" }, "geometry": { "type": "Point", "coordinates": [ 130.800003, 30.6 ] } },
{ "type": "Feature", "properties": { "ID": 82707, "LAT": 28.5, "LON": 133.8, "VMAX": 25.0, "MSLP": 998.0, "RMAX": 30.0, "FSPD": 4.91183, "FDIR": 308.9333, "RENV": 100.0, "PENV": 1000.0, "VALIDT": 0, "DTG": "2026-09-05 12:00", "LATNOW": 28.5, "LONNOW": 133.8, "WINDNOW": 25.0, "DIRNOW": 5.0, "SPDNOW": 2.0, "TECH": "TRAK", "ADVNR": 5, "ATCFID": "WP232026", "NAME": "TWENTY-TH", "FTECH": "JTWC", "FCST_DTG": "2026-09-05 12:00:00", "RUN_DTG": "2026-09-05 23:03:51", "BASIN": "WP", "STMNR": 23, "CAT_ID": null, "CAT_DESC": null, "MSGID": "WTPN52 PGTW 051500", "VALIDTIME": "2026-09-05 12:00:00" }, "geometry": { "type": "LineString", "coordinates": [ [ 141.4, 14.3 ], [ 141.1, 14.8 ], [ 140.8, 15.3 ], [ 139.9, 16.2 ], [ 138.9, 17.9 ], [ 138.1, 18.6 ], [ 137.9, 19.5 ], [ 137.8, 20.6 ], [ 137.8, 22.4 ], [ 137.1, 24.0 ], [ 136.3, 26.3 ], [ 135.2, 27.6 ], [ 133.8, 28.5 ] ] } },
{ "type": "Feature", "properties": { "ID": 82709, "LAT": 30.6, "LON": 130.8, "VMAX": 20.0, "MSLP": 1012.95825, "RMAX": 36.92175, "FSPD": 3.70406, "FDIR": 308.6814, "RENV": 250.0, "PENV": 1012.0, "VALIDT": 24, "DTG": "2026-09-06 12:00", "LATNOW": 28.5, "LONNOW": 133.8, "WINDNOW": 25.0, "DIRNOW": 5.0, "SPDNOW": 2.0, "TECH": "FCST", "ADVNR": 5, "ATCFID": "WP232026", "NAME": "TWENTY-TH", "FTECH": "JTWC", "FCST_DTG": "2026-09-05 12:00:00", "RUN_DTG": "2026-09-05 23:03:51", "BASIN": "WP", "STMNR": 23, "CAT_ID": null, "CAT_DESC": null, "MSGID": "WTPN52 PGTW 051500", "VALIDTIME": "2026-09-06 12:00:00" }, "geometry": { "type": "LineString", "coordinates": [ [ 133.8, 28.5 ], [ 132.1, 29.7 ], [ 130.8, 30.6 ] ] } }
]
}
