{
"type": "FeatureCollection",
"crs": { "type": "name", "properties": { "name": "urn:ogc:def:crs:OGC:1.3:CRS84" } },
"features": [
{ "type": "Feature", "properties": { "ID": 277861, "LAT": 10.9, "LON": -125.5, "VMAX": 25.0, "MSLP": 1010.0, "RMAX": 100.0, "FSPD": 4.78757, "FDIR": 302.49802, "RENV": 200.0, "PENV": 1014.0, "VALIDT": 0, "DTG": "2024-10-31 18:00", "LATNOW": 11.1, "LONNOW": -131.6, "WINDNOW": 25.0, "DIRNOW": 4.0, "SPDNOW": 3.0, "TECH": "TRAK", "ADVNR": 8, "ATCFID": "EP132024", "NAME": "LANE", "FTECH": "OFCL", "FCST_DTG": "2024-11-03 12:00:00", "RUN_DTG": "2024-11-04 03:41:36", "BASIN": "EP", "STMNR": 13, "CAT_ID": null, "CAT_DESC": null, "MSGID": "WTPZ23 KNHC 031448", "VALIDTIME": "2024-10-31 18:00:00" }, "geometry": { "type": "Point", "coordinates": [ -125.5, 10.9 ] } },
{ "type": "Feature", "properties": { "ID": 277862, "LAT": 11.4, "LON": -126.3, "VMAX": 25.0, "MSLP": 1008.0, "RMAX": 80.0, "FSPD": 3.97335, "FDIR": 229.65646, "RENV": 150.0, "PENV": 1011.0, "VALIDT": 0, "DTG": "2024-11-01 00:00", "LATNOW": 11.1, "LONNOW": -131.6, "WINDNOW": 25.0, "DIRNOW": 4.0, "SPDNOW": 3.0, "TECH": "TRAK", "ADVNR": 8, "ATCFID": "EP132024", "NAME": "LANE", "FTECH": "OFCL", "FCST_DTG": "2024-11-03 12:00:00", "RUN_DTG": "2024-11-04 03:41:36", "BASIN": "EP", "STMNR": 13, "CAT_ID": null, "CAT_DESC": null, "MSGID": "WTPZ23 KNHC 031448", "VALIDTIME": "2024-11-01 00:00:00" }, "geometry": { "type": "Point", "coordinates": [ -126.300003, 11.4 ] } },
{ "type": "Feature", "properties": { "ID": 277863, "LAT": 10.9, "LON": -126.9, "VMAX": 25.0, "MSLP": 1008.0, "RMAX": 80.0, "FSPD": 3.68163, "FDIR": 286.22836, "RENV": 150.0, "PENV": 1011.0, "VALIDT": 0, "DTG": "2024-11-01 06:00", "LATNOW": 11.1, "LONNOW": -131.6, "WINDNOW": 25.0, "DIRNOW": 4.0, "SPDNOW": 3.0, "TECH": "TRAK", "ADVNR": 8, "ATCFID": "EP132024", "NAME": "LANE", "FTECH": "OFCL", "FCST_DTG": "2024-11-03 12:00:00", "RUN_DTG": "2024-11-04 03:41:36", "BASIN": "EP", "STMNR": 13, "CAT_ID": null, "CAT_DESC": null, "MSGID": "WTPZ23 KNHC 031448", "VALIDTIME": "2024-11-01 06:00:00" }, "geometry": { "type": "Point", "coordinates": [ -126.900002, 10.9 ] } },
{ "type": "Feature", "properties": { "ID": 277864, "LAT": 11.1, "LON": -127.6, "VMAX": 25.0, "MSLP": 1007.0, "RMAX": 80.0, "FSPD": 2.57561, "FDIR": 281.5215, "RENV": 150.0, "PENV": 1011.0, "VALIDT": 0, "DTG": "2024-11-01 12:00", "LATNOW": 11.1, "LONNOW": -131.6, "WINDNOW": 25.0, "DIRNOW": 4.0, "SPDNOW": 3.0, "TECH": "TRAK", "ADVNR": 8, "ATCFID": "EP132024", "NAME": "LANE", "FTECH": "OFCL", "FCST_DTG": "2024-11-03 12:00:00", "RUN_DTG": "2024-11-04 03:41:36", "BASIN": "EP", "STMNR": 13, "CAT_ID": null, "CAT_DESC": null, "MSGID": "WTPZ23 KNHC 031448", "VALIDTIME": "2024-11-01 12:00:00" }, "geometry": { "type": "Point", "coordinates": [ -127.599998, 11.1 ] } },
{ "type": "Feature", "properties": { "ID": 277865, "LAT": 11.2, "LON": -128.1, "VMAX": 30.0, "MSLP": 1006.0, "RMAX": 80.0, "FSPD": 3.07174, "FDIR": 260.3589, "RENV": 150.0, "PENV": 1011.0, "VALIDT": 0, "DTG": "2024-11-01 18:00", "LATNOW": 11.1, "LONNOW": -131.6, "WINDNOW": 25.0, "DIRNOW": 4.0, "SPDNOW": 3.0, "TECH": "TRAK", "ADVNR": 8, "ATCFID": "EP132024", "NAME": "LANE", "FTECH": "OFCL", "FCST_DTG": "2024-11-03 12:00:00", "RUN_DTG": "2024-11-04 03:41:36", "BASIN": "EP", "STMNR": 13, "CAT_ID": null, "CAT_DESC": null, "MSGID": "WTPZ23 KNHC 031448", "VALIDTIME": "2024-11-01 18:00:00" }, "geometry": { "type": "Point", "coordinates": [ -128.100006, 11.2 ] } },
{ "type": "Feature", "properties": { "ID": 277866, "LAT": 11.1, "LON": -128.7, "VMAX": 30.0, "MSLP": 1006.0, "RMAX": 80.0, "FSPD": 2.5241, "FDIR": 269.99997, "RENV": 150.0, "PENV": 1011.0, "VALIDT": 0, "DTG": "2024-11-02 00:00", "LATNOW": 11.1, "LONNOW": -131.6, "WINDNOW": 25.0, "DIRNOW": 4.0, "SPDNOW": 3.0, "TECH": "TRAK", "ADVNR": 8, "ATCFID": "EP132024", "NAME": "LANE", "FTECH": "OFCL", "FCST_DTG": "2024-11-03 12:00:00", "RUN_DTG": "2024-11-04 03:41:36", "BASIN": "EP", "STMNR": 13, "CAT_ID": null, "CAT_DESC": null, "MSGID": "WTPZ23 KNHC 031448", "VALIDTIME": "2024-11-02 00:00:00" }, "geometry": { "type": "Point", "coordinates": [ -128.699997, 11.1 ] } },
{ "type": "Feature", "properties": { "ID": 277867, "LAT": 11.1, "LON": -129.2, "VMAX": 35.0, "MSLP": 1005.0, "RMAX": 30.0, "FSPD": 3.19795, "FDIR": 288.7678, "RENV": 150.0, "PENV": 1011.0, "VALIDT": 0, "DTG": "2024-11-02 06:00", "LATNOW": 11.1, "LONNOW": -131.6, "WINDNOW": 25.0, "DIRNOW": 4.0, "SPDNOW": 3.0, "TECH": "TRAK", "ADVNR": 8, "ATCFID": "EP132024", "NAME": "LANE", "FTECH": "OFCL", "FCST_DTG": "2024-11-03 12:00:00", "RUN_DTG": "2024-11-04 03:41:36", "BASIN": "EP", "STMNR": 13, "CAT_ID": null, "CAT_DESC": null, "MSGID": "WTPZ23 KNHC 031448", "VALIDTIME": "2024-11-02 06:00:00" }, "geometry": { "type": "Point", "coordinates": [ -129.199997, 11.1 ] } },
{ "type": "Feature", "properties": { "ID": 277868, "LAT": 11.3, "LON": -129.8, "VMAX": 40.0, "MSLP": 1004.0, "RMAX": 30.0, "FSPD": 1.00893, "FDIR": 269.99997, "RENV": 150.0, "PENV": 1011.0, "VALIDT": 0, "DTG": "2024-11-02 12:00", "LATNOW": 11.1, "LONNOW": -131.6, "WINDNOW": 25.0, "DIRNOW": 4.0, "SPDNOW": 3.0, "TECH": "TRAK", "ADVNR": 8, "ATCFID": "EP132024", "NAME": "LANE", "FTECH": "OFCL", "FCST_DTG": "2024-11-03 12:00:00", "RUN_DTG": "2024-11-04 03:41:36", "BASIN": "EP", "STMNR": 13, "CAT_ID": null, "CAT_DESC": null, "MSGID": "WTPZ23 KNHC 031448", "VALIDTIME": "2024-11-02 12:00:00" }, "geometry": { "type": "Point", "coordinates": [ -129.800003, 11.3 ] } },
{ "type": "Feature", "properties": { "ID": 277869, "LAT": 11.3, "LON": -130.0, "VMAX": 40.0, "MSLP": 1004.0, "RMAX": 30.0, "FSPD": 1.59822, "FDIR": 288.77682, "RENV": 150.0, "PENV": 1011.0, "VALIDT": 0, "DTG": "2024-11-02 18:00", "LATNOW": 11.1, "LONNOW": -131.6, "WINDNOW": 25.0, "DIRNOW": 4.0, "SPDNOW": 3.0, "TECH": "TRAK", "ADVNR": 8, "ATCFID": "EP132024", "NAME": "LANE", "FTECH": "OFCL", "FCST_DTG": "2024-11-03 12:00:00", "RUN_DTG": "2024-11-04 03:41:36", "BASIN": "EP", "STMNR": 13, "CAT_ID": null, "CAT_DESC": null, "MSGID": "WTPZ23 KNHC 031448", "VALIDTIME": "2024-11-02 18:00:00" }, "geometry": { "type": "Point", "coordinates": [ -130.0, 11.3 ] } },
{ "type": "Feature", "properties": { "ID": 277870, "LAT": 11.4, "LON": -130.3, "VMAX": 40.0, "MSLP": 1005.0, "RMAX": 30.0, "FSPD": 2.26503, "FDIR": 242.98332, "RENV": 150.0, "PENV": 1011.0, "VALIDT": 0, "DTG": "2024-11-03 00:00", "LATNOW": 11.1, "LONNOW": -131.6, "WINDNOW": 25.0, "DIRNOW": 4.0, "SPDNOW": 3.0, "TECH": "TRAK", "ADVNR": 8, "ATCFID": "EP132024", "NAME": "LANE", "FTECH": "OFCL", "FCST_DTG": "2024-11-03 12:00:00", "RUN_DTG": "2024-11-04 03:41:36", "BASIN": "EP", "STMNR": 13, "CAT_ID": null, "CAT_DESC": null, "MSGID": "WTPZ23 KNHC 031448", "VALIDTIME": "2024-11-03 00:00:00" }, "geometry": { "type": "Point", "coordinates": [ -130.300003, 11.4 ] } },
{ "type": "Feature", "properties": { "ID": 277871, "LAT": 11.2, "LON": -130.7, "VMAX": 30.0, "MSLP": 1007.0, "RMAX": 30.0, "FSPD": 4.57169, "FDIR": 263.53894, "RENV": 120.0, "PENV": 1010.0, "VALIDT": 0, "DTG": "2024-11-03 06:00", "LATNOW": 11.1, "LONNOW": -131.6, "WINDNOW": 25.0, "DIRNOW": 4.0, "SPDNOW": 3.0, "TECH": "TRAK", "ADVNR": 8, "ATCFID": "EP132024", "NAME": "LANE", "FTECH": "OFCL", "FCST_DTG": "2024-11-03 12:00:00", "RUN_DTG": "2024-11-04 03:41:36", "BASIN": "EP", "STMNR": 13, "CAT_ID": null, "CAT_DESC": null, "MSGID": "WTPZ23 KNHC 031448", "VALIDTIME": "2024-11-03 06:00:00" }, "geometry": { "type": "Point", "coordinates": [ -130.699997, 11.2 ] } },
{ "type": "Feature", "properties": { "ID": 277872, "LAT": 11.1, "LON": -131.6, "VMAX": 25.0, "MSLP": 1008.0, "RMAX": 30.0, "FSPD": 4.0385, "FDIR": 269.99997, "RENV": 120.0, "PENV": 1010.0, "VALIDT": 0, "DTG": "2024-11-03 12:00", "LATNOW": 11.1, "LONNOW": -131.6, "WINDNOW": 25.0, "DIRNOW": 4.0, "SPDNOW": 3.0, "TECH": "TRAK", "ADVNR": 8, "ATCFID": "EP132024", "NAME": "LANE", "FTECH": "OFCL", "FCST_DTG": "2024-11-03 12:00:00", "RUN_DTG": "2024-11-04 03:41:36", "BASIN": "EP", "STMNR": 13, "CAT_ID": null, "CAT_DESC": null, "MSGID": "WTPZ23 KNHC 031448", "VALIDTIME": "2024-11-03 12:00:00" }, "geometry": { "type": "Point", "coordinates": [ -131.600006, 11.1 ] } },
{ "type": "Feature", "properties": { "ID": 277873, "LAT": 11.1, "LON": -132.0, "VMAX": 25.0, "MSLP": 1008.0, "RMAX": 30.0, "FSPD": 3.38347, "FDIR": 264.1822, "RENV": 250.0, "PENV": 1012.0, "VALIDT": 3, "DTG": "2024-11-03 15:00", "LATNOW": 11.1, "LONNOW": -131.6, "WINDNOW": 25.0, "DIRNOW": 4.0, "SPDNOW": 3.0, "TECH": "FCST", "ADVNR": 8, "ATCFID": "EP132024", "NAME": "LANE", "FTECH": "OFCL", "FCST_DTG": "2024-11-03 12:00:00", "RUN_DTG": "2024-11-04 03:41:36", "BASIN": "EP", "STMNR": 13, "CAT_ID": null, "CAT_DESC": null, "MSGID": "WTPZ23 KNHC 031448", "VALIDTIME": "2024-11-03 15:00:00" }, "geometry": { "type": "Point", "coordinates": [ -132.0, 11.1 ] } },
{ "type": "Feature", "properties": { "ID": 277874, "LAT": 11.0, "LON": -133.0, "VMAX": 25.0, "MSLP": 1011.80975, "RMAX": 32.06412, "FSPD": 2.78983, "FDIR": 264.70978, "RENV": 250.0, "PENV": 1012.0, "VALIDT": 12, "DTG": "2024-11-04 00:00", "LATNOW": 11.1, "LONNOW": -131.6, "WINDNOW": 25.0, "DIRNOW": 4.0, "SPDNOW": 3.0, "TECH": "FCST", "ADVNR": 8, "ATCFID": "EP132024", "NAME": "LANE", "FTECH": "OFCL", "FCST_DTG": "2024-11-03 12:00:00", "RUN_DTG": "2024-11-04 03:41:36", "BASIN": "EP", "STMNR": 13, "CAT_ID": null, "CAT_DESC": null, "MSGID": "WTPZ23 KNHC 031448", "VALIDTIME": "2024-11-04 00:00:00" }, "geometry": { "type": "Point", "coordinates": [ -133.0, 11.0 ] } },
{ "type": "Feature", "properties": { "ID": 277875, "LAT": 10.9, "LON": -134.1, "VMAX": 20.0, "MSLP": 1012.95825, "RMAX": 32.06412, "FSPD": 3.57452, "FDIR": 261.72525, "RENV": 250.0, "PENV": 1012.0, "VALIDT": 24, "DTG": "2024-11-04 12:00", "LATNOW": 11.1, "LONNOW": -131.6, "WINDNOW": 25.0, "DIRNOW": 4.0, "SPDNOW": 3.0, "TECH": "FCST", "ADVNR": 8, "ATCFID": "EP132024", "NAME": "LANE", "FTECH": "OFCL", "FCST_DTG": "2024-11-03 12:00:00", "RUN_DTG": "2024-11-04 03:41:36", "BASIN": "EP", "STMNR": 13, "CAT_ID": null, "CAT_DESC": null, "MSGID": "WTPZ23 KNHC 031448", "VALIDTIME": "2024-11-04 12:00:00" }, "geometry": { "type": "Point", "coordinates": [ -134.100006, 10.9 ] } },
{ "type": "Feature", "properties": { "ID": 277876, "LAT": 10.7, "LON": -135.5, "VMAX": 20.0, "MSLP": 1012.95825, "RMAX": 32.06412, "FSPD": 3.57452, "FDIR": 261.72525, "RENV": 250.0, "PENV": 1012.0, "VALIDT": 36, "DTG": "2024-11-05 00:00", "LATNOW": 11.1, "LONNOW": -131.6, "WINDNOW": 25.0, "DIRNOW": 4.0, "SPDNOW": 3.0, "TECH": "FCST", "ADVNR": 8, "ATCFID": "EP132024", "NAME": "LANE", "FTECH": "OFCL", "FCST_DTG": "2024-11-03 12:00:00", "RUN_DTG": "2024-11-04 03:41:36", "BASIN": "EP", "STMNR": 13, "CAT_ID": null, "CAT_DESC": null, "MSGID": "WTPZ23 KNHC 031448", "VALIDTIME": "2024-11-05 00:00:00" }, "geometry": { "type": "Point", "coordinates": [ -135.5, 10.7 ] } },
{ "type": "Feature", "properties": { "ID": 277872, "LAT": 11.1, "LON": -131.6, "VMAX": 25.0, "MSLP": 1008.0, "RMAX": 30.0, "FSPD": 4.0385, "FDIR": 269.99997, "RENV": 120.0, "PENV": 1010.0, "VALIDT": 0, "DTG": "2024-11-03 12:00", "LATNOW": 11.1, "LONNOW": -131.6, "WINDNOW": 25.0, "DIRNOW": 4.0, "SPDNOW": 3.0, "TECH": "TRAK", "ADVNR": 8, "ATCFID": "EP132024", "NAME": "LANE", "FTECH": "OFCL", "FCST_DTG": "2024-11-03 12:00:00", "RUN_DTG": "2024-11-04 03:41:36", "BASIN": "EP", "STMNR": 13, "CAT_ID": null, "CAT_DESC": null, "MSGID": "WTPZ23 KNHC 031448", "VALIDTIME": "2024-11-03 12:00:00" }, "geometry": { "type": "LineString", "coordinates": [ [ -125.5, 10.9 ], [ -126.3, 11.4 ], [ -126.9, 10.9 ], [ -127.6, 11.1 ], [ -128.1, 11.2 ], [ -128.7, 11.1 ], [ -129.2, 11.1 ], [ -129.8, 11.3 ], [ -130.0, 11.3 ], [ -130.3, 11.4 ], [ -130.7, 11.2 ], [ -131.6, 11.1 ] ] } },
{ "type": "Feature", "properties": { "ID": 277876, "LAT": 10.7, "LON": -135.5, "VMAX": 20.0, "MSLP": 1012.95825, "RMAX": 32.06412, "FSPD": 3.57452, "FDIR": 261.72525, "RENV": 250.0, "PENV": 1012.0, "VALIDT": 36, "DTG": "2024-11-05 00:00", "LATNOW": 11.1, "LONNOW": -131.6, "WINDNOW": 25.0, "DIRNOW": 4.0, "SPDNOW": 3.0, "TECH": "FCST", "ADVNR": 8, "ATCFID": "EP132024", "NAME": "LANE", "FTECH": "OFCL", "FCST_DTG": "2024-11-03 12:00:00", "RUN_DTG": "2024-11-04 03:41:36", "BASIN": "EP", "STMNR": 13, "CAT_ID": null, "CAT_DESC": null, "MSGID": "WTPZ23 KNHC 031448", "VALIDTIME": "2024-11-05 00:00:00" }, "geometry": { "type": "LineString", "coordinates": [ [ -131.6, 11.1 ], [ -132.0, 11.1 ], [ -133.0, 11.0 ], [ -134.1, 10.9 ], [ -135.5, 10.7 ] ] } }
]
}
