{
"type": "FeatureCollection",
"crs": { "type": "name", "properties": { "name": "urn:ogc:def:crs:OGC:1.3:CRS84" } },
"features": [
{ "type": "Feature", "properties": { "ID": 284266, "LAT": 5.5, "LON": 147.2, "VMAX": 15.0, "MSLP": 1013.8515, "RMAX": 40.0, "FSPD": 8.25614, "FDIR": 277.15884, "RENV": 500.0, "PENV": 1012.0, "VALIDT": 0, "DTG": "2024-11-01 12:00", "LATNOW": 14.0, "LONNOW": 108.6, "WINDNOW": 25.0, "DIRNOW": 4.0, "SPDNOW": 3.0, "TECH": "TRAK", "ADVNR": 38, "ATCFID": "WP242024", "NAME": "YINXING", "FTECH": "JTWC", "FCST_DTG": "2024-11-12 12:00:00", "RUN_DTG": "2024-11-13 02:56:21", "BASIN": "WP", "STMNR": 24, "CAT_ID": null, "CAT_DESC": null, "MSGID": "WTPN51 PGTW 121500", "VALIDTIME": "2024-11-01 12:00:00" }, "geometry": { "type": "Point", "coordinates": [ 147.199997, 5.5 ] } },
{ "type": "Feature", "properties": { "ID": 284267, "LAT": 5.7, "LON": 145.6, "VMAX": 15.0, "MSLP": 1013.8515, "RMAX": 40.0, "FSPD": 8.20587, "FDIR": 273.59436, "RENV": 500.0, "PENV": 1012.0, "VALIDT": 0, "DTG": "2024-11-01 18:00", "LATNOW": 14.0, "LONNOW": 108.6, "WINDNOW": 25.0, "DIRNOW": 4.0, "SPDNOW": 3.0, "TECH": "TRAK", "ADVNR": 38, "ATCFID": "WP242024", "NAME": "YINXING", "FTECH": "JTWC", "FCST_DTG": "2024-11-12 12:00:00", "RUN_DTG": "2024-11-13 02:56:21", "BASIN": "WP", "STMNR": 24, "CAT_ID": null, "CAT_DESC": null, "MSGID": "WTPN51 PGTW 121500", "VALIDTIME": "2024-11-01 18:00:00" }, "geometry": { "type": "Point", "coordinates": [ 145.600006, 5.7 ] } },
{ "type": "Feature", "properties": { "ID": 284268, "LAT": 5.8, "LON": 144.0, "VMAX": 15.0, "MSLP": 1013.8515, "RMAX": 40.0, "FSPD": 9.43639, "FDIR": 282.59558, "RENV": 500.0, "PENV": 1012.0, "VALIDT": 0, "DTG": "2024-11-02 00:00", "LATNOW": 14.0, "LONNOW": 108.6, "WINDNOW": 25.0, "DIRNOW": 4.0, "SPDNOW": 3.0, "TECH": "TRAK", "ADVNR": 38, "ATCFID": "WP242024", "NAME": "YINXING", "FTECH": "JTWC", "FCST_DTG": "2024-11-12 12:00:00", "RUN_DTG": "2024-11-13 02:56:21", "BASIN": "WP", "STMNR": 24, "CAT_ID": null, "CAT_DESC": null, "MSGID": "WTPN51 PGTW 121500", "VALIDTIME": "2024-11-02 00:00:00" }, "geometry": { "type": "Point", "coordinates": [ 144.0, 5.8 ] } },
{ "type": "Feature", "properties": { "ID": 284269, "LAT": 6.2, "LON": 142.2, "VMAX": 15.0, "MSLP": 1013.8515, "RMAX": 40.0, "FSPD": 5.04031, "FDIR": 294.09583, "RENV": 500.0, "PENV": 1012.0, "VALIDT": 0, "DTG": "2024-11-02 06:00", "LATNOW": 14.0, "LONNOW": 108.6, "WINDNOW": 25.0, "DIRNOW": 4.0, "SPDNOW": 3.0, "TECH": "TRAK", "ADVNR": 38, "ATCFID": "WP242024", "NAME": "YINXING", "FTECH": "JTWC", "FCST_DTG": "2024-11-12 12:00:00", "RUN_DTG": "2024-11-13 02:56:21", "BASIN": "WP", "STMNR": 24, "CAT_ID": null, "CAT_DESC": null, "MSGID": "WTPN51 PGTW 121500", "VALIDTIME": "2024-11-02 06:00:00" }, "geometry": { "type": "Point", "coordinates": [ 142.199997, 6.2 ] } },
{ "type": "Feature", "properties": { "ID": 284270, "LAT": 6.6, "LON": 141.3, "VMAX": 20.0, "MSLP": 1012.95825, "RMAX": 45.0, "FSPD": 6.24867, "FDIR": 305.1908, "RENV": 500.0, "PENV": 1012.0, "VALIDT": 0, "DTG": "2024-11-02 12:00", "LATNOW": 14.0, "LONNOW": 108.6, "WINDNOW": 25.0, "DIRNOW": 4.0, "SPDNOW": 3.0, "TECH": "TRAK", "ADVNR": 38, "ATCFID": "WP242024", "NAME": "YINXING", "FTECH": "JTWC", "FCST_DTG": "2024-11-12 12:00:00", "RUN_DTG": "2024-11-13 02:56:21", "BASIN": "WP", "STMNR": 24, "CAT_ID": null, "CAT_DESC": null, "MSGID": "WTPN51 PGTW 121500", "VALIDTIME": "2024-11-02 12:00:00" }, "geometry": { "type": "Point", "coordinates": [ 141.300003, 6.6 ] } },
{ "type": "Feature", "properties": { "ID": 284271, "LAT": 7.3, "LON": 140.3, "VMAX": 20.0, "MSLP": 1012.95825, "RMAX": 45.0, "FSPD": 7.61542, "FDIR": 317.9947, "RENV": 500.0, "PENV": 1012.0, "VALIDT": 0, "DTG": "2024-11-02 18:00", "LATNOW": 14.0, "LONNOW": 108.6, "WINDNOW": 25.0, "DIRNOW": 4.0, "SPDNOW": 3.0, "TECH": "TRAK", "ADVNR": 38, "ATCFID": "WP242024", "NAME": "YINXING", "FTECH": "JTWC", "FCST_DTG": "2024-11-12 12:00:00", "RUN_DTG": "2024-11-13 02:56:21", "BASIN": "WP", "STMNR": 24, "CAT_ID": null, "CAT_DESC": null, "MSGID": "WTPN51 PGTW 121500", "VALIDTIME": "2024-11-02 18:00:00" }, "geometry": { "type": "Point", "coordinates": [ 140.300003, 7.3 ] } },
{ "type": "Feature", "properties": { "ID": 284272, "LAT": 8.4, "LON": 139.3, "VMAX": 20.0, "MSLP": 1012.95825, "RMAX": 45.0, "FSPD": 8.71536, "FDIR": 320.117, "RENV": 500.0, "PENV": 1012.0, "VALIDT": 0, "DTG": "2024-11-03 00:00", "LATNOW": 14.0, "LONNOW": 108.6, "WINDNOW": 25.0, "DIRNOW": 4.0, "SPDNOW": 3.0, "TECH": "TRAK", "ADVNR": 38, "ATCFID": "WP242024", "NAME": "YINXING", "FTECH": "JTWC", "FCST_DTG": "2024-11-12 12:00:00", "RUN_DTG": "2024-11-13 02:56:21", "BASIN": "WP", "STMNR": 24, "CAT_ID": null, "CAT_DESC": null, "MSGID": "WTPN51 PGTW 121500", "VALIDTIME": "2024-11-03 00:00:00" }, "geometry": { "type": "Point", "coordinates": [ 139.300003, 8.4 ] } },
{ "type": "Feature", "properties": { "ID": 284273, "LAT": 9.7, "LON": 138.2, "VMAX": 30.0, "MSLP": 1003.0, "RMAX": 75.0, "FSPD": 9.17305, "FDIR": 304.1126, "RENV": 175.0, "PENV": 1006.0, "VALIDT": 0, "DTG": "2024-11-03 06:00", "LATNOW": 14.0, "LONNOW": 108.6, "WINDNOW": 25.0, "DIRNOW": 4.0, "SPDNOW": 3.0, "TECH": "TRAK", "ADVNR": 38, "ATCFID": "WP242024", "NAME": "YINXING", "FTECH": "JTWC", "FCST_DTG": "2024-11-12 12:00:00", "RUN_DTG": "2024-11-13 02:56:21", "BASIN": "WP", "STMNR": 24, "CAT_ID": null, "CAT_DESC": null, "MSGID": "WTPN51 PGTW 121500", "VALIDTIME": "2024-11-03 06:00:00" }, "geometry": { "type": "Point", "coordinates": [ 138.199997, 9.7 ] } },
{ "type": "Feature", "properties": { "ID": 284274, "LAT": 10.7, "LON": 136.7, "VMAX": 35.0, "MSLP": 1003.0, "RMAX": 75.0, "FSPD": 10.22214, "FDIR": 278.6837, "RENV": 175.0, "PENV": 1006.0, "VALIDT": 0, "DTG": "2024-11-03 12:00", "LATNOW": 14.0, "LONNOW": 108.6, "WINDNOW": 25.0, "DIRNOW": 4.0, "SPDNOW": 3.0, "TECH": "TRAK", "ADVNR": 38, "ATCFID": "WP242024", "NAME": "YINXING", "FTECH": "JTWC", "FCST_DTG": "2024-11-12 12:00:00", "RUN_DTG": "2024-11-13 02:56:21", "BASIN": "WP", "STMNR": 24, "CAT_ID": null, "CAT_DESC": null, "MSGID": "WTPN51 PGTW 121500", "VALIDTIME": "2024-11-03 12:00:00" }, "geometry": { "type": "Point", "coordinates": [ 136.699997, 10.7 ] } },
{ "type": "Feature", "properties": { "ID": 284275, "LAT": 11.0, "LON": 134.7, "VMAX": 40.0, "MSLP": 1000.0, "RMAX": 50.0, "FSPD": 9.04517, "FDIR": 308.7281, "RENV": 155.0, "PENV": 1008.0, "VALIDT": 0, "DTG": "2024-11-03 18:00", "LATNOW": 14.0, "LONNOW": 108.6, "WINDNOW": 25.0, "DIRNOW": 4.0, "SPDNOW": 3.0, "TECH": "TRAK", "ADVNR": 38, "ATCFID": "WP242024", "NAME": "YINXING", "FTECH": "JTWC", "FCST_DTG": "2024-11-12 12:00:00", "RUN_DTG": "2024-11-13 02:56:21", "BASIN": "WP", "STMNR": 24, "CAT_ID": null, "CAT_DESC": null, "MSGID": "WTPN51 PGTW 121500", "VALIDTIME": "2024-11-03 18:00:00" }, "geometry": { "type": "Point", "coordinates": [ 134.699997, 11.0 ] } },
{ "type": "Feature", "properties": { "ID": 284276, "LAT": 12.1, "LON": 133.3, "VMAX": 50.0, "MSLP": 997.0, "RMAX": 40.0, "FSPD": 10.39869, "FDIR": 299.6513, "RENV": 120.0, "PENV": 1006.0, "VALIDT": 0, "DTG": "2024-11-04 00:00", "LATNOW": 14.0, "LONNOW": 108.6, "WINDNOW": 25.0, "DIRNOW": 4.0, "SPDNOW": 3.0, "TECH": "TRAK", "ADVNR": 38, "ATCFID": "WP242024", "NAME": "YINXING", "FTECH": "JTWC", "FCST_DTG": "2024-11-12 12:00:00", "RUN_DTG": "2024-11-13 02:56:21", "BASIN": "WP", "STMNR": 24, "CAT_ID": null, "CAT_DESC": null, "MSGID": "WTPN51 PGTW 121500", "VALIDTIME": "2024-11-04 00:00:00" }, "geometry": { "type": "Point", "coordinates": [ 133.300003, 12.1 ] } },
{ "type": "Feature", "properties": { "ID": 284277, "LAT": 13.1, "LON": 131.5, "VMAX": 55.0, "MSLP": 995.0, "RMAX": 30.0, "FSPD": 9.33124, "FDIR": 311.42023, "RENV": 110.0, "PENV": 1008.0, "VALIDT": 0, "DTG": "2024-11-04 06:00", "LATNOW": 14.0, "LONNOW": 108.6, "WINDNOW": 25.0, "DIRNOW": 4.0, "SPDNOW": 3.0, "TECH": "TRAK", "ADVNR": 38, "ATCFID": "WP242024", "NAME": "YINXING", "FTECH": "JTWC", "FCST_DTG": "2024-11-12 12:00:00", "RUN_DTG": "2024-11-13 02:56:21", "BASIN": "WP", "STMNR": 24, "CAT_ID": null, "CAT_DESC": null, "MSGID": "WTPN51 PGTW 121500", "VALIDTIME": "2024-11-04 06:00:00" }, "geometry": { "type": "Point", "coordinates": [ 131.5, 13.1 ] } },
{ "type": "Feature", "properties": { "ID": 284278, "LAT": 14.3, "LON": 130.1, "VMAX": 65.0, "MSLP": 994.0, "RMAX": 30.0, "FSPD": 6.84829, "FDIR": 306.93875, "RENV": 200.0, "PENV": 1006.0, "VALIDT": 0, "DTG": "2024-11-04 12:00", "LATNOW": 14.0, "LONNOW": 108.6, "WINDNOW": 25.0, "DIRNOW": 4.0, "SPDNOW": 3.0, "TECH": "TRAK", "ADVNR": 38, "ATCFID": "WP242024", "NAME": "YINXING", "FTECH": "JTWC", "FCST_DTG": "2024-11-12 12:00:00", "RUN_DTG": "2024-11-13 02:56:21", "BASIN": "WP", "STMNR": 24, "CAT_ID": null, "CAT_DESC": null, "MSGID": "WTPN51 PGTW 121500", "VALIDTIME": "2024-11-04 12:00:00" }, "geometry": { "type": "Point", "coordinates": [ 130.100006, 14.3 ] } },
{ "type": "Feature", "properties": { "ID": 284279, "LAT": 15.1, "LON": 129.0, "VMAX": 70.0, "MSLP": 987.0, "RMAX": 25.0, "FSPD": 9.34006, "FDIR": 307.2917, "RENV": 205.0, "PENV": 1008.0, "VALIDT": 0, "DTG": "2024-11-04 18:00", "LATNOW": 14.0, "LONNOW": 108.6, "WINDNOW": 25.0, "DIRNOW": 4.0, "SPDNOW": 3.0, "TECH": "TRAK", "ADVNR": 38, "ATCFID": "WP242024", "NAME": "YINXING", "FTECH": "JTWC", "FCST_DTG": "2024-11-12 12:00:00", "RUN_DTG": "2024-11-13 02:56:21", "BASIN": "WP", "STMNR": 24, "CAT_ID": null, "CAT_DESC": null, "MSGID": "WTPN51 PGTW 121500", "VALIDTIME": "2024-11-04 18:00:00" }, "geometry": { "type": "Point", "coordinates": [ 129.0, 15.1 ] } },
{ "type": "Feature", "properties": { "ID": 284280, "LAT": 16.2, "LON": 127.5, "VMAX": 75.0, "MSLP": 980.0, "RMAX": 20.0, "FSPD": 6.10621, "FDIR": 306.13885, "RENV": 250.0, "PENV": 1007.0, "VALIDT": 0, "DTG": "2024-11-05 00:00", "LATNOW": 14.0, "LONNOW": 108.6, "WINDNOW": 25.0, "DIRNOW": 4.0, "SPDNOW": 3.0, "TECH": "TRAK", "ADVNR": 38, "ATCFID": "WP242024", "NAME": "YINXING", "FTECH": "JTWC", "FCST_DTG": "2024-11-12 12:00:00", "RUN_DTG": "2024-11-13 02:56:21", "BASIN": "WP", "STMNR": 24, "CAT_ID": null, "CAT_DESC": null, "MSGID": "WTPN51 PGTW 121500", "VALIDTIME": "2024-11-05 00:00:00" }, "geometry": { "type": "Point", "coordinates": [ 127.5, 16.200001 ] } },
{ "type": "Feature", "properties": { "ID": 284281, "LAT": 16.9, "LON": 126.5, "VMAX": 80.0, "MSLP": 960.0, "RMAX": 15.0, "FSPD": 4.69909, "FDIR": 303.18793, "RENV": 260.0, "PENV": 1007.0, "VALIDT": 0, "DTG": "2024-11-05 06:00", "LATNOW": 14.0, "LONNOW": 108.6, "WINDNOW": 25.0, "DIRNOW": 4.0, "SPDNOW": 3.0, "TECH": "TRAK", "ADVNR": 38, "ATCFID": "WP242024", "NAME": "YINXING", "FTECH": "JTWC", "FCST_DTG": "2024-11-12 12:00:00", "RUN_DTG": "2024-11-13 02:56:21", "BASIN": "WP", "STMNR": 24, "CAT_ID": null, "CAT_DESC": null, "MSGID": "WTPN51 PGTW 121500", "VALIDTIME": "2024-11-05 06:00:00" }, "geometry": { "type": "Point", "coordinates": [ 126.5, 16.9 ] } },
{ "type": "Feature", "properties": { "ID": 284282, "LAT": 17.4, "LON": 125.7, "VMAX": 85.0, "MSLP": 977.0, "RMAX": 15.0, "FSPD": 4.2886, "FDIR": 306.85425, "RENV": 190.0, "PENV": 1008.0, "VALIDT": 0, "DTG": "2024-11-05 12:00", "LATNOW": 14.0, "LONNOW": 108.6, "WINDNOW": 25.0, "DIRNOW": 4.0, "SPDNOW": 3.0, "TECH": "TRAK", "ADVNR": 38, "ATCFID": "WP242024", "NAME": "YINXING", "FTECH": "JTWC", "FCST_DTG": "2024-11-12 12:00:00", "RUN_DTG": "2024-11-13 02:56:21", "BASIN": "WP", "STMNR": 24, "CAT_ID": null, "CAT_DESC": null, "MSGID": "WTPN51 PGTW 121500", "VALIDTIME": "2024-11-05 12:00:00" }, "geometry": { "type": "Point", "coordinates": [ 125.699997, 17.4 ] } },
{ "type": "Feature", "properties": { "ID": 284283, "LAT": 17.9, "LON": 125.0, "VMAX": 90.0, "MSLP": 974.0, "RMAX": 10.0, "FSPD": 1.79251, "FDIR": 305.0293, "RENV": 190.0, "PENV": 1008.0, "VALIDT": 0, "DTG": "2024-11-05 18:00", "LATNOW": 14.0, "LONNOW": 108.6, "WINDNOW": 25.0, "DIRNOW": 4.0, "SPDNOW": 3.0, "TECH": "TRAK", "ADVNR": 38, "ATCFID": "WP242024", "NAME": "YINXING", "FTECH": "JTWC", "FCST_DTG": "2024-11-12 12:00:00", "RUN_DTG": "2024-11-13 02:56:21", "BASIN": "WP", "STMNR": 24, "CAT_ID": null, "CAT_DESC": null, "MSGID": "WTPN51 PGTW 121500", "VALIDTIME": "2024-11-05 18:00:00" }, "geometry": { "type": "Point", "coordinates": [ 125.0, 17.9 ] } },
{ "type": "Feature", "properties": { "ID": 284284, "LAT": 18.1, "LON": 124.7, "VMAX": 90.0, "MSLP": 968.0, "RMAX": 10.0, "FSPD": 1.55493, "FDIR": 250.67963, "RENV": 190.0, "PENV": 1008.0, "VALIDT": 0, "DTG": "2024-11-06 00:00", "LATNOW": 14.0, "LONNOW": 108.6, "WINDNOW": 25.0, "DIRNOW": 4.0, "SPDNOW": 3.0, "TECH": "TRAK", "ADVNR": 38, "ATCFID": "WP242024", "NAME": "YINXING", "FTECH": "JTWC", "FCST_DTG": "2024-11-12 12:00:00", "RUN_DTG": "2024-11-13 02:56:21", "BASIN": "WP", "STMNR": 24, "CAT_ID": null, "CAT_DESC": null, "MSGID": "WTPN51 PGTW 121500", "VALIDTIME": "2024-11-06 00:00:00" }, "geometry": { "type": "Point", "coordinates": [ 124.699997, 18.1 ] } },
{ "type": "Feature", "properties": { "ID": 284285, "LAT": 18.0, "LON": 124.4, "VMAX": 100.0, "MSLP": 968.0, "RMAX": 10.0, "FSPD": 2.02302, "FDIR": 284.73187, "RENV": 200.0, "PENV": 1009.0, "VALIDT": 0, "DTG": "2024-11-06 06:00", "LATNOW": 14.0, "LONNOW": 108.6, "WINDNOW": 25.0, "DIRNOW": 4.0, "SPDNOW": 3.0, "TECH": "TRAK", "ADVNR": 38, "ATCFID": "WP242024", "NAME": "YINXING", "FTECH": "JTWC", "FCST_DTG": "2024-11-12 12:00:00", "RUN_DTG": "2024-11-13 02:56:21", "BASIN": "WP", "STMNR": 24, "CAT_ID": null, "CAT_DESC": null, "MSGID": "WTPN51 PGTW 121500", "VALIDTIME": "2024-11-06 06:00:00" }, "geometry": { "type": "Point", "coordinates": [ 124.400002, 18.0 ] } },
{ "type": "Feature", "properties": { "ID": 284286, "LAT": 18.1, "LON": 124.0, "VMAX": 100.0, "MSLP": 962.0, "RMAX": 15.0, "FSPD": 2.20907, "FDIR": 297.759, "RENV": 260.0, "PENV": 1008.0, "VALIDT": 0, "DTG": "2024-11-06 12:00", "LATNOW": 14.0, "LONNOW": 108.6, "WINDNOW": 25.0, "DIRNOW": 4.0, "SPDNOW": 3.0, "TECH": "TRAK", "ADVNR": 38, "ATCFID": "WP242024", "NAME": "YINXING", "FTECH": "JTWC", "FCST_DTG": "2024-11-12 12:00:00", "RUN_DTG": "2024-11-13 02:56:21", "BASIN": "WP", "STMNR": 24, "CAT_ID": null, "CAT_DESC": null, "MSGID": "WTPN51 PGTW 121500", "VALIDTIME": "2024-11-06 12:00:00" }, "geometry": { "type": "Point", "coordinates": [ 124.0, 18.1 ] } },
{ "type": "Feature", "properties": { "ID": 284287, "LAT": 18.3, "LON": 123.6, "VMAX": 115.0, "MSLP": 958.0, "RMAX": 20.0, "FSPD": 2.88713, "FDIR": 302.3139, "RENV": 170.0, "PENV": 1010.0, "VALIDT": 0, "DTG": "2024-11-06 18:00", "LATNOW": 14.0, "LONNOW": 108.6, "WINDNOW": 25.0, "DIRNOW": 4.0, "SPDNOW": 3.0, "TECH": "TRAK", "ADVNR": 38, "ATCFID": "WP242024", "NAME": "YINXING", "FTECH": "JTWC", "FCST_DTG": "2024-11-12 12:00:00", "RUN_DTG": "2024-11-13 02:56:21", "BASIN": "WP", "STMNR": 24, "CAT_ID": null, "CAT_DESC": null, "MSGID": "WTPN51 PGTW 121500", "VALIDTIME": "2024-11-06 18:00:00" }, "geometry": { "type": "Point", "coordinates": [ 123.599998, 18.299999 ] } },
{ "type": "Feature", "properties": { "ID": 284288, "LAT": 18.6, "LON": 123.1, "VMAX": 120.0, "MSLP": 945.0, "RMAX": 15.0, "FSPD": 3.45255, "FDIR": 261.43073, "RENV": 140.0, "PENV": 1008.0, "VALIDT": 0, "DTG": "2024-11-07 00:00", "LATNOW": 14.0, "LONNOW": 108.6, "WINDNOW": 25.0, "DIRNOW": 4.0, "SPDNOW": 3.0, "TECH": "TRAK", "ADVNR": 38, "ATCFID": "WP242024", "NAME": "YINXING", "FTECH": "JTWC", "FCST_DTG": "2024-11-12 12:00:00", "RUN_DTG": "2024-11-13 02:56:21", "BASIN": "WP", "STMNR": 24, "CAT_ID": null, "CAT_DESC": null, "MSGID": "WTPN51 PGTW 121500", "VALIDTIME": "2024-11-07 00:00:00" }, "geometry": { "type": "Point", "coordinates": [ 123.099998, 18.6 ] } },
{ "type": "Feature", "properties": { "ID": 284289, "LAT": 18.5, "LON": 122.4, "VMAX": 125.0, "MSLP": 942.0, "RMAX": 15.0, "FSPD": 4.41951, "FDIR": 276.68457, "RENV": 150.0, "PENV": 1010.0, "VALIDT": 0, "DTG": "2024-11-07 06:00", "LATNOW": 14.0, "LONNOW": 108.6, "WINDNOW": 25.0, "DIRNOW": 4.0, "SPDNOW": 3.0, "TECH": "TRAK", "ADVNR": 38, "ATCFID": "WP242024", "NAME": "YINXING", "FTECH": "JTWC", "FCST_DTG": "2024-11-12 12:00:00", "RUN_DTG": "2024-11-13 02:56:21", "BASIN": "WP", "STMNR": 24, "CAT_ID": null, "CAT_DESC": null, "MSGID": "WTPN51 PGTW 121500", "VALIDTIME": "2024-11-07 06:00:00" }, "geometry": { "type": "Point", "coordinates": [ 122.400002, 18.5 ] } },
{ "type": "Feature", "properties": { "ID": 284290, "LAT": 18.6, "LON": 121.5, "VMAX": 115.0, "MSLP": 937.0, "RMAX": 15.0, "FSPD": 4.87574, "FDIR": 269.99997, "RENV": 150.0, "PENV": 1008.0, "VALIDT": 0, "DTG": "2024-11-07 12:00", "LATNOW": 14.0, "LONNOW": 108.6, "WINDNOW": 25.0, "DIRNOW": 4.0, "SPDNOW": 3.0, "TECH": "TRAK", "ADVNR": 38, "ATCFID": "WP242024", "NAME": "YINXING", "FTECH": "JTWC", "FCST_DTG": "2024-11-12 12:00:00", "RUN_DTG": "2024-11-13 02:56:21", "BASIN": "WP", "STMNR": 24, "CAT_ID": null, "CAT_DESC": null, "MSGID": "WTPN51 PGTW 121500", "VALIDTIME": "2024-11-07 12:00:00" }, "geometry": { "type": "Point", "coordinates": [ 121.5, 18.6 ] } },
{ "type": "Feature", "properties": { "ID": 284291, "LAT": 18.6, "LON": 120.5, "VMAX": 100.0, "MSLP": 948.0, "RMAX": 12.0, "FSPD": 6.20864, "FDIR": 250.64392, "RENV": 150.0, "PENV": 1010.0, "VALIDT": 0, "DTG": "2024-11-07 18:00", "LATNOW": 14.0, "LONNOW": 108.6, "WINDNOW": 25.0, "DIRNOW": 4.0, "SPDNOW": 3.0, "TECH": "TRAK", "ADVNR": 38, "ATCFID": "WP242024", "NAME": "YINXING", "FTECH": "JTWC", "FCST_DTG": "2024-11-12 12:00:00", "RUN_DTG": "2024-11-13 02:56:21", "BASIN": "WP", "STMNR": 24, "CAT_ID": null, "CAT_DESC": null, "MSGID": "WTPN51 PGTW 121500", "VALIDTIME": "2024-11-07 18:00:00" }, "geometry": { "type": "Point", "coordinates": [ 120.5, 18.6 ] } },
{ "type": "Feature", "properties": { "ID": 284292, "LAT": 18.2, "LON": 119.3, "VMAX": 90.0, "MSLP": 960.0, "RMAX": 12.0, "FSPD": 5.95076, "FDIR": 279.95642, "RENV": 100.0, "PENV": 1008.0, "VALIDT": 0, "DTG": "2024-11-08 00:00", "LATNOW": 14.0, "LONNOW": 108.6, "WINDNOW": 25.0, "DIRNOW": 4.0, "SPDNOW": 3.0, "TECH": "TRAK", "ADVNR": 38, "ATCFID": "WP242024", "NAME": "YINXING", "FTECH": "JTWC", "FCST_DTG": "2024-11-12 12:00:00", "RUN_DTG": "2024-11-13 02:56:21", "BASIN": "WP", "STMNR": 24, "CAT_ID": null, "CAT_DESC": null, "MSGID": "WTPN51 PGTW 121500", "VALIDTIME": "2024-11-08 00:00:00" }, "geometry": { "type": "Point", "coordinates": [ 119.300003, 18.200001 ] } },
{ "type": "Feature", "properties": { "ID": 284293, "LAT": 18.4, "LON": 118.1, "VMAX": 90.0, "MSLP": 971.0, "RMAX": 20.0, "FSPD": 5.85771, "FDIR": 269.99997, "RENV": 130.0, "PENV": 1010.0, "VALIDT": 0, "DTG": "2024-11-08 06:00", "LATNOW": 14.0, "LONNOW": 108.6, "WINDNOW": 25.0, "DIRNOW": 4.0, "SPDNOW": 3.0, "TECH": "TRAK", "ADVNR": 38, "ATCFID": "WP242024", "NAME": "YINXING", "FTECH": "JTWC", "FCST_DTG": "2024-11-12 12:00:00", "RUN_DTG": "2024-11-13 02:56:21", "BASIN": "WP", "STMNR": 24, "CAT_ID": null, "CAT_DESC": null, "MSGID": "WTPN51 PGTW 121500", "VALIDTIME": "2024-11-08 06:00:00" }, "geometry": { "type": "Point", "coordinates": [ 118.099998, 18.4 ] } },
{ "type": "Feature", "properties": { "ID": 284294, "LAT": 18.4, "LON": 116.9, "VMAX": 90.0, "MSLP": 969.0, "RMAX": 17.0, "FSPD": 5.46419, "FDIR": 280.8534, "RENV": 140.0, "PENV": 1008.0, "VALIDT": 0, "DTG": "2024-11-08 12:00", "LATNOW": 14.0, "LONNOW": 108.6, "WINDNOW": 25.0, "DIRNOW": 4.0, "SPDNOW": 3.0, "TECH": "TRAK", "ADVNR": 38, "ATCFID": "WP242024", "NAME": "YINXING", "FTECH": "JTWC", "FCST_DTG": "2024-11-12 12:00:00", "RUN_DTG": "2024-11-13 02:56:21", "BASIN": "WP", "STMNR": 24, "CAT_ID": null, "CAT_DESC": null, "MSGID": "WTPN51 PGTW 121500", "VALIDTIME": "2024-11-08 12:00:00" }, "geometry": { "type": "Point", "coordinates": [ 116.900002, 18.4 ] } },
{ "type": "Feature", "properties": { "ID": 284295, "LAT": 18.6, "LON": 115.8, "VMAX": 100.0, "MSLP": 969.0, "RMAX": 15.0, "FSPD": 4.0318, "FDIR": 284.7849, "RENV": 150.0, "PENV": 1010.0, "VALIDT": 0, "DTG": "2024-11-08 18:00", "LATNOW": 14.0, "LONNOW": 108.6, "WINDNOW": 25.0, "DIRNOW": 4.0, "SPDNOW": 3.0, "TECH": "TRAK", "ADVNR": 38, "ATCFID": "WP242024", "NAME": "YINXING", "FTECH": "JTWC", "FCST_DTG": "2024-11-12 12:00:00", "RUN_DTG": "2024-11-13 02:56:21", "BASIN": "WP", "STMNR": 24, "CAT_ID": null, "CAT_DESC": null, "MSGID": "WTPN51 PGTW 121500", "VALIDTIME": "2024-11-08 18:00:00" }, "geometry": { "type": "Point", "coordinates": [ 115.800003, 18.6 ] } },
{ "type": "Feature", "properties": { "ID": 284296, "LAT": 18.8, "LON": 115.0, "VMAX": 100.0, "MSLP": 969.0, "RMAX": 15.0, "FSPD": 4.41179, "FDIR": 276.69632, "RENV": 170.0, "PENV": 1009.0, "VALIDT": 0, "DTG": "2024-11-09 00:00", "LATNOW": 14.0, "LONNOW": 108.6, "WINDNOW": 25.0, "DIRNOW": 4.0, "SPDNOW": 3.0, "TECH": "TRAK", "ADVNR": 38, "ATCFID": "WP242024", "NAME": "YINXING", "FTECH": "JTWC", "FCST_DTG": "2024-11-12 12:00:00", "RUN_DTG": "2024-11-13 02:56:21", "BASIN": "WP", "STMNR": 24, "CAT_ID": null, "CAT_DESC": null, "MSGID": "WTPN51 PGTW 121500", "VALIDTIME": "2024-11-09 00:00:00" }, "geometry": { "type": "Point", "coordinates": [ 115.0, 18.799999 ] } },
{ "type": "Feature", "properties": { "ID": 284297, "LAT": 18.9, "LON": 114.1, "VMAX": 110.0, "MSLP": 960.0, "RMAX": 12.0, "FSPD": 2.64077, "FDIR": 292.9308, "RENV": 190.0, "PENV": 1011.0, "VALIDT": 0, "DTG": "2024-11-09 06:00", "LATNOW": 14.0, "LONNOW": 108.6, "WINDNOW": 25.0, "DIRNOW": 4.0, "SPDNOW": 3.0, "TECH": "TRAK", "ADVNR": 38, "ATCFID": "WP242024", "NAME": "YINXING", "FTECH": "JTWC", "FCST_DTG": "2024-11-12 12:00:00", "RUN_DTG": "2024-11-13 02:56:21", "BASIN": "WP", "STMNR": 24, "CAT_ID": null, "CAT_DESC": null, "MSGID": "WTPN51 PGTW 121500", "VALIDTIME": "2024-11-09 06:00:00" }, "geometry": { "type": "Point", "coordinates": [ 114.099998, 18.9 ] } },
{ "type": "Feature", "properties": { "ID": 284298, "LAT": 19.1, "LON": 113.6, "VMAX": 110.0, "MSLP": 955.0, "RMAX": 12.0, "FSPD": 1.54601, "FDIR": 289.4362, "RENV": 180.0, "PENV": 1011.0, "VALIDT": 0, "DTG": "2024-11-09 12:00", "LATNOW": 14.0, "LONNOW": 108.6, "WINDNOW": 25.0, "DIRNOW": 4.0, "SPDNOW": 3.0, "TECH": "TRAK", "ADVNR": 38, "ATCFID": "WP242024", "NAME": "YINXING", "FTECH": "JTWC", "FCST_DTG": "2024-11-12 12:00:00", "RUN_DTG": "2024-11-13 02:56:21", "BASIN": "WP", "STMNR": 24, "CAT_ID": null, "CAT_DESC": null, "MSGID": "WTPN51 PGTW 121500", "VALIDTIME": "2024-11-09 12:00:00" }, "geometry": { "type": "Point", "coordinates": [ 113.599998, 19.1 ] } },
{ "type": "Feature", "properties": { "ID": 284299, "LAT": 19.2, "LON": 113.3, "VMAX": 105.0, "MSLP": 954.0, "RMAX": 12.0, "FSPD": 1.13797, "FDIR": 205.29077, "RENV": 180.0, "PENV": 1011.0, "VALIDT": 0, "DTG": "2024-11-09 18:00", "LATNOW": 14.0, "LONNOW": 108.6, "WINDNOW": 25.0, "DIRNOW": 4.0, "SPDNOW": 3.0, "TECH": "TRAK", "ADVNR": 38, "ATCFID": "WP242024", "NAME": "YINXING", "FTECH": "JTWC", "FCST_DTG": "2024-11-12 12:00:00", "RUN_DTG": "2024-11-13 02:56:21", "BASIN": "WP", "STMNR": 24, "CAT_ID": null, "CAT_DESC": null, "MSGID": "WTPN51 PGTW 121500", "VALIDTIME": "2024-11-09 18:00:00" }, "geometry": { "type": "Point", "coordinates": [ 113.300003, 19.200001 ] } },
{ "type": "Feature", "properties": { "ID": 284300, "LAT": 19.0, "LON": 113.2, "VMAX": 100.0, "MSLP": 960.0, "RMAX": 5.0, "FSPD": 1.41638, "FDIR": 223.41249, "RENV": 170.0, "PENV": 1010.0, "VALIDT": 0, "DTG": "2024-11-10 00:00", "LATNOW": 14.0, "LONNOW": 108.6, "WINDNOW": 25.0, "DIRNOW": 4.0, "SPDNOW": 3.0, "TECH": "TRAK", "ADVNR": 38, "ATCFID": "WP242024", "NAME": "YINXING", "FTECH": "JTWC", "FCST_DTG": "2024-11-12 12:00:00", "RUN_DTG": "2024-11-13 02:56:21", "BASIN": "WP", "STMNR": 24, "CAT_ID": null, "CAT_DESC": null, "MSGID": "WTPN51 PGTW 121500", "VALIDTIME": "2024-11-10 00:00:00" }, "geometry": { "type": "Point", "coordinates": [ 113.199997, 19.0 ] } },
{ "type": "Feature", "properties": { "ID": 284301, "LAT": 18.8, "LON": 113.0, "VMAX": 90.0, "MSLP": 962.0, "RMAX": 5.0, "FSPD": 1.10175, "FDIR": 242.16493, "RENV": 180.0, "PENV": 1012.0, "VALIDT": 0, "DTG": "2024-11-10 06:00", "LATNOW": 14.0, "LONNOW": 108.6, "WINDNOW": 25.0, "DIRNOW": 4.0, "SPDNOW": 3.0, "TECH": "TRAK", "ADVNR": 38, "ATCFID": "WP242024", "NAME": "YINXING", "FTECH": "JTWC", "FCST_DTG": "2024-11-12 12:00:00", "RUN_DTG": "2024-11-13 02:56:21", "BASIN": "WP", "STMNR": 24, "CAT_ID": null, "CAT_DESC": null, "MSGID": "WTPN51 PGTW 121500", "VALIDTIME": "2024-11-10 06:00:00" }, "geometry": { "type": "Point", "coordinates": [ 113.0, 18.799999 ] } },
{ "type": "Feature", "properties": { "ID": 284302, "LAT": 18.7, "LON": 112.8, "VMAX": 75.0, "MSLP": 970.0, "RMAX": 5.0, "FSPD": 4.67523, "FDIR": 236.62054, "RENV": 170.0, "PENV": 1012.0, "VALIDT": 0, "DTG": "2024-11-10 12:00", "LATNOW": 14.0, "LONNOW": 108.6, "WINDNOW": 25.0, "DIRNOW": 4.0, "SPDNOW": 3.0, "TECH": "TRAK", "ADVNR": 38, "ATCFID": "WP242024", "NAME": "YINXING", "FTECH": "JTWC", "FCST_DTG": "2024-11-12 12:00:00", "RUN_DTG": "2024-11-13 02:56:21", "BASIN": "WP", "STMNR": 24, "CAT_ID": null, "CAT_DESC": null, "MSGID": "WTPN51 PGTW 121500", "VALIDTIME": "2024-11-10 12:00:00" }, "geometry": { "type": "Point", "coordinates": [ 112.800003, 18.700001 ] } },
{ "type": "Feature", "properties": { "ID": 284303, "LAT": 18.2, "LON": 112.0, "VMAX": 40.0, "MSLP": 981.0, "RMAX": 10.0, "FSPD": 6.16694, "FDIR": 203.41974, "RENV": 170.0, "PENV": 1012.0, "VALIDT": 0, "DTG": "2024-11-10 18:00", "LATNOW": 14.0, "LONNOW": 108.6, "WINDNOW": 25.0, "DIRNOW": 4.0, "SPDNOW": 3.0, "TECH": "TRAK", "ADVNR": 38, "ATCFID": "WP242024", "NAME": "YINXING", "FTECH": "JTWC", "FCST_DTG": "2024-11-12 12:00:00", "RUN_DTG": "2024-11-13 02:56:21", "BASIN": "WP", "STMNR": 24, "CAT_ID": null, "CAT_DESC": null, "MSGID": "WTPN51 PGTW 121500", "VALIDTIME": "2024-11-10 18:00:00" }, "geometry": { "type": "Point", "coordinates": [ 112.0, 18.200001 ] } },
{ "type": "Feature", "properties": { "ID": 284304, "LAT": 17.1, "LON": 111.5, "VMAX": 35.0, "MSLP": 1008.74713, "RMAX": 42.69135, "FSPD": 6.05018, "FDIR": 227.13771, "RENV": 500.0, "PENV": 1012.0, "VALIDT": 0, "DTG": "2024-11-11 00:00", "LATNOW": 14.0, "LONNOW": 108.6, "WINDNOW": 25.0, "DIRNOW": 4.0, "SPDNOW": 3.0, "TECH": "TRAK", "ADVNR": 38, "ATCFID": "WP242024", "NAME": "YINXING", "FTECH": "JTWC", "FCST_DTG": "2024-11-12 12:00:00", "RUN_DTG": "2024-11-13 02:56:21", "BASIN": "WP", "STMNR": 24, "CAT_ID": null, "CAT_DESC": null, "MSGID": "WTPN51 PGTW 121500", "VALIDTIME": "2024-11-11 00:00:00" }, "geometry": { "type": "Point", "coordinates": [ 111.5, 17.1 ] } },
{ "type": "Feature", "properties": { "ID": 284305, "LAT": 16.3, "LON": 110.6, "VMAX": 35.0, "MSLP": 970.0, "RMAX": 5.0, "FSPD": 3.12602, "FDIR": 189.10184, "RENV": 170.0, "PENV": 1012.0, "VALIDT": 0, "DTG": "2024-11-11 06:00", "LATNOW": 14.0, "LONNOW": 108.6, "WINDNOW": 25.0, "DIRNOW": 4.0, "SPDNOW": 3.0, "TECH": "TRAK", "ADVNR": 38, "ATCFID": "WP242024", "NAME": "YINXING", "FTECH": "JTWC", "FCST_DTG": "2024-11-12 12:00:00", "RUN_DTG": "2024-11-13 02:56:21", "BASIN": "WP", "STMNR": 24, "CAT_ID": null, "CAT_DESC": null, "MSGID": "WTPN51 PGTW 121500", "VALIDTIME": "2024-11-11 06:00:00" }, "geometry": { "type": "Point", "coordinates": [ 110.599998, 16.299999 ] } },
{ "type": "Feature", "properties": { "ID": 284306, "LAT": 15.7, "LON": 110.5, "VMAX": 35.0, "MSLP": 998.0, "RMAX": 45.0, "FSPD": 5.07956, "FDIR": 215.88254, "RENV": 100.0, "PENV": 1010.0, "VALIDT": 0, "DTG": "2024-11-11 12:00", "LATNOW": 14.0, "LONNOW": 108.6, "WINDNOW": 25.0, "DIRNOW": 4.0, "SPDNOW": 3.0, "TECH": "TRAK", "ADVNR": 38, "ATCFID": "WP242024", "NAME": "YINXING", "FTECH": "JTWC", "FCST_DTG": "2024-11-12 12:00:00", "RUN_DTG": "2024-11-13 02:56:21", "BASIN": "WP", "STMNR": 24, "CAT_ID": null, "CAT_DESC": null, "MSGID": "WTPN51 PGTW 121500", "VALIDTIME": "2024-11-11 12:00:00" }, "geometry": { "type": "Point", "coordinates": [ 110.5, 15.7 ] } },
{ "type": "Feature", "properties": { "ID": 284307, "LAT": 14.9, "LON": 109.9, "VMAX": 35.0, "MSLP": 1008.74713, "RMAX": 42.69135, "FSPD": 3.67327, "FDIR": 212.82774, "RENV": 500.0, "PENV": 1012.0, "VALIDT": 0, "DTG": "2024-11-11 18:00", "LATNOW": 14.0, "LONNOW": 108.6, "WINDNOW": 25.0, "DIRNOW": 4.0, "SPDNOW": 3.0, "TECH": "TRAK", "ADVNR": 38, "ATCFID": "WP242024", "NAME": "YINXING", "FTECH": "JTWC", "FCST_DTG": "2024-11-12 12:00:00", "RUN_DTG": "2024-11-13 02:56:21", "BASIN": "WP", "STMNR": 24, "CAT_ID": null, "CAT_DESC": null, "MSGID": "WTPN51 PGTW 121500", "VALIDTIME": "2024-11-11 18:00:00" }, "geometry": { "type": "Point", "coordinates": [ 109.900002, 14.9 ] } },
{ "type": "Feature", "properties": { "ID": 284308, "LAT": 14.3, "LON": 109.5, "VMAX": 30.0, "MSLP": 998.0, "RMAX": 45.0, "FSPD": 1.14339, "FDIR": 205.86015, "RENV": 100.0, "PENV": 1010.0, "VALIDT": 0, "DTG": "2024-11-12 00:00", "LATNOW": 14.0, "LONNOW": 108.6, "WINDNOW": 25.0, "DIRNOW": 4.0, "SPDNOW": 3.0, "TECH": "TRAK", "ADVNR": 38, "ATCFID": "WP242024", "NAME": "YINXING", "FTECH": "JTWC", "FCST_DTG": "2024-11-12 12:00:00", "RUN_DTG": "2024-11-13 02:56:21", "BASIN": "WP", "STMNR": 24, "CAT_ID": null, "CAT_DESC": null, "MSGID": "WTPN51 PGTW 121500", "VALIDTIME": "2024-11-12 00:00:00" }, "geometry": { "type": "Point", "coordinates": [ 109.5, 14.3 ] } },
{ "type": "Feature", "properties": { "ID": 284309, "LAT": 14.1, "LON": 109.4, "VMAX": 30.0, "MSLP": 1002.0, "RMAX": 45.0, "FSPD": 4.02492, "FDIR": 262.65662, "RENV": 120.0, "PENV": 1009.0, "VALIDT": 0, "DTG": "2024-11-12 06:00", "LATNOW": 14.0, "LONNOW": 108.6, "WINDNOW": 25.0, "DIRNOW": 4.0, "SPDNOW": 3.0, "TECH": "TRAK", "ADVNR": 38, "ATCFID": "WP242024", "NAME": "YINXING", "FTECH": "JTWC", "FCST_DTG": "2024-11-12 12:00:00", "RUN_DTG": "2024-11-13 02:56:21", "BASIN": "WP", "STMNR": 24, "CAT_ID": null, "CAT_DESC": null, "MSGID": "WTPN51 PGTW 121500", "VALIDTIME": "2024-11-12 06:00:00" }, "geometry": { "type": "Point", "coordinates": [ 109.400002, 14.1 ] } },
{ "type": "Feature", "properties": { "ID": 284310, "LAT": 14.06, "LON": 109.08, "VMAX": 30.0, "MSLP": 1002.0, "RMAX": 45.0, "FSPD": 4.02582, "FDIR": 262.65823, "RENV": 120.0, "PENV": 1009.0, "VALIDT": 0, "DTG": "2024-11-12 08:00", "LATNOW": 14.0, "LONNOW": 108.6, "WINDNOW": 25.0, "DIRNOW": 4.0, "SPDNOW": 3.0, "TECH": "TRAK", "ADVNR": 38, "ATCFID": "WP242024", "NAME": "YINXING", "FTECH": "JTWC", "FCST_DTG": "2024-11-12 12:00:00", "RUN_DTG": "2024-11-13 02:56:21", "BASIN": "WP", "STMNR": 24, "CAT_ID": null, "CAT_DESC": null, "MSGID": "WTPN51 PGTW 121500", "VALIDTIME": "2024-11-12 08:00:00" }, "geometry": { "type": "Point", "coordinates": [ 109.080002, 14.06 ] } },
{ "type": "Feature", "properties": { "ID": 284311, "LAT": 14.0, "LON": 108.6, "VMAX": 25.0, "MSLP": 1011.80975, "RMAX": 45.0, "FSPD": 4.00244, "FDIR": 266.31522, "RENV": 500.0, "PENV": 1012.0, "VALIDT": 0, "DTG": "2024-11-12 12:00", "LATNOW": 14.0, "LONNOW": 108.6, "WINDNOW": 25.0, "DIRNOW": 4.0, "SPDNOW": 3.0, "TECH": "TRAK", "ADVNR": 38, "ATCFID": "WP242024", "NAME": "YINXING", "FTECH": "JTWC", "FCST_DTG": "2024-11-12 12:00:00", "RUN_DTG": "2024-11-13 02:56:21", "BASIN": "WP", "STMNR": 24, "CAT_ID": null, "CAT_DESC": null, "MSGID": "WTPN51 PGTW 121500", "VALIDTIME": "2024-11-12 12:00:00" }, "geometry": { "type": "Point", "coordinates": [ 108.599998, 14.0 ] } },
{ "type": "Feature", "properties": { "ID": 284312, "LAT": 13.9, "LON": 107.0, "VMAX": 20.0, "MSLP": 1012.95825, "RMAX": 45.0, "FSPD": 4.49442, "FDIR": 269.99997, "RENV": 250.0, "PENV": 1012.0, "VALIDT": 12, "DTG": "2024-11-13 00:00", "LATNOW": 14.0, "LONNOW": 108.6, "WINDNOW": 25.0, "DIRNOW": 4.0, "SPDNOW": 3.0, "TECH": "FCST", "ADVNR": 38, "ATCFID": "WP242024", "NAME": "YINXING", "FTECH": "JTWC", "FCST_DTG": "2024-11-12 12:00:00", "RUN_DTG": "2024-11-13 02:56:21", "BASIN": "WP", "STMNR": 24, "CAT_ID": null, "CAT_DESC": null, "MSGID": "WTPN51 PGTW 121500", "VALIDTIME": "2024-11-13 00:00:00" }, "geometry": { "type": "Point", "coordinates": [ 107.0, 13.9 ] } },
{ "type": "Feature", "properties": { "ID": 284313, "LAT": 13.9, "LON": 105.2, "VMAX": 15.0, "MSLP": 1013.8515, "RMAX": 40.0, "FSPD": 4.49442, "FDIR": 269.99997, "RENV": 250.0, "PENV": 1012.0, "VALIDT": 24, "DTG": "2024-11-13 12:00", "LATNOW": 14.0, "LONNOW": 108.6, "WINDNOW": 25.0, "DIRNOW": 4.0, "SPDNOW": 3.0, "TECH": "FCST", "ADVNR": 38, "ATCFID": "WP242024", "NAME": "YINXING", "FTECH": "JTWC", "FCST_DTG": "2024-11-12 12:00:00", "RUN_DTG": "2024-11-13 02:56:21", "BASIN": "WP", "STMNR": 24, "CAT_ID": null, "CAT_DESC": null, "MSGID": "WTPN51 PGTW 121500", "VALIDTIME": "2024-11-13 12:00:00" }, "geometry": { "type": "Point", "coordinates": [ 105.199997, 13.9 ] } },
{ "type": "Feature", "properties": { "ID": 284311, "LAT": 14.0, "LON": 108.6, "VMAX": 25.0, "MSLP": 1011.80975, "RMAX": 45.0, "FSPD": 4.00244, "FDIR": 266.31522, "RENV": 500.0, "PENV": 1012.0, "VALIDT": 0, "DTG": "2024-11-12 12:00", "LATNOW": 14.0, "LONNOW": 108.6, "WINDNOW": 25.0, "DIRNOW": 4.0, "SPDNOW": 3.0, "TECH": "TRAK", "ADVNR": 38, "ATCFID": "WP242024", "NAME": "YINXING", "FTECH": "JTWC", "FCST_DTG": "2024-11-12 12:00:00", "RUN_DTG": "2024-11-13 02:56:21", "BASIN": "WP", "STMNR": 24, "CAT_ID": null, "CAT_DESC": null, "MSGID": "WTPN51 PGTW 121500", "VALIDTIME": "2024-11-12 12:00:00" }, "geometry": { "type": "LineString", "coordinates": [ [ 147.2, 5.5 ], [ 145.6, 5.7 ], [ 144.0, 5.8 ], [ 142.2, 6.2 ], [ 141.3, 6.6 ], [ 140.3, 7.3 ], [ 139.3, 8.4 ], [ 138.2, 9.7 ], [ 136.7, 10.7 ], [ 134.7, 11.0 ], [ 133.3, 12.1 ], [ 131.5, 13.1 ], [ 130.1, 14.3 ], [ 129.0, 15.1 ], [ 127.5, 16.2 ], [ 126.5, 16.9 ], [ 125.7, 17.4 ], [ 125.0, 17.9 ], [ 124.7, 18.1 ], [ 124.4, 18.0 ], [ 124.0, 18.1 ], [ 123.6, 18.3 ], [ 123.1, 18.6 ], [ 122.4, 18.5 ], [ 121.5, 18.6 ], [ 120.5, 18.6 ], [ 119.3, 18.2 ], [ 118.1, 18.4 ], [ 116.9, 18.4 ], [ 115.8, 18.6 ], [ 115.0, 18.8 ], [ 114.1, 18.9 ], [ 113.6, 19.1 ], [ 113.3, 19.2 ], [ 113.2, 19.0 ], [ 113.0, 18.8 ], [ 112.8, 18.7 ], [ 112.0, 18.2 ], [ 111.5, 17.1 ], [ 110.6, 16.3 ], [ 110.5, 15.7 ], [ 109.9, 14.9 ], [ 109.5, 14.3 ], [ 109.4, 14.1 ], [ 109.08, 14.06 ], [ 108.6, 14.0 ] ] } },
{ "type": "Feature", "properties": { "ID": 284313, "LAT": 13.9, "LON": 105.2, "VMAX": 15.0, "MSLP": 1013.8515, "RMAX": 40.0, "FSPD": 4.49442, "FDIR": 269.99997, "RENV": 250.0, "PENV": 1012.0, "VALIDT": 24, "DTG": "2024-11-13 12:00", "LATNOW": 14.0, "LONNOW": 108.6, "WINDNOW": 25.0, "DIRNOW": 4.0, "SPDNOW": 3.0, "TECH": "FCST", "ADVNR": 38, "ATCFID": "WP242024", "NAME": "YINXING", "FTECH": "JTWC", "FCST_DTG": "2024-11-12 12:00:00", "RUN_DTG": "2024-11-13 02:56:21", "BASIN": "WP", "STMNR": 24, "CAT_ID": null, "CAT_DESC": null, "MSGID": "WTPN51 PGTW 121500", "VALIDTIME": "2024-11-13 12:00:00" }, "geometry": { "type": "LineString", "coordinates": [ [ 108.6, 14.0 ], [ 107.0, 13.9 ], [ 105.2, 13.9 ] ] } }
]
}
