{
"type": "FeatureCollection",
"crs": { "type": "name", "properties": { "name": "urn:ogc:def:crs:OGC:1.3:CRS84" } },
"features": [
{ "type": "Feature", "properties": { "ID": 31241, "LAT": 15.3, "LON": -102.6, "VMAX": 25.0, "MSLP": 1009.0, "RMAX": 80.0, "FSPD": 7.61171, "FDIR": 324.19678, "RENV": 120.0, "PENV": 1011.0, "VALIDT": 0, "DTG": "2025-09-01 12:00", "LATNOW": 24.4, "LONNOW": -115.0, "WINDNOW": 35.0, "DIRNOW": 1.0, "SPDNOW": 2.0, "TECH": "TRAK", "ADVNR": 14, "ATCFID": "EP122025", "NAME": "LORENA", "FTECH": "OFCL", "FCST_DTG": "2025-09-05 06:00:00", "RUN_DTG": "2025-09-06 00:06:34", "BASIN": "EP", "STMNR": 12, "CAT_ID": null, "CAT_DESC": null, "MSGID": "WTPZ22 KNHC 050859", "VALIDTIME": "2025-09-01 12:00:00" }, "geometry": { "type": "Point", "coordinates": [ -102.599998, 15.3 ] } },
{ "type": "Feature", "properties": { "ID": 31242, "LAT": 16.5, "LON": -103.5, "VMAX": 30.0, "MSLP": 1008.0, "RMAX": 60.0, "FSPD": 6.90131, "FDIR": 291.88315, "RENV": 120.0, "PENV": 1011.0, "VALIDT": 0, "DTG": "2025-09-01 18:00", "LATNOW": 24.4, "LONNOW": -115.0, "WINDNOW": 35.0, "DIRNOW": 1.0, "SPDNOW": 2.0, "TECH": "TRAK", "ADVNR": 14, "ATCFID": "EP122025", "NAME": "LORENA", "FTECH": "OFCL", "FCST_DTG": "2025-09-05 06:00:00", "RUN_DTG": "2025-09-06 00:06:34", "BASIN": "EP", "STMNR": 12, "CAT_ID": null, "CAT_DESC": null, "MSGID": "WTPZ22 KNHC 050859", "VALIDTIME": "2025-09-01 18:00:00" }, "geometry": { "type": "Point", "coordinates": [ -103.5, 16.5 ] } },
{ "type": "Feature", "properties": { "ID": 31243, "LAT": 17.0, "LON": -104.8, "VMAX": 30.0, "MSLP": 1007.0, "RMAX": 60.0, "FSPD": 7.53334, "FDIR": 281.82166, "RENV": 120.0, "PENV": 1009.0, "VALIDT": 0, "DTG": "2025-09-02 00:00", "LATNOW": 24.4, "LONNOW": -115.0, "WINDNOW": 35.0, "DIRNOW": 1.0, "SPDNOW": 2.0, "TECH": "TRAK", "ADVNR": 14, "ATCFID": "EP122025", "NAME": "LORENA", "FTECH": "OFCL", "FCST_DTG": "2025-09-05 06:00:00", "RUN_DTG": "2025-09-06 00:06:34", "BASIN": "EP", "STMNR": 12, "CAT_ID": null, "CAT_DESC": null, "MSGID": "WTPZ22 KNHC 050859", "VALIDTIME": "2025-09-02 00:00:00" }, "geometry": { "type": "Point", "coordinates": [ -104.800003, 17.0 ] } },
{ "type": "Feature", "properties": { "ID": 31244, "LAT": 17.3, "LON": -106.3, "VMAX": 30.0, "MSLP": 1007.0, "RMAX": 60.0, "FSPD": 6.21471, "FDIR": 299.77997, "RENV": 120.0, "PENV": 1009.0, "VALIDT": 0, "DTG": "2025-09-02 06:00", "LATNOW": 24.4, "LONNOW": -115.0, "WINDNOW": 35.0, "DIRNOW": 1.0, "SPDNOW": 2.0, "TECH": "TRAK", "ADVNR": 14, "ATCFID": "EP122025", "NAME": "LORENA", "FTECH": "OFCL", "FCST_DTG": "2025-09-05 06:00:00", "RUN_DTG": "2025-09-06 00:06:34", "BASIN": "EP", "STMNR": 12, "CAT_ID": null, "CAT_DESC": null, "MSGID": "WTPZ22 KNHC 050859", "VALIDTIME": "2025-09-02 06:00:00" }, "geometry": { "type": "Point", "coordinates": [ -106.300003, 17.299999 ] } },
{ "type": "Feature", "properties": { "ID": 31245, "LAT": 17.9, "LON": -107.4, "VMAX": 35.0, "MSLP": 1005.0, "RMAX": 30.0, "FSPD": 6.76509, "FDIR": 319.503, "RENV": 100.0, "PENV": 1009.0, "VALIDT": 0, "DTG": "2025-09-02 12:00", "LATNOW": 24.4, "LONNOW": -115.0, "WINDNOW": 35.0, "DIRNOW": 1.0, "SPDNOW": 2.0, "TECH": "TRAK", "ADVNR": 14, "ATCFID": "EP122025", "NAME": "LORENA", "FTECH": "OFCL", "FCST_DTG": "2025-09-05 06:00:00", "RUN_DTG": "2025-09-06 00:06:34", "BASIN": "EP", "STMNR": 12, "CAT_ID": null, "CAT_DESC": null, "MSGID": "WTPZ22 KNHC 050859", "VALIDTIME": "2025-09-02 12:00:00" }, "geometry": { "type": "Point", "coordinates": [ -107.400002, 17.9 ] } },
{ "type": "Feature", "properties": { "ID": 31246, "LAT": 18.9, "LON": -108.3, "VMAX": 45.0, "MSLP": 1002.0, "RMAX": 20.0, "FSPD": 6.36554, "FDIR": 316.66498, "RENV": 100.0, "PENV": 1009.0, "VALIDT": 0, "DTG": "2025-09-02 18:00", "LATNOW": 24.4, "LONNOW": -115.0, "WINDNOW": 35.0, "DIRNOW": 1.0, "SPDNOW": 2.0, "TECH": "TRAK", "ADVNR": 14, "ATCFID": "EP122025", "NAME": "LORENA", "FTECH": "OFCL", "FCST_DTG": "2025-09-05 06:00:00", "RUN_DTG": "2025-09-06 00:06:34", "BASIN": "EP", "STMNR": 12, "CAT_ID": null, "CAT_DESC": null, "MSGID": "WTPZ22 KNHC 050859", "VALIDTIME": "2025-09-02 18:00:00" }, "geometry": { "type": "Point", "coordinates": [ -108.300003, 18.9 ] } },
{ "type": "Feature", "properties": { "ID": 31247, "LAT": 19.8, "LON": -109.2, "VMAX": 55.0, "MSLP": 997.0, "RMAX": 20.0, "FSPD": 6.02875, "FDIR": 320.17358, "RENV": 140.0, "PENV": 1009.0, "VALIDT": 0, "DTG": "2025-09-03 00:00", "LATNOW": 24.4, "LONNOW": -115.0, "WINDNOW": 35.0, "DIRNOW": 1.0, "SPDNOW": 2.0, "TECH": "TRAK", "ADVNR": 14, "ATCFID": "EP122025", "NAME": "LORENA", "FTECH": "OFCL", "FCST_DTG": "2025-09-05 06:00:00", "RUN_DTG": "2025-09-06 00:06:34", "BASIN": "EP", "STMNR": 12, "CAT_ID": null, "CAT_DESC": null, "MSGID": "WTPZ22 KNHC 050859", "VALIDTIME": "2025-09-03 00:00:00" }, "geometry": { "type": "Point", "coordinates": [ -109.199997, 19.799999 ] } },
{ "type": "Feature", "properties": { "ID": 31248, "LAT": 20.7, "LON": -110.0, "VMAX": 60.0, "MSLP": 993.0, "RMAX": 15.0, "FSPD": 8.51498, "FDIR": 321.75888, "RENV": 140.0, "PENV": 1010.0, "VALIDT": 0, "DTG": "2025-09-03 06:00", "LATNOW": 24.4, "LONNOW": -115.0, "WINDNOW": 35.0, "DIRNOW": 1.0, "SPDNOW": 2.0, "TECH": "TRAK", "ADVNR": 14, "ATCFID": "EP122025", "NAME": "LORENA", "FTECH": "OFCL", "FCST_DTG": "2025-09-05 06:00:00", "RUN_DTG": "2025-09-06 00:06:34", "BASIN": "EP", "STMNR": 12, "CAT_ID": null, "CAT_DESC": null, "MSGID": "WTPZ22 KNHC 050859", "VALIDTIME": "2025-09-03 06:00:00" }, "geometry": { "type": "Point", "coordinates": [ -110.0, 20.700001 ] } },
{ "type": "Feature", "properties": { "ID": 31249, "LAT": 22.0, "LON": -111.1, "VMAX": 65.0, "MSLP": 990.0, "RMAX": 15.0, "FSPD": 5.41176, "FDIR": 298.379, "RENV": 140.0, "PENV": 1010.0, "VALIDT": 0, "DTG": "2025-09-03 12:00", "LATNOW": 24.4, "LONNOW": -115.0, "WINDNOW": 35.0, "DIRNOW": 1.0, "SPDNOW": 2.0, "TECH": "TRAK", "ADVNR": 14, "ATCFID": "EP122025", "NAME": "LORENA", "FTECH": "OFCL", "FCST_DTG": "2025-09-05 06:00:00", "RUN_DTG": "2025-09-06 00:06:34", "BASIN": "EP", "STMNR": 12, "CAT_ID": null, "CAT_DESC": null, "MSGID": "WTPZ22 KNHC 050859", "VALIDTIME": "2025-09-03 12:00:00" }, "geometry": { "type": "Point", "coordinates": [ -111.099998, 22.0 ] } },
{ "type": "Feature", "properties": { "ID": 31250, "LAT": 22.5, "LON": -112.1, "VMAX": 70.0, "MSLP": 985.0, "RMAX": 10.0, "FSPD": 4.891, "FDIR": 309.13065, "RENV": 140.0, "PENV": 1010.0, "VALIDT": 0, "DTG": "2025-09-03 18:00", "LATNOW": 24.4, "LONNOW": -115.0, "WINDNOW": 35.0, "DIRNOW": 1.0, "SPDNOW": 2.0, "TECH": "TRAK", "ADVNR": 14, "ATCFID": "EP122025", "NAME": "LORENA", "FTECH": "OFCL", "FCST_DTG": "2025-09-05 06:00:00", "RUN_DTG": "2025-09-06 00:06:34", "BASIN": "EP", "STMNR": 12, "CAT_ID": null, "CAT_DESC": null, "MSGID": "WTPZ22 KNHC 050859", "VALIDTIME": "2025-09-03 18:00:00" }, "geometry": { "type": "Point", "coordinates": [ -112.099998, 22.5 ] } },
{ "type": "Feature", "properties": { "ID": 31251, "LAT": 23.1, "LON": -112.9, "VMAX": 75.0, "MSLP": 981.0, "RMAX": 10.0, "FSPD": 4.18954, "FDIR": 317.45578, "RENV": 160.0, "PENV": 1009.0, "VALIDT": 0, "DTG": "2025-09-04 00:00", "LATNOW": 24.4, "LONNOW": -115.0, "WINDNOW": 35.0, "DIRNOW": 1.0, "SPDNOW": 2.0, "TECH": "TRAK", "ADVNR": 14, "ATCFID": "EP122025", "NAME": "LORENA", "FTECH": "OFCL", "FCST_DTG": "2025-09-05 06:00:00", "RUN_DTG": "2025-09-06 00:06:34", "BASIN": "EP", "STMNR": 12, "CAT_ID": null, "CAT_DESC": null, "MSGID": "WTPZ22 KNHC 050859", "VALIDTIME": "2025-09-04 00:00:00" }, "geometry": { "type": "Point", "coordinates": [ -112.900002, 23.1 ] } },
{ "type": "Feature", "properties": { "ID": 31252, "LAT": 23.7, "LON": -113.5, "VMAX": 70.0, "MSLP": 984.0, "RMAX": 10.0, "FSPD": 3.2174, "FDIR": 298.66467, "RENV": 160.0, "PENV": 1009.0, "VALIDT": 0, "DTG": "2025-09-04 06:00", "LATNOW": 24.4, "LONNOW": -115.0, "WINDNOW": 35.0, "DIRNOW": 1.0, "SPDNOW": 2.0, "TECH": "TRAK", "ADVNR": 14, "ATCFID": "EP122025", "NAME": "LORENA", "FTECH": "OFCL", "FCST_DTG": "2025-09-05 06:00:00", "RUN_DTG": "2025-09-06 00:06:34", "BASIN": "EP", "STMNR": 12, "CAT_ID": null, "CAT_DESC": null, "MSGID": "WTPZ22 KNHC 050859", "VALIDTIME": "2025-09-04 06:00:00" }, "geometry": { "type": "Point", "coordinates": [ -113.5, 23.700001 ] } },
{ "type": "Feature", "properties": { "ID": 31253, "LAT": 24.0, "LON": -114.1, "VMAX": 60.0, "MSLP": 991.0, "RMAX": 10.0, "FSPD": 3.12073, "FDIR": 311.25323, "RENV": 150.0, "PENV": 1009.0, "VALIDT": 0, "DTG": "2025-09-04 12:00", "LATNOW": 24.4, "LONNOW": -115.0, "WINDNOW": 35.0, "DIRNOW": 1.0, "SPDNOW": 2.0, "TECH": "TRAK", "ADVNR": 14, "ATCFID": "EP122025", "NAME": "LORENA", "FTECH": "OFCL", "FCST_DTG": "2025-09-05 06:00:00", "RUN_DTG": "2025-09-06 00:06:34", "BASIN": "EP", "STMNR": 12, "CAT_ID": null, "CAT_DESC": null, "MSGID": "WTPZ22 KNHC 050859", "VALIDTIME": "2025-09-04 12:00:00" }, "geometry": { "type": "Point", "coordinates": [ -114.099998, 24.0 ] } },
{ "type": "Feature", "properties": { "ID": 31254, "LAT": 24.4, "LON": -114.6, "VMAX": 50.0, "MSLP": 997.0, "RMAX": 15.0, "FSPD": 1.94261, "FDIR": 285.35638, "RENV": 140.0, "PENV": 1009.0, "VALIDT": 0, "DTG": "2025-09-04 18:00", "LATNOW": 24.4, "LONNOW": -115.0, "WINDNOW": 35.0, "DIRNOW": 1.0, "SPDNOW": 2.0, "TECH": "TRAK", "ADVNR": 14, "ATCFID": "EP122025", "NAME": "LORENA", "FTECH": "OFCL", "FCST_DTG": "2025-09-05 06:00:00", "RUN_DTG": "2025-09-06 00:06:34", "BASIN": "EP", "STMNR": 12, "CAT_ID": null, "CAT_DESC": null, "MSGID": "WTPZ22 KNHC 050859", "VALIDTIME": "2025-09-04 18:00:00" }, "geometry": { "type": "Point", "coordinates": [ -114.599998, 24.4 ] } },
{ "type": "Feature", "properties": { "ID": 31255, "LAT": 24.5, "LON": -115.0, "VMAX": 40.0, "MSLP": 998.0, "RMAX": 20.0, "FSPD": 0.51445, "FDIR": 179.99997, "RENV": 140.0, "PENV": 1007.0, "VALIDT": 0, "DTG": "2025-09-05 00:00", "LATNOW": 24.4, "LONNOW": -115.0, "WINDNOW": 35.0, "DIRNOW": 1.0, "SPDNOW": 2.0, "TECH": "TRAK", "ADVNR": 14, "ATCFID": "EP122025", "NAME": "LORENA", "FTECH": "OFCL", "FCST_DTG": "2025-09-05 06:00:00", "RUN_DTG": "2025-09-06 00:06:34", "BASIN": "EP", "STMNR": 12, "CAT_ID": null, "CAT_DESC": null, "MSGID": "WTPZ22 KNHC 050859", "VALIDTIME": "2025-09-05 00:00:00" }, "geometry": { "type": "Point", "coordinates": [ -115.0, 24.5 ] } },
{ "type": "Feature", "properties": { "ID": 31256, "LAT": 24.4, "LON": -115.0, "VMAX": 35.0, "MSLP": 1001.0, "RMAX": 20.0, "FSPD": 1.02889, "FDIR": 360.0, "RENV": 140.0, "PENV": 1007.0, "VALIDT": 0, "DTG": "2025-09-05 06:00", "LATNOW": 24.4, "LONNOW": -115.0, "WINDNOW": 35.0, "DIRNOW": 1.0, "SPDNOW": 2.0, "TECH": "TRAK", "ADVNR": 14, "ATCFID": "EP122025", "NAME": "LORENA", "FTECH": "OFCL", "FCST_DTG": "2025-09-05 06:00:00", "RUN_DTG": "2025-09-06 00:06:34", "BASIN": "EP", "STMNR": 12, "CAT_ID": null, "CAT_DESC": null, "MSGID": "WTPZ22 KNHC 050859", "VALIDTIME": "2025-09-05 06:00:00" }, "geometry": { "type": "Point", "coordinates": [ -115.0, 24.4 ] } },
{ "type": "Feature", "properties": { "ID": 31257, "LAT": 24.5, "LON": -115.0, "VMAX": 30.0, "MSLP": 1002.0, "RMAX": 20.26303, "FSPD": 0.68593, "FDIR": 360.0, "RENV": 250.0, "PENV": 1012.0, "VALIDT": 3, "DTG": "2025-09-05 09:00", "LATNOW": 24.4, "LONNOW": -115.0, "WINDNOW": 35.0, "DIRNOW": 1.0, "SPDNOW": 2.0, "TECH": "FCST", "ADVNR": 14, "ATCFID": "EP122025", "NAME": "LORENA", "FTECH": "OFCL", "FCST_DTG": "2025-09-05 06:00:00", "RUN_DTG": "2025-09-06 00:06:34", "BASIN": "EP", "STMNR": 12, "CAT_ID": null, "CAT_DESC": null, "MSGID": "WTPZ22 KNHC 050859", "VALIDTIME": "2025-09-05 09:00:00" }, "geometry": { "type": "Point", "coordinates": [ -115.0, 24.5 ] } },
{ "type": "Feature", "properties": { "ID": 31258, "LAT": 24.7, "LON": -115.0, "VMAX": 25.0, "MSLP": 1011.80975, "RMAX": 23.71699, "FSPD": 1.12975, "FDIR": 335.60495, "RENV": 250.0, "PENV": 1012.0, "VALIDT": 12, "DTG": "2025-09-05 18:00", "LATNOW": 24.4, "LONNOW": -115.0, "WINDNOW": 35.0, "DIRNOW": 1.0, "SPDNOW": 2.0, "TECH": "FCST", "ADVNR": 14, "ATCFID": "EP122025", "NAME": "LORENA", "FTECH": "OFCL", "FCST_DTG": "2025-09-05 06:00:00", "RUN_DTG": "2025-09-06 00:06:34", "BASIN": "EP", "STMNR": 12, "CAT_ID": null, "CAT_DESC": null, "MSGID": "WTPZ22 KNHC 050859", "VALIDTIME": "2025-09-05 18:00:00" }, "geometry": { "type": "Point", "coordinates": [ -115.0, 24.700001 ] } },
{ "type": "Feature", "properties": { "ID": 31259, "LAT": 25.1, "LON": -115.2, "VMAX": 20.0, "MSLP": 1012.95825, "RMAX": 23.71699, "FSPD": 1.59498, "FDIR": 298.93433, "RENV": 250.0, "PENV": 1012.0, "VALIDT": 24, "DTG": "2025-09-06 06:00", "LATNOW": 24.4, "LONNOW": -115.0, "WINDNOW": 35.0, "DIRNOW": 1.0, "SPDNOW": 2.0, "TECH": "FCST", "ADVNR": 14, "ATCFID": "EP122025", "NAME": "LORENA", "FTECH": "OFCL", "FCST_DTG": "2025-09-05 06:00:00", "RUN_DTG": "2025-09-06 00:06:34", "BASIN": "EP", "STMNR": 12, "CAT_ID": null, "CAT_DESC": null, "MSGID": "WTPZ22 KNHC 050859", "VALIDTIME": "2025-09-06 06:00:00" }, "geometry": { "type": "Point", "coordinates": [ -115.199997, 25.1 ] } },
{ "type": "Feature", "properties": { "ID": 31260, "LAT": 25.4, "LON": -115.8, "VMAX": 20.0, "MSLP": 1012.95825, "RMAX": 23.71699, "FSPD": 2.32749, "FDIR": 296.2353, "RENV": 250.0, "PENV": 1012.0, "VALIDT": 36, "DTG": "2025-09-06 18:00", "LATNOW": 24.4, "LONNOW": -115.0, "WINDNOW": 35.0, "DIRNOW": 1.0, "SPDNOW": 2.0, "TECH": "FCST", "ADVNR": 14, "ATCFID": "EP122025", "NAME": "LORENA", "FTECH": "OFCL", "FCST_DTG": "2025-09-05 06:00:00", "RUN_DTG": "2025-09-06 00:06:34", "BASIN": "EP", "STMNR": 12, "CAT_ID": null, "CAT_DESC": null, "MSGID": "WTPZ22 KNHC 050859", "VALIDTIME": "2025-09-06 18:00:00" }, "geometry": { "type": "Point", "coordinates": [ -115.800003, 25.4 ] } },
{ "type": "Feature", "properties": { "ID": 31261, "LAT": 25.8, "LON": -116.7, "VMAX": 15.0, "MSLP": 1013.8515, "RMAX": 21.08177, "FSPD": 2.43822, "FDIR": 288.45074, "RENV": 250.0, "PENV": 1012.0, "VALIDT": 48, "DTG": "2025-09-07 06:00", "LATNOW": 24.4, "LONNOW": -115.0, "WINDNOW": 35.0, "DIRNOW": 1.0, "SPDNOW": 2.0, "TECH": "FCST", "ADVNR": 14, "ATCFID": "EP122025", "NAME": "LORENA", "FTECH": "OFCL", "FCST_DTG": "2025-09-05 06:00:00", "RUN_DTG": "2025-09-06 00:06:34", "BASIN": "EP", "STMNR": 12, "CAT_ID": null, "CAT_DESC": null, "MSGID": "WTPZ22 KNHC 050859", "VALIDTIME": "2025-09-07 06:00:00" }, "geometry": { "type": "Point", "coordinates": [ -116.699997, 25.799999 ] } },
{ "type": "Feature", "properties": { "ID": 31262, "LAT": 26.1, "LON": -117.7, "VMAX": 15.0, "MSLP": 1013.8515, "RMAX": 21.08177, "FSPD": 2.43822, "FDIR": 288.45074, "RENV": 250.0, "PENV": 1012.0, "VALIDT": 60, "DTG": "2025-09-07 18:00", "LATNOW": 24.4, "LONNOW": -115.0, "WINDNOW": 35.0, "DIRNOW": 1.0, "SPDNOW": 2.0, "TECH": "FCST", "ADVNR": 14, "ATCFID": "EP122025", "NAME": "LORENA", "FTECH": "OFCL", "FCST_DTG": "2025-09-05 06:00:00", "RUN_DTG": "2025-09-06 00:06:34", "BASIN": "EP", "STMNR": 12, "CAT_ID": null, "CAT_DESC": null, "MSGID": "WTPZ22 KNHC 050859", "VALIDTIME": "2025-09-07 18:00:00" }, "geometry": { "type": "Point", "coordinates": [ -117.699997, 26.1 ] } },
{ "type": "Feature", "properties": { "ID": 31256, "LAT": 24.4, "LON": -115.0, "VMAX": 35.0, "MSLP": 1001.0, "RMAX": 20.0, "FSPD": 1.02889, "FDIR": 360.0, "RENV": 140.0, "PENV": 1007.0, "VALIDT": 0, "DTG": "2025-09-05 06:00", "LATNOW": 24.4, "LONNOW": -115.0, "WINDNOW": 35.0, "DIRNOW": 1.0, "SPDNOW": 2.0, "TECH": "TRAK", "ADVNR": 14, "ATCFID": "EP122025", "NAME": "LORENA", "FTECH": "OFCL", "FCST_DTG": "2025-09-05 06:00:00", "RUN_DTG": "2025-09-06 00:06:34", "BASIN": "EP", "STMNR": 12, "CAT_ID": null, "CAT_DESC": null, "MSGID": "WTPZ22 KNHC 050859", "VALIDTIME": "2025-09-05 06:00:00" }, "geometry": { "type": "LineString", "coordinates": [ [ -102.6, 15.3 ], [ -103.5, 16.5 ], [ -104.8, 17.0 ], [ -106.3, 17.3 ], [ -107.4, 17.9 ], [ -108.3, 18.9 ], [ -109.2, 19.8 ], [ -110.0, 20.7 ], [ -111.1, 22.0 ], [ -112.1, 22.5 ], [ -112.9, 23.1 ], [ -113.5, 23.7 ], [ -114.1, 24.0 ], [ -114.6, 24.4 ], [ -115.0, 24.5 ], [ -115.0, 24.4 ] ] } },
{ "type": "Feature", "properties": { "ID": 31262, "LAT": 26.1, "LON": -117.7, "VMAX": 15.0, "MSLP": 1013.8515, "RMAX": 21.08177, "FSPD": 2.43822, "FDIR": 288.45074, "RENV": 250.0, "PENV": 1012.0, "VALIDT": 60, "DTG": "2025-09-07 18:00", "LATNOW": 24.4, "LONNOW": -115.0, "WINDNOW": 35.0, "DIRNOW": 1.0, "SPDNOW": 2.0, "TECH": "FCST", "ADVNR": 14, "ATCFID": "EP122025", "NAME": "LORENA", "FTECH": "OFCL", "FCST_DTG": "2025-09-05 06:00:00", "RUN_DTG": "2025-09-06 00:06:34", "BASIN": "EP", "STMNR": 12, "CAT_ID": null, "CAT_DESC": null, "MSGID": "WTPZ22 KNHC 050859", "VALIDTIME": "2025-09-07 18:00:00" }, "geometry": { "type": "LineString", "coordinates": [ [ -115.0, 24.4 ], [ -115.0, 24.5 ], [ -115.0, 24.7 ], [ -115.2, 25.1 ], [ -115.8, 25.4 ], [ -116.7, 25.8 ], [ -117.7, 26.1 ] ] } }
]
}
