{
"type": "FeatureCollection",
"crs": { "type": "name", "properties": { "name": "urn:ogc:def:crs:OGC:1.3:CRS84" } },
"features": [
{ "type": "Feature", "properties": { "ID": 266689, "LAT": 14.6, "LON": -30.0, "VMAX": 25.0, "MSLP": 1007.0, "RMAX": 150.0, "FSPD": 7.26324, "FDIR": 235.48451, "RENV": 200.0, "PENV": 1010.0, "VALIDT": 0, "DTG": "2024-09-28 18:00", "LATNOW": 41.2, "LONNOW": -39.9, "WINDNOW": 65.0, "DIRNOW": 13.0, "SPDNOW": 0.0, "TECH": "TRAK", "ADVNR": 33, "ATCFID": "AL122024", "NAME": "KIRK", "FTECH": "OFCL", "FCST_DTG": "2024-10-07 12:00:00", "RUN_DTG": "2024-10-08 03:18:49", "BASIN": "AL", "STMNR": 12, "CAT_ID": null, "CAT_DESC": null, "MSGID": "WTNT22 KNHC 071440", "VALIDTIME": "2024-09-28 18:00:00" }, "geometry": { "type": "Point", "coordinates": [ -30.0, 14.6 ] } },
{ "type": "Feature", "properties": { "ID": 266690, "LAT": 13.8, "LON": -31.2, "VMAX": 25.0, "MSLP": 1007.0, "RMAX": 150.0, "FSPD": 2.06312, "FDIR": 284.43915, "RENV": 220.0, "PENV": 1011.0, "VALIDT": 0, "DTG": "2024-09-29 00:00", "LATNOW": 41.2, "LONNOW": -39.9, "WINDNOW": 65.0, "DIRNOW": 13.0, "SPDNOW": 0.0, "TECH": "TRAK", "ADVNR": 33, "ATCFID": "AL122024", "NAME": "KIRK", "FTECH": "OFCL", "FCST_DTG": "2024-10-07 12:00:00", "RUN_DTG": "2024-10-08 03:18:49", "BASIN": "AL", "STMNR": 12, "CAT_ID": null, "CAT_DESC": null, "MSGID": "WTNT22 KNHC 071440", "VALIDTIME": "2024-09-29 00:00:00" }, "geometry": { "type": "Point", "coordinates": [ -31.200001, 13.8 ] } },
{ "type": "Feature", "properties": { "ID": 266691, "LAT": 13.9, "LON": -31.6, "VMAX": 25.0, "MSLP": 1007.0, "RMAX": 120.0, "FSPD": 3.1269, "FDIR": 189.2016, "RENV": 220.0, "PENV": 1010.0, "VALIDT": 0, "DTG": "2024-09-29 06:00", "LATNOW": 41.2, "LONNOW": -39.9, "WINDNOW": 65.0, "DIRNOW": 13.0, "SPDNOW": 0.0, "TECH": "TRAK", "ADVNR": 33, "ATCFID": "AL122024", "NAME": "KIRK", "FTECH": "OFCL", "FCST_DTG": "2024-10-07 12:00:00", "RUN_DTG": "2024-10-08 03:18:49", "BASIN": "AL", "STMNR": 12, "CAT_ID": null, "CAT_DESC": null, "MSGID": "WTNT22 KNHC 071440", "VALIDTIME": "2024-09-29 06:00:00" }, "geometry": { "type": "Point", "coordinates": [ -31.6, 13.9 ] } },
{ "type": "Feature", "properties": { "ID": 266692, "LAT": 13.3, "LON": -31.7, "VMAX": 30.0, "MSLP": 1007.0, "RMAX": 90.0, "FSPD": 3.25857, "FDIR": 322.12677, "RENV": 220.0, "PENV": 1010.0, "VALIDT": 0, "DTG": "2024-09-29 12:00", "LATNOW": 41.2, "LONNOW": -39.9, "WINDNOW": 65.0, "DIRNOW": 13.0, "SPDNOW": 0.0, "TECH": "TRAK", "ADVNR": 33, "ATCFID": "AL122024", "NAME": "KIRK", "FTECH": "OFCL", "FCST_DTG": "2024-10-07 12:00:00", "RUN_DTG": "2024-10-08 03:18:49", "BASIN": "AL", "STMNR": 12, "CAT_ID": null, "CAT_DESC": null, "MSGID": "WTNT22 KNHC 071440", "VALIDTIME": "2024-09-29 12:00:00" }, "geometry": { "type": "Point", "coordinates": [ -31.700001, 13.3 ] } },
{ "type": "Feature", "properties": { "ID": 266693, "LAT": 13.8, "LON": -32.1, "VMAX": 30.0, "MSLP": 1006.0, "RMAX": 60.0, "FSPD": 3.53406, "FDIR": 278.3701, "RENV": 220.0, "PENV": 1010.0, "VALIDT": 0, "DTG": "2024-09-29 18:00", "LATNOW": 41.2, "LONNOW": -39.9, "WINDNOW": 65.0, "DIRNOW": 13.0, "SPDNOW": 0.0, "TECH": "TRAK", "ADVNR": 33, "ATCFID": "AL122024", "NAME": "KIRK", "FTECH": "OFCL", "FCST_DTG": "2024-10-07 12:00:00", "RUN_DTG": "2024-10-08 03:18:49", "BASIN": "AL", "STMNR": 12, "CAT_ID": null, "CAT_DESC": null, "MSGID": "WTNT22 KNHC 071440", "VALIDTIME": "2024-09-29 18:00:00" }, "geometry": { "type": "Point", "coordinates": [ -32.099998, 13.8 ] } },
{ "type": "Feature", "properties": { "ID": 266694, "LAT": 13.9, "LON": -32.8, "VMAX": 30.0, "MSLP": 1006.0, "RMAX": 60.0, "FSPD": 3.99503, "FDIR": 269.99997, "RENV": 220.0, "PENV": 1010.0, "VALIDT": 0, "DTG": "2024-09-30 00:00", "LATNOW": 41.2, "LONNOW": -39.9, "WINDNOW": 65.0, "DIRNOW": 13.0, "SPDNOW": 0.0, "TECH": "TRAK", "ADVNR": 33, "ATCFID": "AL122024", "NAME": "KIRK", "FTECH": "OFCL", "FCST_DTG": "2024-10-07 12:00:00", "RUN_DTG": "2024-10-08 03:18:49", "BASIN": "AL", "STMNR": 12, "CAT_ID": null, "CAT_DESC": null, "MSGID": "WTNT22 KNHC 071440", "VALIDTIME": "2024-09-30 00:00:00" }, "geometry": { "type": "Point", "coordinates": [ -32.799999, 13.9 ] } },
{ "type": "Feature", "properties": { "ID": 266695, "LAT": 13.9, "LON": -33.6, "VMAX": 30.0, "MSLP": 1005.0, "RMAX": 50.0, "FSPD": 4.34306, "FDIR": 233.68237, "RENV": 230.0, "PENV": 1010.0, "VALIDT": 0, "DTG": "2024-09-30 06:00", "LATNOW": 41.2, "LONNOW": -39.9, "WINDNOW": 65.0, "DIRNOW": 13.0, "SPDNOW": 0.0, "TECH": "TRAK", "ADVNR": 33, "ATCFID": "AL122024", "NAME": "KIRK", "FTECH": "OFCL", "FCST_DTG": "2024-10-07 12:00:00", "RUN_DTG": "2024-10-08 03:18:49", "BASIN": "AL", "STMNR": 12, "CAT_ID": null, "CAT_DESC": null, "MSGID": "WTNT22 KNHC 071440", "VALIDTIME": "2024-09-30 06:00:00" }, "geometry": { "type": "Point", "coordinates": [ -33.599998, 13.9 ] } },
{ "type": "Feature", "properties": { "ID": 266696, "LAT": 13.4, "LON": -34.3, "VMAX": 45.0, "MSLP": 1001.0, "RMAX": 50.0, "FSPD": 4.0356, "FDIR": 277.3238, "RENV": 230.0, "PENV": 1010.0, "VALIDT": 0, "DTG": "2024-09-30 12:00", "LATNOW": 41.2, "LONNOW": -39.9, "WINDNOW": 65.0, "DIRNOW": 13.0, "SPDNOW": 0.0, "TECH": "TRAK", "ADVNR": 33, "ATCFID": "AL122024", "NAME": "KIRK", "FTECH": "OFCL", "FCST_DTG": "2024-10-07 12:00:00", "RUN_DTG": "2024-10-08 03:18:49", "BASIN": "AL", "STMNR": 12, "CAT_ID": null, "CAT_DESC": null, "MSGID": "WTNT22 KNHC 071440", "VALIDTIME": "2024-09-30 12:00:00" }, "geometry": { "type": "Point", "coordinates": [ -34.299999, 13.4 ] } },
{ "type": "Feature", "properties": { "ID": 266697, "LAT": 13.5, "LON": -35.1, "VMAX": 50.0, "MSLP": 999.0, "RMAX": 40.0, "FSPD": 6.99244, "FDIR": 300.99744, "RENV": 240.0, "PENV": 1010.0, "VALIDT": 0, "DTG": "2024-09-30 18:00", "LATNOW": 41.2, "LONNOW": -39.9, "WINDNOW": 65.0, "DIRNOW": 13.0, "SPDNOW": 0.0, "TECH": "TRAK", "ADVNR": 33, "ATCFID": "AL122024", "NAME": "KIRK", "FTECH": "OFCL", "FCST_DTG": "2024-10-07 12:00:00", "RUN_DTG": "2024-10-08 03:18:49", "BASIN": "AL", "STMNR": 12, "CAT_ID": null, "CAT_DESC": null, "MSGID": "WTNT22 KNHC 071440", "VALIDTIME": "2024-09-30 18:00:00" }, "geometry": { "type": "Point", "coordinates": [ -35.099998, 13.5 ] } },
{ "type": "Feature", "properties": { "ID": 266698, "LAT": 14.2, "LON": -36.3, "VMAX": 50.0, "MSLP": 998.0, "RMAX": 30.0, "FSPD": 6.50795, "FDIR": 293.28113, "RENV": 240.0, "PENV": 1010.0, "VALIDT": 0, "DTG": "2024-10-01 00:00", "LATNOW": 41.2, "LONNOW": -39.9, "WINDNOW": 65.0, "DIRNOW": 13.0, "SPDNOW": 0.0, "TECH": "TRAK", "ADVNR": 33, "ATCFID": "AL122024", "NAME": "KIRK", "FTECH": "OFCL", "FCST_DTG": "2024-10-07 12:00:00", "RUN_DTG": "2024-10-08 03:18:49", "BASIN": "AL", "STMNR": 12, "CAT_ID": null, "CAT_DESC": null, "MSGID": "WTNT22 KNHC 071440", "VALIDTIME": "2024-10-01 00:00:00" }, "geometry": { "type": "Point", "coordinates": [ -36.299999, 14.2 ] } },
{ "type": "Feature", "properties": { "ID": 266699, "LAT": 14.7, "LON": -37.5, "VMAX": 50.0, "MSLP": 998.0, "RMAX": 25.0, "FSPD": 6.1635, "FDIR": 284.5011, "RENV": 250.0, "PENV": 1009.0, "VALIDT": 0, "DTG": "2024-10-01 06:00", "LATNOW": 41.2, "LONNOW": -39.9, "WINDNOW": 65.0, "DIRNOW": 13.0, "SPDNOW": 0.0, "TECH": "TRAK", "ADVNR": 33, "ATCFID": "AL122024", "NAME": "KIRK", "FTECH": "OFCL", "FCST_DTG": "2024-10-07 12:00:00", "RUN_DTG": "2024-10-08 03:18:49", "BASIN": "AL", "STMNR": 12, "CAT_ID": null, "CAT_DESC": null, "MSGID": "WTNT22 KNHC 071440", "VALIDTIME": "2024-10-01 06:00:00" }, "geometry": { "type": "Point", "coordinates": [ -37.5, 14.7 ] } },
{ "type": "Feature", "properties": { "ID": 266700, "LAT": 15.0, "LON": -38.7, "VMAX": 60.0, "MSLP": 988.0, "RMAX": 40.0, "FSPD": 6.7841, "FDIR": 313.03757, "RENV": 280.0, "PENV": 1009.0, "VALIDT": 0, "DTG": "2024-10-01 12:00", "LATNOW": 41.2, "LONNOW": -39.9, "WINDNOW": 65.0, "DIRNOW": 13.0, "SPDNOW": 0.0, "TECH": "TRAK", "ADVNR": 33, "ATCFID": "AL122024", "NAME": "KIRK", "FTECH": "OFCL", "FCST_DTG": "2024-10-07 12:00:00", "RUN_DTG": "2024-10-08 03:18:49", "BASIN": "AL", "STMNR": 12, "CAT_ID": null, "CAT_DESC": null, "MSGID": "WTNT22 KNHC 071440", "VALIDTIME": "2024-10-01 12:00:00" }, "geometry": { "type": "Point", "coordinates": [ -38.700001, 15.0 ] } },
{ "type": "Feature", "properties": { "ID": 266701, "LAT": 15.9, "LON": -39.7, "VMAX": 65.0, "MSLP": 986.0, "RMAX": 25.0, "FSPD": 4.31057, "FDIR": 306.63562, "RENV": 280.0, "PENV": 1009.0, "VALIDT": 0, "DTG": "2024-10-01 18:00", "LATNOW": 41.2, "LONNOW": -39.9, "WINDNOW": 65.0, "DIRNOW": 13.0, "SPDNOW": 0.0, "TECH": "TRAK", "ADVNR": 33, "ATCFID": "AL122024", "NAME": "KIRK", "FTECH": "OFCL", "FCST_DTG": "2024-10-07 12:00:00", "RUN_DTG": "2024-10-08 03:18:49", "BASIN": "AL", "STMNR": 12, "CAT_ID": null, "CAT_DESC": null, "MSGID": "WTNT22 KNHC 071440", "VALIDTIME": "2024-10-01 18:00:00" }, "geometry": { "type": "Point", "coordinates": [ -39.700001, 15.9 ] } },
{ "type": "Feature", "properties": { "ID": 266702, "LAT": 16.4, "LON": -40.4, "VMAX": 65.0, "MSLP": 986.0, "RMAX": 25.0, "FSPD": 7.61103, "FDIR": 302.73376, "RENV": 280.0, "PENV": 1009.0, "VALIDT": 0, "DTG": "2024-10-02 00:00", "LATNOW": 41.2, "LONNOW": -39.9, "WINDNOW": 65.0, "DIRNOW": 13.0, "SPDNOW": 0.0, "TECH": "TRAK", "ADVNR": 33, "ATCFID": "AL122024", "NAME": "KIRK", "FTECH": "OFCL", "FCST_DTG": "2024-10-07 12:00:00", "RUN_DTG": "2024-10-08 03:18:49", "BASIN": "AL", "STMNR": 12, "CAT_ID": null, "CAT_DESC": null, "MSGID": "WTNT22 KNHC 071440", "VALIDTIME": "2024-10-02 00:00:00" }, "geometry": { "type": "Point", "coordinates": [ -40.400002, 16.4 ] } },
{ "type": "Feature", "properties": { "ID": 266703, "LAT": 17.2, "LON": -41.7, "VMAX": 70.0, "MSLP": 984.0, "RMAX": 25.0, "FSPD": 5.1113, "FDIR": 300.21472, "RENV": 280.0, "PENV": 1009.0, "VALIDT": 0, "DTG": "2024-10-02 06:00", "LATNOW": 41.2, "LONNOW": -39.9, "WINDNOW": 65.0, "DIRNOW": 13.0, "SPDNOW": 0.0, "TECH": "TRAK", "ADVNR": 33, "ATCFID": "AL122024", "NAME": "KIRK", "FTECH": "OFCL", "FCST_DTG": "2024-10-07 12:00:00", "RUN_DTG": "2024-10-08 03:18:49", "BASIN": "AL", "STMNR": 12, "CAT_ID": null, "CAT_DESC": null, "MSGID": "WTNT22 KNHC 071440", "VALIDTIME": "2024-10-02 06:00:00" }, "geometry": { "type": "Point", "coordinates": [ -41.700001, 17.200001 ] } },
{ "type": "Feature", "properties": { "ID": 266704, "LAT": 17.7, "LON": -42.6, "VMAX": 75.0, "MSLP": 980.0, "RMAX": 20.0, "FSPD": 6.73306, "FDIR": 313.44446, "RENV": 280.0, "PENV": 1009.0, "VALIDT": 0, "DTG": "2024-10-02 12:00", "LATNOW": 41.2, "LONNOW": -39.9, "WINDNOW": 65.0, "DIRNOW": 13.0, "SPDNOW": 0.0, "TECH": "TRAK", "ADVNR": 33, "ATCFID": "AL122024", "NAME": "KIRK", "FTECH": "OFCL", "FCST_DTG": "2024-10-07 12:00:00", "RUN_DTG": "2024-10-08 03:18:49", "BASIN": "AL", "STMNR": 12, "CAT_ID": null, "CAT_DESC": null, "MSGID": "WTNT22 KNHC 071440", "VALIDTIME": "2024-10-02 12:00:00" }, "geometry": { "type": "Point", "coordinates": [ -42.599998, 17.700001 ] } },
{ "type": "Feature", "properties": { "ID": 266705, "LAT": 18.6, "LON": -43.6, "VMAX": 80.0, "MSLP": 980.0, "RMAX": 20.0, "FSPD": 4.63582, "FDIR": 320.96857, "RENV": 260.0, "PENV": 1009.0, "VALIDT": 0, "DTG": "2024-10-02 18:00", "LATNOW": 41.2, "LONNOW": -39.9, "WINDNOW": 65.0, "DIRNOW": 13.0, "SPDNOW": 0.0, "TECH": "TRAK", "ADVNR": 33, "ATCFID": "AL122024", "NAME": "KIRK", "FTECH": "OFCL", "FCST_DTG": "2024-10-07 12:00:00", "RUN_DTG": "2024-10-08 03:18:49", "BASIN": "AL", "STMNR": 12, "CAT_ID": null, "CAT_DESC": null, "MSGID": "WTNT22 KNHC 071440", "VALIDTIME": "2024-10-02 18:00:00" }, "geometry": { "type": "Point", "coordinates": [ -43.599998, 18.6 ] } },
{ "type": "Feature", "properties": { "ID": 266706, "LAT": 19.3, "LON": -44.2, "VMAX": 105.0, "MSLP": 955.0, "RMAX": 20.0, "FSPD": 2.87482, "FDIR": 302.4692, "RENV": 260.0, "PENV": 1009.0, "VALIDT": 0, "DTG": "2024-10-03 00:00", "LATNOW": 41.2, "LONNOW": -39.9, "WINDNOW": 65.0, "DIRNOW": 13.0, "SPDNOW": 0.0, "TECH": "TRAK", "ADVNR": 33, "ATCFID": "AL122024", "NAME": "KIRK", "FTECH": "OFCL", "FCST_DTG": "2024-10-07 12:00:00", "RUN_DTG": "2024-10-08 03:18:49", "BASIN": "AL", "STMNR": 12, "CAT_ID": null, "CAT_DESC": null, "MSGID": "WTNT22 KNHC 071440", "VALIDTIME": "2024-10-03 00:00:00" }, "geometry": { "type": "Point", "coordinates": [ -44.200001, 19.299999 ] } },
{ "type": "Feature", "properties": { "ID": 266707, "LAT": 19.6, "LON": -44.7, "VMAX": 105.0, "MSLP": 955.0, "RMAX": 20.0, "FSPD": 4.64771, "FDIR": 303.60327, "RENV": 300.0, "PENV": 1008.0, "VALIDT": 0, "DTG": "2024-10-03 06:00", "LATNOW": 41.2, "LONNOW": -39.9, "WINDNOW": 65.0, "DIRNOW": 13.0, "SPDNOW": 0.0, "TECH": "TRAK", "ADVNR": 33, "ATCFID": "AL122024", "NAME": "KIRK", "FTECH": "OFCL", "FCST_DTG": "2024-10-07 12:00:00", "RUN_DTG": "2024-10-08 03:18:49", "BASIN": "AL", "STMNR": 12, "CAT_ID": null, "CAT_DESC": null, "MSGID": "WTNT22 KNHC 071440", "VALIDTIME": "2024-10-03 06:00:00" }, "geometry": { "type": "Point", "coordinates": [ -44.700001, 19.6 ] } },
{ "type": "Feature", "properties": { "ID": 266708, "LAT": 20.1, "LON": -45.5, "VMAX": 110.0, "MSLP": 948.0, "RMAX": 20.0, "FSPD": 4.94038, "FDIR": 308.66632, "RENV": 300.0, "PENV": 1008.0, "VALIDT": 0, "DTG": "2024-10-03 12:00", "LATNOW": 41.2, "LONNOW": -39.9, "WINDNOW": 65.0, "DIRNOW": 13.0, "SPDNOW": 0.0, "TECH": "TRAK", "ADVNR": 33, "ATCFID": "AL122024", "NAME": "KIRK", "FTECH": "OFCL", "FCST_DTG": "2024-10-07 12:00:00", "RUN_DTG": "2024-10-08 03:18:49", "BASIN": "AL", "STMNR": 12, "CAT_ID": null, "CAT_DESC": null, "MSGID": "WTNT22 KNHC 071440", "VALIDTIME": "2024-10-03 12:00:00" }, "geometry": { "type": "Point", "coordinates": [ -45.5, 20.1 ] } },
{ "type": "Feature", "properties": { "ID": 266709, "LAT": 20.7, "LON": -46.3, "VMAX": 110.0, "MSLP": 948.0, "RMAX": 20.0, "FSPD": 4.36081, "FDIR": 298.1563, "RENV": 300.0, "PENV": 1008.0, "VALIDT": 0, "DTG": "2024-10-03 18:00", "LATNOW": 41.2, "LONNOW": -39.9, "WINDNOW": 65.0, "DIRNOW": 13.0, "SPDNOW": 0.0, "TECH": "TRAK", "ADVNR": 33, "ATCFID": "AL122024", "NAME": "KIRK", "FTECH": "OFCL", "FCST_DTG": "2024-10-07 12:00:00", "RUN_DTG": "2024-10-08 03:18:49", "BASIN": "AL", "STMNR": 12, "CAT_ID": null, "CAT_DESC": null, "MSGID": "WTNT22 KNHC 071440", "VALIDTIME": "2024-10-03 18:00:00" }, "geometry": { "type": "Point", "coordinates": [ -46.299999, 20.700001 ] } },
{ "type": "Feature", "properties": { "ID": 266710, "LAT": 21.1, "LON": -47.1, "VMAX": 125.0, "MSLP": 935.0, "RMAX": 20.0, "FSPD": 5.30697, "FDIR": 320.85034, "RENV": 300.0, "PENV": 1008.0, "VALIDT": 0, "DTG": "2024-10-04 00:00", "LATNOW": 41.2, "LONNOW": -39.9, "WINDNOW": 65.0, "DIRNOW": 13.0, "SPDNOW": 0.0, "TECH": "TRAK", "ADVNR": 33, "ATCFID": "AL122024", "NAME": "KIRK", "FTECH": "OFCL", "FCST_DTG": "2024-10-07 12:00:00", "RUN_DTG": "2024-10-08 03:18:49", "BASIN": "AL", "STMNR": 12, "CAT_ID": null, "CAT_DESC": null, "MSGID": "WTNT22 KNHC 071440", "VALIDTIME": "2024-10-04 00:00:00" }, "geometry": { "type": "Point", "coordinates": [ -47.099998, 21.1 ] } },
{ "type": "Feature", "properties": { "ID": 266711, "LAT": 21.9, "LON": -47.8, "VMAX": 125.0, "MSLP": 934.0, "RMAX": 20.0, "FSPD": 4.90379, "FDIR": 309.00916, "RENV": 300.0, "PENV": 1008.0, "VALIDT": 0, "DTG": "2024-10-04 06:00", "LATNOW": 41.2, "LONNOW": -39.9, "WINDNOW": 65.0, "DIRNOW": 13.0, "SPDNOW": 0.0, "TECH": "TRAK", "ADVNR": 33, "ATCFID": "AL122024", "NAME": "KIRK", "FTECH": "OFCL", "FCST_DTG": "2024-10-07 12:00:00", "RUN_DTG": "2024-10-08 03:18:49", "BASIN": "AL", "STMNR": 12, "CAT_ID": null, "CAT_DESC": null, "MSGID": "WTNT22 KNHC 071440", "VALIDTIME": "2024-10-04 06:00:00" }, "geometry": { "type": "Point", "coordinates": [ -47.799999, 21.9 ] } },
{ "type": "Feature", "properties": { "ID": 266712, "LAT": 22.5, "LON": -48.6, "VMAX": 120.0, "MSLP": 938.0, "RMAX": 20.0, "FSPD": 4.74892, "FDIR": 330.06918, "RENV": 300.0, "PENV": 1008.0, "VALIDT": 0, "DTG": "2024-10-04 12:00", "LATNOW": 41.2, "LONNOW": -39.9, "WINDNOW": 65.0, "DIRNOW": 13.0, "SPDNOW": 0.0, "TECH": "TRAK", "ADVNR": 33, "ATCFID": "AL122024", "NAME": "KIRK", "FTECH": "OFCL", "FCST_DTG": "2024-10-07 12:00:00", "RUN_DTG": "2024-10-08 03:18:49", "BASIN": "AL", "STMNR": 12, "CAT_ID": null, "CAT_DESC": null, "MSGID": "WTNT22 KNHC 071440", "VALIDTIME": "2024-10-04 12:00:00" }, "geometry": { "type": "Point", "coordinates": [ -48.599998, 22.5 ] } },
{ "type": "Feature", "properties": { "ID": 266713, "LAT": 23.3, "LON": -49.1, "VMAX": 115.0, "MSLP": 943.0, "RMAX": 20.0, "FSPD": 5.86867, "FDIR": 331.23416, "RENV": 300.0, "PENV": 1008.0, "VALIDT": 0, "DTG": "2024-10-04 18:00", "LATNOW": 41.2, "LONNOW": -39.9, "WINDNOW": 65.0, "DIRNOW": 13.0, "SPDNOW": 0.0, "TECH": "TRAK", "ADVNR": 33, "ATCFID": "AL122024", "NAME": "KIRK", "FTECH": "OFCL", "FCST_DTG": "2024-10-07 12:00:00", "RUN_DTG": "2024-10-08 03:18:49", "BASIN": "AL", "STMNR": 12, "CAT_ID": null, "CAT_DESC": null, "MSGID": "WTNT22 KNHC 071440", "VALIDTIME": "2024-10-04 18:00:00" }, "geometry": { "type": "Point", "coordinates": [ -49.099998, 23.299999 ] } },
{ "type": "Feature", "properties": { "ID": 266714, "LAT": 24.3, "LON": -49.7, "VMAX": 115.0, "MSLP": 943.0, "RMAX": 20.0, "FSPD": 5.959, "FDIR": 341.7389, "RENV": 300.0, "PENV": 1008.0, "VALIDT": 0, "DTG": "2024-10-05 00:00", "LATNOW": 41.2, "LONNOW": -39.9, "WINDNOW": 65.0, "DIRNOW": 13.0, "SPDNOW": 0.0, "TECH": "TRAK", "ADVNR": 33, "ATCFID": "AL122024", "NAME": "KIRK", "FTECH": "OFCL", "FCST_DTG": "2024-10-07 12:00:00", "RUN_DTG": "2024-10-08 03:18:49", "BASIN": "AL", "STMNR": 12, "CAT_ID": null, "CAT_DESC": null, "MSGID": "WTNT22 KNHC 071440", "VALIDTIME": "2024-10-05 00:00:00" }, "geometry": { "type": "Point", "coordinates": [ -49.700001, 24.299999 ] } },
{ "type": "Feature", "properties": { "ID": 266715, "LAT": 25.4, "LON": -50.1, "VMAX": 110.0, "MSLP": 945.0, "RMAX": 15.0, "FSPD": 6.83001, "FDIR": 348.28693, "RENV": 300.0, "PENV": 1008.0, "VALIDT": 0, "DTG": "2024-10-05 06:00", "LATNOW": 41.2, "LONNOW": -39.9, "WINDNOW": 65.0, "DIRNOW": 13.0, "SPDNOW": 0.0, "TECH": "TRAK", "ADVNR": 33, "ATCFID": "AL122024", "NAME": "KIRK", "FTECH": "OFCL", "FCST_DTG": "2024-10-07 12:00:00", "RUN_DTG": "2024-10-08 03:18:49", "BASIN": "AL", "STMNR": 12, "CAT_ID": null, "CAT_DESC": null, "MSGID": "WTNT22 KNHC 071440", "VALIDTIME": "2024-10-05 06:00:00" }, "geometry": { "type": "Point", "coordinates": [ -50.099998, 25.4 ] } },
{ "type": "Feature", "properties": { "ID": 266716, "LAT": 26.7, "LON": -50.4, "VMAX": 105.0, "MSLP": 949.0, "RMAX": 15.0, "FSPD": 10.32914, "FDIR": 5.05975, "RENV": 270.0, "PENV": 1008.0, "VALIDT": 0, "DTG": "2024-10-05 12:00", "LATNOW": 41.2, "LONNOW": -39.9, "WINDNOW": 65.0, "DIRNOW": 13.0, "SPDNOW": 0.0, "TECH": "TRAK", "ADVNR": 33, "ATCFID": "AL122024", "NAME": "KIRK", "FTECH": "OFCL", "FCST_DTG": "2024-10-07 12:00:00", "RUN_DTG": "2024-10-08 03:18:49", "BASIN": "AL", "STMNR": 12, "CAT_ID": null, "CAT_DESC": null, "MSGID": "WTNT22 KNHC 071440", "VALIDTIME": "2024-10-05 12:00:00" }, "geometry": { "type": "Point", "coordinates": [ -50.400002, 26.700001 ] } },
{ "type": "Feature", "properties": { "ID": 266717, "LAT": 28.7, "LON": -50.2, "VMAX": 105.0, "MSLP": 949.0, "RMAX": 15.0, "FSPD": 9.02727, "FDIR": 14.35184, "RENV": 270.0, "PENV": 1008.0, "VALIDT": 0, "DTG": "2024-10-05 18:00", "LATNOW": 41.2, "LONNOW": -39.9, "WINDNOW": 65.0, "DIRNOW": 13.0, "SPDNOW": 0.0, "TECH": "TRAK", "ADVNR": 33, "ATCFID": "AL122024", "NAME": "KIRK", "FTECH": "OFCL", "FCST_DTG": "2024-10-07 12:00:00", "RUN_DTG": "2024-10-08 03:18:49", "BASIN": "AL", "STMNR": 12, "CAT_ID": null, "CAT_DESC": null, "MSGID": "WTNT22 KNHC 071440", "VALIDTIME": "2024-10-05 18:00:00" }, "geometry": { "type": "Point", "coordinates": [ -50.200001, 28.700001 ] } },
{ "type": "Feature", "properties": { "ID": 266718, "LAT": 30.4, "LON": -49.7, "VMAX": 100.0, "MSLP": 951.0, "RMAX": 15.0, "FSPD": 11.35172, "FDIR": 4.43231, "RENV": 250.0, "PENV": 1007.0, "VALIDT": 0, "DTG": "2024-10-06 00:00", "LATNOW": 41.2, "LONNOW": -39.9, "WINDNOW": 65.0, "DIRNOW": 13.0, "SPDNOW": 0.0, "TECH": "TRAK", "ADVNR": 33, "ATCFID": "AL122024", "NAME": "KIRK", "FTECH": "OFCL", "FCST_DTG": "2024-10-07 12:00:00", "RUN_DTG": "2024-10-08 03:18:49", "BASIN": "AL", "STMNR": 12, "CAT_ID": null, "CAT_DESC": null, "MSGID": "WTNT22 KNHC 071440", "VALIDTIME": "2024-10-06 00:00:00" }, "geometry": { "type": "Point", "coordinates": [ -49.700001, 30.4 ] } },
{ "type": "Feature", "properties": { "ID": 266719, "LAT": 32.6, "LON": -49.5, "VMAX": 95.0, "MSLP": 955.0, "RMAX": 15.0, "FSPD": 11.62117, "FDIR": 21.62329, "RENV": 250.0, "PENV": 1005.0, "VALIDT": 0, "DTG": "2024-10-06 06:00", "LATNOW": 41.2, "LONNOW": -39.9, "WINDNOW": 65.0, "DIRNOW": 13.0, "SPDNOW": 0.0, "TECH": "TRAK", "ADVNR": 33, "ATCFID": "AL122024", "NAME": "KIRK", "FTECH": "OFCL", "FCST_DTG": "2024-10-07 12:00:00", "RUN_DTG": "2024-10-08 03:18:49", "BASIN": "AL", "STMNR": 12, "CAT_ID": null, "CAT_DESC": null, "MSGID": "WTNT22 KNHC 071440", "VALIDTIME": "2024-10-06 06:00:00" }, "geometry": { "type": "Point", "coordinates": [ -49.5, 32.599998 ] } },
{ "type": "Feature", "properties": { "ID": 266720, "LAT": 34.7, "LON": -48.5, "VMAX": 85.0, "MSLP": 960.0, "RMAX": 20.0, "FSPD": 9.21071, "FDIR": 33.09219, "RENV": 240.0, "PENV": 1005.0, "VALIDT": 0, "DTG": "2024-10-06 12:00", "LATNOW": 41.2, "LONNOW": -39.9, "WINDNOW": 65.0, "DIRNOW": 13.0, "SPDNOW": 0.0, "TECH": "TRAK", "ADVNR": 33, "ATCFID": "AL122024", "NAME": "KIRK", "FTECH": "OFCL", "FCST_DTG": "2024-10-07 12:00:00", "RUN_DTG": "2024-10-08 03:18:49", "BASIN": "AL", "STMNR": 12, "CAT_ID": null, "CAT_DESC": null, "MSGID": "WTNT22 KNHC 071440", "VALIDTIME": "2024-10-06 12:00:00" }, "geometry": { "type": "Point", "coordinates": [ -48.5, 34.700001 ] } },
{ "type": "Feature", "properties": { "ID": 266721, "LAT": 36.2, "LON": -47.3, "VMAX": 80.0, "MSLP": 959.0, "RMAX": 70.0, "FSPD": 13.80014, "FDIR": 50.67416, "RENV": 240.0, "PENV": 1003.0, "VALIDT": 0, "DTG": "2024-10-06 18:00", "LATNOW": 41.2, "LONNOW": -39.9, "WINDNOW": 65.0, "DIRNOW": 13.0, "SPDNOW": 0.0, "TECH": "TRAK", "ADVNR": 33, "ATCFID": "AL122024", "NAME": "KIRK", "FTECH": "OFCL", "FCST_DTG": "2024-10-07 12:00:00", "RUN_DTG": "2024-10-08 03:18:49", "BASIN": "AL", "STMNR": 12, "CAT_ID": null, "CAT_DESC": null, "MSGID": "WTNT22 KNHC 071440", "VALIDTIME": "2024-10-06 18:00:00" }, "geometry": { "type": "Point", "coordinates": [ -47.299999, 36.200001 ] } },
{ "type": "Feature", "properties": { "ID": 266722, "LAT": 37.9, "LON": -44.7, "VMAX": 70.0, "MSLP": 964.0, "RMAX": 70.0, "FSPD": 12.3702, "FDIR": 48.28717, "RENV": 240.0, "PENV": 1003.0, "VALIDT": 0, "DTG": "2024-10-07 00:00", "LATNOW": 41.2, "LONNOW": -39.9, "WINDNOW": 65.0, "DIRNOW": 13.0, "SPDNOW": 0.0, "TECH": "TRAK", "ADVNR": 33, "ATCFID": "AL122024", "NAME": "KIRK", "FTECH": "OFCL", "FCST_DTG": "2024-10-07 12:00:00", "RUN_DTG": "2024-10-08 03:18:49", "BASIN": "AL", "STMNR": 12, "CAT_ID": null, "CAT_DESC": null, "MSGID": "WTNT22 KNHC 071440", "VALIDTIME": "2024-10-07 00:00:00" }, "geometry": { "type": "Point", "coordinates": [ -44.700001, 37.900002 ] } },
{ "type": "Feature", "properties": { "ID": 266723, "LAT": 39.5, "LON": -42.4, "VMAX": 65.0, "MSLP": 966.0, "RMAX": 70.0, "FSPD": 13.13599, "FDIR": 48.25851, "RENV": 240.0, "PENV": 1003.0, "VALIDT": 0, "DTG": "2024-10-07 06:00", "LATNOW": 41.2, "LONNOW": -39.9, "WINDNOW": 65.0, "DIRNOW": 13.0, "SPDNOW": 0.0, "TECH": "TRAK", "ADVNR": 33, "ATCFID": "AL122024", "NAME": "KIRK", "FTECH": "OFCL", "FCST_DTG": "2024-10-07 12:00:00", "RUN_DTG": "2024-10-08 03:18:49", "BASIN": "AL", "STMNR": 12, "CAT_ID": null, "CAT_DESC": null, "MSGID": "WTNT22 KNHC 071440", "VALIDTIME": "2024-10-07 06:00:00" }, "geometry": { "type": "Point", "coordinates": [ -42.400002, 39.5 ] } },
{ "type": "Feature", "properties": { "ID": 266724, "LAT": 41.2, "LON": -39.9, "VMAX": 65.0, "MSLP": 963.0, "RMAX": 70.0, "FSPD": 12.66015, "FDIR": 66.02429, "RENV": 260.0, "PENV": 1002.0, "VALIDT": 0, "DTG": "2024-10-07 12:00", "LATNOW": 41.2, "LONNOW": -39.9, "WINDNOW": 65.0, "DIRNOW": 13.0, "SPDNOW": 0.0, "TECH": "TRAK", "ADVNR": 33, "ATCFID": "AL122024", "NAME": "KIRK", "FTECH": "OFCL", "FCST_DTG": "2024-10-07 12:00:00", "RUN_DTG": "2024-10-08 03:18:49", "BASIN": "AL", "STMNR": 12, "CAT_ID": null, "CAT_DESC": null, "MSGID": "WTNT22 KNHC 071440", "VALIDTIME": "2024-10-07 12:00:00" }, "geometry": { "type": "Point", "coordinates": [ -39.900002, 41.200001 ] } },
{ "type": "Feature", "properties": { "ID": 266725, "LAT": 41.7, "LON": -38.4, "VMAX": 65.0, "MSLP": 963.0, "RMAX": 30.0, "FSPD": 13.07049, "FDIR": 68.44757, "RENV": 290.0, "PENV": 1012.0, "VALIDT": 3, "DTG": "2024-10-07 15:00", "LATNOW": 41.2, "LONNOW": -39.9, "WINDNOW": 65.0, "DIRNOW": 13.0, "SPDNOW": 0.0, "TECH": "FCST", "ADVNR": 33, "ATCFID": "AL122024", "NAME": "KIRK", "FTECH": "OFCL", "FCST_DTG": "2024-10-07 12:00:00", "RUN_DTG": "2024-10-08 03:18:49", "BASIN": "AL", "STMNR": 12, "CAT_ID": null, "CAT_DESC": null, "MSGID": "WTNT22 KNHC 071440", "VALIDTIME": "2024-10-07 15:00:00" }, "geometry": { "type": "Point", "coordinates": [ -38.400002, 41.700001 ] } },
{ "type": "Feature", "properties": { "ID": 266726, "LAT": 43.1, "LON": -33.6, "VMAX": 60.0, "MSLP": 996.62427, "RMAX": 84.52414, "FSPD": 14.82449, "FDIR": 86.0202, "RENV": 278.0, "PENV": 1012.0, "VALIDT": 12, "DTG": "2024-10-08 00:00", "LATNOW": 41.2, "LONNOW": -39.9, "WINDNOW": 65.0, "DIRNOW": 13.0, "SPDNOW": 0.0, "TECH": "FCST", "ADVNR": 33, "ATCFID": "AL122024", "NAME": "KIRK", "FTECH": "OFCL", "FCST_DTG": "2024-10-07 12:00:00", "RUN_DTG": "2024-10-08 03:18:49", "BASIN": "AL", "STMNR": 12, "CAT_ID": null, "CAT_DESC": null, "MSGID": "WTNT22 KNHC 071440", "VALIDTIME": "2024-10-08 00:00:00" }, "geometry": { "type": "Point", "coordinates": [ -33.599998, 43.099998 ] } },
{ "type": "Feature", "properties": { "ID": 266727, "LAT": 43.5, "LON": -25.7, "VMAX": 55.0, "MSLP": 999.55927, "RMAX": 86.25294, "FSPD": 17.88962, "FDIR": 88.35214, "RENV": 256.0, "PENV": 1012.0, "VALIDT": 24, "DTG": "2024-10-08 12:00", "LATNOW": 41.2, "LONNOW": -39.9, "WINDNOW": 65.0, "DIRNOW": 13.0, "SPDNOW": 0.0, "TECH": "FCST", "ADVNR": 33, "ATCFID": "AL122024", "NAME": "KIRK", "FTECH": "OFCL", "FCST_DTG": "2024-10-07 12:00:00", "RUN_DTG": "2024-10-08 03:18:49", "BASIN": "AL", "STMNR": 12, "CAT_ID": null, "CAT_DESC": null, "MSGID": "WTNT22 KNHC 071440", "VALIDTIME": "2024-10-08 12:00:00" }, "geometry": { "type": "Point", "coordinates": [ -25.700001, 43.5 ] } },
{ "type": "Feature", "properties": { "ID": 266728, "LAT": 43.7, "LON": -16.1, "VMAX": 50.0, "MSLP": 1002.2391, "RMAX": 87.22411, "FSPD": 18.84499, "FDIR": 76.58282, "RENV": 180.0, "PENV": 1012.0, "VALIDT": 36, "DTG": "2024-10-09 00:00", "LATNOW": 41.2, "LONNOW": -39.9, "WINDNOW": 65.0, "DIRNOW": 13.0, "SPDNOW": 0.0, "TECH": "FCST", "ADVNR": 33, "ATCFID": "AL122024", "NAME": "KIRK", "FTECH": "OFCL", "FCST_DTG": "2024-10-07 12:00:00", "RUN_DTG": "2024-10-08 03:18:49", "BASIN": "AL", "STMNR": 12, "CAT_ID": null, "CAT_DESC": null, "MSGID": "WTNT22 KNHC 071440", "VALIDTIME": "2024-10-09 00:00:00" }, "geometry": { "type": "Point", "coordinates": [ -16.1, 43.700001 ] } },
{ "type": "Feature", "properties": { "ID": 266729, "LAT": 45.4, "LON": -6.1, "VMAX": 45.0, "MSLP": 1004.66364, "RMAX": 93.50065, "FSPD": 20.54401, "FDIR": 67.16141, "RENV": 300.0, "PENV": 1012.0, "VALIDT": 48, "DTG": "2024-10-09 12:00", "LATNOW": 41.2, "LONNOW": -39.9, "WINDNOW": 65.0, "DIRNOW": 13.0, "SPDNOW": 0.0, "TECH": "FCST", "ADVNR": 33, "ATCFID": "AL122024", "NAME": "KIRK", "FTECH": "OFCL", "FCST_DTG": "2024-10-07 12:00:00", "RUN_DTG": "2024-10-08 03:18:49", "BASIN": "AL", "STMNR": 12, "CAT_ID": null, "CAT_DESC": null, "MSGID": "WTNT22 KNHC 071440", "VALIDTIME": "2024-10-09 12:00:00" }, "geometry": { "type": "Point", "coordinates": [ -6.1, 45.400002 ] } },
{ "type": "Feature", "properties": { "ID": 266730, "LAT": 46.64, "LON": -1.86, "VMAX": 45.0, "MSLP": 1004.66364, "RMAX": 93.50065, "FSPD": 20.04962, "FDIR": 66.56503, "RENV": 300.0, "PENV": 1012.0, "VALIDT": 52, "DTG": "2024-10-09 16:00", "LATNOW": 41.2, "LONNOW": -39.9, "WINDNOW": 65.0, "DIRNOW": 13.0, "SPDNOW": 0.0, "TECH": "FCST", "ADVNR": 33, "ATCFID": "AL122024", "NAME": "KIRK", "FTECH": "OFCL", "FCST_DTG": "2024-10-07 12:00:00", "RUN_DTG": "2024-10-08 03:18:49", "BASIN": "AL", "STMNR": 12, "CAT_ID": null, "CAT_DESC": null, "MSGID": "WTNT22 KNHC 071440", "VALIDTIME": "2024-10-09 16:00:00" }, "geometry": { "type": "Point", "coordinates": [ -1.86, 46.639999 ] } },
{ "type": "Feature", "properties": { "ID": 266731, "LAT": 48.5, "LON": 4.5, "VMAX": 35.0, "MSLP": 1008.74713, "RMAX": 97.71079, "FSPD": 20.04962, "FDIR": 66.56503, "RENV": 300.0, "PENV": 1012.0, "VALIDT": 60, "DTG": "2024-10-10 00:00", "LATNOW": 41.2, "LONNOW": -39.9, "WINDNOW": 65.0, "DIRNOW": 13.0, "SPDNOW": 0.0, "TECH": "FCST", "ADVNR": 33, "ATCFID": "AL122024", "NAME": "KIRK", "FTECH": "OFCL", "FCST_DTG": "2024-10-07 12:00:00", "RUN_DTG": "2024-10-08 03:18:49", "BASIN": "AL", "STMNR": 12, "CAT_ID": null, "CAT_DESC": null, "MSGID": "WTNT22 KNHC 071440", "VALIDTIME": "2024-10-10 00:00:00" }, "geometry": { "type": "Point", "coordinates": [ 4.5, 48.5 ] } },
{ "type": "Feature", "properties": { "ID": 266724, "LAT": 41.2, "LON": -39.9, "VMAX": 65.0, "MSLP": 963.0, "RMAX": 70.0, "FSPD": 12.66015, "FDIR": 66.02429, "RENV": 260.0, "PENV": 1002.0, "VALIDT": 0, "DTG": "2024-10-07 12:00", "LATNOW": 41.2, "LONNOW": -39.9, "WINDNOW": 65.0, "DIRNOW": 13.0, "SPDNOW": 0.0, "TECH": "TRAK", "ADVNR": 33, "ATCFID": "AL122024", "NAME": "KIRK", "FTECH": "OFCL", "FCST_DTG": "2024-10-07 12:00:00", "RUN_DTG": "2024-10-08 03:18:49", "BASIN": "AL", "STMNR": 12, "CAT_ID": null, "CAT_DESC": null, "MSGID": "WTNT22 KNHC 071440", "VALIDTIME": "2024-10-07 12:00:00" }, "geometry": { "type": "LineString", "coordinates": [ [ -30.0, 14.6 ], [ -31.2, 13.8 ], [ -31.6, 13.9 ], [ -31.7, 13.3 ], [ -32.1, 13.8 ], [ -32.8, 13.9 ], [ -33.6, 13.9 ], [ -34.3, 13.4 ], [ -35.1, 13.5 ], [ -36.3, 14.2 ], [ -37.5, 14.7 ], [ -38.7, 15.0 ], [ -39.7, 15.9 ], [ -40.4, 16.4 ], [ -41.7, 17.2 ], [ -42.6, 17.7 ], [ -43.6, 18.6 ], [ -44.2, 19.3 ], [ -44.7, 19.6 ], [ -45.5, 20.1 ], [ -46.3, 20.7 ], [ -47.1, 21.1 ], [ -47.8, 21.9 ], [ -48.6, 22.5 ], [ -49.1, 23.3 ], [ -49.7, 24.3 ], [ -50.1, 25.4 ], [ -50.4, 26.7 ], [ -50.2, 28.7 ], [ -49.7, 30.4 ], [ -49.5, 32.6 ], [ -48.5, 34.7 ], [ -47.3, 36.2 ], [ -44.7, 37.9 ], [ -42.4, 39.5 ], [ -39.9, 41.2 ] ] } },
{ "type": "Feature", "properties": { "ID": 266731, "LAT": 48.5, "LON": 4.5, "VMAX": 35.0, "MSLP": 1008.74713, "RMAX": 97.71079, "FSPD": 20.04962, "FDIR": 66.56503, "RENV": 300.0, "PENV": 1012.0, "VALIDT": 60, "DTG": "2024-10-10 00:00", "LATNOW": 41.2, "LONNOW": -39.9, "WINDNOW": 65.0, "DIRNOW": 13.0, "SPDNOW": 0.0, "TECH": "FCST", "ADVNR": 33, "ATCFID": "AL122024", "NAME": "KIRK", "FTECH": "OFCL", "FCST_DTG": "2024-10-07 12:00:00", "RUN_DTG": "2024-10-08 03:18:49", "BASIN": "AL", "STMNR": 12, "CAT_ID": null, "CAT_DESC": null, "MSGID": "WTNT22 KNHC 071440", "VALIDTIME": "2024-10-10 00:00:00" }, "geometry": { "type": "LineString", "coordinates": [ [ -39.9, 41.2 ], [ -38.4, 41.7 ], [ -33.6, 43.1 ], [ -25.7, 43.5 ], [ -16.1, 43.7 ], [ -6.1, 45.4 ], [ -1.86, 46.64 ], [ 4.5, 48.5 ] ] } }
]
}
