{
"type": "FeatureCollection",
"crs": { "type": "name", "properties": { "name": "urn:ogc:def:crs:OGC:1.3:CRS84" } },
"features": [
{ "type": "Feature", "properties": { "ID": 329478, "LAT": 21.4, "LON": 146.1, "VMAX": 15.0, "MSLP": 1013.8515, "RMAX": 40.0, "FSPD": 2.44871, "FDIR": 77.87247, "RENV": 500.0, "PENV": 1012.0, "VALIDT": 0, "DTG": "2025-06-21 00:00", "LATNOW": 37.1, "LONNOW": 142.9, "WINDNOW": 25.0, "DIRNOW": 13.0, "SPDNOW": 1.0, "TECH": "TRAK", "ADVNR": 16, "ATCFID": "WP022025", "NAME": "SEPAT", "FTECH": "JTWC", "FCST_DTG": "2025-06-26 06:00:00", "RUN_DTG": "2025-06-26 09:43:41", "BASIN": "WP", "STMNR": 2, "CAT_ID": null, "CAT_DESC": null, "MSGID": "WTPN51 PGTW 260900", "VALIDTIME": "2025-06-21 00:00:00" }, "geometry": { "type": "Point", "coordinates": [ 146.100006, 21.4 ] } },
{ "type": "Feature", "properties": { "ID": 329479, "LAT": 21.5, "LON": 146.6, "VMAX": 15.0, "MSLP": 1013.8515, "RMAX": 40.0, "FSPD": 1.08653, "FDIR": 298.26013, "RENV": 500.0, "PENV": 1012.0, "VALIDT": 0, "DTG": "2025-06-21 06:00", "LATNOW": 37.1, "LONNOW": 142.9, "WINDNOW": 25.0, "DIRNOW": 13.0, "SPDNOW": 1.0, "TECH": "TRAK", "ADVNR": 16, "ATCFID": "WP022025", "NAME": "SEPAT", "FTECH": "JTWC", "FCST_DTG": "2025-06-26 06:00:00", "RUN_DTG": "2025-06-26 09:43:41", "BASIN": "WP", "STMNR": 2, "CAT_ID": null, "CAT_DESC": null, "MSGID": "WTPN51 PGTW 260900", "VALIDTIME": "2025-06-21 06:00:00" }, "geometry": { "type": "Point", "coordinates": [ 146.600006, 21.5 ] } },
{ "type": "Feature", "properties": { "ID": 329480, "LAT": 21.6, "LON": 146.4, "VMAX": 15.0, "MSLP": 1013.8515, "RMAX": 40.0, "FSPD": 1.13447, "FDIR": 335.08386, "RENV": 500.0, "PENV": 1012.0, "VALIDT": 0, "DTG": "2025-06-21 12:00", "LATNOW": 37.1, "LONNOW": 142.9, "WINDNOW": 25.0, "DIRNOW": 13.0, "SPDNOW": 1.0, "TECH": "TRAK", "ADVNR": 16, "ATCFID": "WP022025", "NAME": "SEPAT", "FTECH": "JTWC", "FCST_DTG": "2025-06-26 06:00:00", "RUN_DTG": "2025-06-26 09:43:41", "BASIN": "WP", "STMNR": 2, "CAT_ID": null, "CAT_DESC": null, "MSGID": "WTPN51 PGTW 260900", "VALIDTIME": "2025-06-21 12:00:00" }, "geometry": { "type": "Point", "coordinates": [ 146.399994, 21.6 ] } },
{ "type": "Feature", "properties": { "ID": 329481, "LAT": 21.8, "LON": 146.3, "VMAX": 20.0, "MSLP": 1012.95825, "RMAX": 45.0, "FSPD": 2.05779, "FDIR": 360.0, "RENV": 500.0, "PENV": 1012.0, "VALIDT": 0, "DTG": "2025-06-21 18:00", "LATNOW": 37.1, "LONNOW": 142.9, "WINDNOW": 25.0, "DIRNOW": 13.0, "SPDNOW": 1.0, "TECH": "TRAK", "ADVNR": 16, "ATCFID": "WP022025", "NAME": "SEPAT", "FTECH": "JTWC", "FCST_DTG": "2025-06-26 06:00:00", "RUN_DTG": "2025-06-26 09:43:41", "BASIN": "WP", "STMNR": 2, "CAT_ID": null, "CAT_DESC": null, "MSGID": "WTPN51 PGTW 260900", "VALIDTIME": "2025-06-21 18:00:00" }, "geometry": { "type": "Point", "coordinates": [ 146.300003, 21.799999 ] } },
{ "type": "Feature", "properties": { "ID": 329482, "LAT": 22.2, "LON": 146.3, "VMAX": 20.0, "MSLP": 1012.95825, "RMAX": 45.0, "FSPD": 3.12304, "FDIR": 351.2458, "RENV": 500.0, "PENV": 1012.0, "VALIDT": 0, "DTG": "2025-06-22 00:00", "LATNOW": 37.1, "LONNOW": 142.9, "WINDNOW": 25.0, "DIRNOW": 13.0, "SPDNOW": 1.0, "TECH": "TRAK", "ADVNR": 16, "ATCFID": "WP022025", "NAME": "SEPAT", "FTECH": "JTWC", "FCST_DTG": "2025-06-26 06:00:00", "RUN_DTG": "2025-06-26 09:43:41", "BASIN": "WP", "STMNR": 2, "CAT_ID": null, "CAT_DESC": null, "MSGID": "WTPN51 PGTW 260900", "VALIDTIME": "2025-06-22 00:00:00" }, "geometry": { "type": "Point", "coordinates": [ 146.300003, 22.200001 ] } },
{ "type": "Feature", "properties": { "ID": 329483, "LAT": 22.8, "LON": 146.2, "VMAX": 25.0, "MSLP": 1011.80975, "RMAX": 45.0, "FSPD": 2.50055, "FDIR": 325.37946, "RENV": 500.0, "PENV": 1012.0, "VALIDT": 0, "DTG": "2025-06-22 06:00", "LATNOW": 37.1, "LONNOW": 142.9, "WINDNOW": 25.0, "DIRNOW": 13.0, "SPDNOW": 1.0, "TECH": "TRAK", "ADVNR": 16, "ATCFID": "WP022025", "NAME": "SEPAT", "FTECH": "JTWC", "FCST_DTG": "2025-06-26 06:00:00", "RUN_DTG": "2025-06-26 09:43:41", "BASIN": "WP", "STMNR": 2, "CAT_ID": null, "CAT_DESC": null, "MSGID": "WTPN51 PGTW 260900", "VALIDTIME": "2025-06-22 06:00:00" }, "geometry": { "type": "Point", "coordinates": [ 146.199997, 22.799999 ] } },
{ "type": "Feature", "properties": { "ID": 329484, "LAT": 23.2, "LON": 145.9, "VMAX": 30.0, "MSLP": 1006.0, "RMAX": 30.0, "FSPD": 4.18806, "FDIR": 317.47766, "RENV": 110.0, "PENV": 1009.0, "VALIDT": 0, "DTG": "2025-06-22 12:00", "LATNOW": 37.1, "LONNOW": 142.9, "WINDNOW": 25.0, "DIRNOW": 13.0, "SPDNOW": 1.0, "TECH": "TRAK", "ADVNR": 16, "ATCFID": "WP022025", "NAME": "SEPAT", "FTECH": "JTWC", "FCST_DTG": "2025-06-26 06:00:00", "RUN_DTG": "2025-06-26 09:43:41", "BASIN": "WP", "STMNR": 2, "CAT_ID": null, "CAT_DESC": null, "MSGID": "WTPN51 PGTW 260900", "VALIDTIME": "2025-06-22 12:00:00" }, "geometry": { "type": "Point", "coordinates": [ 145.899994, 23.200001 ] } },
{ "type": "Feature", "properties": { "ID": 329485, "LAT": 23.8, "LON": 145.3, "VMAX": 30.0, "MSLP": 1006.0, "RMAX": 30.0, "FSPD": 4.98644, "FDIR": 325.62408, "RENV": 110.0, "PENV": 1009.0, "VALIDT": 0, "DTG": "2025-06-22 18:00", "LATNOW": 37.1, "LONNOW": 142.9, "WINDNOW": 25.0, "DIRNOW": 13.0, "SPDNOW": 1.0, "TECH": "TRAK", "ADVNR": 16, "ATCFID": "WP022025", "NAME": "SEPAT", "FTECH": "JTWC", "FCST_DTG": "2025-06-26 06:00:00", "RUN_DTG": "2025-06-26 09:43:41", "BASIN": "WP", "STMNR": 2, "CAT_ID": null, "CAT_DESC": null, "MSGID": "WTPN51 PGTW 260900", "VALIDTIME": "2025-06-22 18:00:00" }, "geometry": { "type": "Point", "coordinates": [ 145.300003, 23.799999 ] } },
{ "type": "Feature", "properties": { "ID": 329486, "LAT": 24.6, "LON": 144.7, "VMAX": 35.0, "MSLP": 1006.0, "RMAX": 30.0, "FSPD": 7.6539, "FDIR": 330.90012, "RENV": 140.0, "PENV": 1008.0, "VALIDT": 0, "DTG": "2025-06-23 00:00", "LATNOW": 37.1, "LONNOW": 142.9, "WINDNOW": 25.0, "DIRNOW": 13.0, "SPDNOW": 1.0, "TECH": "TRAK", "ADVNR": 16, "ATCFID": "WP022025", "NAME": "SEPAT", "FTECH": "JTWC", "FCST_DTG": "2025-06-26 06:00:00", "RUN_DTG": "2025-06-26 09:43:41", "BASIN": "WP", "STMNR": 2, "CAT_ID": null, "CAT_DESC": null, "MSGID": "WTPN51 PGTW 260900", "VALIDTIME": "2025-06-23 00:00:00" }, "geometry": { "type": "Point", "coordinates": [ 144.699997, 24.6 ] } },
{ "type": "Feature", "properties": { "ID": 329487, "LAT": 25.9, "LON": 143.9, "VMAX": 35.0, "MSLP": 1006.0, "RMAX": 30.0, "FSPD": 7.01475, "FDIR": 323.776, "RENV": 140.0, "PENV": 1009.0, "VALIDT": 0, "DTG": "2025-06-23 06:00", "LATNOW": 37.1, "LONNOW": 142.9, "WINDNOW": 25.0, "DIRNOW": 13.0, "SPDNOW": 1.0, "TECH": "TRAK", "ADVNR": 16, "ATCFID": "WP022025", "NAME": "SEPAT", "FTECH": "JTWC", "FCST_DTG": "2025-06-26 06:00:00", "RUN_DTG": "2025-06-26 09:43:41", "BASIN": "WP", "STMNR": 2, "CAT_ID": null, "CAT_DESC": null, "MSGID": "WTPN51 PGTW 260900", "VALIDTIME": "2025-06-23 06:00:00" }, "geometry": { "type": "Point", "coordinates": [ 143.899994, 25.9 ] } },
{ "type": "Feature", "properties": { "ID": 329488, "LAT": 27.0, "LON": 143.0, "VMAX": 40.0, "MSLP": 1002.0, "RMAX": 30.0, "FSPD": 8.77359, "FDIR": 325.1748, "RENV": 160.0, "PENV": 1008.0, "VALIDT": 0, "DTG": "2025-06-23 12:00", "LATNOW": 37.1, "LONNOW": 142.9, "WINDNOW": 25.0, "DIRNOW": 13.0, "SPDNOW": 1.0, "TECH": "TRAK", "ADVNR": 16, "ATCFID": "WP022025", "NAME": "SEPAT", "FTECH": "JTWC", "FCST_DTG": "2025-06-26 06:00:00", "RUN_DTG": "2025-06-26 09:43:41", "BASIN": "WP", "STMNR": 2, "CAT_ID": null, "CAT_DESC": null, "MSGID": "WTPN51 PGTW 260900", "VALIDTIME": "2025-06-23 12:00:00" }, "geometry": { "type": "Point", "coordinates": [ 143.0, 27.0 ] } },
{ "type": "Feature", "properties": { "ID": 329489, "LAT": 28.4, "LON": 141.9, "VMAX": 35.0, "MSLP": 1002.0, "RMAX": 40.0, "FSPD": 6.15488, "FDIR": 318.78552, "RENV": 100.0, "PENV": 1008.0, "VALIDT": 0, "DTG": "2025-06-23 18:00", "LATNOW": 37.1, "LONNOW": 142.9, "WINDNOW": 25.0, "DIRNOW": 13.0, "SPDNOW": 1.0, "TECH": "TRAK", "ADVNR": 16, "ATCFID": "WP022025", "NAME": "SEPAT", "FTECH": "JTWC", "FCST_DTG": "2025-06-26 06:00:00", "RUN_DTG": "2025-06-26 09:43:41", "BASIN": "WP", "STMNR": 2, "CAT_ID": null, "CAT_DESC": null, "MSGID": "WTPN51 PGTW 260900", "VALIDTIME": "2025-06-23 18:00:00" }, "geometry": { "type": "Point", "coordinates": [ 141.899994, 28.4 ] } },
{ "type": "Feature", "properties": { "ID": 329490, "LAT": 29.3, "LON": 141.0, "VMAX": 35.0, "MSLP": 1003.0, "RMAX": 40.0, "FSPD": 4.49044, "FDIR": 323.31686, "RENV": 95.0, "PENV": 1008.0, "VALIDT": 0, "DTG": "2025-06-24 00:00", "LATNOW": 37.1, "LONNOW": 142.9, "WINDNOW": 25.0, "DIRNOW": 13.0, "SPDNOW": 1.0, "TECH": "TRAK", "ADVNR": 16, "ATCFID": "WP022025", "NAME": "SEPAT", "FTECH": "JTWC", "FCST_DTG": "2025-06-26 06:00:00", "RUN_DTG": "2025-06-26 09:43:41", "BASIN": "WP", "STMNR": 2, "CAT_ID": null, "CAT_DESC": null, "MSGID": "WTPN51 PGTW 260900", "VALIDTIME": "2025-06-24 00:00:00" }, "geometry": { "type": "Point", "coordinates": [ 141.0, 29.299999 ] } },
{ "type": "Feature", "properties": { "ID": 329491, "LAT": 30.0, "LON": 140.4, "VMAX": 35.0, "MSLP": 1003.0, "RMAX": 40.0, "FSPD": 3.36199, "FDIR": 336.6511, "RENV": 85.0, "PENV": 1009.0, "VALIDT": 0, "DTG": "2025-06-24 06:00", "LATNOW": 37.1, "LONNOW": 142.9, "WINDNOW": 25.0, "DIRNOW": 13.0, "SPDNOW": 1.0, "TECH": "TRAK", "ADVNR": 16, "ATCFID": "WP022025", "NAME": "SEPAT", "FTECH": "JTWC", "FCST_DTG": "2025-06-26 06:00:00", "RUN_DTG": "2025-06-26 09:43:41", "BASIN": "WP", "STMNR": 2, "CAT_ID": null, "CAT_DESC": null, "MSGID": "WTPN51 PGTW 260900", "VALIDTIME": "2025-06-24 06:00:00" }, "geometry": { "type": "Point", "coordinates": [ 140.399994, 30.0 ] } },
{ "type": "Feature", "properties": { "ID": 329492, "LAT": 30.6, "LON": 140.1, "VMAX": 35.0, "MSLP": 1000.0, "RMAX": 40.0, "FSPD": 3.83665, "FDIR": 339.81888, "RENV": 110.0, "PENV": 1010.0, "VALIDT": 0, "DTG": "2025-06-24 12:00", "LATNOW": 37.1, "LONNOW": 142.9, "WINDNOW": 25.0, "DIRNOW": 13.0, "SPDNOW": 1.0, "TECH": "TRAK", "ADVNR": 16, "ATCFID": "WP022025", "NAME": "SEPAT", "FTECH": "JTWC", "FCST_DTG": "2025-06-26 06:00:00", "RUN_DTG": "2025-06-26 09:43:41", "BASIN": "WP", "STMNR": 2, "CAT_ID": null, "CAT_DESC": null, "MSGID": "WTPN51 PGTW 260900", "VALIDTIME": "2025-06-24 12:00:00" }, "geometry": { "type": "Point", "coordinates": [ 140.100006, 30.6 ] } },
{ "type": "Feature", "properties": { "ID": 329493, "LAT": 31.3, "LON": 139.8, "VMAX": 30.0, "MSLP": 1000.0, "RMAX": 30.0, "FSPD": 3.83329, "FDIR": 339.95636, "RENV": 65.0, "PENV": 1008.0, "VALIDT": 0, "DTG": "2025-06-24 18:00", "LATNOW": 37.1, "LONNOW": 142.9, "WINDNOW": 25.0, "DIRNOW": 13.0, "SPDNOW": 1.0, "TECH": "TRAK", "ADVNR": 16, "ATCFID": "WP022025", "NAME": "SEPAT", "FTECH": "JTWC", "FCST_DTG": "2025-06-26 06:00:00", "RUN_DTG": "2025-06-26 09:43:41", "BASIN": "WP", "STMNR": 2, "CAT_ID": null, "CAT_DESC": null, "MSGID": "WTPN51 PGTW 260900", "VALIDTIME": "2025-06-24 18:00:00" }, "geometry": { "type": "Point", "coordinates": [ 139.800003, 31.299999 ] } },
{ "type": "Feature", "properties": { "ID": 329494, "LAT": 32.0, "LON": 139.5, "VMAX": 30.0, "MSLP": 1003.0, "RMAX": 30.0, "FSPD": 3.62725, "FDIR": 6.88187, "RENV": 75.0, "PENV": 1010.0, "VALIDT": 0, "DTG": "2025-06-25 00:00", "LATNOW": 37.1, "LONNOW": 142.9, "WINDNOW": 25.0, "DIRNOW": 13.0, "SPDNOW": 1.0, "TECH": "TRAK", "ADVNR": 16, "ATCFID": "WP022025", "NAME": "SEPAT", "FTECH": "JTWC", "FCST_DTG": "2025-06-26 06:00:00", "RUN_DTG": "2025-06-26 09:43:41", "BASIN": "WP", "STMNR": 2, "CAT_ID": null, "CAT_DESC": null, "MSGID": "WTPN51 PGTW 260900", "VALIDTIME": "2025-06-25 00:00:00" }, "geometry": { "type": "Point", "coordinates": [ 139.5, 32.0 ] } },
{ "type": "Feature", "properties": { "ID": 329495, "LAT": 32.7, "LON": 139.6, "VMAX": 25.0, "MSLP": 1005.0, "RMAX": 30.0, "FSPD": 5.21598, "FDIR": 9.50043, "RENV": 95.0, "PENV": 1012.0, "VALIDT": 0, "DTG": "2025-06-25 06:00", "LATNOW": 37.1, "LONNOW": 142.9, "WINDNOW": 25.0, "DIRNOW": 13.0, "SPDNOW": 1.0, "TECH": "TRAK", "ADVNR": 16, "ATCFID": "WP022025", "NAME": "SEPAT", "FTECH": "JTWC", "FCST_DTG": "2025-06-26 06:00:00", "RUN_DTG": "2025-06-26 09:43:41", "BASIN": "WP", "STMNR": 2, "CAT_ID": null, "CAT_DESC": null, "MSGID": "WTPN51 PGTW 260900", "VALIDTIME": "2025-06-25 06:00:00" }, "geometry": { "type": "Point", "coordinates": [ 139.600006, 32.700001 ] } },
{ "type": "Feature", "properties": { "ID": 329496, "LAT": 33.7, "LON": 139.8, "VMAX": 25.0, "MSLP": 1008.0, "RMAX": 30.0, "FSPD": 4.63406, "FDIR": 27.36328, "RENV": 95.0, "PENV": 1011.0, "VALIDT": 0, "DTG": "2025-06-25 12:00", "LATNOW": 37.1, "LONNOW": 142.9, "WINDNOW": 25.0, "DIRNOW": 13.0, "SPDNOW": 1.0, "TECH": "TRAK", "ADVNR": 16, "ATCFID": "WP022025", "NAME": "SEPAT", "FTECH": "JTWC", "FCST_DTG": "2025-06-26 06:00:00", "RUN_DTG": "2025-06-26 09:43:41", "BASIN": "WP", "STMNR": 2, "CAT_ID": null, "CAT_DESC": null, "MSGID": "WTPN51 PGTW 260900", "VALIDTIME": "2025-06-25 12:00:00" }, "geometry": { "type": "Point", "coordinates": [ 139.800003, 33.700001 ] } },
{ "type": "Feature", "properties": { "ID": 329497, "LAT": 34.5, "LON": 140.3, "VMAX": 25.0, "MSLP": 1003.0, "RMAX": 25.0, "FSPD": 7.71654, "FDIR": 36.86856, "RENV": 95.0, "PENV": 1012.0, "VALIDT": 0, "DTG": "2025-06-25 18:00", "LATNOW": 37.1, "LONNOW": 142.9, "WINDNOW": 25.0, "DIRNOW": 13.0, "SPDNOW": 1.0, "TECH": "TRAK", "ADVNR": 16, "ATCFID": "WP022025", "NAME": "SEPAT", "FTECH": "JTWC", "FCST_DTG": "2025-06-26 06:00:00", "RUN_DTG": "2025-06-26 09:43:41", "BASIN": "WP", "STMNR": 2, "CAT_ID": null, "CAT_DESC": null, "MSGID": "WTPN51 PGTW 260900", "VALIDTIME": "2025-06-25 18:00:00" }, "geometry": { "type": "Point", "coordinates": [ 140.300003, 34.5 ] } },
{ "type": "Feature", "properties": { "ID": 329498, "LAT": 35.7, "LON": 141.4, "VMAX": 25.0, "MSLP": 1008.0, "RMAX": 30.0, "FSPD": 9.5105, "FDIR": 40.77408, "RENV": 95.0, "PENV": 1010.0, "VALIDT": 0, "DTG": "2025-06-26 00:00", "LATNOW": 37.1, "LONNOW": 142.9, "WINDNOW": 25.0, "DIRNOW": 13.0, "SPDNOW": 1.0, "TECH": "TRAK", "ADVNR": 16, "ATCFID": "WP022025", "NAME": "SEPAT", "FTECH": "JTWC", "FCST_DTG": "2025-06-26 06:00:00", "RUN_DTG": "2025-06-26 09:43:41", "BASIN": "WP", "STMNR": 2, "CAT_ID": null, "CAT_DESC": null, "MSGID": "WTPN51 PGTW 260900", "VALIDTIME": "2025-06-26 00:00:00" }, "geometry": { "type": "Point", "coordinates": [ 141.399994, 35.700001 ] } },
{ "type": "Feature", "properties": { "ID": 329499, "LAT": 37.1, "LON": 142.9, "VMAX": 25.0, "MSLP": 1008.0, "RMAX": 30.0, "FSPD": 13.02672, "FDIR": 46.28268, "RENV": 100.0, "PENV": 1010.0, "VALIDT": 0, "DTG": "2025-06-26 06:00", "LATNOW": 37.1, "LONNOW": 142.9, "WINDNOW": 25.0, "DIRNOW": 13.0, "SPDNOW": 1.0, "TECH": "TRAK", "ADVNR": 16, "ATCFID": "WP022025", "NAME": "SEPAT", "FTECH": "JTWC", "FCST_DTG": "2025-06-26 06:00:00", "RUN_DTG": "2025-06-26 09:43:41", "BASIN": "WP", "STMNR": 2, "CAT_ID": null, "CAT_DESC": null, "MSGID": "WTPN51 PGTW 260900", "VALIDTIME": "2025-06-26 06:00:00" }, "geometry": { "type": "Point", "coordinates": [ 142.899994, 37.099998 ] } },
{ "type": "Feature", "properties": { "ID": 329500, "LAT": 40.6, "LON": 147.6, "VMAX": 30.0, "MSLP": 1010.40607, "RMAX": 31.50822, "FSPD": 14.552, "FDIR": 43.55447, "RENV": 250.0, "PENV": 1012.0, "VALIDT": 12, "DTG": "2025-06-26 18:00", "LATNOW": 37.1, "LONNOW": 142.9, "WINDNOW": 25.0, "DIRNOW": 13.0, "SPDNOW": 1.0, "TECH": "FCST", "ADVNR": 16, "ATCFID": "WP022025", "NAME": "SEPAT", "FTECH": "JTWC", "FCST_DTG": "2025-06-26 06:00:00", "RUN_DTG": "2025-06-26 09:43:41", "BASIN": "WP", "STMNR": 2, "CAT_ID": null, "CAT_DESC": null, "MSGID": "WTPN51 PGTW 260900", "VALIDTIME": "2025-06-26 18:00:00" }, "geometry": { "type": "Point", "coordinates": [ 147.600006, 40.599998 ] } },
{ "type": "Feature", "properties": { "ID": 329501, "LAT": 44.7, "LON": 152.9, "VMAX": 30.0, "MSLP": 1010.40607, "RMAX": 31.50822, "FSPD": 14.552, "FDIR": 43.55447, "RENV": 250.0, "PENV": 1012.0, "VALIDT": 24, "DTG": "2025-06-27 06:00", "LATNOW": 37.1, "LONNOW": 142.9, "WINDNOW": 25.0, "DIRNOW": 13.0, "SPDNOW": 1.0, "TECH": "FCST", "ADVNR": 16, "ATCFID": "WP022025", "NAME": "SEPAT", "FTECH": "JTWC", "FCST_DTG": "2025-06-26 06:00:00", "RUN_DTG": "2025-06-26 09:43:41", "BASIN": "WP", "STMNR": 2, "CAT_ID": null, "CAT_DESC": null, "MSGID": "WTPN51 PGTW 260900", "VALIDTIME": "2025-06-27 06:00:00" }, "geometry": { "type": "Point", "coordinates": [ 152.899994, 44.700001 ] } },
{ "type": "Feature", "properties": { "ID": 329499, "LAT": 37.1, "LON": 142.9, "VMAX": 25.0, "MSLP": 1008.0, "RMAX": 30.0, "FSPD": 13.02672, "FDIR": 46.28268, "RENV": 100.0, "PENV": 1010.0, "VALIDT": 0, "DTG": "2025-06-26 06:00", "LATNOW": 37.1, "LONNOW": 142.9, "WINDNOW": 25.0, "DIRNOW": 13.0, "SPDNOW": 1.0, "TECH": "TRAK", "ADVNR": 16, "ATCFID": "WP022025", "NAME": "SEPAT", "FTECH": "JTWC", "FCST_DTG": "2025-06-26 06:00:00", "RUN_DTG": "2025-06-26 09:43:41", "BASIN": "WP", "STMNR": 2, "CAT_ID": null, "CAT_DESC": null, "MSGID": "WTPN51 PGTW 260900", "VALIDTIME": "2025-06-26 06:00:00" }, "geometry": { "type": "LineString", "coordinates": [ [ 146.1, 21.4 ], [ 146.6, 21.5 ], [ 146.4, 21.6 ], [ 146.3, 21.8 ], [ 146.3, 22.2 ], [ 146.2, 22.8 ], [ 145.9, 23.2 ], [ 145.3, 23.8 ], [ 144.7, 24.6 ], [ 143.9, 25.9 ], [ 143.0, 27.0 ], [ 141.9, 28.4 ], [ 141.0, 29.3 ], [ 140.4, 30.0 ], [ 140.1, 30.6 ], [ 139.8, 31.3 ], [ 139.5, 32.0 ], [ 139.6, 32.7 ], [ 139.8, 33.7 ], [ 140.3, 34.5 ], [ 141.4, 35.7 ], [ 142.9, 37.1 ] ] } },
{ "type": "Feature", "properties": { "ID": 329501, "LAT": 44.7, "LON": 152.9, "VMAX": 30.0, "MSLP": 1010.40607, "RMAX": 31.50822, "FSPD": 14.552, "FDIR": 43.55447, "RENV": 250.0, "PENV": 1012.0, "VALIDT": 24, "DTG": "2025-06-27 06:00", "LATNOW": 37.1, "LONNOW": 142.9, "WINDNOW": 25.0, "DIRNOW": 13.0, "SPDNOW": 1.0, "TECH": "FCST", "ADVNR": 16, "ATCFID": "WP022025", "NAME": "SEPAT", "FTECH": "JTWC", "FCST_DTG": "2025-06-26 06:00:00", "RUN_DTG": "2025-06-26 09:43:41", "BASIN": "WP", "STMNR": 2, "CAT_ID": null, "CAT_DESC": null, "MSGID": "WTPN51 PGTW 260900", "VALIDTIME": "2025-06-27 06:00:00" }, "geometry": { "type": "LineString", "coordinates": [ [ 142.9, 37.1 ], [ 147.6, 40.6 ], [ 152.9, 44.7 ] ] } }
]
}
