{
"type": "FeatureCollection",
"crs": { "type": "name", "properties": { "name": "urn:ogc:def:crs:OGC:1.3:CRS84" } },
"features": [
{ "type": "Feature", "properties": { "ID": 311958, "LAT": -12.2, "LON": 58.1, "VMAX": 15.0, "MSLP": 1013.8515, "RMAX": 40.0, "FSPD": 6.05692, "FDIR": 274.87225, "RENV": 500.0, "PENV": 1012.0, "VALIDT": 0, "DTG": "2025-03-06 06:00", "LATNOW": -12.2, "LONNOW": 58.1, "WINDNOW": 15.0, "DIRNOW": 6.0, "SPDNOW": 3.0, "TECH": "TRAK", "ADVNR": null, "ATCFID": "SH252025", "NAME": "JUDE", "FTECH": "JTWC", "FCST_DTG": "2025-03-12 12:00:00", "RUN_DTG": "2025-03-13 08:41:54", "BASIN": "SH", "STMNR": 25, "CAT_ID": null, "CAT_DESC": null, "MSGID": null, "VALIDTIME": "2025-03-06 06:00:00" }, "geometry": { "type": "Point", "coordinates": [ 58.099998, -12.2 ] } },
{ "type": "Feature", "properties": { "ID": 311959, "LAT": -12.1, "LON": 56.9, "VMAX": 15.0, "MSLP": 1013.8515, "RMAX": 40.0, "FSPD": 6.03619, "FDIR": 269.99997, "RENV": 500.0, "PENV": 1012.0, "VALIDT": 0, "DTG": "2025-03-06 12:00", "LATNOW": -12.2, "LONNOW": 58.1, "WINDNOW": 15.0, "DIRNOW": 6.0, "SPDNOW": 3.0, "TECH": "TRAK", "ADVNR": null, "ATCFID": "SH252025", "NAME": "JUDE", "FTECH": "JTWC", "FCST_DTG": "2025-03-12 12:00:00", "RUN_DTG": "2025-03-13 08:41:54", "BASIN": "SH", "STMNR": 25, "CAT_ID": null, "CAT_DESC": null, "MSGID": null, "VALIDTIME": "2025-03-06 12:00:00" }, "geometry": { "type": "Point", "coordinates": [ 56.900002, -12.1 ] } },
{ "type": "Feature", "properties": { "ID": 311960, "LAT": -12.1, "LON": 55.7, "VMAX": 15.0, "MSLP": 1013.8515, "RMAX": 40.0, "FSPD": 5.53318, "FDIR": 269.99997, "RENV": 500.0, "PENV": 1012.0, "VALIDT": 0, "DTG": "2025-03-06 18:00", "LATNOW": -12.2, "LONNOW": 58.1, "WINDNOW": 15.0, "DIRNOW": 6.0, "SPDNOW": 3.0, "TECH": "TRAK", "ADVNR": null, "ATCFID": "SH252025", "NAME": "JUDE", "FTECH": "JTWC", "FCST_DTG": "2025-03-12 12:00:00", "RUN_DTG": "2025-03-13 08:41:54", "BASIN": "SH", "STMNR": 25, "CAT_ID": null, "CAT_DESC": null, "MSGID": null, "VALIDTIME": "2025-03-06 18:00:00" }, "geometry": { "type": "Point", "coordinates": [ 55.700001, -12.1 ] } },
{ "type": "Feature", "properties": { "ID": 311961, "LAT": -12.1, "LON": 54.6, "VMAX": 15.0, "MSLP": 1013.8515, "RMAX": 40.0, "FSPD": 4.05612, "FDIR": 262.71344, "RENV": 500.0, "PENV": 1012.0, "VALIDT": 0, "DTG": "2025-03-07 00:00", "LATNOW": -12.2, "LONNOW": 58.1, "WINDNOW": 15.0, "DIRNOW": 6.0, "SPDNOW": 3.0, "TECH": "TRAK", "ADVNR": null, "ATCFID": "SH252025", "NAME": "JUDE", "FTECH": "JTWC", "FCST_DTG": "2025-03-12 12:00:00", "RUN_DTG": "2025-03-13 08:41:54", "BASIN": "SH", "STMNR": 25, "CAT_ID": null, "CAT_DESC": null, "MSGID": null, "VALIDTIME": "2025-03-07 00:00:00" }, "geometry": { "type": "Point", "coordinates": [ 54.599998, -12.1 ] } },
{ "type": "Feature", "properties": { "ID": 311962, "LAT": -12.2, "LON": 53.8, "VMAX": 25.0, "MSLP": 1011.80975, "RMAX": 45.0, "FSPD": 5.73933, "FDIR": 254.40085, "RENV": 500.0, "PENV": 1012.0, "VALIDT": 0, "DTG": "2025-03-07 06:00", "LATNOW": -12.2, "LONNOW": 58.1, "WINDNOW": 15.0, "DIRNOW": 6.0, "SPDNOW": 3.0, "TECH": "TRAK", "ADVNR": null, "ATCFID": "SH252025", "NAME": "JUDE", "FTECH": "JTWC", "FCST_DTG": "2025-03-12 12:00:00", "RUN_DTG": "2025-03-13 08:41:54", "BASIN": "SH", "STMNR": 25, "CAT_ID": null, "CAT_DESC": null, "MSGID": null, "VALIDTIME": "2025-03-07 06:00:00" }, "geometry": { "type": "Point", "coordinates": [ 53.799999, -12.2 ] } },
{ "type": "Feature", "properties": { "ID": 311963, "LAT": -12.5, "LON": 52.7, "VMAX": 25.0, "MSLP": 1011.80975, "RMAX": 45.0, "FSPD": 9.81428, "FDIR": 234.78836, "RENV": 500.0, "PENV": 1012.0, "VALIDT": 0, "DTG": "2025-03-07 12:00", "LATNOW": -12.2, "LONNOW": 58.1, "WINDNOW": 15.0, "DIRNOW": 6.0, "SPDNOW": 3.0, "TECH": "TRAK", "ADVNR": null, "ATCFID": "SH252025", "NAME": "JUDE", "FTECH": "JTWC", "FCST_DTG": "2025-03-12 12:00:00", "RUN_DTG": "2025-03-13 08:41:54", "BASIN": "SH", "STMNR": 25, "CAT_ID": null, "CAT_DESC": null, "MSGID": null, "VALIDTIME": "2025-03-07 12:00:00" }, "geometry": { "type": "Point", "coordinates": [ 52.700001, -12.5 ] } },
{ "type": "Feature", "properties": { "ID": 311964, "LAT": -13.6, "LON": 51.1, "VMAX": 25.0, "MSLP": 1011.80975, "RMAX": 45.0, "FSPD": 9.12832, "FDIR": 260.2662, "RENV": 500.0, "PENV": 1012.0, "VALIDT": 0, "DTG": "2025-03-07 18:00", "LATNOW": -12.2, "LONNOW": 58.1, "WINDNOW": 15.0, "DIRNOW": 6.0, "SPDNOW": 3.0, "TECH": "TRAK", "ADVNR": null, "ATCFID": "SH252025", "NAME": "JUDE", "FTECH": "JTWC", "FCST_DTG": "2025-03-12 12:00:00", "RUN_DTG": "2025-03-13 08:41:54", "BASIN": "SH", "STMNR": 25, "CAT_ID": null, "CAT_DESC": null, "MSGID": null, "VALIDTIME": "2025-03-07 18:00:00" }, "geometry": { "type": "Point", "coordinates": [ 51.099998, -13.6 ] } },
{ "type": "Feature", "properties": { "ID": 311965, "LAT": -13.78, "LON": 50.02, "VMAX": 25.0, "MSLP": 1011.80975, "RMAX": 45.0, "FSPD": 9.12267, "FDIR": 260.26007, "RENV": 500.0, "PENV": 1012.0, "VALIDT": 0, "DTG": "2025-03-07 21:00", "LATNOW": -12.2, "LONNOW": 58.1, "WINDNOW": 15.0, "DIRNOW": 6.0, "SPDNOW": 3.0, "TECH": "TRAK", "ADVNR": null, "ATCFID": "SH252025", "NAME": "JUDE", "FTECH": "JTWC", "FCST_DTG": "2025-03-12 12:00:00", "RUN_DTG": "2025-03-13 08:41:54", "BASIN": "SH", "STMNR": 25, "CAT_ID": null, "CAT_DESC": null, "MSGID": null, "VALIDTIME": "2025-03-07 21:00:00" }, "geometry": { "type": "Point", "coordinates": [ 50.02, -13.78 ] } },
{ "type": "Feature", "properties": { "ID": 311966, "LAT": -13.9, "LON": 49.3, "VMAX": 25.0, "MSLP": 1011.80975, "RMAX": 45.0, "FSPD": 8.05261, "FDIR": 262.65915, "RENV": 500.0, "PENV": 1012.0, "VALIDT": 0, "DTG": "2025-03-08 00:00", "LATNOW": -12.2, "LONNOW": 58.1, "WINDNOW": 15.0, "DIRNOW": 6.0, "SPDNOW": 3.0, "TECH": "TRAK", "ADVNR": null, "ATCFID": "SH252025", "NAME": "JUDE", "FTECH": "JTWC", "FCST_DTG": "2025-03-12 12:00:00", "RUN_DTG": "2025-03-13 08:41:54", "BASIN": "SH", "STMNR": 25, "CAT_ID": null, "CAT_DESC": null, "MSGID": null, "VALIDTIME": "2025-03-08 00:00:00" }, "geometry": { "type": "Point", "coordinates": [ 49.299999, -13.9 ] } },
{ "type": "Feature", "properties": { "ID": 311967, "LAT": -14.1, "LON": 47.7, "VMAX": 25.0, "MSLP": 1011.80975, "RMAX": 45.0, "FSPD": 6.07251, "FDIR": 260.24506, "RENV": 500.0, "PENV": 1012.0, "VALIDT": 0, "DTG": "2025-03-08 06:00", "LATNOW": -12.2, "LONNOW": 58.1, "WINDNOW": 15.0, "DIRNOW": 6.0, "SPDNOW": 3.0, "TECH": "TRAK", "ADVNR": null, "ATCFID": "SH252025", "NAME": "JUDE", "FTECH": "JTWC", "FCST_DTG": "2025-03-12 12:00:00", "RUN_DTG": "2025-03-13 08:41:54", "BASIN": "SH", "STMNR": 25, "CAT_ID": null, "CAT_DESC": null, "MSGID": null, "VALIDTIME": "2025-03-08 06:00:00" }, "geometry": { "type": "Point", "coordinates": [ 47.700001, -14.1 ] } },
{ "type": "Feature", "properties": { "ID": 311968, "LAT": -14.3, "LON": 46.5, "VMAX": 30.0, "MSLP": 1010.40607, "RMAX": 44.21983, "FSPD": 4.60106, "FDIR": 257.07825, "RENV": 500.0, "PENV": 1012.0, "VALIDT": 0, "DTG": "2025-03-08 12:00", "LATNOW": -12.2, "LONNOW": 58.1, "WINDNOW": 15.0, "DIRNOW": 6.0, "SPDNOW": 3.0, "TECH": "TRAK", "ADVNR": null, "ATCFID": "SH252025", "NAME": "JUDE", "FTECH": "JTWC", "FCST_DTG": "2025-03-12 12:00:00", "RUN_DTG": "2025-03-13 08:41:54", "BASIN": "SH", "STMNR": 25, "CAT_ID": null, "CAT_DESC": null, "MSGID": null, "VALIDTIME": "2025-03-08 12:00:00" }, "geometry": { "type": "Point", "coordinates": [ 46.5, -14.3 ] } },
{ "type": "Feature", "properties": { "ID": 311969, "LAT": -14.5, "LON": 45.6, "VMAX": 35.0, "MSLP": 996.0, "RMAX": 40.0, "FSPD": 5.21098, "FDIR": 252.77228, "RENV": 180.0, "PENV": 1007.0, "VALIDT": 0, "DTG": "2025-03-08 18:00", "LATNOW": -12.2, "LONNOW": 58.1, "WINDNOW": 15.0, "DIRNOW": 6.0, "SPDNOW": 3.0, "TECH": "TRAK", "ADVNR": null, "ATCFID": "SH252025", "NAME": "JUDE", "FTECH": "JTWC", "FCST_DTG": "2025-03-12 12:00:00", "RUN_DTG": "2025-03-13 08:41:54", "BASIN": "SH", "STMNR": 25, "CAT_ID": null, "CAT_DESC": null, "MSGID": null, "VALIDTIME": "2025-03-08 18:00:00" }, "geometry": { "type": "Point", "coordinates": [ 45.599998, -14.5 ] } },
{ "type": "Feature", "properties": { "ID": 311970, "LAT": -14.8, "LON": 44.6, "VMAX": 45.0, "MSLP": 996.0, "RMAX": 40.0, "FSPD": 5.47114, "FDIR": 269.99997, "RENV": 180.0, "PENV": 1007.0, "VALIDT": 0, "DTG": "2025-03-09 00:00", "LATNOW": -12.2, "LONNOW": 58.1, "WINDNOW": 15.0, "DIRNOW": 6.0, "SPDNOW": 3.0, "TECH": "TRAK", "ADVNR": null, "ATCFID": "SH252025", "NAME": "JUDE", "FTECH": "JTWC", "FCST_DTG": "2025-03-12 12:00:00", "RUN_DTG": "2025-03-13 08:41:54", "BASIN": "SH", "STMNR": 25, "CAT_ID": null, "CAT_DESC": null, "MSGID": null, "VALIDTIME": "2025-03-09 00:00:00" }, "geometry": { "type": "Point", "coordinates": [ 44.599998, -14.8 ] } },
{ "type": "Feature", "properties": { "ID": 311971, "LAT": -14.8, "LON": 43.5, "VMAX": 55.0, "MSLP": 996.0, "RMAX": 30.0, "FSPD": 6.95176, "FDIR": 248.28372, "RENV": 200.0, "PENV": 1005.0, "VALIDT": 0, "DTG": "2025-03-09 06:00", "LATNOW": -12.2, "LONNOW": 58.1, "WINDNOW": 15.0, "DIRNOW": 6.0, "SPDNOW": 3.0, "TECH": "TRAK", "ADVNR": null, "ATCFID": "SH252025", "NAME": "JUDE", "FTECH": "JTWC", "FCST_DTG": "2025-03-12 12:00:00", "RUN_DTG": "2025-03-13 08:41:54", "BASIN": "SH", "STMNR": 25, "CAT_ID": null, "CAT_DESC": null, "MSGID": null, "VALIDTIME": "2025-03-09 06:00:00" }, "geometry": { "type": "Point", "coordinates": [ 43.5, -14.8 ] } },
{ "type": "Feature", "properties": { "ID": 311972, "LAT": -15.3, "LON": 42.2, "VMAX": 65.0, "MSLP": 989.0, "RMAX": 20.0, "FSPD": 5.37622, "FDIR": 292.5045, "RENV": 230.0, "PENV": 1004.0, "VALIDT": 0, "DTG": "2025-03-09 12:00", "LATNOW": -12.2, "LONNOW": 58.1, "WINDNOW": 15.0, "DIRNOW": 6.0, "SPDNOW": 3.0, "TECH": "TRAK", "ADVNR": null, "ATCFID": "SH252025", "NAME": "JUDE", "FTECH": "JTWC", "FCST_DTG": "2025-03-12 12:00:00", "RUN_DTG": "2025-03-13 08:41:54", "BASIN": "SH", "STMNR": 25, "CAT_ID": null, "CAT_DESC": null, "MSGID": null, "VALIDTIME": "2025-03-09 12:00:00" }, "geometry": { "type": "Point", "coordinates": [ 42.200001, -15.3 ] } },
{ "type": "Feature", "properties": { "ID": 311973, "LAT": -14.9, "LON": 41.2, "VMAX": 80.0, "MSLP": 983.0, "RMAX": 15.0, "FSPD": 2.48573, "FDIR": 269.99997, "RENV": 230.0, "PENV": 1004.0, "VALIDT": 0, "DTG": "2025-03-09 18:00", "LATNOW": -12.2, "LONNOW": 58.1, "WINDNOW": 15.0, "DIRNOW": 6.0, "SPDNOW": 3.0, "TECH": "TRAK", "ADVNR": null, "ATCFID": "SH252025", "NAME": "JUDE", "FTECH": "JTWC", "FCST_DTG": "2025-03-12 12:00:00", "RUN_DTG": "2025-03-13 08:41:54", "BASIN": "SH", "STMNR": 25, "CAT_ID": null, "CAT_DESC": null, "MSGID": null, "VALIDTIME": "2025-03-09 18:00:00" }, "geometry": { "type": "Point", "coordinates": [ 41.200001, -14.9 ] } },
{ "type": "Feature", "properties": { "ID": 311974, "LAT": -14.9, "LON": 40.7, "VMAX": 75.0, "MSLP": 975.0, "RMAX": 15.0, "FSPD": 4.26577, "FDIR": 248.78967, "RENV": 180.0, "PENV": 1007.0, "VALIDT": 0, "DTG": "2025-03-10 00:00", "LATNOW": -12.2, "LONNOW": 58.1, "WINDNOW": 15.0, "DIRNOW": 6.0, "SPDNOW": 3.0, "TECH": "TRAK", "ADVNR": null, "ATCFID": "SH252025", "NAME": "JUDE", "FTECH": "JTWC", "FCST_DTG": "2025-03-12 12:00:00", "RUN_DTG": "2025-03-13 08:41:54", "BASIN": "SH", "STMNR": 25, "CAT_ID": null, "CAT_DESC": null, "MSGID": null, "VALIDTIME": "2025-03-10 00:00:00" }, "geometry": { "type": "Point", "coordinates": [ 40.700001, -14.9 ] } },
{ "type": "Feature", "properties": { "ID": 311975, "LAT": -14.93, "LON": 40.62, "VMAX": 75.0, "MSLP": 975.0, "RMAX": 15.0, "FSPD": 4.26327, "FDIR": 248.77644, "RENV": 180.0, "PENV": 1007.0, "VALIDT": 0, "DTG": "2025-03-10 00:00", "LATNOW": -12.2, "LONNOW": 58.1, "WINDNOW": 15.0, "DIRNOW": 6.0, "SPDNOW": 3.0, "TECH": "TRAK", "ADVNR": null, "ATCFID": "SH252025", "NAME": "JUDE", "FTECH": "JTWC", "FCST_DTG": "2025-03-12 12:00:00", "RUN_DTG": "2025-03-13 08:41:54", "BASIN": "SH", "STMNR": 25, "CAT_ID": null, "CAT_DESC": null, "MSGID": null, "VALIDTIME": "2025-03-10 00:00:00" }, "geometry": { "type": "Point", "coordinates": [ 40.620003, -14.929999 ] } },
{ "type": "Feature", "properties": { "ID": 311976, "LAT": -15.2, "LON": 39.9, "VMAX": 65.0, "MSLP": 977.0, "RMAX": 15.0, "FSPD": 4.26354, "FDIR": 291.2221, "RENV": 200.0, "PENV": 1006.0, "VALIDT": 0, "DTG": "2025-03-10 06:00", "LATNOW": -12.2, "LONNOW": 58.1, "WINDNOW": 15.0, "DIRNOW": 6.0, "SPDNOW": 3.0, "TECH": "TRAK", "ADVNR": null, "ATCFID": "SH252025", "NAME": "JUDE", "FTECH": "JTWC", "FCST_DTG": "2025-03-12 12:00:00", "RUN_DTG": "2025-03-13 08:41:54", "BASIN": "SH", "STMNR": 25, "CAT_ID": null, "CAT_DESC": null, "MSGID": null, "VALIDTIME": "2025-03-10 06:00:00" }, "geometry": { "type": "Point", "coordinates": [ 39.900002, -15.2 ] } },
{ "type": "Feature", "properties": { "ID": 311977, "LAT": -14.9, "LON": 39.1, "VMAX": 55.0, "MSLP": 983.0, "RMAX": 15.0, "FSPD": 5.68586, "FDIR": 285.7495, "RENV": 200.0, "PENV": 1006.0, "VALIDT": 0, "DTG": "2025-03-10 12:00", "LATNOW": -12.2, "LONNOW": 58.1, "WINDNOW": 15.0, "DIRNOW": 6.0, "SPDNOW": 3.0, "TECH": "TRAK", "ADVNR": null, "ATCFID": "SH252025", "NAME": "JUDE", "FTECH": "JTWC", "FCST_DTG": "2025-03-12 12:00:00", "RUN_DTG": "2025-03-13 08:41:54", "BASIN": "SH", "STMNR": 25, "CAT_ID": null, "CAT_DESC": null, "MSGID": null, "VALIDTIME": "2025-03-10 12:00:00" }, "geometry": { "type": "Point", "coordinates": [ 39.099998, -14.9 ] } },
{ "type": "Feature", "properties": { "ID": 311978, "LAT": -14.6, "LON": 38.0, "VMAX": 45.0, "MSLP": 1004.66364, "RMAX": 39.89946, "FSPD": 3.48483, "FDIR": 269.99997, "RENV": 500.0, "PENV": 1012.0, "VALIDT": 0, "DTG": "2025-03-10 18:00", "LATNOW": -12.2, "LONNOW": 58.1, "WINDNOW": 15.0, "DIRNOW": 6.0, "SPDNOW": 3.0, "TECH": "TRAK", "ADVNR": null, "ATCFID": "SH252025", "NAME": "JUDE", "FTECH": "JTWC", "FCST_DTG": "2025-03-12 12:00:00", "RUN_DTG": "2025-03-13 08:41:54", "BASIN": "SH", "STMNR": 25, "CAT_ID": null, "CAT_DESC": null, "MSGID": null, "VALIDTIME": "2025-03-10 18:00:00" }, "geometry": { "type": "Point", "coordinates": [ 38.0, -14.6 ] } },
{ "type": "Feature", "properties": { "ID": 311979, "LAT": -14.6, "LON": 37.3, "VMAX": 35.0, "MSLP": 1008.74713, "RMAX": 42.69135, "FSPD": 5.36456, "FDIR": 227.83421, "RENV": 500.0, "PENV": 1012.0, "VALIDT": 0, "DTG": "2025-03-11 00:00", "LATNOW": -12.2, "LONNOW": 58.1, "WINDNOW": 15.0, "DIRNOW": 6.0, "SPDNOW": 3.0, "TECH": "TRAK", "ADVNR": null, "ATCFID": "SH252025", "NAME": "JUDE", "FTECH": "JTWC", "FCST_DTG": "2025-03-12 12:00:00", "RUN_DTG": "2025-03-13 08:41:54", "BASIN": "SH", "STMNR": 25, "CAT_ID": null, "CAT_DESC": null, "MSGID": null, "VALIDTIME": "2025-03-11 00:00:00" }, "geometry": { "type": "Point", "coordinates": [ 37.299999, -14.6 ] } },
{ "type": "Feature", "properties": { "ID": 311980, "LAT": -15.3, "LON": 36.5, "VMAX": 30.0, "MSLP": 1010.40607, "RMAX": 44.21983, "FSPD": 5.07618, "FDIR": 215.8299, "RENV": 500.0, "PENV": 1012.0, "VALIDT": 0, "DTG": "2025-03-11 06:00", "LATNOW": -12.2, "LONNOW": 58.1, "WINDNOW": 15.0, "DIRNOW": 6.0, "SPDNOW": 3.0, "TECH": "TRAK", "ADVNR": null, "ATCFID": "SH252025", "NAME": "JUDE", "FTECH": "JTWC", "FCST_DTG": "2025-03-12 12:00:00", "RUN_DTG": "2025-03-13 08:41:54", "BASIN": "SH", "STMNR": 25, "CAT_ID": null, "CAT_DESC": null, "MSGID": null, "VALIDTIME": "2025-03-11 06:00:00" }, "geometry": { "type": "Point", "coordinates": [ 36.5, -15.3 ] } },
{ "type": "Feature", "properties": { "ID": 311981, "LAT": -16.1, "LON": 35.9, "VMAX": 25.0, "MSLP": 1011.80975, "RMAX": 45.0, "FSPD": 5.49467, "FDIR": 212.58058, "RENV": 500.0, "PENV": 1012.0, "VALIDT": 0, "DTG": "2025-03-11 12:00", "LATNOW": -12.2, "LONNOW": 58.1, "WINDNOW": 15.0, "DIRNOW": 6.0, "SPDNOW": 3.0, "TECH": "TRAK", "ADVNR": null, "ATCFID": "SH252025", "NAME": "JUDE", "FTECH": "JTWC", "FCST_DTG": "2025-03-12 12:00:00", "RUN_DTG": "2025-03-13 08:41:54", "BASIN": "SH", "STMNR": 25, "CAT_ID": null, "CAT_DESC": null, "MSGID": null, "VALIDTIME": "2025-03-11 12:00:00" }, "geometry": { "type": "Point", "coordinates": [ 35.900002, -16.1 ] } },
{ "type": "Feature", "properties": { "ID": 311982, "LAT": -17.0, "LON": 35.3, "VMAX": 25.0, "MSLP": 999.0, "RMAX": 100.0, "FSPD": 2.28046, "FDIR": 205.53105, "RENV": 150.0, "PENV": 1006.0, "VALIDT": 0, "DTG": "2025-03-11 18:00", "LATNOW": -12.2, "LONNOW": 58.1, "WINDNOW": 15.0, "DIRNOW": 6.0, "SPDNOW": 3.0, "TECH": "TRAK", "ADVNR": null, "ATCFID": "SH252025", "NAME": "JUDE", "FTECH": "JTWC", "FCST_DTG": "2025-03-12 12:00:00", "RUN_DTG": "2025-03-13 08:41:54", "BASIN": "SH", "STMNR": 25, "CAT_ID": null, "CAT_DESC": null, "MSGID": null, "VALIDTIME": "2025-03-11 18:00:00" }, "geometry": { "type": "Point", "coordinates": [ 35.299999, -17.0 ] } },
{ "type": "Feature", "properties": { "ID": 311983, "LAT": -17.4, "LON": 35.1, "VMAX": 25.0, "MSLP": 999.0, "RMAX": 100.0, "FSPD": 0.711, "FDIR": 136.3486, "RENV": 150.0, "PENV": 1006.0, "VALIDT": 0, "DTG": "2025-03-12 00:00", "LATNOW": -12.2, "LONNOW": 58.1, "WINDNOW": 15.0, "DIRNOW": 6.0, "SPDNOW": 3.0, "TECH": "TRAK", "ADVNR": null, "ATCFID": "SH252025", "NAME": "JUDE", "FTECH": "JTWC", "FCST_DTG": "2025-03-12 12:00:00", "RUN_DTG": "2025-03-13 08:41:54", "BASIN": "SH", "STMNR": 25, "CAT_ID": null, "CAT_DESC": null, "MSGID": null, "VALIDTIME": "2025-03-12 00:00:00" }, "geometry": { "type": "Point", "coordinates": [ 35.099998, -17.4 ] } },
{ "type": "Feature", "properties": { "ID": 311984, "LAT": -17.5, "LON": 35.2, "VMAX": 25.0, "MSLP": 1000.0, "RMAX": 100.0, "FSPD": 2.52906, "FDIR": 144.45435, "RENV": 165.0, "PENV": 1009.0, "VALIDT": 0, "DTG": "2025-03-12 06:00", "LATNOW": -12.2, "LONNOW": 58.1, "WINDNOW": 15.0, "DIRNOW": 6.0, "SPDNOW": 3.0, "TECH": "TRAK", "ADVNR": null, "ATCFID": "SH252025", "NAME": "JUDE", "FTECH": "JTWC", "FCST_DTG": "2025-03-12 12:00:00", "RUN_DTG": "2025-03-13 08:41:54", "BASIN": "SH", "STMNR": 25, "CAT_ID": null, "CAT_DESC": null, "MSGID": null, "VALIDTIME": "2025-03-12 06:00:00" }, "geometry": { "type": "Point", "coordinates": [ 35.200001, -17.5 ] } },
{ "type": "Feature", "properties": { "ID": 311985, "LAT": -17.9, "LON": 35.5, "VMAX": 25.0, "MSLP": 1007.0, "RMAX": 100.0, "FSPD": 2.52906, "FDIR": 144.45435, "RENV": 175.0, "PENV": 1010.0, "VALIDT": 0, "DTG": "2025-03-12 12:00", "LATNOW": -12.2, "LONNOW": 58.1, "WINDNOW": 15.0, "DIRNOW": 6.0, "SPDNOW": 3.0, "TECH": "TRAK", "ADVNR": null, "ATCFID": "SH252025", "NAME": "JUDE", "FTECH": "JTWC", "FCST_DTG": "2025-03-12 12:00:00", "RUN_DTG": "2025-03-13 08:41:54", "BASIN": "SH", "STMNR": 25, "CAT_ID": null, "CAT_DESC": null, "MSGID": null, "VALIDTIME": "2025-03-12 12:00:00" }, "geometry": { "type": "Point", "coordinates": [ 35.5, -17.9 ] } },
{ "type": "Feature", "properties": { "ID": 311985, "LAT": -17.9, "LON": 35.5, "VMAX": 25.0, "MSLP": 1007.0, "RMAX": 100.0, "FSPD": 2.52906, "FDIR": 144.45435, "RENV": 175.0, "PENV": 1010.0, "VALIDT": 0, "DTG": "2025-03-12 12:00", "LATNOW": -12.2, "LONNOW": 58.1, "WINDNOW": 15.0, "DIRNOW": 6.0, "SPDNOW": 3.0, "TECH": "TRAK", "ADVNR": null, "ATCFID": "SH252025", "NAME": "JUDE", "FTECH": "JTWC", "FCST_DTG": "2025-03-12 12:00:00", "RUN_DTG": "2025-03-13 08:41:54", "BASIN": "SH", "STMNR": 25, "CAT_ID": null, "CAT_DESC": null, "MSGID": null, "VALIDTIME": "2025-03-12 12:00:00" }, "geometry": { "type": "LineString", "coordinates": [ [ 58.1, -12.2 ], [ 56.9, -12.1 ], [ 55.7, -12.1 ], [ 54.6, -12.1 ], [ 53.8, -12.2 ], [ 52.7, -12.5 ], [ 51.1, -13.6 ], [ 50.02, -13.78 ], [ 49.3, -13.9 ], [ 47.7, -14.1 ], [ 46.5, -14.3 ], [ 45.6, -14.5 ], [ 44.6, -14.8 ], [ 43.5, -14.8 ], [ 42.2, -15.3 ], [ 41.2, -14.9 ], [ 40.7, -14.9 ], [ 40.62, -14.93 ], [ 39.9, -15.2 ], [ 39.1, -14.9 ], [ 38.0, -14.6 ], [ 37.3, -14.6 ], [ 36.5, -15.3 ], [ 35.9, -16.1 ], [ 35.3, -17.0 ], [ 35.1, -17.4 ], [ 35.2, -17.5 ], [ 35.5, -17.9 ] ] } }
]
}
