{
"type": "FeatureCollection",
"crs": { "type": "name", "properties": { "name": "urn:ogc:def:crs:OGC:1.3:CRS84" } },
"features": [
{ "type": "Feature", "properties": { "ID": 20674, "LAT": 12.0, "LON": -109.8, "VMAX": 25.0, "MSLP": 1008.0, "RMAX": 90.0, "FSPD": 15.97453, "FDIR": 251.21361, "RENV": 120.0, "PENV": 1010.0, "VALIDT": 0, "DTG": "2025-08-02 18:00", "LATNOW": 36.0, "LONNOW": -165.0, "WINDNOW": 35.0, "DIRNOW": 9.0, "SPDNOW": 2.0, "TECH": "TRAK", "ADVNR": 17, "ATCFID": "EP082025", "NAME": "HENRIETTE", "FTECH": "OFCL", "FCST_DTG": "2025-08-13 06:00:00", "RUN_DTG": "2025-08-13 21:15:25", "BASIN": "EP", "STMNR": 8, "CAT_ID": null, "CAT_DESC": null, "MSGID": "WTPZ23 KNHC 080841", "VALIDTIME": "2025-08-02 18:00:00" }, "geometry": { "type": "Point", "coordinates": [ -109.800003, 12.0 ] } },
{ "type": "Feature", "properties": { "ID": 20675, "LAT": 11.0, "LON": -112.8, "VMAX": 25.0, "MSLP": 1009.0, "RMAX": 120.0, "FSPD": 5.92024, "FDIR": 290.33954, "RENV": 150.0, "PENV": 1012.0, "VALIDT": 0, "DTG": "2025-08-03 00:00", "LATNOW": 36.0, "LONNOW": -165.0, "WINDNOW": 35.0, "DIRNOW": 9.0, "SPDNOW": 2.0, "TECH": "TRAK", "ADVNR": 17, "ATCFID": "EP082025", "NAME": "HENRIETTE", "FTECH": "OFCL", "FCST_DTG": "2025-08-13 06:00:00", "RUN_DTG": "2025-08-13 21:15:25", "BASIN": "EP", "STMNR": 8, "CAT_ID": null, "CAT_DESC": null, "MSGID": "WTPZ23 KNHC 080841", "VALIDTIME": "2025-08-03 00:00:00" }, "geometry": { "type": "Point", "coordinates": [ -112.800003, 11.0 ] } },
{ "type": "Feature", "properties": { "ID": 20676, "LAT": 11.4, "LON": -113.9, "VMAX": 25.0, "MSLP": 1009.0, "RMAX": 120.0, "FSPD": 3.96929, "FDIR": 310.39325, "RENV": 160.0, "PENV": 1013.0, "VALIDT": 0, "DTG": "2025-08-03 06:00", "LATNOW": 36.0, "LONNOW": -165.0, "WINDNOW": 35.0, "DIRNOW": 9.0, "SPDNOW": 2.0, "TECH": "TRAK", "ADVNR": 17, "ATCFID": "EP082025", "NAME": "HENRIETTE", "FTECH": "OFCL", "FCST_DTG": "2025-08-13 06:00:00", "RUN_DTG": "2025-08-13 21:15:25", "BASIN": "EP", "STMNR": 8, "CAT_ID": null, "CAT_DESC": null, "MSGID": "WTPZ23 KNHC 080841", "VALIDTIME": "2025-08-03 06:00:00" }, "geometry": { "type": "Point", "coordinates": [ -113.900002, 11.4 ] } },
{ "type": "Feature", "properties": { "ID": 20677, "LAT": 11.9, "LON": -114.5, "VMAX": 25.0, "MSLP": 1009.0, "RMAX": 120.0, "FSPD": 4.15504, "FDIR": 284.337, "RENV": 160.0, "PENV": 1013.0, "VALIDT": 0, "DTG": "2025-08-03 12:00", "LATNOW": 36.0, "LONNOW": -165.0, "WINDNOW": 35.0, "DIRNOW": 9.0, "SPDNOW": 2.0, "TECH": "TRAK", "ADVNR": 17, "ATCFID": "EP082025", "NAME": "HENRIETTE", "FTECH": "OFCL", "FCST_DTG": "2025-08-13 06:00:00", "RUN_DTG": "2025-08-13 21:15:25", "BASIN": "EP", "STMNR": 8, "CAT_ID": null, "CAT_DESC": null, "MSGID": "WTPZ23 KNHC 080841", "VALIDTIME": "2025-08-03 12:00:00" }, "geometry": { "type": "Point", "coordinates": [ -114.5, 11.9 ] } },
{ "type": "Feature", "properties": { "ID": 20678, "LAT": 12.1, "LON": -115.3, "VMAX": 25.0, "MSLP": 1009.0, "RMAX": 120.0, "FSPD": 5.74135, "FDIR": 285.5934, "RENV": 160.0, "PENV": 1013.0, "VALIDT": 0, "DTG": "2025-08-03 18:00", "LATNOW": 36.0, "LONNOW": -165.0, "WINDNOW": 35.0, "DIRNOW": 9.0, "SPDNOW": 2.0, "TECH": "TRAK", "ADVNR": 17, "ATCFID": "EP082025", "NAME": "HENRIETTE", "FTECH": "OFCL", "FCST_DTG": "2025-08-13 06:00:00", "RUN_DTG": "2025-08-13 21:15:25", "BASIN": "EP", "STMNR": 8, "CAT_ID": null, "CAT_DESC": null, "MSGID": "WTPZ23 KNHC 080841", "VALIDTIME": "2025-08-03 18:00:00" }, "geometry": { "type": "Point", "coordinates": [ -115.300003, 12.1 ] } },
{ "type": "Feature", "properties": { "ID": 20679, "LAT": 12.4, "LON": -116.4, "VMAX": 25.0, "MSLP": 1009.0, "RMAX": 90.0, "FSPD": 7.54269, "FDIR": 313.00354, "RENV": 160.0, "PENV": 1011.0, "VALIDT": 0, "DTG": "2025-08-04 00:00", "LATNOW": 36.0, "LONNOW": -165.0, "WINDNOW": 35.0, "DIRNOW": 9.0, "SPDNOW": 2.0, "TECH": "TRAK", "ADVNR": 17, "ATCFID": "EP082025", "NAME": "HENRIETTE", "FTECH": "OFCL", "FCST_DTG": "2025-08-13 06:00:00", "RUN_DTG": "2025-08-13 21:15:25", "BASIN": "EP", "STMNR": 8, "CAT_ID": null, "CAT_DESC": null, "MSGID": "WTPZ23 KNHC 080841", "VALIDTIME": "2025-08-04 00:00:00" }, "geometry": { "type": "Point", "coordinates": [ -116.400002, 12.4 ] } },
{ "type": "Feature", "properties": { "ID": 20680, "LAT": 13.4, "LON": -117.5, "VMAX": 30.0, "MSLP": 1007.0, "RMAX": 90.0, "FSPD": 9.35889, "FDIR": 285.95264, "RENV": 170.0, "PENV": 1011.0, "VALIDT": 0, "DTG": "2025-08-04 06:00", "LATNOW": 36.0, "LONNOW": -165.0, "WINDNOW": 35.0, "DIRNOW": 9.0, "SPDNOW": 2.0, "TECH": "TRAK", "ADVNR": 17, "ATCFID": "EP082025", "NAME": "HENRIETTE", "FTECH": "OFCL", "FCST_DTG": "2025-08-13 06:00:00", "RUN_DTG": "2025-08-13 21:15:25", "BASIN": "EP", "STMNR": 8, "CAT_ID": null, "CAT_DESC": null, "MSGID": "WTPZ23 KNHC 080841", "VALIDTIME": "2025-08-04 06:00:00" }, "geometry": { "type": "Point", "coordinates": [ -117.5, 13.4 ] } },
{ "type": "Feature", "properties": { "ID": 20681, "LAT": 13.9, "LON": -119.3, "VMAX": 30.0, "MSLP": 1006.0, "RMAX": 80.0, "FSPD": 4.65994, "FDIR": 311.48187, "RENV": 170.0, "PENV": 1010.0, "VALIDT": 0, "DTG": "2025-08-04 12:00", "LATNOW": 36.0, "LONNOW": -165.0, "WINDNOW": 35.0, "DIRNOW": 9.0, "SPDNOW": 2.0, "TECH": "TRAK", "ADVNR": 17, "ATCFID": "EP082025", "NAME": "HENRIETTE", "FTECH": "OFCL", "FCST_DTG": "2025-08-13 06:00:00", "RUN_DTG": "2025-08-13 21:15:25", "BASIN": "EP", "STMNR": 8, "CAT_ID": null, "CAT_DESC": null, "MSGID": "WTPZ23 KNHC 080841", "VALIDTIME": "2025-08-04 12:00:00" }, "geometry": { "type": "Point", "coordinates": [ -119.300003, 13.9 ] } },
{ "type": "Feature", "properties": { "ID": 20682, "LAT": 14.5, "LON": -120.0, "VMAX": 40.0, "MSLP": 1004.0, "RMAX": 40.0, "FSPD": 6.96955, "FDIR": 301.1106, "RENV": 170.0, "PENV": 1010.0, "VALIDT": 0, "DTG": "2025-08-04 18:00", "LATNOW": 36.0, "LONNOW": -165.0, "WINDNOW": 35.0, "DIRNOW": 9.0, "SPDNOW": 2.0, "TECH": "TRAK", "ADVNR": 17, "ATCFID": "EP082025", "NAME": "HENRIETTE", "FTECH": "OFCL", "FCST_DTG": "2025-08-13 06:00:00", "RUN_DTG": "2025-08-13 21:15:25", "BASIN": "EP", "STMNR": 8, "CAT_ID": null, "CAT_DESC": null, "MSGID": "WTPZ23 KNHC 080841", "VALIDTIME": "2025-08-04 18:00:00" }, "geometry": { "type": "Point", "coordinates": [ -120.0, 14.5 ] } },
{ "type": "Feature", "properties": { "ID": 20683, "LAT": 15.2, "LON": -121.2, "VMAX": 45.0, "MSLP": 1001.0, "RMAX": 50.0, "FSPD": 6.94037, "FDIR": 291.75366, "RENV": 250.0, "PENV": 1011.0, "VALIDT": 0, "DTG": "2025-08-05 00:00", "LATNOW": 36.0, "LONNOW": -165.0, "WINDNOW": 35.0, "DIRNOW": 9.0, "SPDNOW": 2.0, "TECH": "TRAK", "ADVNR": 17, "ATCFID": "EP082025", "NAME": "HENRIETTE", "FTECH": "OFCL", "FCST_DTG": "2025-08-13 06:00:00", "RUN_DTG": "2025-08-13 21:15:25", "BASIN": "EP", "STMNR": 8, "CAT_ID": null, "CAT_DESC": null, "MSGID": "WTPZ23 KNHC 080841", "VALIDTIME": "2025-08-05 00:00:00" }, "geometry": { "type": "Point", "coordinates": [ -121.199997, 15.2 ] } },
{ "type": "Feature", "properties": { "ID": 20684, "LAT": 15.7, "LON": -122.5, "VMAX": 45.0, "MSLP": 1003.0, "RMAX": 40.0, "FSPD": 6.46903, "FDIR": 293.42957, "RENV": 300.0, "PENV": 1014.0, "VALIDT": 0, "DTG": "2025-08-05 06:00", "LATNOW": 36.0, "LONNOW": -165.0, "WINDNOW": 35.0, "DIRNOW": 9.0, "SPDNOW": 2.0, "TECH": "TRAK", "ADVNR": 17, "ATCFID": "EP082025", "NAME": "HENRIETTE", "FTECH": "OFCL", "FCST_DTG": "2025-08-13 06:00:00", "RUN_DTG": "2025-08-13 21:15:25", "BASIN": "EP", "STMNR": 8, "CAT_ID": null, "CAT_DESC": null, "MSGID": "WTPZ23 KNHC 080841", "VALIDTIME": "2025-08-05 06:00:00" }, "geometry": { "type": "Point", "coordinates": [ -122.5, 15.7 ] } },
{ "type": "Feature", "properties": { "ID": 20685, "LAT": 16.2, "LON": -123.7, "VMAX": 45.0, "MSLP": 1003.0, "RMAX": 25.0, "FSPD": 6.6756, "FDIR": 297.5407, "RENV": 300.0, "PENV": 1014.0, "VALIDT": 0, "DTG": "2025-08-05 12:00", "LATNOW": 36.0, "LONNOW": -165.0, "WINDNOW": 35.0, "DIRNOW": 9.0, "SPDNOW": 2.0, "TECH": "TRAK", "ADVNR": 17, "ATCFID": "EP082025", "NAME": "HENRIETTE", "FTECH": "OFCL", "FCST_DTG": "2025-08-13 06:00:00", "RUN_DTG": "2025-08-13 21:15:25", "BASIN": "EP", "STMNR": 8, "CAT_ID": null, "CAT_DESC": null, "MSGID": "WTPZ23 KNHC 080841", "VALIDTIME": "2025-08-05 12:00:00" }, "geometry": { "type": "Point", "coordinates": [ -123.699997, 16.200001 ] } },
{ "type": "Feature", "properties": { "ID": 20686, "LAT": 16.8, "LON": -124.9, "VMAX": 45.0, "MSLP": 1003.0, "RMAX": 25.0, "FSPD": 7.09835, "FDIR": 295.7753, "RENV": 300.0, "PENV": 1014.0, "VALIDT": 0, "DTG": "2025-08-05 18:00", "LATNOW": 36.0, "LONNOW": -165.0, "WINDNOW": 35.0, "DIRNOW": 9.0, "SPDNOW": 2.0, "TECH": "TRAK", "ADVNR": 17, "ATCFID": "EP082025", "NAME": "HENRIETTE", "FTECH": "OFCL", "FCST_DTG": "2025-08-13 06:00:00", "RUN_DTG": "2025-08-13 21:15:25", "BASIN": "EP", "STMNR": 8, "CAT_ID": null, "CAT_DESC": null, "MSGID": "WTPZ23 KNHC 080841", "VALIDTIME": "2025-08-05 18:00:00" }, "geometry": { "type": "Point", "coordinates": [ -124.900002, 16.799999 ] } },
{ "type": "Feature", "properties": { "ID": 20687, "LAT": 17.4, "LON": -126.2, "VMAX": 45.0, "MSLP": 1003.0, "RMAX": 30.0, "FSPD": 6.08499, "FDIR": 284.69244, "RENV": 300.0, "PENV": 1013.0, "VALIDT": 0, "DTG": "2025-08-06 00:00", "LATNOW": 36.0, "LONNOW": -165.0, "WINDNOW": 35.0, "DIRNOW": 9.0, "SPDNOW": 2.0, "TECH": "TRAK", "ADVNR": 17, "ATCFID": "EP082025", "NAME": "HENRIETTE", "FTECH": "OFCL", "FCST_DTG": "2025-08-13 06:00:00", "RUN_DTG": "2025-08-13 21:15:25", "BASIN": "EP", "STMNR": 8, "CAT_ID": null, "CAT_DESC": null, "MSGID": "WTPZ23 KNHC 080841", "VALIDTIME": "2025-08-06 00:00:00" }, "geometry": { "type": "Point", "coordinates": [ -126.199997, 17.4 ] } },
{ "type": "Feature", "properties": { "ID": 20688, "LAT": 17.7, "LON": -127.4, "VMAX": 45.0, "MSLP": 1003.0, "RMAX": 30.0, "FSPD": 7.98543, "FDIR": 281.14355, "RENV": 250.0, "PENV": 1014.0, "VALIDT": 0, "DTG": "2025-08-06 06:00", "LATNOW": 36.0, "LONNOW": -165.0, "WINDNOW": 35.0, "DIRNOW": 9.0, "SPDNOW": 2.0, "TECH": "TRAK", "ADVNR": 17, "ATCFID": "EP082025", "NAME": "HENRIETTE", "FTECH": "OFCL", "FCST_DTG": "2025-08-13 06:00:00", "RUN_DTG": "2025-08-13 21:15:25", "BASIN": "EP", "STMNR": 8, "CAT_ID": null, "CAT_DESC": null, "MSGID": "WTPZ23 KNHC 080841", "VALIDTIME": "2025-08-06 06:00:00" }, "geometry": { "type": "Point", "coordinates": [ -127.400002, 17.700001 ] } },
{ "type": "Feature", "properties": { "ID": 20689, "LAT": 18.0, "LON": -129.0, "VMAX": 45.0, "MSLP": 1004.0, "RMAX": 30.0, "FSPD": 5.87117, "FDIR": 269.99997, "RENV": 200.0, "PENV": 1014.0, "VALIDT": 0, "DTG": "2025-08-06 12:00", "LATNOW": 36.0, "LONNOW": -165.0, "WINDNOW": 35.0, "DIRNOW": 9.0, "SPDNOW": 2.0, "TECH": "TRAK", "ADVNR": 17, "ATCFID": "EP082025", "NAME": "HENRIETTE", "FTECH": "OFCL", "FCST_DTG": "2025-08-13 06:00:00", "RUN_DTG": "2025-08-13 21:15:25", "BASIN": "EP", "STMNR": 8, "CAT_ID": null, "CAT_DESC": null, "MSGID": "WTPZ23 KNHC 080841", "VALIDTIME": "2025-08-06 12:00:00" }, "geometry": { "type": "Point", "coordinates": [ -129.0, 18.0 ] } },
{ "type": "Feature", "properties": { "ID": 20690, "LAT": 18.0, "LON": -130.2, "VMAX": 45.0, "MSLP": 1005.0, "RMAX": 30.0, "FSPD": 7.35492, "FDIR": 274.01086, "RENV": 130.0, "PENV": 1014.0, "VALIDT": 0, "DTG": "2025-08-06 18:00", "LATNOW": 36.0, "LONNOW": -165.0, "WINDNOW": 35.0, "DIRNOW": 9.0, "SPDNOW": 2.0, "TECH": "TRAK", "ADVNR": 17, "ATCFID": "EP082025", "NAME": "HENRIETTE", "FTECH": "OFCL", "FCST_DTG": "2025-08-13 06:00:00", "RUN_DTG": "2025-08-13 21:15:25", "BASIN": "EP", "STMNR": 8, "CAT_ID": null, "CAT_DESC": null, "MSGID": "WTPZ23 KNHC 080841", "VALIDTIME": "2025-08-06 18:00:00" }, "geometry": { "type": "Point", "coordinates": [ -130.199997, 18.0 ] } },
{ "type": "Feature", "properties": { "ID": 20691, "LAT": 18.1, "LON": -131.7, "VMAX": 45.0, "MSLP": 1004.0, "RMAX": 30.0, "FSPD": 7.40247, "FDIR": 277.9895, "RENV": 140.0, "PENV": 1013.0, "VALIDT": 0, "DTG": "2025-08-07 00:00", "LATNOW": 36.0, "LONNOW": -165.0, "WINDNOW": 35.0, "DIRNOW": 9.0, "SPDNOW": 2.0, "TECH": "TRAK", "ADVNR": 17, "ATCFID": "EP082025", "NAME": "HENRIETTE", "FTECH": "OFCL", "FCST_DTG": "2025-08-13 06:00:00", "RUN_DTG": "2025-08-13 21:15:25", "BASIN": "EP", "STMNR": 8, "CAT_ID": null, "CAT_DESC": null, "MSGID": "WTPZ23 KNHC 080841", "VALIDTIME": "2025-08-07 00:00:00" }, "geometry": { "type": "Point", "coordinates": [ -131.699997, 18.1 ] } },
{ "type": "Feature", "properties": { "ID": 20692, "LAT": 18.3, "LON": -133.2, "VMAX": 45.0, "MSLP": 1004.0, "RMAX": 30.0, "FSPD": 7.87781, "FDIR": 277.50464, "RENV": 150.0, "PENV": 1015.0, "VALIDT": 0, "DTG": "2025-08-07 06:00", "LATNOW": 36.0, "LONNOW": -165.0, "WINDNOW": 35.0, "DIRNOW": 9.0, "SPDNOW": 2.0, "TECH": "TRAK", "ADVNR": 17, "ATCFID": "EP082025", "NAME": "HENRIETTE", "FTECH": "OFCL", "FCST_DTG": "2025-08-13 06:00:00", "RUN_DTG": "2025-08-13 21:15:25", "BASIN": "EP", "STMNR": 8, "CAT_ID": null, "CAT_DESC": null, "MSGID": "WTPZ23 KNHC 080841", "VALIDTIME": "2025-08-07 06:00:00" }, "geometry": { "type": "Point", "coordinates": [ -133.199997, 18.299999 ] } },
{ "type": "Feature", "properties": { "ID": 20693, "LAT": 18.5, "LON": -134.8, "VMAX": 45.0, "MSLP": 1004.0, "RMAX": 30.0, "FSPD": 6.04934, "FDIR": 284.78088, "RENV": 120.0, "PENV": 1015.0, "VALIDT": 0, "DTG": "2025-08-07 12:00", "LATNOW": 36.0, "LONNOW": -165.0, "WINDNOW": 35.0, "DIRNOW": 9.0, "SPDNOW": 2.0, "TECH": "TRAK", "ADVNR": 17, "ATCFID": "EP082025", "NAME": "HENRIETTE", "FTECH": "OFCL", "FCST_DTG": "2025-08-13 06:00:00", "RUN_DTG": "2025-08-13 21:15:25", "BASIN": "EP", "STMNR": 8, "CAT_ID": null, "CAT_DESC": null, "MSGID": "WTPZ23 KNHC 080841", "VALIDTIME": "2025-08-07 12:00:00" }, "geometry": { "type": "Point", "coordinates": [ -134.800003, 18.5 ] } },
{ "type": "Feature", "properties": { "ID": 20694, "LAT": 18.8, "LON": -136.0, "VMAX": 45.0, "MSLP": 1004.0, "RMAX": 30.0, "FSPD": 7.85504, "FDIR": 277.5265, "RENV": 120.0, "PENV": 1014.0, "VALIDT": 0, "DTG": "2025-08-07 18:00", "LATNOW": 36.0, "LONNOW": -165.0, "WINDNOW": 35.0, "DIRNOW": 9.0, "SPDNOW": 2.0, "TECH": "TRAK", "ADVNR": 17, "ATCFID": "EP082025", "NAME": "HENRIETTE", "FTECH": "OFCL", "FCST_DTG": "2025-08-13 06:00:00", "RUN_DTG": "2025-08-13 21:15:25", "BASIN": "EP", "STMNR": 8, "CAT_ID": null, "CAT_DESC": null, "MSGID": "WTPZ23 KNHC 080841", "VALIDTIME": "2025-08-07 18:00:00" }, "geometry": { "type": "Point", "coordinates": [ -136.0, 18.799999 ] } },
{ "type": "Feature", "properties": { "ID": 20695, "LAT": 19.0, "LON": -137.6, "VMAX": 35.0, "MSLP": 1007.0, "RMAX": 30.0, "FSPD": 8.28257, "FDIR": 273.56104, "RENV": 100.0, "PENV": 1013.0, "VALIDT": 0, "DTG": "2025-08-08 00:00", "LATNOW": 36.0, "LONNOW": -165.0, "WINDNOW": 35.0, "DIRNOW": 9.0, "SPDNOW": 2.0, "TECH": "TRAK", "ADVNR": 17, "ATCFID": "EP082025", "NAME": "HENRIETTE", "FTECH": "OFCL", "FCST_DTG": "2025-08-13 06:00:00", "RUN_DTG": "2025-08-13 21:15:25", "BASIN": "EP", "STMNR": 8, "CAT_ID": null, "CAT_DESC": null, "MSGID": "WTPZ23 KNHC 080841", "VALIDTIME": "2025-08-08 00:00:00" }, "geometry": { "type": "Point", "coordinates": [ -137.600006, 19.0 ] } },
{ "type": "Feature", "properties": { "ID": 20696, "LAT": 19.1, "LON": -139.3, "VMAX": 35.0, "MSLP": 1008.0, "RMAX": 30.0, "FSPD": 7.56812, "FDIR": 285.77734, "RENV": 100.0, "PENV": 1014.0, "VALIDT": 0, "DTG": "2025-08-08 06:00", "LATNOW": 36.0, "LONNOW": -165.0, "WINDNOW": 35.0, "DIRNOW": 9.0, "SPDNOW": 2.0, "TECH": "TRAK", "ADVNR": 17, "ATCFID": "EP082025", "NAME": "HENRIETTE", "FTECH": "OFCL", "FCST_DTG": "2025-08-13 06:00:00", "RUN_DTG": "2025-08-13 21:15:25", "BASIN": "EP", "STMNR": 8, "CAT_ID": null, "CAT_DESC": null, "MSGID": "WTPZ23 KNHC 080841", "VALIDTIME": "2025-08-08 06:00:00" }, "geometry": { "type": "Point", "coordinates": [ -139.300003, 19.1 ] } },
{ "type": "Feature", "properties": { "ID": 20697, "LAT": 19.5, "LON": -140.8, "VMAX": 35.0, "MSLP": 1008.0, "RMAX": 30.0, "FSPD": 7.42935, "FDIR": 281.98956, "RENV": 100.0, "PENV": 1013.0, "VALIDT": 0, "DTG": "2025-08-08 12:00", "LATNOW": 36.0, "LONNOW": -165.0, "WINDNOW": 35.0, "DIRNOW": 9.0, "SPDNOW": 2.0, "TECH": "TRAK", "ADVNR": 17, "ATCFID": "EP082025", "NAME": "HENRIETTE", "FTECH": "OFCL", "FCST_DTG": "2025-08-13 06:00:00", "RUN_DTG": "2025-08-13 21:15:25", "BASIN": "EP", "STMNR": 8, "CAT_ID": null, "CAT_DESC": null, "MSGID": "WTPZ23 KNHC 080841", "VALIDTIME": "2025-08-08 12:00:00" }, "geometry": { "type": "Point", "coordinates": [ -140.800003, 19.5 ] } },
{ "type": "Feature", "properties": { "ID": 20698, "LAT": 19.8, "LON": -142.3, "VMAX": 30.0, "MSLP": 1009.0, "RMAX": 30.0, "FSPD": 7.80766, "FDIR": 277.57245, "RENV": 100.0, "PENV": 1013.0, "VALIDT": 0, "DTG": "2025-08-08 18:00", "LATNOW": 36.0, "LONNOW": -165.0, "WINDNOW": 35.0, "DIRNOW": 9.0, "SPDNOW": 2.0, "TECH": "TRAK", "ADVNR": 17, "ATCFID": "EP082025", "NAME": "HENRIETTE", "FTECH": "OFCL", "FCST_DTG": "2025-08-13 06:00:00", "RUN_DTG": "2025-08-13 21:15:25", "BASIN": "EP", "STMNR": 8, "CAT_ID": null, "CAT_DESC": null, "MSGID": "WTPZ23 KNHC 080841", "VALIDTIME": "2025-08-08 18:00:00" }, "geometry": { "type": "Point", "coordinates": [ -142.300003, 19.799999 ] } },
{ "type": "Feature", "properties": { "ID": 20699, "LAT": 20.0, "LON": -143.9, "VMAX": 30.0, "MSLP": 1009.0, "RMAX": 30.0, "FSPD": 6.14827, "FDIR": 289.55377, "RENV": 100.0, "PENV": 1013.0, "VALIDT": 0, "DTG": "2025-08-09 00:00", "LATNOW": 36.0, "LONNOW": -165.0, "WINDNOW": 35.0, "DIRNOW": 9.0, "SPDNOW": 2.0, "TECH": "TRAK", "ADVNR": 17, "ATCFID": "EP082025", "NAME": "HENRIETTE", "FTECH": "OFCL", "FCST_DTG": "2025-08-13 06:00:00", "RUN_DTG": "2025-08-13 21:15:25", "BASIN": "EP", "STMNR": 8, "CAT_ID": null, "CAT_DESC": null, "MSGID": "WTPZ23 KNHC 080841", "VALIDTIME": "2025-08-09 00:00:00" }, "geometry": { "type": "Point", "coordinates": [ -143.899994, 20.0 ] } },
{ "type": "Feature", "properties": { "ID": 20700, "LAT": 20.4, "LON": -145.1, "VMAX": 30.0, "MSLP": 1009.0, "RMAX": 30.0, "FSPD": 6.40086, "FDIR": 304.2357, "RENV": 100.0, "PENV": 1013.0, "VALIDT": 0, "DTG": "2025-08-09 06:00", "LATNOW": 36.0, "LONNOW": -165.0, "WINDNOW": 35.0, "DIRNOW": 9.0, "SPDNOW": 2.0, "TECH": "TRAK", "ADVNR": 17, "ATCFID": "EP082025", "NAME": "HENRIETTE", "FTECH": "OFCL", "FCST_DTG": "2025-08-13 06:00:00", "RUN_DTG": "2025-08-13 21:15:25", "BASIN": "EP", "STMNR": 8, "CAT_ID": null, "CAT_DESC": null, "MSGID": "WTPZ23 KNHC 080841", "VALIDTIME": "2025-08-09 06:00:00" }, "geometry": { "type": "Point", "coordinates": [ -145.100006, 20.4 ] } },
{ "type": "Feature", "properties": { "ID": 20701, "LAT": 21.1, "LON": -146.2, "VMAX": 30.0, "MSLP": 1009.0, "RMAX": 50.0, "FSPD": 7.86402, "FDIR": 301.55652, "RENV": 90.0, "PENV": 1013.0, "VALIDT": 0, "DTG": "2025-08-09 12:00", "LATNOW": 36.0, "LONNOW": -165.0, "WINDNOW": 35.0, "DIRNOW": 9.0, "SPDNOW": 2.0, "TECH": "TRAK", "ADVNR": 17, "ATCFID": "EP082025", "NAME": "HENRIETTE", "FTECH": "OFCL", "FCST_DTG": "2025-08-13 06:00:00", "RUN_DTG": "2025-08-13 21:15:25", "BASIN": "EP", "STMNR": 8, "CAT_ID": null, "CAT_DESC": null, "MSGID": "WTPZ23 KNHC 080841", "VALIDTIME": "2025-08-09 12:00:00" }, "geometry": { "type": "Point", "coordinates": [ -146.199997, 21.1 ] } },
{ "type": "Feature", "properties": { "ID": 20702, "LAT": 21.9, "LON": -147.6, "VMAX": 35.0, "MSLP": 1008.0, "RMAX": 40.0, "FSPD": 5.96983, "FDIR": 307.10077, "RENV": 90.0, "PENV": 1013.0, "VALIDT": 0, "DTG": "2025-08-09 18:00", "LATNOW": 36.0, "LONNOW": -165.0, "WINDNOW": 35.0, "DIRNOW": 9.0, "SPDNOW": 2.0, "TECH": "TRAK", "ADVNR": 17, "ATCFID": "EP082025", "NAME": "HENRIETTE", "FTECH": "OFCL", "FCST_DTG": "2025-08-13 06:00:00", "RUN_DTG": "2025-08-13 21:15:25", "BASIN": "EP", "STMNR": 8, "CAT_ID": null, "CAT_DESC": null, "MSGID": "WTPZ23 KNHC 080841", "VALIDTIME": "2025-08-09 18:00:00" }, "geometry": { "type": "Point", "coordinates": [ -147.600006, 21.9 ] } },
{ "type": "Feature", "properties": { "ID": 20703, "LAT": 22.6, "LON": -148.6, "VMAX": 35.0, "MSLP": 1006.0, "RMAX": 30.0, "FSPD": 7.01636, "FDIR": 305.91357, "RENV": 90.0, "PENV": 1012.0, "VALIDT": 0, "DTG": "2025-08-10 00:00", "LATNOW": 36.0, "LONNOW": -165.0, "WINDNOW": 35.0, "DIRNOW": 9.0, "SPDNOW": 2.0, "TECH": "TRAK", "ADVNR": 17, "ATCFID": "EP082025", "NAME": "HENRIETTE", "FTECH": "OFCL", "FCST_DTG": "2025-08-13 06:00:00", "RUN_DTG": "2025-08-13 21:15:25", "BASIN": "EP", "STMNR": 8, "CAT_ID": null, "CAT_DESC": null, "MSGID": "WTPZ23 KNHC 080841", "VALIDTIME": "2025-08-10 00:00:00" }, "geometry": { "type": "Point", "coordinates": [ -148.600006, 22.6 ] } },
{ "type": "Feature", "properties": { "ID": 20704, "LAT": 23.4, "LON": -149.8, "VMAX": 35.0, "MSLP": 1006.0, "RMAX": 30.0, "FSPD": 6.61404, "FDIR": 308.48035, "RENV": 90.0, "PENV": 1012.0, "VALIDT": 0, "DTG": "2025-08-10 06:00", "LATNOW": 36.0, "LONNOW": -165.0, "WINDNOW": 35.0, "DIRNOW": 9.0, "SPDNOW": 2.0, "TECH": "TRAK", "ADVNR": 17, "ATCFID": "EP082025", "NAME": "HENRIETTE", "FTECH": "OFCL", "FCST_DTG": "2025-08-13 06:00:00", "RUN_DTG": "2025-08-13 21:15:25", "BASIN": "EP", "STMNR": 8, "CAT_ID": null, "CAT_DESC": null, "MSGID": "WTPZ23 KNHC 080841", "VALIDTIME": "2025-08-10 06:00:00" }, "geometry": { "type": "Point", "coordinates": [ -149.800003, 23.4 ] } },
{ "type": "Feature", "properties": { "ID": 20705, "LAT": 24.2, "LON": -150.9, "VMAX": 45.0, "MSLP": 1002.0, "RMAX": 30.0, "FSPD": 6.9505, "FDIR": 317.74457, "RENV": 90.0, "PENV": 1013.0, "VALIDT": 0, "DTG": "2025-08-10 12:00", "LATNOW": 36.0, "LONNOW": -165.0, "WINDNOW": 35.0, "DIRNOW": 9.0, "SPDNOW": 2.0, "TECH": "TRAK", "ADVNR": 17, "ATCFID": "EP082025", "NAME": "HENRIETTE", "FTECH": "OFCL", "FCST_DTG": "2025-08-13 06:00:00", "RUN_DTG": "2025-08-13 21:15:25", "BASIN": "EP", "STMNR": 8, "CAT_ID": null, "CAT_DESC": null, "MSGID": "WTPZ23 KNHC 080841", "VALIDTIME": "2025-08-10 12:00:00" }, "geometry": { "type": "Point", "coordinates": [ -150.899994, 24.200001 ] } },
{ "type": "Feature", "properties": { "ID": 20706, "LAT": 25.2, "LON": -151.9, "VMAX": 65.0, "MSLP": 993.0, "RMAX": 15.0, "FSPD": 7.92342, "FDIR": 310.4866, "RENV": 90.0, "PENV": 1014.0, "VALIDT": 0, "DTG": "2025-08-10 18:00", "LATNOW": 36.0, "LONNOW": -165.0, "WINDNOW": 35.0, "DIRNOW": 9.0, "SPDNOW": 2.0, "TECH": "TRAK", "ADVNR": 17, "ATCFID": "EP082025", "NAME": "HENRIETTE", "FTECH": "OFCL", "FCST_DTG": "2025-08-13 06:00:00", "RUN_DTG": "2025-08-13 21:15:25", "BASIN": "EP", "STMNR": 8, "CAT_ID": null, "CAT_DESC": null, "MSGID": "WTPZ23 KNHC 080841", "VALIDTIME": "2025-08-10 18:00:00" }, "geometry": { "type": "Point", "coordinates": [ -151.899994, 25.200001 ] } },
{ "type": "Feature", "properties": { "ID": 20707, "LAT": 26.2, "LON": -153.2, "VMAX": 70.0, "MSLP": 990.0, "RMAX": 10.0, "FSPD": 7.54197, "FDIR": 313.00867, "RENV": 100.0, "PENV": 1014.0, "VALIDT": 0, "DTG": "2025-08-11 00:00", "LATNOW": 36.0, "LONNOW": -165.0, "WINDNOW": 35.0, "DIRNOW": 9.0, "SPDNOW": 2.0, "TECH": "TRAK", "ADVNR": 17, "ATCFID": "EP082025", "NAME": "HENRIETTE", "FTECH": "OFCL", "FCST_DTG": "2025-08-13 06:00:00", "RUN_DTG": "2025-08-13 21:15:25", "BASIN": "EP", "STMNR": 8, "CAT_ID": null, "CAT_DESC": null, "MSGID": "WTPZ23 KNHC 080841", "VALIDTIME": "2025-08-11 00:00:00" }, "geometry": { "type": "Point", "coordinates": [ -153.199997, 26.200001 ] } },
{ "type": "Feature", "properties": { "ID": 20708, "LAT": 27.2, "LON": -154.4, "VMAX": 70.0, "MSLP": 990.0, "RMAX": 10.0, "FSPD": 8.52348, "FDIR": 311.59924, "RENV": 120.0, "PENV": 1015.0, "VALIDT": 0, "DTG": "2025-08-11 06:00", "LATNOW": 36.0, "LONNOW": -165.0, "WINDNOW": 35.0, "DIRNOW": 9.0, "SPDNOW": 2.0, "TECH": "TRAK", "ADVNR": 17, "ATCFID": "EP082025", "NAME": "HENRIETTE", "FTECH": "OFCL", "FCST_DTG": "2025-08-13 06:00:00", "RUN_DTG": "2025-08-13 21:15:25", "BASIN": "EP", "STMNR": 8, "CAT_ID": null, "CAT_DESC": null, "MSGID": "WTPZ23 KNHC 080841", "VALIDTIME": "2025-08-11 06:00:00" }, "geometry": { "type": "Point", "coordinates": [ -154.399994, 27.200001 ] } },
{ "type": "Feature", "properties": { "ID": 20709, "LAT": 28.3, "LON": -155.8, "VMAX": 70.0, "MSLP": 990.0, "RMAX": 10.0, "FSPD": 8.14237, "FDIR": 309.1839, "RENV": 120.0, "PENV": 1015.0, "VALIDT": 0, "DTG": "2025-08-11 12:00", "LATNOW": 36.0, "LONNOW": -165.0, "WINDNOW": 35.0, "DIRNOW": 9.0, "SPDNOW": 2.0, "TECH": "TRAK", "ADVNR": 17, "ATCFID": "EP082025", "NAME": "HENRIETTE", "FTECH": "OFCL", "FCST_DTG": "2025-08-13 06:00:00", "RUN_DTG": "2025-08-13 21:15:25", "BASIN": "EP", "STMNR": 8, "CAT_ID": null, "CAT_DESC": null, "MSGID": "WTPZ23 KNHC 080841", "VALIDTIME": "2025-08-11 12:00:00" }, "geometry": { "type": "Point", "coordinates": [ -155.800003, 28.299999 ] } },
{ "type": "Feature", "properties": { "ID": 20710, "LAT": 29.3, "LON": -157.2, "VMAX": 75.0, "MSLP": 986.0, "RMAX": 10.0, "FSPD": 7.42716, "FDIR": 313.84048, "RENV": 90.0, "PENV": 1015.0, "VALIDT": 0, "DTG": "2025-08-11 18:00", "LATNOW": 36.0, "LONNOW": -165.0, "WINDNOW": 35.0, "DIRNOW": 9.0, "SPDNOW": 2.0, "TECH": "TRAK", "ADVNR": 17, "ATCFID": "EP082025", "NAME": "HENRIETTE", "FTECH": "OFCL", "FCST_DTG": "2025-08-13 06:00:00", "RUN_DTG": "2025-08-13 21:15:25", "BASIN": "EP", "STMNR": 8, "CAT_ID": null, "CAT_DESC": null, "MSGID": "WTPZ23 KNHC 080841", "VALIDTIME": "2025-08-11 18:00:00" }, "geometry": { "type": "Point", "coordinates": [ -157.199997, 29.299999 ] } },
{ "type": "Feature", "properties": { "ID": 20711, "LAT": 30.3, "LON": -158.4, "VMAX": 70.0, "MSLP": 987.0, "RMAX": 10.0, "FSPD": 6.71482, "FDIR": 313.5922, "RENV": 90.0, "PENV": 1015.0, "VALIDT": 0, "DTG": "2025-08-12 00:00", "LATNOW": 36.0, "LONNOW": -165.0, "WINDNOW": 35.0, "DIRNOW": 9.0, "SPDNOW": 2.0, "TECH": "TRAK", "ADVNR": 17, "ATCFID": "EP082025", "NAME": "HENRIETTE", "FTECH": "OFCL", "FCST_DTG": "2025-08-13 06:00:00", "RUN_DTG": "2025-08-13 21:15:25", "BASIN": "EP", "STMNR": 8, "CAT_ID": null, "CAT_DESC": null, "MSGID": "WTPZ23 KNHC 080841", "VALIDTIME": "2025-08-12 00:00:00" }, "geometry": { "type": "Point", "coordinates": [ -158.399994, 30.299999 ] } },
{ "type": "Feature", "properties": { "ID": 20712, "LAT": 31.2, "LON": -159.5, "VMAX": 65.0, "MSLP": 990.0, "RMAX": 10.0, "FSPD": 8.66494, "FDIR": 310.77402, "RENV": 90.0, "PENV": 1015.0, "VALIDT": 0, "DTG": "2025-08-12 06:00", "LATNOW": 36.0, "LONNOW": -165.0, "WINDNOW": 35.0, "DIRNOW": 9.0, "SPDNOW": 2.0, "TECH": "TRAK", "ADVNR": 17, "ATCFID": "EP082025", "NAME": "HENRIETTE", "FTECH": "OFCL", "FCST_DTG": "2025-08-13 06:00:00", "RUN_DTG": "2025-08-13 21:15:25", "BASIN": "EP", "STMNR": 8, "CAT_ID": null, "CAT_DESC": null, "MSGID": "WTPZ23 KNHC 080841", "VALIDTIME": "2025-08-12 06:00:00" }, "geometry": { "type": "Point", "coordinates": [ -159.5, 31.200001 ] } },
{ "type": "Feature", "properties": { "ID": 20713, "LAT": 32.3, "LON": -161.0, "VMAX": 60.0, "MSLP": 994.0, "RMAX": 10.0, "FSPD": 8.73048, "FDIR": 319.99835, "RENV": 80.0, "PENV": 1017.0, "VALIDT": 0, "DTG": "2025-08-12 12:00", "LATNOW": 36.0, "LONNOW": -165.0, "WINDNOW": 35.0, "DIRNOW": 9.0, "SPDNOW": 2.0, "TECH": "TRAK", "ADVNR": 17, "ATCFID": "EP082025", "NAME": "HENRIETTE", "FTECH": "OFCL", "FCST_DTG": "2025-08-13 06:00:00", "RUN_DTG": "2025-08-13 21:15:25", "BASIN": "EP", "STMNR": 8, "CAT_ID": null, "CAT_DESC": null, "MSGID": "WTPZ23 KNHC 080841", "VALIDTIME": "2025-08-12 12:00:00" }, "geometry": { "type": "Point", "coordinates": [ -161.0, 32.299999 ] } },
{ "type": "Feature", "properties": { "ID": 20714, "LAT": 33.6, "LON": -162.3, "VMAX": 55.0, "MSLP": 999.0, "RMAX": 10.0, "FSPD": 8.2188, "FDIR": 313.51398, "RENV": 80.0, "PENV": 1017.0, "VALIDT": 0, "DTG": "2025-08-12 18:00", "LATNOW": 36.0, "LONNOW": -165.0, "WINDNOW": 35.0, "DIRNOW": 9.0, "SPDNOW": 2.0, "TECH": "TRAK", "ADVNR": 17, "ATCFID": "EP082025", "NAME": "HENRIETTE", "FTECH": "OFCL", "FCST_DTG": "2025-08-13 06:00:00", "RUN_DTG": "2025-08-13 21:15:25", "BASIN": "EP", "STMNR": 8, "CAT_ID": null, "CAT_DESC": null, "MSGID": "WTPZ23 KNHC 080841", "VALIDTIME": "2025-08-12 18:00:00" }, "geometry": { "type": "Point", "coordinates": [ -162.300003, 33.599998 ] } },
{ "type": "Feature", "properties": { "ID": 20715, "LAT": 34.7, "LON": -163.7, "VMAX": 50.0, "MSLP": 1001.0, "RMAX": 10.0, "FSPD": 8.63024, "FDIR": 320.7981, "RENV": 100.0, "PENV": 1019.0, "VALIDT": 0, "DTG": "2025-08-13 00:00", "LATNOW": 36.0, "LONNOW": -165.0, "WINDNOW": 35.0, "DIRNOW": 9.0, "SPDNOW": 2.0, "TECH": "TRAK", "ADVNR": 17, "ATCFID": "EP082025", "NAME": "HENRIETTE", "FTECH": "OFCL", "FCST_DTG": "2025-08-13 06:00:00", "RUN_DTG": "2025-08-13 21:15:25", "BASIN": "EP", "STMNR": 8, "CAT_ID": null, "CAT_DESC": null, "MSGID": "WTPZ23 KNHC 080841", "VALIDTIME": "2025-08-13 00:00:00" }, "geometry": { "type": "Point", "coordinates": [ -163.699997, 34.700001 ] } },
{ "type": "Feature", "properties": { "ID": 20716, "LAT": 36.0, "LON": -165.0, "VMAX": 35.0, "MSLP": 1010.0, "RMAX": 20.0, "FSPD": 8.75181, "FDIR": 325.38037, "RENV": 100.0, "PENV": 1020.0, "VALIDT": 0, "DTG": "2025-08-13 06:00", "LATNOW": 36.0, "LONNOW": -165.0, "WINDNOW": 35.0, "DIRNOW": 9.0, "SPDNOW": 2.0, "TECH": "TRAK", "ADVNR": 17, "ATCFID": "EP082025", "NAME": "HENRIETTE", "FTECH": "OFCL", "FCST_DTG": "2025-08-13 06:00:00", "RUN_DTG": "2025-08-13 21:15:25", "BASIN": "EP", "STMNR": 8, "CAT_ID": null, "CAT_DESC": null, "MSGID": "WTPZ23 KNHC 080841", "VALIDTIME": "2025-08-13 06:00:00" }, "geometry": { "type": "Point", "coordinates": [ -165.0, 36.0 ] } },
{ "type": "Feature", "properties": { "ID": 20717, "LAT": 36.7, "LON": -165.6, "VMAX": 40.0, "MSLP": 1008.0, "RMAX": 19.22134, "FSPD": 8.14568, "FDIR": 323.1271, "RENV": 180.0, "PENV": 1012.0, "VALIDT": 3, "DTG": "2025-08-13 09:00", "LATNOW": 36.0, "LONNOW": -165.0, "WINDNOW": 35.0, "DIRNOW": 9.0, "SPDNOW": 2.0, "TECH": "FCST", "ADVNR": 17, "ATCFID": "EP082025", "NAME": "HENRIETTE", "FTECH": "OFCL", "FCST_DTG": "2025-08-13 06:00:00", "RUN_DTG": "2025-08-13 21:15:25", "BASIN": "EP", "STMNR": 8, "CAT_ID": null, "CAT_DESC": null, "MSGID": "WTPZ23 KNHC 080841", "VALIDTIME": "2025-08-13 09:00:00" }, "geometry": { "type": "Point", "coordinates": [ -165.600006, 36.700001 ] } },
{ "type": "Feature", "properties": { "ID": 20718, "LAT": 38.6, "LON": -167.4, "VMAX": 30.0, "MSLP": 1010.40607, "RMAX": 20.18768, "FSPD": 6.54489, "FDIR": 340.6012, "RENV": 250.0, "PENV": 1012.0, "VALIDT": 12, "DTG": "2025-08-13 18:00", "LATNOW": 36.0, "LONNOW": -165.0, "WINDNOW": 35.0, "DIRNOW": 9.0, "SPDNOW": 2.0, "TECH": "FCST", "ADVNR": 17, "ATCFID": "EP082025", "NAME": "HENRIETTE", "FTECH": "OFCL", "FCST_DTG": "2025-08-13 06:00:00", "RUN_DTG": "2025-08-13 21:15:25", "BASIN": "EP", "STMNR": 8, "CAT_ID": null, "CAT_DESC": null, "MSGID": "WTPZ23 KNHC 080841", "VALIDTIME": "2025-08-13 18:00:00" }, "geometry": { "type": "Point", "coordinates": [ -167.399994, 38.599998 ] } },
{ "type": "Feature", "properties": { "ID": 20719, "LAT": 41.0, "LON": -168.5, "VMAX": 25.0, "MSLP": 1011.80975, "RMAX": 20.54385, "FSPD": 5.71015, "FDIR": 7.68295, "RENV": 250.0, "PENV": 1012.0, "VALIDT": 24, "DTG": "2025-08-14 06:00", "LATNOW": 36.0, "LONNOW": -165.0, "WINDNOW": 35.0, "DIRNOW": 9.0, "SPDNOW": 2.0, "TECH": "FCST", "ADVNR": 17, "ATCFID": "EP082025", "NAME": "HENRIETTE", "FTECH": "OFCL", "FCST_DTG": "2025-08-13 06:00:00", "RUN_DTG": "2025-08-13 21:15:25", "BASIN": "EP", "STMNR": 8, "CAT_ID": null, "CAT_DESC": null, "MSGID": "WTPZ23 KNHC 080841", "VALIDTIME": "2025-08-14 06:00:00" }, "geometry": { "type": "Point", "coordinates": [ -168.5, 41.0 ] } },
{ "type": "Feature", "properties": { "ID": 20720, "LAT": 43.2, "LON": -168.1, "VMAX": 20.0, "MSLP": 1012.95825, "RMAX": 20.54385, "FSPD": 2.87494, "FDIR": 57.5325, "RENV": 250.0, "PENV": 1012.0, "VALIDT": 36, "DTG": "2025-08-14 18:00", "LATNOW": 36.0, "LONNOW": -165.0, "WINDNOW": 35.0, "DIRNOW": 9.0, "SPDNOW": 2.0, "TECH": "FCST", "ADVNR": 17, "ATCFID": "EP082025", "NAME": "HENRIETTE", "FTECH": "OFCL", "FCST_DTG": "2025-08-13 06:00:00", "RUN_DTG": "2025-08-13 21:15:25", "BASIN": "EP", "STMNR": 8, "CAT_ID": null, "CAT_DESC": null, "MSGID": "WTPZ23 KNHC 080841", "VALIDTIME": "2025-08-14 18:00:00" }, "geometry": { "type": "Point", "coordinates": [ -168.100006, 43.200001 ] } },
{ "type": "Feature", "properties": { "ID": 20721, "LAT": 43.8, "LON": -166.8, "VMAX": 15.0, "MSLP": 1013.8515, "RMAX": 18.2612, "FSPD": 2.87494, "FDIR": 57.5325, "RENV": 250.0, "PENV": 1012.0, "VALIDT": 48, "DTG": "2025-08-15 06:00", "LATNOW": 36.0, "LONNOW": -165.0, "WINDNOW": 35.0, "DIRNOW": 9.0, "SPDNOW": 2.0, "TECH": "FCST", "ADVNR": 17, "ATCFID": "EP082025", "NAME": "HENRIETTE", "FTECH": "OFCL", "FCST_DTG": "2025-08-13 06:00:00", "RUN_DTG": "2025-08-13 21:15:25", "BASIN": "EP", "STMNR": 8, "CAT_ID": null, "CAT_DESC": null, "MSGID": "WTPZ23 KNHC 080841", "VALIDTIME": "2025-08-15 06:00:00" }, "geometry": { "type": "Point", "coordinates": [ -166.800003, 43.799999 ] } },
{ "type": "Feature", "properties": { "ID": 20716, "LAT": 36.0, "LON": -165.0, "VMAX": 35.0, "MSLP": 1010.0, "RMAX": 20.0, "FSPD": 8.75181, "FDIR": 325.38037, "RENV": 100.0, "PENV": 1020.0, "VALIDT": 0, "DTG": "2025-08-13 06:00", "LATNOW": 36.0, "LONNOW": -165.0, "WINDNOW": 35.0, "DIRNOW": 9.0, "SPDNOW": 2.0, "TECH": "TRAK", "ADVNR": 17, "ATCFID": "EP082025", "NAME": "HENRIETTE", "FTECH": "OFCL", "FCST_DTG": "2025-08-13 06:00:00", "RUN_DTG": "2025-08-13 21:15:25", "BASIN": "EP", "STMNR": 8, "CAT_ID": null, "CAT_DESC": null, "MSGID": "WTPZ23 KNHC 080841", "VALIDTIME": "2025-08-13 06:00:00" }, "geometry": { "type": "LineString", "coordinates": [ [ -109.8, 12.0 ], [ -112.8, 11.0 ], [ -113.9, 11.4 ], [ -114.5, 11.9 ], [ -115.3, 12.1 ], [ -116.4, 12.4 ], [ -117.5, 13.4 ], [ -119.3, 13.9 ], [ -120.0, 14.5 ], [ -121.2, 15.2 ], [ -122.5, 15.7 ], [ -123.7, 16.2 ], [ -124.9, 16.8 ], [ -126.2, 17.4 ], [ -127.4, 17.7 ], [ -129.0, 18.0 ], [ -130.2, 18.0 ], [ -131.7, 18.1 ], [ -133.2, 18.3 ], [ -134.8, 18.5 ], [ -136.0, 18.8 ], [ -137.6, 19.0 ], [ -139.3, 19.1 ], [ -140.8, 19.5 ], [ -142.3, 19.8 ], [ -143.9, 20.0 ], [ -145.1, 20.4 ], [ -146.2, 21.1 ], [ -147.6, 21.9 ], [ -148.6, 22.6 ], [ -149.8, 23.4 ], [ -150.9, 24.2 ], [ -151.9, 25.2 ], [ -153.2, 26.2 ], [ -154.4, 27.2 ], [ -155.8, 28.3 ], [ -157.2, 29.3 ], [ -158.4, 30.3 ], [ -159.5, 31.2 ], [ -161.0, 32.3 ], [ -162.3, 33.6 ], [ -163.7, 34.7 ], [ -165.0, 36.0 ] ] } },
{ "type": "Feature", "properties": { "ID": 20721, "LAT": 43.8, "LON": -166.8, "VMAX": 15.0, "MSLP": 1013.8515, "RMAX": 18.2612, "FSPD": 2.87494, "FDIR": 57.5325, "RENV": 250.0, "PENV": 1012.0, "VALIDT": 48, "DTG": "2025-08-15 06:00", "LATNOW": 36.0, "LONNOW": -165.0, "WINDNOW": 35.0, "DIRNOW": 9.0, "SPDNOW": 2.0, "TECH": "FCST", "ADVNR": 17, "ATCFID": "EP082025", "NAME": "HENRIETTE", "FTECH": "OFCL", "FCST_DTG": "2025-08-13 06:00:00", "RUN_DTG": "2025-08-13 21:15:25", "BASIN": "EP", "STMNR": 8, "CAT_ID": null, "CAT_DESC": null, "MSGID": "WTPZ23 KNHC 080841", "VALIDTIME": "2025-08-15 06:00:00" }, "geometry": { "type": "LineString", "coordinates": [ [ -165.0, 36.0 ], [ -165.6, 36.7 ], [ -167.4, 38.6 ], [ -168.5, 41.0 ], [ -168.1, 43.2 ], [ -166.8, 43.8 ] ] } }
]
}
