{
"type": "FeatureCollection",
"crs": { "type": "name", "properties": { "name": "urn:ogc:def:crs:OGC:1.3:CRS84" } },
"features": [
{ "type": "Feature", "properties": { "ID": 97449, "LAT": 7.3, "LON": 133.0, "VMAX": 15.0, "MSLP": 1013.8515, "RMAX": 40.0, "FSPD": 1.84419, "FDIR": 303.9113, "RENV": 500.0, "PENV": 1012.0, "VALIDT": 0, "DTG": "2026-01-13 12:00", "LATNOW": 17.1, "LONNOW": 133.0, "WINDNOW": 30.0, "DIRNOW": 5.0, "SPDNOW": 5.0, "TECH": "TRAK", "ADVNR": 25, "ATCFID": "WP012026", "NAME": "NOKAEN", "FTECH": "JTWC", "FCST_DTG": "2026-01-20 18:00:00", "RUN_DTG": "2026-01-21 08:24:16", "BASIN": "WP", "STMNR": 1, "CAT_ID": null, "CAT_DESC": null, "MSGID": "WTPN51 PGTW 202100", "VALIDTIME": "2026-01-13 12:00:00" }, "geometry": { "type": "Point", "coordinates": [ 133.0, 7.3 ] } },
{ "type": "Feature", "properties": { "ID": 97450, "LAT": 7.5, "LON": 132.7, "VMAX": 20.0, "MSLP": 1012.95825, "RMAX": 45.0, "FSPD": 5.52895, "FDIR": 303.93646, "RENV": 500.0, "PENV": 1012.0, "VALIDT": 0, "DTG": "2026-01-13 18:00", "LATNOW": 17.1, "LONNOW": 133.0, "WINDNOW": 30.0, "DIRNOW": 5.0, "SPDNOW": 5.0, "TECH": "TRAK", "ADVNR": 25, "ATCFID": "WP012026", "NAME": "NOKAEN", "FTECH": "JTWC", "FCST_DTG": "2026-01-20 18:00:00", "RUN_DTG": "2026-01-21 08:24:16", "BASIN": "WP", "STMNR": 1, "CAT_ID": null, "CAT_DESC": null, "MSGID": "WTPN51 PGTW 202100", "VALIDTIME": "2026-01-13 18:00:00" }, "geometry": { "type": "Point", "coordinates": [ 132.699997, 7.5 ] } },
{ "type": "Feature", "properties": { "ID": 97451, "LAT": 8.1, "LON": 131.8, "VMAX": 20.0, "MSLP": 1012.95825, "RMAX": 45.0, "FSPD": 4.71367, "FDIR": 310.90698, "RENV": 500.0, "PENV": 1012.0, "VALIDT": 0, "DTG": "2026-01-14 00:00", "LATNOW": 17.1, "LONNOW": 133.0, "WINDNOW": 30.0, "DIRNOW": 5.0, "SPDNOW": 5.0, "TECH": "TRAK", "ADVNR": 25, "ATCFID": "WP012026", "NAME": "NOKAEN", "FTECH": "JTWC", "FCST_DTG": "2026-01-20 18:00:00", "RUN_DTG": "2026-01-21 08:24:16", "BASIN": "WP", "STMNR": 1, "CAT_ID": null, "CAT_DESC": null, "MSGID": "WTPN51 PGTW 202100", "VALIDTIME": "2026-01-14 00:00:00" }, "geometry": { "type": "Point", "coordinates": [ 131.800003, 8.1 ] } },
{ "type": "Feature", "properties": { "ID": 97452, "LAT": 8.7, "LON": 131.1, "VMAX": 20.0, "MSLP": 1012.95825, "RMAX": 45.0, "FSPD": 3.99774, "FDIR": 320.5431, "RENV": 500.0, "PENV": 1012.0, "VALIDT": 0, "DTG": "2026-01-14 06:00", "LATNOW": 17.1, "LONNOW": 133.0, "WINDNOW": 30.0, "DIRNOW": 5.0, "SPDNOW": 5.0, "TECH": "TRAK", "ADVNR": 25, "ATCFID": "WP012026", "NAME": "NOKAEN", "FTECH": "JTWC", "FCST_DTG": "2026-01-20 18:00:00", "RUN_DTG": "2026-01-21 08:24:16", "BASIN": "WP", "STMNR": 1, "CAT_ID": null, "CAT_DESC": null, "MSGID": "WTPN51 PGTW 202100", "VALIDTIME": "2026-01-14 06:00:00" }, "geometry": { "type": "Point", "coordinates": [ 131.100006, 8.7 ] } },
{ "type": "Feature", "properties": { "ID": 97453, "LAT": 9.3, "LON": 130.6, "VMAX": 25.0, "MSLP": 1011.80975, "RMAX": 45.0, "FSPD": 2.27603, "FDIR": 296.87555, "RENV": 500.0, "PENV": 1012.0, "VALIDT": 0, "DTG": "2026-01-14 12:00", "LATNOW": 17.1, "LONNOW": 133.0, "WINDNOW": 30.0, "DIRNOW": 5.0, "SPDNOW": 5.0, "TECH": "TRAK", "ADVNR": 25, "ATCFID": "WP012026", "NAME": "NOKAEN", "FTECH": "JTWC", "FCST_DTG": "2026-01-20 18:00:00", "RUN_DTG": "2026-01-21 08:24:16", "BASIN": "WP", "STMNR": 1, "CAT_ID": null, "CAT_DESC": null, "MSGID": "WTPN51 PGTW 202100", "VALIDTIME": "2026-01-14 12:00:00" }, "geometry": { "type": "Point", "coordinates": [ 130.600006, 9.3 ] } },
{ "type": "Feature", "properties": { "ID": 97454, "LAT": 9.5, "LON": 130.2, "VMAX": 25.0, "MSLP": 1002.0, "RMAX": 55.0, "FSPD": 2.73833, "FDIR": 247.93018, "RENV": 260.0, "PENV": 1006.0, "VALIDT": 0, "DTG": "2026-01-14 18:00", "LATNOW": 17.1, "LONNOW": 133.0, "WINDNOW": 30.0, "DIRNOW": 5.0, "SPDNOW": 5.0, "TECH": "TRAK", "ADVNR": 25, "ATCFID": "WP012026", "NAME": "NOKAEN", "FTECH": "JTWC", "FCST_DTG": "2026-01-20 18:00:00", "RUN_DTG": "2026-01-21 08:24:16", "BASIN": "WP", "STMNR": 1, "CAT_ID": null, "CAT_DESC": null, "MSGID": "WTPN51 PGTW 202100", "VALIDTIME": "2026-01-14 18:00:00" }, "geometry": { "type": "Point", "coordinates": [ 130.199997, 9.5 ] } },
{ "type": "Feature", "properties": { "ID": 97455, "LAT": 9.3, "LON": 129.7, "VMAX": 30.0, "MSLP": 1002.0, "RMAX": 55.0, "FSPD": 5.42494, "FDIR": 311.59082, "RENV": 260.0, "PENV": 1006.0, "VALIDT": 0, "DTG": "2026-01-15 00:00", "LATNOW": 17.1, "LONNOW": 133.0, "WINDNOW": 30.0, "DIRNOW": 5.0, "SPDNOW": 5.0, "TECH": "TRAK", "ADVNR": 25, "ATCFID": "WP012026", "NAME": "NOKAEN", "FTECH": "JTWC", "FCST_DTG": "2026-01-20 18:00:00", "RUN_DTG": "2026-01-21 08:24:16", "BASIN": "WP", "STMNR": 1, "CAT_ID": null, "CAT_DESC": null, "MSGID": "WTPN51 PGTW 202100", "VALIDTIME": "2026-01-15 00:00:00" }, "geometry": { "type": "Point", "coordinates": [ 129.699997, 9.3 ] } },
{ "type": "Feature", "properties": { "ID": 97456, "LAT": 10.0, "LON": 128.9, "VMAX": 30.0, "MSLP": 1002.0, "RMAX": 55.0, "FSPD": 0.0, "FDIR": 90.0, "RENV": 260.0, "PENV": 1006.0, "VALIDT": 0, "DTG": "2026-01-15 06:00", "LATNOW": 17.1, "LONNOW": 133.0, "WINDNOW": 30.0, "DIRNOW": 5.0, "SPDNOW": 5.0, "TECH": "TRAK", "ADVNR": 25, "ATCFID": "WP012026", "NAME": "NOKAEN", "FTECH": "JTWC", "FCST_DTG": "2026-01-20 18:00:00", "RUN_DTG": "2026-01-21 08:24:16", "BASIN": "WP", "STMNR": 1, "CAT_ID": null, "CAT_DESC": null, "MSGID": "WTPN51 PGTW 202100", "VALIDTIME": "2026-01-15 06:00:00" }, "geometry": { "type": "Point", "coordinates": [ 128.899994, 10.0 ] } },
{ "type": "Feature", "properties": { "ID": 97457, "LAT": 10.0, "LON": 128.9, "VMAX": 30.0, "MSLP": 998.0, "RMAX": 60.0, "FSPD": 1.1468, "FDIR": 26.21021, "RENV": 220.0, "PENV": 1004.0, "VALIDT": 0, "DTG": "2026-01-15 12:00", "LATNOW": 17.1, "LONNOW": 133.0, "WINDNOW": 30.0, "DIRNOW": 5.0, "SPDNOW": 5.0, "TECH": "TRAK", "ADVNR": 25, "ATCFID": "WP012026", "NAME": "NOKAEN", "FTECH": "JTWC", "FCST_DTG": "2026-01-20 18:00:00", "RUN_DTG": "2026-01-21 08:24:16", "BASIN": "WP", "STMNR": 1, "CAT_ID": null, "CAT_DESC": null, "MSGID": "WTPN51 PGTW 202100", "VALIDTIME": "2026-01-15 12:00:00" }, "geometry": { "type": "Point", "coordinates": [ 128.899994, 10.0 ] } },
{ "type": "Feature", "properties": { "ID": 97458, "LAT": 10.2, "LON": 129.0, "VMAX": 30.0, "MSLP": 998.0, "RMAX": 50.0, "FSPD": 5.16922, "FDIR": 354.3877, "RENV": 230.0, "PENV": 1006.0, "VALIDT": 0, "DTG": "2026-01-15 18:00", "LATNOW": 17.1, "LONNOW": 133.0, "WINDNOW": 30.0, "DIRNOW": 5.0, "SPDNOW": 5.0, "TECH": "TRAK", "ADVNR": 25, "ATCFID": "WP012026", "NAME": "NOKAEN", "FTECH": "JTWC", "FCST_DTG": "2026-01-20 18:00:00", "RUN_DTG": "2026-01-21 08:24:16", "BASIN": "WP", "STMNR": 1, "CAT_ID": null, "CAT_DESC": null, "MSGID": "WTPN51 PGTW 202100", "VALIDTIME": "2026-01-15 18:00:00" }, "geometry": { "type": "Point", "coordinates": [ 129.0, 10.2 ] } },
{ "type": "Feature", "properties": { "ID": 97459, "LAT": 11.2, "LON": 128.9, "VMAX": 35.0, "MSLP": 998.0, "RMAX": 50.0, "FSPD": 6.12435, "FDIR": 312.2215, "RENV": 230.0, "PENV": 1006.0, "VALIDT": 0, "DTG": "2026-01-16 00:00", "LATNOW": 17.1, "LONNOW": 133.0, "WINDNOW": 30.0, "DIRNOW": 5.0, "SPDNOW": 5.0, "TECH": "TRAK", "ADVNR": 25, "ATCFID": "WP012026", "NAME": "NOKAEN", "FTECH": "JTWC", "FCST_DTG": "2026-01-20 18:00:00", "RUN_DTG": "2026-01-21 08:24:16", "BASIN": "WP", "STMNR": 1, "CAT_ID": null, "CAT_DESC": null, "MSGID": "WTPN51 PGTW 202100", "VALIDTIME": "2026-01-16 00:00:00" }, "geometry": { "type": "Point", "coordinates": [ 128.899994, 11.2 ] } },
{ "type": "Feature", "properties": { "ID": 97460, "LAT": 12.0, "LON": 128.0, "VMAX": 35.0, "MSLP": 999.0, "RMAX": 35.0, "FSPD": 5.1343, "FDIR": 281.56006, "RENV": 230.0, "PENV": 1006.0, "VALIDT": 0, "DTG": "2026-01-16 06:00", "LATNOW": 17.1, "LONNOW": 133.0, "WINDNOW": 30.0, "DIRNOW": 5.0, "SPDNOW": 5.0, "TECH": "TRAK", "ADVNR": 25, "ATCFID": "WP012026", "NAME": "NOKAEN", "FTECH": "JTWC", "FCST_DTG": "2026-01-20 18:00:00", "RUN_DTG": "2026-01-21 08:24:16", "BASIN": "WP", "STMNR": 1, "CAT_ID": null, "CAT_DESC": null, "MSGID": "WTPN51 PGTW 202100", "VALIDTIME": "2026-01-16 06:00:00" }, "geometry": { "type": "Point", "coordinates": [ 128.0, 12.0 ] } },
{ "type": "Feature", "properties": { "ID": 97461, "LAT": 12.2, "LON": 127.0, "VMAX": 40.0, "MSLP": 997.0, "RMAX": 50.0, "FSPD": 7.22211, "FDIR": 295.30212, "RENV": 210.0, "PENV": 1003.0, "VALIDT": 0, "DTG": "2026-01-16 12:00", "LATNOW": 17.1, "LONNOW": 133.0, "WINDNOW": 30.0, "DIRNOW": 5.0, "SPDNOW": 5.0, "TECH": "TRAK", "ADVNR": 25, "ATCFID": "WP012026", "NAME": "NOKAEN", "FTECH": "JTWC", "FCST_DTG": "2026-01-20 18:00:00", "RUN_DTG": "2026-01-21 08:24:16", "BASIN": "WP", "STMNR": 1, "CAT_ID": null, "CAT_DESC": null, "MSGID": "WTPN51 PGTW 202100", "VALIDTIME": "2026-01-16 12:00:00" }, "geometry": { "type": "Point", "coordinates": [ 127.0, 12.2 ] } },
{ "type": "Feature", "properties": { "ID": 97462, "LAT": 12.8, "LON": 125.7, "VMAX": 45.0, "MSLP": 997.0, "RMAX": 50.0, "FSPD": 5.0264, "FDIR": 315.76123, "RENV": 230.0, "PENV": 1006.0, "VALIDT": 0, "DTG": "2026-01-16 18:00", "LATNOW": 17.1, "LONNOW": 133.0, "WINDNOW": 30.0, "DIRNOW": 5.0, "SPDNOW": 5.0, "TECH": "TRAK", "ADVNR": 25, "ATCFID": "WP012026", "NAME": "NOKAEN", "FTECH": "JTWC", "FCST_DTG": "2026-01-20 18:00:00", "RUN_DTG": "2026-01-21 08:24:16", "BASIN": "WP", "STMNR": 1, "CAT_ID": null, "CAT_DESC": null, "MSGID": "WTPN51 PGTW 202100", "VALIDTIME": "2026-01-16 18:00:00" }, "geometry": { "type": "Point", "coordinates": [ 125.699997, 12.8 ] } },
{ "type": "Feature", "properties": { "ID": 97463, "LAT": 13.5, "LON": 125.0, "VMAX": 45.0, "MSLP": 992.0, "RMAX": 60.0, "FSPD": 4.30266, "FDIR": 315.83905, "RENV": 200.0, "PENV": 1003.0, "VALIDT": 0, "DTG": "2026-01-17 00:00", "LATNOW": 17.1, "LONNOW": 133.0, "WINDNOW": 30.0, "DIRNOW": 5.0, "SPDNOW": 5.0, "TECH": "TRAK", "ADVNR": 25, "ATCFID": "WP012026", "NAME": "NOKAEN", "FTECH": "JTWC", "FCST_DTG": "2026-01-20 18:00:00", "RUN_DTG": "2026-01-21 08:24:16", "BASIN": "WP", "STMNR": 1, "CAT_ID": null, "CAT_DESC": null, "MSGID": "WTPN51 PGTW 202100", "VALIDTIME": "2026-01-17 00:00:00" }, "geometry": { "type": "Point", "coordinates": [ 125.0, 13.5 ] } },
{ "type": "Feature", "properties": { "ID": 97464, "LAT": 14.1, "LON": 124.4, "VMAX": 50.0, "MSLP": 996.0, "RMAX": 60.0, "FSPD": 4.86503, "FDIR": 342.1179, "RENV": 220.0, "PENV": 1006.0, "VALIDT": 0, "DTG": "2026-01-17 06:00", "LATNOW": 17.1, "LONNOW": 133.0, "WINDNOW": 30.0, "DIRNOW": 5.0, "SPDNOW": 5.0, "TECH": "TRAK", "ADVNR": 25, "ATCFID": "WP012026", "NAME": "NOKAEN", "FTECH": "JTWC", "FCST_DTG": "2026-01-20 18:00:00", "RUN_DTG": "2026-01-21 08:24:16", "BASIN": "WP", "STMNR": 1, "CAT_ID": null, "CAT_DESC": null, "MSGID": "WTPN51 PGTW 202100", "VALIDTIME": "2026-01-17 06:00:00" }, "geometry": { "type": "Point", "coordinates": [ 124.400002, 14.1 ] } },
{ "type": "Feature", "properties": { "ID": 97465, "LAT": 15.0, "LON": 124.1, "VMAX": 50.0, "MSLP": 994.0, "RMAX": 10.0, "FSPD": 5.7475, "FDIR": 128.7962, "RENV": 180.0, "PENV": 1006.0, "VALIDT": 0, "DTG": "2026-01-17 12:00", "LATNOW": 17.1, "LONNOW": 133.0, "WINDNOW": 30.0, "DIRNOW": 5.0, "SPDNOW": 5.0, "TECH": "TRAK", "ADVNR": 25, "ATCFID": "WP012026", "NAME": "NOKAEN", "FTECH": "JTWC", "FCST_DTG": "2026-01-20 18:00:00", "RUN_DTG": "2026-01-21 08:24:16", "BASIN": "WP", "STMNR": 1, "CAT_ID": null, "CAT_DESC": null, "MSGID": "WTPN51 PGTW 202100", "VALIDTIME": "2026-01-17 12:00:00" }, "geometry": { "type": "Point", "coordinates": [ 124.099998, 15.0 ] } },
{ "type": "Feature", "properties": { "ID": 97466, "LAT": 14.3, "LON": 125.0, "VMAX": 45.0, "MSLP": 993.0, "RMAX": 10.0, "FSPD": 1.1217, "FDIR": 62.70142, "RENV": 125.0, "PENV": 1004.0, "VALIDT": 0, "DTG": "2026-01-17 18:00", "LATNOW": 17.1, "LONNOW": 133.0, "WINDNOW": 30.0, "DIRNOW": 5.0, "SPDNOW": 5.0, "TECH": "TRAK", "ADVNR": 25, "ATCFID": "WP012026", "NAME": "NOKAEN", "FTECH": "JTWC", "FCST_DTG": "2026-01-20 18:00:00", "RUN_DTG": "2026-01-21 08:24:16", "BASIN": "WP", "STMNR": 1, "CAT_ID": null, "CAT_DESC": null, "MSGID": "WTPN51 PGTW 202100", "VALIDTIME": "2026-01-17 18:00:00" }, "geometry": { "type": "Point", "coordinates": [ 125.0, 14.3 ] } },
{ "type": "Feature", "properties": { "ID": 97467, "LAT": 14.4, "LON": 125.2, "VMAX": 40.0, "MSLP": 997.0, "RMAX": 55.0, "FSPD": 1.81417, "FDIR": 55.44885, "RENV": 155.0, "PENV": 1004.0, "VALIDT": 0, "DTG": "2026-01-18 00:00", "LATNOW": 17.1, "LONNOW": 133.0, "WINDNOW": 30.0, "DIRNOW": 5.0, "SPDNOW": 5.0, "TECH": "TRAK", "ADVNR": 25, "ATCFID": "WP012026", "NAME": "NOKAEN", "FTECH": "JTWC", "FCST_DTG": "2026-01-20 18:00:00", "RUN_DTG": "2026-01-21 08:24:16", "BASIN": "WP", "STMNR": 1, "CAT_ID": null, "CAT_DESC": null, "MSGID": "WTPN51 PGTW 202100", "VALIDTIME": "2026-01-18 00:00:00" }, "geometry": { "type": "Point", "coordinates": [ 125.199997, 14.4 ] } },
{ "type": "Feature", "properties": { "ID": 97468, "LAT": 14.6, "LON": 125.5, "VMAX": 35.0, "MSLP": 999.0, "RMAX": 55.0, "FSPD": 3.73579, "FDIR": 15.43158, "RENV": 155.0, "PENV": 1004.0, "VALIDT": 0, "DTG": "2026-01-18 06:00", "LATNOW": 17.1, "LONNOW": 133.0, "WINDNOW": 30.0, "DIRNOW": 5.0, "SPDNOW": 5.0, "TECH": "TRAK", "ADVNR": 25, "ATCFID": "WP012026", "NAME": "NOKAEN", "FTECH": "JTWC", "FCST_DTG": "2026-01-20 18:00:00", "RUN_DTG": "2026-01-21 08:24:16", "BASIN": "WP", "STMNR": 1, "CAT_ID": null, "CAT_DESC": null, "MSGID": "WTPN51 PGTW 202100", "VALIDTIME": "2026-01-18 06:00:00" }, "geometry": { "type": "Point", "coordinates": [ 125.5, 14.6 ] } },
{ "type": "Feature", "properties": { "ID": 97469, "LAT": 15.3, "LON": 125.7, "VMAX": 30.0, "MSLP": 997.0, "RMAX": 55.0, "FSPD": 4.11556, "FDIR": 360.0, "RENV": 110.0, "PENV": 1002.0, "VALIDT": 0, "DTG": "2026-01-18 12:00", "LATNOW": 17.1, "LONNOW": 133.0, "WINDNOW": 30.0, "DIRNOW": 5.0, "SPDNOW": 5.0, "TECH": "TRAK", "ADVNR": 25, "ATCFID": "WP012026", "NAME": "NOKAEN", "FTECH": "JTWC", "FCST_DTG": "2026-01-20 18:00:00", "RUN_DTG": "2026-01-21 08:24:16", "BASIN": "WP", "STMNR": 1, "CAT_ID": null, "CAT_DESC": null, "MSGID": "WTPN51 PGTW 202100", "VALIDTIME": "2026-01-18 12:00:00" }, "geometry": { "type": "Point", "coordinates": [ 125.699997, 15.3 ] } },
{ "type": "Feature", "properties": { "ID": 97470, "LAT": 16.1, "LON": 125.7, "VMAX": 30.0, "MSLP": 998.0, "RMAX": 55.0, "FSPD": 4.71296, "FDIR": 56.92227, "RENV": 175.0, "PENV": 1006.0, "VALIDT": 0, "DTG": "2026-01-18 18:00", "LATNOW": 17.1, "LONNOW": 133.0, "WINDNOW": 30.0, "DIRNOW": 5.0, "SPDNOW": 5.0, "TECH": "TRAK", "ADVNR": 25, "ATCFID": "WP012026", "NAME": "NOKAEN", "FTECH": "JTWC", "FCST_DTG": "2026-01-20 18:00:00", "RUN_DTG": "2026-01-21 08:24:16", "BASIN": "WP", "STMNR": 1, "CAT_ID": null, "CAT_DESC": null, "MSGID": "WTPN51 PGTW 202100", "VALIDTIME": "2026-01-18 18:00:00" }, "geometry": { "type": "Point", "coordinates": [ 125.699997, 16.1 ] } },
{ "type": "Feature", "properties": { "ID": 97471, "LAT": 16.6, "LON": 126.5, "VMAX": 35.0, "MSLP": 1000.0, "RMAX": 35.0, "FSPD": 0.71244, "FDIR": 43.7728, "RENV": 175.0, "PENV": 1005.0, "VALIDT": 0, "DTG": "2026-01-19 00:00", "LATNOW": 17.1, "LONNOW": 133.0, "WINDNOW": 30.0, "DIRNOW": 5.0, "SPDNOW": 5.0, "TECH": "TRAK", "ADVNR": 25, "ATCFID": "WP012026", "NAME": "NOKAEN", "FTECH": "JTWC", "FCST_DTG": "2026-01-20 18:00:00", "RUN_DTG": "2026-01-21 08:24:16", "BASIN": "WP", "STMNR": 1, "CAT_ID": null, "CAT_DESC": null, "MSGID": "WTPN51 PGTW 202100", "VALIDTIME": "2026-01-19 00:00:00" }, "geometry": { "type": "Point", "coordinates": [ 126.5, 16.6 ] } },
{ "type": "Feature", "properties": { "ID": 97472, "LAT": 16.7, "LON": 126.6, "VMAX": 35.0, "MSLP": 1002.0, "RMAX": 35.0, "FSPD": 2.50211, "FDIR": 51.91635, "RENV": 240.0, "PENV": 1008.0, "VALIDT": 0, "DTG": "2026-01-19 06:00", "LATNOW": 17.1, "LONNOW": 133.0, "WINDNOW": 30.0, "DIRNOW": 5.0, "SPDNOW": 5.0, "TECH": "TRAK", "ADVNR": 25, "ATCFID": "WP012026", "NAME": "NOKAEN", "FTECH": "JTWC", "FCST_DTG": "2026-01-20 18:00:00", "RUN_DTG": "2026-01-21 08:24:16", "BASIN": "WP", "STMNR": 1, "CAT_ID": null, "CAT_DESC": null, "MSGID": "WTPN51 PGTW 202100", "VALIDTIME": "2026-01-19 06:00:00" }, "geometry": { "type": "Point", "coordinates": [ 126.599998, 16.700001 ] } },
{ "type": "Feature", "properties": { "ID": 97473, "LAT": 17.0, "LON": 127.0, "VMAX": 30.0, "MSLP": 998.0, "RMAX": 35.0, "FSPD": 5.41165, "FDIR": 90.0, "RENV": 170.0, "PENV": 1004.0, "VALIDT": 0, "DTG": "2026-01-19 12:00", "LATNOW": 17.1, "LONNOW": 133.0, "WINDNOW": 30.0, "DIRNOW": 5.0, "SPDNOW": 5.0, "TECH": "TRAK", "ADVNR": 25, "ATCFID": "WP012026", "NAME": "NOKAEN", "FTECH": "JTWC", "FCST_DTG": "2026-01-20 18:00:00", "RUN_DTG": "2026-01-21 08:24:16", "BASIN": "WP", "STMNR": 1, "CAT_ID": null, "CAT_DESC": null, "MSGID": "WTPN51 PGTW 202100", "VALIDTIME": "2026-01-19 12:00:00" }, "geometry": { "type": "Point", "coordinates": [ 127.0, 17.0 ] } },
{ "type": "Feature", "properties": { "ID": 97474, "LAT": 17.0, "LON": 128.1, "VMAX": 30.0, "MSLP": 1000.0, "RMAX": 35.0, "FSPD": 5.15228, "FDIR": 72.56985, "RENV": 180.0, "PENV": 1006.0, "VALIDT": 0, "DTG": "2026-01-19 18:00", "LATNOW": 17.1, "LONNOW": 133.0, "WINDNOW": 30.0, "DIRNOW": 5.0, "SPDNOW": 5.0, "TECH": "TRAK", "ADVNR": 25, "ATCFID": "WP012026", "NAME": "NOKAEN", "FTECH": "JTWC", "FCST_DTG": "2026-01-20 18:00:00", "RUN_DTG": "2026-01-21 08:24:16", "BASIN": "WP", "STMNR": 1, "CAT_ID": null, "CAT_DESC": null, "MSGID": "WTPN51 PGTW 202100", "VALIDTIME": "2026-01-19 18:00:00" }, "geometry": { "type": "Point", "coordinates": [ 128.100006, 17.0 ] } },
{ "type": "Feature", "properties": { "ID": 97475, "LAT": 17.3, "LON": 129.1, "VMAX": 30.0, "MSLP": 999.0, "RMAX": 60.0, "FSPD": 6.23685, "FDIR": 70.73486, "RENV": 160.0, "PENV": 1004.0, "VALIDT": 0, "DTG": "2026-01-20 00:00", "LATNOW": 17.1, "LONNOW": 133.0, "WINDNOW": 30.0, "DIRNOW": 5.0, "SPDNOW": 5.0, "TECH": "TRAK", "ADVNR": 25, "ATCFID": "WP012026", "NAME": "NOKAEN", "FTECH": "JTWC", "FCST_DTG": "2026-01-20 18:00:00", "RUN_DTG": "2026-01-21 08:24:16", "BASIN": "WP", "STMNR": 1, "CAT_ID": null, "CAT_DESC": null, "MSGID": "WTPN51 PGTW 202100", "VALIDTIME": "2026-01-20 00:00:00" }, "geometry": { "type": "Point", "coordinates": [ 129.100006, 17.299999 ] } },
{ "type": "Feature", "properties": { "ID": 97476, "LAT": 17.7, "LON": 130.3, "VMAX": 35.0, "MSLP": 1002.0, "RMAX": 40.0, "FSPD": 7.84142, "FDIR": 90.0, "RENV": 155.0, "PENV": 1006.0, "VALIDT": 0, "DTG": "2026-01-20 06:00", "LATNOW": 17.1, "LONNOW": 133.0, "WINDNOW": 30.0, "DIRNOW": 5.0, "SPDNOW": 5.0, "TECH": "TRAK", "ADVNR": 25, "ATCFID": "WP012026", "NAME": "NOKAEN", "FTECH": "JTWC", "FCST_DTG": "2026-01-20 18:00:00", "RUN_DTG": "2026-01-21 08:24:16", "BASIN": "WP", "STMNR": 1, "CAT_ID": null, "CAT_DESC": null, "MSGID": "WTPN51 PGTW 202100", "VALIDTIME": "2026-01-20 06:00:00" }, "geometry": { "type": "Point", "coordinates": [ 130.300003, 17.700001 ] } },
{ "type": "Feature", "properties": { "ID": 97477, "LAT": 17.7, "LON": 131.9, "VMAX": 35.0, "MSLP": 1000.0, "RMAX": 40.0, "FSPD": 6.2199, "FDIR": 119.75262, "RENV": 160.0, "PENV": 1004.0, "VALIDT": 0, "DTG": "2026-01-20 12:00", "LATNOW": 17.1, "LONNOW": 133.0, "WINDNOW": 30.0, "DIRNOW": 5.0, "SPDNOW": 5.0, "TECH": "TRAK", "ADVNR": 25, "ATCFID": "WP012026", "NAME": "NOKAEN", "FTECH": "JTWC", "FCST_DTG": "2026-01-20 18:00:00", "RUN_DTG": "2026-01-21 08:24:16", "BASIN": "WP", "STMNR": 1, "CAT_ID": null, "CAT_DESC": null, "MSGID": "WTPN51 PGTW 202100", "VALIDTIME": "2026-01-20 12:00:00" }, "geometry": { "type": "Point", "coordinates": [ 131.899994, 17.700001 ] } },
{ "type": "Feature", "properties": { "ID": 97478, "LAT": 17.1, "LON": 133.0, "VMAX": 30.0, "MSLP": 1010.40607, "RMAX": 44.21983, "FSPD": 4.79926, "FDIR": 149.04135, "RENV": 500.0, "PENV": 1012.0, "VALIDT": 0, "DTG": "2026-01-20 18:00", "LATNOW": 17.1, "LONNOW": 133.0, "WINDNOW": 30.0, "DIRNOW": 5.0, "SPDNOW": 5.0, "TECH": "TRAK", "ADVNR": 25, "ATCFID": "WP012026", "NAME": "NOKAEN", "FTECH": "JTWC", "FCST_DTG": "2026-01-20 18:00:00", "RUN_DTG": "2026-01-21 08:24:16", "BASIN": "WP", "STMNR": 1, "CAT_ID": null, "CAT_DESC": null, "MSGID": "WTPN51 PGTW 202100", "VALIDTIME": "2026-01-20 18:00:00" }, "geometry": { "type": "Point", "coordinates": [ 133.0, 17.1 ] } },
{ "type": "Feature", "properties": { "ID": 97479, "LAT": 15.5, "LON": 134.0, "VMAX": 30.0, "MSLP": 1010.40607, "RMAX": 44.21983, "FSPD": 4.68983, "FDIR": 170.83783, "RENV": 250.0, "PENV": 1012.0, "VALIDT": 12, "DTG": "2026-01-21 06:00", "LATNOW": 17.1, "LONNOW": 133.0, "WINDNOW": 30.0, "DIRNOW": 5.0, "SPDNOW": 5.0, "TECH": "FCST", "ADVNR": 25, "ATCFID": "WP012026", "NAME": "NOKAEN", "FTECH": "JTWC", "FCST_DTG": "2026-01-20 18:00:00", "RUN_DTG": "2026-01-21 08:24:16", "BASIN": "WP", "STMNR": 1, "CAT_ID": null, "CAT_DESC": null, "MSGID": "WTPN51 PGTW 202100", "VALIDTIME": "2026-01-21 06:00:00" }, "geometry": { "type": "Point", "coordinates": [ 134.0, 15.5 ] } },
{ "type": "Feature", "properties": { "ID": 97480, "LAT": 13.7, "LON": 134.3, "VMAX": 25.0, "MSLP": 1011.80975, "RMAX": 45.0, "FSPD": 4.68983, "FDIR": 170.83783, "RENV": 250.0, "PENV": 1012.0, "VALIDT": 24, "DTG": "2026-01-21 18:00", "LATNOW": 17.1, "LONNOW": 133.0, "WINDNOW": 30.0, "DIRNOW": 5.0, "SPDNOW": 5.0, "TECH": "FCST", "ADVNR": 25, "ATCFID": "WP012026", "NAME": "NOKAEN", "FTECH": "JTWC", "FCST_DTG": "2026-01-20 18:00:00", "RUN_DTG": "2026-01-21 08:24:16", "BASIN": "WP", "STMNR": 1, "CAT_ID": null, "CAT_DESC": null, "MSGID": "WTPN51 PGTW 202100", "VALIDTIME": "2026-01-21 18:00:00" }, "geometry": { "type": "Point", "coordinates": [ 134.300003, 13.7 ] } },
{ "type": "Feature", "properties": { "ID": 97478, "LAT": 17.1, "LON": 133.0, "VMAX": 30.0, "MSLP": 1010.40607, "RMAX": 44.21983, "FSPD": 4.79926, "FDIR": 149.04135, "RENV": 500.0, "PENV": 1012.0, "VALIDT": 0, "DTG": "2026-01-20 18:00", "LATNOW": 17.1, "LONNOW": 133.0, "WINDNOW": 30.0, "DIRNOW": 5.0, "SPDNOW": 5.0, "TECH": "TRAK", "ADVNR": 25, "ATCFID": "WP012026", "NAME": "NOKAEN", "FTECH": "JTWC", "FCST_DTG": "2026-01-20 18:00:00", "RUN_DTG": "2026-01-21 08:24:16", "BASIN": "WP", "STMNR": 1, "CAT_ID": null, "CAT_DESC": null, "MSGID": "WTPN51 PGTW 202100", "VALIDTIME": "2026-01-20 18:00:00" }, "geometry": { "type": "LineString", "coordinates": [ [ 133.0, 7.3 ], [ 132.7, 7.5 ], [ 131.8, 8.1 ], [ 131.1, 8.7 ], [ 130.6, 9.3 ], [ 130.2, 9.5 ], [ 129.7, 9.3 ], [ 128.9, 10.0 ], [ 128.9, 10.0 ], [ 129.0, 10.2 ], [ 128.9, 11.2 ], [ 128.0, 12.0 ], [ 127.0, 12.2 ], [ 125.7, 12.8 ], [ 125.0, 13.5 ], [ 124.4, 14.1 ], [ 124.1, 15.0 ], [ 125.0, 14.3 ], [ 125.2, 14.4 ], [ 125.5, 14.6 ], [ 125.7, 15.3 ], [ 125.7, 16.1 ], [ 126.5, 16.6 ], [ 126.6, 16.7 ], [ 127.0, 17.0 ], [ 128.1, 17.0 ], [ 129.1, 17.3 ], [ 130.3, 17.7 ], [ 131.9, 17.7 ], [ 133.0, 17.1 ] ] } },
{ "type": "Feature", "properties": { "ID": 97480, "LAT": 13.7, "LON": 134.3, "VMAX": 25.0, "MSLP": 1011.80975, "RMAX": 45.0, "FSPD": 4.68983, "FDIR": 170.83783, "RENV": 250.0, "PENV": 1012.0, "VALIDT": 24, "DTG": "2026-01-21 18:00", "LATNOW": 17.1, "LONNOW": 133.0, "WINDNOW": 30.0, "DIRNOW": 5.0, "SPDNOW": 5.0, "TECH": "FCST", "ADVNR": 25, "ATCFID": "WP012026", "NAME": "NOKAEN", "FTECH": "JTWC", "FCST_DTG": "2026-01-20 18:00:00", "RUN_DTG": "2026-01-21 08:24:16", "BASIN": "WP", "STMNR": 1, "CAT_ID": null, "CAT_DESC": null, "MSGID": "WTPN51 PGTW 202100", "VALIDTIME": "2026-01-21 18:00:00" }, "geometry": { "type": "LineString", "coordinates": [ [ 133.0, 17.1 ], [ 134.0, 15.5 ], [ 134.3, 13.7 ] ] } }
]
}
