{
"type": "FeatureCollection",
"crs": { "type": "name", "properties": { "name": "urn:ogc:def:crs:OGC:1.3:CRS84" } },
"features": [
{ "type": "Feature", "properties": { "ID": 21902, "LAT": 9.5, "LON": -89.4, "VMAX": 20.0, "MSLP": 1009.0, "RMAX": 120.0, "FSPD": 2.58822, "FDIR": 78.53525, "RENV": 180.0, "PENV": 1010.0, "VALIDT": 0, "DTG": "2026-06-06 12:00", "LATNOW": 12.8, "LONNOW": -89.1, "WINDNOW": 30.0, "DIRNOW": 4.0, "SPDNOW": 2.0, "TECH": "TRAK", "ADVNR": 12, "ATCFID": "EP032026", "NAME": "CRISTINA", "FTECH": "OFCL", "FCST_DTG": "2026-06-11 00:00:00", "RUN_DTG": "2026-06-11 06:25:52", "BASIN": "EP", "STMNR": 3, "CAT_ID": null, "CAT_DESC": null, "MSGID": "WTPZ23 KNHC 110231", "VALIDTIME": "2026-06-06 12:00:00" }, "geometry": { "type": "Point", "coordinates": [ -89.400002, 9.5 ] } },
{ "type": "Feature", "properties": { "ID": 21903, "LAT": 9.6, "LON": -88.9, "VMAX": 20.0, "MSLP": 1009.0, "RMAX": 120.0, "FSPD": 6.1995, "FDIR": 335.8947, "RENV": 180.0, "PENV": 1010.0, "VALIDT": 0, "DTG": "2026-06-06 18:00", "LATNOW": 12.8, "LONNOW": -89.1, "WINDNOW": 30.0, "DIRNOW": 4.0, "SPDNOW": 2.0, "TECH": "TRAK", "ADVNR": 12, "ATCFID": "EP032026", "NAME": "CRISTINA", "FTECH": "OFCL", "FCST_DTG": "2026-06-11 00:00:00", "RUN_DTG": "2026-06-11 06:25:52", "BASIN": "EP", "STMNR": 3, "CAT_ID": null, "CAT_DESC": null, "MSGID": "WTPZ23 KNHC 110231", "VALIDTIME": "2026-06-06 18:00:00" }, "geometry": { "type": "Point", "coordinates": [ -88.900002, 9.6 ] } },
{ "type": "Feature", "properties": { "ID": 21904, "LAT": 10.7, "LON": -89.4, "VMAX": 20.0, "MSLP": 1008.0, "RMAX": 120.0, "FSPD": 2.05778, "FDIR": 360.0, "RENV": 200.0, "PENV": 1010.0, "VALIDT": 0, "DTG": "2026-06-07 00:00", "LATNOW": 12.8, "LONNOW": -89.1, "WINDNOW": 30.0, "DIRNOW": 4.0, "SPDNOW": 2.0, "TECH": "TRAK", "ADVNR": 12, "ATCFID": "EP032026", "NAME": "CRISTINA", "FTECH": "OFCL", "FCST_DTG": "2026-06-11 00:00:00", "RUN_DTG": "2026-06-11 06:25:52", "BASIN": "EP", "STMNR": 3, "CAT_ID": null, "CAT_DESC": null, "MSGID": "WTPZ23 KNHC 110231", "VALIDTIME": "2026-06-07 00:00:00" }, "geometry": { "type": "Point", "coordinates": [ -89.400002, 10.7 ] } },
{ "type": "Feature", "properties": { "ID": 21905, "LAT": 11.1, "LON": -89.4, "VMAX": 20.0, "MSLP": 1008.0, "RMAX": 120.0, "FSPD": 5.15029, "FDIR": 78.47632, "RENV": 180.0, "PENV": 1009.0, "VALIDT": 0, "DTG": "2026-06-07 06:00", "LATNOW": 12.8, "LONNOW": -89.1, "WINDNOW": 30.0, "DIRNOW": 4.0, "SPDNOW": 2.0, "TECH": "TRAK", "ADVNR": 12, "ATCFID": "EP032026", "NAME": "CRISTINA", "FTECH": "OFCL", "FCST_DTG": "2026-06-11 00:00:00", "RUN_DTG": "2026-06-11 06:25:52", "BASIN": "EP", "STMNR": 3, "CAT_ID": null, "CAT_DESC": null, "MSGID": "WTPZ23 KNHC 110231", "VALIDTIME": "2026-06-07 06:00:00" }, "geometry": { "type": "Point", "coordinates": [ -89.400002, 11.1 ] } },
{ "type": "Feature", "properties": { "ID": 21906, "LAT": 11.3, "LON": -88.4, "VMAX": 20.0, "MSLP": 1008.0, "RMAX": 120.0, "FSPD": 4.14644, "FDIR": 173.00229, "RENV": 180.0, "PENV": 1009.0, "VALIDT": 0, "DTG": "2026-06-07 12:00", "LATNOW": 12.8, "LONNOW": -89.1, "WINDNOW": 30.0, "DIRNOW": 4.0, "SPDNOW": 2.0, "TECH": "TRAK", "ADVNR": 12, "ATCFID": "EP032026", "NAME": "CRISTINA", "FTECH": "OFCL", "FCST_DTG": "2026-06-11 00:00:00", "RUN_DTG": "2026-06-11 06:25:52", "BASIN": "EP", "STMNR": 3, "CAT_ID": null, "CAT_DESC": null, "MSGID": "WTPZ23 KNHC 110231", "VALIDTIME": "2026-06-07 12:00:00" }, "geometry": { "type": "Point", "coordinates": [ -88.400002, 11.3 ] } },
{ "type": "Feature", "properties": { "ID": 21907, "LAT": 10.5, "LON": -88.3, "VMAX": 20.0, "MSLP": 1008.0, "RMAX": 120.0, "FSPD": 4.07987, "FDIR": 97.2439, "RENV": 180.0, "PENV": 1009.0, "VALIDT": 0, "DTG": "2026-06-07 18:00", "LATNOW": 12.8, "LONNOW": -89.1, "WINDNOW": 30.0, "DIRNOW": 4.0, "SPDNOW": 2.0, "TECH": "TRAK", "ADVNR": 12, "ATCFID": "EP032026", "NAME": "CRISTINA", "FTECH": "OFCL", "FCST_DTG": "2026-06-11 00:00:00", "RUN_DTG": "2026-06-11 06:25:52", "BASIN": "EP", "STMNR": 3, "CAT_ID": null, "CAT_DESC": null, "MSGID": "WTPZ23 KNHC 110231", "VALIDTIME": "2026-06-07 18:00:00" }, "geometry": { "type": "Point", "coordinates": [ -88.300003, 10.5 ] } },
{ "type": "Feature", "properties": { "ID": 21908, "LAT": 10.4, "LON": -87.5, "VMAX": 25.0, "MSLP": 1006.0, "RMAX": 100.0, "FSPD": 1.44293, "FDIR": 44.51569, "RENV": 150.0, "PENV": 1008.0, "VALIDT": 0, "DTG": "2026-06-08 00:00", "LATNOW": 12.8, "LONNOW": -89.1, "WINDNOW": 30.0, "DIRNOW": 4.0, "SPDNOW": 2.0, "TECH": "TRAK", "ADVNR": 12, "ATCFID": "EP032026", "NAME": "CRISTINA", "FTECH": "OFCL", "FCST_DTG": "2026-06-11 00:00:00", "RUN_DTG": "2026-06-11 06:25:52", "BASIN": "EP", "STMNR": 3, "CAT_ID": null, "CAT_DESC": null, "MSGID": "WTPZ23 KNHC 110231", "VALIDTIME": "2026-06-08 00:00:00" }, "geometry": { "type": "Point", "coordinates": [ -87.5, 10.4 ] } },
{ "type": "Feature", "properties": { "ID": 21909, "LAT": 10.6, "LON": -87.3, "VMAX": 30.0, "MSLP": 1006.0, "RMAX": 90.0, "FSPD": 3.2478, "FDIR": 341.87595, "RENV": 140.0, "PENV": 1009.0, "VALIDT": 0, "DTG": "2026-06-08 06:00", "LATNOW": 12.8, "LONNOW": -89.1, "WINDNOW": 30.0, "DIRNOW": 4.0, "SPDNOW": 2.0, "TECH": "TRAK", "ADVNR": 12, "ATCFID": "EP032026", "NAME": "CRISTINA", "FTECH": "OFCL", "FCST_DTG": "2026-06-11 00:00:00", "RUN_DTG": "2026-06-11 06:25:52", "BASIN": "EP", "STMNR": 3, "CAT_ID": null, "CAT_DESC": null, "MSGID": "WTPZ23 KNHC 110231", "VALIDTIME": "2026-06-08 06:00:00" }, "geometry": { "type": "Point", "coordinates": [ -87.300003, 10.6 ] } },
{ "type": "Feature", "properties": { "ID": 21910, "LAT": 11.2, "LON": -87.5, "VMAX": 40.0, "MSLP": 1006.0, "RMAX": 40.0, "FSPD": 3.73954, "FDIR": 344.36176, "RENV": 130.0, "PENV": 1010.0, "VALIDT": 0, "DTG": "2026-06-08 12:00", "LATNOW": 12.8, "LONNOW": -89.1, "WINDNOW": 30.0, "DIRNOW": 4.0, "SPDNOW": 2.0, "TECH": "TRAK", "ADVNR": 12, "ATCFID": "EP032026", "NAME": "CRISTINA", "FTECH": "OFCL", "FCST_DTG": "2026-06-11 00:00:00", "RUN_DTG": "2026-06-11 06:25:52", "BASIN": "EP", "STMNR": 3, "CAT_ID": null, "CAT_DESC": null, "MSGID": "WTPZ23 KNHC 110231", "VALIDTIME": "2026-06-08 12:00:00" }, "geometry": { "type": "Point", "coordinates": [ -87.5, 11.2 ] } },
{ "type": "Feature", "properties": { "ID": 21911, "LAT": 11.9, "LON": -87.7, "VMAX": 40.0, "MSLP": 1002.0, "RMAX": 40.0, "FSPD": 2.62093, "FDIR": 348.93643, "RENV": 150.0, "PENV": 1010.0, "VALIDT": 0, "DTG": "2026-06-08 18:00", "LATNOW": 12.8, "LONNOW": -89.1, "WINDNOW": 30.0, "DIRNOW": 4.0, "SPDNOW": 2.0, "TECH": "TRAK", "ADVNR": 12, "ATCFID": "EP032026", "NAME": "CRISTINA", "FTECH": "OFCL", "FCST_DTG": "2026-06-11 00:00:00", "RUN_DTG": "2026-06-11 06:25:52", "BASIN": "EP", "STMNR": 3, "CAT_ID": null, "CAT_DESC": null, "MSGID": "WTPZ23 KNHC 110231", "VALIDTIME": "2026-06-08 18:00:00" }, "geometry": { "type": "Point", "coordinates": [ -87.699997, 11.9 ] } },
{ "type": "Feature", "properties": { "ID": 21912, "LAT": 12.4, "LON": -87.8, "VMAX": 40.0, "MSLP": 1004.0, "RMAX": 25.0, "FSPD": 1.82454, "FDIR": 55.67285, "RENV": 100.0, "PENV": 1010.0, "VALIDT": 0, "DTG": "2026-06-09 00:00", "LATNOW": 12.8, "LONNOW": -89.1, "WINDNOW": 30.0, "DIRNOW": 4.0, "SPDNOW": 2.0, "TECH": "TRAK", "ADVNR": 12, "ATCFID": "EP032026", "NAME": "CRISTINA", "FTECH": "OFCL", "FCST_DTG": "2026-06-11 00:00:00", "RUN_DTG": "2026-06-11 06:25:52", "BASIN": "EP", "STMNR": 3, "CAT_ID": null, "CAT_DESC": null, "MSGID": "WTPZ23 KNHC 110231", "VALIDTIME": "2026-06-09 00:00:00" }, "geometry": { "type": "Point", "coordinates": [ -87.800003, 12.4 ] } },
{ "type": "Feature", "properties": { "ID": 21913, "LAT": 12.6, "LON": -87.5, "VMAX": 35.0, "MSLP": 1006.0, "RMAX": 30.0, "FSPD": 0.51445, "FDIR": 179.99997, "RENV": 100.0, "PENV": 1011.0, "VALIDT": 0, "DTG": "2026-06-09 06:00", "LATNOW": 12.8, "LONNOW": -89.1, "WINDNOW": 30.0, "DIRNOW": 4.0, "SPDNOW": 2.0, "TECH": "TRAK", "ADVNR": 12, "ATCFID": "EP032026", "NAME": "CRISTINA", "FTECH": "OFCL", "FCST_DTG": "2026-06-11 00:00:00", "RUN_DTG": "2026-06-11 06:25:52", "BASIN": "EP", "STMNR": 3, "CAT_ID": null, "CAT_DESC": null, "MSGID": "WTPZ23 KNHC 110231", "VALIDTIME": "2026-06-09 06:00:00" }, "geometry": { "type": "Point", "coordinates": [ -87.5, 12.6 ] } },
{ "type": "Feature", "properties": { "ID": 21914, "LAT": 12.5, "LON": -87.5, "VMAX": 35.0, "MSLP": 1006.0, "RMAX": 30.0, "FSPD": 1.43764, "FDIR": 315.6987, "RENV": 90.0, "PENV": 1012.0, "VALIDT": 0, "DTG": "2026-06-09 12:00", "LATNOW": 12.8, "LONNOW": -89.1, "WINDNOW": 30.0, "DIRNOW": 4.0, "SPDNOW": 2.0, "TECH": "TRAK", "ADVNR": 12, "ATCFID": "EP032026", "NAME": "CRISTINA", "FTECH": "OFCL", "FCST_DTG": "2026-06-11 00:00:00", "RUN_DTG": "2026-06-11 06:25:52", "BASIN": "EP", "STMNR": 3, "CAT_ID": null, "CAT_DESC": null, "MSGID": "WTPZ23 KNHC 110231", "VALIDTIME": "2026-06-09 12:00:00" }, "geometry": { "type": "Point", "coordinates": [ -87.5, 12.5 ] } },
{ "type": "Feature", "properties": { "ID": 21915, "LAT": 12.7, "LON": -87.7, "VMAX": 35.0, "MSLP": 1006.0, "RMAX": 30.0, "FSPD": 1.82406, "FDIR": 235.66257, "RENV": 90.0, "PENV": 1012.0, "VALIDT": 0, "DTG": "2026-06-09 18:00", "LATNOW": 12.8, "LONNOW": -89.1, "WINDNOW": 30.0, "DIRNOW": 4.0, "SPDNOW": 2.0, "TECH": "TRAK", "ADVNR": 12, "ATCFID": "EP032026", "NAME": "CRISTINA", "FTECH": "OFCL", "FCST_DTG": "2026-06-11 00:00:00", "RUN_DTG": "2026-06-11 06:25:52", "BASIN": "EP", "STMNR": 3, "CAT_ID": null, "CAT_DESC": null, "MSGID": "WTPZ23 KNHC 110231", "VALIDTIME": "2026-06-09 18:00:00" }, "geometry": { "type": "Point", "coordinates": [ -87.699997, 12.7 ] } },
{ "type": "Feature", "properties": { "ID": 21916, "LAT": 12.5, "LON": -88.0, "VMAX": 35.0, "MSLP": 1006.0, "RMAX": 30.0, "FSPD": 2.07421, "FDIR": 255.63953, "RENV": 70.0, "PENV": 1012.0, "VALIDT": 0, "DTG": "2026-06-10 00:00", "LATNOW": 12.8, "LONNOW": -89.1, "WINDNOW": 30.0, "DIRNOW": 4.0, "SPDNOW": 2.0, "TECH": "TRAK", "ADVNR": 12, "ATCFID": "EP032026", "NAME": "CRISTINA", "FTECH": "OFCL", "FCST_DTG": "2026-06-11 00:00:00", "RUN_DTG": "2026-06-11 06:25:52", "BASIN": "EP", "STMNR": 3, "CAT_ID": null, "CAT_DESC": null, "MSGID": "WTPZ23 KNHC 110231", "VALIDTIME": "2026-06-10 00:00:00" }, "geometry": { "type": "Point", "coordinates": [ -88.0, 12.5 ] } },
{ "type": "Feature", "properties": { "ID": 21917, "LAT": 12.4, "LON": -88.4, "VMAX": 35.0, "MSLP": 1006.0, "RMAX": 30.0, "FSPD": 1.50731, "FDIR": 269.99997, "RENV": 80.0, "PENV": 1012.0, "VALIDT": 0, "DTG": "2026-06-10 06:00", "LATNOW": 12.8, "LONNOW": -89.1, "WINDNOW": 30.0, "DIRNOW": 4.0, "SPDNOW": 2.0, "TECH": "TRAK", "ADVNR": 12, "ATCFID": "EP032026", "NAME": "CRISTINA", "FTECH": "OFCL", "FCST_DTG": "2026-06-11 00:00:00", "RUN_DTG": "2026-06-11 06:25:52", "BASIN": "EP", "STMNR": 3, "CAT_ID": null, "CAT_DESC": null, "MSGID": "WTPZ23 KNHC 110231", "VALIDTIME": "2026-06-10 06:00:00" }, "geometry": { "type": "Point", "coordinates": [ -88.400002, 12.4 ] } },
{ "type": "Feature", "properties": { "ID": 21918, "LAT": 12.4, "LON": -88.7, "VMAX": 35.0, "MSLP": 1006.0, "RMAX": 30.0, "FSPD": 0.71905, "FDIR": 315.68, "RENV": 80.0, "PENV": 1012.0, "VALIDT": 0, "DTG": "2026-06-10 12:00", "LATNOW": 12.8, "LONNOW": -89.1, "WINDNOW": 30.0, "DIRNOW": 4.0, "SPDNOW": 2.0, "TECH": "TRAK", "ADVNR": 12, "ATCFID": "EP032026", "NAME": "CRISTINA", "FTECH": "OFCL", "FCST_DTG": "2026-06-11 00:00:00", "RUN_DTG": "2026-06-11 06:25:52", "BASIN": "EP", "STMNR": 3, "CAT_ID": null, "CAT_DESC": null, "MSGID": "WTPZ23 KNHC 110231", "VALIDTIME": "2026-06-10 12:00:00" }, "geometry": { "type": "Point", "coordinates": [ -88.699997, 12.4 ] } },
{ "type": "Feature", "properties": { "ID": 21919, "LAT": 12.5, "LON": -88.8, "VMAX": 30.0, "MSLP": 1007.0, "RMAX": 30.0, "FSPD": 2.15626, "FDIR": 315.70435, "RENV": 80.0, "PENV": 1012.0, "VALIDT": 0, "DTG": "2026-06-10 18:00", "LATNOW": 12.8, "LONNOW": -89.1, "WINDNOW": 30.0, "DIRNOW": 4.0, "SPDNOW": 2.0, "TECH": "TRAK", "ADVNR": 12, "ATCFID": "EP032026", "NAME": "CRISTINA", "FTECH": "OFCL", "FCST_DTG": "2026-06-11 00:00:00", "RUN_DTG": "2026-06-11 06:25:52", "BASIN": "EP", "STMNR": 3, "CAT_ID": null, "CAT_DESC": null, "MSGID": "WTPZ23 KNHC 110231", "VALIDTIME": "2026-06-10 18:00:00" }, "geometry": { "type": "Point", "coordinates": [ -88.800003, 12.5 ] } },
{ "type": "Feature", "properties": { "ID": 21920, "LAT": 12.8, "LON": -89.1, "VMAX": 30.0, "MSLP": 1007.0, "RMAX": 30.0, "FSPD": 3.68096, "FDIR": 326.98718, "RENV": 60.0, "PENV": 1010.0, "VALIDT": 0, "DTG": "2026-06-11 00:00", "LATNOW": 12.8, "LONNOW": -89.1, "WINDNOW": 30.0, "DIRNOW": 4.0, "SPDNOW": 2.0, "TECH": "TRAK", "ADVNR": 12, "ATCFID": "EP032026", "NAME": "CRISTINA", "FTECH": "OFCL", "FCST_DTG": "2026-06-11 00:00:00", "RUN_DTG": "2026-06-11 06:25:52", "BASIN": "EP", "STMNR": 3, "CAT_ID": null, "CAT_DESC": null, "MSGID": "WTPZ23 KNHC 110231", "VALIDTIME": "2026-06-11 00:00:00" }, "geometry": { "type": "Point", "coordinates": [ -89.099998, 12.8 ] } },
{ "type": "Feature", "properties": { "ID": 21921, "LAT": 13.1, "LON": -89.3, "VMAX": 30.0, "MSLP": 1007.0, "RMAX": 30.0, "FSPD": 3.68011, "FDIR": 338.73865, "RENV": 250.0, "PENV": 1012.0, "VALIDT": 3, "DTG": "2026-06-11 03:00", "LATNOW": 12.8, "LONNOW": -89.1, "WINDNOW": 30.0, "DIRNOW": 4.0, "SPDNOW": 2.0, "TECH": "FCST", "ADVNR": 12, "ATCFID": "EP032026", "NAME": "CRISTINA", "FTECH": "OFCL", "FCST_DTG": "2026-06-11 00:00:00", "RUN_DTG": "2026-06-11 06:25:52", "BASIN": "EP", "STMNR": 3, "CAT_ID": null, "CAT_DESC": null, "MSGID": "WTPZ23 KNHC 110231", "VALIDTIME": "2026-06-11 03:00:00" }, "geometry": { "type": "Point", "coordinates": [ -89.300003, 13.1 ] } },
{ "type": "Feature", "properties": { "ID": 21922, "LAT": 13.7, "LON": -89.54, "VMAX": 30.0, "MSLP": 1007.0, "RMAX": 30.0, "FSPD": 3.67908, "FDIR": 338.7799, "RENV": 250.0, "PENV": 1012.0, "VALIDT": 8, "DTG": "2026-06-11 08:00", "LATNOW": 12.8, "LONNOW": -89.1, "WINDNOW": 30.0, "DIRNOW": 4.0, "SPDNOW": 2.0, "TECH": "FCST", "ADVNR": 12, "ATCFID": "EP032026", "NAME": "CRISTINA", "FTECH": "OFCL", "FCST_DTG": "2026-06-11 00:00:00", "RUN_DTG": "2026-06-11 06:25:52", "BASIN": "EP", "STMNR": 3, "CAT_ID": null, "CAT_DESC": null, "MSGID": "WTPZ23 KNHC 110231", "VALIDTIME": "2026-06-11 08:00:00" }, "geometry": { "type": "Point", "coordinates": [ -89.540001, 13.700001 ] } },
{ "type": "Feature", "properties": { "ID": 21923, "LAT": 14.1, "LON": -89.7, "VMAX": 25.0, "MSLP": 1011.80975, "RMAX": 32.62373, "FSPD": 3.67908, "FDIR": 338.7799, "RENV": 250.0, "PENV": 1012.0, "VALIDT": 12, "DTG": "2026-06-11 12:00", "LATNOW": 12.8, "LONNOW": -89.1, "WINDNOW": 30.0, "DIRNOW": 4.0, "SPDNOW": 2.0, "TECH": "FCST", "ADVNR": 12, "ATCFID": "EP032026", "NAME": "CRISTINA", "FTECH": "OFCL", "FCST_DTG": "2026-06-11 00:00:00", "RUN_DTG": "2026-06-11 06:25:52", "BASIN": "EP", "STMNR": 3, "CAT_ID": null, "CAT_DESC": null, "MSGID": "WTPZ23 KNHC 110231", "VALIDTIME": "2026-06-11 12:00:00" }, "geometry": { "type": "Point", "coordinates": [ -89.699997, 14.1 ] } },
{ "type": "Feature", "properties": { "ID": 21920, "LAT": 12.8, "LON": -89.1, "VMAX": 30.0, "MSLP": 1007.0, "RMAX": 30.0, "FSPD": 3.68096, "FDIR": 326.98718, "RENV": 60.0, "PENV": 1010.0, "VALIDT": 0, "DTG": "2026-06-11 00:00", "LATNOW": 12.8, "LONNOW": -89.1, "WINDNOW": 30.0, "DIRNOW": 4.0, "SPDNOW": 2.0, "TECH": "TRAK", "ADVNR": 12, "ATCFID": "EP032026", "NAME": "CRISTINA", "FTECH": "OFCL", "FCST_DTG": "2026-06-11 00:00:00", "RUN_DTG": "2026-06-11 06:25:52", "BASIN": "EP", "STMNR": 3, "CAT_ID": null, "CAT_DESC": null, "MSGID": "WTPZ23 KNHC 110231", "VALIDTIME": "2026-06-11 00:00:00" }, "geometry": { "type": "LineString", "coordinates": [ [ -89.4, 9.5 ], [ -88.9, 9.6 ], [ -89.4, 10.7 ], [ -89.4, 11.1 ], [ -88.4, 11.3 ], [ -88.3, 10.5 ], [ -87.5, 10.4 ], [ -87.3, 10.6 ], [ -87.5, 11.2 ], [ -87.7, 11.9 ], [ -87.8, 12.4 ], [ -87.5, 12.6 ], [ -87.5, 12.5 ], [ -87.7, 12.7 ], [ -88.0, 12.5 ], [ -88.4, 12.4 ], [ -88.7, 12.4 ], [ -88.8, 12.5 ], [ -89.1, 12.8 ] ] } },
{ "type": "Feature", "properties": { "ID": 21923, "LAT": 14.1, "LON": -89.7, "VMAX": 25.0, "MSLP": 1011.80975, "RMAX": 32.62373, "FSPD": 3.67908, "FDIR": 338.7799, "RENV": 250.0, "PENV": 1012.0, "VALIDT": 12, "DTG": "2026-06-11 12:00", "LATNOW": 12.8, "LONNOW": -89.1, "WINDNOW": 30.0, "DIRNOW": 4.0, "SPDNOW": 2.0, "TECH": "FCST", "ADVNR": 12, "ATCFID": "EP032026", "NAME": "CRISTINA", "FTECH": "OFCL", "FCST_DTG": "2026-06-11 00:00:00", "RUN_DTG": "2026-06-11 06:25:52", "BASIN": "EP", "STMNR": 3, "CAT_ID": null, "CAT_DESC": null, "MSGID": "WTPZ23 KNHC 110231", "VALIDTIME": "2026-06-11 12:00:00" }, "geometry": { "type": "LineString", "coordinates": [ [ -89.1, 12.8 ], [ -89.3, 13.1 ], [ -89.54, 13.7 ], [ -89.7, 14.1 ] ] } }
]
}
