{
"type": "FeatureCollection",
"crs": { "type": "name", "properties": { "name": "urn:ogc:def:crs:OGC:1.3:CRS84" } },
"features": [
{ "type": "Feature", "properties": { "ID": 261656, "LAT": 14.5, "LON": -31.4, "VMAX": 20.0, "MSLP": 1009.0, "RMAX": 90.0, "FSPD": 8.0315, "FDIR": 277.36017, "RENV": 200.0, "PENV": 1011.0, "VALIDT": 0, "DTG": "2024-09-25 06:00", "LATNOW": 22.9, "LONNOW": -48.9, "WINDNOW": 30.0, "DIRNOW": 1.0, "SPDNOW": 2.0, "TECH": "TRAK", "ADVNR": 15, "ATCFID": "AL112024", "NAME": "JOYCE", "FTECH": "OFCL", "FCST_DTG": "2024-10-01 00:00:00", "RUN_DTG": "2024-10-01 15:44:30", "BASIN": "AL", "STMNR": 11, "CAT_ID": null, "CAT_DESC": null, "MSGID": "WTNT21 KNHC 010230", "VALIDTIME": "2024-09-25 06:00:00" }, "geometry": { "type": "Point", "coordinates": [ -31.4, 14.5 ] } },
{ "type": "Feature", "properties": { "ID": 261657, "LAT": 14.7, "LON": -33.0, "VMAX": 20.0, "MSLP": 1009.0, "RMAX": 90.0, "FSPD": 3.52024, "FDIR": 278.40326, "RENV": 200.0, "PENV": 1011.0, "VALIDT": 0, "DTG": "2024-09-25 12:00", "LATNOW": 22.9, "LONNOW": -48.9, "WINDNOW": 30.0, "DIRNOW": 1.0, "SPDNOW": 2.0, "TECH": "TRAK", "ADVNR": 15, "ATCFID": "AL112024", "NAME": "JOYCE", "FTECH": "OFCL", "FCST_DTG": "2024-10-01 00:00:00", "RUN_DTG": "2024-10-01 15:44:30", "BASIN": "AL", "STMNR": 11, "CAT_ID": null, "CAT_DESC": null, "MSGID": "WTNT21 KNHC 010230", "VALIDTIME": "2024-09-25 12:00:00" }, "geometry": { "type": "Point", "coordinates": [ -33.0, 14.7 ] } },
{ "type": "Feature", "properties": { "ID": 261658, "LAT": 14.8, "LON": -33.7, "VMAX": 20.0, "MSLP": 1009.0, "RMAX": 90.0, "FSPD": 9.46196, "FDIR": 273.11664, "RENV": 200.0, "PENV": 1011.0, "VALIDT": 0, "DTG": "2024-09-25 18:00", "LATNOW": 22.9, "LONNOW": -48.9, "WINDNOW": 30.0, "DIRNOW": 1.0, "SPDNOW": 2.0, "TECH": "TRAK", "ADVNR": 15, "ATCFID": "AL112024", "NAME": "JOYCE", "FTECH": "OFCL", "FCST_DTG": "2024-10-01 00:00:00", "RUN_DTG": "2024-10-01 15:44:30", "BASIN": "AL", "STMNR": 11, "CAT_ID": null, "CAT_DESC": null, "MSGID": "WTNT21 KNHC 010230", "VALIDTIME": "2024-09-25 18:00:00" }, "geometry": { "type": "Point", "coordinates": [ -33.700001, 14.8 ] } },
{ "type": "Feature", "properties": { "ID": 261659, "LAT": 14.9, "LON": -35.6, "VMAX": 20.0, "MSLP": 1009.0, "RMAX": 100.0, "FSPD": 5.4915, "FDIR": 275.37537, "RENV": 200.0, "PENV": 1011.0, "VALIDT": 0, "DTG": "2024-09-26 00:00", "LATNOW": 22.9, "LONNOW": -48.9, "WINDNOW": 30.0, "DIRNOW": 1.0, "SPDNOW": 2.0, "TECH": "TRAK", "ADVNR": 15, "ATCFID": "AL112024", "NAME": "JOYCE", "FTECH": "OFCL", "FCST_DTG": "2024-10-01 00:00:00", "RUN_DTG": "2024-10-01 15:44:30", "BASIN": "AL", "STMNR": 11, "CAT_ID": null, "CAT_DESC": null, "MSGID": "WTNT21 KNHC 010230", "VALIDTIME": "2024-09-26 00:00:00" }, "geometry": { "type": "Point", "coordinates": [ -35.599998, 14.9 ] } },
{ "type": "Feature", "properties": { "ID": 261660, "LAT": 15.0, "LON": -36.7, "VMAX": 20.0, "MSLP": 1009.0, "RMAX": 90.0, "FSPD": 5.19996, "FDIR": 287.26532, "RENV": 200.0, "PENV": 1011.0, "VALIDT": 0, "DTG": "2024-09-26 06:00", "LATNOW": 22.9, "LONNOW": -48.9, "WINDNOW": 30.0, "DIRNOW": 1.0, "SPDNOW": 2.0, "TECH": "TRAK", "ADVNR": 15, "ATCFID": "AL112024", "NAME": "JOYCE", "FTECH": "OFCL", "FCST_DTG": "2024-10-01 00:00:00", "RUN_DTG": "2024-10-01 15:44:30", "BASIN": "AL", "STMNR": 11, "CAT_ID": null, "CAT_DESC": null, "MSGID": "WTNT21 KNHC 010230", "VALIDTIME": "2024-09-26 06:00:00" }, "geometry": { "type": "Point", "coordinates": [ -36.700001, 15.0 ] } },
{ "type": "Feature", "properties": { "ID": 261661, "LAT": 15.3, "LON": -37.7, "VMAX": 25.0, "MSLP": 1008.0, "RMAX": 60.0, "FSPD": 6.93746, "FDIR": 291.76328, "RENV": 180.0, "PENV": 1011.0, "VALIDT": 0, "DTG": "2024-09-26 12:00", "LATNOW": 22.9, "LONNOW": -48.9, "WINDNOW": 30.0, "DIRNOW": 1.0, "SPDNOW": 2.0, "TECH": "TRAK", "ADVNR": 15, "ATCFID": "AL112024", "NAME": "JOYCE", "FTECH": "OFCL", "FCST_DTG": "2024-10-01 00:00:00", "RUN_DTG": "2024-10-01 15:44:30", "BASIN": "AL", "STMNR": 11, "CAT_ID": null, "CAT_DESC": null, "MSGID": "WTNT21 KNHC 010230", "VALIDTIME": "2024-09-26 12:00:00" }, "geometry": { "type": "Point", "coordinates": [ -37.700001, 15.3 ] } },
{ "type": "Feature", "properties": { "ID": 261662, "LAT": 15.8, "LON": -39.0, "VMAX": 30.0, "MSLP": 1007.0, "RMAX": 60.0, "FSPD": 5.65567, "FDIR": 285.83585, "RENV": 180.0, "PENV": 1011.0, "VALIDT": 0, "DTG": "2024-09-26 18:00", "LATNOW": 22.9, "LONNOW": -48.9, "WINDNOW": 30.0, "DIRNOW": 1.0, "SPDNOW": 2.0, "TECH": "TRAK", "ADVNR": 15, "ATCFID": "AL112024", "NAME": "JOYCE", "FTECH": "OFCL", "FCST_DTG": "2024-10-01 00:00:00", "RUN_DTG": "2024-10-01 15:44:30", "BASIN": "AL", "STMNR": 11, "CAT_ID": null, "CAT_DESC": null, "MSGID": "WTNT21 KNHC 010230", "VALIDTIME": "2024-09-26 18:00:00" }, "geometry": { "type": "Point", "coordinates": [ -39.0, 15.8 ] } },
{ "type": "Feature", "properties": { "ID": 261663, "LAT": 16.1, "LON": -40.1, "VMAX": 30.0, "MSLP": 1007.0, "RMAX": 50.0, "FSPD": 8.72652, "FDIR": 302.0437, "RENV": 180.0, "PENV": 1011.0, "VALIDT": 0, "DTG": "2024-09-27 00:00", "LATNOW": 22.9, "LONNOW": -48.9, "WINDNOW": 30.0, "DIRNOW": 1.0, "SPDNOW": 2.0, "TECH": "TRAK", "ADVNR": 15, "ATCFID": "AL112024", "NAME": "JOYCE", "FTECH": "OFCL", "FCST_DTG": "2024-10-01 00:00:00", "RUN_DTG": "2024-10-01 15:44:30", "BASIN": "AL", "STMNR": 11, "CAT_ID": null, "CAT_DESC": null, "MSGID": "WTNT21 KNHC 010230", "VALIDTIME": "2024-09-27 00:00:00" }, "geometry": { "type": "Point", "coordinates": [ -40.099998, 16.1 ] } },
{ "type": "Feature", "properties": { "ID": 261664, "LAT": 17.0, "LON": -41.6, "VMAX": 30.0, "MSLP": 1007.0, "RMAX": 50.0, "FSPD": 5.68867, "FDIR": 316.34122, "RENV": 180.0, "PENV": 1011.0, "VALIDT": 0, "DTG": "2024-09-27 06:00", "LATNOW": 22.9, "LONNOW": -48.9, "WINDNOW": 30.0, "DIRNOW": 1.0, "SPDNOW": 2.0, "TECH": "TRAK", "ADVNR": 15, "ATCFID": "AL112024", "NAME": "JOYCE", "FTECH": "OFCL", "FCST_DTG": "2024-10-01 00:00:00", "RUN_DTG": "2024-10-01 15:44:30", "BASIN": "AL", "STMNR": 11, "CAT_ID": null, "CAT_DESC": null, "MSGID": "WTNT21 KNHC 010230", "VALIDTIME": "2024-09-27 06:00:00" }, "geometry": { "type": "Point", "coordinates": [ -41.599998, 17.0 ] } },
{ "type": "Feature", "properties": { "ID": 261665, "LAT": 17.8, "LON": -42.4, "VMAX": 35.0, "MSLP": 1007.0, "RMAX": 50.0, "FSPD": 5.96363, "FDIR": 295.5512, "RENV": 180.0, "PENV": 1011.0, "VALIDT": 0, "DTG": "2024-09-27 12:00", "LATNOW": 22.9, "LONNOW": -48.9, "WINDNOW": 30.0, "DIRNOW": 1.0, "SPDNOW": 2.0, "TECH": "TRAK", "ADVNR": 15, "ATCFID": "AL112024", "NAME": "JOYCE", "FTECH": "OFCL", "FCST_DTG": "2024-10-01 00:00:00", "RUN_DTG": "2024-10-01 15:44:30", "BASIN": "AL", "STMNR": 11, "CAT_ID": null, "CAT_DESC": null, "MSGID": "WTNT21 KNHC 010230", "VALIDTIME": "2024-09-27 12:00:00" }, "geometry": { "type": "Point", "coordinates": [ -42.400002, 17.799999 ] } },
{ "type": "Feature", "properties": { "ID": 261666, "LAT": 18.3, "LON": -43.5, "VMAX": 45.0, "MSLP": 1001.0, "RMAX": 40.0, "FSPD": 3.98709, "FDIR": 301.07184, "RENV": 150.0, "PENV": 1011.0, "VALIDT": 0, "DTG": "2024-09-27 18:00", "LATNOW": 22.9, "LONNOW": -48.9, "WINDNOW": 30.0, "DIRNOW": 1.0, "SPDNOW": 2.0, "TECH": "TRAK", "ADVNR": 15, "ATCFID": "AL112024", "NAME": "JOYCE", "FTECH": "OFCL", "FCST_DTG": "2024-10-01 00:00:00", "RUN_DTG": "2024-10-01 15:44:30", "BASIN": "AL", "STMNR": 11, "CAT_ID": null, "CAT_DESC": null, "MSGID": "WTNT21 KNHC 010230", "VALIDTIME": "2024-09-27 18:00:00" }, "geometry": { "type": "Point", "coordinates": [ -43.5, 18.299999 ] } },
{ "type": "Feature", "properties": { "ID": 261667, "LAT": 18.7, "LON": -44.2, "VMAX": 45.0, "MSLP": 1004.0, "RMAX": 20.0, "FSPD": 4.59575, "FDIR": 312.19318, "RENV": 150.0, "PENV": 1012.0, "VALIDT": 0, "DTG": "2024-09-28 00:00", "LATNOW": 22.9, "LONNOW": -48.9, "WINDNOW": 30.0, "DIRNOW": 1.0, "SPDNOW": 2.0, "TECH": "TRAK", "ADVNR": 15, "ATCFID": "AL112024", "NAME": "JOYCE", "FTECH": "OFCL", "FCST_DTG": "2024-10-01 00:00:00", "RUN_DTG": "2024-10-01 15:44:30", "BASIN": "AL", "STMNR": 11, "CAT_ID": null, "CAT_DESC": null, "MSGID": "WTNT21 KNHC 010230", "VALIDTIME": "2024-09-28 00:00:00" }, "geometry": { "type": "Point", "coordinates": [ -44.200001, 18.700001 ] } },
{ "type": "Feature", "properties": { "ID": 261668, "LAT": 19.3, "LON": -44.9, "VMAX": 45.0, "MSLP": 1004.0, "RMAX": 20.0, "FSPD": 4.25818, "FDIR": 307.16162, "RENV": 150.0, "PENV": 1012.0, "VALIDT": 0, "DTG": "2024-09-28 06:00", "LATNOW": 22.9, "LONNOW": -48.9, "WINDNOW": 30.0, "DIRNOW": 1.0, "SPDNOW": 2.0, "TECH": "TRAK", "ADVNR": 15, "ATCFID": "AL112024", "NAME": "JOYCE", "FTECH": "OFCL", "FCST_DTG": "2024-10-01 00:00:00", "RUN_DTG": "2024-10-01 15:44:30", "BASIN": "AL", "STMNR": 11, "CAT_ID": null, "CAT_DESC": null, "MSGID": "WTNT21 KNHC 010230", "VALIDTIME": "2024-09-28 06:00:00" }, "geometry": { "type": "Point", "coordinates": [ -44.900002, 19.299999 ] } },
{ "type": "Feature", "properties": { "ID": 261669, "LAT": 19.8, "LON": -45.6, "VMAX": 45.0, "MSLP": 1004.0, "RMAX": 20.0, "FSPD": 3.72024, "FDIR": 294.50977, "RENV": 150.0, "PENV": 1012.0, "VALIDT": 0, "DTG": "2024-09-28 12:00", "LATNOW": 22.9, "LONNOW": -48.9, "WINDNOW": 30.0, "DIRNOW": 1.0, "SPDNOW": 2.0, "TECH": "TRAK", "ADVNR": 15, "ATCFID": "AL112024", "NAME": "JOYCE", "FTECH": "OFCL", "FCST_DTG": "2024-10-01 00:00:00", "RUN_DTG": "2024-10-01 15:44:30", "BASIN": "AL", "STMNR": 11, "CAT_ID": null, "CAT_DESC": null, "MSGID": "WTNT21 KNHC 010230", "VALIDTIME": "2024-09-28 12:00:00" }, "geometry": { "type": "Point", "coordinates": [ -45.599998, 19.799999 ] } },
{ "type": "Feature", "properties": { "ID": 261670, "LAT": 20.1, "LON": -46.3, "VMAX": 40.0, "MSLP": 1003.0, "RMAX": 20.0, "FSPD": 4.94038, "FDIR": 308.66632, "RENV": 150.0, "PENV": 1012.0, "VALIDT": 0, "DTG": "2024-09-28 18:00", "LATNOW": 22.9, "LONNOW": -48.9, "WINDNOW": 30.0, "DIRNOW": 1.0, "SPDNOW": 2.0, "TECH": "TRAK", "ADVNR": 15, "ATCFID": "AL112024", "NAME": "JOYCE", "FTECH": "OFCL", "FCST_DTG": "2024-10-01 00:00:00", "RUN_DTG": "2024-10-01 15:44:30", "BASIN": "AL", "STMNR": 11, "CAT_ID": null, "CAT_DESC": null, "MSGID": "WTNT21 KNHC 010230", "VALIDTIME": "2024-09-28 18:00:00" }, "geometry": { "type": "Point", "coordinates": [ -46.299999, 20.1 ] } },
{ "type": "Feature", "properties": { "ID": 261671, "LAT": 20.7, "LON": -47.1, "VMAX": 40.0, "MSLP": 1004.0, "RMAX": 20.0, "FSPD": 3.94362, "FDIR": 301.45297, "RENV": 120.0, "PENV": 1011.0, "VALIDT": 0, "DTG": "2024-09-29 00:00", "LATNOW": 22.9, "LONNOW": -48.9, "WINDNOW": 30.0, "DIRNOW": 1.0, "SPDNOW": 2.0, "TECH": "TRAK", "ADVNR": 15, "ATCFID": "AL112024", "NAME": "JOYCE", "FTECH": "OFCL", "FCST_DTG": "2024-10-01 00:00:00", "RUN_DTG": "2024-10-01 15:44:30", "BASIN": "AL", "STMNR": 11, "CAT_ID": null, "CAT_DESC": null, "MSGID": "WTNT21 KNHC 010230", "VALIDTIME": "2024-09-29 00:00:00" }, "geometry": { "type": "Point", "coordinates": [ -47.099998, 20.700001 ] } },
{ "type": "Feature", "properties": { "ID": 261672, "LAT": 21.1, "LON": -47.8, "VMAX": 40.0, "MSLP": 1004.0, "RMAX": 20.0, "FSPD": 2.60954, "FDIR": 293.22092, "RENV": 120.0, "PENV": 1010.0, "VALIDT": 0, "DTG": "2024-09-29 06:00", "LATNOW": 22.9, "LONNOW": -48.9, "WINDNOW": 30.0, "DIRNOW": 1.0, "SPDNOW": 2.0, "TECH": "TRAK", "ADVNR": 15, "ATCFID": "AL112024", "NAME": "JOYCE", "FTECH": "OFCL", "FCST_DTG": "2024-10-01 00:00:00", "RUN_DTG": "2024-10-01 15:44:30", "BASIN": "AL", "STMNR": 11, "CAT_ID": null, "CAT_DESC": null, "MSGID": "WTNT21 KNHC 010230", "VALIDTIME": "2024-09-29 06:00:00" }, "geometry": { "type": "Point", "coordinates": [ -47.799999, 21.1 ] } },
{ "type": "Feature", "properties": { "ID": 261673, "LAT": 21.3, "LON": -48.3, "VMAX": 40.0, "MSLP": 1005.0, "RMAX": 20.0, "FSPD": 4.60421, "FDIR": 321.45642, "RENV": 120.0, "PENV": 1010.0, "VALIDT": 0, "DTG": "2024-09-29 12:00", "LATNOW": 22.9, "LONNOW": -48.9, "WINDNOW": 30.0, "DIRNOW": 1.0, "SPDNOW": 2.0, "TECH": "TRAK", "ADVNR": 15, "ATCFID": "AL112024", "NAME": "JOYCE", "FTECH": "OFCL", "FCST_DTG": "2024-10-01 00:00:00", "RUN_DTG": "2024-10-01 15:44:30", "BASIN": "AL", "STMNR": 11, "CAT_ID": null, "CAT_DESC": null, "MSGID": "WTNT21 KNHC 010230", "VALIDTIME": "2024-09-29 12:00:00" }, "geometry": { "type": "Point", "coordinates": [ -48.299999, 21.299999 ] } },
{ "type": "Feature", "properties": { "ID": 261674, "LAT": 22.0, "LON": -48.9, "VMAX": 35.0, "MSLP": 1006.0, "RMAX": 30.0, "FSPD": 2.8386, "FDIR": 302.93542, "RENV": 120.0, "PENV": 1010.0, "VALIDT": 0, "DTG": "2024-09-29 18:00", "LATNOW": 22.9, "LONNOW": -48.9, "WINDNOW": 30.0, "DIRNOW": 1.0, "SPDNOW": 2.0, "TECH": "TRAK", "ADVNR": 15, "ATCFID": "AL112024", "NAME": "JOYCE", "FTECH": "OFCL", "FCST_DTG": "2024-10-01 00:00:00", "RUN_DTG": "2024-10-01 15:44:30", "BASIN": "AL", "STMNR": 11, "CAT_ID": null, "CAT_DESC": null, "MSGID": "WTNT21 KNHC 010230", "VALIDTIME": "2024-09-29 18:00:00" }, "geometry": { "type": "Point", "coordinates": [ -48.900002, 22.0 ] } },
{ "type": "Feature", "properties": { "ID": 261675, "LAT": 22.3, "LON": -49.4, "VMAX": 30.0, "MSLP": 1006.0, "RMAX": 40.0, "FSPD": 1.40216, "FDIR": 222.79538, "RENV": 120.0, "PENV": 1010.0, "VALIDT": 0, "DTG": "2024-09-30 00:00", "LATNOW": 22.9, "LONNOW": -48.9, "WINDNOW": 30.0, "DIRNOW": 1.0, "SPDNOW": 2.0, "TECH": "TRAK", "ADVNR": 15, "ATCFID": "AL112024", "NAME": "JOYCE", "FTECH": "OFCL", "FCST_DTG": "2024-10-01 00:00:00", "RUN_DTG": "2024-10-01 15:44:30", "BASIN": "AL", "STMNR": 11, "CAT_ID": null, "CAT_DESC": null, "MSGID": "WTNT21 KNHC 010230", "VALIDTIME": "2024-09-30 00:00:00" }, "geometry": { "type": "Point", "coordinates": [ -49.400002, 22.299999 ] } },
{ "type": "Feature", "properties": { "ID": 261676, "LAT": 22.1, "LON": -49.6, "VMAX": 30.0, "MSLP": 1006.0, "RMAX": 40.0, "FSPD": 1.40216, "FDIR": 42.79541, "RENV": 150.0, "PENV": 1009.0, "VALIDT": 0, "DTG": "2024-09-30 06:00", "LATNOW": 22.9, "LONNOW": -48.9, "WINDNOW": 30.0, "DIRNOW": 1.0, "SPDNOW": 2.0, "TECH": "TRAK", "ADVNR": 15, "ATCFID": "AL112024", "NAME": "JOYCE", "FTECH": "OFCL", "FCST_DTG": "2024-10-01 00:00:00", "RUN_DTG": "2024-10-01 15:44:30", "BASIN": "AL", "STMNR": 11, "CAT_ID": null, "CAT_DESC": null, "MSGID": "WTNT21 KNHC 010230", "VALIDTIME": "2024-09-30 06:00:00" }, "geometry": { "type": "Point", "coordinates": [ -49.599998, 22.1 ] } },
{ "type": "Feature", "properties": { "ID": 261677, "LAT": 22.3, "LON": -49.4, "VMAX": 30.0, "MSLP": 1006.0, "RMAX": 40.0, "FSPD": 2.59117, "FDIR": 66.60446, "RENV": 120.0, "PENV": 1010.0, "VALIDT": 0, "DTG": "2024-09-30 12:00", "LATNOW": 22.9, "LONNOW": -48.9, "WINDNOW": 30.0, "DIRNOW": 1.0, "SPDNOW": 2.0, "TECH": "TRAK", "ADVNR": 15, "ATCFID": "AL112024", "NAME": "JOYCE", "FTECH": "OFCL", "FCST_DTG": "2024-10-01 00:00:00", "RUN_DTG": "2024-10-01 15:44:30", "BASIN": "AL", "STMNR": 11, "CAT_ID": null, "CAT_DESC": null, "MSGID": "WTNT21 KNHC 010230", "VALIDTIME": "2024-09-30 12:00:00" }, "geometry": { "type": "Point", "coordinates": [ -49.400002, 22.299999 ] } },
{ "type": "Feature", "properties": { "ID": 261678, "LAT": 22.5, "LON": -48.9, "VMAX": 30.0, "MSLP": 1006.0, "RMAX": 40.0, "FSPD": 2.05778, "FDIR": 360.0, "RENV": 120.0, "PENV": 1009.0, "VALIDT": 0, "DTG": "2024-09-30 18:00", "LATNOW": 22.9, "LONNOW": -48.9, "WINDNOW": 30.0, "DIRNOW": 1.0, "SPDNOW": 2.0, "TECH": "TRAK", "ADVNR": 15, "ATCFID": "AL112024", "NAME": "JOYCE", "FTECH": "OFCL", "FCST_DTG": "2024-10-01 00:00:00", "RUN_DTG": "2024-10-01 15:44:30", "BASIN": "AL", "STMNR": 11, "CAT_ID": null, "CAT_DESC": null, "MSGID": "WTNT21 KNHC 010230", "VALIDTIME": "2024-09-30 18:00:00" }, "geometry": { "type": "Point", "coordinates": [ -48.900002, 22.5 ] } },
{ "type": "Feature", "properties": { "ID": 261679, "LAT": 22.9, "LON": -48.9, "VMAX": 30.0, "MSLP": 1006.0, "RMAX": 40.0, "FSPD": 1.39866, "FDIR": 317.36023, "RENV": 120.0, "PENV": 1010.0, "VALIDT": 0, "DTG": "2024-10-01 00:00", "LATNOW": 22.9, "LONNOW": -48.9, "WINDNOW": 30.0, "DIRNOW": 1.0, "SPDNOW": 2.0, "TECH": "TRAK", "ADVNR": 15, "ATCFID": "AL112024", "NAME": "JOYCE", "FTECH": "OFCL", "FCST_DTG": "2024-10-01 00:00:00", "RUN_DTG": "2024-10-01 15:44:30", "BASIN": "AL", "STMNR": 11, "CAT_ID": null, "CAT_DESC": null, "MSGID": "WTNT21 KNHC 010230", "VALIDTIME": "2024-10-01 00:00:00" }, "geometry": { "type": "Point", "coordinates": [ -48.900002, 22.9 ] } },
{ "type": "Feature", "properties": { "ID": 261680, "LAT": 23.0, "LON": -49.0, "VMAX": 30.0, "MSLP": 1006.0, "RMAX": 40.15826, "FSPD": 1.39866, "FDIR": 317.36023, "RENV": 250.0, "PENV": 1012.0, "VALIDT": 3, "DTG": "2024-10-01 03:00", "LATNOW": 22.9, "LONNOW": -48.9, "WINDNOW": 30.0, "DIRNOW": 1.0, "SPDNOW": 2.0, "TECH": "FCST", "ADVNR": 15, "ATCFID": "AL112024", "NAME": "JOYCE", "FTECH": "OFCL", "FCST_DTG": "2024-10-01 00:00:00", "RUN_DTG": "2024-10-01 15:44:30", "BASIN": "AL", "STMNR": 11, "CAT_ID": null, "CAT_DESC": null, "MSGID": "WTNT21 KNHC 010230", "VALIDTIME": "2024-10-01 03:00:00" }, "geometry": { "type": "Point", "coordinates": [ -49.0, 23.0 ] } },
{ "type": "Feature", "properties": { "ID": 261679, "LAT": 22.9, "LON": -48.9, "VMAX": 30.0, "MSLP": 1006.0, "RMAX": 40.0, "FSPD": 1.39866, "FDIR": 317.36023, "RENV": 120.0, "PENV": 1010.0, "VALIDT": 0, "DTG": "2024-10-01 00:00", "LATNOW": 22.9, "LONNOW": -48.9, "WINDNOW": 30.0, "DIRNOW": 1.0, "SPDNOW": 2.0, "TECH": "TRAK", "ADVNR": 15, "ATCFID": "AL112024", "NAME": "JOYCE", "FTECH": "OFCL", "FCST_DTG": "2024-10-01 00:00:00", "RUN_DTG": "2024-10-01 15:44:30", "BASIN": "AL", "STMNR": 11, "CAT_ID": null, "CAT_DESC": null, "MSGID": "WTNT21 KNHC 010230", "VALIDTIME": "2024-10-01 00:00:00" }, "geometry": { "type": "LineString", "coordinates": [ [ -31.4, 14.5 ], [ -33.0, 14.7 ], [ -33.7, 14.8 ], [ -35.6, 14.9 ], [ -36.7, 15.0 ], [ -37.7, 15.3 ], [ -39.0, 15.8 ], [ -40.1, 16.1 ], [ -41.6, 17.0 ], [ -42.4, 17.8 ], [ -43.5, 18.3 ], [ -44.2, 18.7 ], [ -44.9, 19.3 ], [ -45.6, 19.8 ], [ -46.3, 20.1 ], [ -47.1, 20.7 ], [ -47.8, 21.1 ], [ -48.3, 21.3 ], [ -48.9, 22.0 ], [ -49.4, 22.3 ], [ -49.6, 22.1 ], [ -49.4, 22.3 ], [ -48.9, 22.5 ], [ -48.9, 22.9 ] ] } },
{ "type": "Feature", "properties": { "ID": 261680, "LAT": 23.0, "LON": -49.0, "VMAX": 30.0, "MSLP": 1006.0, "RMAX": 40.15826, "FSPD": 1.39866, "FDIR": 317.36023, "RENV": 250.0, "PENV": 1012.0, "VALIDT": 3, "DTG": "2024-10-01 03:00", "LATNOW": 22.9, "LONNOW": -48.9, "WINDNOW": 30.0, "DIRNOW": 1.0, "SPDNOW": 2.0, "TECH": "FCST", "ADVNR": 15, "ATCFID": "AL112024", "NAME": "JOYCE", "FTECH": "OFCL", "FCST_DTG": "2024-10-01 00:00:00", "RUN_DTG": "2024-10-01 15:44:30", "BASIN": "AL", "STMNR": 11, "CAT_ID": null, "CAT_DESC": null, "MSGID": "WTNT21 KNHC 010230", "VALIDTIME": "2024-10-01 03:00:00" }, "geometry": { "type": "LineString", "coordinates": [ [ -48.9, 22.9 ], [ -49.0, 23.0 ] ] } }
]
}
