{
"type": "FeatureCollection",
"crs": { "type": "name", "properties": { "name": "urn:ogc:def:crs:OGC:1.3:CRS84" } },
"features": [
{ "type": "Feature", "properties": { "ID": 336074, "LAT": 29.5, "LON": -80.0, "VMAX": 25.0, "MSLP": 1013.0, "RMAX": 75.0, "FSPD": 4.6514, "FDIR": 5.49902, "RENV": 80.0, "PENV": 1014.0, "VALIDT": 0, "DTG": "2025-07-04 00:00", "LATNOW": 39.2, "LONNOW": -74.8, "WINDNOW": 20.0, "DIRNOW": 10.0, "SPDNOW": 0.0, "TECH": "TRAK", "ADVNR": 8, "ATCFID": "AL032025", "NAME": "CHANTAL", "FTECH": "OFCL", "FCST_DTG": "2025-07-08 00:00:00", "RUN_DTG": "2025-07-08 06:26:33", "BASIN": "AL", "STMNR": 3, "CAT_ID": null, "CAT_DESC": null, "MSGID": "WTNT23 KNHC 061435", "VALIDTIME": "2025-07-04 00:00:00" }, "geometry": { "type": "Point", "coordinates": [ -80.0, 29.5 ] } },
{ "type": "Feature", "properties": { "ID": 336075, "LAT": 30.4, "LON": -79.9, "VMAX": 25.0, "MSLP": 1013.0, "RMAX": 75.0, "FSPD": 3.46405, "FDIR": 63.54269, "RENV": 90.0, "PENV": 1015.0, "VALIDT": 0, "DTG": "2025-07-04 06:00", "LATNOW": 39.2, "LONNOW": -74.8, "WINDNOW": 20.0, "DIRNOW": 10.0, "SPDNOW": 0.0, "TECH": "TRAK", "ADVNR": 8, "ATCFID": "AL032025", "NAME": "CHANTAL", "FTECH": "OFCL", "FCST_DTG": "2025-07-08 00:00:00", "RUN_DTG": "2025-07-08 06:26:33", "BASIN": "AL", "STMNR": 3, "CAT_ID": null, "CAT_DESC": null, "MSGID": "WTNT23 KNHC 061435", "VALIDTIME": "2025-07-04 06:00:00" }, "geometry": { "type": "Point", "coordinates": [ -79.900002, 30.4 ] } },
{ "type": "Feature", "properties": { "ID": 336076, "LAT": 30.7, "LON": -79.2, "VMAX": 25.0, "MSLP": 1011.0, "RMAX": 75.0, "FSPD": 1.35633, "FDIR": 40.66098, "RENV": 120.0, "PENV": 1014.0, "VALIDT": 0, "DTG": "2025-07-04 12:00", "LATNOW": 39.2, "LONNOW": -74.8, "WINDNOW": 20.0, "DIRNOW": 10.0, "SPDNOW": 0.0, "TECH": "TRAK", "ADVNR": 8, "ATCFID": "AL032025", "NAME": "CHANTAL", "FTECH": "OFCL", "FCST_DTG": "2025-07-08 00:00:00", "RUN_DTG": "2025-07-08 06:26:33", "BASIN": "AL", "STMNR": 3, "CAT_ID": null, "CAT_DESC": null, "MSGID": "WTNT23 KNHC 061435", "VALIDTIME": "2025-07-04 12:00:00" }, "geometry": { "type": "Point", "coordinates": [ -79.199997, 30.700001 ] } },
{ "type": "Feature", "properties": { "ID": 336077, "LAT": 30.9, "LON": -79.0, "VMAX": 30.0, "MSLP": 1012.0, "RMAX": 85.0, "FSPD": 2.05778, "FDIR": 179.99997, "RENV": 120.0, "PENV": 1014.0, "VALIDT": 0, "DTG": "2025-07-04 18:00", "LATNOW": 39.2, "LONNOW": -74.8, "WINDNOW": 20.0, "DIRNOW": 10.0, "SPDNOW": 0.0, "TECH": "TRAK", "ADVNR": 8, "ATCFID": "AL032025", "NAME": "CHANTAL", "FTECH": "OFCL", "FCST_DTG": "2025-07-08 00:00:00", "RUN_DTG": "2025-07-08 06:26:33", "BASIN": "AL", "STMNR": 3, "CAT_ID": null, "CAT_DESC": null, "MSGID": "WTNT23 KNHC 061435", "VALIDTIME": "2025-07-04 18:00:00" }, "geometry": { "type": "Point", "coordinates": [ -79.0, 30.9 ] } },
{ "type": "Feature", "properties": { "ID": 336078, "LAT": 30.5, "LON": -79.0, "VMAX": 30.0, "MSLP": 1012.0, "RMAX": 75.0, "FSPD": 1.68028, "FDIR": 52.24149, "RENV": 120.0, "PENV": 1014.0, "VALIDT": 0, "DTG": "2025-07-05 00:00", "LATNOW": 39.2, "LONNOW": -74.8, "WINDNOW": 20.0, "DIRNOW": 10.0, "SPDNOW": 0.0, "TECH": "TRAK", "ADVNR": 8, "ATCFID": "AL032025", "NAME": "CHANTAL", "FTECH": "OFCL", "FCST_DTG": "2025-07-08 00:00:00", "RUN_DTG": "2025-07-08 06:26:33", "BASIN": "AL", "STMNR": 3, "CAT_ID": null, "CAT_DESC": null, "MSGID": "WTNT23 KNHC 061435", "VALIDTIME": "2025-07-05 00:00:00" }, "geometry": { "type": "Point", "coordinates": [ -79.0, 30.5 ] } },
{ "type": "Feature", "properties": { "ID": 336079, "LAT": 30.7, "LON": -78.7, "VMAX": 30.0, "MSLP": 1010.0, "RMAX": 50.0, "FSPD": 1.42263, "FDIR": 291.199, "RENV": 140.0, "PENV": 1014.0, "VALIDT": 0, "DTG": "2025-07-05 06:00", "LATNOW": 39.2, "LONNOW": -74.8, "WINDNOW": 20.0, "DIRNOW": 10.0, "SPDNOW": 0.0, "TECH": "TRAK", "ADVNR": 8, "ATCFID": "AL032025", "NAME": "CHANTAL", "FTECH": "OFCL", "FCST_DTG": "2025-07-08 00:00:00", "RUN_DTG": "2025-07-08 06:26:33", "BASIN": "AL", "STMNR": 3, "CAT_ID": null, "CAT_DESC": null, "MSGID": "WTNT23 KNHC 061435", "VALIDTIME": "2025-07-05 06:00:00" }, "geometry": { "type": "Point", "coordinates": [ -78.699997, 30.700001 ] } },
{ "type": "Feature", "properties": { "ID": 336080, "LAT": 30.8, "LON": -79.0, "VMAX": 35.0, "MSLP": 1009.0, "RMAX": 40.0, "FSPD": 4.3221, "FDIR": 17.78436, "RENV": 140.0, "PENV": 1014.0, "VALIDT": 0, "DTG": "2025-07-05 12:00", "LATNOW": 39.2, "LONNOW": -74.8, "WINDNOW": 20.0, "DIRNOW": 10.0, "SPDNOW": 0.0, "TECH": "TRAK", "ADVNR": 8, "ATCFID": "AL032025", "NAME": "CHANTAL", "FTECH": "OFCL", "FCST_DTG": "2025-07-08 00:00:00", "RUN_DTG": "2025-07-08 06:26:33", "BASIN": "AL", "STMNR": 3, "CAT_ID": null, "CAT_DESC": null, "MSGID": "WTNT23 KNHC 061435", "VALIDTIME": "2025-07-05 12:00:00" }, "geometry": { "type": "Point", "coordinates": [ -79.0, 30.799999 ] } },
{ "type": "Feature", "properties": { "ID": 336081, "LAT": 31.6, "LON": -78.7, "VMAX": 40.0, "MSLP": 1006.0, "RMAX": 40.0, "FSPD": 3.60111, "FDIR": 360.0, "RENV": 120.0, "PENV": 1013.0, "VALIDT": 0, "DTG": "2025-07-05 18:00", "LATNOW": 39.2, "LONNOW": -74.8, "WINDNOW": 20.0, "DIRNOW": 10.0, "SPDNOW": 0.0, "TECH": "TRAK", "ADVNR": 8, "ATCFID": "AL032025", "NAME": "CHANTAL", "FTECH": "OFCL", "FCST_DTG": "2025-07-08 00:00:00", "RUN_DTG": "2025-07-08 06:26:33", "BASIN": "AL", "STMNR": 3, "CAT_ID": null, "CAT_DESC": null, "MSGID": "WTNT23 KNHC 061435", "VALIDTIME": "2025-07-05 18:00:00" }, "geometry": { "type": "Point", "coordinates": [ -78.699997, 31.6 ] } },
{ "type": "Feature", "properties": { "ID": 336082, "LAT": 32.3, "LON": -78.7, "VMAX": 40.0, "MSLP": 1005.0, "RMAX": 40.0, "FSPD": 5.21664, "FDIR": 350.45682, "RENV": 120.0, "PENV": 1013.0, "VALIDT": 0, "DTG": "2025-07-06 00:00", "LATNOW": 39.2, "LONNOW": -74.8, "WINDNOW": 20.0, "DIRNOW": 10.0, "SPDNOW": 0.0, "TECH": "TRAK", "ADVNR": 8, "ATCFID": "AL032025", "NAME": "CHANTAL", "FTECH": "OFCL", "FCST_DTG": "2025-07-08 00:00:00", "RUN_DTG": "2025-07-08 06:26:33", "BASIN": "AL", "STMNR": 3, "CAT_ID": null, "CAT_DESC": null, "MSGID": "WTNT23 KNHC 061435", "VALIDTIME": "2025-07-06 00:00:00" }, "geometry": { "type": "Point", "coordinates": [ -78.699997, 32.299999 ] } },
{ "type": "Feature", "properties": { "ID": 336083, "LAT": 33.3, "LON": -78.9, "VMAX": 50.0, "MSLP": 1002.0, "RMAX": 40.0, "FSPD": 3.82395, "FDIR": 340.34372, "RENV": 150.0, "PENV": 1014.0, "VALIDT": 0, "DTG": "2025-07-06 06:00", "LATNOW": 39.2, "LONNOW": -74.8, "WINDNOW": 20.0, "DIRNOW": 10.0, "SPDNOW": 0.0, "TECH": "TRAK", "ADVNR": 8, "ATCFID": "AL032025", "NAME": "CHANTAL", "FTECH": "OFCL", "FCST_DTG": "2025-07-08 00:00:00", "RUN_DTG": "2025-07-08 06:26:33", "BASIN": "AL", "STMNR": 3, "CAT_ID": null, "CAT_DESC": null, "MSGID": "WTNT23 KNHC 061435", "VALIDTIME": "2025-07-06 06:00:00" }, "geometry": { "type": "Point", "coordinates": [ -78.900002, 33.299999 ] } },
{ "type": "Feature", "properties": { "ID": 336084, "LAT": 33.79, "LON": -79.11, "VMAX": 50.0, "MSLP": 1002.0, "RMAX": 40.0, "FSPD": 3.82215, "FDIR": 340.41812, "RENV": 150.0, "PENV": 1014.0, "VALIDT": 0, "DTG": "2025-07-06 10:00", "LATNOW": 39.2, "LONNOW": -74.8, "WINDNOW": 20.0, "DIRNOW": 10.0, "SPDNOW": 0.0, "TECH": "TRAK", "ADVNR": 8, "ATCFID": "AL032025", "NAME": "CHANTAL", "FTECH": "OFCL", "FCST_DTG": "2025-07-08 00:00:00", "RUN_DTG": "2025-07-08 06:26:33", "BASIN": "AL", "STMNR": 3, "CAT_ID": null, "CAT_DESC": null, "MSGID": "WTNT23 KNHC 061435", "VALIDTIME": "2025-07-06 10:00:00" }, "geometry": { "type": "Point", "coordinates": [ -79.110001, 33.790001 ] } },
{ "type": "Feature", "properties": { "ID": 336085, "LAT": 34.0, "LON": -79.2, "VMAX": 35.0, "MSLP": 1006.0, "RMAX": 60.0, "FSPD": 2.60714, "FDIR": 350.6123, "RENV": 120.0, "PENV": 1014.0, "VALIDT": 0, "DTG": "2025-07-06 12:00", "LATNOW": 39.2, "LONNOW": -74.8, "WINDNOW": 20.0, "DIRNOW": 10.0, "SPDNOW": 0.0, "TECH": "TRAK", "ADVNR": 8, "ATCFID": "AL032025", "NAME": "CHANTAL", "FTECH": "OFCL", "FCST_DTG": "2025-07-08 00:00:00", "RUN_DTG": "2025-07-08 06:26:33", "BASIN": "AL", "STMNR": 3, "CAT_ID": null, "CAT_DESC": null, "MSGID": "WTNT23 KNHC 061435", "VALIDTIME": "2025-07-06 12:00:00" }, "geometry": { "type": "Point", "coordinates": [ -79.199997, 34.0 ] } },
{ "type": "Feature", "properties": { "ID": 336086, "LAT": 34.5, "LON": -79.3, "VMAX": 25.0, "MSLP": 1007.0, "RMAX": 55.0, "FSPD": 5.79821, "FDIR": 12.58606, "RENV": 150.0, "PENV": 1015.0, "VALIDT": 0, "DTG": "2025-07-06 18:00", "LATNOW": 39.2, "LONNOW": -74.8, "WINDNOW": 20.0, "DIRNOW": 10.0, "SPDNOW": 0.0, "TECH": "TRAK", "ADVNR": 8, "ATCFID": "AL032025", "NAME": "CHANTAL", "FTECH": "OFCL", "FCST_DTG": "2025-07-08 00:00:00", "RUN_DTG": "2025-07-08 06:26:33", "BASIN": "AL", "STMNR": 3, "CAT_ID": null, "CAT_DESC": null, "MSGID": "WTNT23 KNHC 061435", "VALIDTIME": "2025-07-06 18:00:00" }, "geometry": { "type": "Point", "coordinates": [ -79.300003, 34.5 ] } },
{ "type": "Feature", "properties": { "ID": 336087, "LAT": 35.6, "LON": -79.0, "VMAX": 25.0, "MSLP": 1006.0, "RMAX": 25.0, "FSPD": 3.96775, "FDIR": 24.82477, "RENV": 85.0, "PENV": 1013.0, "VALIDT": 0, "DTG": "2025-07-07 00:00", "LATNOW": 39.2, "LONNOW": -74.8, "WINDNOW": 20.0, "DIRNOW": 10.0, "SPDNOW": 0.0, "TECH": "TRAK", "ADVNR": 8, "ATCFID": "AL032025", "NAME": "CHANTAL", "FTECH": "OFCL", "FCST_DTG": "2025-07-08 00:00:00", "RUN_DTG": "2025-07-08 06:26:33", "BASIN": "AL", "STMNR": 3, "CAT_ID": null, "CAT_DESC": null, "MSGID": "WTNT23 KNHC 061435", "VALIDTIME": "2025-07-07 00:00:00" }, "geometry": { "type": "Point", "coordinates": [ -79.0, 35.599998 ] } },
{ "type": "Feature", "properties": { "ID": 336088, "LAT": 36.3, "LON": -78.6, "VMAX": 25.0, "MSLP": 1009.0, "RMAX": 25.0, "FSPD": 7.52184, "FDIR": 61.3959, "RENV": 135.0, "PENV": 1015.0, "VALIDT": 0, "DTG": "2025-07-07 06:00", "LATNOW": 39.2, "LONNOW": -74.8, "WINDNOW": 20.0, "DIRNOW": 10.0, "SPDNOW": 0.0, "TECH": "TRAK", "ADVNR": 8, "ATCFID": "AL032025", "NAME": "CHANTAL", "FTECH": "OFCL", "FCST_DTG": "2025-07-08 00:00:00", "RUN_DTG": "2025-07-08 06:26:33", "BASIN": "AL", "STMNR": 3, "CAT_ID": null, "CAT_DESC": null, "MSGID": "WTNT23 KNHC 061435", "VALIDTIME": "2025-07-07 06:00:00" }, "geometry": { "type": "Point", "coordinates": [ -78.599998, 36.299999 ] } },
{ "type": "Feature", "properties": { "ID": 336089, "LAT": 37.0, "LON": -77.0, "VMAX": 25.0, "MSLP": 1009.0, "RMAX": 25.0, "FSPD": 8.53021, "FDIR": 38.37073, "RENV": 135.0, "PENV": 1015.0, "VALIDT": 0, "DTG": "2025-07-07 12:00", "LATNOW": 39.2, "LONNOW": -74.8, "WINDNOW": 20.0, "DIRNOW": 10.0, "SPDNOW": 0.0, "TECH": "TRAK", "ADVNR": 8, "ATCFID": "AL032025", "NAME": "CHANTAL", "FTECH": "OFCL", "FCST_DTG": "2025-07-08 00:00:00", "RUN_DTG": "2025-07-08 06:26:33", "BASIN": "AL", "STMNR": 3, "CAT_ID": null, "CAT_DESC": null, "MSGID": "WTNT23 KNHC 061435", "VALIDTIME": "2025-07-07 12:00:00" }, "geometry": { "type": "Point", "coordinates": [ -77.0, 37.0 ] } },
{ "type": "Feature", "properties": { "ID": 336090, "LAT": 38.3, "LON": -75.7, "VMAX": 20.0, "MSLP": 1012.0, "RMAX": 20.0, "FSPD": 5.87155, "FDIR": 37.94989, "RENV": 45.0, "PENV": 1013.0, "VALIDT": 0, "DTG": "2025-07-07 18:00", "LATNOW": 39.2, "LONNOW": -74.8, "WINDNOW": 20.0, "DIRNOW": 10.0, "SPDNOW": 0.0, "TECH": "TRAK", "ADVNR": 8, "ATCFID": "AL032025", "NAME": "CHANTAL", "FTECH": "OFCL", "FCST_DTG": "2025-07-08 00:00:00", "RUN_DTG": "2025-07-08 06:26:33", "BASIN": "AL", "STMNR": 3, "CAT_ID": null, "CAT_DESC": null, "MSGID": "WTNT23 KNHC 061435", "VALIDTIME": "2025-07-07 18:00:00" }, "geometry": { "type": "Point", "coordinates": [ -75.699997, 38.299999 ] } },
{ "type": "Feature", "properties": { "ID": 336091, "LAT": 39.2, "LON": -74.8, "VMAX": 20.0, "MSLP": 1011.0, "RMAX": 25.0, "FSPD": 10.39052, "FDIR": 66.66632, "RENV": 45.0, "PENV": 1012.0, "VALIDT": 0, "DTG": "2025-07-08 00:00", "LATNOW": 39.2, "LONNOW": -74.8, "WINDNOW": 20.0, "DIRNOW": 10.0, "SPDNOW": 0.0, "TECH": "TRAK", "ADVNR": 8, "ATCFID": "AL032025", "NAME": "CHANTAL", "FTECH": "OFCL", "FCST_DTG": "2025-07-08 00:00:00", "RUN_DTG": "2025-07-08 06:26:33", "BASIN": "AL", "STMNR": 3, "CAT_ID": null, "CAT_DESC": null, "MSGID": "WTNT23 KNHC 061435", "VALIDTIME": "2025-07-08 00:00:00" }, "geometry": { "type": "Point", "coordinates": [ -74.800003, 39.200001 ] } },
{ "type": "Feature", "properties": { "ID": 336092, "LAT": 39.6, "LON": -73.6, "VMAX": 20.0, "MSLP": 1011.0, "RMAX": 25.39803, "FSPD": 11.42253, "FDIR": 55.21643, "RENV": 250.0, "PENV": 1012.0, "VALIDT": 3, "DTG": "2025-07-08 03:00", "LATNOW": 39.2, "LONNOW": -74.8, "WINDNOW": 20.0, "DIRNOW": 10.0, "SPDNOW": 0.0, "TECH": "FCST", "ADVNR": 8, "ATCFID": "AL032025", "NAME": "CHANTAL", "FTECH": "OFCL", "FCST_DTG": "2025-07-08 00:00:00", "RUN_DTG": "2025-07-08 06:26:33", "BASIN": "AL", "STMNR": 3, "CAT_ID": null, "CAT_DESC": null, "MSGID": "WTNT23 KNHC 061435", "VALIDTIME": "2025-07-08 03:00:00" }, "geometry": { "type": "Point", "coordinates": [ -73.599998, 39.599998 ] } },
{ "type": "Feature", "properties": { "ID": 336093, "LAT": 41.5, "LON": -70.0, "VMAX": 20.0, "MSLP": 1012.95825, "RMAX": 27.38255, "FSPD": 11.42253, "FDIR": 55.21643, "RENV": 250.0, "PENV": 1012.0, "VALIDT": 12, "DTG": "2025-07-08 12:00", "LATNOW": 39.2, "LONNOW": -74.8, "WINDNOW": 20.0, "DIRNOW": 10.0, "SPDNOW": 0.0, "TECH": "FCST", "ADVNR": 8, "ATCFID": "AL032025", "NAME": "CHANTAL", "FTECH": "OFCL", "FCST_DTG": "2025-07-08 00:00:00", "RUN_DTG": "2025-07-08 06:26:33", "BASIN": "AL", "STMNR": 3, "CAT_ID": null, "CAT_DESC": null, "MSGID": "WTNT23 KNHC 061435", "VALIDTIME": "2025-07-08 12:00:00" }, "geometry": { "type": "Point", "coordinates": [ -70.0, 41.5 ] } },
{ "type": "Feature", "properties": { "ID": 336091, "LAT": 39.2, "LON": -74.8, "VMAX": 20.0, "MSLP": 1011.0, "RMAX": 25.0, "FSPD": 10.39052, "FDIR": 66.66632, "RENV": 45.0, "PENV": 1012.0, "VALIDT": 0, "DTG": "2025-07-08 00:00", "LATNOW": 39.2, "LONNOW": -74.8, "WINDNOW": 20.0, "DIRNOW": 10.0, "SPDNOW": 0.0, "TECH": "TRAK", "ADVNR": 8, "ATCFID": "AL032025", "NAME": "CHANTAL", "FTECH": "OFCL", "FCST_DTG": "2025-07-08 00:00:00", "RUN_DTG": "2025-07-08 06:26:33", "BASIN": "AL", "STMNR": 3, "CAT_ID": null, "CAT_DESC": null, "MSGID": "WTNT23 KNHC 061435", "VALIDTIME": "2025-07-08 00:00:00" }, "geometry": { "type": "LineString", "coordinates": [ [ -80.0, 29.5 ], [ -79.9, 30.4 ], [ -79.2, 30.7 ], [ -79.0, 30.9 ], [ -79.0, 30.5 ], [ -78.7, 30.7 ], [ -79.0, 30.8 ], [ -78.7, 31.6 ], [ -78.7, 32.3 ], [ -78.9, 33.3 ], [ -79.11, 33.79 ], [ -79.2, 34.0 ], [ -79.3, 34.5 ], [ -79.0, 35.6 ], [ -78.6, 36.3 ], [ -77.0, 37.0 ], [ -75.7, 38.3 ], [ -74.8, 39.2 ] ] } },
{ "type": "Feature", "properties": { "ID": 336093, "LAT": 41.5, "LON": -70.0, "VMAX": 20.0, "MSLP": 1012.95825, "RMAX": 27.38255, "FSPD": 11.42253, "FDIR": 55.21643, "RENV": 250.0, "PENV": 1012.0, "VALIDT": 12, "DTG": "2025-07-08 12:00", "LATNOW": 39.2, "LONNOW": -74.8, "WINDNOW": 20.0, "DIRNOW": 10.0, "SPDNOW": 0.0, "TECH": "FCST", "ADVNR": 8, "ATCFID": "AL032025", "NAME": "CHANTAL", "FTECH": "OFCL", "FCST_DTG": "2025-07-08 00:00:00", "RUN_DTG": "2025-07-08 06:26:33", "BASIN": "AL", "STMNR": 3, "CAT_ID": null, "CAT_DESC": null, "MSGID": "WTNT23 KNHC 061435", "VALIDTIME": "2025-07-08 12:00:00" }, "geometry": { "type": "LineString", "coordinates": [ [ -74.8, 39.2 ], [ -73.6, 39.6 ], [ -70.0, 41.5 ] ] } }
]
}
