{
"type": "FeatureCollection",
"crs": { "type": "name", "properties": { "name": "urn:ogc:def:crs:OGC:1.3:CRS84" } },
"features": [
{ "type": "Feature", "properties": { "ID": 30943, "LAT": 8.6, "LON": 133.4, "VMAX": 15.0, "MSLP": 1013.8515, "RMAX": 40.0, "FSPD": 4.06922, "FDIR": 269.99997, "RENV": 500.0, "PENV": 1012.0, "VALIDT": 0, "DTG": "2026-06-28 00:00", "LATNOW": 21.6, "LONNOW": 107.9, "WINDNOW": 50.0, "DIRNOW": 3.0, "SPDNOW": 1.0, "TECH": "TRAK", "ADVNR": 13, "ATCFID": "WP102026", "NAME": "MAYSAK", "FTECH": "JTWC", "FCST_DTG": "2026-07-04 18:00:00", "RUN_DTG": "2026-07-05 08:51:32", "BASIN": "WP", "STMNR": 10, "CAT_ID": null, "CAT_DESC": null, "MSGID": "WTPN52 PGTW 042100", "VALIDTIME": "2026-06-28 00:00:00" }, "geometry": { "type": "Point", "coordinates": [ 133.399994, 8.6 ] } },
{ "type": "Feature", "properties": { "ID": 30944, "LAT": 8.6, "LON": 132.6, "VMAX": 15.0, "MSLP": 1013.8515, "RMAX": 40.0, "FSPD": 4.57799, "FDIR": 269.99997, "RENV": 500.0, "PENV": 1012.0, "VALIDT": 0, "DTG": "2026-06-28 06:00", "LATNOW": 21.6, "LONNOW": 107.9, "WINDNOW": 50.0, "DIRNOW": 3.0, "SPDNOW": 1.0, "TECH": "TRAK", "ADVNR": 13, "ATCFID": "WP102026", "NAME": "MAYSAK", "FTECH": "JTWC", "FCST_DTG": "2026-07-04 18:00:00", "RUN_DTG": "2026-07-05 08:51:32", "BASIN": "WP", "STMNR": 10, "CAT_ID": null, "CAT_DESC": null, "MSGID": "WTPN52 PGTW 042100", "VALIDTIME": "2026-06-28 06:00:00" }, "geometry": { "type": "Point", "coordinates": [ 132.600006, 8.6 ] } },
{ "type": "Feature", "properties": { "ID": 30945, "LAT": 8.6, "LON": 131.7, "VMAX": 15.0, "MSLP": 1013.8515, "RMAX": 40.0, "FSPD": 6.15474, "FDIR": 294.70364, "RENV": 500.0, "PENV": 1012.0, "VALIDT": 0, "DTG": "2026-06-28 12:00", "LATNOW": 21.6, "LONNOW": 107.9, "WINDNOW": 50.0, "DIRNOW": 3.0, "SPDNOW": 1.0, "TECH": "TRAK", "ADVNR": 13, "ATCFID": "WP102026", "NAME": "MAYSAK", "FTECH": "JTWC", "FCST_DTG": "2026-07-04 18:00:00", "RUN_DTG": "2026-07-05 08:51:32", "BASIN": "WP", "STMNR": 10, "CAT_ID": null, "CAT_DESC": null, "MSGID": "WTPN52 PGTW 042100", "VALIDTIME": "2026-06-28 12:00:00" }, "geometry": { "type": "Point", "coordinates": [ 131.699997, 8.6 ] } },
{ "type": "Feature", "properties": { "ID": 30946, "LAT": 9.1, "LON": 130.6, "VMAX": 15.0, "MSLP": 1013.8515, "RMAX": 40.0, "FSPD": 5.43626, "FDIR": 319.20526, "RENV": 500.0, "PENV": 1012.0, "VALIDT": 0, "DTG": "2026-06-28 18:00", "LATNOW": 21.6, "LONNOW": 107.9, "WINDNOW": 50.0, "DIRNOW": 3.0, "SPDNOW": 1.0, "TECH": "TRAK", "ADVNR": 13, "ATCFID": "WP102026", "NAME": "MAYSAK", "FTECH": "JTWC", "FCST_DTG": "2026-07-04 18:00:00", "RUN_DTG": "2026-07-05 08:51:32", "BASIN": "WP", "STMNR": 10, "CAT_ID": null, "CAT_DESC": null, "MSGID": "WTPN52 PGTW 042100", "VALIDTIME": "2026-06-28 18:00:00" }, "geometry": { "type": "Point", "coordinates": [ 130.600006, 9.1 ] } },
{ "type": "Feature", "properties": { "ID": 30947, "LAT": 9.9, "LON": 129.9, "VMAX": 15.0, "MSLP": 1013.8515, "RMAX": 40.0, "FSPD": 12.41573, "FDIR": 305.45676, "RENV": 500.0, "PENV": 1012.0, "VALIDT": 0, "DTG": "2026-06-29 00:00", "LATNOW": 21.6, "LONNOW": 107.9, "WINDNOW": 50.0, "DIRNOW": 3.0, "SPDNOW": 1.0, "TECH": "TRAK", "ADVNR": 13, "ATCFID": "WP102026", "NAME": "MAYSAK", "FTECH": "JTWC", "FCST_DTG": "2026-07-04 18:00:00", "RUN_DTG": "2026-07-05 08:51:32", "BASIN": "WP", "STMNR": 10, "CAT_ID": null, "CAT_DESC": null, "MSGID": "WTPN52 PGTW 042100", "VALIDTIME": "2026-06-29 00:00:00" }, "geometry": { "type": "Point", "coordinates": [ 129.899994, 9.9 ] } },
{ "type": "Feature", "properties": { "ID": 30948, "LAT": 11.3, "LON": 127.9, "VMAX": 15.0, "MSLP": 1013.8515, "RMAX": 40.0, "FSPD": 11.5083, "FDIR": 285.55786, "RENV": 500.0, "PENV": 1012.0, "VALIDT": 0, "DTG": "2026-06-29 06:00", "LATNOW": 21.6, "LONNOW": 107.9, "WINDNOW": 50.0, "DIRNOW": 3.0, "SPDNOW": 1.0, "TECH": "TRAK", "ADVNR": 13, "ATCFID": "WP102026", "NAME": "MAYSAK", "FTECH": "JTWC", "FCST_DTG": "2026-07-04 18:00:00", "RUN_DTG": "2026-07-05 08:51:32", "BASIN": "WP", "STMNR": 10, "CAT_ID": null, "CAT_DESC": null, "MSGID": "WTPN52 PGTW 042100", "VALIDTIME": "2026-06-29 06:00:00" }, "geometry": { "type": "Point", "coordinates": [ 127.900002, 11.3 ] } },
{ "type": "Feature", "properties": { "ID": 30949, "LAT": 11.9, "LON": 125.7, "VMAX": 15.0, "MSLP": 1013.8515, "RMAX": 40.0, "FSPD": 10.87767, "FDIR": 283.67822, "RENV": 500.0, "PENV": 1012.0, "VALIDT": 0, "DTG": "2026-06-29 12:00", "LATNOW": 21.6, "LONNOW": 107.9, "WINDNOW": 50.0, "DIRNOW": 3.0, "SPDNOW": 1.0, "TECH": "TRAK", "ADVNR": 13, "ATCFID": "WP102026", "NAME": "MAYSAK", "FTECH": "JTWC", "FCST_DTG": "2026-07-04 18:00:00", "RUN_DTG": "2026-07-05 08:51:32", "BASIN": "WP", "STMNR": 10, "CAT_ID": null, "CAT_DESC": null, "MSGID": "WTPN52 PGTW 042100", "VALIDTIME": "2026-06-29 12:00:00" }, "geometry": { "type": "Point", "coordinates": [ 125.699997, 11.9 ] } },
{ "type": "Feature", "properties": { "ID": 30950, "LAT": 12.0, "LON": 125.28, "VMAX": 15.0, "MSLP": 1013.8515, "RMAX": 40.0, "FSPD": 10.86813, "FDIR": 283.6904, "RENV": 500.0, "PENV": 1012.0, "VALIDT": 0, "DTG": "2026-06-29 13:00", "LATNOW": 21.6, "LONNOW": 107.9, "WINDNOW": 50.0, "DIRNOW": 3.0, "SPDNOW": 1.0, "TECH": "TRAK", "ADVNR": 13, "ATCFID": "WP102026", "NAME": "MAYSAK", "FTECH": "JTWC", "FCST_DTG": "2026-07-04 18:00:00", "RUN_DTG": "2026-07-05 08:51:32", "BASIN": "WP", "STMNR": 10, "CAT_ID": null, "CAT_DESC": null, "MSGID": "WTPN52 PGTW 042100", "VALIDTIME": "2026-06-29 13:00:00" }, "geometry": { "type": "Point", "coordinates": [ 125.279999, 12.0 ] } },
{ "type": "Feature", "properties": { "ID": 30951, "LAT": 12.4, "LON": 123.6, "VMAX": 15.0, "MSLP": 1013.8515, "RMAX": 40.0, "FSPD": 6.22032, "FDIR": 284.36578, "RENV": 500.0, "PENV": 1012.0, "VALIDT": 0, "DTG": "2026-06-29 18:00", "LATNOW": 21.6, "LONNOW": 107.9, "WINDNOW": 50.0, "DIRNOW": 3.0, "SPDNOW": 1.0, "TECH": "TRAK", "ADVNR": 13, "ATCFID": "WP102026", "NAME": "MAYSAK", "FTECH": "JTWC", "FCST_DTG": "2026-07-04 18:00:00", "RUN_DTG": "2026-07-05 08:51:32", "BASIN": "WP", "STMNR": 10, "CAT_ID": null, "CAT_DESC": null, "MSGID": "WTPN52 PGTW 042100", "VALIDTIME": "2026-06-29 18:00:00" }, "geometry": { "type": "Point", "coordinates": [ 123.599998, 12.4 ] } },
{ "type": "Feature", "properties": { "ID": 30952, "LAT": 12.7, "LON": 122.4, "VMAX": 20.0, "MSLP": 1012.95825, "RMAX": 45.0, "FSPD": 3.68072, "FDIR": 326.99295, "RENV": 500.0, "PENV": 1012.0, "VALIDT": 0, "DTG": "2026-06-30 00:00", "LATNOW": 21.6, "LONNOW": 107.9, "WINDNOW": 50.0, "DIRNOW": 3.0, "SPDNOW": 1.0, "TECH": "TRAK", "ADVNR": 13, "ATCFID": "WP102026", "NAME": "MAYSAK", "FTECH": "JTWC", "FCST_DTG": "2026-07-04 18:00:00", "RUN_DTG": "2026-07-05 08:51:32", "BASIN": "WP", "STMNR": 10, "CAT_ID": null, "CAT_DESC": null, "MSGID": "WTPN52 PGTW 042100", "VALIDTIME": "2026-06-30 00:00:00" }, "geometry": { "type": "Point", "coordinates": [ 122.400002, 12.7 ] } },
{ "type": "Feature", "properties": { "ID": 30953, "LAT": 13.3, "LON": 122.0, "VMAX": 20.0, "MSLP": 1012.95825, "RMAX": 45.0, "FSPD": 4.28992, "FDIR": 291.08533, "RENV": 500.0, "PENV": 1012.0, "VALIDT": 0, "DTG": "2026-06-30 06:00", "LATNOW": 21.6, "LONNOW": 107.9, "WINDNOW": 50.0, "DIRNOW": 3.0, "SPDNOW": 1.0, "TECH": "TRAK", "ADVNR": 13, "ATCFID": "WP102026", "NAME": "MAYSAK", "FTECH": "JTWC", "FCST_DTG": "2026-07-04 18:00:00", "RUN_DTG": "2026-07-05 08:51:32", "BASIN": "WP", "STMNR": 10, "CAT_ID": null, "CAT_DESC": null, "MSGID": "WTPN52 PGTW 042100", "VALIDTIME": "2026-06-30 06:00:00" }, "geometry": { "type": "Point", "coordinates": [ 122.0, 13.3 ] } },
{ "type": "Feature", "properties": { "ID": 30954, "LAT": 13.6, "LON": 121.2, "VMAX": 20.0, "MSLP": 1012.95825, "RMAX": 45.0, "FSPD": 5.59333, "FDIR": 280.59985, "RENV": 500.0, "PENV": 1012.0, "VALIDT": 0, "DTG": "2026-06-30 12:00", "LATNOW": 21.6, "LONNOW": 107.9, "WINDNOW": 50.0, "DIRNOW": 3.0, "SPDNOW": 1.0, "TECH": "TRAK", "ADVNR": 13, "ATCFID": "WP102026", "NAME": "MAYSAK", "FTECH": "JTWC", "FCST_DTG": "2026-07-04 18:00:00", "RUN_DTG": "2026-07-05 08:51:32", "BASIN": "WP", "STMNR": 10, "CAT_ID": null, "CAT_DESC": null, "MSGID": "WTPN52 PGTW 042100", "VALIDTIME": "2026-06-30 12:00:00" }, "geometry": { "type": "Point", "coordinates": [ 121.199997, 13.6 ] } },
{ "type": "Feature", "properties": { "ID": 30955, "LAT": 13.8, "LON": 120.1, "VMAX": 20.0, "MSLP": 1012.95825, "RMAX": 45.0, "FSPD": 4.28195, "FDIR": 291.12646, "RENV": 500.0, "PENV": 1012.0, "VALIDT": 0, "DTG": "2026-06-30 18:00", "LATNOW": 21.6, "LONNOW": 107.9, "WINDNOW": 50.0, "DIRNOW": 3.0, "SPDNOW": 1.0, "TECH": "TRAK", "ADVNR": 13, "ATCFID": "WP102026", "NAME": "MAYSAK", "FTECH": "JTWC", "FCST_DTG": "2026-07-04 18:00:00", "RUN_DTG": "2026-07-05 08:51:32", "BASIN": "WP", "STMNR": 10, "CAT_ID": null, "CAT_DESC": null, "MSGID": "WTPN52 PGTW 042100", "VALIDTIME": "2026-06-30 18:00:00" }, "geometry": { "type": "Point", "coordinates": [ 120.099998, 13.8 ] } },
{ "type": "Feature", "properties": { "ID": 30956, "LAT": 14.1, "LON": 119.3, "VMAX": 20.0, "MSLP": 1012.95825, "RMAX": 45.0, "FSPD": 10.73232, "FDIR": 315.97296, "RENV": 500.0, "PENV": 1012.0, "VALIDT": 0, "DTG": "2026-07-01 00:00", "LATNOW": 21.6, "LONNOW": 107.9, "WINDNOW": 50.0, "DIRNOW": 3.0, "SPDNOW": 1.0, "TECH": "TRAK", "ADVNR": 13, "ATCFID": "WP102026", "NAME": "MAYSAK", "FTECH": "JTWC", "FCST_DTG": "2026-07-04 18:00:00", "RUN_DTG": "2026-07-05 08:51:32", "BASIN": "WP", "STMNR": 10, "CAT_ID": null, "CAT_DESC": null, "MSGID": "WTPN52 PGTW 042100", "VALIDTIME": "2026-07-01 00:00:00" }, "geometry": { "type": "Point", "coordinates": [ 119.300003, 14.1 ] } },
{ "type": "Feature", "properties": { "ID": 30957, "LAT": 15.6, "LON": 117.8, "VMAX": 20.0, "MSLP": 1012.95825, "RMAX": 45.0, "FSPD": 8.93767, "FDIR": 309.28296, "RENV": 500.0, "PENV": 1012.0, "VALIDT": 0, "DTG": "2026-07-01 06:00", "LATNOW": 21.6, "LONNOW": 107.9, "WINDNOW": 50.0, "DIRNOW": 3.0, "SPDNOW": 1.0, "TECH": "TRAK", "ADVNR": 13, "ATCFID": "WP102026", "NAME": "MAYSAK", "FTECH": "JTWC", "FCST_DTG": "2026-07-04 18:00:00", "RUN_DTG": "2026-07-05 08:51:32", "BASIN": "WP", "STMNR": 10, "CAT_ID": null, "CAT_DESC": null, "MSGID": "WTPN52 PGTW 042100", "VALIDTIME": "2026-07-01 06:00:00" }, "geometry": { "type": "Point", "coordinates": [ 117.800003, 15.6 ] } },
{ "type": "Feature", "properties": { "ID": 30958, "LAT": 16.7, "LON": 116.4, "VMAX": 20.0, "MSLP": 1012.95825, "RMAX": 45.0, "FSPD": 7.54755, "FDIR": 294.13962, "RENV": 500.0, "PENV": 1012.0, "VALIDT": 0, "DTG": "2026-07-01 12:00", "LATNOW": 21.6, "LONNOW": 107.9, "WINDNOW": 50.0, "DIRNOW": 3.0, "SPDNOW": 1.0, "TECH": "TRAK", "ADVNR": 13, "ATCFID": "WP102026", "NAME": "MAYSAK", "FTECH": "JTWC", "FCST_DTG": "2026-07-04 18:00:00", "RUN_DTG": "2026-07-05 08:51:32", "BASIN": "WP", "STMNR": 10, "CAT_ID": null, "CAT_DESC": null, "MSGID": "WTPN52 PGTW 042100", "VALIDTIME": "2026-07-01 12:00:00" }, "geometry": { "type": "Point", "coordinates": [ 116.400002, 16.700001 ] } },
{ "type": "Feature", "properties": { "ID": 30959, "LAT": 17.3, "LON": 115.0, "VMAX": 25.0, "MSLP": 1003.0, "RMAX": 50.0, "FSPD": 9.45148, "FDIR": 279.39795, "RENV": 150.0, "PENV": 1005.0, "VALIDT": 0, "DTG": "2026-07-01 18:00", "LATNOW": 21.6, "LONNOW": 107.9, "WINDNOW": 50.0, "DIRNOW": 3.0, "SPDNOW": 1.0, "TECH": "TRAK", "ADVNR": 13, "ATCFID": "WP102026", "NAME": "MAYSAK", "FTECH": "JTWC", "FCST_DTG": "2026-07-04 18:00:00", "RUN_DTG": "2026-07-05 08:51:32", "BASIN": "WP", "STMNR": 10, "CAT_ID": null, "CAT_DESC": null, "MSGID": "WTPN52 PGTW 042100", "VALIDTIME": "2026-07-01 18:00:00" }, "geometry": { "type": "Point", "coordinates": [ 115.0, 17.299999 ] } },
{ "type": "Feature", "properties": { "ID": 30960, "LAT": 17.6, "LON": 113.1, "VMAX": 30.0, "MSLP": 1003.0, "RMAX": 50.0, "FSPD": 7.42302, "FDIR": 277.96722, "RENV": 150.0, "PENV": 1005.0, "VALIDT": 0, "DTG": "2026-07-02 00:00", "LATNOW": 21.6, "LONNOW": 107.9, "WINDNOW": 50.0, "DIRNOW": 3.0, "SPDNOW": 1.0, "TECH": "TRAK", "ADVNR": 13, "ATCFID": "WP102026", "NAME": "MAYSAK", "FTECH": "JTWC", "FCST_DTG": "2026-07-04 18:00:00", "RUN_DTG": "2026-07-05 08:51:32", "BASIN": "WP", "STMNR": 10, "CAT_ID": null, "CAT_DESC": null, "MSGID": "WTPN52 PGTW 042100", "VALIDTIME": "2026-07-02 00:00:00" }, "geometry": { "type": "Point", "coordinates": [ 113.099998, 17.6 ] } },
{ "type": "Feature", "properties": { "ID": 30961, "LAT": 17.8, "LON": 111.6, "VMAX": 30.0, "MSLP": 1003.0, "RMAX": 50.0, "FSPD": 3.11535, "FDIR": 250.71524, "RENV": 180.0, "PENV": 1006.0, "VALIDT": 0, "DTG": "2026-07-02 06:00", "LATNOW": 21.6, "LONNOW": 107.9, "WINDNOW": 50.0, "DIRNOW": 3.0, "SPDNOW": 1.0, "TECH": "TRAK", "ADVNR": 13, "ATCFID": "WP102026", "NAME": "MAYSAK", "FTECH": "JTWC", "FCST_DTG": "2026-07-04 18:00:00", "RUN_DTG": "2026-07-05 08:51:32", "BASIN": "WP", "STMNR": 10, "CAT_ID": null, "CAT_DESC": null, "MSGID": "WTPN52 PGTW 042100", "VALIDTIME": "2026-07-02 06:00:00" }, "geometry": { "type": "Point", "coordinates": [ 111.599998, 17.799999 ] } },
{ "type": "Feature", "properties": { "ID": 30962, "LAT": 17.6, "LON": 111.0, "VMAX": 30.0, "MSLP": 1002.0, "RMAX": 60.0, "FSPD": 3.11842, "FDIR": 250.73483, "RENV": 190.0, "PENV": 1006.0, "VALIDT": 0, "DTG": "2026-07-02 12:00", "LATNOW": 21.6, "LONNOW": 107.9, "WINDNOW": 50.0, "DIRNOW": 3.0, "SPDNOW": 1.0, "TECH": "TRAK", "ADVNR": 13, "ATCFID": "WP102026", "NAME": "MAYSAK", "FTECH": "JTWC", "FCST_DTG": "2026-07-04 18:00:00", "RUN_DTG": "2026-07-05 08:51:32", "BASIN": "WP", "STMNR": 10, "CAT_ID": null, "CAT_DESC": null, "MSGID": "WTPN52 PGTW 042100", "VALIDTIME": "2026-07-02 12:00:00" }, "geometry": { "type": "Point", "coordinates": [ 111.0, 17.6 ] } },
{ "type": "Feature", "properties": { "ID": 30963, "LAT": 17.4, "LON": 110.4, "VMAX": 30.0, "MSLP": 1002.0, "RMAX": 60.0, "FSPD": 1.56037, "FDIR": 250.74973, "RENV": 200.0, "PENV": 1005.0, "VALIDT": 0, "DTG": "2026-07-02 18:00", "LATNOW": 21.6, "LONNOW": 107.9, "WINDNOW": 50.0, "DIRNOW": 3.0, "SPDNOW": 1.0, "TECH": "TRAK", "ADVNR": 13, "ATCFID": "WP102026", "NAME": "MAYSAK", "FTECH": "JTWC", "FCST_DTG": "2026-07-04 18:00:00", "RUN_DTG": "2026-07-05 08:51:32", "BASIN": "WP", "STMNR": 10, "CAT_ID": null, "CAT_DESC": null, "MSGID": "WTPN52 PGTW 042100", "VALIDTIME": "2026-07-02 18:00:00" }, "geometry": { "type": "Point", "coordinates": [ 110.400002, 17.4 ] } },
{ "type": "Feature", "properties": { "ID": 30964, "LAT": 17.3, "LON": 110.1, "VMAX": 35.0, "MSLP": 1002.0, "RMAX": 55.0, "FSPD": 2.49712, "FDIR": 308.1737, "RENV": 225.0, "PENV": 1006.0, "VALIDT": 0, "DTG": "2026-07-03 00:00", "LATNOW": 21.6, "LONNOW": 107.9, "WINDNOW": 50.0, "DIRNOW": 3.0, "SPDNOW": 1.0, "TECH": "TRAK", "ADVNR": 13, "ATCFID": "WP102026", "NAME": "MAYSAK", "FTECH": "JTWC", "FCST_DTG": "2026-07-04 18:00:00", "RUN_DTG": "2026-07-05 08:51:32", "BASIN": "WP", "STMNR": 10, "CAT_ID": null, "CAT_DESC": null, "MSGID": "WTPN52 PGTW 042100", "VALIDTIME": "2026-07-03 00:00:00" }, "geometry": { "type": "Point", "coordinates": [ 110.099998, 17.299999 ] } },
{ "type": "Feature", "properties": { "ID": 30965, "LAT": 17.6, "LON": 109.7, "VMAX": 35.0, "MSLP": 1001.0, "RMAX": 45.0, "FSPD": 4.73227, "FDIR": 348.06668, "RENV": 200.0, "PENV": 1006.0, "VALIDT": 0, "DTG": "2026-07-03 06:00", "LATNOW": 21.6, "LONNOW": 107.9, "WINDNOW": 50.0, "DIRNOW": 3.0, "SPDNOW": 1.0, "TECH": "TRAK", "ADVNR": 13, "ATCFID": "WP102026", "NAME": "MAYSAK", "FTECH": "JTWC", "FCST_DTG": "2026-07-04 18:00:00", "RUN_DTG": "2026-07-05 08:51:32", "BASIN": "WP", "STMNR": 10, "CAT_ID": null, "CAT_DESC": null, "MSGID": "WTPN52 PGTW 042100", "VALIDTIME": "2026-07-03 06:00:00" }, "geometry": { "type": "Point", "coordinates": [ 109.699997, 17.6 ] } },
{ "type": "Feature", "properties": { "ID": 30966, "LAT": 18.41, "LON": 109.52, "VMAX": 35.0, "MSLP": 1001.0, "RMAX": 45.0, "FSPD": 4.73172, "FDIR": 348.0986, "RENV": 200.0, "PENV": 1006.0, "VALIDT": 0, "DTG": "2026-07-03 11:00", "LATNOW": 21.6, "LONNOW": 107.9, "WINDNOW": 50.0, "DIRNOW": 3.0, "SPDNOW": 1.0, "TECH": "TRAK", "ADVNR": 13, "ATCFID": "WP102026", "NAME": "MAYSAK", "FTECH": "JTWC", "FCST_DTG": "2026-07-04 18:00:00", "RUN_DTG": "2026-07-05 08:51:32", "BASIN": "WP", "STMNR": 10, "CAT_ID": null, "CAT_DESC": null, "MSGID": "WTPN52 PGTW 042100", "VALIDTIME": "2026-07-03 11:00:00" }, "geometry": { "type": "Point", "coordinates": [ 109.519997, 18.41 ] } },
{ "type": "Feature", "properties": { "ID": 30967, "LAT": 18.5, "LON": 109.5, "VMAX": 40.0, "MSLP": 999.0, "RMAX": 40.0, "FSPD": 7.73573, "FDIR": 329.8291, "RENV": 180.0, "PENV": 1004.0, "VALIDT": 0, "DTG": "2026-07-03 12:00", "LATNOW": 21.6, "LONNOW": 107.9, "WINDNOW": 50.0, "DIRNOW": 3.0, "SPDNOW": 1.0, "TECH": "TRAK", "ADVNR": 13, "ATCFID": "WP102026", "NAME": "MAYSAK", "FTECH": "JTWC", "FCST_DTG": "2026-07-04 18:00:00", "RUN_DTG": "2026-07-05 08:51:32", "BASIN": "WP", "STMNR": 10, "CAT_ID": null, "CAT_DESC": null, "MSGID": "WTPN52 PGTW 042100", "VALIDTIME": "2026-07-03 12:00:00" }, "geometry": { "type": "Point", "coordinates": [ 109.5, 18.5 ] } },
{ "type": "Feature", "properties": { "ID": 30968, "LAT": 19.8, "LON": 108.7, "VMAX": 40.0, "MSLP": 996.0, "RMAX": 40.0, "FSPD": 2.51747, "FDIR": 324.8255, "RENV": 190.0, "PENV": 1004.0, "VALIDT": 0, "DTG": "2026-07-03 18:00", "LATNOW": 21.6, "LONNOW": 107.9, "WINDNOW": 50.0, "DIRNOW": 3.0, "SPDNOW": 1.0, "TECH": "TRAK", "ADVNR": 13, "ATCFID": "WP102026", "NAME": "MAYSAK", "FTECH": "JTWC", "FCST_DTG": "2026-07-04 18:00:00", "RUN_DTG": "2026-07-05 08:51:32", "BASIN": "WP", "STMNR": 10, "CAT_ID": null, "CAT_DESC": null, "MSGID": "WTPN52 PGTW 042100", "VALIDTIME": "2026-07-03 18:00:00" }, "geometry": { "type": "Point", "coordinates": [ 108.699997, 19.799999 ] } },
{ "type": "Feature", "properties": { "ID": 30969, "LAT": 20.2, "LON": 108.4, "VMAX": 45.0, "MSLP": 1000.0, "RMAX": 50.0, "FSPD": 3.55025, "FDIR": 305.42337, "RENV": 190.0, "PENV": 1008.0, "VALIDT": 0, "DTG": "2026-07-04 00:00", "LATNOW": 21.6, "LONNOW": 107.9, "WINDNOW": 50.0, "DIRNOW": 3.0, "SPDNOW": 1.0, "TECH": "TRAK", "ADVNR": 13, "ATCFID": "WP102026", "NAME": "MAYSAK", "FTECH": "JTWC", "FCST_DTG": "2026-07-04 18:00:00", "RUN_DTG": "2026-07-05 08:51:32", "BASIN": "WP", "STMNR": 10, "CAT_ID": null, "CAT_DESC": null, "MSGID": "WTPN52 PGTW 042100", "VALIDTIME": "2026-07-04 00:00:00" }, "geometry": { "type": "Point", "coordinates": [ 108.400002, 20.200001 ] } },
{ "type": "Feature", "properties": { "ID": 30970, "LAT": 20.6, "LON": 107.8, "VMAX": 45.0, "MSLP": 996.0, "RMAX": 50.0, "FSPD": 3.60111, "FDIR": 360.0, "RENV": 190.0, "PENV": 1006.0, "VALIDT": 0, "DTG": "2026-07-04 06:00", "LATNOW": 21.6, "LONNOW": 107.9, "WINDNOW": 50.0, "DIRNOW": 3.0, "SPDNOW": 1.0, "TECH": "TRAK", "ADVNR": 13, "ATCFID": "WP102026", "NAME": "MAYSAK", "FTECH": "JTWC", "FCST_DTG": "2026-07-04 18:00:00", "RUN_DTG": "2026-07-05 08:51:32", "BASIN": "WP", "STMNR": 10, "CAT_ID": null, "CAT_DESC": null, "MSGID": "WTPN52 PGTW 042100", "VALIDTIME": "2026-07-04 06:00:00" }, "geometry": { "type": "Point", "coordinates": [ 107.800003, 20.6 ] } },
{ "type": "Feature", "properties": { "ID": 30971, "LAT": 21.3, "LON": 107.8, "VMAX": 50.0, "MSLP": 991.0, "RMAX": 25.0, "FSPD": 1.61591, "FDIR": 17.23724, "RENV": 210.0, "PENV": 1004.0, "VALIDT": 0, "DTG": "2026-07-04 12:00", "LATNOW": 21.6, "LONNOW": 107.9, "WINDNOW": 50.0, "DIRNOW": 3.0, "SPDNOW": 1.0, "TECH": "TRAK", "ADVNR": 13, "ATCFID": "WP102026", "NAME": "MAYSAK", "FTECH": "JTWC", "FCST_DTG": "2026-07-04 18:00:00", "RUN_DTG": "2026-07-05 08:51:32", "BASIN": "WP", "STMNR": 10, "CAT_ID": null, "CAT_DESC": null, "MSGID": "WTPN52 PGTW 042100", "VALIDTIME": "2026-07-04 12:00:00" }, "geometry": { "type": "Point", "coordinates": [ 107.800003, 21.299999 ] } },
{ "type": "Feature", "properties": { "ID": 30972, "LAT": 21.57, "LON": 107.89, "VMAX": 50.0, "MSLP": 991.0, "RMAX": 25.0, "FSPD": 1.61583, "FDIR": 17.2243, "RENV": 210.0, "PENV": 1004.0, "VALIDT": 0, "DTG": "2026-07-04 17:00", "LATNOW": 21.6, "LONNOW": 107.9, "WINDNOW": 50.0, "DIRNOW": 3.0, "SPDNOW": 1.0, "TECH": "TRAK", "ADVNR": 13, "ATCFID": "WP102026", "NAME": "MAYSAK", "FTECH": "JTWC", "FCST_DTG": "2026-07-04 18:00:00", "RUN_DTG": "2026-07-05 08:51:32", "BASIN": "WP", "STMNR": 10, "CAT_ID": null, "CAT_DESC": null, "MSGID": "WTPN52 PGTW 042100", "VALIDTIME": "2026-07-04 17:00:00" }, "geometry": { "type": "Point", "coordinates": [ 107.889999, 21.57 ] } },
{ "type": "Feature", "properties": { "ID": 30973, "LAT": 21.6, "LON": 107.9, "VMAX": 50.0, "MSLP": 989.0, "RMAX": 25.0, "FSPD": 3.47684, "FDIR": 15.89606, "RENV": 220.0, "PENV": 1004.0, "VALIDT": 0, "DTG": "2026-07-04 18:00", "LATNOW": 21.6, "LONNOW": 107.9, "WINDNOW": 50.0, "DIRNOW": 3.0, "SPDNOW": 1.0, "TECH": "TRAK", "ADVNR": 13, "ATCFID": "WP102026", "NAME": "MAYSAK", "FTECH": "JTWC", "FCST_DTG": "2026-07-04 18:00:00", "RUN_DTG": "2026-07-05 08:51:32", "BASIN": "WP", "STMNR": 10, "CAT_ID": null, "CAT_DESC": null, "MSGID": "WTPN52 PGTW 042100", "VALIDTIME": "2026-07-04 18:00:00" }, "geometry": { "type": "Point", "coordinates": [ 107.900002, 21.6 ] } },
{ "type": "Feature", "properties": { "ID": 30974, "LAT": 22.9, "LON": 108.3, "VMAX": 35.0, "MSLP": 1008.74713, "RMAX": 32.25216, "FSPD": 5.47765, "FDIR": 20.08743, "RENV": 180.0, "PENV": 1012.0, "VALIDT": 12, "DTG": "2026-07-05 06:00", "LATNOW": 21.6, "LONNOW": 107.9, "WINDNOW": 50.0, "DIRNOW": 3.0, "SPDNOW": 1.0, "TECH": "FCST", "ADVNR": 13, "ATCFID": "WP102026", "NAME": "MAYSAK", "FTECH": "JTWC", "FCST_DTG": "2026-07-04 18:00:00", "RUN_DTG": "2026-07-05 08:51:32", "BASIN": "WP", "STMNR": 10, "CAT_ID": null, "CAT_DESC": null, "MSGID": "WTPN52 PGTW 042100", "VALIDTIME": "2026-07-05 06:00:00" }, "geometry": { "type": "Point", "coordinates": [ 108.300003, 22.9 ] } },
{ "type": "Feature", "properties": { "ID": 30975, "LAT": 24.9, "LON": 109.1, "VMAX": 25.0, "MSLP": 1011.80975, "RMAX": 33.99628, "FSPD": 4.66383, "FDIR": 20.34869, "RENV": 250.0, "PENV": 1012.0, "VALIDT": 24, "DTG": "2026-07-05 18:00", "LATNOW": 21.6, "LONNOW": 107.9, "WINDNOW": 50.0, "DIRNOW": 3.0, "SPDNOW": 1.0, "TECH": "FCST", "ADVNR": 13, "ATCFID": "WP102026", "NAME": "MAYSAK", "FTECH": "JTWC", "FCST_DTG": "2026-07-04 18:00:00", "RUN_DTG": "2026-07-05 08:51:32", "BASIN": "WP", "STMNR": 10, "CAT_ID": null, "CAT_DESC": null, "MSGID": "WTPN52 PGTW 042100", "VALIDTIME": "2026-07-05 18:00:00" }, "geometry": { "type": "Point", "coordinates": [ 109.099998, 24.9 ] } },
{ "type": "Feature", "properties": { "ID": 30976, "LAT": 26.6, "LON": 109.8, "VMAX": 15.0, "MSLP": 1013.8515, "RMAX": 30.21892, "FSPD": 4.66383, "FDIR": 20.34869, "RENV": 250.0, "PENV": 1012.0, "VALIDT": 36, "DTG": "2026-07-06 06:00", "LATNOW": 21.6, "LONNOW": 107.9, "WINDNOW": 50.0, "DIRNOW": 3.0, "SPDNOW": 1.0, "TECH": "FCST", "ADVNR": 13, "ATCFID": "WP102026", "NAME": "MAYSAK", "FTECH": "JTWC", "FCST_DTG": "2026-07-04 18:00:00", "RUN_DTG": "2026-07-05 08:51:32", "BASIN": "WP", "STMNR": 10, "CAT_ID": null, "CAT_DESC": null, "MSGID": "WTPN52 PGTW 042100", "VALIDTIME": "2026-07-06 06:00:00" }, "geometry": { "type": "Point", "coordinates": [ 109.800003, 26.6 ] } },
{ "type": "Feature", "properties": { "ID": 30973, "LAT": 21.6, "LON": 107.9, "VMAX": 50.0, "MSLP": 989.0, "RMAX": 25.0, "FSPD": 3.47684, "FDIR": 15.89606, "RENV": 220.0, "PENV": 1004.0, "VALIDT": 0, "DTG": "2026-07-04 18:00", "LATNOW": 21.6, "LONNOW": 107.9, "WINDNOW": 50.0, "DIRNOW": 3.0, "SPDNOW": 1.0, "TECH": "TRAK", "ADVNR": 13, "ATCFID": "WP102026", "NAME": "MAYSAK", "FTECH": "JTWC", "FCST_DTG": "2026-07-04 18:00:00", "RUN_DTG": "2026-07-05 08:51:32", "BASIN": "WP", "STMNR": 10, "CAT_ID": null, "CAT_DESC": null, "MSGID": "WTPN52 PGTW 042100", "VALIDTIME": "2026-07-04 18:00:00" }, "geometry": { "type": "LineString", "coordinates": [ [ 133.4, 8.6 ], [ 132.6, 8.6 ], [ 131.7, 8.6 ], [ 130.6, 9.1 ], [ 129.9, 9.9 ], [ 127.9, 11.3 ], [ 125.7, 11.9 ], [ 125.28, 12.0 ], [ 123.6, 12.4 ], [ 122.4, 12.7 ], [ 122.0, 13.3 ], [ 121.2, 13.6 ], [ 120.1, 13.8 ], [ 119.3, 14.1 ], [ 117.8, 15.6 ], [ 116.4, 16.7 ], [ 115.0, 17.3 ], [ 113.1, 17.6 ], [ 111.6, 17.8 ], [ 111.0, 17.6 ], [ 110.4, 17.4 ], [ 110.1, 17.3 ], [ 109.7, 17.6 ], [ 109.52, 18.41 ], [ 109.5, 18.5 ], [ 108.7, 19.8 ], [ 108.4, 20.2 ], [ 107.8, 20.6 ], [ 107.8, 21.3 ], [ 107.89, 21.57 ], [ 107.9, 21.6 ] ] } },
{ "type": "Feature", "properties": { "ID": 30976, "LAT": 26.6, "LON": 109.8, "VMAX": 15.0, "MSLP": 1013.8515, "RMAX": 30.21892, "FSPD": 4.66383, "FDIR": 20.34869, "RENV": 250.0, "PENV": 1012.0, "VALIDT": 36, "DTG": "2026-07-06 06:00", "LATNOW": 21.6, "LONNOW": 107.9, "WINDNOW": 50.0, "DIRNOW": 3.0, "SPDNOW": 1.0, "TECH": "FCST", "ADVNR": 13, "ATCFID": "WP102026", "NAME": "MAYSAK", "FTECH": "JTWC", "FCST_DTG": "2026-07-04 18:00:00", "RUN_DTG": "2026-07-05 08:51:32", "BASIN": "WP", "STMNR": 10, "CAT_ID": null, "CAT_DESC": null, "MSGID": "WTPN52 PGTW 042100", "VALIDTIME": "2026-07-06 06:00:00" }, "geometry": { "type": "LineString", "coordinates": [ [ 107.9, 21.6 ], [ 108.3, 22.9 ], [ 109.1, 24.9 ], [ 109.8, 26.6 ] ] } }
]
}
