{
"type": "FeatureCollection",
"crs": { "type": "name", "properties": { "name": "urn:ogc:def:crs:OGC:1.3:CRS84" } },
"features": [
{ "type": "Feature", "properties": { "ID": 55230, "LAT": 21.5, "LON": 72.5, "VMAX": 25.0, "MSLP": 1011.80975, "RMAX": 45.0, "FSPD": 6.70608, "FDIR": 320.0969, "RENV": 500.0, "PENV": 1012.0, "VALIDT": 0, "DTG": "2025-09-29 06:00", "LATNOW": 19.7, "LONNOW": 60.2, "WINDNOW": 35.0, "DIRNOW": 1.0, "SPDNOW": 5.0, "TECH": "TRAK", "ADVNR": 15, "ATCFID": "IO022025", "NAME": "SHAKHTI", "FTECH": "JTWC", "FCST_DTG": "2025-10-06 12:00:00", "RUN_DTG": "2025-10-07 06:26:42", "BASIN": "IO", "STMNR": 2, "CAT_ID": null, "CAT_DESC": null, "MSGID": "WTIO31 PGTW 061500", "VALIDTIME": "2025-09-29 06:00:00" }, "geometry": { "type": "Point", "coordinates": [ 72.5, 21.5 ] } },
{ "type": "Feature", "properties": { "ID": 55231, "LAT": 21.9, "LON": 72.14, "VMAX": 25.0, "MSLP": 1011.80975, "RMAX": 45.0, "FSPD": 6.69641, "FDIR": 320.19604, "RENV": 500.0, "PENV": 1012.0, "VALIDT": 0, "DTG": "2025-09-29 08:00", "LATNOW": 19.7, "LONNOW": 60.2, "WINDNOW": 35.0, "DIRNOW": 1.0, "SPDNOW": 5.0, "TECH": "TRAK", "ADVNR": 15, "ATCFID": "IO022025", "NAME": "SHAKHTI", "FTECH": "JTWC", "FCST_DTG": "2025-10-06 12:00:00", "RUN_DTG": "2025-10-07 06:26:42", "BASIN": "IO", "STMNR": 2, "CAT_ID": null, "CAT_DESC": null, "MSGID": "WTIO31 PGTW 061500", "VALIDTIME": "2025-09-29 08:00:00" }, "geometry": { "type": "Point", "coordinates": [ 72.139999, 21.9 ] } },
{ "type": "Feature", "properties": { "ID": 55232, "LAT": 22.5, "LON": 71.6, "VMAX": 25.0, "MSLP": 1011.80975, "RMAX": 45.0, "FSPD": 4.89097, "FDIR": 309.13092, "RENV": 500.0, "PENV": 1012.0, "VALIDT": 0, "DTG": "2025-09-29 12:00", "LATNOW": 19.7, "LONNOW": 60.2, "WINDNOW": 35.0, "DIRNOW": 1.0, "SPDNOW": 5.0, "TECH": "TRAK", "ADVNR": 15, "ATCFID": "IO022025", "NAME": "SHAKHTI", "FTECH": "JTWC", "FCST_DTG": "2025-10-06 12:00:00", "RUN_DTG": "2025-10-07 06:26:42", "BASIN": "IO", "STMNR": 2, "CAT_ID": null, "CAT_DESC": null, "MSGID": "WTIO31 PGTW 061500", "VALIDTIME": "2025-09-29 12:00:00" }, "geometry": { "type": "Point", "coordinates": [ 71.599998, 22.5 ] } },
{ "type": "Feature", "properties": { "ID": 55233, "LAT": 23.1, "LON": 70.8, "VMAX": 25.0, "MSLP": 1011.80975, "RMAX": 45.0, "FSPD": 3.82178, "FDIR": 262.26395, "RENV": 500.0, "PENV": 1012.0, "VALIDT": 0, "DTG": "2025-09-29 18:00", "LATNOW": 19.7, "LONNOW": 60.2, "WINDNOW": 35.0, "DIRNOW": 1.0, "SPDNOW": 5.0, "TECH": "TRAK", "ADVNR": 15, "ATCFID": "IO022025", "NAME": "SHAKHTI", "FTECH": "JTWC", "FCST_DTG": "2025-10-06 12:00:00", "RUN_DTG": "2025-10-07 06:26:42", "BASIN": "IO", "STMNR": 2, "CAT_ID": null, "CAT_DESC": null, "MSGID": "WTIO31 PGTW 061500", "VALIDTIME": "2025-09-29 18:00:00" }, "geometry": { "type": "Point", "coordinates": [ 70.800003, 23.1 ] } },
{ "type": "Feature", "properties": { "ID": 55234, "LAT": 23.0, "LON": 70.0, "VMAX": 25.0, "MSLP": 1011.80975, "RMAX": 45.0, "FSPD": 2.44496, "FDIR": 230.85909, "RENV": 500.0, "PENV": 1012.0, "VALIDT": 0, "DTG": "2025-09-30 00:00", "LATNOW": 19.7, "LONNOW": 60.2, "WINDNOW": 35.0, "DIRNOW": 1.0, "SPDNOW": 5.0, "TECH": "TRAK", "ADVNR": 15, "ATCFID": "IO022025", "NAME": "SHAKHTI", "FTECH": "JTWC", "FCST_DTG": "2025-10-06 12:00:00", "RUN_DTG": "2025-10-07 06:26:42", "BASIN": "IO", "STMNR": 2, "CAT_ID": null, "CAT_DESC": null, "MSGID": "WTIO31 PGTW 061500", "VALIDTIME": "2025-09-30 00:00:00" }, "geometry": { "type": "Point", "coordinates": [ 70.0, 23.0 ] } },
{ "type": "Feature", "properties": { "ID": 55235, "LAT": 22.7, "LON": 69.6, "VMAX": 25.0, "MSLP": 1011.80975, "RMAX": 45.0, "FSPD": 2.80158, "FDIR": 222.73418, "RENV": 500.0, "PENV": 1012.0, "VALIDT": 0, "DTG": "2025-09-30 06:00", "LATNOW": 19.7, "LONNOW": 60.2, "WINDNOW": 35.0, "DIRNOW": 1.0, "SPDNOW": 5.0, "TECH": "TRAK", "ADVNR": 15, "ATCFID": "IO022025", "NAME": "SHAKHTI", "FTECH": "JTWC", "FCST_DTG": "2025-10-06 12:00:00", "RUN_DTG": "2025-10-07 06:26:42", "BASIN": "IO", "STMNR": 2, "CAT_ID": null, "CAT_DESC": null, "MSGID": "WTIO31 PGTW 061500", "VALIDTIME": "2025-09-30 06:00:00" }, "geometry": { "type": "Point", "coordinates": [ 69.599998, 22.700001 ] } },
{ "type": "Feature", "properties": { "ID": 55236, "LAT": 22.3, "LON": 69.2, "VMAX": 25.0, "MSLP": 1011.80975, "RMAX": 45.0, "FSPD": 1.51821, "FDIR": 250.19348, "RENV": 500.0, "PENV": 1012.0, "VALIDT": 0, "DTG": "2025-09-30 12:00", "LATNOW": 19.7, "LONNOW": 60.2, "WINDNOW": 35.0, "DIRNOW": 1.0, "SPDNOW": 5.0, "TECH": "TRAK", "ADVNR": 15, "ATCFID": "IO022025", "NAME": "SHAKHTI", "FTECH": "JTWC", "FCST_DTG": "2025-10-06 12:00:00", "RUN_DTG": "2025-10-07 06:26:42", "BASIN": "IO", "STMNR": 2, "CAT_ID": null, "CAT_DESC": null, "MSGID": "WTIO31 PGTW 061500", "VALIDTIME": "2025-09-30 12:00:00" }, "geometry": { "type": "Point", "coordinates": [ 69.199997, 22.299999 ] } },
{ "type": "Feature", "properties": { "ID": 55237, "LAT": 22.2, "LON": 68.9, "VMAX": 25.0, "MSLP": 1011.80975, "RMAX": 45.0, "FSPD": 0.7012, "FDIR": 222.80527, "RENV": 500.0, "PENV": 1012.0, "VALIDT": 0, "DTG": "2025-09-30 18:00", "LATNOW": 19.7, "LONNOW": 60.2, "WINDNOW": 35.0, "DIRNOW": 1.0, "SPDNOW": 5.0, "TECH": "TRAK", "ADVNR": 15, "ATCFID": "IO022025", "NAME": "SHAKHTI", "FTECH": "JTWC", "FCST_DTG": "2025-10-06 12:00:00", "RUN_DTG": "2025-10-07 06:26:42", "BASIN": "IO", "STMNR": 2, "CAT_ID": null, "CAT_DESC": null, "MSGID": "WTIO31 PGTW 061500", "VALIDTIME": "2025-09-30 18:00:00" }, "geometry": { "type": "Point", "coordinates": [ 68.900002, 22.200001 ] } },
{ "type": "Feature", "properties": { "ID": 55238, "LAT": 22.1, "LON": 68.8, "VMAX": 25.0, "MSLP": 1011.80975, "RMAX": 45.0, "FSPD": 1.08356, "FDIR": 241.65544, "RENV": 500.0, "PENV": 1012.0, "VALIDT": 0, "DTG": "2025-10-01 00:00", "LATNOW": 19.7, "LONNOW": 60.2, "WINDNOW": 35.0, "DIRNOW": 1.0, "SPDNOW": 5.0, "TECH": "TRAK", "ADVNR": 15, "ATCFID": "IO022025", "NAME": "SHAKHTI", "FTECH": "JTWC", "FCST_DTG": "2025-10-06 12:00:00", "RUN_DTG": "2025-10-07 06:26:42", "BASIN": "IO", "STMNR": 2, "CAT_ID": null, "CAT_DESC": null, "MSGID": "WTIO31 PGTW 061500", "VALIDTIME": "2025-10-01 00:00:00" }, "geometry": { "type": "Point", "coordinates": [ 68.800003, 22.1 ] } },
{ "type": "Feature", "properties": { "ID": 55239, "LAT": 22.0, "LON": 68.6, "VMAX": 25.0, "MSLP": 1011.80975, "RMAX": 45.0, "FSPD": 3.20458, "FDIR": 216.61415, "RENV": 500.0, "PENV": 1012.0, "VALIDT": 0, "DTG": "2025-10-01 06:00", "LATNOW": 19.7, "LONNOW": 60.2, "WINDNOW": 35.0, "DIRNOW": 1.0, "SPDNOW": 5.0, "TECH": "TRAK", "ADVNR": 15, "ATCFID": "IO022025", "NAME": "SHAKHTI", "FTECH": "JTWC", "FCST_DTG": "2025-10-06 12:00:00", "RUN_DTG": "2025-10-07 06:26:42", "BASIN": "IO", "STMNR": 2, "CAT_ID": null, "CAT_DESC": null, "MSGID": "WTIO31 PGTW 061500", "VALIDTIME": "2025-10-01 06:00:00" }, "geometry": { "type": "Point", "coordinates": [ 68.599998, 22.0 ] } },
{ "type": "Feature", "properties": { "ID": 55240, "LAT": 21.5, "LON": 68.2, "VMAX": 25.0, "MSLP": 1011.80975, "RMAX": 45.0, "FSPD": 2.11287, "FDIR": 166.88745, "RENV": 500.0, "PENV": 1012.0, "VALIDT": 0, "DTG": "2025-10-01 12:00", "LATNOW": 19.7, "LONNOW": 60.2, "WINDNOW": 35.0, "DIRNOW": 1.0, "SPDNOW": 5.0, "TECH": "TRAK", "ADVNR": 15, "ATCFID": "IO022025", "NAME": "SHAKHTI", "FTECH": "JTWC", "FCST_DTG": "2025-10-06 12:00:00", "RUN_DTG": "2025-10-07 06:26:42", "BASIN": "IO", "STMNR": 2, "CAT_ID": null, "CAT_DESC": null, "MSGID": "WTIO31 PGTW 061500", "VALIDTIME": "2025-10-01 12:00:00" }, "geometry": { "type": "Point", "coordinates": [ 68.199997, 21.5 ] } },
{ "type": "Feature", "properties": { "ID": 55241, "LAT": 21.1, "LON": 68.3, "VMAX": 25.0, "MSLP": 1011.80975, "RMAX": 45.0, "FSPD": 0.7037, "FDIR": 223.02464, "RENV": 500.0, "PENV": 1012.0, "VALIDT": 0, "DTG": "2025-10-01 18:00", "LATNOW": 19.7, "LONNOW": 60.2, "WINDNOW": 35.0, "DIRNOW": 1.0, "SPDNOW": 5.0, "TECH": "TRAK", "ADVNR": 15, "ATCFID": "IO022025", "NAME": "SHAKHTI", "FTECH": "JTWC", "FCST_DTG": "2025-10-06 12:00:00", "RUN_DTG": "2025-10-07 06:26:42", "BASIN": "IO", "STMNR": 2, "CAT_ID": null, "CAT_DESC": null, "MSGID": "WTIO31 PGTW 061500", "VALIDTIME": "2025-10-01 18:00:00" }, "geometry": { "type": "Point", "coordinates": [ 68.300003, 21.1 ] } },
{ "type": "Feature", "properties": { "ID": 55242, "LAT": 21.0, "LON": 68.2, "VMAX": 30.0, "MSLP": 1010.40607, "RMAX": 44.21983, "FSPD": 1.08934, "FDIR": 298.18073, "RENV": 500.0, "PENV": 1012.0, "VALIDT": 0, "DTG": "2025-10-02 00:00", "LATNOW": 19.7, "LONNOW": 60.2, "WINDNOW": 35.0, "DIRNOW": 1.0, "SPDNOW": 5.0, "TECH": "TRAK", "ADVNR": 15, "ATCFID": "IO022025", "NAME": "SHAKHTI", "FTECH": "JTWC", "FCST_DTG": "2025-10-06 12:00:00", "RUN_DTG": "2025-10-07 06:26:42", "BASIN": "IO", "STMNR": 2, "CAT_ID": null, "CAT_DESC": null, "MSGID": "WTIO31 PGTW 061500", "VALIDTIME": "2025-10-02 00:00:00" }, "geometry": { "type": "Point", "coordinates": [ 68.199997, 21.0 ] } },
{ "type": "Feature", "properties": { "ID": 55243, "LAT": 21.1, "LON": 68.0, "VMAX": 30.0, "MSLP": 1010.40607, "RMAX": 44.21983, "FSPD": 1.40668, "FDIR": 317.0061, "RENV": 500.0, "PENV": 1012.0, "VALIDT": 0, "DTG": "2025-10-02 06:00", "LATNOW": 19.7, "LONNOW": 60.2, "WINDNOW": 35.0, "DIRNOW": 1.0, "SPDNOW": 5.0, "TECH": "TRAK", "ADVNR": 15, "ATCFID": "IO022025", "NAME": "SHAKHTI", "FTECH": "JTWC", "FCST_DTG": "2025-10-06 12:00:00", "RUN_DTG": "2025-10-07 06:26:42", "BASIN": "IO", "STMNR": 2, "CAT_ID": null, "CAT_DESC": null, "MSGID": "WTIO31 PGTW 061500", "VALIDTIME": "2025-10-02 06:00:00" }, "geometry": { "type": "Point", "coordinates": [ 68.0, 21.1 ] } },
{ "type": "Feature", "properties": { "ID": 55244, "LAT": 21.3, "LON": 67.8, "VMAX": 30.0, "MSLP": 1010.40607, "RMAX": 44.21983, "FSPD": 1.52672, "FDIR": 289.69186, "RENV": 500.0, "PENV": 1012.0, "VALIDT": 0, "DTG": "2025-10-02 12:00", "LATNOW": 19.7, "LONNOW": 60.2, "WINDNOW": 35.0, "DIRNOW": 1.0, "SPDNOW": 5.0, "TECH": "TRAK", "ADVNR": 15, "ATCFID": "IO022025", "NAME": "SHAKHTI", "FTECH": "JTWC", "FCST_DTG": "2025-10-06 12:00:00", "RUN_DTG": "2025-10-07 06:26:42", "BASIN": "IO", "STMNR": 2, "CAT_ID": null, "CAT_DESC": null, "MSGID": "WTIO31 PGTW 061500", "VALIDTIME": "2025-10-02 12:00:00" }, "geometry": { "type": "Point", "coordinates": [ 67.800003, 21.299999 ] } },
{ "type": "Feature", "properties": { "ID": 55245, "LAT": 21.4, "LON": 67.5, "VMAX": 30.0, "MSLP": 1010.40607, "RMAX": 44.21983, "FSPD": 1.52579, "FDIR": 289.70428, "RENV": 500.0, "PENV": 1012.0, "VALIDT": 0, "DTG": "2025-10-02 18:00", "LATNOW": 19.7, "LONNOW": 60.2, "WINDNOW": 35.0, "DIRNOW": 1.0, "SPDNOW": 5.0, "TECH": "TRAK", "ADVNR": 15, "ATCFID": "IO022025", "NAME": "SHAKHTI", "FTECH": "JTWC", "FCST_DTG": "2025-10-06 12:00:00", "RUN_DTG": "2025-10-07 06:26:42", "BASIN": "IO", "STMNR": 2, "CAT_ID": null, "CAT_DESC": null, "MSGID": "WTIO31 PGTW 061500", "VALIDTIME": "2025-10-02 18:00:00" }, "geometry": { "type": "Point", "coordinates": [ 67.5, 21.4 ] } },
{ "type": "Feature", "properties": { "ID": 55246, "LAT": 21.5, "LON": 67.2, "VMAX": 35.0, "MSLP": 996.0, "RMAX": 35.0, "FSPD": 2.45761, "FDIR": 308.90125, "RENV": 160.0, "PENV": 1003.0, "VALIDT": 0, "DTG": "2025-10-03 00:00", "LATNOW": 19.7, "LONNOW": 60.2, "WINDNOW": 35.0, "DIRNOW": 1.0, "SPDNOW": 5.0, "TECH": "TRAK", "ADVNR": 15, "ATCFID": "IO022025", "NAME": "SHAKHTI", "FTECH": "JTWC", "FCST_DTG": "2025-10-06 12:00:00", "RUN_DTG": "2025-10-07 06:26:42", "BASIN": "IO", "STMNR": 2, "CAT_ID": null, "CAT_DESC": null, "MSGID": "WTIO31 PGTW 061500", "VALIDTIME": "2025-10-03 00:00:00" }, "geometry": { "type": "Point", "coordinates": [ 67.199997, 21.5 ] } },
{ "type": "Feature", "properties": { "ID": 55247, "LAT": 21.8, "LON": 66.8, "VMAX": 40.0, "MSLP": 996.0, "RMAX": 35.0, "FSPD": 2.16887, "FDIR": 298.3197, "RENV": 160.0, "PENV": 1003.0, "VALIDT": 0, "DTG": "2025-10-03 06:00", "LATNOW": 19.7, "LONNOW": 60.2, "WINDNOW": 35.0, "DIRNOW": 1.0, "SPDNOW": 5.0, "TECH": "TRAK", "ADVNR": 15, "ATCFID": "IO022025", "NAME": "SHAKHTI", "FTECH": "JTWC", "FCST_DTG": "2025-10-06 12:00:00", "RUN_DTG": "2025-10-07 06:26:42", "BASIN": "IO", "STMNR": 2, "CAT_ID": null, "CAT_DESC": null, "MSGID": "WTIO31 PGTW 061500", "VALIDTIME": "2025-10-03 06:00:00" }, "geometry": { "type": "Point", "coordinates": [ 66.800003, 21.799999 ] } },
{ "type": "Feature", "properties": { "ID": 55248, "LAT": 22.0, "LON": 66.4, "VMAX": 45.0, "MSLP": 993.0, "RMAX": 40.0, "FSPD": 2.90678, "FDIR": 280.19397, "RENV": 160.0, "PENV": 1003.0, "VALIDT": 0, "DTG": "2025-10-03 12:00", "LATNOW": 19.7, "LONNOW": 60.2, "WINDNOW": 35.0, "DIRNOW": 1.0, "SPDNOW": 5.0, "TECH": "TRAK", "ADVNR": 15, "ATCFID": "IO022025", "NAME": "SHAKHTI", "FTECH": "JTWC", "FCST_DTG": "2025-10-06 12:00:00", "RUN_DTG": "2025-10-07 06:26:42", "BASIN": "IO", "STMNR": 2, "CAT_ID": null, "CAT_DESC": null, "MSGID": "WTIO31 PGTW 061500", "VALIDTIME": "2025-10-03 12:00:00" }, "geometry": { "type": "Point", "coordinates": [ 66.400002, 22.0 ] } },
{ "type": "Feature", "properties": { "ID": 55249, "LAT": 22.1, "LON": 65.8, "VMAX": 50.0, "MSLP": 995.0, "RMAX": 50.0, "FSPD": 5.26648, "FDIR": 275.60577, "RENV": 185.0, "PENV": 1008.0, "VALIDT": 0, "DTG": "2025-10-03 18:00", "LATNOW": 19.7, "LONNOW": 60.2, "WINDNOW": 35.0, "DIRNOW": 1.0, "SPDNOW": 5.0, "TECH": "TRAK", "ADVNR": 15, "ATCFID": "IO022025", "NAME": "SHAKHTI", "FTECH": "JTWC", "FCST_DTG": "2025-10-06 12:00:00", "RUN_DTG": "2025-10-07 06:26:42", "BASIN": "IO", "STMNR": 2, "CAT_ID": null, "CAT_DESC": null, "MSGID": "WTIO31 PGTW 061500", "VALIDTIME": "2025-10-03 18:00:00" }, "geometry": { "type": "Point", "coordinates": [ 65.800003, 22.1 ] } },
{ "type": "Feature", "properties": { "ID": 55250, "LAT": 22.2, "LON": 64.7, "VMAX": 55.0, "MSLP": 991.0, "RMAX": 30.0, "FSPD": 3.25063, "FDIR": 241.65482, "RENV": 180.0, "PENV": 1006.0, "VALIDT": 0, "DTG": "2025-10-04 00:00", "LATNOW": 19.7, "LONNOW": 60.2, "WINDNOW": 35.0, "DIRNOW": 1.0, "SPDNOW": 5.0, "TECH": "TRAK", "ADVNR": 15, "ATCFID": "IO022025", "NAME": "SHAKHTI", "FTECH": "JTWC", "FCST_DTG": "2025-10-06 12:00:00", "RUN_DTG": "2025-10-07 06:26:42", "BASIN": "IO", "STMNR": 2, "CAT_ID": null, "CAT_DESC": null, "MSGID": "WTIO31 PGTW 061500", "VALIDTIME": "2025-10-04 00:00:00" }, "geometry": { "type": "Point", "coordinates": [ 64.699997, 22.200001 ] } },
{ "type": "Feature", "properties": { "ID": 55251, "LAT": 21.9, "LON": 64.1, "VMAX": 55.0, "MSLP": 988.0, "RMAX": 30.0, "FSPD": 4.55391, "FDIR": 227.32745, "RENV": 180.0, "PENV": 1006.0, "VALIDT": 0, "DTG": "2025-10-04 06:00", "LATNOW": 19.7, "LONNOW": 60.2, "WINDNOW": 35.0, "DIRNOW": 1.0, "SPDNOW": 5.0, "TECH": "TRAK", "ADVNR": 15, "ATCFID": "IO022025", "NAME": "SHAKHTI", "FTECH": "JTWC", "FCST_DTG": "2025-10-06 12:00:00", "RUN_DTG": "2025-10-07 06:26:42", "BASIN": "IO", "STMNR": 2, "CAT_ID": null, "CAT_DESC": null, "MSGID": "WTIO31 PGTW 061500", "VALIDTIME": "2025-10-04 06:00:00" }, "geometry": { "type": "Point", "coordinates": [ 64.099998, 21.9 ] } },
{ "type": "Feature", "properties": { "ID": 55252, "LAT": 21.3, "LON": 63.4, "VMAX": 65.0, "MSLP": 988.0, "RMAX": 30.0, "FSPD": 4.43759, "FDIR": 256.59357, "RENV": 180.0, "PENV": 1009.0, "VALIDT": 0, "DTG": "2025-10-04 12:00", "LATNOW": 19.7, "LONNOW": 60.2, "WINDNOW": 35.0, "DIRNOW": 1.0, "SPDNOW": 5.0, "TECH": "TRAK", "ADVNR": 15, "ATCFID": "IO022025", "NAME": "SHAKHTI", "FTECH": "JTWC", "FCST_DTG": "2025-10-06 12:00:00", "RUN_DTG": "2025-10-07 06:26:42", "BASIN": "IO", "STMNR": 2, "CAT_ID": null, "CAT_DESC": null, "MSGID": "WTIO31 PGTW 061500", "VALIDTIME": "2025-10-04 12:00:00" }, "geometry": { "type": "Point", "coordinates": [ 63.400002, 21.299999 ] } },
{ "type": "Feature", "properties": { "ID": 55253, "LAT": 21.1, "LON": 62.5, "VMAX": 75.0, "MSLP": 982.0, "RMAX": 20.0, "FSPD": 5.7843, "FDIR": 264.89743, "RENV": 160.0, "PENV": 1006.0, "VALIDT": 0, "DTG": "2025-10-04 18:00", "LATNOW": 19.7, "LONNOW": 60.2, "WINDNOW": 35.0, "DIRNOW": 1.0, "SPDNOW": 5.0, "TECH": "TRAK", "ADVNR": 15, "ATCFID": "IO022025", "NAME": "SHAKHTI", "FTECH": "JTWC", "FCST_DTG": "2025-10-06 12:00:00", "RUN_DTG": "2025-10-07 06:26:42", "BASIN": "IO", "STMNR": 2, "CAT_ID": null, "CAT_DESC": null, "MSGID": "WTIO31 PGTW 061500", "VALIDTIME": "2025-10-04 18:00:00" }, "geometry": { "type": "Point", "coordinates": [ 62.5, 21.1 ] } },
{ "type": "Feature", "properties": { "ID": 55254, "LAT": 21.0, "LON": 61.3, "VMAX": 70.0, "MSLP": 976.0, "RMAX": 15.0, "FSPD": 2.61682, "FDIR": 169.40622, "RENV": 110.0, "PENV": 1006.0, "VALIDT": 0, "DTG": "2025-10-05 00:00", "LATNOW": 19.7, "LONNOW": 60.2, "WINDNOW": 35.0, "DIRNOW": 1.0, "SPDNOW": 5.0, "TECH": "TRAK", "ADVNR": 15, "ATCFID": "IO022025", "NAME": "SHAKHTI", "FTECH": "JTWC", "FCST_DTG": "2025-10-06 12:00:00", "RUN_DTG": "2025-10-07 06:26:42", "BASIN": "IO", "STMNR": 2, "CAT_ID": null, "CAT_DESC": null, "MSGID": "WTIO31 PGTW 061500", "VALIDTIME": "2025-10-05 00:00:00" }, "geometry": { "type": "Point", "coordinates": [ 61.299999, 21.0 ] } },
{ "type": "Feature", "properties": { "ID": 55255, "LAT": 20.5, "LON": 61.4, "VMAX": 65.0, "MSLP": 980.0, "RMAX": 10.0, "FSPD": 4.63952, "FDIR": 236.32948, "RENV": 135.0, "PENV": 1005.0, "VALIDT": 0, "DTG": "2025-10-05 06:00", "LATNOW": 19.7, "LONNOW": 60.2, "WINDNOW": 35.0, "DIRNOW": 1.0, "SPDNOW": 5.0, "TECH": "TRAK", "ADVNR": 15, "ATCFID": "IO022025", "NAME": "SHAKHTI", "FTECH": "JTWC", "FCST_DTG": "2025-10-06 12:00:00", "RUN_DTG": "2025-10-07 06:26:42", "BASIN": "IO", "STMNR": 2, "CAT_ID": null, "CAT_DESC": null, "MSGID": "WTIO31 PGTW 061500", "VALIDTIME": "2025-10-05 06:00:00" }, "geometry": { "type": "Point", "coordinates": [ 61.400002, 20.5 ] } },
{ "type": "Feature", "properties": { "ID": 55256, "LAT": 20.0, "LON": 60.6, "VMAX": 60.0, "MSLP": 984.0, "RMAX": 15.0, "FSPD": 2.51853, "FDIR": 215.20905, "RENV": 120.0, "PENV": 1007.0, "VALIDT": 0, "DTG": "2025-10-05 12:00", "LATNOW": 19.7, "LONNOW": 60.2, "WINDNOW": 35.0, "DIRNOW": 1.0, "SPDNOW": 5.0, "TECH": "TRAK", "ADVNR": 15, "ATCFID": "IO022025", "NAME": "SHAKHTI", "FTECH": "JTWC", "FCST_DTG": "2025-10-06 12:00:00", "RUN_DTG": "2025-10-07 06:26:42", "BASIN": "IO", "STMNR": 2, "CAT_ID": null, "CAT_DESC": null, "MSGID": "WTIO31 PGTW 061500", "VALIDTIME": "2025-10-05 12:00:00" }, "geometry": { "type": "Point", "coordinates": [ 60.599998, 20.0 ] } },
{ "type": "Feature", "properties": { "ID": 55257, "LAT": 19.6, "LON": 60.3, "VMAX": 55.0, "MSLP": 984.0, "RMAX": 15.0, "FSPD": 1.7804, "FDIR": 54.6973, "RENV": 100.0, "PENV": 1004.0, "VALIDT": 0, "DTG": "2025-10-05 18:00", "LATNOW": 19.7, "LONNOW": 60.2, "WINDNOW": 35.0, "DIRNOW": 1.0, "SPDNOW": 5.0, "TECH": "TRAK", "ADVNR": 15, "ATCFID": "IO022025", "NAME": "SHAKHTI", "FTECH": "JTWC", "FCST_DTG": "2025-10-06 12:00:00", "RUN_DTG": "2025-10-07 06:26:42", "BASIN": "IO", "STMNR": 2, "CAT_ID": null, "CAT_DESC": null, "MSGID": "WTIO31 PGTW 061500", "VALIDTIME": "2025-10-05 18:00:00" }, "geometry": { "type": "Point", "coordinates": [ 60.299999, 19.6 ] } },
{ "type": "Feature", "properties": { "ID": 55258, "LAT": 19.8, "LON": 60.6, "VMAX": 50.0, "MSLP": 987.0, "RMAX": 20.0, "FSPD": 0.96805, "FDIR": 269.99997, "RENV": 100.0, "PENV": 1004.0, "VALIDT": 0, "DTG": "2025-10-06 00:00", "LATNOW": 19.7, "LONNOW": 60.2, "WINDNOW": 35.0, "DIRNOW": 1.0, "SPDNOW": 5.0, "TECH": "TRAK", "ADVNR": 15, "ATCFID": "IO022025", "NAME": "SHAKHTI", "FTECH": "JTWC", "FCST_DTG": "2025-10-06 12:00:00", "RUN_DTG": "2025-10-07 06:26:42", "BASIN": "IO", "STMNR": 2, "CAT_ID": null, "CAT_DESC": null, "MSGID": "WTIO31 PGTW 061500", "VALIDTIME": "2025-10-06 00:00:00" }, "geometry": { "type": "Point", "coordinates": [ 60.599998, 19.799999 ] } },
{ "type": "Feature", "properties": { "ID": 55259, "LAT": 19.8, "LON": 60.4, "VMAX": 40.0, "MSLP": 989.0, "RMAX": 25.0, "FSPD": 1.09653, "FDIR": 242.02094, "RENV": 110.0, "PENV": 1004.0, "VALIDT": 0, "DTG": "2025-10-06 06:00", "LATNOW": 19.7, "LONNOW": 60.2, "WINDNOW": 35.0, "DIRNOW": 1.0, "SPDNOW": 5.0, "TECH": "TRAK", "ADVNR": 15, "ATCFID": "IO022025", "NAME": "SHAKHTI", "FTECH": "JTWC", "FCST_DTG": "2025-10-06 12:00:00", "RUN_DTG": "2025-10-07 06:26:42", "BASIN": "IO", "STMNR": 2, "CAT_ID": null, "CAT_DESC": null, "MSGID": "WTIO31 PGTW 061500", "VALIDTIME": "2025-10-06 06:00:00" }, "geometry": { "type": "Point", "coordinates": [ 60.400002, 19.799999 ] } },
{ "type": "Feature", "properties": { "ID": 55260, "LAT": 19.7, "LON": 60.2, "VMAX": 35.0, "MSLP": 998.0, "RMAX": 25.0, "FSPD": 0.80884, "FDIR": 162.56189, "RENV": 80.0, "PENV": 1008.0, "VALIDT": 0, "DTG": "2025-10-06 12:00", "LATNOW": 19.7, "LONNOW": 60.2, "WINDNOW": 35.0, "DIRNOW": 1.0, "SPDNOW": 5.0, "TECH": "TRAK", "ADVNR": 15, "ATCFID": "IO022025", "NAME": "SHAKHTI", "FTECH": "JTWC", "FCST_DTG": "2025-10-06 12:00:00", "RUN_DTG": "2025-10-07 06:26:42", "BASIN": "IO", "STMNR": 2, "CAT_ID": null, "CAT_DESC": null, "MSGID": "WTIO31 PGTW 061500", "VALIDTIME": "2025-10-06 12:00:00" }, "geometry": { "type": "Point", "coordinates": [ 60.200001, 19.700001 ] } },
{ "type": "Feature", "properties": { "ID": 55261, "LAT": 19.4, "LON": 60.3, "VMAX": 30.0, "MSLP": 1010.40607, "RMAX": 30.23469, "FSPD": 0.80884, "FDIR": 162.56189, "RENV": 250.0, "PENV": 1012.0, "VALIDT": 12, "DTG": "2025-10-07 00:00", "LATNOW": 19.7, "LONNOW": 60.2, "WINDNOW": 35.0, "DIRNOW": 1.0, "SPDNOW": 5.0, "TECH": "FCST", "ADVNR": 15, "ATCFID": "IO022025", "NAME": "SHAKHTI", "FTECH": "JTWC", "FCST_DTG": "2025-10-06 12:00:00", "RUN_DTG": "2025-10-07 06:26:42", "BASIN": "IO", "STMNR": 2, "CAT_ID": null, "CAT_DESC": null, "MSGID": "WTIO31 PGTW 061500", "VALIDTIME": "2025-10-07 00:00:00" }, "geometry": { "type": "Point", "coordinates": [ 60.299999, 19.4 ] } },
{ "type": "Feature", "properties": { "ID": 55260, "LAT": 19.7, "LON": 60.2, "VMAX": 35.0, "MSLP": 998.0, "RMAX": 25.0, "FSPD": 0.80884, "FDIR": 162.56189, "RENV": 80.0, "PENV": 1008.0, "VALIDT": 0, "DTG": "2025-10-06 12:00", "LATNOW": 19.7, "LONNOW": 60.2, "WINDNOW": 35.0, "DIRNOW": 1.0, "SPDNOW": 5.0, "TECH": "TRAK", "ADVNR": 15, "ATCFID": "IO022025", "NAME": "SHAKHTI", "FTECH": "JTWC", "FCST_DTG": "2025-10-06 12:00:00", "RUN_DTG": "2025-10-07 06:26:42", "BASIN": "IO", "STMNR": 2, "CAT_ID": null, "CAT_DESC": null, "MSGID": "WTIO31 PGTW 061500", "VALIDTIME": "2025-10-06 12:00:00" }, "geometry": { "type": "LineString", "coordinates": [ [ 72.5, 21.5 ], [ 72.14, 21.9 ], [ 71.6, 22.5 ], [ 70.8, 23.1 ], [ 70.0, 23.0 ], [ 69.6, 22.7 ], [ 69.2, 22.3 ], [ 68.9, 22.2 ], [ 68.8, 22.1 ], [ 68.6, 22.0 ], [ 68.2, 21.5 ], [ 68.3, 21.1 ], [ 68.2, 21.0 ], [ 68.0, 21.1 ], [ 67.8, 21.3 ], [ 67.5, 21.4 ], [ 67.2, 21.5 ], [ 66.8, 21.8 ], [ 66.4, 22.0 ], [ 65.8, 22.1 ], [ 64.7, 22.2 ], [ 64.1, 21.9 ], [ 63.4, 21.3 ], [ 62.5, 21.1 ], [ 61.3, 21.0 ], [ 61.4, 20.5 ], [ 60.6, 20.0 ], [ 60.3, 19.6 ], [ 60.6, 19.8 ], [ 60.4, 19.8 ], [ 60.2, 19.7 ] ] } },
{ "type": "Feature", "properties": { "ID": 55261, "LAT": 19.4, "LON": 60.3, "VMAX": 30.0, "MSLP": 1010.40607, "RMAX": 30.23469, "FSPD": 0.80884, "FDIR": 162.56189, "RENV": 250.0, "PENV": 1012.0, "VALIDT": 12, "DTG": "2025-10-07 00:00", "LATNOW": 19.7, "LONNOW": 60.2, "WINDNOW": 35.0, "DIRNOW": 1.0, "SPDNOW": 5.0, "TECH": "FCST", "ADVNR": 15, "ATCFID": "IO022025", "NAME": "SHAKHTI", "FTECH": "JTWC", "FCST_DTG": "2025-10-06 12:00:00", "RUN_DTG": "2025-10-07 06:26:42", "BASIN": "IO", "STMNR": 2, "CAT_ID": null, "CAT_DESC": null, "MSGID": "WTIO31 PGTW 061500", "VALIDTIME": "2025-10-07 00:00:00" }, "geometry": { "type": "LineString", "coordinates": [ [ 60.2, 19.7 ], [ 60.3, 19.4 ] ] } }
]
}
