{
"type": "FeatureCollection",
"crs": { "type": "name", "properties": { "name": "urn:ogc:def:crs:OGC:1.3:CRS84" } },
"features": [
{ "type": "Feature", "properties": { "ID": 231677, "LAT": 26.1, "LON": 153.9, "VMAX": 15.0, "MSLP": 1013.8515, "RMAX": 40.0, "FSPD": 1.79819, "FDIR": 30.87744, "RENV": 500.0, "PENV": 1012.0, "VALIDT": 0, "DTG": "2024-08-10 00:00", "LATNOW": 37.2, "LONNOW": 145.9, "WINDNOW": 25.0, "DIRNOW": 7.0, "SPDNOW": 2.0, "TECH": "TRAK", "ADVNR": 6, "ATCFID": "WP072024", "NAME": "SON-TINH", "FTECH": "JTWC", "FCST_DTG": "2024-08-13 12:00:00", "RUN_DTG": "2024-08-14 03:47:03", "BASIN": "WP", "STMNR": 7, "CAT_ID": null, "CAT_DESC": null, "MSGID": "WTPN52 PGTW 131500", "VALIDTIME": "2024-08-10 00:00:00" }, "geometry": { "type": "Point", "coordinates": [ 153.899994, 26.1 ] } },
{ "type": "Feature", "properties": { "ID": 231678, "LAT": 26.4, "LON": 154.1, "VMAX": 15.0, "MSLP": 1013.8515, "RMAX": 40.0, "FSPD": 2.10855, "FDIR": 12.59955, "RENV": 500.0, "PENV": 1012.0, "VALIDT": 0, "DTG": "2024-08-10 06:00", "LATNOW": 37.2, "LONNOW": 145.9, "WINDNOW": 25.0, "DIRNOW": 7.0, "SPDNOW": 2.0, "TECH": "TRAK", "ADVNR": 6, "ATCFID": "WP072024", "NAME": "SON-TINH", "FTECH": "JTWC", "FCST_DTG": "2024-08-13 12:00:00", "RUN_DTG": "2024-08-14 03:47:03", "BASIN": "WP", "STMNR": 7, "CAT_ID": null, "CAT_DESC": null, "MSGID": "WTPN52 PGTW 131500", "VALIDTIME": "2024-08-10 06:00:00" }, "geometry": { "type": "Point", "coordinates": [ 154.100006, 26.4 ] } },
{ "type": "Feature", "properties": { "ID": 231679, "LAT": 26.8, "LON": 154.2, "VMAX": 20.0, "MSLP": 1012.95825, "RMAX": 45.0, "FSPD": 1.79528, "FDIR": 30.72119, "RENV": 500.0, "PENV": 1012.0, "VALIDT": 0, "DTG": "2024-08-10 12:00", "LATNOW": 37.2, "LONNOW": 145.9, "WINDNOW": 25.0, "DIRNOW": 7.0, "SPDNOW": 2.0, "TECH": "TRAK", "ADVNR": 6, "ATCFID": "WP072024", "NAME": "SON-TINH", "FTECH": "JTWC", "FCST_DTG": "2024-08-13 12:00:00", "RUN_DTG": "2024-08-14 03:47:03", "BASIN": "WP", "STMNR": 7, "CAT_ID": null, "CAT_DESC": null, "MSGID": "WTPN52 PGTW 131500", "VALIDTIME": "2024-08-10 12:00:00" }, "geometry": { "type": "Point", "coordinates": [ 154.199997, 26.799999 ] } },
{ "type": "Feature", "properties": { "ID": 231680, "LAT": 27.1, "LON": 154.4, "VMAX": 25.0, "MSLP": 1011.80975, "RMAX": 45.0, "FSPD": 1.8319, "FDIR": 90.0, "RENV": 500.0, "PENV": 1012.0, "VALIDT": 0, "DTG": "2024-08-10 18:00", "LATNOW": 37.2, "LONNOW": 145.9, "WINDNOW": 25.0, "DIRNOW": 7.0, "SPDNOW": 2.0, "TECH": "TRAK", "ADVNR": 6, "ATCFID": "WP072024", "NAME": "SON-TINH", "FTECH": "JTWC", "FCST_DTG": "2024-08-13 12:00:00", "RUN_DTG": "2024-08-14 03:47:03", "BASIN": "WP", "STMNR": 7, "CAT_ID": null, "CAT_DESC": null, "MSGID": "WTPN52 PGTW 131500", "VALIDTIME": "2024-08-10 18:00:00" }, "geometry": { "type": "Point", "coordinates": [ 154.399994, 27.1 ] } },
{ "type": "Feature", "properties": { "ID": 231681, "LAT": 27.1, "LON": 154.8, "VMAX": 25.0, "MSLP": 1011.80975, "RMAX": 45.0, "FSPD": 4.03764, "FDIR": 26.88895, "RENV": 500.0, "PENV": 1012.0, "VALIDT": 0, "DTG": "2024-08-11 00:00", "LATNOW": 37.2, "LONNOW": 145.9, "WINDNOW": 25.0, "DIRNOW": 7.0, "SPDNOW": 2.0, "TECH": "TRAK", "ADVNR": 6, "ATCFID": "WP072024", "NAME": "SON-TINH", "FTECH": "JTWC", "FCST_DTG": "2024-08-13 12:00:00", "RUN_DTG": "2024-08-14 03:47:03", "BASIN": "WP", "STMNR": 7, "CAT_ID": null, "CAT_DESC": null, "MSGID": "WTPN52 PGTW 131500", "VALIDTIME": "2024-08-11 00:00:00" }, "geometry": { "type": "Point", "coordinates": [ 154.800003, 27.1 ] } },
{ "type": "Feature", "properties": { "ID": 231682, "LAT": 27.8, "LON": 155.2, "VMAX": 30.0, "MSLP": 1010.40607, "RMAX": 44.21983, "FSPD": 5.32089, "FDIR": 345.2035, "RENV": 500.0, "PENV": 1012.0, "VALIDT": 0, "DTG": "2024-08-11 06:00", "LATNOW": 37.2, "LONNOW": 145.9, "WINDNOW": 25.0, "DIRNOW": 7.0, "SPDNOW": 2.0, "TECH": "TRAK", "ADVNR": 6, "ATCFID": "WP072024", "NAME": "SON-TINH", "FTECH": "JTWC", "FCST_DTG": "2024-08-13 12:00:00", "RUN_DTG": "2024-08-14 03:47:03", "BASIN": "WP", "STMNR": 7, "CAT_ID": null, "CAT_DESC": null, "MSGID": "WTPN52 PGTW 131500", "VALIDTIME": "2024-08-11 06:00:00" }, "geometry": { "type": "Point", "coordinates": [ 155.199997, 27.799999 ] } },
{ "type": "Feature", "properties": { "ID": 231683, "LAT": 28.8, "LON": 154.9, "VMAX": 35.0, "MSLP": 1008.74713, "RMAX": 42.69135, "FSPD": 7.68695, "FDIR": 339.5443, "RENV": 500.0, "PENV": 1012.0, "VALIDT": 0, "DTG": "2024-08-11 12:00", "LATNOW": 37.2, "LONNOW": 145.9, "WINDNOW": 25.0, "DIRNOW": 7.0, "SPDNOW": 2.0, "TECH": "TRAK", "ADVNR": 6, "ATCFID": "WP072024", "NAME": "SON-TINH", "FTECH": "JTWC", "FCST_DTG": "2024-08-13 12:00:00", "RUN_DTG": "2024-08-14 03:47:03", "BASIN": "WP", "STMNR": 7, "CAT_ID": null, "CAT_DESC": null, "MSGID": "WTPN52 PGTW 131500", "VALIDTIME": "2024-08-11 12:00:00" }, "geometry": { "type": "Point", "coordinates": [ 154.899994, 28.799999 ] } },
{ "type": "Feature", "properties": { "ID": 231684, "LAT": 30.2, "LON": 154.3, "VMAX": 40.0, "MSLP": 1006.833, "RMAX": 41.26637, "FSPD": 7.8573, "FDIR": 321.78363, "RENV": 500.0, "PENV": 1012.0, "VALIDT": 0, "DTG": "2024-08-11 18:00", "LATNOW": 37.2, "LONNOW": 145.9, "WINDNOW": 25.0, "DIRNOW": 7.0, "SPDNOW": 2.0, "TECH": "TRAK", "ADVNR": 6, "ATCFID": "WP072024", "NAME": "SON-TINH", "FTECH": "JTWC", "FCST_DTG": "2024-08-13 12:00:00", "RUN_DTG": "2024-08-14 03:47:03", "BASIN": "WP", "STMNR": 7, "CAT_ID": null, "CAT_DESC": null, "MSGID": "WTPN52 PGTW 131500", "VALIDTIME": "2024-08-11 18:00:00" }, "geometry": { "type": "Point", "coordinates": [ 154.300003, 30.200001 ] } },
{ "type": "Feature", "properties": { "ID": 231685, "LAT": 31.4, "LON": 153.2, "VMAX": 40.0, "MSLP": 1006.833, "RMAX": 41.26637, "FSPD": 9.03282, "FDIR": 304.7174, "RENV": 500.0, "PENV": 1012.0, "VALIDT": 0, "DTG": "2024-08-12 00:00", "LATNOW": 37.2, "LONNOW": 145.9, "WINDNOW": 25.0, "DIRNOW": 7.0, "SPDNOW": 2.0, "TECH": "TRAK", "ADVNR": 6, "ATCFID": "WP072024", "NAME": "SON-TINH", "FTECH": "JTWC", "FCST_DTG": "2024-08-13 12:00:00", "RUN_DTG": "2024-08-14 03:47:03", "BASIN": "WP", "STMNR": 7, "CAT_ID": null, "CAT_DESC": null, "MSGID": "WTPN52 PGTW 131500", "VALIDTIME": "2024-08-12 00:00:00" }, "geometry": { "type": "Point", "coordinates": [ 153.199997, 31.4 ] } },
{ "type": "Feature", "properties": { "ID": 231686, "LAT": 32.4, "LON": 151.5, "VMAX": 40.0, "MSLP": 992.0, "RMAX": 40.0, "FSPD": 5.6749, "FDIR": 302.95047, "RENV": 155.0, "PENV": 1005.0, "VALIDT": 0, "DTG": "2024-08-12 06:00", "LATNOW": 37.2, "LONNOW": 145.9, "WINDNOW": 25.0, "DIRNOW": 7.0, "SPDNOW": 2.0, "TECH": "TRAK", "ADVNR": 6, "ATCFID": "WP072024", "NAME": "SON-TINH", "FTECH": "JTWC", "FCST_DTG": "2024-08-13 12:00:00", "RUN_DTG": "2024-08-14 03:47:03", "BASIN": "WP", "STMNR": 7, "CAT_ID": null, "CAT_DESC": null, "MSGID": "WTPN52 PGTW 131500", "VALIDTIME": "2024-08-12 06:00:00" }, "geometry": { "type": "Point", "coordinates": [ 151.5, 32.400002 ] } },
{ "type": "Feature", "properties": { "ID": 231687, "LAT": 33.0, "LON": 150.4, "VMAX": 40.0, "MSLP": 992.0, "RMAX": 40.0, "FSPD": 6.84923, "FDIR": 325.711, "RENV": 155.0, "PENV": 1005.0, "VALIDT": 0, "DTG": "2024-08-12 12:00", "LATNOW": 37.2, "LONNOW": 145.9, "WINDNOW": 25.0, "DIRNOW": 7.0, "SPDNOW": 2.0, "TECH": "TRAK", "ADVNR": 6, "ATCFID": "WP072024", "NAME": "SON-TINH", "FTECH": "JTWC", "FCST_DTG": "2024-08-13 12:00:00", "RUN_DTG": "2024-08-14 03:47:03", "BASIN": "WP", "STMNR": 7, "CAT_ID": null, "CAT_DESC": null, "MSGID": "WTPN52 PGTW 131500", "VALIDTIME": "2024-08-12 12:00:00" }, "geometry": { "type": "Point", "coordinates": [ 150.399994, 33.0 ] } },
{ "type": "Feature", "properties": { "ID": 231688, "LAT": 34.1, "LON": 149.5, "VMAX": 40.0, "MSLP": 994.0, "RMAX": 20.0, "FSPD": 9.15996, "FDIR": 312.3725, "RENV": 145.0, "PENV": 1007.0, "VALIDT": 0, "DTG": "2024-08-12 18:00", "LATNOW": 37.2, "LONNOW": 145.9, "WINDNOW": 25.0, "DIRNOW": 7.0, "SPDNOW": 2.0, "TECH": "TRAK", "ADVNR": 6, "ATCFID": "WP072024", "NAME": "SON-TINH", "FTECH": "JTWC", "FCST_DTG": "2024-08-13 12:00:00", "RUN_DTG": "2024-08-14 03:47:03", "BASIN": "WP", "STMNR": 7, "CAT_ID": null, "CAT_DESC": null, "MSGID": "WTPN52 PGTW 131500", "VALIDTIME": "2024-08-12 18:00:00" }, "geometry": { "type": "Point", "coordinates": [ 149.5, 34.099998 ] } },
{ "type": "Feature", "properties": { "ID": 231689, "LAT": 35.3, "LON": 147.9, "VMAX": 35.0, "MSLP": 993.0, "RMAX": 45.0, "FSPD": 5.51754, "FDIR": 310.74298, "RENV": 145.0, "PENV": 1007.0, "VALIDT": 0, "DTG": "2024-08-13 00:00", "LATNOW": 37.2, "LONNOW": 145.9, "WINDNOW": 25.0, "DIRNOW": 7.0, "SPDNOW": 2.0, "TECH": "TRAK", "ADVNR": 6, "ATCFID": "WP072024", "NAME": "SON-TINH", "FTECH": "JTWC", "FCST_DTG": "2024-08-13 12:00:00", "RUN_DTG": "2024-08-14 03:47:03", "BASIN": "WP", "STMNR": 7, "CAT_ID": null, "CAT_DESC": null, "MSGID": "WTPN52 PGTW 131500", "VALIDTIME": "2024-08-13 00:00:00" }, "geometry": { "type": "Point", "coordinates": [ 147.899994, 35.299999 ] } },
{ "type": "Feature", "properties": { "ID": 231690, "LAT": 36.0, "LON": 146.9, "VMAX": 35.0, "MSLP": 999.0, "RMAX": 20.0, "FSPD": 7.42748, "FDIR": 326.21692, "RENV": 145.0, "PENV": 1007.0, "VALIDT": 0, "DTG": "2024-08-13 06:00", "LATNOW": 37.2, "LONNOW": 145.9, "WINDNOW": 25.0, "DIRNOW": 7.0, "SPDNOW": 2.0, "TECH": "TRAK", "ADVNR": 6, "ATCFID": "WP072024", "NAME": "SON-TINH", "FTECH": "JTWC", "FCST_DTG": "2024-08-13 12:00:00", "RUN_DTG": "2024-08-14 03:47:03", "BASIN": "WP", "STMNR": 7, "CAT_ID": null, "CAT_DESC": null, "MSGID": "WTPN52 PGTW 131500", "VALIDTIME": "2024-08-13 06:00:00" }, "geometry": { "type": "Point", "coordinates": [ 146.899994, 36.0 ] } },
{ "type": "Feature", "properties": { "ID": 231691, "LAT": 37.2, "LON": 145.9, "VMAX": 25.0, "MSLP": 1011.80975, "RMAX": 45.0, "FSPD": 7.08632, "FDIR": 348.53827, "RENV": 500.0, "PENV": 1012.0, "VALIDT": 0, "DTG": "2024-08-13 12:00", "LATNOW": 37.2, "LONNOW": 145.9, "WINDNOW": 25.0, "DIRNOW": 7.0, "SPDNOW": 2.0, "TECH": "TRAK", "ADVNR": 6, "ATCFID": "WP072024", "NAME": "SON-TINH", "FTECH": "JTWC", "FCST_DTG": "2024-08-13 12:00:00", "RUN_DTG": "2024-08-14 03:47:03", "BASIN": "WP", "STMNR": 7, "CAT_ID": null, "CAT_DESC": null, "MSGID": "WTPN52 PGTW 131500", "VALIDTIME": "2024-08-13 12:00:00" }, "geometry": { "type": "Point", "coordinates": [ 145.899994, 37.200001 ] } },
{ "type": "Feature", "properties": { "ID": 231692, "LAT": 39.9, "LON": 145.2, "VMAX": 20.0, "MSLP": 1012.95825, "RMAX": 45.0, "FSPD": 6.50307, "FDIR": 8.56427, "RENV": 250.0, "PENV": 1012.0, "VALIDT": 12, "DTG": "2024-08-14 00:00", "LATNOW": 37.2, "LONNOW": 145.9, "WINDNOW": 25.0, "DIRNOW": 7.0, "SPDNOW": 2.0, "TECH": "FCST", "ADVNR": 6, "ATCFID": "WP072024", "NAME": "SON-TINH", "FTECH": "JTWC", "FCST_DTG": "2024-08-13 12:00:00", "RUN_DTG": "2024-08-14 03:47:03", "BASIN": "WP", "STMNR": 7, "CAT_ID": null, "CAT_DESC": null, "MSGID": "WTPN52 PGTW 131500", "VALIDTIME": "2024-08-14 00:00:00" }, "geometry": { "type": "Point", "coordinates": [ 145.199997, 39.900002 ] } },
{ "type": "Feature", "properties": { "ID": 231693, "LAT": 42.4, "LON": 145.7, "VMAX": 20.0, "MSLP": 1012.95825, "RMAX": 45.0, "FSPD": 6.50307, "FDIR": 8.56427, "RENV": 250.0, "PENV": 1012.0, "VALIDT": 24, "DTG": "2024-08-14 12:00", "LATNOW": 37.2, "LONNOW": 145.9, "WINDNOW": 25.0, "DIRNOW": 7.0, "SPDNOW": 2.0, "TECH": "FCST", "ADVNR": 6, "ATCFID": "WP072024", "NAME": "SON-TINH", "FTECH": "JTWC", "FCST_DTG": "2024-08-13 12:00:00", "RUN_DTG": "2024-08-14 03:47:03", "BASIN": "WP", "STMNR": 7, "CAT_ID": null, "CAT_DESC": null, "MSGID": "WTPN52 PGTW 131500", "VALIDTIME": "2024-08-14 12:00:00" }, "geometry": { "type": "Point", "coordinates": [ 145.699997, 42.400002 ] } },
{ "type": "Feature", "properties": { "ID": 231691, "LAT": 37.2, "LON": 145.9, "VMAX": 25.0, "MSLP": 1011.80975, "RMAX": 45.0, "FSPD": 7.08632, "FDIR": 348.53827, "RENV": 500.0, "PENV": 1012.0, "VALIDT": 0, "DTG": "2024-08-13 12:00", "LATNOW": 37.2, "LONNOW": 145.9, "WINDNOW": 25.0, "DIRNOW": 7.0, "SPDNOW": 2.0, "TECH": "TRAK", "ADVNR": 6, "ATCFID": "WP072024", "NAME": "SON-TINH", "FTECH": "JTWC", "FCST_DTG": "2024-08-13 12:00:00", "RUN_DTG": "2024-08-14 03:47:03", "BASIN": "WP", "STMNR": 7, "CAT_ID": null, "CAT_DESC": null, "MSGID": "WTPN52 PGTW 131500", "VALIDTIME": "2024-08-13 12:00:00" }, "geometry": { "type": "LineString", "coordinates": [ [ 153.9, 26.1 ], [ 154.1, 26.4 ], [ 154.2, 26.8 ], [ 154.4, 27.1 ], [ 154.8, 27.1 ], [ 155.2, 27.8 ], [ 154.9, 28.8 ], [ 154.3, 30.2 ], [ 153.2, 31.4 ], [ 151.5, 32.4 ], [ 150.4, 33.0 ], [ 149.5, 34.1 ], [ 147.9, 35.3 ], [ 146.9, 36.0 ], [ 145.9, 37.2 ] ] } },
{ "type": "Feature", "properties": { "ID": 231693, "LAT": 42.4, "LON": 145.7, "VMAX": 20.0, "MSLP": 1012.95825, "RMAX": 45.0, "FSPD": 6.50307, "FDIR": 8.56427, "RENV": 250.0, "PENV": 1012.0, "VALIDT": 24, "DTG": "2024-08-14 12:00", "LATNOW": 37.2, "LONNOW": 145.9, "WINDNOW": 25.0, "DIRNOW": 7.0, "SPDNOW": 2.0, "TECH": "FCST", "ADVNR": 6, "ATCFID": "WP072024", "NAME": "SON-TINH", "FTECH": "JTWC", "FCST_DTG": "2024-08-13 12:00:00", "RUN_DTG": "2024-08-14 03:47:03", "BASIN": "WP", "STMNR": 7, "CAT_ID": null, "CAT_DESC": null, "MSGID": "WTPN52 PGTW 131500", "VALIDTIME": "2024-08-14 12:00:00" }, "geometry": { "type": "LineString", "coordinates": [ [ 145.9, 37.2 ], [ 145.2, 39.9 ], [ 145.7, 42.4 ] ] } }
]
}
