{
"type": "FeatureCollection",
"crs": { "type": "name", "properties": { "name": "urn:ogc:def:crs:OGC:1.3:CRS84" } },
"features": [
{ "type": "Feature", "properties": { "ID": 44373, "LAT": 11.9, "LON": -38.3, "VMAX": 25.0, "MSLP": 1010.0, "RMAX": 120.0, "FSPD": 7.8208, "FDIR": 285.25504, "RENV": 215.0, "PENV": 1013.0, "VALIDT": 0, "DTG": "2025-09-15 12:00", "LATNOW": 39.7, "LONNOW": -24.2, "WINDNOW": 55.0, "DIRNOW": 11.0, "SPDNOW": 0.0, "TECH": "TRAK", "ADVNR": 39, "ATCFID": "AL072025", "NAME": "GABRIELLE", "FTECH": "OFCL", "FCST_DTG": "2025-09-26 12:00:00", "RUN_DTG": "2025-09-27 07:26:59", "BASIN": "AL", "STMNR": 7, "CAT_ID": null, "CAT_DESC": null, "MSGID": "WTNT22 KNHC 261437", "VALIDTIME": "2025-09-15 12:00:00" }, "geometry": { "type": "Point", "coordinates": [ -38.299999, 11.9 ] } },
{ "type": "Feature", "properties": { "ID": 44374, "LAT": 12.3, "LON": -39.8, "VMAX": 25.0, "MSLP": 1010.0, "RMAX": 120.0, "FSPD": 6.03163, "FDIR": 269.99997, "RENV": 215.0, "PENV": 1013.0, "VALIDT": 0, "DTG": "2025-09-15 18:00", "LATNOW": 39.7, "LONNOW": -24.2, "WINDNOW": 55.0, "DIRNOW": 11.0, "SPDNOW": 0.0, "TECH": "TRAK", "ADVNR": 39, "ATCFID": "AL072025", "NAME": "GABRIELLE", "FTECH": "OFCL", "FCST_DTG": "2025-09-26 12:00:00", "RUN_DTG": "2025-09-27 07:26:59", "BASIN": "AL", "STMNR": 7, "CAT_ID": null, "CAT_DESC": null, "MSGID": "WTNT22 KNHC 261437", "VALIDTIME": "2025-09-15 18:00:00" }, "geometry": { "type": "Point", "coordinates": [ -39.799999, 12.3 ] } },
{ "type": "Feature", "properties": { "ID": 44375, "LAT": 12.3, "LON": -41.0, "VMAX": 25.0, "MSLP": 1009.0, "RMAX": 120.0, "FSPD": 4.63757, "FDIR": 282.81824, "RENV": 200.0, "PENV": 1011.0, "VALIDT": 0, "DTG": "2025-09-16 00:00", "LATNOW": 39.7, "LONNOW": -24.2, "WINDNOW": 55.0, "DIRNOW": 11.0, "SPDNOW": 0.0, "TECH": "TRAK", "ADVNR": 39, "ATCFID": "AL072025", "NAME": "GABRIELLE", "FTECH": "OFCL", "FCST_DTG": "2025-09-26 12:00:00", "RUN_DTG": "2025-09-27 07:26:59", "BASIN": "AL", "STMNR": 7, "CAT_ID": null, "CAT_DESC": null, "MSGID": "WTNT22 KNHC 261437", "VALIDTIME": "2025-09-16 00:00:00" }, "geometry": { "type": "Point", "coordinates": [ -41.0, 12.3 ] } },
{ "type": "Feature", "properties": { "ID": 44376, "LAT": 12.5, "LON": -41.9, "VMAX": 30.0, "MSLP": 1008.0, "RMAX": 120.0, "FSPD": 5.04566, "FDIR": 23.41946, "RENV": 220.0, "PENV": 1011.0, "VALIDT": 0, "DTG": "2025-09-16 06:00", "LATNOW": 39.7, "LONNOW": -24.2, "WINDNOW": 55.0, "DIRNOW": 11.0, "SPDNOW": 0.0, "TECH": "TRAK", "ADVNR": 39, "ATCFID": "AL072025", "NAME": "GABRIELLE", "FTECH": "OFCL", "FCST_DTG": "2025-09-26 12:00:00", "RUN_DTG": "2025-09-27 07:26:59", "BASIN": "AL", "STMNR": 7, "CAT_ID": null, "CAT_DESC": null, "MSGID": "WTNT22 KNHC 261437", "VALIDTIME": "2025-09-16 06:00:00" }, "geometry": { "type": "Point", "coordinates": [ -41.900002, 12.5 ] } },
{ "type": "Feature", "properties": { "ID": 44377, "LAT": 13.4, "LON": -41.5, "VMAX": 30.0, "MSLP": 1007.0, "RMAX": 120.0, "FSPD": 3.53993, "FDIR": 278.3562, "RENV": 220.0, "PENV": 1011.0, "VALIDT": 0, "DTG": "2025-09-16 12:00", "LATNOW": 39.7, "LONNOW": -24.2, "WINDNOW": 55.0, "DIRNOW": 11.0, "SPDNOW": 0.0, "TECH": "TRAK", "ADVNR": 39, "ATCFID": "AL072025", "NAME": "GABRIELLE", "FTECH": "OFCL", "FCST_DTG": "2025-09-26 12:00:00", "RUN_DTG": "2025-09-27 07:26:59", "BASIN": "AL", "STMNR": 7, "CAT_ID": null, "CAT_DESC": null, "MSGID": "WTNT22 KNHC 261437", "VALIDTIME": "2025-09-16 12:00:00" }, "geometry": { "type": "Point", "coordinates": [ -41.5, 13.4 ] } },
{ "type": "Feature", "properties": { "ID": 44378, "LAT": 13.5, "LON": -42.2, "VMAX": 30.0, "MSLP": 1007.0, "RMAX": 120.0, "FSPD": 7.00321, "FDIR": 269.99997, "RENV": 220.0, "PENV": 1011.0, "VALIDT": 0, "DTG": "2025-09-16 18:00", "LATNOW": 39.7, "LONNOW": -24.2, "WINDNOW": 55.0, "DIRNOW": 11.0, "SPDNOW": 0.0, "TECH": "TRAK", "ADVNR": 39, "ATCFID": "AL072025", "NAME": "GABRIELLE", "FTECH": "OFCL", "FCST_DTG": "2025-09-26 12:00:00", "RUN_DTG": "2025-09-27 07:26:59", "BASIN": "AL", "STMNR": 7, "CAT_ID": null, "CAT_DESC": null, "MSGID": "WTNT22 KNHC 261437", "VALIDTIME": "2025-09-16 18:00:00" }, "geometry": { "type": "Point", "coordinates": [ -42.200001, 13.5 ] } },
{ "type": "Feature", "properties": { "ID": 44379, "LAT": 13.5, "LON": -43.6, "VMAX": 30.0, "MSLP": 1007.0, "RMAX": 100.0, "FSPD": 9.50438, "FDIR": 269.99997, "RENV": 220.0, "PENV": 1011.0, "VALIDT": 0, "DTG": "2025-09-17 00:00", "LATNOW": 39.7, "LONNOW": -24.2, "WINDNOW": 55.0, "DIRNOW": 11.0, "SPDNOW": 0.0, "TECH": "TRAK", "ADVNR": 39, "ATCFID": "AL072025", "NAME": "GABRIELLE", "FTECH": "OFCL", "FCST_DTG": "2025-09-26 12:00:00", "RUN_DTG": "2025-09-27 07:26:59", "BASIN": "AL", "STMNR": 7, "CAT_ID": null, "CAT_DESC": null, "MSGID": "WTNT22 KNHC 261437", "VALIDTIME": "2025-09-17 00:00:00" }, "geometry": { "type": "Point", "coordinates": [ -43.599998, 13.5 ] } },
{ "type": "Feature", "properties": { "ID": 44380, "LAT": 13.5, "LON": -45.5, "VMAX": 30.0, "MSLP": 1007.0, "RMAX": 70.0, "FSPD": 16.21358, "FDIR": 342.1527, "RENV": 200.0, "PENV": 1011.0, "VALIDT": 0, "DTG": "2025-09-17 06:00", "LATNOW": 39.7, "LONNOW": -24.2, "WINDNOW": 55.0, "DIRNOW": 11.0, "SPDNOW": 0.0, "TECH": "TRAK", "ADVNR": 39, "ATCFID": "AL072025", "NAME": "GABRIELLE", "FTECH": "OFCL", "FCST_DTG": "2025-09-26 12:00:00", "RUN_DTG": "2025-09-27 07:26:59", "BASIN": "AL", "STMNR": 7, "CAT_ID": null, "CAT_DESC": null, "MSGID": "WTNT22 KNHC 261437", "VALIDTIME": "2025-09-17 06:00:00" }, "geometry": { "type": "Point", "coordinates": [ -45.5, 13.5 ] } },
{ "type": "Feature", "properties": { "ID": 44381, "LAT": 16.5, "LON": -46.5, "VMAX": 40.0, "MSLP": 1006.0, "RMAX": 120.0, "FSPD": 13.76277, "FDIR": 339.14523, "RENV": 200.0, "PENV": 1011.0, "VALIDT": 0, "DTG": "2025-09-17 12:00", "LATNOW": 39.7, "LONNOW": -24.2, "WINDNOW": 55.0, "DIRNOW": 11.0, "SPDNOW": 0.0, "TECH": "TRAK", "ADVNR": 39, "ATCFID": "AL072025", "NAME": "GABRIELLE", "FTECH": "OFCL", "FCST_DTG": "2025-09-26 12:00:00", "RUN_DTG": "2025-09-27 07:26:59", "BASIN": "AL", "STMNR": 7, "CAT_ID": null, "CAT_DESC": null, "MSGID": "WTNT22 KNHC 261437", "VALIDTIME": "2025-09-17 12:00:00" }, "geometry": { "type": "Point", "coordinates": [ -46.5, 16.5 ] } },
{ "type": "Feature", "properties": { "ID": 44382, "LAT": 19.0, "LON": -47.5, "VMAX": 45.0, "MSLP": 1005.0, "RMAX": 90.0, "FSPD": 7.36409, "FDIR": 278.0315, "RENV": 190.0, "PENV": 1011.0, "VALIDT": 0, "DTG": "2025-09-17 18:00", "LATNOW": 39.7, "LONNOW": -24.2, "WINDNOW": 55.0, "DIRNOW": 11.0, "SPDNOW": 0.0, "TECH": "TRAK", "ADVNR": 39, "ATCFID": "AL072025", "NAME": "GABRIELLE", "FTECH": "OFCL", "FCST_DTG": "2025-09-26 12:00:00", "RUN_DTG": "2025-09-27 07:26:59", "BASIN": "AL", "STMNR": 7, "CAT_ID": null, "CAT_DESC": null, "MSGID": "WTNT22 KNHC 261437", "VALIDTIME": "2025-09-17 18:00:00" }, "geometry": { "type": "Point", "coordinates": [ -47.5, 19.0 ] } },
{ "type": "Feature", "properties": { "ID": 44383, "LAT": 19.2, "LON": -49.0, "VMAX": 45.0, "MSLP": 1004.0, "RMAX": 130.0, "FSPD": 4.65576, "FDIR": 303.53745, "RENV": 190.0, "PENV": 1011.0, "VALIDT": 0, "DTG": "2025-09-18 00:00", "LATNOW": 39.7, "LONNOW": -24.2, "WINDNOW": 55.0, "DIRNOW": 11.0, "SPDNOW": 0.0, "TECH": "TRAK", "ADVNR": 39, "ATCFID": "AL072025", "NAME": "GABRIELLE", "FTECH": "OFCL", "FCST_DTG": "2025-09-26 12:00:00", "RUN_DTG": "2025-09-27 07:26:59", "BASIN": "AL", "STMNR": 7, "CAT_ID": null, "CAT_DESC": null, "MSGID": "WTNT22 KNHC 261437", "VALIDTIME": "2025-09-18 00:00:00" }, "geometry": { "type": "Point", "coordinates": [ -49.0, 19.200001 ] } },
{ "type": "Feature", "properties": { "ID": 44384, "LAT": 19.7, "LON": -49.8, "VMAX": 45.0, "MSLP": 1004.0, "RMAX": 130.0, "FSPD": 6.94789, "FDIR": 282.8341, "RENV": 200.0, "PENV": 1011.0, "VALIDT": 0, "DTG": "2025-09-18 06:00", "LATNOW": 39.7, "LONNOW": -24.2, "WINDNOW": 55.0, "DIRNOW": 11.0, "SPDNOW": 0.0, "TECH": "TRAK", "ADVNR": 39, "ATCFID": "AL072025", "NAME": "GABRIELLE", "FTECH": "OFCL", "FCST_DTG": "2025-09-26 12:00:00", "RUN_DTG": "2025-09-27 07:26:59", "BASIN": "AL", "STMNR": 7, "CAT_ID": null, "CAT_DESC": null, "MSGID": "WTNT22 KNHC 261437", "VALIDTIME": "2025-09-18 06:00:00" }, "geometry": { "type": "Point", "coordinates": [ -49.799999, 19.700001 ] } },
{ "type": "Feature", "properties": { "ID": 44385, "LAT": 20.0, "LON": -51.2, "VMAX": 45.0, "MSLP": 1004.0, "RMAX": 150.0, "FSPD": 5.46911, "FDIR": 298.05493, "RENV": 200.0, "PENV": 1011.0, "VALIDT": 0, "DTG": "2025-09-18 12:00", "LATNOW": 39.7, "LONNOW": -24.2, "WINDNOW": 55.0, "DIRNOW": 11.0, "SPDNOW": 0.0, "TECH": "TRAK", "ADVNR": 39, "ATCFID": "AL072025", "NAME": "GABRIELLE", "FTECH": "OFCL", "FCST_DTG": "2025-09-26 12:00:00", "RUN_DTG": "2025-09-27 07:26:59", "BASIN": "AL", "STMNR": 7, "CAT_ID": null, "CAT_DESC": null, "MSGID": "WTNT22 KNHC 261437", "VALIDTIME": "2025-09-18 12:00:00" }, "geometry": { "type": "Point", "coordinates": [ -51.200001, 20.0 ] } },
{ "type": "Feature", "properties": { "ID": 44386, "LAT": 20.5, "LON": -52.2, "VMAX": 45.0, "MSLP": 1004.0, "RMAX": 150.0, "FSPD": 3.94743, "FDIR": 301.41916, "RENV": 200.0, "PENV": 1011.0, "VALIDT": 0, "DTG": "2025-09-18 18:00", "LATNOW": 39.7, "LONNOW": -24.2, "WINDNOW": 55.0, "DIRNOW": 11.0, "SPDNOW": 0.0, "TECH": "TRAK", "ADVNR": 39, "ATCFID": "AL072025", "NAME": "GABRIELLE", "FTECH": "OFCL", "FCST_DTG": "2025-09-26 12:00:00", "RUN_DTG": "2025-09-27 07:26:59", "BASIN": "AL", "STMNR": 7, "CAT_ID": null, "CAT_DESC": null, "MSGID": "WTNT22 KNHC 261437", "VALIDTIME": "2025-09-18 18:00:00" }, "geometry": { "type": "Point", "coordinates": [ -52.200001, 20.5 ] } },
{ "type": "Feature", "properties": { "ID": 44387, "LAT": 20.9, "LON": -52.9, "VMAX": 45.0, "MSLP": 1004.0, "RMAX": 130.0, "FSPD": 6.53098, "FDIR": 298.20447, "RENV": 200.0, "PENV": 1011.0, "VALIDT": 0, "DTG": "2025-09-19 00:00", "LATNOW": 39.7, "LONNOW": -24.2, "WINDNOW": 55.0, "DIRNOW": 11.0, "SPDNOW": 0.0, "TECH": "TRAK", "ADVNR": 39, "ATCFID": "AL072025", "NAME": "GABRIELLE", "FTECH": "OFCL", "FCST_DTG": "2025-09-26 12:00:00", "RUN_DTG": "2025-09-27 07:26:59", "BASIN": "AL", "STMNR": 7, "CAT_ID": null, "CAT_DESC": null, "MSGID": "WTNT22 KNHC 261437", "VALIDTIME": "2025-09-19 00:00:00" }, "geometry": { "type": "Point", "coordinates": [ -52.900002, 20.9 ] } },
{ "type": "Feature", "properties": { "ID": 44388, "LAT": 21.5, "LON": -54.1, "VMAX": 45.0, "MSLP": 1004.0, "RMAX": 130.0, "FSPD": 4.89259, "FDIR": 282.13968, "RENV": 180.0, "PENV": 1011.0, "VALIDT": 0, "DTG": "2025-09-19 06:00", "LATNOW": 39.7, "LONNOW": -24.2, "WINDNOW": 55.0, "DIRNOW": 11.0, "SPDNOW": 0.0, "TECH": "TRAK", "ADVNR": 39, "ATCFID": "AL072025", "NAME": "GABRIELLE", "FTECH": "OFCL", "FCST_DTG": "2025-09-26 12:00:00", "RUN_DTG": "2025-09-27 07:26:59", "BASIN": "AL", "STMNR": 7, "CAT_ID": null, "CAT_DESC": null, "MSGID": "WTNT22 KNHC 261437", "VALIDTIME": "2025-09-19 06:00:00" }, "geometry": { "type": "Point", "coordinates": [ -54.099998, 21.5 ] } },
{ "type": "Feature", "properties": { "ID": 44389, "LAT": 21.7, "LON": -55.1, "VMAX": 45.0, "MSLP": 1004.0, "RMAX": 130.0, "FSPD": 5.19787, "FDIR": 293.32135, "RENV": 180.0, "PENV": 1012.0, "VALIDT": 0, "DTG": "2025-09-19 12:00", "LATNOW": 39.7, "LONNOW": -24.2, "WINDNOW": 55.0, "DIRNOW": 11.0, "SPDNOW": 0.0, "TECH": "TRAK", "ADVNR": 39, "ATCFID": "AL072025", "NAME": "GABRIELLE", "FTECH": "OFCL", "FCST_DTG": "2025-09-26 12:00:00", "RUN_DTG": "2025-09-27 07:26:59", "BASIN": "AL", "STMNR": 7, "CAT_ID": null, "CAT_DESC": null, "MSGID": "WTNT22 KNHC 261437", "VALIDTIME": "2025-09-19 12:00:00" }, "geometry": { "type": "Point", "coordinates": [ -55.099998, 21.700001 ] } },
{ "type": "Feature", "properties": { "ID": 44390, "LAT": 22.1, "LON": -56.1, "VMAX": 45.0, "MSLP": 1004.0, "RMAX": 130.0, "FSPD": 6.33543, "FDIR": 333.27985, "RENV": 180.0, "PENV": 1012.0, "VALIDT": 0, "DTG": "2025-09-19 18:00", "LATNOW": 39.7, "LONNOW": -24.2, "WINDNOW": 55.0, "DIRNOW": 11.0, "SPDNOW": 0.0, "TECH": "TRAK", "ADVNR": 39, "ATCFID": "AL072025", "NAME": "GABRIELLE", "FTECH": "OFCL", "FCST_DTG": "2025-09-26 12:00:00", "RUN_DTG": "2025-09-27 07:26:59", "BASIN": "AL", "STMNR": 7, "CAT_ID": null, "CAT_DESC": null, "MSGID": "WTNT22 KNHC 261437", "VALIDTIME": "2025-09-19 18:00:00" }, "geometry": { "type": "Point", "coordinates": [ -56.099998, 22.1 ] } },
{ "type": "Feature", "properties": { "ID": 44391, "LAT": 23.2, "LON": -56.7, "VMAX": 45.0, "MSLP": 1004.0, "RMAX": 130.0, "FSPD": 5.93366, "FDIR": 307.36523, "RENV": 180.0, "PENV": 1012.0, "VALIDT": 0, "DTG": "2025-09-20 00:00", "LATNOW": 39.7, "LONNOW": -24.2, "WINDNOW": 55.0, "DIRNOW": 11.0, "SPDNOW": 0.0, "TECH": "TRAK", "ADVNR": 39, "ATCFID": "AL072025", "NAME": "GABRIELLE", "FTECH": "OFCL", "FCST_DTG": "2025-09-26 12:00:00", "RUN_DTG": "2025-09-27 07:26:59", "BASIN": "AL", "STMNR": 7, "CAT_ID": null, "CAT_DESC": null, "MSGID": "WTNT22 KNHC 261437", "VALIDTIME": "2025-09-20 00:00:00" }, "geometry": { "type": "Point", "coordinates": [ -56.700001, 23.200001 ] } },
{ "type": "Feature", "properties": { "ID": 44392, "LAT": 23.9, "LON": -57.7, "VMAX": 45.0, "MSLP": 1004.0, "RMAX": 90.0, "FSPD": 5.54875, "FDIR": 310.46588, "RENV": 180.0, "PENV": 1012.0, "VALIDT": 0, "DTG": "2025-09-20 06:00", "LATNOW": 39.7, "LONNOW": -24.2, "WINDNOW": 55.0, "DIRNOW": 11.0, "SPDNOW": 0.0, "TECH": "TRAK", "ADVNR": 39, "ATCFID": "AL072025", "NAME": "GABRIELLE", "FTECH": "OFCL", "FCST_DTG": "2025-09-26 12:00:00", "RUN_DTG": "2025-09-27 07:26:59", "BASIN": "AL", "STMNR": 7, "CAT_ID": null, "CAT_DESC": null, "MSGID": "WTNT22 KNHC 261437", "VALIDTIME": "2025-09-20 06:00:00" }, "geometry": { "type": "Point", "coordinates": [ -57.700001, 23.9 ] } },
{ "type": "Feature", "properties": { "ID": 44393, "LAT": 24.6, "LON": -58.6, "VMAX": 45.0, "MSLP": 1003.0, "RMAX": 80.0, "FSPD": 3.12174, "FDIR": 351.40326, "RENV": 180.0, "PENV": 1012.0, "VALIDT": 0, "DTG": "2025-09-20 12:00", "LATNOW": 39.7, "LONNOW": -24.2, "WINDNOW": 55.0, "DIRNOW": 11.0, "SPDNOW": 0.0, "TECH": "TRAK", "ADVNR": 39, "ATCFID": "AL072025", "NAME": "GABRIELLE", "FTECH": "OFCL", "FCST_DTG": "2025-09-26 12:00:00", "RUN_DTG": "2025-09-27 07:26:59", "BASIN": "AL", "STMNR": 7, "CAT_ID": null, "CAT_DESC": null, "MSGID": "WTNT22 KNHC 261437", "VALIDTIME": "2025-09-20 12:00:00" }, "geometry": { "type": "Point", "coordinates": [ -58.599998, 24.6 ] } },
{ "type": "Feature", "properties": { "ID": 44394, "LAT": 25.2, "LON": -58.7, "VMAX": 55.0, "MSLP": 996.0, "RMAX": 5.0, "FSPD": 3.86093, "FDIR": 338.86047, "RENV": 180.0, "PENV": 1013.0, "VALIDT": 0, "DTG": "2025-09-20 18:00", "LATNOW": 39.7, "LONNOW": -24.2, "WINDNOW": 55.0, "DIRNOW": 11.0, "SPDNOW": 0.0, "TECH": "TRAK", "ADVNR": 39, "ATCFID": "AL072025", "NAME": "GABRIELLE", "FTECH": "OFCL", "FCST_DTG": "2025-09-26 12:00:00", "RUN_DTG": "2025-09-27 07:26:59", "BASIN": "AL", "STMNR": 7, "CAT_ID": null, "CAT_DESC": null, "MSGID": "WTNT22 KNHC 261437", "VALIDTIME": "2025-09-20 18:00:00" }, "geometry": { "type": "Point", "coordinates": [ -58.700001, 25.200001 ] } },
{ "type": "Feature", "properties": { "ID": 44395, "LAT": 25.9, "LON": -59.0, "VMAX": 55.0, "MSLP": 996.0, "RMAX": 15.0, "FSPD": 5.64359, "FDIR": 325.12476, "RENV": 180.0, "PENV": 1013.0, "VALIDT": 0, "DTG": "2025-09-21 00:00", "LATNOW": 39.7, "LONNOW": -24.2, "WINDNOW": 55.0, "DIRNOW": 11.0, "SPDNOW": 0.0, "TECH": "TRAK", "ADVNR": 39, "ATCFID": "AL072025", "NAME": "GABRIELLE", "FTECH": "OFCL", "FCST_DTG": "2025-09-26 12:00:00", "RUN_DTG": "2025-09-27 07:26:59", "BASIN": "AL", "STMNR": 7, "CAT_ID": null, "CAT_DESC": null, "MSGID": "WTNT22 KNHC 261437", "VALIDTIME": "2025-09-21 00:00:00" }, "geometry": { "type": "Point", "coordinates": [ -59.0, 25.9 ] } },
{ "type": "Feature", "properties": { "ID": 44396, "LAT": 26.8, "LON": -59.7, "VMAX": 55.0, "MSLP": 995.0, "RMAX": 15.0, "FSPD": 5.25435, "FDIR": 299.3104, "RENV": 180.0, "PENV": 1013.0, "VALIDT": 0, "DTG": "2025-09-21 06:00", "LATNOW": 39.7, "LONNOW": -24.2, "WINDNOW": 55.0, "DIRNOW": 11.0, "SPDNOW": 0.0, "TECH": "TRAK", "ADVNR": 39, "ATCFID": "AL072025", "NAME": "GABRIELLE", "FTECH": "OFCL", "FCST_DTG": "2025-09-26 12:00:00", "RUN_DTG": "2025-09-27 07:26:59", "BASIN": "AL", "STMNR": 7, "CAT_ID": null, "CAT_DESC": null, "MSGID": "WTNT22 KNHC 261437", "VALIDTIME": "2025-09-21 06:00:00" }, "geometry": { "type": "Point", "coordinates": [ -59.700001, 26.799999 ] } },
{ "type": "Feature", "properties": { "ID": 44397, "LAT": 27.3, "LON": -60.7, "VMAX": 55.0, "MSLP": 995.0, "RMAX": 25.0, "FSPD": 5.49688, "FDIR": 318.47858, "RENV": 150.0, "PENV": 1013.0, "VALIDT": 0, "DTG": "2025-09-21 12:00", "LATNOW": 39.7, "LONNOW": -24.2, "WINDNOW": 55.0, "DIRNOW": 11.0, "SPDNOW": 0.0, "TECH": "TRAK", "ADVNR": 39, "ATCFID": "AL072025", "NAME": "GABRIELLE", "FTECH": "OFCL", "FCST_DTG": "2025-09-26 12:00:00", "RUN_DTG": "2025-09-27 07:26:59", "BASIN": "AL", "STMNR": 7, "CAT_ID": null, "CAT_DESC": null, "MSGID": "WTNT22 KNHC 261437", "VALIDTIME": "2025-09-21 12:00:00" }, "geometry": { "type": "Point", "coordinates": [ -60.700001, 27.299999 ] } },
{ "type": "Feature", "properties": { "ID": 44398, "LAT": 28.1, "LON": -61.5, "VMAX": 65.0, "MSLP": 993.0, "RMAX": 20.0, "FSPD": 4.6955, "FDIR": 331.2217, "RENV": 130.0, "PENV": 1013.0, "VALIDT": 0, "DTG": "2025-09-21 18:00", "LATNOW": 39.7, "LONNOW": -24.2, "WINDNOW": 55.0, "DIRNOW": 11.0, "SPDNOW": 0.0, "TECH": "TRAK", "ADVNR": 39, "ATCFID": "AL072025", "NAME": "GABRIELLE", "FTECH": "OFCL", "FCST_DTG": "2025-09-26 12:00:00", "RUN_DTG": "2025-09-27 07:26:59", "BASIN": "AL", "STMNR": 7, "CAT_ID": null, "CAT_DESC": null, "MSGID": "WTNT22 KNHC 261437", "VALIDTIME": "2025-09-21 18:00:00" }, "geometry": { "type": "Point", "coordinates": [ -61.5, 28.1 ] } },
{ "type": "Feature", "properties": { "ID": 44399, "LAT": 28.9, "LON": -62.0, "VMAX": 65.0, "MSLP": 992.0, "RMAX": 20.0, "FSPD": 4.48979, "FDIR": 336.44107, "RENV": 120.0, "PENV": 1013.0, "VALIDT": 0, "DTG": "2025-09-22 00:00", "LATNOW": 39.7, "LONNOW": -24.2, "WINDNOW": 55.0, "DIRNOW": 11.0, "SPDNOW": 0.0, "TECH": "TRAK", "ADVNR": 39, "ATCFID": "AL072025", "NAME": "GABRIELLE", "FTECH": "OFCL", "FCST_DTG": "2025-09-26 12:00:00", "RUN_DTG": "2025-09-27 07:26:59", "BASIN": "AL", "STMNR": 7, "CAT_ID": null, "CAT_DESC": null, "MSGID": "WTNT22 KNHC 261437", "VALIDTIME": "2025-09-22 00:00:00" }, "geometry": { "type": "Point", "coordinates": [ -62.0, 28.9 ] } },
{ "type": "Feature", "properties": { "ID": 44400, "LAT": 29.7, "LON": -62.4, "VMAX": 75.0, "MSLP": 981.0, "RMAX": 20.0, "FSPD": 3.60111, "FDIR": 360.0, "RENV": 120.0, "PENV": 1013.0, "VALIDT": 0, "DTG": "2025-09-22 06:00", "LATNOW": 39.7, "LONNOW": -24.2, "WINDNOW": 55.0, "DIRNOW": 11.0, "SPDNOW": 0.0, "TECH": "TRAK", "ADVNR": 39, "ATCFID": "AL072025", "NAME": "GABRIELLE", "FTECH": "OFCL", "FCST_DTG": "2025-09-26 12:00:00", "RUN_DTG": "2025-09-27 07:26:59", "BASIN": "AL", "STMNR": 7, "CAT_ID": null, "CAT_DESC": null, "MSGID": "WTNT22 KNHC 261437", "VALIDTIME": "2025-09-22 06:00:00" }, "geometry": { "type": "Point", "coordinates": [ -62.400002, 29.700001 ] } },
{ "type": "Feature", "properties": { "ID": 44401, "LAT": 30.4, "LON": -62.4, "VMAX": 105.0, "MSLP": 955.0, "RMAX": 20.0, "FSPD": 4.81586, "FDIR": 15.96973, "RENV": 150.0, "PENV": 1013.0, "VALIDT": 0, "DTG": "2025-09-22 12:00", "LATNOW": 39.7, "LONNOW": -24.2, "WINDNOW": 55.0, "DIRNOW": 11.0, "SPDNOW": 0.0, "TECH": "TRAK", "ADVNR": 39, "ATCFID": "AL072025", "NAME": "GABRIELLE", "FTECH": "OFCL", "FCST_DTG": "2025-09-26 12:00:00", "RUN_DTG": "2025-09-27 07:26:59", "BASIN": "AL", "STMNR": 7, "CAT_ID": null, "CAT_DESC": null, "MSGID": "WTNT22 KNHC 261437", "VALIDTIME": "2025-09-22 12:00:00" }, "geometry": { "type": "Point", "coordinates": [ -62.400002, 30.4 ] } },
{ "type": "Feature", "properties": { "ID": 44402, "LAT": 31.3, "LON": -62.1, "VMAX": 115.0, "MSLP": 951.0, "RMAX": 15.0, "FSPD": 5.13078, "FDIR": 36.66611, "RENV": 150.0, "PENV": 1013.0, "VALIDT": 0, "DTG": "2025-09-22 18:00", "LATNOW": 39.7, "LONNOW": -24.2, "WINDNOW": 55.0, "DIRNOW": 11.0, "SPDNOW": 0.0, "TECH": "TRAK", "ADVNR": 39, "ATCFID": "AL072025", "NAME": "GABRIELLE", "FTECH": "OFCL", "FCST_DTG": "2025-09-26 12:00:00", "RUN_DTG": "2025-09-27 07:26:59", "BASIN": "AL", "STMNR": 7, "CAT_ID": null, "CAT_DESC": null, "MSGID": "WTNT22 KNHC 261437", "VALIDTIME": "2025-09-22 18:00:00" }, "geometry": { "type": "Point", "coordinates": [ -62.099998, 31.299999 ] } },
{ "type": "Feature", "properties": { "ID": 44403, "LAT": 32.1, "LON": -61.4, "VMAX": 120.0, "MSLP": 948.0, "RMAX": 15.0, "FSPD": 5.64039, "FDIR": 50.32355, "RENV": 150.0, "PENV": 1014.0, "VALIDT": 0, "DTG": "2025-09-23 00:00", "LATNOW": 39.7, "LONNOW": -24.2, "WINDNOW": 55.0, "DIRNOW": 11.0, "SPDNOW": 0.0, "TECH": "TRAK", "ADVNR": 39, "ATCFID": "AL072025", "NAME": "GABRIELLE", "FTECH": "OFCL", "FCST_DTG": "2025-09-26 12:00:00", "RUN_DTG": "2025-09-27 07:26:59", "BASIN": "AL", "STMNR": 7, "CAT_ID": null, "CAT_DESC": null, "MSGID": "WTNT22 KNHC 261437", "VALIDTIME": "2025-09-23 00:00:00" }, "geometry": { "type": "Point", "coordinates": [ -61.400002, 32.099998 ] } },
{ "type": "Feature", "properties": { "ID": 44404, "LAT": 32.8, "LON": -60.4, "VMAX": 120.0, "MSLP": 949.0, "RMAX": 15.0, "FSPD": 6.29938, "FDIR": 55.13382, "RENV": 150.0, "PENV": 1014.0, "VALIDT": 0, "DTG": "2025-09-23 06:00", "LATNOW": 39.7, "LONNOW": -24.2, "WINDNOW": 55.0, "DIRNOW": 11.0, "SPDNOW": 0.0, "TECH": "TRAK", "ADVNR": 39, "ATCFID": "AL072025", "NAME": "GABRIELLE", "FTECH": "OFCL", "FCST_DTG": "2025-09-26 12:00:00", "RUN_DTG": "2025-09-27 07:26:59", "BASIN": "AL", "STMNR": 7, "CAT_ID": null, "CAT_DESC": null, "MSGID": "WTNT22 KNHC 261437", "VALIDTIME": "2025-09-23 06:00:00" }, "geometry": { "type": "Point", "coordinates": [ -60.400002, 32.799999 ] } },
{ "type": "Feature", "properties": { "ID": 44405, "LAT": 33.5, "LON": -59.2, "VMAX": 120.0, "MSLP": 948.0, "RMAX": 10.0, "FSPD": 8.71843, "FDIR": 61.83243, "RENV": 150.0, "PENV": 1014.0, "VALIDT": 0, "DTG": "2025-09-23 12:00", "LATNOW": 39.7, "LONNOW": -24.2, "WINDNOW": 55.0, "DIRNOW": 11.0, "SPDNOW": 0.0, "TECH": "TRAK", "ADVNR": 39, "ATCFID": "AL072025", "NAME": "GABRIELLE", "FTECH": "OFCL", "FCST_DTG": "2025-09-26 12:00:00", "RUN_DTG": "2025-09-27 07:26:59", "BASIN": "AL", "STMNR": 7, "CAT_ID": null, "CAT_DESC": null, "MSGID": "WTNT22 KNHC 261437", "VALIDTIME": "2025-09-23 12:00:00" }, "geometry": { "type": "Point", "coordinates": [ -59.200001, 33.5 ] } },
{ "type": "Feature", "properties": { "ID": 44406, "LAT": 34.3, "LON": -57.4, "VMAX": 115.0, "MSLP": 952.0, "RMAX": 10.0, "FSPD": 9.81412, "FDIR": 71.66852, "RENV": 140.0, "PENV": 1013.0, "VALIDT": 0, "DTG": "2025-09-23 18:00", "LATNOW": 39.7, "LONNOW": -24.2, "WINDNOW": 55.0, "DIRNOW": 11.0, "SPDNOW": 0.0, "TECH": "TRAK", "ADVNR": 39, "ATCFID": "AL072025", "NAME": "GABRIELLE", "FTECH": "OFCL", "FCST_DTG": "2025-09-26 12:00:00", "RUN_DTG": "2025-09-27 07:26:59", "BASIN": "AL", "STMNR": 7, "CAT_ID": null, "CAT_DESC": null, "MSGID": "WTNT22 KNHC 261437", "VALIDTIME": "2025-09-23 18:00:00" }, "geometry": { "type": "Point", "coordinates": [ -57.400002, 34.299999 ] } },
{ "type": "Feature", "properties": { "ID": 44407, "LAT": 34.9, "LON": -55.2, "VMAX": 110.0, "MSLP": 953.0, "RMAX": 10.0, "FSPD": 10.41777, "FDIR": 75.70544, "RENV": 140.0, "PENV": 1014.0, "VALIDT": 0, "DTG": "2025-09-24 00:00", "LATNOW": 39.7, "LONNOW": -24.2, "WINDNOW": 55.0, "DIRNOW": 11.0, "SPDNOW": 0.0, "TECH": "TRAK", "ADVNR": 39, "ATCFID": "AL072025", "NAME": "GABRIELLE", "FTECH": "OFCL", "FCST_DTG": "2025-09-26 12:00:00", "RUN_DTG": "2025-09-27 07:26:59", "BASIN": "AL", "STMNR": 7, "CAT_ID": null, "CAT_DESC": null, "MSGID": "WTNT22 KNHC 261437", "VALIDTIME": "2025-09-24 00:00:00" }, "geometry": { "type": "Point", "coordinates": [ -55.200001, 34.900002 ] } },
{ "type": "Feature", "properties": { "ID": 44408, "LAT": 35.4, "LON": -52.8, "VMAX": 100.0, "MSLP": 957.0, "RMAX": 10.0, "FSPD": 11.06863, "FDIR": 79.28583, "RENV": 150.0, "PENV": 1013.0, "VALIDT": 0, "DTG": "2025-09-24 06:00", "LATNOW": 39.7, "LONNOW": -24.2, "WINDNOW": 55.0, "DIRNOW": 11.0, "SPDNOW": 0.0, "TECH": "TRAK", "ADVNR": 39, "ATCFID": "AL072025", "NAME": "GABRIELLE", "FTECH": "OFCL", "FCST_DTG": "2025-09-26 12:00:00", "RUN_DTG": "2025-09-27 07:26:59", "BASIN": "AL", "STMNR": 7, "CAT_ID": null, "CAT_DESC": null, "MSGID": "WTNT22 KNHC 261437", "VALIDTIME": "2025-09-24 06:00:00" }, "geometry": { "type": "Point", "coordinates": [ -52.799999, 35.400002 ] } },
{ "type": "Feature", "properties": { "ID": 44409, "LAT": 35.8, "LON": -50.2, "VMAX": 95.0, "MSLP": 962.0, "RMAX": 10.0, "FSPD": 13.8295, "FDIR": 83.59262, "RENV": 150.0, "PENV": 1011.0, "VALIDT": 0, "DTG": "2025-09-24 12:00", "LATNOW": 39.7, "LONNOW": -24.2, "WINDNOW": 55.0, "DIRNOW": 11.0, "SPDNOW": 0.0, "TECH": "TRAK", "ADVNR": 39, "ATCFID": "AL072025", "NAME": "GABRIELLE", "FTECH": "OFCL", "FCST_DTG": "2025-09-26 12:00:00", "RUN_DTG": "2025-09-27 07:26:59", "BASIN": "AL", "STMNR": 7, "CAT_ID": null, "CAT_DESC": null, "MSGID": "WTNT22 KNHC 261437", "VALIDTIME": "2025-09-24 12:00:00" }, "geometry": { "type": "Point", "coordinates": [ -50.200001, 35.799999 ] } },
{ "type": "Feature", "properties": { "ID": 44410, "LAT": 36.1, "LON": -46.9, "VMAX": 90.0, "MSLP": 966.0, "RMAX": 15.0, "FSPD": 12.11341, "FDIR": 94.87234, "RENV": 150.0, "PENV": 1011.0, "VALIDT": 0, "DTG": "2025-09-24 18:00", "LATNOW": 39.7, "LONNOW": -24.2, "WINDNOW": 55.0, "DIRNOW": 11.0, "SPDNOW": 0.0, "TECH": "TRAK", "ADVNR": 39, "ATCFID": "AL072025", "NAME": "GABRIELLE", "FTECH": "OFCL", "FCST_DTG": "2025-09-26 12:00:00", "RUN_DTG": "2025-09-27 07:26:59", "BASIN": "AL", "STMNR": 7, "CAT_ID": null, "CAT_DESC": null, "MSGID": "WTNT22 KNHC 261437", "VALIDTIME": "2025-09-24 18:00:00" }, "geometry": { "type": "Point", "coordinates": [ -46.900002, 36.099998 ] } },
{ "type": "Feature", "properties": { "ID": 44411, "LAT": 35.9, "LON": -44.0, "VMAX": 75.0, "MSLP": 978.0, "RMAX": 40.0, "FSPD": 15.05281, "FDIR": 84.11526, "RENV": 150.0, "PENV": 1008.0, "VALIDT": 0, "DTG": "2025-09-25 00:00", "LATNOW": 39.7, "LONNOW": -24.2, "WINDNOW": 55.0, "DIRNOW": 11.0, "SPDNOW": 0.0, "TECH": "TRAK", "ADVNR": 39, "ATCFID": "AL072025", "NAME": "GABRIELLE", "FTECH": "OFCL", "FCST_DTG": "2025-09-26 12:00:00", "RUN_DTG": "2025-09-27 07:26:59", "BASIN": "AL", "STMNR": 7, "CAT_ID": null, "CAT_DESC": null, "MSGID": "WTNT22 KNHC 261437", "VALIDTIME": "2025-09-25 00:00:00" }, "geometry": { "type": "Point", "coordinates": [ -44.0, 35.900002 ] } },
{ "type": "Feature", "properties": { "ID": 44412, "LAT": 36.2, "LON": -40.4, "VMAX": 75.0, "MSLP": 979.0, "RMAX": 40.0, "FSPD": 15.37487, "FDIR": 86.16287, "RENV": 140.0, "PENV": 1006.0, "VALIDT": 0, "DTG": "2025-09-25 06:00", "LATNOW": 39.7, "LONNOW": -24.2, "WINDNOW": 55.0, "DIRNOW": 11.0, "SPDNOW": 0.0, "TECH": "TRAK", "ADVNR": 39, "ATCFID": "AL072025", "NAME": "GABRIELLE", "FTECH": "OFCL", "FCST_DTG": "2025-09-26 12:00:00", "RUN_DTG": "2025-09-27 07:26:59", "BASIN": "AL", "STMNR": 7, "CAT_ID": null, "CAT_DESC": null, "MSGID": "WTNT22 KNHC 261437", "VALIDTIME": "2025-09-25 06:00:00" }, "geometry": { "type": "Point", "coordinates": [ -40.400002, 36.200001 ] } },
{ "type": "Feature", "properties": { "ID": 44413, "LAT": 36.4, "LON": -36.7, "VMAX": 65.0, "MSLP": 981.0, "RMAX": 40.0, "FSPD": 12.90408, "FDIR": 83.13098, "RENV": 140.0, "PENV": 1006.0, "VALIDT": 0, "DTG": "2025-09-25 12:00", "LATNOW": 39.7, "LONNOW": -24.2, "WINDNOW": 55.0, "DIRNOW": 11.0, "SPDNOW": 0.0, "TECH": "TRAK", "ADVNR": 39, "ATCFID": "AL072025", "NAME": "GABRIELLE", "FTECH": "OFCL", "FCST_DTG": "2025-09-26 12:00:00", "RUN_DTG": "2025-09-27 07:26:59", "BASIN": "AL", "STMNR": 7, "CAT_ID": null, "CAT_DESC": null, "MSGID": "WTNT22 KNHC 261437", "VALIDTIME": "2025-09-25 12:00:00" }, "geometry": { "type": "Point", "coordinates": [ -36.700001, 36.400002 ] } },
{ "type": "Feature", "properties": { "ID": 44414, "LAT": 36.7, "LON": -33.6, "VMAX": 60.0, "MSLP": 983.0, "RMAX": 30.0, "FSPD": 12.43955, "FDIR": 73.17261, "RENV": 170.0, "PENV": 1006.0, "VALIDT": 0, "DTG": "2025-09-25 18:00", "LATNOW": 39.7, "LONNOW": -24.2, "WINDNOW": 55.0, "DIRNOW": 11.0, "SPDNOW": 0.0, "TECH": "TRAK", "ADVNR": 39, "ATCFID": "AL072025", "NAME": "GABRIELLE", "FTECH": "OFCL", "FCST_DTG": "2025-09-26 12:00:00", "RUN_DTG": "2025-09-27 07:26:59", "BASIN": "AL", "STMNR": 7, "CAT_ID": null, "CAT_DESC": null, "MSGID": "WTNT22 KNHC 261437", "VALIDTIME": "2025-09-25 18:00:00" }, "geometry": { "type": "Point", "coordinates": [ -33.599998, 36.700001 ] } },
{ "type": "Feature", "properties": { "ID": 44415, "LAT": 37.4, "LON": -30.7, "VMAX": 55.0, "MSLP": 985.0, "RMAX": 70.0, "FSPD": 14.58699, "FDIR": 62.71124, "RENV": 170.0, "PENV": 1008.0, "VALIDT": 0, "DTG": "2025-09-26 00:00", "LATNOW": 39.7, "LONNOW": -24.2, "WINDNOW": 55.0, "DIRNOW": 11.0, "SPDNOW": 0.0, "TECH": "TRAK", "ADVNR": 39, "ATCFID": "AL072025", "NAME": "GABRIELLE", "FTECH": "OFCL", "FCST_DTG": "2025-09-26 12:00:00", "RUN_DTG": "2025-09-27 07:26:59", "BASIN": "AL", "STMNR": 7, "CAT_ID": null, "CAT_DESC": null, "MSGID": "WTNT22 KNHC 261437", "VALIDTIME": "2025-09-26 00:00:00" }, "geometry": { "type": "Point", "coordinates": [ -30.700001, 37.400002 ] } },
{ "type": "Feature", "properties": { "ID": 44416, "LAT": 38.7, "LON": -27.5, "VMAX": 55.0, "MSLP": 990.0, "RMAX": 70.0, "FSPD": 14.12604, "FDIR": 68.64276, "RENV": 190.0, "PENV": 1010.0, "VALIDT": 0, "DTG": "2025-09-26 06:00", "LATNOW": 39.7, "LONNOW": -24.2, "WINDNOW": 55.0, "DIRNOW": 11.0, "SPDNOW": 0.0, "TECH": "TRAK", "ADVNR": 39, "ATCFID": "AL072025", "NAME": "GABRIELLE", "FTECH": "OFCL", "FCST_DTG": "2025-09-26 12:00:00", "RUN_DTG": "2025-09-27 07:26:59", "BASIN": "AL", "STMNR": 7, "CAT_ID": null, "CAT_DESC": null, "MSGID": "WTNT22 KNHC 261437", "VALIDTIME": "2025-09-26 06:00:00" }, "geometry": { "type": "Point", "coordinates": [ -27.5, 38.700001 ] } },
{ "type": "Feature", "properties": { "ID": 44417, "LAT": 39.7, "LON": -24.2, "VMAX": 55.0, "MSLP": 992.0, "RMAX": 60.0, "FSPD": 11.48135, "FDIR": 74.40469, "RENV": 180.0, "PENV": 1012.0, "VALIDT": 0, "DTG": "2025-09-26 12:00", "LATNOW": 39.7, "LONNOW": -24.2, "WINDNOW": 55.0, "DIRNOW": 11.0, "SPDNOW": 0.0, "TECH": "TRAK", "ADVNR": 39, "ATCFID": "AL072025", "NAME": "GABRIELLE", "FTECH": "OFCL", "FCST_DTG": "2025-09-26 12:00:00", "RUN_DTG": "2025-09-27 07:26:59", "BASIN": "AL", "STMNR": 7, "CAT_ID": null, "CAT_DESC": null, "MSGID": "WTNT22 KNHC 261437", "VALIDTIME": "2025-09-26 12:00:00" }, "geometry": { "type": "Point", "coordinates": [ -24.200001, 39.700001 ] } },
{ "type": "Feature", "properties": { "ID": 44418, "LAT": 40.0, "LON": -22.8, "VMAX": 55.0, "MSLP": 992.0, "RMAX": 60.71505, "FSPD": 11.30746, "FDIR": 75.95728, "RENV": 180.0, "PENV": 1012.0, "VALIDT": 3, "DTG": "2025-09-26 15:00", "LATNOW": 39.7, "LONNOW": -24.2, "WINDNOW": 55.0, "DIRNOW": 11.0, "SPDNOW": 0.0, "TECH": "FCST", "ADVNR": 39, "ATCFID": "AL072025", "NAME": "GABRIELLE", "FTECH": "OFCL", "FCST_DTG": "2025-09-26 12:00:00", "RUN_DTG": "2025-09-27 07:26:59", "BASIN": "AL", "STMNR": 7, "CAT_ID": null, "CAT_DESC": null, "MSGID": "WTNT22 KNHC 261437", "VALIDTIME": "2025-09-26 15:00:00" }, "geometry": { "type": "Point", "coordinates": [ -22.799999, 40.0 ] } },
{ "type": "Feature", "properties": { "ID": 44419, "LAT": 40.8, "LON": -18.6, "VMAX": 60.0, "MSLP": 996.62427, "RMAX": 63.21704, "FSPD": 9.34644, "FDIR": 86.84473, "RENV": 300.0, "PENV": 1012.0, "VALIDT": 12, "DTG": "2025-09-27 00:00", "LATNOW": 39.7, "LONNOW": -24.2, "WINDNOW": 55.0, "DIRNOW": 11.0, "SPDNOW": 0.0, "TECH": "FCST", "ADVNR": 39, "ATCFID": "AL072025", "NAME": "GABRIELLE", "FTECH": "OFCL", "FCST_DTG": "2025-09-26 12:00:00", "RUN_DTG": "2025-09-27 07:26:59", "BASIN": "AL", "STMNR": 7, "CAT_ID": null, "CAT_DESC": null, "MSGID": "WTNT22 KNHC 261437", "VALIDTIME": "2025-09-27 00:00:00" }, "geometry": { "type": "Point", "coordinates": [ -18.6, 40.799999 ] } },
{ "type": "Feature", "properties": { "ID": 44420, "LAT": 41.0, "LON": -13.8, "VMAX": 50.0, "MSLP": 1002.2391, "RMAX": 64.21401, "FSPD": 7.03691, "FDIR": 109.20682, "RENV": 180.0, "PENV": 1012.0, "VALIDT": 24, "DTG": "2025-09-27 12:00", "LATNOW": 39.7, "LONNOW": -24.2, "WINDNOW": 55.0, "DIRNOW": 11.0, "SPDNOW": 0.0, "TECH": "FCST", "ADVNR": 39, "ATCFID": "AL072025", "NAME": "GABRIELLE", "FTECH": "OFCL", "FCST_DTG": "2025-09-26 12:00:00", "RUN_DTG": "2025-09-27 07:26:59", "BASIN": "AL", "STMNR": 7, "CAT_ID": null, "CAT_DESC": null, "MSGID": "WTNT22 KNHC 261437", "VALIDTIME": "2025-09-27 12:00:00" }, "geometry": { "type": "Point", "coordinates": [ -13.8, 41.0 ] } },
{ "type": "Feature", "properties": { "ID": 44421, "LAT": 40.1, "LON": -10.4, "VMAX": 45.0, "MSLP": 1004.66364, "RMAX": 62.11795, "FSPD": 5.85239, "FDIR": 134.68634, "RENV": 300.0, "PENV": 1012.0, "VALIDT": 36, "DTG": "2025-09-28 00:00", "LATNOW": 39.7, "LONNOW": -24.2, "WINDNOW": 55.0, "DIRNOW": 11.0, "SPDNOW": 0.0, "TECH": "FCST", "ADVNR": 39, "ATCFID": "AL072025", "NAME": "GABRIELLE", "FTECH": "OFCL", "FCST_DTG": "2025-09-26 12:00:00", "RUN_DTG": "2025-09-27 07:26:59", "BASIN": "AL", "STMNR": 7, "CAT_ID": null, "CAT_DESC": null, "MSGID": "WTNT22 KNHC 261437", "VALIDTIME": "2025-09-28 00:00:00" }, "geometry": { "type": "Point", "coordinates": [ -10.4, 40.099998 ] } },
{ "type": "Feature", "properties": { "ID": 44422, "LAT": 39.14, "LON": -9.14, "VMAX": 45.0, "MSLP": 1004.66364, "RMAX": 62.11795, "FSPD": 5.88639, "FDIR": 134.35992, "RENV": 300.0, "PENV": 1012.0, "VALIDT": 43, "DTG": "2025-09-28 07:00", "LATNOW": 39.7, "LONNOW": -24.2, "WINDNOW": 55.0, "DIRNOW": 11.0, "SPDNOW": 0.0, "TECH": "FCST", "ADVNR": 39, "ATCFID": "AL072025", "NAME": "GABRIELLE", "FTECH": "OFCL", "FCST_DTG": "2025-09-26 12:00:00", "RUN_DTG": "2025-09-27 07:26:59", "BASIN": "AL", "STMNR": 7, "CAT_ID": null, "CAT_DESC": null, "MSGID": "WTNT22 KNHC 261437", "VALIDTIME": "2025-09-28 07:00:00" }, "geometry": { "type": "Point", "coordinates": [ -9.139999, 39.139999 ] } },
{ "type": "Feature", "properties": { "ID": 44423, "LAT": 38.5, "LON": -8.3, "VMAX": 35.0, "MSLP": 1008.74713, "RMAX": 58.46721, "FSPD": 4.68505, "FDIR": 151.45523, "RENV": 300.0, "PENV": 1012.0, "VALIDT": 48, "DTG": "2025-09-28 12:00", "LATNOW": 39.7, "LONNOW": -24.2, "WINDNOW": 55.0, "DIRNOW": 11.0, "SPDNOW": 0.0, "TECH": "FCST", "ADVNR": 39, "ATCFID": "AL072025", "NAME": "GABRIELLE", "FTECH": "OFCL", "FCST_DTG": "2025-09-26 12:00:00", "RUN_DTG": "2025-09-27 07:26:59", "BASIN": "AL", "STMNR": 7, "CAT_ID": null, "CAT_DESC": null, "MSGID": "WTNT22 KNHC 261437", "VALIDTIME": "2025-09-28 12:00:00" }, "geometry": { "type": "Point", "coordinates": [ -8.3, 38.5 ] } },
{ "type": "Feature", "properties": { "ID": 44424, "LAT": 36.9, "LON": -7.2, "VMAX": 30.0, "MSLP": 1010.40607, "RMAX": 54.91903, "FSPD": 3.35032, "FDIR": 176.45023, "RENV": 250.0, "PENV": 1012.0, "VALIDT": 60, "DTG": "2025-09-29 00:00", "LATNOW": 39.7, "LONNOW": -24.2, "WINDNOW": 55.0, "DIRNOW": 11.0, "SPDNOW": 0.0, "TECH": "FCST", "ADVNR": 39, "ATCFID": "AL072025", "NAME": "GABRIELLE", "FTECH": "OFCL", "FCST_DTG": "2025-09-26 12:00:00", "RUN_DTG": "2025-09-27 07:26:59", "BASIN": "AL", "STMNR": 7, "CAT_ID": null, "CAT_DESC": null, "MSGID": "WTNT22 KNHC 261437", "VALIDTIME": "2025-09-29 00:00:00" }, "geometry": { "type": "Point", "coordinates": [ -7.2, 36.900002 ] } },
{ "type": "Feature", "properties": { "ID": 44425, "LAT": 35.6, "LON": -7.1, "VMAX": 25.0, "MSLP": 1011.80975, "RMAX": 52.18489, "FSPD": 3.35032, "FDIR": 176.45023, "RENV": 250.0, "PENV": 1012.0, "VALIDT": 72, "DTG": "2025-09-29 12:00", "LATNOW": 39.7, "LONNOW": -24.2, "WINDNOW": 55.0, "DIRNOW": 11.0, "SPDNOW": 0.0, "TECH": "FCST", "ADVNR": 39, "ATCFID": "AL072025", "NAME": "GABRIELLE", "FTECH": "OFCL", "FCST_DTG": "2025-09-26 12:00:00", "RUN_DTG": "2025-09-27 07:26:59", "BASIN": "AL", "STMNR": 7, "CAT_ID": null, "CAT_DESC": null, "MSGID": "WTNT22 KNHC 261437", "VALIDTIME": "2025-09-29 12:00:00" }, "geometry": { "type": "Point", "coordinates": [ -7.1, 35.599998 ] } },
{ "type": "Feature", "properties": { "ID": 44417, "LAT": 39.7, "LON": -24.2, "VMAX": 55.0, "MSLP": 992.0, "RMAX": 60.0, "FSPD": 11.48135, "FDIR": 74.40469, "RENV": 180.0, "PENV": 1012.0, "VALIDT": 0, "DTG": "2025-09-26 12:00", "LATNOW": 39.7, "LONNOW": -24.2, "WINDNOW": 55.0, "DIRNOW": 11.0, "SPDNOW": 0.0, "TECH": "TRAK", "ADVNR": 39, "ATCFID": "AL072025", "NAME": "GABRIELLE", "FTECH": "OFCL", "FCST_DTG": "2025-09-26 12:00:00", "RUN_DTG": "2025-09-27 07:26:59", "BASIN": "AL", "STMNR": 7, "CAT_ID": null, "CAT_DESC": null, "MSGID": "WTNT22 KNHC 261437", "VALIDTIME": "2025-09-26 12:00:00" }, "geometry": { "type": "LineString", "coordinates": [ [ -38.3, 11.9 ], [ -39.8, 12.3 ], [ -41.0, 12.3 ], [ -41.9, 12.5 ], [ -41.5, 13.4 ], [ -42.2, 13.5 ], [ -43.6, 13.5 ], [ -45.5, 13.5 ], [ -46.5, 16.5 ], [ -47.5, 19.0 ], [ -49.0, 19.2 ], [ -49.8, 19.7 ], [ -51.2, 20.0 ], [ -52.2, 20.5 ], [ -52.9, 20.9 ], [ -54.1, 21.5 ], [ -55.1, 21.7 ], [ -56.1, 22.1 ], [ -56.7, 23.2 ], [ -57.7, 23.9 ], [ -58.6, 24.6 ], [ -58.7, 25.2 ], [ -59.0, 25.9 ], [ -59.7, 26.8 ], [ -60.7, 27.3 ], [ -61.5, 28.1 ], [ -62.0, 28.9 ], [ -62.4, 29.7 ], [ -62.4, 30.4 ], [ -62.1, 31.3 ], [ -61.4, 32.1 ], [ -60.4, 32.8 ], [ -59.2, 33.5 ], [ -57.4, 34.3 ], [ -55.2, 34.9 ], [ -52.8, 35.4 ], [ -50.2, 35.8 ], [ -46.9, 36.1 ], [ -44.0, 35.9 ], [ -40.4, 36.2 ], [ -36.7, 36.4 ], [ -33.6, 36.7 ], [ -30.7, 37.4 ], [ -27.5, 38.7 ], [ -24.2, 39.7 ] ] } },
{ "type": "Feature", "properties": { "ID": 44425, "LAT": 35.6, "LON": -7.1, "VMAX": 25.0, "MSLP": 1011.80975, "RMAX": 52.18489, "FSPD": 3.35032, "FDIR": 176.45023, "RENV": 250.0, "PENV": 1012.0, "VALIDT": 72, "DTG": "2025-09-29 12:00", "LATNOW": 39.7, "LONNOW": -24.2, "WINDNOW": 55.0, "DIRNOW": 11.0, "SPDNOW": 0.0, "TECH": "FCST", "ADVNR": 39, "ATCFID": "AL072025", "NAME": "GABRIELLE", "FTECH": "OFCL", "FCST_DTG": "2025-09-26 12:00:00", "RUN_DTG": "2025-09-27 07:26:59", "BASIN": "AL", "STMNR": 7, "CAT_ID": null, "CAT_DESC": null, "MSGID": "WTNT22 KNHC 261437", "VALIDTIME": "2025-09-29 12:00:00" }, "geometry": { "type": "LineString", "coordinates": [ [ -24.2, 39.7 ], [ -22.8, 40.0 ], [ -18.6, 40.8 ], [ -13.8, 41.0 ], [ -10.4, 40.1 ], [ -9.14, 39.14 ], [ -8.3, 38.5 ], [ -7.2, 36.9 ], [ -7.1, 35.6 ] ] } }
]
}
