{
"type": "FeatureCollection",
"crs": { "type": "name", "properties": { "name": "urn:ogc:def:crs:OGC:1.3:CRS84" } },
"features": [
{ "type": "Feature", "properties": { "ID": 330160, "LAT": 18.3, "LON": -90.5, "VMAX": 25.0, "MSLP": 1011.0, "RMAX": 80.0, "FSPD": 5.58547, "FDIR": 286.04028, "RENV": 160.0, "PENV": 1013.0, "VALIDT": 0, "DTG": "2025-06-27 18:00", "LATNOW": 22.4, "LONNOW": -98.7, "WINDNOW": 25.0, "DIRNOW": 8.0, "SPDNOW": 2.0, "TECH": "TRAK", "ADVNR": 7, "ATCFID": "AL022025", "NAME": "BARRY", "FTECH": "OFCL", "FCST_DTG": "2025-06-30 06:00:00", "RUN_DTG": "2025-06-30 21:10:16", "BASIN": "AL", "STMNR": 2, "CAT_ID": null, "CAT_DESC": null, "MSGID": "WTNT22 KNHC 300830", "VALIDTIME": "2025-06-27 18:00:00" }, "geometry": { "type": "Point", "coordinates": [ -90.5, 18.299999 ] } },
{ "type": "Feature", "properties": { "ID": 330161, "LAT": 18.6, "LON": -91.6, "VMAX": 25.0, "MSLP": 1011.0, "RMAX": 80.0, "FSPD": 4.50467, "FDIR": 283.2031, "RENV": 160.0, "PENV": 1013.0, "VALIDT": 0, "DTG": "2025-06-28 00:00", "LATNOW": 22.4, "LONNOW": -98.7, "WINDNOW": 25.0, "DIRNOW": 8.0, "SPDNOW": 2.0, "TECH": "TRAK", "ADVNR": 7, "ATCFID": "AL022025", "NAME": "BARRY", "FTECH": "OFCL", "FCST_DTG": "2025-06-30 06:00:00", "RUN_DTG": "2025-06-30 21:10:16", "BASIN": "AL", "STMNR": 2, "CAT_ID": null, "CAT_DESC": null, "MSGID": "WTNT22 KNHC 300830", "VALIDTIME": "2025-06-28 00:00:00" }, "geometry": { "type": "Point", "coordinates": [ -91.599998, 18.6 ] } },
{ "type": "Feature", "properties": { "ID": 330162, "LAT": 18.8, "LON": -92.5, "VMAX": 25.0, "MSLP": 1011.0, "RMAX": 80.0, "FSPD": 5.10453, "FDIR": 287.5986, "RENV": 160.0, "PENV": 1013.0, "VALIDT": 0, "DTG": "2025-06-28 06:00", "LATNOW": 22.4, "LONNOW": -98.7, "WINDNOW": 25.0, "DIRNOW": 8.0, "SPDNOW": 2.0, "TECH": "TRAK", "ADVNR": 7, "ATCFID": "AL022025", "NAME": "BARRY", "FTECH": "OFCL", "FCST_DTG": "2025-06-30 06:00:00", "RUN_DTG": "2025-06-30 21:10:16", "BASIN": "AL", "STMNR": 2, "CAT_ID": null, "CAT_DESC": null, "MSGID": "WTNT22 KNHC 300830", "VALIDTIME": "2025-06-28 06:00:00" }, "geometry": { "type": "Point", "coordinates": [ -92.5, 18.799999 ] } },
{ "type": "Feature", "properties": { "ID": 330163, "LAT": 19.1, "LON": -93.5, "VMAX": 25.0, "MSLP": 1010.0, "RMAX": 60.0, "FSPD": 2.01083, "FDIR": 284.82318, "RENV": 160.0, "PENV": 1013.0, "VALIDT": 0, "DTG": "2025-06-28 12:00", "LATNOW": 22.4, "LONNOW": -98.7, "WINDNOW": 25.0, "DIRNOW": 8.0, "SPDNOW": 2.0, "TECH": "TRAK", "ADVNR": 7, "ATCFID": "AL022025", "NAME": "BARRY", "FTECH": "OFCL", "FCST_DTG": "2025-06-30 06:00:00", "RUN_DTG": "2025-06-30 21:10:16", "BASIN": "AL", "STMNR": 2, "CAT_ID": null, "CAT_DESC": null, "MSGID": "WTNT22 KNHC 300830", "VALIDTIME": "2025-06-28 12:00:00" }, "geometry": { "type": "Point", "coordinates": [ -93.5, 19.1 ] } },
{ "type": "Feature", "properties": { "ID": 330164, "LAT": 19.2, "LON": -93.9, "VMAX": 25.0, "MSLP": 1011.0, "RMAX": 50.0, "FSPD": 4.17851, "FDIR": 291.67545, "RENV": 140.0, "PENV": 1013.0, "VALIDT": 0, "DTG": "2025-06-28 18:00", "LATNOW": 22.4, "LONNOW": -98.7, "WINDNOW": 25.0, "DIRNOW": 8.0, "SPDNOW": 2.0, "TECH": "TRAK", "ADVNR": 7, "ATCFID": "AL022025", "NAME": "BARRY", "FTECH": "OFCL", "FCST_DTG": "2025-06-30 06:00:00", "RUN_DTG": "2025-06-30 21:10:16", "BASIN": "AL", "STMNR": 2, "CAT_ID": null, "CAT_DESC": null, "MSGID": "WTNT22 KNHC 300830", "VALIDTIME": "2025-06-28 18:00:00" }, "geometry": { "type": "Point", "coordinates": [ -93.900002, 19.200001 ] } },
{ "type": "Feature", "properties": { "ID": 330165, "LAT": 19.5, "LON": -94.7, "VMAX": 25.0, "MSLP": 1011.0, "RMAX": 50.0, "FSPD": 4.48144, "FDIR": 283.2729, "RENV": 140.0, "PENV": 1013.0, "VALIDT": 0, "DTG": "2025-06-29 00:00", "LATNOW": 22.4, "LONNOW": -98.7, "WINDNOW": 25.0, "DIRNOW": 8.0, "SPDNOW": 2.0, "TECH": "TRAK", "ADVNR": 7, "ATCFID": "AL022025", "NAME": "BARRY", "FTECH": "OFCL", "FCST_DTG": "2025-06-30 06:00:00", "RUN_DTG": "2025-06-30 21:10:16", "BASIN": "AL", "STMNR": 2, "CAT_ID": null, "CAT_DESC": null, "MSGID": "WTNT22 KNHC 300830", "VALIDTIME": "2025-06-29 00:00:00" }, "geometry": { "type": "Point", "coordinates": [ -94.699997, 19.5 ] } },
{ "type": "Feature", "properties": { "ID": 330166, "LAT": 19.7, "LON": -95.6, "VMAX": 25.0, "MSLP": 1011.0, "RMAX": 50.0, "FSPD": 2.82459, "FDIR": 316.76257, "RENV": 140.0, "PENV": 1013.0, "VALIDT": 0, "DTG": "2025-06-29 06:00", "LATNOW": 22.4, "LONNOW": -98.7, "WINDNOW": 25.0, "DIRNOW": 8.0, "SPDNOW": 2.0, "TECH": "TRAK", "ADVNR": 7, "ATCFID": "AL022025", "NAME": "BARRY", "FTECH": "OFCL", "FCST_DTG": "2025-06-30 06:00:00", "RUN_DTG": "2025-06-30 21:10:16", "BASIN": "AL", "STMNR": 2, "CAT_ID": null, "CAT_DESC": null, "MSGID": "WTNT22 KNHC 300830", "VALIDTIME": "2025-06-29 06:00:00" }, "geometry": { "type": "Point", "coordinates": [ -95.599998, 19.700001 ] } },
{ "type": "Feature", "properties": { "ID": 330167, "LAT": 20.1, "LON": -96.0, "VMAX": 35.0, "MSLP": 1008.0, "RMAX": 30.0, "FSPD": 5.3212, "FDIR": 320.66245, "RENV": 100.0, "PENV": 1012.0, "VALIDT": 0, "DTG": "2025-06-29 12:00", "LATNOW": 22.4, "LONNOW": -98.7, "WINDNOW": 25.0, "DIRNOW": 8.0, "SPDNOW": 2.0, "TECH": "TRAK", "ADVNR": 7, "ATCFID": "AL022025", "NAME": "BARRY", "FTECH": "OFCL", "FCST_DTG": "2025-06-30 06:00:00", "RUN_DTG": "2025-06-30 21:10:16", "BASIN": "AL", "STMNR": 2, "CAT_ID": null, "CAT_DESC": null, "MSGID": "WTNT22 KNHC 300830", "VALIDTIME": "2025-06-29 12:00:00" }, "geometry": { "type": "Point", "coordinates": [ -96.0, 20.1 ] } },
{ "type": "Feature", "properties": { "ID": 330168, "LAT": 20.9, "LON": -96.7, "VMAX": 40.0, "MSLP": 1006.0, "RMAX": 20.0, "FSPD": 4.60914, "FDIR": 321.37964, "RENV": 100.0, "PENV": 1012.0, "VALIDT": 0, "DTG": "2025-06-29 18:00", "LATNOW": 22.4, "LONNOW": -98.7, "WINDNOW": 25.0, "DIRNOW": 8.0, "SPDNOW": 2.0, "TECH": "TRAK", "ADVNR": 7, "ATCFID": "AL022025", "NAME": "BARRY", "FTECH": "OFCL", "FCST_DTG": "2025-06-30 06:00:00", "RUN_DTG": "2025-06-30 21:10:16", "BASIN": "AL", "STMNR": 2, "CAT_ID": null, "CAT_DESC": null, "MSGID": "WTNT22 KNHC 300830", "VALIDTIME": "2025-06-29 18:00:00" }, "geometry": { "type": "Point", "coordinates": [ -96.699997, 20.9 ] } },
{ "type": "Feature", "properties": { "ID": 330169, "LAT": 21.6, "LON": -97.3, "VMAX": 35.0, "MSLP": 1007.0, "RMAX": 20.0, "FSPD": 7.85369, "FDIR": 301.60278, "RENV": 100.0, "PENV": 1010.0, "VALIDT": 0, "DTG": "2025-06-30 00:00", "LATNOW": 22.4, "LONNOW": -98.7, "WINDNOW": 25.0, "DIRNOW": 8.0, "SPDNOW": 2.0, "TECH": "TRAK", "ADVNR": 7, "ATCFID": "AL022025", "NAME": "BARRY", "FTECH": "OFCL", "FCST_DTG": "2025-06-30 06:00:00", "RUN_DTG": "2025-06-30 21:10:16", "BASIN": "AL", "STMNR": 2, "CAT_ID": null, "CAT_DESC": null, "MSGID": "WTNT22 KNHC 300830", "VALIDTIME": "2025-06-30 00:00:00" }, "geometry": { "type": "Point", "coordinates": [ -97.300003, 21.6 ] } },
{ "type": "Feature", "properties": { "ID": 330170, "LAT": 21.92, "LON": -97.86, "VMAX": 35.0, "MSLP": 1007.0, "RMAX": 20.0, "FSPD": 7.83768, "FDIR": 301.67484, "RENV": 100.0, "PENV": 1010.0, "VALIDT": 0, "DTG": "2025-06-30 02:00", "LATNOW": 22.4, "LONNOW": -98.7, "WINDNOW": 25.0, "DIRNOW": 8.0, "SPDNOW": 2.0, "TECH": "TRAK", "ADVNR": 7, "ATCFID": "AL022025", "NAME": "BARRY", "FTECH": "OFCL", "FCST_DTG": "2025-06-30 06:00:00", "RUN_DTG": "2025-06-30 21:10:16", "BASIN": "AL", "STMNR": 2, "CAT_ID": null, "CAT_DESC": null, "MSGID": "WTNT22 KNHC 300830", "VALIDTIME": "2025-06-30 02:00:00" }, "geometry": { "type": "Point", "coordinates": [ -97.860001, 21.92 ] } },
{ "type": "Feature", "properties": { "ID": 330171, "LAT": 22.4, "LON": -98.7, "VMAX": 25.0, "MSLP": 1008.0, "RMAX": 50.0, "FSPD": 7.78679, "FDIR": 322.44757, "RENV": 120.0, "PENV": 1011.0, "VALIDT": 0, "DTG": "2025-06-30 06:00", "LATNOW": 22.4, "LONNOW": -98.7, "WINDNOW": 25.0, "DIRNOW": 8.0, "SPDNOW": 2.0, "TECH": "TRAK", "ADVNR": 7, "ATCFID": "AL022025", "NAME": "BARRY", "FTECH": "OFCL", "FCST_DTG": "2025-06-30 06:00:00", "RUN_DTG": "2025-06-30 21:10:16", "BASIN": "AL", "STMNR": 2, "CAT_ID": null, "CAT_DESC": null, "MSGID": "WTNT22 KNHC 300830", "VALIDTIME": "2025-06-30 06:00:00" }, "geometry": { "type": "Point", "coordinates": [ -98.699997, 22.4 ] } },
{ "type": "Feature", "properties": { "ID": 330172, "LAT": 23.0, "LON": -99.2, "VMAX": 25.0, "MSLP": 1008.0, "RMAX": 51.19885, "FSPD": 7.78679, "FDIR": 322.44757, "RENV": 250.0, "PENV": 1012.0, "VALIDT": 3, "DTG": "2025-06-30 09:00", "LATNOW": 22.4, "LONNOW": -98.7, "WINDNOW": 25.0, "DIRNOW": 8.0, "SPDNOW": 2.0, "TECH": "FCST", "ADVNR": 7, "ATCFID": "AL022025", "NAME": "BARRY", "FTECH": "OFCL", "FCST_DTG": "2025-06-30 06:00:00", "RUN_DTG": "2025-06-30 21:10:16", "BASIN": "AL", "STMNR": 2, "CAT_ID": null, "CAT_DESC": null, "MSGID": "WTNT22 KNHC 300830", "VALIDTIME": "2025-06-30 09:00:00" }, "geometry": { "type": "Point", "coordinates": [ -99.199997, 23.0 ] } },
{ "type": "Feature", "properties": { "ID": 330171, "LAT": 22.4, "LON": -98.7, "VMAX": 25.0, "MSLP": 1008.0, "RMAX": 50.0, "FSPD": 7.78679, "FDIR": 322.44757, "RENV": 120.0, "PENV": 1011.0, "VALIDT": 0, "DTG": "2025-06-30 06:00", "LATNOW": 22.4, "LONNOW": -98.7, "WINDNOW": 25.0, "DIRNOW": 8.0, "SPDNOW": 2.0, "TECH": "TRAK", "ADVNR": 7, "ATCFID": "AL022025", "NAME": "BARRY", "FTECH": "OFCL", "FCST_DTG": "2025-06-30 06:00:00", "RUN_DTG": "2025-06-30 21:10:16", "BASIN": "AL", "STMNR": 2, "CAT_ID": null, "CAT_DESC": null, "MSGID": "WTNT22 KNHC 300830", "VALIDTIME": "2025-06-30 06:00:00" }, "geometry": { "type": "LineString", "coordinates": [ [ -90.5, 18.3 ], [ -91.6, 18.6 ], [ -92.5, 18.8 ], [ -93.5, 19.1 ], [ -93.9, 19.2 ], [ -94.7, 19.5 ], [ -95.6, 19.7 ], [ -96.0, 20.1 ], [ -96.7, 20.9 ], [ -97.3, 21.6 ], [ -97.86, 21.92 ], [ -98.7, 22.4 ] ] } },
{ "type": "Feature", "properties": { "ID": 330172, "LAT": 23.0, "LON": -99.2, "VMAX": 25.0, "MSLP": 1008.0, "RMAX": 51.19885, "FSPD": 7.78679, "FDIR": 322.44757, "RENV": 250.0, "PENV": 1012.0, "VALIDT": 3, "DTG": "2025-06-30 09:00", "LATNOW": 22.4, "LONNOW": -98.7, "WINDNOW": 25.0, "DIRNOW": 8.0, "SPDNOW": 2.0, "TECH": "FCST", "ADVNR": 7, "ATCFID": "AL022025", "NAME": "BARRY", "FTECH": "OFCL", "FCST_DTG": "2025-06-30 06:00:00", "RUN_DTG": "2025-06-30 21:10:16", "BASIN": "AL", "STMNR": 2, "CAT_ID": null, "CAT_DESC": null, "MSGID": "WTNT22 KNHC 300830", "VALIDTIME": "2025-06-30 09:00:00" }, "geometry": { "type": "LineString", "coordinates": [ [ -98.7, 22.4 ], [ -99.2, 23.0 ] ] } }
]
}
