{
"type": "FeatureCollection",
"crs": { "type": "name", "properties": { "name": "urn:ogc:def:crs:OGC:1.3:CRS84" } },
"features": [
{ "type": "Feature", "properties": { "ID": 58229, "LAT": 21.2, "LON": 137.9, "VMAX": 20.0, "MSLP": 1012.95825, "RMAX": 45.0, "FSPD": 6.41719, "FDIR": 76.08398, "RENV": 500.0, "PENV": 1012.0, "VALIDT": 0, "DTG": "2026-08-11 06:00", "LATNOW": 28.3, "LONNOW": 154.5, "WINDNOW": 25.0, "DIRNOW": 4.0, "SPDNOW": 6.0, "TECH": "TRAK", "ADVNR": 9, "ATCFID": "WP162026", "NAME": "NANGKA", "FTECH": "JTWC", "FCST_DTG": "2026-08-14 12:00:00", "RUN_DTG": "2026-08-15 06:26:29", "BASIN": "WP", "STMNR": 16, "CAT_ID": null, "CAT_DESC": null, "MSGID": "WTPN51 PGTW 141500", "VALIDTIME": "2026-08-11 06:00:00" }, "geometry": { "type": "Point", "coordinates": [ 137.899994, 21.200001 ] } },
{ "type": "Feature", "properties": { "ID": 58230, "LAT": 21.5, "LON": 139.2, "VMAX": 20.0, "MSLP": 1012.95825, "RMAX": 45.0, "FSPD": 7.80459, "FDIR": 78.59479, "RENV": 500.0, "PENV": 1012.0, "VALIDT": 0, "DTG": "2026-08-11 12:00", "LATNOW": 28.3, "LONNOW": 154.5, "WINDNOW": 25.0, "DIRNOW": 4.0, "SPDNOW": 6.0, "TECH": "TRAK", "ADVNR": 9, "ATCFID": "WP162026", "NAME": "NANGKA", "FTECH": "JTWC", "FCST_DTG": "2026-08-14 12:00:00", "RUN_DTG": "2026-08-15 06:26:29", "BASIN": "WP", "STMNR": 16, "CAT_ID": null, "CAT_DESC": null, "MSGID": "WTPN51 PGTW 141500", "VALIDTIME": "2026-08-11 12:00:00" }, "geometry": { "type": "Point", "coordinates": [ 139.199997, 21.5 ] } },
{ "type": "Feature", "properties": { "ID": 58231, "LAT": 21.8, "LON": 140.8, "VMAX": 20.0, "MSLP": 1012.95825, "RMAX": 45.0, "FSPD": 5.25415, "FDIR": 90.0, "RENV": 500.0, "PENV": 1012.0, "VALIDT": 0, "DTG": "2026-08-11 18:00", "LATNOW": 28.3, "LONNOW": 154.5, "WINDNOW": 25.0, "DIRNOW": 4.0, "SPDNOW": 6.0, "TECH": "TRAK", "ADVNR": 9, "ATCFID": "WP162026", "NAME": "NANGKA", "FTECH": "JTWC", "FCST_DTG": "2026-08-14 12:00:00", "RUN_DTG": "2026-08-15 06:26:29", "BASIN": "WP", "STMNR": 16, "CAT_ID": null, "CAT_DESC": null, "MSGID": "WTPN51 PGTW 141500", "VALIDTIME": "2026-08-11 18:00:00" }, "geometry": { "type": "Point", "coordinates": [ 140.800003, 21.799999 ] } },
{ "type": "Feature", "properties": { "ID": 58232, "LAT": 21.8, "LON": 141.9, "VMAX": 30.0, "MSLP": 1010.40607, "RMAX": 44.21983, "FSPD": 6.70463, "FDIR": 85.59937, "RENV": 500.0, "PENV": 1012.0, "VALIDT": 0, "DTG": "2026-08-12 00:00", "LATNOW": 28.3, "LONNOW": 154.5, "WINDNOW": 25.0, "DIRNOW": 4.0, "SPDNOW": 6.0, "TECH": "TRAK", "ADVNR": 9, "ATCFID": "WP162026", "NAME": "NANGKA", "FTECH": "JTWC", "FCST_DTG": "2026-08-14 12:00:00", "RUN_DTG": "2026-08-15 06:26:29", "BASIN": "WP", "STMNR": 16, "CAT_ID": null, "CAT_DESC": null, "MSGID": "WTPN51 PGTW 141500", "VALIDTIME": "2026-08-12 00:00:00" }, "geometry": { "type": "Point", "coordinates": [ 141.899994, 21.799999 ] } },
{ "type": "Feature", "properties": { "ID": 58233, "LAT": 21.9, "LON": 143.3, "VMAX": 30.0, "MSLP": 1010.40607, "RMAX": 44.21983, "FSPD": 9.10419, "FDIR": 51.56912, "RENV": 500.0, "PENV": 1012.0, "VALIDT": 0, "DTG": "2026-08-12 06:00", "LATNOW": 28.3, "LONNOW": 154.5, "WINDNOW": 25.0, "DIRNOW": 4.0, "SPDNOW": 6.0, "TECH": "TRAK", "ADVNR": 9, "ATCFID": "WP162026", "NAME": "NANGKA", "FTECH": "JTWC", "FCST_DTG": "2026-08-14 12:00:00", "RUN_DTG": "2026-08-15 06:26:29", "BASIN": "WP", "STMNR": 16, "CAT_ID": null, "CAT_DESC": null, "MSGID": "WTPN51 PGTW 141500", "VALIDTIME": "2026-08-12 06:00:00" }, "geometry": { "type": "Point", "coordinates": [ 143.300003, 21.9 ] } },
{ "type": "Feature", "properties": { "ID": 58234, "LAT": 23.0, "LON": 144.8, "VMAX": 30.0, "MSLP": 998.0, "RMAX": 40.0, "FSPD": 11.53943, "FDIR": 40.72192, "RENV": 205.0, "PENV": 1002.0, "VALIDT": 0, "DTG": "2026-08-12 12:00", "LATNOW": 28.3, "LONNOW": 154.5, "WINDNOW": 25.0, "DIRNOW": 4.0, "SPDNOW": 6.0, "TECH": "TRAK", "ADVNR": 9, "ATCFID": "WP162026", "NAME": "NANGKA", "FTECH": "JTWC", "FCST_DTG": "2026-08-14 12:00:00", "RUN_DTG": "2026-08-15 06:26:29", "BASIN": "WP", "STMNR": 16, "CAT_ID": null, "CAT_DESC": null, "MSGID": "WTPN51 PGTW 141500", "VALIDTIME": "2026-08-12 12:00:00" }, "geometry": { "type": "Point", "coordinates": [ 144.800003, 23.0 ] } },
{ "type": "Feature", "properties": { "ID": 58235, "LAT": 24.7, "LON": 146.4, "VMAX": 30.0, "MSLP": 998.0, "RMAX": 40.0, "FSPD": 12.46942, "FDIR": 42.04523, "RENV": 205.0, "PENV": 1002.0, "VALIDT": 0, "DTG": "2026-08-12 18:00", "LATNOW": 28.3, "LONNOW": 154.5, "WINDNOW": 25.0, "DIRNOW": 4.0, "SPDNOW": 6.0, "TECH": "TRAK", "ADVNR": 9, "ATCFID": "WP162026", "NAME": "NANGKA", "FTECH": "JTWC", "FCST_DTG": "2026-08-14 12:00:00", "RUN_DTG": "2026-08-15 06:26:29", "BASIN": "WP", "STMNR": 16, "CAT_ID": null, "CAT_DESC": null, "MSGID": "WTPN51 PGTW 141500", "VALIDTIME": "2026-08-12 18:00:00" }, "geometry": { "type": "Point", "coordinates": [ 146.399994, 24.700001 ] } },
{ "type": "Feature", "properties": { "ID": 58236, "LAT": 26.5, "LON": 148.2, "VMAX": 30.0, "MSLP": 998.0, "RMAX": 35.0, "FSPD": 10.26082, "FDIR": 49.32422, "RENV": 185.0, "PENV": 1002.0, "VALIDT": 0, "DTG": "2026-08-13 00:00", "LATNOW": 28.3, "LONNOW": 154.5, "WINDNOW": 25.0, "DIRNOW": 4.0, "SPDNOW": 6.0, "TECH": "TRAK", "ADVNR": 9, "ATCFID": "WP162026", "NAME": "NANGKA", "FTECH": "JTWC", "FCST_DTG": "2026-08-14 12:00:00", "RUN_DTG": "2026-08-15 06:26:29", "BASIN": "WP", "STMNR": 16, "CAT_ID": null, "CAT_DESC": null, "MSGID": "WTPN51 PGTW 141500", "VALIDTIME": "2026-08-13 00:00:00" }, "geometry": { "type": "Point", "coordinates": [ 148.199997, 26.5 ] } },
{ "type": "Feature", "properties": { "ID": 58237, "LAT": 27.8, "LON": 149.9, "VMAX": 35.0, "MSLP": 998.0, "RMAX": 25.0, "FSPD": 5.1059, "FDIR": 78.37469, "RENV": 220.0, "PENV": 1004.0, "VALIDT": 0, "DTG": "2026-08-13 06:00", "LATNOW": 28.3, "LONNOW": 154.5, "WINDNOW": 25.0, "DIRNOW": 4.0, "SPDNOW": 6.0, "TECH": "TRAK", "ADVNR": 9, "ATCFID": "WP162026", "NAME": "NANGKA", "FTECH": "JTWC", "FCST_DTG": "2026-08-14 12:00:00", "RUN_DTG": "2026-08-15 06:26:29", "BASIN": "WP", "STMNR": 16, "CAT_ID": null, "CAT_DESC": null, "MSGID": "WTPN51 PGTW 141500", "VALIDTIME": "2026-08-13 06:00:00" }, "geometry": { "type": "Point", "coordinates": [ 149.899994, 27.799999 ] } },
{ "type": "Feature", "properties": { "ID": 58238, "LAT": 28.0, "LON": 151.0, "VMAX": 35.0, "MSLP": 995.0, "RMAX": 25.0, "FSPD": 6.53513, "FDIR": 76.34006, "RENV": 190.0, "PENV": 1002.0, "VALIDT": 0, "DTG": "2026-08-13 12:00", "LATNOW": 28.3, "LONNOW": 154.5, "WINDNOW": 25.0, "DIRNOW": 4.0, "SPDNOW": 6.0, "TECH": "TRAK", "ADVNR": 9, "ATCFID": "WP162026", "NAME": "NANGKA", "FTECH": "JTWC", "FCST_DTG": "2026-08-14 12:00:00", "RUN_DTG": "2026-08-15 06:26:29", "BASIN": "WP", "STMNR": 16, "CAT_ID": null, "CAT_DESC": null, "MSGID": "WTPN51 PGTW 141500", "VALIDTIME": "2026-08-13 12:00:00" }, "geometry": { "type": "Point", "coordinates": [ 151.0, 28.0 ] } },
{ "type": "Feature", "properties": { "ID": 58239, "LAT": 28.3, "LON": 152.4, "VMAX": 35.0, "MSLP": 995.0, "RMAX": 30.0, "FSPD": 4.6408, "FDIR": 77.19073, "RENV": 170.0, "PENV": 1002.0, "VALIDT": 0, "DTG": "2026-08-13 18:00", "LATNOW": 28.3, "LONNOW": 154.5, "WINDNOW": 25.0, "DIRNOW": 4.0, "SPDNOW": 6.0, "TECH": "TRAK", "ADVNR": 9, "ATCFID": "WP162026", "NAME": "NANGKA", "FTECH": "JTWC", "FCST_DTG": "2026-08-14 12:00:00", "RUN_DTG": "2026-08-15 06:26:29", "BASIN": "WP", "STMNR": 16, "CAT_ID": null, "CAT_DESC": null, "MSGID": "WTPN51 PGTW 141500", "VALIDTIME": "2026-08-13 18:00:00" }, "geometry": { "type": "Point", "coordinates": [ 152.399994, 28.299999 ] } },
{ "type": "Feature", "properties": { "ID": 58240, "LAT": 28.5, "LON": 153.4, "VMAX": 30.0, "MSLP": 995.0, "RMAX": 30.0, "FSPD": 1.45121, "FDIR": 110.76248, "RENV": 200.0, "PENV": 1003.0, "VALIDT": 0, "DTG": "2026-08-14 00:00", "LATNOW": 28.3, "LONNOW": 154.5, "WINDNOW": 25.0, "DIRNOW": 4.0, "SPDNOW": 6.0, "TECH": "TRAK", "ADVNR": 9, "ATCFID": "WP162026", "NAME": "NANGKA", "FTECH": "JTWC", "FCST_DTG": "2026-08-14 12:00:00", "RUN_DTG": "2026-08-15 06:26:29", "BASIN": "WP", "STMNR": 16, "CAT_ID": null, "CAT_DESC": null, "MSGID": "WTPN51 PGTW 141500", "VALIDTIME": "2026-08-14 00:00:00" }, "geometry": { "type": "Point", "coordinates": [ 153.399994, 28.5 ] } },
{ "type": "Feature", "properties": { "ID": 58241, "LAT": 28.4, "LON": 153.7, "VMAX": 30.0, "MSLP": 997.0, "RMAX": 40.0, "FSPD": 3.65832, "FDIR": 98.08389, "RENV": 200.0, "PENV": 1004.0, "VALIDT": 0, "DTG": "2026-08-14 06:00", "LATNOW": 28.3, "LONNOW": 154.5, "WINDNOW": 25.0, "DIRNOW": 4.0, "SPDNOW": 6.0, "TECH": "TRAK", "ADVNR": 9, "ATCFID": "WP162026", "NAME": "NANGKA", "FTECH": "JTWC", "FCST_DTG": "2026-08-14 12:00:00", "RUN_DTG": "2026-08-15 06:26:29", "BASIN": "WP", "STMNR": 16, "CAT_ID": null, "CAT_DESC": null, "MSGID": "WTPN51 PGTW 141500", "VALIDTIME": "2026-08-14 06:00:00" }, "geometry": { "type": "Point", "coordinates": [ 153.699997, 28.4 ] } },
{ "type": "Feature", "properties": { "ID": 58242, "LAT": 28.3, "LON": 154.5, "VMAX": 25.0, "MSLP": 997.0, "RMAX": 40.0, "FSPD": 3.86051, "FDIR": 93.82028, "RENV": 175.0, "PENV": 1002.0, "VALIDT": 0, "DTG": "2026-08-14 12:00", "LATNOW": 28.3, "LONNOW": 154.5, "WINDNOW": 25.0, "DIRNOW": 4.0, "SPDNOW": 6.0, "TECH": "TRAK", "ADVNR": 9, "ATCFID": "WP162026", "NAME": "NANGKA", "FTECH": "JTWC", "FCST_DTG": "2026-08-14 12:00:00", "RUN_DTG": "2026-08-15 06:26:29", "BASIN": "WP", "STMNR": 16, "CAT_ID": null, "CAT_DESC": null, "MSGID": "WTPN51 PGTW 141500", "VALIDTIME": "2026-08-14 12:00:00" }, "geometry": { "type": "Point", "coordinates": [ 154.5, 28.299999 ] } },
{ "type": "Feature", "properties": { "ID": 58243, "LAT": 28.2, "LON": 156.2, "VMAX": 20.0, "MSLP": 1012.95825, "RMAX": 49.81458, "FSPD": 4.59273, "FDIR": 80.32736, "RENV": 250.0, "PENV": 1012.0, "VALIDT": 12, "DTG": "2026-08-15 00:00", "LATNOW": 28.3, "LONNOW": 154.5, "WINDNOW": 25.0, "DIRNOW": 4.0, "SPDNOW": 6.0, "TECH": "FCST", "ADVNR": 9, "ATCFID": "WP162026", "NAME": "NANGKA", "FTECH": "JTWC", "FCST_DTG": "2026-08-14 12:00:00", "RUN_DTG": "2026-08-15 06:26:29", "BASIN": "WP", "STMNR": 16, "CAT_ID": null, "CAT_DESC": null, "MSGID": "WTPN51 PGTW 141500", "VALIDTIME": "2026-08-15 00:00:00" }, "geometry": { "type": "Point", "coordinates": [ 156.199997, 28.200001 ] } },
{ "type": "Feature", "properties": { "ID": 58244, "LAT": 28.5, "LON": 158.2, "VMAX": 20.0, "MSLP": 1012.95825, "RMAX": 49.81458, "FSPD": 4.59273, "FDIR": 80.32736, "RENV": 250.0, "PENV": 1012.0, "VALIDT": 24, "DTG": "2026-08-15 12:00", "LATNOW": 28.3, "LONNOW": 154.5, "WINDNOW": 25.0, "DIRNOW": 4.0, "SPDNOW": 6.0, "TECH": "FCST", "ADVNR": 9, "ATCFID": "WP162026", "NAME": "NANGKA", "FTECH": "JTWC", "FCST_DTG": "2026-08-14 12:00:00", "RUN_DTG": "2026-08-15 06:26:29", "BASIN": "WP", "STMNR": 16, "CAT_ID": null, "CAT_DESC": null, "MSGID": "WTPN51 PGTW 141500", "VALIDTIME": "2026-08-15 12:00:00" }, "geometry": { "type": "Point", "coordinates": [ 158.199997, 28.5 ] } },
{ "type": "Feature", "properties": { "ID": 58242, "LAT": 28.3, "LON": 154.5, "VMAX": 25.0, "MSLP": 997.0, "RMAX": 40.0, "FSPD": 3.86051, "FDIR": 93.82028, "RENV": 175.0, "PENV": 1002.0, "VALIDT": 0, "DTG": "2026-08-14 12:00", "LATNOW": 28.3, "LONNOW": 154.5, "WINDNOW": 25.0, "DIRNOW": 4.0, "SPDNOW": 6.0, "TECH": "TRAK", "ADVNR": 9, "ATCFID": "WP162026", "NAME": "NANGKA", "FTECH": "JTWC", "FCST_DTG": "2026-08-14 12:00:00", "RUN_DTG": "2026-08-15 06:26:29", "BASIN": "WP", "STMNR": 16, "CAT_ID": null, "CAT_DESC": null, "MSGID": "WTPN51 PGTW 141500", "VALIDTIME": "2026-08-14 12:00:00" }, "geometry": { "type": "LineString", "coordinates": [ [ 137.9, 21.2 ], [ 139.2, 21.5 ], [ 140.8, 21.8 ], [ 141.9, 21.8 ], [ 143.3, 21.9 ], [ 144.8, 23.0 ], [ 146.4, 24.7 ], [ 148.2, 26.5 ], [ 149.9, 27.8 ], [ 151.0, 28.0 ], [ 152.4, 28.3 ], [ 153.4, 28.5 ], [ 153.7, 28.4 ], [ 154.5, 28.3 ] ] } },
{ "type": "Feature", "properties": { "ID": 58244, "LAT": 28.5, "LON": 158.2, "VMAX": 20.0, "MSLP": 1012.95825, "RMAX": 49.81458, "FSPD": 4.59273, "FDIR": 80.32736, "RENV": 250.0, "PENV": 1012.0, "VALIDT": 24, "DTG": "2026-08-15 12:00", "LATNOW": 28.3, "LONNOW": 154.5, "WINDNOW": 25.0, "DIRNOW": 4.0, "SPDNOW": 6.0, "TECH": "FCST", "ADVNR": 9, "ATCFID": "WP162026", "NAME": "NANGKA", "FTECH": "JTWC", "FCST_DTG": "2026-08-14 12:00:00", "RUN_DTG": "2026-08-15 06:26:29", "BASIN": "WP", "STMNR": 16, "CAT_ID": null, "CAT_DESC": null, "MSGID": "WTPN51 PGTW 141500", "VALIDTIME": "2026-08-15 12:00:00" }, "geometry": { "type": "LineString", "coordinates": [ [ 154.5, 28.3 ], [ 156.2, 28.2 ], [ 158.2, 28.5 ] ] } }
]
}
