{
"type": "FeatureCollection",
"crs": { "type": "name", "properties": { "name": "urn:ogc:def:crs:OGC:1.3:CRS84" } },
"features": [
{ "type": "Feature", "properties": { "ID": 21438, "LAT": 13.9, "LON": -104.1, "VMAX": 20.0, "MSLP": 1009.0, "RMAX": 120.0, "FSPD": 2.06229, "FDIR": 284.4452, "RENV": 180.0, "PENV": 1011.0, "VALIDT": 0, "DTG": "2026-06-05 12:00", "LATNOW": 16.7, "LONNOW": -98.6, "WINDNOW": 30.0, "DIRNOW": 4.0, "SPDNOW": 3.0, "TECH": "TRAK", "ADVNR": 10, "ATCFID": "EP022026", "NAME": "BORIS", "FTECH": "OFCL", "FCST_DTG": "2026-06-09 12:00:00", "RUN_DTG": "2026-06-10 06:25:57", "BASIN": "EP", "STMNR": 2, "CAT_ID": null, "CAT_DESC": null, "MSGID": "WTPZ22 KNHC 091444", "VALIDTIME": "2026-06-05 12:00:00" }, "geometry": { "type": "Point", "coordinates": [ -104.099998, 13.9 ] } },
{ "type": "Feature", "properties": { "ID": 21439, "LAT": 14.0, "LON": -104.5, "VMAX": 20.0, "MSLP": 1009.0, "RMAX": 120.0, "FSPD": 1.4975, "FDIR": 90.0, "RENV": 180.0, "PENV": 1011.0, "VALIDT": 0, "DTG": "2026-06-05 18:00", "LATNOW": 16.7, "LONNOW": -98.6, "WINDNOW": 30.0, "DIRNOW": 4.0, "SPDNOW": 3.0, "TECH": "TRAK", "ADVNR": 10, "ATCFID": "EP022026", "NAME": "BORIS", "FTECH": "OFCL", "FCST_DTG": "2026-06-09 12:00:00", "RUN_DTG": "2026-06-10 06:25:57", "BASIN": "EP", "STMNR": 2, "CAT_ID": null, "CAT_DESC": null, "MSGID": "WTPZ22 KNHC 091444", "VALIDTIME": "2026-06-05 18:00:00" }, "geometry": { "type": "Point", "coordinates": [ -104.5, 14.0 ] } },
{ "type": "Feature", "properties": { "ID": 21440, "LAT": 14.0, "LON": -104.2, "VMAX": 20.0, "MSLP": 1009.0, "RMAX": 120.0, "FSPD": 0.49916, "FDIR": 90.0, "RENV": 180.0, "PENV": 1011.0, "VALIDT": 0, "DTG": "2026-06-06 00:00", "LATNOW": 16.7, "LONNOW": -98.6, "WINDNOW": 30.0, "DIRNOW": 4.0, "SPDNOW": 3.0, "TECH": "TRAK", "ADVNR": 10, "ATCFID": "EP022026", "NAME": "BORIS", "FTECH": "OFCL", "FCST_DTG": "2026-06-09 12:00:00", "RUN_DTG": "2026-06-10 06:25:57", "BASIN": "EP", "STMNR": 2, "CAT_ID": null, "CAT_DESC": null, "MSGID": "WTPZ22 KNHC 091444", "VALIDTIME": "2026-06-06 00:00:00" }, "geometry": { "type": "Point", "coordinates": [ -104.199997, 14.0 ] } },
{ "type": "Feature", "properties": { "ID": 21441, "LAT": 14.0, "LON": -104.1, "VMAX": 20.0, "MSLP": 1009.0, "RMAX": 120.0, "FSPD": 4.61069, "FDIR": 102.89423, "RENV": 180.0, "PENV": 1011.0, "VALIDT": 0, "DTG": "2026-06-06 06:00", "LATNOW": 16.7, "LONNOW": -98.6, "WINDNOW": 30.0, "DIRNOW": 4.0, "SPDNOW": 3.0, "TECH": "TRAK", "ADVNR": 10, "ATCFID": "EP022026", "NAME": "BORIS", "FTECH": "OFCL", "FCST_DTG": "2026-06-09 12:00:00", "RUN_DTG": "2026-06-10 06:25:57", "BASIN": "EP", "STMNR": 2, "CAT_ID": null, "CAT_DESC": null, "MSGID": "WTPZ22 KNHC 091444", "VALIDTIME": "2026-06-06 06:00:00" }, "geometry": { "type": "Point", "coordinates": [ -104.099998, 14.0 ] } },
{ "type": "Feature", "properties": { "ID": 21442, "LAT": 13.8, "LON": -103.2, "VMAX": 20.0, "MSLP": 1008.0, "RMAX": 120.0, "FSPD": 6.51768, "FDIR": 66.75565, "RENV": 180.0, "PENV": 1010.0, "VALIDT": 0, "DTG": "2026-06-06 12:00", "LATNOW": 16.7, "LONNOW": -98.6, "WINDNOW": 30.0, "DIRNOW": 4.0, "SPDNOW": 3.0, "TECH": "TRAK", "ADVNR": 10, "ATCFID": "EP022026", "NAME": "BORIS", "FTECH": "OFCL", "FCST_DTG": "2026-06-09 12:00:00", "RUN_DTG": "2026-06-10 06:25:57", "BASIN": "EP", "STMNR": 2, "CAT_ID": null, "CAT_DESC": null, "MSGID": "WTPZ22 KNHC 091444", "VALIDTIME": "2026-06-06 12:00:00" }, "geometry": { "type": "Point", "coordinates": [ -103.199997, 13.8 ] } },
{ "type": "Feature", "properties": { "ID": 21443, "LAT": 14.3, "LON": -102.0, "VMAX": 20.0, "MSLP": 1008.0, "RMAX": 120.0, "FSPD": 3.16178, "FDIR": 71.00931, "RENV": 180.0, "PENV": 1010.0, "VALIDT": 0, "DTG": "2026-06-06 18:00", "LATNOW": 16.7, "LONNOW": -98.6, "WINDNOW": 30.0, "DIRNOW": 4.0, "SPDNOW": 3.0, "TECH": "TRAK", "ADVNR": 10, "ATCFID": "EP022026", "NAME": "BORIS", "FTECH": "OFCL", "FCST_DTG": "2026-06-09 12:00:00", "RUN_DTG": "2026-06-10 06:25:57", "BASIN": "EP", "STMNR": 2, "CAT_ID": null, "CAT_DESC": null, "MSGID": "WTPZ22 KNHC 091444", "VALIDTIME": "2026-06-06 18:00:00" }, "geometry": { "type": "Point", "coordinates": [ -102.0, 14.3 ] } },
{ "type": "Feature", "properties": { "ID": 21444, "LAT": 14.5, "LON": -101.4, "VMAX": 25.0, "MSLP": 1007.0, "RMAX": 100.0, "FSPD": 4.04568, "FDIR": 59.42706, "RENV": 180.0, "PENV": 1010.0, "VALIDT": 0, "DTG": "2026-06-07 00:00", "LATNOW": 16.7, "LONNOW": -98.6, "WINDNOW": 30.0, "DIRNOW": 4.0, "SPDNOW": 3.0, "TECH": "TRAK", "ADVNR": 10, "ATCFID": "EP022026", "NAME": "BORIS", "FTECH": "OFCL", "FCST_DTG": "2026-06-09 12:00:00", "RUN_DTG": "2026-06-10 06:25:57", "BASIN": "EP", "STMNR": 2, "CAT_ID": null, "CAT_DESC": null, "MSGID": "WTPZ22 KNHC 091444", "VALIDTIME": "2026-06-07 00:00:00" }, "geometry": { "type": "Point", "coordinates": [ -101.400002, 14.5 ] } },
{ "type": "Feature", "properties": { "ID": 21445, "LAT": 14.9, "LON": -100.7, "VMAX": 20.0, "MSLP": 1007.0, "RMAX": 90.0, "FSPD": 4.32417, "FDIR": 53.49826, "RENV": 180.0, "PENV": 1009.0, "VALIDT": 0, "DTG": "2026-06-07 06:00", "LATNOW": 16.7, "LONNOW": -98.6, "WINDNOW": 30.0, "DIRNOW": 4.0, "SPDNOW": 3.0, "TECH": "TRAK", "ADVNR": 10, "ATCFID": "EP022026", "NAME": "BORIS", "FTECH": "OFCL", "FCST_DTG": "2026-06-09 12:00:00", "RUN_DTG": "2026-06-10 06:25:57", "BASIN": "EP", "STMNR": 2, "CAT_ID": null, "CAT_DESC": null, "MSGID": "WTPZ22 KNHC 091444", "VALIDTIME": "2026-06-07 06:00:00" }, "geometry": { "type": "Point", "coordinates": [ -100.699997, 14.9 ] } },
{ "type": "Feature", "properties": { "ID": 21446, "LAT": 15.4, "LON": -100.0, "VMAX": 30.0, "MSLP": 1005.0, "RMAX": 90.0, "FSPD": 1.02889, "FDIR": 360.0, "RENV": 300.0, "PENV": 1008.0, "VALIDT": 0, "DTG": "2026-06-07 12:00", "LATNOW": 16.7, "LONNOW": -98.6, "WINDNOW": 30.0, "DIRNOW": 4.0, "SPDNOW": 3.0, "TECH": "TRAK", "ADVNR": 10, "ATCFID": "EP022026", "NAME": "BORIS", "FTECH": "OFCL", "FCST_DTG": "2026-06-09 12:00:00", "RUN_DTG": "2026-06-10 06:25:57", "BASIN": "EP", "STMNR": 2, "CAT_ID": null, "CAT_DESC": null, "MSGID": "WTPZ22 KNHC 091444", "VALIDTIME": "2026-06-07 12:00:00" }, "geometry": { "type": "Point", "coordinates": [ -100.0, 15.4 ] } },
{ "type": "Feature", "properties": { "ID": 21447, "LAT": 15.6, "LON": -100.0, "VMAX": 30.0, "MSLP": 1005.0, "RMAX": 80.0, "FSPD": 2.92039, "FDIR": 121.90201, "RENV": 220.0, "PENV": 1008.0, "VALIDT": 0, "DTG": "2026-06-07 18:00", "LATNOW": 16.7, "LONNOW": -98.6, "WINDNOW": 30.0, "DIRNOW": 4.0, "SPDNOW": 3.0, "TECH": "TRAK", "ADVNR": 10, "ATCFID": "EP022026", "NAME": "BORIS", "FTECH": "OFCL", "FCST_DTG": "2026-06-09 12:00:00", "RUN_DTG": "2026-06-10 06:25:57", "BASIN": "EP", "STMNR": 2, "CAT_ID": null, "CAT_DESC": null, "MSGID": "WTPZ22 KNHC 091444", "VALIDTIME": "2026-06-07 18:00:00" }, "geometry": { "type": "Point", "coordinates": [ -100.0, 15.6 ] } },
{ "type": "Feature", "properties": { "ID": 21448, "LAT": 15.3, "LON": -99.5, "VMAX": 30.0, "MSLP": 1003.0, "RMAX": 80.0, "FSPD": 2.28417, "FDIR": 25.72516, "RENV": 230.0, "PENV": 1008.0, "VALIDT": 0, "DTG": "2026-06-08 00:00", "LATNOW": 16.7, "LONNOW": -98.6, "WINDNOW": 30.0, "DIRNOW": 4.0, "SPDNOW": 3.0, "TECH": "TRAK", "ADVNR": 10, "ATCFID": "EP022026", "NAME": "BORIS", "FTECH": "OFCL", "FCST_DTG": "2026-06-09 12:00:00", "RUN_DTG": "2026-06-10 06:25:57", "BASIN": "EP", "STMNR": 2, "CAT_ID": null, "CAT_DESC": null, "MSGID": "WTPZ22 KNHC 091444", "VALIDTIME": "2026-06-08 00:00:00" }, "geometry": { "type": "Point", "coordinates": [ -99.5, 15.3 ] } },
{ "type": "Feature", "properties": { "ID": 21449, "LAT": 15.7, "LON": -99.3, "VMAX": 30.0, "MSLP": 1003.0, "RMAX": 80.0, "FSPD": 2.28418, "FDIR": 154.27396, "RENV": 230.0, "PENV": 1008.0, "VALIDT": 0, "DTG": "2026-06-08 06:00", "LATNOW": 16.7, "LONNOW": -98.6, "WINDNOW": 30.0, "DIRNOW": 4.0, "SPDNOW": 3.0, "TECH": "TRAK", "ADVNR": 10, "ATCFID": "EP022026", "NAME": "BORIS", "FTECH": "OFCL", "FCST_DTG": "2026-06-09 12:00:00", "RUN_DTG": "2026-06-10 06:25:57", "BASIN": "EP", "STMNR": 2, "CAT_ID": null, "CAT_DESC": null, "MSGID": "WTPZ22 KNHC 091444", "VALIDTIME": "2026-06-08 06:00:00" }, "geometry": { "type": "Point", "coordinates": [ -99.300003, 15.7 ] } },
{ "type": "Feature", "properties": { "ID": 21450, "LAT": 15.3, "LON": -99.1, "VMAX": 40.0, "MSLP": 1001.0, "RMAX": 30.0, "FSPD": 0.51444, "FDIR": 360.0, "RENV": 230.0, "PENV": 1008.0, "VALIDT": 0, "DTG": "2026-06-08 12:00", "LATNOW": 16.7, "LONNOW": -98.6, "WINDNOW": 30.0, "DIRNOW": 4.0, "SPDNOW": 3.0, "TECH": "TRAK", "ADVNR": 10, "ATCFID": "EP022026", "NAME": "BORIS", "FTECH": "OFCL", "FCST_DTG": "2026-06-09 12:00:00", "RUN_DTG": "2026-06-10 06:25:57", "BASIN": "EP", "STMNR": 2, "CAT_ID": null, "CAT_DESC": null, "MSGID": "WTPZ22 KNHC 091444", "VALIDTIME": "2026-06-08 12:00:00" }, "geometry": { "type": "Point", "coordinates": [ -99.099998, 15.3 ] } },
{ "type": "Feature", "properties": { "ID": 21451, "LAT": 15.4, "LON": -99.1, "VMAX": 40.0, "MSLP": 1001.0, "RMAX": 30.0, "FSPD": 4.46623, "FDIR": 62.56497, "RENV": 180.0, "PENV": 1009.0, "VALIDT": 0, "DTG": "2026-06-08 18:00", "LATNOW": 16.7, "LONNOW": -98.6, "WINDNOW": 30.0, "DIRNOW": 4.0, "SPDNOW": 3.0, "TECH": "TRAK", "ADVNR": 10, "ATCFID": "EP022026", "NAME": "BORIS", "FTECH": "OFCL", "FCST_DTG": "2026-06-09 12:00:00", "RUN_DTG": "2026-06-10 06:25:57", "BASIN": "EP", "STMNR": 2, "CAT_ID": null, "CAT_DESC": null, "MSGID": "WTPZ22 KNHC 091444", "VALIDTIME": "2026-06-08 18:00:00" }, "geometry": { "type": "Point", "coordinates": [ -99.099998, 15.4 ] } },
{ "type": "Feature", "properties": { "ID": 21452, "LAT": 15.8, "LON": -98.3, "VMAX": 40.0, "MSLP": 1001.0, "RMAX": 30.0, "FSPD": 2.05778, "FDIR": 360.0, "RENV": 100.0, "PENV": 1008.0, "VALIDT": 0, "DTG": "2026-06-09 00:00", "LATNOW": 16.7, "LONNOW": -98.6, "WINDNOW": 30.0, "DIRNOW": 4.0, "SPDNOW": 3.0, "TECH": "TRAK", "ADVNR": 10, "ATCFID": "EP022026", "NAME": "BORIS", "FTECH": "OFCL", "FCST_DTG": "2026-06-09 12:00:00", "RUN_DTG": "2026-06-10 06:25:57", "BASIN": "EP", "STMNR": 2, "CAT_ID": null, "CAT_DESC": null, "MSGID": "WTPZ22 KNHC 091444", "VALIDTIME": "2026-06-09 00:00:00" }, "geometry": { "type": "Point", "coordinates": [ -98.300003, 15.8 ] } },
{ "type": "Feature", "properties": { "ID": 21453, "LAT": 16.2, "LON": -98.3, "VMAX": 35.0, "MSLP": 1003.0, "RMAX": 30.0, "FSPD": 2.96824, "FDIR": 330.06418, "RENV": 120.0, "PENV": 1008.0, "VALIDT": 0, "DTG": "2026-06-09 06:00", "LATNOW": 16.7, "LONNOW": -98.6, "WINDNOW": 30.0, "DIRNOW": 4.0, "SPDNOW": 3.0, "TECH": "TRAK", "ADVNR": 10, "ATCFID": "EP022026", "NAME": "BORIS", "FTECH": "OFCL", "FCST_DTG": "2026-06-09 12:00:00", "RUN_DTG": "2026-06-10 06:25:57", "BASIN": "EP", "STMNR": 2, "CAT_ID": null, "CAT_DESC": null, "MSGID": "WTPZ22 KNHC 091444", "VALIDTIME": "2026-06-09 06:00:00" }, "geometry": { "type": "Point", "coordinates": [ -98.300003, 16.200001 ] } },
{ "type": "Feature", "properties": { "ID": 21454, "LAT": 16.4, "LON": -98.42, "VMAX": 35.0, "MSLP": 1003.0, "RMAX": 30.0, "FSPD": 2.96731, "FDIR": 330.09482, "RENV": 120.0, "PENV": 1008.0, "VALIDT": 0, "DTG": "2026-06-09 08:00", "LATNOW": 16.7, "LONNOW": -98.6, "WINDNOW": 30.0, "DIRNOW": 4.0, "SPDNOW": 3.0, "TECH": "TRAK", "ADVNR": 10, "ATCFID": "EP022026", "NAME": "BORIS", "FTECH": "OFCL", "FCST_DTG": "2026-06-09 12:00:00", "RUN_DTG": "2026-06-10 06:25:57", "BASIN": "EP", "STMNR": 2, "CAT_ID": null, "CAT_DESC": null, "MSGID": "WTPZ22 KNHC 091444", "VALIDTIME": "2026-06-09 08:00:00" }, "geometry": { "type": "Point", "coordinates": [ -98.419998, 16.400002 ] } },
{ "type": "Feature", "properties": { "ID": 21455, "LAT": 16.7, "LON": -98.6, "VMAX": 30.0, "MSLP": 1003.0, "RMAX": 40.0, "FSPD": 3.60086, "FDIR": 304.85248, "RENV": 120.0, "PENV": 1007.0, "VALIDT": 0, "DTG": "2026-06-09 12:00", "LATNOW": 16.7, "LONNOW": -98.6, "WINDNOW": 30.0, "DIRNOW": 4.0, "SPDNOW": 3.0, "TECH": "TRAK", "ADVNR": 10, "ATCFID": "EP022026", "NAME": "BORIS", "FTECH": "OFCL", "FCST_DTG": "2026-06-09 12:00:00", "RUN_DTG": "2026-06-10 06:25:57", "BASIN": "EP", "STMNR": 2, "CAT_ID": null, "CAT_DESC": null, "MSGID": "WTPZ22 KNHC 091444", "VALIDTIME": "2026-06-09 12:00:00" }, "geometry": { "type": "Point", "coordinates": [ -98.599998, 16.700001 ] } },
{ "type": "Feature", "properties": { "ID": 21456, "LAT": 16.9, "LON": -98.9, "VMAX": 25.0, "MSLP": 1004.0, "RMAX": 40.56368, "FSPD": 2.95955, "FDIR": 297.61533, "RENV": 250.0, "PENV": 1012.0, "VALIDT": 3, "DTG": "2026-06-09 15:00", "LATNOW": 16.7, "LONNOW": -98.6, "WINDNOW": 30.0, "DIRNOW": 4.0, "SPDNOW": 3.0, "TECH": "FCST", "ADVNR": 10, "ATCFID": "EP022026", "NAME": "BORIS", "FTECH": "OFCL", "FCST_DTG": "2026-06-09 12:00:00", "RUN_DTG": "2026-06-10 06:25:57", "BASIN": "EP", "STMNR": 2, "CAT_ID": null, "CAT_DESC": null, "MSGID": "WTPZ22 KNHC 091444", "VALIDTIME": "2026-06-09 15:00:00" }, "geometry": { "type": "Point", "coordinates": [ -98.900002, 16.9 ] } },
{ "type": "Feature", "properties": { "ID": 21457, "LAT": 17.3, "LON": -99.7, "VMAX": 20.0, "MSLP": 1012.95825, "RMAX": 46.19074, "FSPD": 2.95955, "FDIR": 297.61533, "RENV": 250.0, "PENV": 1012.0, "VALIDT": 12, "DTG": "2026-06-10 00:00", "LATNOW": 16.7, "LONNOW": -98.6, "WINDNOW": 30.0, "DIRNOW": 4.0, "SPDNOW": 3.0, "TECH": "FCST", "ADVNR": 10, "ATCFID": "EP022026", "NAME": "BORIS", "FTECH": "OFCL", "FCST_DTG": "2026-06-09 12:00:00", "RUN_DTG": "2026-06-10 06:25:57", "BASIN": "EP", "STMNR": 2, "CAT_ID": null, "CAT_DESC": null, "MSGID": "WTPZ22 KNHC 091444", "VALIDTIME": "2026-06-10 00:00:00" }, "geometry": { "type": "Point", "coordinates": [ -99.699997, 17.299999 ] } },
{ "type": "Feature", "properties": { "ID": 21455, "LAT": 16.7, "LON": -98.6, "VMAX": 30.0, "MSLP": 1003.0, "RMAX": 40.0, "FSPD": 3.60086, "FDIR": 304.85248, "RENV": 120.0, "PENV": 1007.0, "VALIDT": 0, "DTG": "2026-06-09 12:00", "LATNOW": 16.7, "LONNOW": -98.6, "WINDNOW": 30.0, "DIRNOW": 4.0, "SPDNOW": 3.0, "TECH": "TRAK", "ADVNR": 10, "ATCFID": "EP022026", "NAME": "BORIS", "FTECH": "OFCL", "FCST_DTG": "2026-06-09 12:00:00", "RUN_DTG": "2026-06-10 06:25:57", "BASIN": "EP", "STMNR": 2, "CAT_ID": null, "CAT_DESC": null, "MSGID": "WTPZ22 KNHC 091444", "VALIDTIME": "2026-06-09 12:00:00" }, "geometry": { "type": "LineString", "coordinates": [ [ -104.1, 13.9 ], [ -104.5, 14.0 ], [ -104.2, 14.0 ], [ -104.1, 14.0 ], [ -103.2, 13.8 ], [ -102.0, 14.3 ], [ -101.4, 14.5 ], [ -100.7, 14.9 ], [ -100.0, 15.4 ], [ -100.0, 15.6 ], [ -99.5, 15.3 ], [ -99.3, 15.7 ], [ -99.1, 15.3 ], [ -99.1, 15.4 ], [ -98.3, 15.8 ], [ -98.3, 16.2 ], [ -98.42, 16.4 ], [ -98.6, 16.7 ] ] } },
{ "type": "Feature", "properties": { "ID": 21457, "LAT": 17.3, "LON": -99.7, "VMAX": 20.0, "MSLP": 1012.95825, "RMAX": 46.19074, "FSPD": 2.95955, "FDIR": 297.61533, "RENV": 250.0, "PENV": 1012.0, "VALIDT": 12, "DTG": "2026-06-10 00:00", "LATNOW": 16.7, "LONNOW": -98.6, "WINDNOW": 30.0, "DIRNOW": 4.0, "SPDNOW": 3.0, "TECH": "FCST", "ADVNR": 10, "ATCFID": "EP022026", "NAME": "BORIS", "FTECH": "OFCL", "FCST_DTG": "2026-06-09 12:00:00", "RUN_DTG": "2026-06-10 06:25:57", "BASIN": "EP", "STMNR": 2, "CAT_ID": null, "CAT_DESC": null, "MSGID": "WTPZ22 KNHC 091444", "VALIDTIME": "2026-06-10 00:00:00" }, "geometry": { "type": "LineString", "coordinates": [ [ -98.6, 16.7 ], [ -98.9, 16.9 ], [ -99.7, 17.3 ] ] } }
]
}
