{
"type": "FeatureCollection",
"crs": { "type": "name", "properties": { "name": "urn:ogc:def:crs:OGC:1.3:CRS84" } },
"features": [
{ "type": "Feature", "properties": { "ID": 54802, "LAT": 18.5, "LON": 142.2, "VMAX": 15.0, "MSLP": 1013.8515, "RMAX": 40.0, "FSPD": 2.49226, "FDIR": 78.08749, "RENV": 500.0, "PENV": 1012.0, "VALIDT": 0, "DTG": "2026-08-06 12:00", "LATNOW": 28.4, "LONNOW": 160.8, "WINDNOW": 25.0, "DIRNOW": 3.0, "SPDNOW": 2.0, "TECH": "TRAK", "ADVNR": 5, "ATCFID": "WP152026", "NAME": "FIFTEEN", "FTECH": "JTWC", "FCST_DTG": "2026-08-11 00:00:00", "RUN_DTG": "2026-08-11 14:52:16", "BASIN": "WP", "STMNR": 15, "CAT_ID": null, "CAT_DESC": null, "MSGID": "WTPN54 PGTW 110300", "VALIDTIME": "2026-08-06 12:00:00" }, "geometry": { "type": "Point", "coordinates": [ 142.199997, 18.5 ] } },
{ "type": "Feature", "properties": { "ID": 54803, "LAT": 18.6, "LON": 142.7, "VMAX": 15.0, "MSLP": 1013.8515, "RMAX": 40.0, "FSPD": 2.49086, "FDIR": 78.08069, "RENV": 500.0, "PENV": 1012.0, "VALIDT": 0, "DTG": "2026-08-06 18:00", "LATNOW": 28.4, "LONNOW": 160.8, "WINDNOW": 25.0, "DIRNOW": 3.0, "SPDNOW": 2.0, "TECH": "TRAK", "ADVNR": 5, "ATCFID": "WP152026", "NAME": "FIFTEEN", "FTECH": "JTWC", "FCST_DTG": "2026-08-11 00:00:00", "RUN_DTG": "2026-08-11 14:52:16", "BASIN": "WP", "STMNR": 15, "CAT_ID": null, "CAT_DESC": null, "MSGID": "WTPN54 PGTW 110300", "VALIDTIME": "2026-08-06 18:00:00" }, "geometry": { "type": "Point", "coordinates": [ 142.699997, 18.6 ] } },
{ "type": "Feature", "properties": { "ID": 54804, "LAT": 18.7, "LON": 143.2, "VMAX": 15.0, "MSLP": 1013.8515, "RMAX": 40.0, "FSPD": 4.50217, "FDIR": 76.78943, "RENV": 500.0, "PENV": 1012.0, "VALIDT": 0, "DTG": "2026-08-07 00:00", "LATNOW": 28.4, "LONNOW": 160.8, "WINDNOW": 25.0, "DIRNOW": 3.0, "SPDNOW": 2.0, "TECH": "TRAK", "ADVNR": 5, "ATCFID": "WP152026", "NAME": "FIFTEEN", "FTECH": "JTWC", "FCST_DTG": "2026-08-11 00:00:00", "RUN_DTG": "2026-08-11 14:52:16", "BASIN": "WP", "STMNR": 15, "CAT_ID": null, "CAT_DESC": null, "MSGID": "WTPN54 PGTW 110300", "VALIDTIME": "2026-08-07 00:00:00" }, "geometry": { "type": "Point", "coordinates": [ 143.199997, 18.700001 ] } },
{ "type": "Feature", "properties": { "ID": 54805, "LAT": 18.9, "LON": 144.1, "VMAX": 15.0, "MSLP": 1013.8515, "RMAX": 40.0, "FSPD": 5.37681, "FDIR": 84.50961, "RENV": 500.0, "PENV": 1012.0, "VALIDT": 0, "DTG": "2026-08-07 06:00", "LATNOW": 28.4, "LONNOW": 160.8, "WINDNOW": 25.0, "DIRNOW": 3.0, "SPDNOW": 2.0, "TECH": "TRAK", "ADVNR": 5, "ATCFID": "WP152026", "NAME": "FIFTEEN", "FTECH": "JTWC", "FCST_DTG": "2026-08-11 00:00:00", "RUN_DTG": "2026-08-11 14:52:16", "BASIN": "WP", "STMNR": 15, "CAT_ID": null, "CAT_DESC": null, "MSGID": "WTPN54 PGTW 110300", "VALIDTIME": "2026-08-07 06:00:00" }, "geometry": { "type": "Point", "coordinates": [ 144.100006, 18.9 ] } },
{ "type": "Feature", "properties": { "ID": 54806, "LAT": 19.0, "LON": 145.2, "VMAX": 20.0, "MSLP": 1012.95825, "RMAX": 45.0, "FSPD": 5.83699, "FDIR": 90.0, "RENV": 500.0, "PENV": 1012.0, "VALIDT": 0, "DTG": "2026-08-07 12:00", "LATNOW": 28.4, "LONNOW": 160.8, "WINDNOW": 25.0, "DIRNOW": 3.0, "SPDNOW": 2.0, "TECH": "TRAK", "ADVNR": 5, "ATCFID": "WP152026", "NAME": "FIFTEEN", "FTECH": "JTWC", "FCST_DTG": "2026-08-11 00:00:00", "RUN_DTG": "2026-08-11 14:52:16", "BASIN": "WP", "STMNR": 15, "CAT_ID": null, "CAT_DESC": null, "MSGID": "WTPN54 PGTW 110300", "VALIDTIME": "2026-08-07 12:00:00" }, "geometry": { "type": "Point", "coordinates": [ 145.199997, 19.0 ] } },
{ "type": "Feature", "properties": { "ID": 54807, "LAT": 19.0, "LON": 146.4, "VMAX": 25.0, "MSLP": 1011.80975, "RMAX": 45.0, "FSPD": 7.7827, "FDIR": 90.0, "RENV": 500.0, "PENV": 1012.0, "VALIDT": 0, "DTG": "2026-08-07 18:00", "LATNOW": 28.4, "LONNOW": 160.8, "WINDNOW": 25.0, "DIRNOW": 3.0, "SPDNOW": 2.0, "TECH": "TRAK", "ADVNR": 5, "ATCFID": "WP152026", "NAME": "FIFTEEN", "FTECH": "JTWC", "FCST_DTG": "2026-08-11 00:00:00", "RUN_DTG": "2026-08-11 14:52:16", "BASIN": "WP", "STMNR": 15, "CAT_ID": null, "CAT_DESC": null, "MSGID": "WTPN54 PGTW 110300", "VALIDTIME": "2026-08-07 18:00:00" }, "geometry": { "type": "Point", "coordinates": [ 146.399994, 19.0 ] } },
{ "type": "Feature", "properties": { "ID": 54808, "LAT": 19.0, "LON": 148.0, "VMAX": 25.0, "MSLP": 1011.80975, "RMAX": 45.0, "FSPD": 12.52464, "FDIR": 75.7326, "RENV": 500.0, "PENV": 1012.0, "VALIDT": 0, "DTG": "2026-08-08 00:00", "LATNOW": 28.4, "LONNOW": 160.8, "WINDNOW": 25.0, "DIRNOW": 3.0, "SPDNOW": 2.0, "TECH": "TRAK", "ADVNR": 5, "ATCFID": "WP152026", "NAME": "FIFTEEN", "FTECH": "JTWC", "FCST_DTG": "2026-08-11 00:00:00", "RUN_DTG": "2026-08-11 14:52:16", "BASIN": "WP", "STMNR": 15, "CAT_ID": null, "CAT_DESC": null, "MSGID": "WTPN54 PGTW 110300", "VALIDTIME": "2026-08-08 00:00:00" }, "geometry": { "type": "Point", "coordinates": [ 148.0, 19.0 ] } },
{ "type": "Feature", "properties": { "ID": 54809, "LAT": 19.6, "LON": 150.5, "VMAX": 25.0, "MSLP": 1011.80975, "RMAX": 45.0, "FSPD": 12.03805, "FDIR": 61.96027, "RENV": 500.0, "PENV": 1012.0, "VALIDT": 0, "DTG": "2026-08-08 06:00", "LATNOW": 28.4, "LONNOW": 160.8, "WINDNOW": 25.0, "DIRNOW": 3.0, "SPDNOW": 2.0, "TECH": "TRAK", "ADVNR": 5, "ATCFID": "WP152026", "NAME": "FIFTEEN", "FTECH": "JTWC", "FCST_DTG": "2026-08-11 00:00:00", "RUN_DTG": "2026-08-11 14:52:16", "BASIN": "WP", "STMNR": 15, "CAT_ID": null, "CAT_DESC": null, "MSGID": "WTPN54 PGTW 110300", "VALIDTIME": "2026-08-08 06:00:00" }, "geometry": { "type": "Point", "coordinates": [ 150.5, 19.6 ] } },
{ "type": "Feature", "properties": { "ID": 54810, "LAT": 20.7, "LON": 152.7, "VMAX": 25.0, "MSLP": 1011.80975, "RMAX": 45.0, "FSPD": 10.88691, "FDIR": 67.78842, "RENV": 500.0, "PENV": 1012.0, "VALIDT": 0, "DTG": "2026-08-08 12:00", "LATNOW": 28.4, "LONNOW": 160.8, "WINDNOW": 25.0, "DIRNOW": 3.0, "SPDNOW": 2.0, "TECH": "TRAK", "ADVNR": 5, "ATCFID": "WP152026", "NAME": "FIFTEEN", "FTECH": "JTWC", "FCST_DTG": "2026-08-11 00:00:00", "RUN_DTG": "2026-08-11 14:52:16", "BASIN": "WP", "STMNR": 15, "CAT_ID": null, "CAT_DESC": null, "MSGID": "WTPN54 PGTW 110300", "VALIDTIME": "2026-08-08 12:00:00" }, "geometry": { "type": "Point", "coordinates": [ 152.699997, 20.700001 ] } },
{ "type": "Feature", "properties": { "ID": 54811, "LAT": 21.5, "LON": 154.8, "VMAX": 25.0, "MSLP": 1011.80975, "RMAX": 45.0, "FSPD": 9.09845, "FDIR": 63.10635, "RENV": 500.0, "PENV": 1012.0, "VALIDT": 0, "DTG": "2026-08-08 18:00", "LATNOW": 28.4, "LONNOW": 160.8, "WINDNOW": 25.0, "DIRNOW": 3.0, "SPDNOW": 2.0, "TECH": "TRAK", "ADVNR": 5, "ATCFID": "WP152026", "NAME": "FIFTEEN", "FTECH": "JTWC", "FCST_DTG": "2026-08-11 00:00:00", "RUN_DTG": "2026-08-11 14:52:16", "BASIN": "WP", "STMNR": 15, "CAT_ID": null, "CAT_DESC": null, "MSGID": "WTPN54 PGTW 110300", "VALIDTIME": "2026-08-08 18:00:00" }, "geometry": { "type": "Point", "coordinates": [ 154.800003, 21.5 ] } },
{ "type": "Feature", "properties": { "ID": 54812, "LAT": 22.3, "LON": 156.5, "VMAX": 20.0, "MSLP": 1012.95825, "RMAX": 45.0, "FSPD": 6.90281, "FDIR": 63.43829, "RENV": 500.0, "PENV": 1012.0, "VALIDT": 0, "DTG": "2026-08-09 00:00", "LATNOW": 28.4, "LONNOW": 160.8, "WINDNOW": 25.0, "DIRNOW": 3.0, "SPDNOW": 2.0, "TECH": "TRAK", "ADVNR": 5, "ATCFID": "WP152026", "NAME": "FIFTEEN", "FTECH": "JTWC", "FCST_DTG": "2026-08-11 00:00:00", "RUN_DTG": "2026-08-11 14:52:16", "BASIN": "WP", "STMNR": 15, "CAT_ID": null, "CAT_DESC": null, "MSGID": "WTPN54 PGTW 110300", "VALIDTIME": "2026-08-09 00:00:00" }, "geometry": { "type": "Point", "coordinates": [ 156.5, 22.299999 ] } },
{ "type": "Feature", "properties": { "ID": 54813, "LAT": 22.9, "LON": 157.8, "VMAX": 20.0, "MSLP": 1012.95825, "RMAX": 45.0, "FSPD": 6.04818, "FDIR": 59.31305, "RENV": 500.0, "PENV": 1012.0, "VALIDT": 0, "DTG": "2026-08-09 06:00", "LATNOW": 28.4, "LONNOW": 160.8, "WINDNOW": 25.0, "DIRNOW": 3.0, "SPDNOW": 2.0, "TECH": "TRAK", "ADVNR": 5, "ATCFID": "WP152026", "NAME": "FIFTEEN", "FTECH": "JTWC", "FCST_DTG": "2026-08-11 00:00:00", "RUN_DTG": "2026-08-11 14:52:16", "BASIN": "WP", "STMNR": 15, "CAT_ID": null, "CAT_DESC": null, "MSGID": "WTPN54 PGTW 110300", "VALIDTIME": "2026-08-09 06:00:00" }, "geometry": { "type": "Point", "coordinates": [ 157.800003, 22.9 ] } },
{ "type": "Feature", "properties": { "ID": 54814, "LAT": 23.5, "LON": 158.9, "VMAX": 20.0, "MSLP": 1012.95825, "RMAX": 45.0, "FSPD": 6.79322, "FDIR": 33.58975, "RENV": 500.0, "PENV": 1012.0, "VALIDT": 0, "DTG": "2026-08-09 12:00", "LATNOW": 28.4, "LONNOW": 160.8, "WINDNOW": 25.0, "DIRNOW": 3.0, "SPDNOW": 2.0, "TECH": "TRAK", "ADVNR": 5, "ATCFID": "WP152026", "NAME": "FIFTEEN", "FTECH": "JTWC", "FCST_DTG": "2026-08-11 00:00:00", "RUN_DTG": "2026-08-11 14:52:16", "BASIN": "WP", "STMNR": 15, "CAT_ID": null, "CAT_DESC": null, "MSGID": "WTPN54 PGTW 110300", "VALIDTIME": "2026-08-09 12:00:00" }, "geometry": { "type": "Point", "coordinates": [ 158.899994, 23.5 ] } },
{ "type": "Feature", "properties": { "ID": 54815, "LAT": 24.6, "LON": 159.7, "VMAX": 25.0, "MSLP": 1011.80975, "RMAX": 45.0, "FSPD": 5.47156, "FDIR": 19.9122, "RENV": 500.0, "PENV": 1012.0, "VALIDT": 0, "DTG": "2026-08-09 18:00", "LATNOW": 28.4, "LONNOW": 160.8, "WINDNOW": 25.0, "DIRNOW": 3.0, "SPDNOW": 2.0, "TECH": "TRAK", "ADVNR": 5, "ATCFID": "WP152026", "NAME": "FIFTEEN", "FTECH": "JTWC", "FCST_DTG": "2026-08-11 00:00:00", "RUN_DTG": "2026-08-11 14:52:16", "BASIN": "WP", "STMNR": 15, "CAT_ID": null, "CAT_DESC": null, "MSGID": "WTPN54 PGTW 110300", "VALIDTIME": "2026-08-09 18:00:00" }, "geometry": { "type": "Point", "coordinates": [ 159.699997, 24.6 ] } },
{ "type": "Feature", "properties": { "ID": 54816, "LAT": 25.6, "LON": 160.1, "VMAX": 30.0, "MSLP": 997.0, "RMAX": 45.0, "FSPD": 8.19739, "FDIR": 19.71942, "RENV": 140.0, "PENV": 1002.0, "VALIDT": 0, "DTG": "2026-08-10 00:00", "LATNOW": 28.4, "LONNOW": 160.8, "WINDNOW": 25.0, "DIRNOW": 3.0, "SPDNOW": 2.0, "TECH": "TRAK", "ADVNR": 5, "ATCFID": "WP152026", "NAME": "FIFTEEN", "FTECH": "JTWC", "FCST_DTG": "2026-08-11 00:00:00", "RUN_DTG": "2026-08-11 14:52:16", "BASIN": "WP", "STMNR": 15, "CAT_ID": null, "CAT_DESC": null, "MSGID": "WTPN54 PGTW 110300", "VALIDTIME": "2026-08-10 00:00:00" }, "geometry": { "type": "Point", "coordinates": [ 160.100006, 25.6 ] } },
{ "type": "Feature", "properties": { "ID": 54817, "LAT": 27.1, "LON": 160.7, "VMAX": 35.0, "MSLP": 997.0, "RMAX": 45.0, "FSPD": 2.10793, "FDIR": 347.47598, "RENV": 140.0, "PENV": 1002.0, "VALIDT": 0, "DTG": "2026-08-10 06:00", "LATNOW": 28.4, "LONNOW": 160.8, "WINDNOW": 25.0, "DIRNOW": 3.0, "SPDNOW": 2.0, "TECH": "TRAK", "ADVNR": 5, "ATCFID": "WP152026", "NAME": "FIFTEEN", "FTECH": "JTWC", "FCST_DTG": "2026-08-11 00:00:00", "RUN_DTG": "2026-08-11 14:52:16", "BASIN": "WP", "STMNR": 15, "CAT_ID": null, "CAT_DESC": null, "MSGID": "WTPN54 PGTW 110300", "VALIDTIME": "2026-08-10 06:00:00" }, "geometry": { "type": "Point", "coordinates": [ 160.699997, 27.1 ] } },
{ "type": "Feature", "properties": { "ID": 54818, "LAT": 27.5, "LON": 160.6, "VMAX": 30.0, "MSLP": 993.0, "RMAX": 45.0, "FSPD": 1.82531, "FDIR": 269.99997, "RENV": 135.0, "PENV": 1001.0, "VALIDT": 0, "DTG": "2026-08-10 12:00", "LATNOW": 28.4, "LONNOW": 160.8, "WINDNOW": 25.0, "DIRNOW": 3.0, "SPDNOW": 2.0, "TECH": "TRAK", "ADVNR": 5, "ATCFID": "WP152026", "NAME": "FIFTEEN", "FTECH": "JTWC", "FCST_DTG": "2026-08-11 00:00:00", "RUN_DTG": "2026-08-11 14:52:16", "BASIN": "WP", "STMNR": 15, "CAT_ID": null, "CAT_DESC": null, "MSGID": "WTPN54 PGTW 110300", "VALIDTIME": "2026-08-10 12:00:00" }, "geometry": { "type": "Point", "coordinates": [ 160.600006, 27.5 ] } },
{ "type": "Feature", "properties": { "ID": 54819, "LAT": 27.5, "LON": 160.2, "VMAX": 25.0, "MSLP": 996.0, "RMAX": 45.0, "FSPD": 5.37322, "FDIR": 30.49429, "RENV": 135.0, "PENV": 1001.0, "VALIDT": 0, "DTG": "2026-08-10 18:00", "LATNOW": 28.4, "LONNOW": 160.8, "WINDNOW": 25.0, "DIRNOW": 3.0, "SPDNOW": 2.0, "TECH": "TRAK", "ADVNR": 5, "ATCFID": "WP152026", "NAME": "FIFTEEN", "FTECH": "JTWC", "FCST_DTG": "2026-08-11 00:00:00", "RUN_DTG": "2026-08-11 14:52:16", "BASIN": "WP", "STMNR": 15, "CAT_ID": null, "CAT_DESC": null, "MSGID": "WTPN54 PGTW 110300", "VALIDTIME": "2026-08-10 18:00:00" }, "geometry": { "type": "Point", "coordinates": [ 160.199997, 27.5 ] } },
{ "type": "Feature", "properties": { "ID": 54820, "LAT": 28.4, "LON": 160.8, "VMAX": 25.0, "MSLP": 997.0, "RMAX": 45.0, "FSPD": 3.36892, "FDIR": 336.37955, "RENV": 90.0, "PENV": 1000.0, "VALIDT": 0, "DTG": "2026-08-11 00:00", "LATNOW": 28.4, "LONNOW": 160.8, "WINDNOW": 25.0, "DIRNOW": 3.0, "SPDNOW": 2.0, "TECH": "TRAK", "ADVNR": 5, "ATCFID": "WP152026", "NAME": "FIFTEEN", "FTECH": "JTWC", "FCST_DTG": "2026-08-11 00:00:00", "RUN_DTG": "2026-08-11 14:52:16", "BASIN": "WP", "STMNR": 15, "CAT_ID": null, "CAT_DESC": null, "MSGID": "WTPN54 PGTW 110300", "VALIDTIME": "2026-08-11 00:00:00" }, "geometry": { "type": "Point", "coordinates": [ 160.800003, 28.4 ] } },
{ "type": "Feature", "properties": { "ID": 54821, "LAT": 29.6, "LON": 160.2, "VMAX": 20.0, "MSLP": 1012.95825, "RMAX": 56.0414, "FSPD": 1.60648, "FDIR": 343.88275, "RENV": 250.0, "PENV": 1012.0, "VALIDT": 12, "DTG": "2026-08-11 12:00", "LATNOW": 28.4, "LONNOW": 160.8, "WINDNOW": 25.0, "DIRNOW": 3.0, "SPDNOW": 2.0, "TECH": "FCST", "ADVNR": 5, "ATCFID": "WP152026", "NAME": "FIFTEEN", "FTECH": "JTWC", "FCST_DTG": "2026-08-11 00:00:00", "RUN_DTG": "2026-08-11 14:52:16", "BASIN": "WP", "STMNR": 15, "CAT_ID": null, "CAT_DESC": null, "MSGID": "WTPN54 PGTW 110300", "VALIDTIME": "2026-08-11 12:00:00" }, "geometry": { "type": "Point", "coordinates": [ 160.199997, 29.6 ] } },
{ "type": "Feature", "properties": { "ID": 54822, "LAT": 30.2, "LON": 160.0, "VMAX": 20.0, "MSLP": 1012.95825, "RMAX": 56.0414, "FSPD": 1.60648, "FDIR": 343.88275, "RENV": 250.0, "PENV": 1012.0, "VALIDT": 24, "DTG": "2026-08-12 00:00", "LATNOW": 28.4, "LONNOW": 160.8, "WINDNOW": 25.0, "DIRNOW": 3.0, "SPDNOW": 2.0, "TECH": "FCST", "ADVNR": 5, "ATCFID": "WP152026", "NAME": "FIFTEEN", "FTECH": "JTWC", "FCST_DTG": "2026-08-11 00:00:00", "RUN_DTG": "2026-08-11 14:52:16", "BASIN": "WP", "STMNR": 15, "CAT_ID": null, "CAT_DESC": null, "MSGID": "WTPN54 PGTW 110300", "VALIDTIME": "2026-08-12 00:00:00" }, "geometry": { "type": "Point", "coordinates": [ 160.0, 30.200001 ] } },
{ "type": "Feature", "properties": { "ID": 54820, "LAT": 28.4, "LON": 160.8, "VMAX": 25.0, "MSLP": 997.0, "RMAX": 45.0, "FSPD": 3.36892, "FDIR": 336.37955, "RENV": 90.0, "PENV": 1000.0, "VALIDT": 0, "DTG": "2026-08-11 00:00", "LATNOW": 28.4, "LONNOW": 160.8, "WINDNOW": 25.0, "DIRNOW": 3.0, "SPDNOW": 2.0, "TECH": "TRAK", "ADVNR": 5, "ATCFID": "WP152026", "NAME": "FIFTEEN", "FTECH": "JTWC", "FCST_DTG": "2026-08-11 00:00:00", "RUN_DTG": "2026-08-11 14:52:16", "BASIN": "WP", "STMNR": 15, "CAT_ID": null, "CAT_DESC": null, "MSGID": "WTPN54 PGTW 110300", "VALIDTIME": "2026-08-11 00:00:00" }, "geometry": { "type": "LineString", "coordinates": [ [ 142.2, 18.5 ], [ 142.7, 18.6 ], [ 143.2, 18.7 ], [ 144.1, 18.9 ], [ 145.2, 19.0 ], [ 146.4, 19.0 ], [ 148.0, 19.0 ], [ 150.5, 19.6 ], [ 152.7, 20.7 ], [ 154.8, 21.5 ], [ 156.5, 22.3 ], [ 157.8, 22.9 ], [ 158.9, 23.5 ], [ 159.7, 24.6 ], [ 160.1, 25.6 ], [ 160.7, 27.1 ], [ 160.6, 27.5 ], [ 160.2, 27.5 ], [ 160.8, 28.4 ] ] } },
{ "type": "Feature", "properties": { "ID": 54822, "LAT": 30.2, "LON": 160.0, "VMAX": 20.0, "MSLP": 1012.95825, "RMAX": 56.0414, "FSPD": 1.60648, "FDIR": 343.88275, "RENV": 250.0, "PENV": 1012.0, "VALIDT": 24, "DTG": "2026-08-12 00:00", "LATNOW": 28.4, "LONNOW": 160.8, "WINDNOW": 25.0, "DIRNOW": 3.0, "SPDNOW": 2.0, "TECH": "FCST", "ADVNR": 5, "ATCFID": "WP152026", "NAME": "FIFTEEN", "FTECH": "JTWC", "FCST_DTG": "2026-08-11 00:00:00", "RUN_DTG": "2026-08-11 14:52:16", "BASIN": "WP", "STMNR": 15, "CAT_ID": null, "CAT_DESC": null, "MSGID": "WTPN54 PGTW 110300", "VALIDTIME": "2026-08-12 00:00:00" }, "geometry": { "type": "LineString", "coordinates": [ [ 160.8, 28.4 ], [ 160.2, 29.6 ], [ 160.0, 30.2 ] ] } }
]
}
