{
"type": "FeatureCollection",
"crs": { "type": "name", "properties": { "name": "urn:ogc:def:crs:OGC:1.3:CRS84" } },
"features": [
{ "type": "Feature", "properties": { "ID": 282527, "LAT": 19.4, "LON": -79.9, "VMAX": 70.0, "MSLP": 985.0, "RMAX": 15.0, "FSPD": 6.35346, "FDIR": 310.37344, "RENV": 130.0, "PENV": 1006.0, "VALIDT": 0, "DTG": "2024-11-06 00:00", "LATNOW": 26.2, "LONNOW": -91.5, "WINDNOW": 30.0, "DIRNOW": 2.0, "SPDNOW": 6.0, "TECH": "TRAK", "ADVNR": 30, "ATCFID": "AL182024", "NAME": "RAFAEL", "FTECH": "OFCL", "FCST_DTG": "2024-11-10 18:00:00", "RUN_DTG": "2024-11-11 09:21:34", "BASIN": "AL", "STMNR": 18, "CAT_ID": null, "CAT_DESC": null, "MSGID": "WTNT23 KNHC 102031", "VALIDTIME": "2024-11-06 00:00:00" }, "geometry": { "type": "Point", "coordinates": [ -79.900002, 19.4 ] } },
{ "type": "Feature", "properties": { "ID": 282528, "LAT": 20.2, "LON": -80.9, "VMAX": 75.0, "MSLP": 977.0, "RMAX": 10.0, "FSPD": 5.31981, "FDIR": 320.68082, "RENV": 110.0, "PENV": 1007.0, "VALIDT": 0, "DTG": "2024-11-06 06:00", "LATNOW": 26.2, "LONNOW": -91.5, "WINDNOW": 30.0, "DIRNOW": 2.0, "SPDNOW": 6.0, "TECH": "TRAK", "ADVNR": 30, "ATCFID": "AL182024", "NAME": "RAFAEL", "FTECH": "OFCL", "FCST_DTG": "2024-11-10 18:00:00", "RUN_DTG": "2024-11-11 09:21:34", "BASIN": "AL", "STMNR": 18, "CAT_ID": null, "CAT_DESC": null, "MSGID": "WTNT23 KNHC 102031", "VALIDTIME": "2024-11-06 06:00:00" }, "geometry": { "type": "Point", "coordinates": [ -80.900002, 20.200001 ] } },
{ "type": "Feature", "properties": { "ID": 282529, "LAT": 21.0, "LON": -81.6, "VMAX": 90.0, "MSLP": 964.0, "RMAX": 10.0, "FSPD": 6.13934, "FDIR": 326.92392, "RENV": 120.0, "PENV": 1008.0, "VALIDT": 0, "DTG": "2024-11-06 12:00", "LATNOW": 26.2, "LONNOW": -91.5, "WINDNOW": 30.0, "DIRNOW": 2.0, "SPDNOW": 6.0, "TECH": "TRAK", "ADVNR": 30, "ATCFID": "AL182024", "NAME": "RAFAEL", "FTECH": "OFCL", "FCST_DTG": "2024-11-10 18:00:00", "RUN_DTG": "2024-11-11 09:21:34", "BASIN": "AL", "STMNR": 18, "CAT_ID": null, "CAT_DESC": null, "MSGID": "WTNT23 KNHC 102031", "VALIDTIME": "2024-11-06 12:00:00" }, "geometry": { "type": "Point", "coordinates": [ -81.599998, 21.0 ] } },
{ "type": "Feature", "properties": { "ID": 282530, "LAT": 22.0, "LON": -82.3, "VMAX": 100.0, "MSLP": 956.0, "RMAX": 10.0, "FSPD": 7.50872, "FDIR": 325.30115, "RENV": 140.0, "PENV": 1008.0, "VALIDT": 0, "DTG": "2024-11-06 18:00", "LATNOW": 26.2, "LONNOW": -91.5, "WINDNOW": 30.0, "DIRNOW": 2.0, "SPDNOW": 6.0, "TECH": "TRAK", "ADVNR": 30, "ATCFID": "AL182024", "NAME": "RAFAEL", "FTECH": "OFCL", "FCST_DTG": "2024-11-10 18:00:00", "RUN_DTG": "2024-11-11 09:21:34", "BASIN": "AL", "STMNR": 18, "CAT_ID": null, "CAT_DESC": null, "MSGID": "WTNT23 KNHC 102031", "VALIDTIME": "2024-11-06 18:00:00" }, "geometry": { "type": "Point", "coordinates": [ -82.300003, 22.0 ] } },
{ "type": "Feature", "properties": { "ID": 282531, "LAT": 23.2, "LON": -83.2, "VMAX": 90.0, "MSLP": 966.0, "RMAX": 10.0, "FSPD": 5.24937, "FDIR": 306.01556, "RENV": 140.0, "PENV": 1008.0, "VALIDT": 0, "DTG": "2024-11-07 00:00", "LATNOW": 26.2, "LONNOW": -91.5, "WINDNOW": 30.0, "DIRNOW": 2.0, "SPDNOW": 6.0, "TECH": "TRAK", "ADVNR": 30, "ATCFID": "AL182024", "NAME": "RAFAEL", "FTECH": "OFCL", "FCST_DTG": "2024-11-10 18:00:00", "RUN_DTG": "2024-11-11 09:21:34", "BASIN": "AL", "STMNR": 18, "CAT_ID": null, "CAT_DESC": null, "MSGID": "WTNT23 KNHC 102031", "VALIDTIME": "2024-11-07 00:00:00" }, "geometry": { "type": "Point", "coordinates": [ -83.199997, 23.200001 ] } },
{ "type": "Feature", "properties": { "ID": 282532, "LAT": 23.8, "LON": -84.1, "VMAX": 90.0, "MSLP": 969.0, "RMAX": 10.0, "FSPD": 4.55424, "FDIR": 304.38818, "RENV": 140.0, "PENV": 1008.0, "VALIDT": 0, "DTG": "2024-11-07 06:00", "LATNOW": 26.2, "LONNOW": -91.5, "WINDNOW": 30.0, "DIRNOW": 2.0, "SPDNOW": 6.0, "TECH": "TRAK", "ADVNR": 30, "ATCFID": "AL182024", "NAME": "RAFAEL", "FTECH": "OFCL", "FCST_DTG": "2024-11-10 18:00:00", "RUN_DTG": "2024-11-11 09:21:34", "BASIN": "AL", "STMNR": 18, "CAT_ID": null, "CAT_DESC": null, "MSGID": "WTNT23 KNHC 102031", "VALIDTIME": "2024-11-07 06:00:00" }, "geometry": { "type": "Point", "coordinates": [ -84.099998, 23.799999 ] } },
{ "type": "Feature", "properties": { "ID": 282533, "LAT": 24.3, "LON": -84.9, "VMAX": 90.0, "MSLP": 969.0, "RMAX": 15.0, "FSPD": 4.0519, "FDIR": 292.38898, "RENV": 140.0, "PENV": 1007.0, "VALIDT": 0, "DTG": "2024-11-07 12:00", "LATNOW": 26.2, "LONNOW": -91.5, "WINDNOW": 30.0, "DIRNOW": 2.0, "SPDNOW": 6.0, "TECH": "TRAK", "ADVNR": 30, "ATCFID": "AL182024", "NAME": "RAFAEL", "FTECH": "OFCL", "FCST_DTG": "2024-11-10 18:00:00", "RUN_DTG": "2024-11-11 09:21:34", "BASIN": "AL", "STMNR": 18, "CAT_ID": null, "CAT_DESC": null, "MSGID": "WTNT23 KNHC 102031", "VALIDTIME": "2024-11-07 12:00:00" }, "geometry": { "type": "Point", "coordinates": [ -84.900002, 24.299999 ] } },
{ "type": "Feature", "properties": { "ID": 282534, "LAT": 24.6, "LON": -85.7, "VMAX": 90.0, "MSLP": 968.0, "RMAX": 15.0, "FSPD": 4.23942, "FDIR": 276.9699, "RENV": 140.0, "PENV": 1007.0, "VALIDT": 0, "DTG": "2024-11-07 18:00", "LATNOW": 26.2, "LONNOW": -91.5, "WINDNOW": 30.0, "DIRNOW": 2.0, "SPDNOW": 6.0, "TECH": "TRAK", "ADVNR": 30, "ATCFID": "AL182024", "NAME": "RAFAEL", "FTECH": "OFCL", "FCST_DTG": "2024-11-10 18:00:00", "RUN_DTG": "2024-11-11 09:21:34", "BASIN": "AL", "STMNR": 18, "CAT_ID": null, "CAT_DESC": null, "MSGID": "WTNT23 KNHC 102031", "VALIDTIME": "2024-11-07 18:00:00" }, "geometry": { "type": "Point", "coordinates": [ -85.699997, 24.6 ] } },
{ "type": "Feature", "properties": { "ID": 282535, "LAT": 24.7, "LON": -86.6, "VMAX": 90.0, "MSLP": 966.0, "RMAX": 15.0, "FSPD": 5.24712, "FDIR": 258.69174, "RENV": 140.0, "PENV": 1007.0, "VALIDT": 0, "DTG": "2024-11-08 00:00", "LATNOW": 26.2, "LONNOW": -91.5, "WINDNOW": 30.0, "DIRNOW": 2.0, "SPDNOW": 6.0, "TECH": "TRAK", "ADVNR": 30, "ATCFID": "AL182024", "NAME": "RAFAEL", "FTECH": "OFCL", "FCST_DTG": "2024-11-10 18:00:00", "RUN_DTG": "2024-11-11 09:21:34", "BASIN": "AL", "STMNR": 18, "CAT_ID": null, "CAT_DESC": null, "MSGID": "WTNT23 KNHC 102031", "VALIDTIME": "2024-11-08 00:00:00" }, "geometry": { "type": "Point", "coordinates": [ -86.599998, 24.700001 ] } },
{ "type": "Feature", "properties": { "ID": 282513, "LAT": 11.3, "LON": -80.7, "VMAX": 20.0, "MSLP": 1007.0, "RMAX": 90.0, "FSPD": 4.52756, "FDIR": 62.96725, "RENV": 200.0, "PENV": 1009.0, "VALIDT": 0, "DTG": "2024-11-02 12:00", "LATNOW": 26.2, "LONNOW": -91.5, "WINDNOW": 30.0, "DIRNOW": 2.0, "SPDNOW": 6.0, "TECH": "TRAK", "ADVNR": 30, "ATCFID": "AL182024", "NAME": "RAFAEL", "FTECH": "OFCL", "FCST_DTG": "2024-11-10 18:00:00", "RUN_DTG": "2024-11-11 09:21:34", "BASIN": "AL", "STMNR": 18, "CAT_ID": null, "CAT_DESC": null, "MSGID": "WTNT23 KNHC 102031", "VALIDTIME": "2024-11-02 12:00:00" }, "geometry": { "type": "Point", "coordinates": [ -80.699997, 11.3 ] } },
{ "type": "Feature", "properties": { "ID": 282514, "LAT": 11.7, "LON": -79.9, "VMAX": 20.0, "MSLP": 1007.0, "RMAX": 90.0, "FSPD": 4.36217, "FDIR": 53.8667, "RENV": 200.0, "PENV": 1009.0, "VALIDT": 0, "DTG": "2024-11-02 18:00", "LATNOW": 26.2, "LONNOW": -91.5, "WINDNOW": 30.0, "DIRNOW": 2.0, "SPDNOW": 6.0, "TECH": "TRAK", "ADVNR": 30, "ATCFID": "AL182024", "NAME": "RAFAEL", "FTECH": "OFCL", "FCST_DTG": "2024-11-10 18:00:00", "RUN_DTG": "2024-11-11 09:21:34", "BASIN": "AL", "STMNR": 18, "CAT_ID": null, "CAT_DESC": null, "MSGID": "WTNT23 KNHC 102031", "VALIDTIME": "2024-11-02 18:00:00" }, "geometry": { "type": "Point", "coordinates": [ -79.900002, 11.7 ] } },
{ "type": "Feature", "properties": { "ID": 282515, "LAT": 12.2, "LON": -79.2, "VMAX": 20.0, "MSLP": 1006.0, "RMAX": 90.0, "FSPD": 2.94882, "FDIR": 58.44119, "RENV": 200.0, "PENV": 1008.0, "VALIDT": 0, "DTG": "2024-11-03 00:00", "LATNOW": 26.2, "LONNOW": -91.5, "WINDNOW": 30.0, "DIRNOW": 2.0, "SPDNOW": 6.0, "TECH": "TRAK", "ADVNR": 30, "ATCFID": "AL182024", "NAME": "RAFAEL", "FTECH": "OFCL", "FCST_DTG": "2024-11-10 18:00:00", "RUN_DTG": "2024-11-11 09:21:34", "BASIN": "AL", "STMNR": 18, "CAT_ID": null, "CAT_DESC": null, "MSGID": "WTNT23 KNHC 102031", "VALIDTIME": "2024-11-03 00:00:00" }, "geometry": { "type": "Point", "coordinates": [ -79.199997, 12.2 ] } },
{ "type": "Feature", "properties": { "ID": 282516, "LAT": 12.5, "LON": -78.7, "VMAX": 25.0, "MSLP": 1006.0, "RMAX": 90.0, "FSPD": 8.28921, "FDIR": 75.62616, "RENV": 200.0, "PENV": 1008.0, "VALIDT": 0, "DTG": "2024-11-03 06:00", "LATNOW": 26.2, "LONNOW": -91.5, "WINDNOW": 30.0, "DIRNOW": 2.0, "SPDNOW": 6.0, "TECH": "TRAK", "ADVNR": 30, "ATCFID": "AL182024", "NAME": "RAFAEL", "FTECH": "OFCL", "FCST_DTG": "2024-11-10 18:00:00", "RUN_DTG": "2024-11-11 09:21:34", "BASIN": "AL", "STMNR": 18, "CAT_ID": null, "CAT_DESC": null, "MSGID": "WTNT23 KNHC 102031", "VALIDTIME": "2024-11-03 06:00:00" }, "geometry": { "type": "Point", "coordinates": [ -78.699997, 12.5 ] } },
{ "type": "Feature", "properties": { "ID": 282517, "LAT": 12.9, "LON": -77.1, "VMAX": 25.0, "MSLP": 1006.0, "RMAX": 90.0, "FSPD": 2.28883, "FDIR": 334.03397, "RENV": 200.0, "PENV": 1008.0, "VALIDT": 0, "DTG": "2024-11-03 12:00", "LATNOW": 26.2, "LONNOW": -91.5, "WINDNOW": 30.0, "DIRNOW": 2.0, "SPDNOW": 6.0, "TECH": "TRAK", "ADVNR": 30, "ATCFID": "AL182024", "NAME": "RAFAEL", "FTECH": "OFCL", "FCST_DTG": "2024-11-10 18:00:00", "RUN_DTG": "2024-11-11 09:21:34", "BASIN": "AL", "STMNR": 18, "CAT_ID": null, "CAT_DESC": null, "MSGID": "WTNT23 KNHC 102031", "VALIDTIME": "2024-11-03 12:00:00" }, "geometry": { "type": "Point", "coordinates": [ -77.099998, 12.9 ] } },
{ "type": "Feature", "properties": { "ID": 282518, "LAT": 13.3, "LON": -77.3, "VMAX": 30.0, "MSLP": 1005.0, "RMAX": 80.0, "FSPD": 2.52927, "FDIR": 127.60321, "RENV": 200.0, "PENV": 1008.0, "VALIDT": 0, "DTG": "2024-11-03 18:00", "LATNOW": 26.2, "LONNOW": -91.5, "WINDNOW": 30.0, "DIRNOW": 2.0, "SPDNOW": 6.0, "TECH": "TRAK", "ADVNR": 30, "ATCFID": "AL182024", "NAME": "RAFAEL", "FTECH": "OFCL", "FCST_DTG": "2024-11-10 18:00:00", "RUN_DTG": "2024-11-11 09:21:34", "BASIN": "AL", "STMNR": 18, "CAT_ID": null, "CAT_DESC": null, "MSGID": "WTNT23 KNHC 102031", "VALIDTIME": "2024-11-03 18:00:00" }, "geometry": { "type": "Point", "coordinates": [ -77.300003, 13.3 ] } },
{ "type": "Feature", "properties": { "ID": 282519, "LAT": 13.0, "LON": -76.9, "VMAX": 30.0, "MSLP": 1004.0, "RMAX": 70.0, "FSPD": 4.63, "FDIR": 360.0, "RENV": 250.0, "PENV": 1008.0, "VALIDT": 0, "DTG": "2024-11-04 00:00", "LATNOW": 26.2, "LONNOW": -91.5, "WINDNOW": 30.0, "DIRNOW": 2.0, "SPDNOW": 6.0, "TECH": "TRAK", "ADVNR": 30, "ATCFID": "AL182024", "NAME": "RAFAEL", "FTECH": "OFCL", "FCST_DTG": "2024-11-10 18:00:00", "RUN_DTG": "2024-11-11 09:21:34", "BASIN": "AL", "STMNR": 18, "CAT_ID": null, "CAT_DESC": null, "MSGID": "WTNT23 KNHC 102031", "VALIDTIME": "2024-11-04 00:00:00" }, "geometry": { "type": "Point", "coordinates": [ -76.900002, 13.0 ] } },
{ "type": "Feature", "properties": { "ID": 282520, "LAT": 13.9, "LON": -76.9, "VMAX": 30.0, "MSLP": 1004.0, "RMAX": 70.0, "FSPD": 4.73609, "FDIR": 12.14996, "RENV": 250.0, "PENV": 1008.0, "VALIDT": 0, "DTG": "2024-11-04 06:00", "LATNOW": 26.2, "LONNOW": -91.5, "WINDNOW": 30.0, "DIRNOW": 2.0, "SPDNOW": 6.0, "TECH": "TRAK", "ADVNR": 30, "ATCFID": "AL182024", "NAME": "RAFAEL", "FTECH": "OFCL", "FCST_DTG": "2024-11-10 18:00:00", "RUN_DTG": "2024-11-11 09:21:34", "BASIN": "AL", "STMNR": 18, "CAT_ID": null, "CAT_DESC": null, "MSGID": "WTNT23 KNHC 102031", "VALIDTIME": "2024-11-04 06:00:00" }, "geometry": { "type": "Point", "coordinates": [ -76.900002, 13.9 ] } },
{ "type": "Feature", "properties": { "ID": 282521, "LAT": 14.8, "LON": -76.7, "VMAX": 30.0, "MSLP": 1003.0, "RMAX": 70.0, "FSPD": 2.14597, "FDIR": 44.01324, "RENV": 250.0, "PENV": 1008.0, "VALIDT": 0, "DTG": "2024-11-04 12:00", "LATNOW": 26.2, "LONNOW": -91.5, "WINDNOW": 30.0, "DIRNOW": 2.0, "SPDNOW": 6.0, "TECH": "TRAK", "ADVNR": 30, "ATCFID": "AL182024", "NAME": "RAFAEL", "FTECH": "OFCL", "FCST_DTG": "2024-11-10 18:00:00", "RUN_DTG": "2024-11-11 09:21:34", "BASIN": "AL", "STMNR": 18, "CAT_ID": null, "CAT_DESC": null, "MSGID": "WTNT23 KNHC 102031", "VALIDTIME": "2024-11-04 12:00:00" }, "geometry": { "type": "Point", "coordinates": [ -76.699997, 14.8 ] } },
{ "type": "Feature", "properties": { "ID": 282522, "LAT": 15.1, "LON": -76.4, "VMAX": 40.0, "MSLP": 999.0, "RMAX": 70.0, "FSPD": 4.37205, "FDIR": 325.45358, "RENV": 250.0, "PENV": 1008.0, "VALIDT": 0, "DTG": "2024-11-04 18:00", "LATNOW": 26.2, "LONNOW": -91.5, "WINDNOW": 30.0, "DIRNOW": 2.0, "SPDNOW": 6.0, "TECH": "TRAK", "ADVNR": 30, "ATCFID": "AL182024", "NAME": "RAFAEL", "FTECH": "OFCL", "FCST_DTG": "2024-11-10 18:00:00", "RUN_DTG": "2024-11-11 09:21:34", "BASIN": "AL", "STMNR": 18, "CAT_ID": null, "CAT_DESC": null, "MSGID": "WTNT23 KNHC 102031", "VALIDTIME": "2024-11-04 18:00:00" }, "geometry": { "type": "Point", "coordinates": [ -76.400002, 15.1 ] } },
{ "type": "Feature", "properties": { "ID": 282523, "LAT": 15.8, "LON": -76.9, "VMAX": 40.0, "MSLP": 1000.0, "RMAX": 40.0, "FSPD": 5.70588, "FDIR": 316.16052, "RENV": 250.0, "PENV": 1008.0, "VALIDT": 0, "DTG": "2024-11-05 00:00", "LATNOW": 26.2, "LONNOW": -91.5, "WINDNOW": 30.0, "DIRNOW": 2.0, "SPDNOW": 6.0, "TECH": "TRAK", "ADVNR": 30, "ATCFID": "AL182024", "NAME": "RAFAEL", "FTECH": "OFCL", "FCST_DTG": "2024-11-10 18:00:00", "RUN_DTG": "2024-11-11 09:21:34", "BASIN": "AL", "STMNR": 18, "CAT_ID": null, "CAT_DESC": null, "MSGID": "WTNT23 KNHC 102031", "VALIDTIME": "2024-11-05 00:00:00" }, "geometry": { "type": "Point", "coordinates": [ -76.900002, 15.8 ] } },
{ "type": "Feature", "properties": { "ID": 282524, "LAT": 16.6, "LON": -77.7, "VMAX": 45.0, "MSLP": 993.0, "RMAX": 30.0, "FSPD": 4.79463, "FDIR": 329.1336, "RENV": 250.0, "PENV": 1008.0, "VALIDT": 0, "DTG": "2024-11-05 06:00", "LATNOW": 26.2, "LONNOW": -91.5, "WINDNOW": 30.0, "DIRNOW": 2.0, "SPDNOW": 6.0, "TECH": "TRAK", "ADVNR": 30, "ATCFID": "AL182024", "NAME": "RAFAEL", "FTECH": "OFCL", "FCST_DTG": "2024-11-10 18:00:00", "RUN_DTG": "2024-11-11 09:21:34", "BASIN": "AL", "STMNR": 18, "CAT_ID": null, "CAT_DESC": null, "MSGID": "WTNT23 KNHC 102031", "VALIDTIME": "2024-11-05 06:00:00" }, "geometry": { "type": "Point", "coordinates": [ -77.699997, 16.6 ] } },
{ "type": "Feature", "properties": { "ID": 282525, "LAT": 17.4, "LON": -78.2, "VMAX": 50.0, "MSLP": 994.0, "RMAX": 20.0, "FSPD": 7.58288, "FDIR": 324.49997, "RENV": 250.0, "PENV": 1008.0, "VALIDT": 0, "DTG": "2024-11-05 12:00", "LATNOW": 26.2, "LONNOW": -91.5, "WINDNOW": 30.0, "DIRNOW": 2.0, "SPDNOW": 6.0, "TECH": "TRAK", "ADVNR": 30, "ATCFID": "AL182024", "NAME": "RAFAEL", "FTECH": "OFCL", "FCST_DTG": "2024-11-10 18:00:00", "RUN_DTG": "2024-11-11 09:21:34", "BASIN": "AL", "STMNR": 18, "CAT_ID": null, "CAT_DESC": null, "MSGID": "WTNT23 KNHC 102031", "VALIDTIME": "2024-11-05 12:00:00" }, "geometry": { "type": "Point", "coordinates": [ -78.199997, 17.4 ] } },
{ "type": "Feature", "properties": { "ID": 282526, "LAT": 18.6, "LON": -79.1, "VMAX": 55.0, "MSLP": 994.0, "RMAX": 20.0, "FSPD": 5.66395, "FDIR": 316.6039, "RENV": 250.0, "PENV": 1008.0, "VALIDT": 0, "DTG": "2024-11-05 18:00", "LATNOW": 26.2, "LONNOW": -91.5, "WINDNOW": 30.0, "DIRNOW": 2.0, "SPDNOW": 6.0, "TECH": "TRAK", "ADVNR": 30, "ATCFID": "AL182024", "NAME": "RAFAEL", "FTECH": "OFCL", "FCST_DTG": "2024-11-10 18:00:00", "RUN_DTG": "2024-11-11 09:21:34", "BASIN": "AL", "STMNR": 18, "CAT_ID": null, "CAT_DESC": null, "MSGID": "WTNT23 KNHC 102031", "VALIDTIME": "2024-11-05 18:00:00" }, "geometry": { "type": "Point", "coordinates": [ -79.099998, 18.6 ] } },
{ "type": "Feature", "properties": { "ID": 282536, "LAT": 24.5, "LON": -87.7, "VMAX": 105.0, "MSLP": 956.0, "RMAX": 15.0, "FSPD": 3.74501, "FDIR": 269.99997, "RENV": 140.0, "PENV": 1007.0, "VALIDT": 0, "DTG": "2024-11-08 06:00", "LATNOW": 26.2, "LONNOW": -91.5, "WINDNOW": 30.0, "DIRNOW": 2.0, "SPDNOW": 6.0, "TECH": "TRAK", "ADVNR": 30, "ATCFID": "AL182024", "NAME": "RAFAEL", "FTECH": "OFCL", "FCST_DTG": "2024-11-10 18:00:00", "RUN_DTG": "2024-11-11 09:21:34", "BASIN": "AL", "STMNR": 18, "CAT_ID": null, "CAT_DESC": null, "MSGID": "WTNT23 KNHC 102031", "VALIDTIME": "2024-11-08 06:00:00" }, "geometry": { "type": "Point", "coordinates": [ -87.699997, 24.5 ] } },
{ "type": "Feature", "properties": { "ID": 282537, "LAT": 24.5, "LON": -88.5, "VMAX": 95.0, "MSLP": 961.0, "RMAX": 15.0, "FSPD": 4.24276, "FDIR": 276.9644, "RENV": 140.0, "PENV": 1008.0, "VALIDT": 0, "DTG": "2024-11-08 12:00", "LATNOW": 26.2, "LONNOW": -91.5, "WINDNOW": 30.0, "DIRNOW": 2.0, "SPDNOW": 6.0, "TECH": "TRAK", "ADVNR": 30, "ATCFID": "AL182024", "NAME": "RAFAEL", "FTECH": "OFCL", "FCST_DTG": "2024-11-10 18:00:00", "RUN_DTG": "2024-11-11 09:21:34", "BASIN": "AL", "STMNR": 18, "CAT_ID": null, "CAT_DESC": null, "MSGID": "WTNT23 KNHC 102031", "VALIDTIME": "2024-11-08 12:00:00" }, "geometry": { "type": "Point", "coordinates": [ -88.5, 24.5 ] } },
{ "type": "Feature", "properties": { "ID": 282538, "LAT": 24.6, "LON": -89.4, "VMAX": 90.0, "MSLP": 964.0, "RMAX": 15.0, "FSPD": 1.49404, "FDIR": 290.14108, "RENV": 140.0, "PENV": 1008.0, "VALIDT": 0, "DTG": "2024-11-08 18:00", "LATNOW": 26.2, "LONNOW": -91.5, "WINDNOW": 30.0, "DIRNOW": 2.0, "SPDNOW": 6.0, "TECH": "TRAK", "ADVNR": 30, "ATCFID": "AL182024", "NAME": "RAFAEL", "FTECH": "OFCL", "FCST_DTG": "2024-11-10 18:00:00", "RUN_DTG": "2024-11-11 09:21:34", "BASIN": "AL", "STMNR": 18, "CAT_ID": null, "CAT_DESC": null, "MSGID": "WTNT23 KNHC 102031", "VALIDTIME": "2024-11-08 18:00:00" }, "geometry": { "type": "Point", "coordinates": [ -89.400002, 24.6 ] } },
{ "type": "Feature", "properties": { "ID": 282539, "LAT": 24.7, "LON": -89.7, "VMAX": 65.0, "MSLP": 986.0, "RMAX": 20.0, "FSPD": 3.87511, "FDIR": 285.39728, "RENV": 140.0, "PENV": 1008.0, "VALIDT": 0, "DTG": "2024-11-09 00:00", "LATNOW": 26.2, "LONNOW": -91.5, "WINDNOW": 30.0, "DIRNOW": 2.0, "SPDNOW": 6.0, "TECH": "TRAK", "ADVNR": 30, "ATCFID": "AL182024", "NAME": "RAFAEL", "FTECH": "OFCL", "FCST_DTG": "2024-11-10 18:00:00", "RUN_DTG": "2024-11-11 09:21:34", "BASIN": "AL", "STMNR": 18, "CAT_ID": null, "CAT_DESC": null, "MSGID": "WTNT23 KNHC 102031", "VALIDTIME": "2024-11-09 00:00:00" }, "geometry": { "type": "Point", "coordinates": [ -89.699997, 24.700001 ] } },
{ "type": "Feature", "properties": { "ID": 282540, "LAT": 24.9, "LON": -90.5, "VMAX": 55.0, "MSLP": 992.0, "RMAX": 20.0, "FSPD": 2.98067, "FDIR": 290.19324, "RENV": 140.0, "PENV": 1009.0, "VALIDT": 0, "DTG": "2024-11-09 06:00", "LATNOW": 26.2, "LONNOW": -91.5, "WINDNOW": 30.0, "DIRNOW": 2.0, "SPDNOW": 6.0, "TECH": "TRAK", "ADVNR": 30, "ATCFID": "AL182024", "NAME": "RAFAEL", "FTECH": "OFCL", "FCST_DTG": "2024-11-10 18:00:00", "RUN_DTG": "2024-11-11 09:21:34", "BASIN": "AL", "STMNR": 18, "CAT_ID": null, "CAT_DESC": null, "MSGID": "WTNT23 KNHC 102031", "VALIDTIME": "2024-11-09 06:00:00" }, "geometry": { "type": "Point", "coordinates": [ -90.5, 24.9 ] } },
{ "type": "Feature", "properties": { "ID": 282541, "LAT": 25.1, "LON": -91.1, "VMAX": 50.0, "MSLP": 998.0, "RMAX": 40.0, "FSPD": 2.1273, "FDIR": 298.92444, "RENV": 140.0, "PENV": 1010.0, "VALIDT": 0, "DTG": "2024-11-09 12:00", "LATNOW": 26.2, "LONNOW": -91.5, "WINDNOW": 30.0, "DIRNOW": 2.0, "SPDNOW": 6.0, "TECH": "TRAK", "ADVNR": 30, "ATCFID": "AL182024", "NAME": "RAFAEL", "FTECH": "OFCL", "FCST_DTG": "2024-11-10 18:00:00", "RUN_DTG": "2024-11-11 09:21:34", "BASIN": "AL", "STMNR": 18, "CAT_ID": null, "CAT_DESC": null, "MSGID": "WTNT23 KNHC 102031", "VALIDTIME": "2024-11-09 12:00:00" }, "geometry": { "type": "Point", "coordinates": [ -91.099998, 25.1 ] } },
{ "type": "Feature", "properties": { "ID": 282542, "LAT": 25.3, "LON": -91.5, "VMAX": 45.0, "MSLP": 1000.0, "RMAX": 60.0, "FSPD": 1.80139, "FDIR": 328.95364, "RENV": 140.0, "PENV": 1010.0, "VALIDT": 0, "DTG": "2024-11-09 18:00", "LATNOW": 26.2, "LONNOW": -91.5, "WINDNOW": 30.0, "DIRNOW": 2.0, "SPDNOW": 6.0, "TECH": "TRAK", "ADVNR": 30, "ATCFID": "AL182024", "NAME": "RAFAEL", "FTECH": "OFCL", "FCST_DTG": "2024-11-10 18:00:00", "RUN_DTG": "2024-11-11 09:21:34", "BASIN": "AL", "STMNR": 18, "CAT_ID": null, "CAT_DESC": null, "MSGID": "WTNT23 KNHC 102031", "VALIDTIME": "2024-11-09 18:00:00" }, "geometry": { "type": "Point", "coordinates": [ -91.5, 25.299999 ] } },
{ "type": "Feature", "properties": { "ID": 282543, "LAT": 25.6, "LON": -91.7, "VMAX": 40.0, "MSLP": 1001.0, "RMAX": 60.0, "FSPD": 2.10926, "FDIR": 347.31448, "RENV": 180.0, "PENV": 1010.0, "VALIDT": 0, "DTG": "2024-11-10 00:00", "LATNOW": 26.2, "LONNOW": -91.5, "WINDNOW": 30.0, "DIRNOW": 2.0, "SPDNOW": 6.0, "TECH": "TRAK", "ADVNR": 30, "ATCFID": "AL182024", "NAME": "RAFAEL", "FTECH": "OFCL", "FCST_DTG": "2024-11-10 18:00:00", "RUN_DTG": "2024-11-11 09:21:34", "BASIN": "AL", "STMNR": 18, "CAT_ID": null, "CAT_DESC": null, "MSGID": "WTNT23 KNHC 102031", "VALIDTIME": "2024-11-10 00:00:00" }, "geometry": { "type": "Point", "coordinates": [ -91.699997, 25.6 ] } },
{ "type": "Feature", "properties": { "ID": 282544, "LAT": 26.0, "LON": -91.8, "VMAX": 35.0, "MSLP": 1003.0, "RMAX": 60.0, "FSPD": 1.38287, "FDIR": 318.0758, "RENV": 180.0, "PENV": 1010.0, "VALIDT": 0, "DTG": "2024-11-10 06:00", "LATNOW": 26.2, "LONNOW": -91.5, "WINDNOW": 30.0, "DIRNOW": 2.0, "SPDNOW": 6.0, "TECH": "TRAK", "ADVNR": 30, "ATCFID": "AL182024", "NAME": "RAFAEL", "FTECH": "OFCL", "FCST_DTG": "2024-11-10 18:00:00", "RUN_DTG": "2024-11-11 09:21:34", "BASIN": "AL", "STMNR": 18, "CAT_ID": null, "CAT_DESC": null, "MSGID": "WTNT23 KNHC 102031", "VALIDTIME": "2024-11-10 06:00:00" }, "geometry": { "type": "Point", "coordinates": [ -91.800003, 26.0 ] } },
{ "type": "Feature", "properties": { "ID": 282545, "LAT": 26.2, "LON": -92.0, "VMAX": 35.0, "MSLP": 1003.0, "RMAX": 100.0, "FSPD": 2.30795, "FDIR": 90.0, "RENV": 180.0, "PENV": 1011.0, "VALIDT": 0, "DTG": "2024-11-10 12:00", "LATNOW": 26.2, "LONNOW": -91.5, "WINDNOW": 30.0, "DIRNOW": 2.0, "SPDNOW": 6.0, "TECH": "TRAK", "ADVNR": 30, "ATCFID": "AL182024", "NAME": "RAFAEL", "FTECH": "OFCL", "FCST_DTG": "2024-11-10 18:00:00", "RUN_DTG": "2024-11-11 09:21:34", "BASIN": "AL", "STMNR": 18, "CAT_ID": null, "CAT_DESC": null, "MSGID": "WTNT23 KNHC 102031", "VALIDTIME": "2024-11-10 12:00:00" }, "geometry": { "type": "Point", "coordinates": [ -92.0, 26.200001 ] } },
{ "type": "Feature", "properties": { "ID": 282546, "LAT": 26.2, "LON": -91.5, "VMAX": 30.0, "MSLP": 1006.0, "RMAX": 100.0, "FSPD": 2.11435, "FDIR": 119.11887, "RENV": 180.0, "PENV": 1011.0, "VALIDT": 0, "DTG": "2024-11-10 18:00", "LATNOW": 26.2, "LONNOW": -91.5, "WINDNOW": 30.0, "DIRNOW": 2.0, "SPDNOW": 6.0, "TECH": "TRAK", "ADVNR": 30, "ATCFID": "AL182024", "NAME": "RAFAEL", "FTECH": "OFCL", "FCST_DTG": "2024-11-10 18:00:00", "RUN_DTG": "2024-11-11 09:21:34", "BASIN": "AL", "STMNR": 18, "CAT_ID": null, "CAT_DESC": null, "MSGID": "WTNT23 KNHC 102031", "VALIDTIME": "2024-11-10 18:00:00" }, "geometry": { "type": "Point", "coordinates": [ -91.5, 26.200001 ] } },
{ "type": "Feature", "properties": { "ID": 282547, "LAT": 26.1, "LON": -91.3, "VMAX": 30.0, "MSLP": 1006.0, "RMAX": 99.60586, "FSPD": 1.60631, "FDIR": 129.83133, "RENV": 250.0, "PENV": 1012.0, "VALIDT": 3, "DTG": "2024-11-10 21:00", "LATNOW": 26.2, "LONNOW": -91.5, "WINDNOW": 30.0, "DIRNOW": 2.0, "SPDNOW": 6.0, "TECH": "FCST", "ADVNR": 30, "ATCFID": "AL182024", "NAME": "RAFAEL", "FTECH": "OFCL", "FCST_DTG": "2024-11-10 18:00:00", "RUN_DTG": "2024-11-11 09:21:34", "BASIN": "AL", "STMNR": 18, "CAT_ID": null, "CAT_DESC": null, "MSGID": "WTNT23 KNHC 102031", "VALIDTIME": "2024-11-10 21:00:00" }, "geometry": { "type": "Point", "coordinates": [ -91.300003, 26.1 ] } },
{ "type": "Feature", "properties": { "ID": 282548, "LAT": 25.8, "LON": -90.9, "VMAX": 25.0, "MSLP": 1011.80975, "RMAX": 98.6713, "FSPD": 1.85951, "FDIR": 165.53342, "RENV": 250.0, "PENV": 1012.0, "VALIDT": 12, "DTG": "2024-11-11 06:00", "LATNOW": 26.2, "LONNOW": -91.5, "WINDNOW": 30.0, "DIRNOW": 2.0, "SPDNOW": 6.0, "TECH": "FCST", "ADVNR": 30, "ATCFID": "AL182024", "NAME": "RAFAEL", "FTECH": "OFCL", "FCST_DTG": "2024-11-10 18:00:00", "RUN_DTG": "2024-11-11 09:21:34", "BASIN": "AL", "STMNR": 18, "CAT_ID": null, "CAT_DESC": null, "MSGID": "WTNT23 KNHC 102031", "VALIDTIME": "2024-11-11 06:00:00" }, "geometry": { "type": "Point", "coordinates": [ -90.900002, 25.799999 ] } },
{ "type": "Feature", "properties": { "ID": 282549, "LAT": 25.1, "LON": -90.7, "VMAX": 25.0, "MSLP": 1011.80975, "RMAX": 95.98109, "FSPD": 2.6662, "FDIR": 195.25755, "RENV": 250.0, "PENV": 1012.0, "VALIDT": 24, "DTG": "2024-11-11 18:00", "LATNOW": 26.2, "LONNOW": -91.5, "WINDNOW": 30.0, "DIRNOW": 2.0, "SPDNOW": 6.0, "TECH": "FCST", "ADVNR": 30, "ATCFID": "AL182024", "NAME": "RAFAEL", "FTECH": "OFCL", "FCST_DTG": "2024-11-10 18:00:00", "RUN_DTG": "2024-11-11 09:21:34", "BASIN": "AL", "STMNR": 18, "CAT_ID": null, "CAT_DESC": null, "MSGID": "WTNT23 KNHC 102031", "VALIDTIME": "2024-11-11 18:00:00" }, "geometry": { "type": "Point", "coordinates": [ -90.699997, 25.1 ] } },
{ "type": "Feature", "properties": { "ID": 282550, "LAT": 24.1, "LON": -91.0, "VMAX": 20.0, "MSLP": 1012.95825, "RMAX": 92.27132, "FSPD": 3.30316, "FDIR": 225.50517, "RENV": 250.0, "PENV": 1012.0, "VALIDT": 36, "DTG": "2024-11-12 06:00", "LATNOW": 26.2, "LONNOW": -91.5, "WINDNOW": 30.0, "DIRNOW": 2.0, "SPDNOW": 6.0, "TECH": "FCST", "ADVNR": 30, "ATCFID": "AL182024", "NAME": "RAFAEL", "FTECH": "OFCL", "FCST_DTG": "2024-11-10 18:00:00", "RUN_DTG": "2024-11-11 09:21:34", "BASIN": "AL", "STMNR": 18, "CAT_ID": null, "CAT_DESC": null, "MSGID": "WTNT23 KNHC 102031", "VALIDTIME": "2024-11-12 06:00:00" }, "geometry": { "type": "Point", "coordinates": [ -91.0, 24.1 ] } },
{ "type": "Feature", "properties": { "ID": 282551, "LAT": 23.2, "LON": -92.0, "VMAX": 20.0, "MSLP": 1012.95825, "RMAX": 89.0495, "FSPD": 3.30316, "FDIR": 225.50517, "RENV": 250.0, "PENV": 1012.0, "VALIDT": 48, "DTG": "2024-11-12 18:00", "LATNOW": 26.2, "LONNOW": -91.5, "WINDNOW": 30.0, "DIRNOW": 2.0, "SPDNOW": 6.0, "TECH": "FCST", "ADVNR": 30, "ATCFID": "AL182024", "NAME": "RAFAEL", "FTECH": "OFCL", "FCST_DTG": "2024-11-10 18:00:00", "RUN_DTG": "2024-11-11 09:21:34", "BASIN": "AL", "STMNR": 18, "CAT_ID": null, "CAT_DESC": null, "MSGID": "WTNT23 KNHC 102031", "VALIDTIME": "2024-11-12 18:00:00" }, "geometry": { "type": "Point", "coordinates": [ -92.0, 23.200001 ] } },
{ "type": "Feature", "properties": { "ID": 282546, "LAT": 26.2, "LON": -91.5, "VMAX": 30.0, "MSLP": 1006.0, "RMAX": 100.0, "FSPD": 2.11435, "FDIR": 119.11887, "RENV": 180.0, "PENV": 1011.0, "VALIDT": 0, "DTG": "2024-11-10 18:00", "LATNOW": 26.2, "LONNOW": -91.5, "WINDNOW": 30.0, "DIRNOW": 2.0, "SPDNOW": 6.0, "TECH": "TRAK", "ADVNR": 30, "ATCFID": "AL182024", "NAME": "RAFAEL", "FTECH": "OFCL", "FCST_DTG": "2024-11-10 18:00:00", "RUN_DTG": "2024-11-11 09:21:34", "BASIN": "AL", "STMNR": 18, "CAT_ID": null, "CAT_DESC": null, "MSGID": "WTNT23 KNHC 102031", "VALIDTIME": "2024-11-10 18:00:00" }, "geometry": { "type": "LineString", "coordinates": [ [ -80.7, 11.3 ], [ -79.9, 11.7 ], [ -79.2, 12.2 ], [ -78.7, 12.5 ], [ -77.1, 12.9 ], [ -77.3, 13.3 ], [ -76.9, 13.0 ], [ -76.9, 13.9 ], [ -76.7, 14.8 ], [ -76.4, 15.1 ], [ -76.9, 15.8 ], [ -77.7, 16.6 ], [ -78.2, 17.4 ], [ -79.1, 18.6 ], [ -79.9, 19.4 ], [ -80.9, 20.2 ], [ -81.6, 21.0 ], [ -82.3, 22.0 ], [ -83.2, 23.2 ], [ -84.1, 23.8 ], [ -84.9, 24.3 ], [ -85.7, 24.6 ], [ -86.6, 24.7 ], [ -87.7, 24.5 ], [ -88.5, 24.5 ], [ -89.4, 24.6 ], [ -89.7, 24.7 ], [ -90.5, 24.9 ], [ -91.1, 25.1 ], [ -91.5, 25.3 ], [ -91.7, 25.6 ], [ -91.8, 26.0 ], [ -92.0, 26.2 ], [ -91.5, 26.2 ] ] } },
{ "type": "Feature", "properties": { "ID": 282551, "LAT": 23.2, "LON": -92.0, "VMAX": 20.0, "MSLP": 1012.95825, "RMAX": 89.0495, "FSPD": 3.30316, "FDIR": 225.50517, "RENV": 250.0, "PENV": 1012.0, "VALIDT": 48, "DTG": "2024-11-12 18:00", "LATNOW": 26.2, "LONNOW": -91.5, "WINDNOW": 30.0, "DIRNOW": 2.0, "SPDNOW": 6.0, "TECH": "FCST", "ADVNR": 30, "ATCFID": "AL182024", "NAME": "RAFAEL", "FTECH": "OFCL", "FCST_DTG": "2024-11-10 18:00:00", "RUN_DTG": "2024-11-11 09:21:34", "BASIN": "AL", "STMNR": 18, "CAT_ID": null, "CAT_DESC": null, "MSGID": "WTNT23 KNHC 102031", "VALIDTIME": "2024-11-12 18:00:00" }, "geometry": { "type": "LineString", "coordinates": [ [ -91.5, 26.2 ], [ -91.3, 26.1 ], [ -90.9, 25.8 ], [ -90.7, 25.1 ], [ -91.0, 24.1 ], [ -92.0, 23.2 ] ] } }
]
}
