{
"type": "FeatureCollection",
"crs": { "type": "name", "properties": { "name": "urn:ogc:def:crs:OGC:1.3:CRS84" } },
"features": [
{ "type": "Feature", "properties": { "ID": 18773, "LAT": 9.1, "LON": -90.4, "VMAX": 25.0, "MSLP": 1010.0, "RMAX": 120.0, "FSPD": 9.34468, "FDIR": 299.70065, "RENV": 200.0, "PENV": 1013.0, "VALIDT": 0, "DTG": "2025-08-05 12:00", "LATNOW": 23.1, "LONNOW": -119.1, "WINDNOW": 25.0, "DIRNOW": 5.0, "SPDNOW": 3.0, "TECH": "TRAK", "ADVNR": 20, "ATCFID": "EP092025", "NAME": "IVO", "FTECH": "OFCL", "FCST_DTG": "2025-08-11 12:00:00", "RUN_DTG": "2025-08-12 07:48:07", "BASIN": "EP", "STMNR": 9, "CAT_ID": null, "CAT_DESC": null, "MSGID": "WTPZ24 KNHC 111431", "VALIDTIME": "2025-08-05 12:00:00" }, "geometry": { "type": "Point", "coordinates": [ -90.400002, 9.1 ] } },
{ "type": "Feature", "properties": { "ID": 18774, "LAT": 10.0, "LON": -92.0, "VMAX": 25.0, "MSLP": 1010.0, "RMAX": 120.0, "FSPD": 3.2624, "FDIR": 309.10577, "RENV": 200.0, "PENV": 1013.0, "VALIDT": 0, "DTG": "2025-08-05 18:00", "LATNOW": 23.1, "LONNOW": -119.1, "WINDNOW": 25.0, "DIRNOW": 5.0, "SPDNOW": 3.0, "TECH": "TRAK", "ADVNR": 20, "ATCFID": "EP092025", "NAME": "IVO", "FTECH": "OFCL", "FCST_DTG": "2025-08-11 12:00:00", "RUN_DTG": "2025-08-12 07:48:07", "BASIN": "EP", "STMNR": 9, "CAT_ID": null, "CAT_DESC": null, "MSGID": "WTPZ24 KNHC 111431", "VALIDTIME": "2025-08-05 18:00:00" }, "geometry": { "type": "Point", "coordinates": [ -92.0, 10.0 ] } },
{ "type": "Feature", "properties": { "ID": 18775, "LAT": 10.4, "LON": -92.5, "VMAX": 25.0, "MSLP": 1009.0, "RMAX": 120.0, "FSPD": 11.78999, "FDIR": 295.87057, "RENV": 150.0, "PENV": 1011.0, "VALIDT": 0, "DTG": "2025-08-06 00:00", "LATNOW": 23.1, "LONNOW": -119.1, "WINDNOW": 25.0, "DIRNOW": 5.0, "SPDNOW": 3.0, "TECH": "TRAK", "ADVNR": 20, "ATCFID": "EP092025", "NAME": "IVO", "FTECH": "OFCL", "FCST_DTG": "2025-08-11 12:00:00", "RUN_DTG": "2025-08-12 07:48:07", "BASIN": "EP", "STMNR": 9, "CAT_ID": null, "CAT_DESC": null, "MSGID": "WTPZ24 KNHC 111431", "VALIDTIME": "2025-08-06 00:00:00" }, "geometry": { "type": "Point", "coordinates": [ -92.5, 10.4 ] } },
{ "type": "Feature", "properties": { "ID": 18776, "LAT": 11.4, "LON": -94.6, "VMAX": 25.0, "MSLP": 1010.0, "RMAX": 100.0, "FSPD": 11.66629, "FDIR": 304.9776, "RENV": 225.0, "PENV": 1013.0, "VALIDT": 0, "DTG": "2025-08-06 06:00", "LATNOW": 23.1, "LONNOW": -119.1, "WINDNOW": 25.0, "DIRNOW": 5.0, "SPDNOW": 3.0, "TECH": "TRAK", "ADVNR": 20, "ATCFID": "EP092025", "NAME": "IVO", "FTECH": "OFCL", "FCST_DTG": "2025-08-11 12:00:00", "RUN_DTG": "2025-08-12 07:48:07", "BASIN": "EP", "STMNR": 9, "CAT_ID": null, "CAT_DESC": null, "MSGID": "WTPZ24 KNHC 111431", "VALIDTIME": "2025-08-06 06:00:00" }, "geometry": { "type": "Point", "coordinates": [ -94.599998, 11.4 ] } },
{ "type": "Feature", "properties": { "ID": 18777, "LAT": 12.7, "LON": -96.5, "VMAX": 25.0, "MSLP": 1010.0, "RMAX": 100.0, "FSPD": 10.22201, "FDIR": 303.61423, "RENV": 150.0, "PENV": 1012.0, "VALIDT": 0, "DTG": "2025-08-06 12:00", "LATNOW": 23.1, "LONNOW": -119.1, "WINDNOW": 25.0, "DIRNOW": 5.0, "SPDNOW": 3.0, "TECH": "TRAK", "ADVNR": 20, "ATCFID": "EP092025", "NAME": "IVO", "FTECH": "OFCL", "FCST_DTG": "2025-08-11 12:00:00", "RUN_DTG": "2025-08-12 07:48:07", "BASIN": "EP", "STMNR": 9, "CAT_ID": null, "CAT_DESC": null, "MSGID": "WTPZ24 KNHC 111431", "VALIDTIME": "2025-08-06 12:00:00" }, "geometry": { "type": "Point", "coordinates": [ -96.5, 12.7 ] } },
{ "type": "Feature", "properties": { "ID": 18778, "LAT": 13.8, "LON": -98.2, "VMAX": 35.0, "MSLP": 1008.0, "RMAX": 20.0, "FSPD": 9.87551, "FDIR": 294.62915, "RENV": 105.0, "PENV": 1012.0, "VALIDT": 0, "DTG": "2025-08-06 18:00", "LATNOW": 23.1, "LONNOW": -119.1, "WINDNOW": 25.0, "DIRNOW": 5.0, "SPDNOW": 3.0, "TECH": "TRAK", "ADVNR": 20, "ATCFID": "EP092025", "NAME": "IVO", "FTECH": "OFCL", "FCST_DTG": "2025-08-11 12:00:00", "RUN_DTG": "2025-08-12 07:48:07", "BASIN": "EP", "STMNR": 9, "CAT_ID": null, "CAT_DESC": null, "MSGID": "WTPZ24 KNHC 111431", "VALIDTIME": "2025-08-06 18:00:00" }, "geometry": { "type": "Point", "coordinates": [ -98.199997, 13.8 ] } },
{ "type": "Feature", "properties": { "ID": 18779, "LAT": 14.6, "LON": -100.0, "VMAX": 35.0, "MSLP": 1008.0, "RMAX": 20.0, "FSPD": 11.21746, "FDIR": 291.5238, "RENV": 90.0, "PENV": 1012.0, "VALIDT": 0, "DTG": "2025-08-07 00:00", "LATNOW": 23.1, "LONNOW": -119.1, "WINDNOW": 25.0, "DIRNOW": 5.0, "SPDNOW": 3.0, "TECH": "TRAK", "ADVNR": 20, "ATCFID": "EP092025", "NAME": "IVO", "FTECH": "OFCL", "FCST_DTG": "2025-08-11 12:00:00", "RUN_DTG": "2025-08-12 07:48:07", "BASIN": "EP", "STMNR": 9, "CAT_ID": null, "CAT_DESC": null, "MSGID": "WTPZ24 KNHC 111431", "VALIDTIME": "2025-08-07 00:00:00" }, "geometry": { "type": "Point", "coordinates": [ -100.0, 14.6 ] } },
{ "type": "Feature", "properties": { "ID": 18780, "LAT": 15.4, "LON": -102.1, "VMAX": 35.0, "MSLP": 1008.0, "RMAX": 20.0, "FSPD": 11.42935, "FDIR": 328.78244, "RENV": 90.0, "PENV": 1012.0, "VALIDT": 0, "DTG": "2025-08-07 06:00", "LATNOW": 23.1, "LONNOW": -119.1, "WINDNOW": 25.0, "DIRNOW": 5.0, "SPDNOW": 3.0, "TECH": "TRAK", "ADVNR": 20, "ATCFID": "EP092025", "NAME": "IVO", "FTECH": "OFCL", "FCST_DTG": "2025-08-11 12:00:00", "RUN_DTG": "2025-08-12 07:48:07", "BASIN": "EP", "STMNR": 9, "CAT_ID": null, "CAT_DESC": null, "MSGID": "WTPZ24 KNHC 111431", "VALIDTIME": "2025-08-07 06:00:00" }, "geometry": { "type": "Point", "coordinates": [ -102.099998, 15.4 ] } },
{ "type": "Feature", "properties": { "ID": 18781, "LAT": 17.3, "LON": -103.3, "VMAX": 40.0, "MSLP": 1006.0, "RMAX": 10.0, "FSPD": 9.78787, "FDIR": 301.70825, "RENV": 90.0, "PENV": 1012.0, "VALIDT": 0, "DTG": "2025-08-07 12:00", "LATNOW": 23.1, "LONNOW": -119.1, "WINDNOW": 25.0, "DIRNOW": 5.0, "SPDNOW": 3.0, "TECH": "TRAK", "ADVNR": 20, "ATCFID": "EP092025", "NAME": "IVO", "FTECH": "OFCL", "FCST_DTG": "2025-08-11 12:00:00", "RUN_DTG": "2025-08-12 07:48:07", "BASIN": "EP", "STMNR": 9, "CAT_ID": null, "CAT_DESC": null, "MSGID": "WTPZ24 KNHC 111431", "VALIDTIME": "2025-08-07 12:00:00" }, "geometry": { "type": "Point", "coordinates": [ -103.300003, 17.299999 ] } },
{ "type": "Feature", "properties": { "ID": 18782, "LAT": 18.3, "LON": -105.0, "VMAX": 50.0, "MSLP": 1001.0, "RMAX": 15.0, "FSPD": 9.33703, "FDIR": 303.43375, "RENV": 80.0, "PENV": 1012.0, "VALIDT": 0, "DTG": "2025-08-07 18:00", "LATNOW": 23.1, "LONNOW": -119.1, "WINDNOW": 25.0, "DIRNOW": 5.0, "SPDNOW": 3.0, "TECH": "TRAK", "ADVNR": 20, "ATCFID": "EP092025", "NAME": "IVO", "FTECH": "OFCL", "FCST_DTG": "2025-08-11 12:00:00", "RUN_DTG": "2025-08-12 07:48:07", "BASIN": "EP", "STMNR": 9, "CAT_ID": null, "CAT_DESC": null, "MSGID": "WTPZ24 KNHC 111431", "VALIDTIME": "2025-08-07 18:00:00" }, "geometry": { "type": "Point", "coordinates": [ -105.0, 18.299999 ] } },
{ "type": "Feature", "properties": { "ID": 18783, "LAT": 19.3, "LON": -106.6, "VMAX": 50.0, "MSLP": 1001.0, "RMAX": 15.0, "FSPD": 9.64064, "FDIR": 295.27078, "RENV": 80.0, "PENV": 1012.0, "VALIDT": 0, "DTG": "2025-08-08 00:00", "LATNOW": 23.1, "LONNOW": -119.1, "WINDNOW": 25.0, "DIRNOW": 5.0, "SPDNOW": 3.0, "TECH": "TRAK", "ADVNR": 20, "ATCFID": "EP092025", "NAME": "IVO", "FTECH": "OFCL", "FCST_DTG": "2025-08-11 12:00:00", "RUN_DTG": "2025-08-12 07:48:07", "BASIN": "EP", "STMNR": 9, "CAT_ID": null, "CAT_DESC": null, "MSGID": "WTPZ24 KNHC 111431", "VALIDTIME": "2025-08-08 00:00:00" }, "geometry": { "type": "Point", "coordinates": [ -106.599998, 19.299999 ] } },
{ "type": "Feature", "properties": { "ID": 18784, "LAT": 20.1, "LON": -108.4, "VMAX": 50.0, "MSLP": 1001.0, "RMAX": 15.0, "FSPD": 6.33383, "FDIR": 293.96057, "RENV": 80.0, "PENV": 1012.0, "VALIDT": 0, "DTG": "2025-08-08 06:00", "LATNOW": 23.1, "LONNOW": -119.1, "WINDNOW": 25.0, "DIRNOW": 5.0, "SPDNOW": 3.0, "TECH": "TRAK", "ADVNR": 20, "ATCFID": "EP092025", "NAME": "IVO", "FTECH": "OFCL", "FCST_DTG": "2025-08-11 12:00:00", "RUN_DTG": "2025-08-12 07:48:07", "BASIN": "EP", "STMNR": 9, "CAT_ID": null, "CAT_DESC": null, "MSGID": "WTPZ24 KNHC 111431", "VALIDTIME": "2025-08-08 06:00:00" }, "geometry": { "type": "Point", "coordinates": [ -108.400002, 20.1 ] } },
{ "type": "Feature", "properties": { "ID": 18785, "LAT": 20.6, "LON": -109.6, "VMAX": 50.0, "MSLP": 1001.0, "RMAX": 15.0, "FSPD": 5.98665, "FDIR": 255.06061, "RENV": 80.0, "PENV": 1011.0, "VALIDT": 0, "DTG": "2025-08-08 12:00", "LATNOW": 23.1, "LONNOW": -119.1, "WINDNOW": 25.0, "DIRNOW": 5.0, "SPDNOW": 3.0, "TECH": "TRAK", "ADVNR": 20, "ATCFID": "EP092025", "NAME": "IVO", "FTECH": "OFCL", "FCST_DTG": "2025-08-11 12:00:00", "RUN_DTG": "2025-08-12 07:48:07", "BASIN": "EP", "STMNR": 9, "CAT_ID": null, "CAT_DESC": null, "MSGID": "WTPZ24 KNHC 111431", "VALIDTIME": "2025-08-08 12:00:00" }, "geometry": { "type": "Point", "coordinates": [ -109.599998, 20.6 ] } },
{ "type": "Feature", "properties": { "ID": 18786, "LAT": 20.3, "LON": -110.8, "VMAX": 55.0, "MSLP": 999.0, "RMAX": 15.0, "FSPD": 4.85072, "FDIR": 276.08798, "RENV": 90.0, "PENV": 1013.0, "VALIDT": 0, "DTG": "2025-08-08 18:00", "LATNOW": 23.1, "LONNOW": -119.1, "WINDNOW": 25.0, "DIRNOW": 5.0, "SPDNOW": 3.0, "TECH": "TRAK", "ADVNR": 20, "ATCFID": "EP092025", "NAME": "IVO", "FTECH": "OFCL", "FCST_DTG": "2025-08-11 12:00:00", "RUN_DTG": "2025-08-12 07:48:07", "BASIN": "EP", "STMNR": 9, "CAT_ID": null, "CAT_DESC": null, "MSGID": "WTPZ24 KNHC 111431", "VALIDTIME": "2025-08-08 18:00:00" }, "geometry": { "type": "Point", "coordinates": [ -110.800003, 20.299999 ] } },
{ "type": "Feature", "properties": { "ID": 18787, "LAT": 20.4, "LON": -111.8, "VMAX": 55.0, "MSLP": 999.0, "RMAX": 15.0, "FSPD": 1.53483, "FDIR": 289.58356, "RENV": 180.0, "PENV": 1012.0, "VALIDT": 0, "DTG": "2025-08-09 00:00", "LATNOW": 23.1, "LONNOW": -119.1, "WINDNOW": 25.0, "DIRNOW": 5.0, "SPDNOW": 3.0, "TECH": "TRAK", "ADVNR": 20, "ATCFID": "EP092025", "NAME": "IVO", "FTECH": "OFCL", "FCST_DTG": "2025-08-11 12:00:00", "RUN_DTG": "2025-08-12 07:48:07", "BASIN": "EP", "STMNR": 9, "CAT_ID": null, "CAT_DESC": null, "MSGID": "WTPZ24 KNHC 111431", "VALIDTIME": "2025-08-09 00:00:00" }, "geometry": { "type": "Point", "coordinates": [ -111.800003, 20.4 ] } },
{ "type": "Feature", "properties": { "ID": 18788, "LAT": 20.5, "LON": -112.1, "VMAX": 50.0, "MSLP": 1001.0, "RMAX": 15.0, "FSPD": 2.51371, "FDIR": 324.94684, "RENV": 180.0, "PENV": 1012.0, "VALIDT": 0, "DTG": "2025-08-09 06:00", "LATNOW": 23.1, "LONNOW": -119.1, "WINDNOW": 25.0, "DIRNOW": 5.0, "SPDNOW": 3.0, "TECH": "TRAK", "ADVNR": 20, "ATCFID": "EP092025", "NAME": "IVO", "FTECH": "OFCL", "FCST_DTG": "2025-08-11 12:00:00", "RUN_DTG": "2025-08-12 07:48:07", "BASIN": "EP", "STMNR": 9, "CAT_ID": null, "CAT_DESC": null, "MSGID": "WTPZ24 KNHC 111431", "VALIDTIME": "2025-08-09 06:00:00" }, "geometry": { "type": "Point", "coordinates": [ -112.099998, 20.5 ] } },
{ "type": "Feature", "properties": { "ID": 18789, "LAT": 20.9, "LON": -112.4, "VMAX": 50.0, "MSLP": 1001.0, "RMAX": 15.0, "FSPD": 3.36416, "FDIR": 269.99997, "RENV": 180.0, "PENV": 1011.0, "VALIDT": 0, "DTG": "2025-08-09 12:00", "LATNOW": 23.1, "LONNOW": -119.1, "WINDNOW": 25.0, "DIRNOW": 5.0, "SPDNOW": 3.0, "TECH": "TRAK", "ADVNR": 20, "ATCFID": "EP092025", "NAME": "IVO", "FTECH": "OFCL", "FCST_DTG": "2025-08-11 12:00:00", "RUN_DTG": "2025-08-12 07:48:07", "BASIN": "EP", "STMNR": 9, "CAT_ID": null, "CAT_DESC": null, "MSGID": "WTPZ24 KNHC 111431", "VALIDTIME": "2025-08-09 12:00:00" }, "geometry": { "type": "Point", "coordinates": [ -112.400002, 20.9 ] } },
{ "type": "Feature", "properties": { "ID": 18790, "LAT": 20.9, "LON": -113.1, "VMAX": 45.0, "MSLP": 1003.0, "RMAX": 15.0, "FSPD": 3.05982, "FDIR": 289.6491, "RENV": 150.0, "PENV": 1012.0, "VALIDT": 0, "DTG": "2025-08-09 18:00", "LATNOW": 23.1, "LONNOW": -119.1, "WINDNOW": 25.0, "DIRNOW": 5.0, "SPDNOW": 3.0, "TECH": "TRAK", "ADVNR": 20, "ATCFID": "EP092025", "NAME": "IVO", "FTECH": "OFCL", "FCST_DTG": "2025-08-11 12:00:00", "RUN_DTG": "2025-08-12 07:48:07", "BASIN": "EP", "STMNR": 9, "CAT_ID": null, "CAT_DESC": null, "MSGID": "WTPZ24 KNHC 111431", "VALIDTIME": "2025-08-09 18:00:00" }, "geometry": { "type": "Point", "coordinates": [ -113.099998, 20.9 ] } },
{ "type": "Feature", "properties": { "ID": 18791, "LAT": 21.1, "LON": -113.7, "VMAX": 45.0, "MSLP": 1003.0, "RMAX": 15.0, "FSPD": 3.9726, "FDIR": 285.01044, "RENV": 180.0, "PENV": 1011.0, "VALIDT": 0, "DTG": "2025-08-10 00:00", "LATNOW": 23.1, "LONNOW": -119.1, "WINDNOW": 25.0, "DIRNOW": 5.0, "SPDNOW": 3.0, "TECH": "TRAK", "ADVNR": 20, "ATCFID": "EP092025", "NAME": "IVO", "FTECH": "OFCL", "FCST_DTG": "2025-08-11 12:00:00", "RUN_DTG": "2025-08-12 07:48:07", "BASIN": "EP", "STMNR": 9, "CAT_ID": null, "CAT_DESC": null, "MSGID": "WTPZ24 KNHC 111431", "VALIDTIME": "2025-08-10 00:00:00" }, "geometry": { "type": "Point", "coordinates": [ -113.699997, 21.1 ] } },
{ "type": "Feature", "properties": { "ID": 18792, "LAT": 21.3, "LON": -114.5, "VMAX": 35.0, "MSLP": 1006.0, "RMAX": 15.0, "FSPD": 5.65296, "FDIR": 291.3472, "RENV": 180.0, "PENV": 1012.0, "VALIDT": 0, "DTG": "2025-08-10 06:00", "LATNOW": 23.1, "LONNOW": -119.1, "WINDNOW": 25.0, "DIRNOW": 5.0, "SPDNOW": 3.0, "TECH": "TRAK", "ADVNR": 20, "ATCFID": "EP092025", "NAME": "IVO", "FTECH": "OFCL", "FCST_DTG": "2025-08-11 12:00:00", "RUN_DTG": "2025-08-12 07:48:07", "BASIN": "EP", "STMNR": 9, "CAT_ID": null, "CAT_DESC": null, "MSGID": "WTPZ24 KNHC 111431", "VALIDTIME": "2025-08-10 06:00:00" }, "geometry": { "type": "Point", "coordinates": [ -114.5, 21.299999 ] } },
{ "type": "Feature", "properties": { "ID": 18793, "LAT": 21.7, "LON": -115.6, "VMAX": 35.0, "MSLP": 1006.0, "RMAX": 15.0, "FSPD": 5.35398, "FDIR": 281.07953, "RENV": 120.0, "PENV": 1011.0, "VALIDT": 0, "DTG": "2025-08-10 12:00", "LATNOW": 23.1, "LONNOW": -119.1, "WINDNOW": 25.0, "DIRNOW": 5.0, "SPDNOW": 3.0, "TECH": "TRAK", "ADVNR": 20, "ATCFID": "EP092025", "NAME": "IVO", "FTECH": "OFCL", "FCST_DTG": "2025-08-11 12:00:00", "RUN_DTG": "2025-08-12 07:48:07", "BASIN": "EP", "STMNR": 9, "CAT_ID": null, "CAT_DESC": null, "MSGID": "WTPZ24 KNHC 111431", "VALIDTIME": "2025-08-10 12:00:00" }, "geometry": { "type": "Point", "coordinates": [ -115.599998, 21.700001 ] } },
{ "type": "Feature", "properties": { "ID": 18794, "LAT": 21.9, "LON": -116.7, "VMAX": 35.0, "MSLP": 1006.0, "RMAX": 30.0, "FSPD": 3.67728, "FDIR": 294.81537, "RENV": 120.0, "PENV": 1013.0, "VALIDT": 0, "DTG": "2025-08-10 18:00", "LATNOW": 23.1, "LONNOW": -119.1, "WINDNOW": 25.0, "DIRNOW": 5.0, "SPDNOW": 3.0, "TECH": "TRAK", "ADVNR": 20, "ATCFID": "EP092025", "NAME": "IVO", "FTECH": "OFCL", "FCST_DTG": "2025-08-11 12:00:00", "RUN_DTG": "2025-08-12 07:48:07", "BASIN": "EP", "STMNR": 9, "CAT_ID": null, "CAT_DESC": null, "MSGID": "WTPZ24 KNHC 111431", "VALIDTIME": "2025-08-10 18:00:00" }, "geometry": { "type": "Point", "coordinates": [ -116.699997, 21.9 ] } },
{ "type": "Feature", "properties": { "ID": 18795, "LAT": 22.2, "LON": -117.4, "VMAX": 30.0, "MSLP": 1006.0, "RMAX": 30.0, "FSPD": 4.32579, "FDIR": 298.40488, "RENV": 120.0, "PENV": 1012.0, "VALIDT": 0, "DTG": "2025-08-11 00:00", "LATNOW": 23.1, "LONNOW": -119.1, "WINDNOW": 25.0, "DIRNOW": 5.0, "SPDNOW": 3.0, "TECH": "TRAK", "ADVNR": 20, "ATCFID": "EP092025", "NAME": "IVO", "FTECH": "OFCL", "FCST_DTG": "2025-08-11 12:00:00", "RUN_DTG": "2025-08-12 07:48:07", "BASIN": "EP", "STMNR": 9, "CAT_ID": null, "CAT_DESC": null, "MSGID": "WTPZ24 KNHC 111431", "VALIDTIME": "2025-08-11 00:00:00" }, "geometry": { "type": "Point", "coordinates": [ -117.400002, 22.200001 ] } },
{ "type": "Feature", "properties": { "ID": 18796, "LAT": 22.6, "LON": -118.2, "VMAX": 30.0, "MSLP": 1007.0, "RMAX": 30.0, "FSPD": 4.98204, "FDIR": 301.0843, "RENV": 100.0, "PENV": 1013.0, "VALIDT": 0, "DTG": "2025-08-11 06:00", "LATNOW": 23.1, "LONNOW": -119.1, "WINDNOW": 25.0, "DIRNOW": 5.0, "SPDNOW": 3.0, "TECH": "TRAK", "ADVNR": 20, "ATCFID": "EP092025", "NAME": "IVO", "FTECH": "OFCL", "FCST_DTG": "2025-08-11 12:00:00", "RUN_DTG": "2025-08-12 07:48:07", "BASIN": "EP", "STMNR": 9, "CAT_ID": null, "CAT_DESC": null, "MSGID": "WTPZ24 KNHC 111431", "VALIDTIME": "2025-08-11 06:00:00" }, "geometry": { "type": "Point", "coordinates": [ -118.199997, 22.6 ] } },
{ "type": "Feature", "properties": { "ID": 18797, "LAT": 23.1, "LON": -119.1, "VMAX": 25.0, "MSLP": 1008.0, "RMAX": 30.0, "FSPD": 4.84081, "FDIR": 282.27155, "RENV": 100.0, "PENV": 1012.0, "VALIDT": 0, "DTG": "2025-08-11 12:00", "LATNOW": 23.1, "LONNOW": -119.1, "WINDNOW": 25.0, "DIRNOW": 5.0, "SPDNOW": 3.0, "TECH": "TRAK", "ADVNR": 20, "ATCFID": "EP092025", "NAME": "IVO", "FTECH": "OFCL", "FCST_DTG": "2025-08-11 12:00:00", "RUN_DTG": "2025-08-12 07:48:07", "BASIN": "EP", "STMNR": 9, "CAT_ID": null, "CAT_DESC": null, "MSGID": "WTPZ24 KNHC 111431", "VALIDTIME": "2025-08-11 12:00:00" }, "geometry": { "type": "Point", "coordinates": [ -119.099998, 23.1 ] } },
{ "type": "Feature", "properties": { "ID": 18798, "LAT": 23.2, "LON": -119.6, "VMAX": 25.0, "MSLP": 1008.0, "RMAX": 30.0, "FSPD": 5.08635, "FDIR": 277.75024, "RENV": 250.0, "PENV": 1012.0, "VALIDT": 3, "DTG": "2025-08-11 15:00", "LATNOW": 23.1, "LONNOW": -119.1, "WINDNOW": 25.0, "DIRNOW": 5.0, "SPDNOW": 3.0, "TECH": "FCST", "ADVNR": 20, "ATCFID": "EP092025", "NAME": "IVO", "FTECH": "OFCL", "FCST_DTG": "2025-08-11 12:00:00", "RUN_DTG": "2025-08-12 07:48:07", "BASIN": "EP", "STMNR": 9, "CAT_ID": null, "CAT_DESC": null, "MSGID": "WTPZ24 KNHC 111431", "VALIDTIME": "2025-08-11 15:00:00" }, "geometry": { "type": "Point", "coordinates": [ -119.599998, 23.200001 ] } },
{ "type": "Feature", "properties": { "ID": 18799, "LAT": 23.4, "LON": -121.2, "VMAX": 20.0, "MSLP": 1012.95825, "RMAX": 32.06412, "FSPD": 5.43359, "FDIR": 272.71335, "RENV": 250.0, "PENV": 1012.0, "VALIDT": 12, "DTG": "2025-08-12 00:00", "LATNOW": 23.1, "LONNOW": -119.1, "WINDNOW": 25.0, "DIRNOW": 5.0, "SPDNOW": 3.0, "TECH": "FCST", "ADVNR": 20, "ATCFID": "EP092025", "NAME": "IVO", "FTECH": "OFCL", "FCST_DTG": "2025-08-11 12:00:00", "RUN_DTG": "2025-08-12 07:48:07", "BASIN": "EP", "STMNR": 9, "CAT_ID": null, "CAT_DESC": null, "MSGID": "WTPZ24 KNHC 111431", "VALIDTIME": "2025-08-12 00:00:00" }, "geometry": { "type": "Point", "coordinates": [ -121.199997, 23.4 ] } },
{ "type": "Feature", "properties": { "ID": 18800, "LAT": 23.5, "LON": -123.5, "VMAX": 20.0, "MSLP": 1012.95825, "RMAX": 32.06412, "FSPD": 5.43359, "FDIR": 272.71335, "RENV": 250.0, "PENV": 1012.0, "VALIDT": 24, "DTG": "2025-08-12 12:00", "LATNOW": 23.1, "LONNOW": -119.1, "WINDNOW": 25.0, "DIRNOW": 5.0, "SPDNOW": 3.0, "TECH": "FCST", "ADVNR": 20, "ATCFID": "EP092025", "NAME": "IVO", "FTECH": "OFCL", "FCST_DTG": "2025-08-11 12:00:00", "RUN_DTG": "2025-08-12 07:48:07", "BASIN": "EP", "STMNR": 9, "CAT_ID": null, "CAT_DESC": null, "MSGID": "WTPZ24 KNHC 111431", "VALIDTIME": "2025-08-12 12:00:00" }, "geometry": { "type": "Point", "coordinates": [ -123.5, 23.5 ] } },
{ "type": "Feature", "properties": { "ID": 18797, "LAT": 23.1, "LON": -119.1, "VMAX": 25.0, "MSLP": 1008.0, "RMAX": 30.0, "FSPD": 4.84081, "FDIR": 282.27155, "RENV": 100.0, "PENV": 1012.0, "VALIDT": 0, "DTG": "2025-08-11 12:00", "LATNOW": 23.1, "LONNOW": -119.1, "WINDNOW": 25.0, "DIRNOW": 5.0, "SPDNOW": 3.0, "TECH": "TRAK", "ADVNR": 20, "ATCFID": "EP092025", "NAME": "IVO", "FTECH": "OFCL", "FCST_DTG": "2025-08-11 12:00:00", "RUN_DTG": "2025-08-12 07:48:07", "BASIN": "EP", "STMNR": 9, "CAT_ID": null, "CAT_DESC": null, "MSGID": "WTPZ24 KNHC 111431", "VALIDTIME": "2025-08-11 12:00:00" }, "geometry": { "type": "LineString", "coordinates": [ [ -90.4, 9.1 ], [ -92.0, 10.0 ], [ -92.5, 10.4 ], [ -94.6, 11.4 ], [ -96.5, 12.7 ], [ -98.2, 13.8 ], [ -100.0, 14.6 ], [ -102.1, 15.4 ], [ -103.3, 17.3 ], [ -105.0, 18.3 ], [ -106.6, 19.3 ], [ -108.4, 20.1 ], [ -109.6, 20.6 ], [ -110.8, 20.3 ], [ -111.8, 20.4 ], [ -112.1, 20.5 ], [ -112.4, 20.9 ], [ -113.1, 20.9 ], [ -113.7, 21.1 ], [ -114.5, 21.3 ], [ -115.6, 21.7 ], [ -116.7, 21.9 ], [ -117.4, 22.2 ], [ -118.2, 22.6 ], [ -119.1, 23.1 ] ] } },
{ "type": "Feature", "properties": { "ID": 18800, "LAT": 23.5, "LON": -123.5, "VMAX": 20.0, "MSLP": 1012.95825, "RMAX": 32.06412, "FSPD": 5.43359, "FDIR": 272.71335, "RENV": 250.0, "PENV": 1012.0, "VALIDT": 24, "DTG": "2025-08-12 12:00", "LATNOW": 23.1, "LONNOW": -119.1, "WINDNOW": 25.0, "DIRNOW": 5.0, "SPDNOW": 3.0, "TECH": "FCST", "ADVNR": 20, "ATCFID": "EP092025", "NAME": "IVO", "FTECH": "OFCL", "FCST_DTG": "2025-08-11 12:00:00", "RUN_DTG": "2025-08-12 07:48:07", "BASIN": "EP", "STMNR": 9, "CAT_ID": null, "CAT_DESC": null, "MSGID": "WTPZ24 KNHC 111431", "VALIDTIME": "2025-08-12 12:00:00" }, "geometry": { "type": "LineString", "coordinates": [ [ -119.1, 23.1 ], [ -119.6, 23.2 ], [ -121.2, 23.4 ], [ -123.5, 23.5 ] ] } }
]
}
