{
"type": "FeatureCollection",
"crs": { "type": "name", "properties": { "name": "urn:ogc:def:crs:OGC:1.3:CRS84" } },
"features": [
{ "type": "Feature", "properties": { "ID": 109902, "LAT": 11.1, "LON": 146.4, "VMAX": 15.0, "MSLP": 1013.8515, "RMAX": 40.0, "FSPD": 3.07174, "FDIR": 279.64105, "RENV": 500.0, "PENV": 1012.0, "VALIDT": 0, "DTG": "2026-09-20 06:00", "LATNOW": 31.9, "LONNOW": 139.9, "WINDNOW": 35.0, "DIRNOW": 5.0, "SPDNOW": 1.0, "TECH": "TRAK", "ADVNR": 30, "ATCFID": "WP252026", "NAME": "SURIGAE", "FTECH": "JTWC", "FCST_DTG": "2026-09-30 12:00:00", "RUN_DTG": "2026-10-01 06:26:00", "BASIN": "WP", "STMNR": 25, "CAT_ID": null, "CAT_DESC": null, "MSGID": "WTPN51 PGTW 301500", "VALIDTIME": "2026-09-20 06:00:00" }, "geometry": { "type": "Point", "coordinates": [ 146.399994, 11.1 ] } },
{ "type": "Feature", "properties": { "ID": 109903, "LAT": 11.2, "LON": 145.8, "VMAX": 15.0, "MSLP": 1013.8515, "RMAX": 40.0, "FSPD": 3.02791, "FDIR": 269.99997, "RENV": 500.0, "PENV": 1012.0, "VALIDT": 0, "DTG": "2026-09-20 12:00", "LATNOW": 31.9, "LONNOW": 139.9, "WINDNOW": 35.0, "DIRNOW": 5.0, "SPDNOW": 1.0, "TECH": "TRAK", "ADVNR": 30, "ATCFID": "WP252026", "NAME": "SURIGAE", "FTECH": "JTWC", "FCST_DTG": "2026-09-30 12:00:00", "RUN_DTG": "2026-10-01 06:26:00", "BASIN": "WP", "STMNR": 25, "CAT_ID": null, "CAT_DESC": null, "MSGID": "WTPN51 PGTW 301500", "VALIDTIME": "2026-09-20 12:00:00" }, "geometry": { "type": "Point", "coordinates": [ 145.800003, 11.2 ] } },
{ "type": "Feature", "properties": { "ID": 109904, "LAT": 11.2, "LON": 145.2, "VMAX": 15.0, "MSLP": 1013.8515, "RMAX": 40.0, "FSPD": 4.06914, "FDIR": 277.26312, "RENV": 500.0, "PENV": 1012.0, "VALIDT": 0, "DTG": "2026-09-20 18:00", "LATNOW": 31.9, "LONNOW": 139.9, "WINDNOW": 35.0, "DIRNOW": 5.0, "SPDNOW": 1.0, "TECH": "TRAK", "ADVNR": 30, "ATCFID": "WP252026", "NAME": "SURIGAE", "FTECH": "JTWC", "FCST_DTG": "2026-09-30 12:00:00", "RUN_DTG": "2026-10-01 06:26:00", "BASIN": "WP", "STMNR": 25, "CAT_ID": null, "CAT_DESC": null, "MSGID": "WTPN51 PGTW 301500", "VALIDTIME": "2026-09-20 18:00:00" }, "geometry": { "type": "Point", "coordinates": [ 145.199997, 11.2 ] } },
{ "type": "Feature", "properties": { "ID": 109905, "LAT": 11.3, "LON": 144.4, "VMAX": 15.0, "MSLP": 1013.8515, "RMAX": 40.0, "FSPD": 5.64181, "FDIR": 280.50772, "RENV": 500.0, "PENV": 1012.0, "VALIDT": 0, "DTG": "2026-09-21 00:00", "LATNOW": 31.9, "LONNOW": 139.9, "WINDNOW": 35.0, "DIRNOW": 5.0, "SPDNOW": 1.0, "TECH": "TRAK", "ADVNR": 30, "ATCFID": "WP252026", "NAME": "SURIGAE", "FTECH": "JTWC", "FCST_DTG": "2026-09-30 12:00:00", "RUN_DTG": "2026-10-01 06:26:00", "BASIN": "WP", "STMNR": 25, "CAT_ID": null, "CAT_DESC": null, "MSGID": "WTPN51 PGTW 301500", "VALIDTIME": "2026-09-21 00:00:00" }, "geometry": { "type": "Point", "coordinates": [ 144.399994, 11.3 ] } },
{ "type": "Feature", "properties": { "ID": 109906, "LAT": 11.5, "LON": 143.3, "VMAX": 15.0, "MSLP": 1013.8515, "RMAX": 40.0, "FSPD": 3.65655, "FDIR": 304.2472, "RENV": 500.0, "PENV": 1012.0, "VALIDT": 0, "DTG": "2026-09-21 06:00", "LATNOW": 31.9, "LONNOW": 139.9, "WINDNOW": 35.0, "DIRNOW": 5.0, "SPDNOW": 1.0, "TECH": "TRAK", "ADVNR": 30, "ATCFID": "WP252026", "NAME": "SURIGAE", "FTECH": "JTWC", "FCST_DTG": "2026-09-30 12:00:00", "RUN_DTG": "2026-10-01 06:26:00", "BASIN": "WP", "STMNR": 25, "CAT_ID": null, "CAT_DESC": null, "MSGID": "WTPN51 PGTW 301500", "VALIDTIME": "2026-09-21 06:00:00" }, "geometry": { "type": "Point", "coordinates": [ 143.300003, 11.5 ] } },
{ "type": "Feature", "properties": { "ID": 109907, "LAT": 11.9, "LON": 142.7, "VMAX": 20.0, "MSLP": 1012.95825, "RMAX": 45.0, "FSPD": 2.1587, "FDIR": 315.63794, "RENV": 500.0, "PENV": 1012.0, "VALIDT": 0, "DTG": "2026-09-21 12:00", "LATNOW": 31.9, "LONNOW": 139.9, "WINDNOW": 35.0, "DIRNOW": 5.0, "SPDNOW": 1.0, "TECH": "TRAK", "ADVNR": 30, "ATCFID": "WP252026", "NAME": "SURIGAE", "FTECH": "JTWC", "FCST_DTG": "2026-09-30 12:00:00", "RUN_DTG": "2026-10-01 06:26:00", "BASIN": "WP", "STMNR": 25, "CAT_ID": null, "CAT_DESC": null, "MSGID": "WTPN51 PGTW 301500", "VALIDTIME": "2026-09-21 12:00:00" }, "geometry": { "type": "Point", "coordinates": [ 142.699997, 11.9 ] } },
{ "type": "Feature", "properties": { "ID": 109908, "LAT": 12.2, "LON": 142.4, "VMAX": 20.0, "MSLP": 1012.95825, "RMAX": 45.0, "FSPD": 2.94882, "FDIR": 301.55878, "RENV": 500.0, "PENV": 1012.0, "VALIDT": 0, "DTG": "2026-09-21 18:00", "LATNOW": 31.9, "LONNOW": 139.9, "WINDNOW": 35.0, "DIRNOW": 5.0, "SPDNOW": 1.0, "TECH": "TRAK", "ADVNR": 30, "ATCFID": "WP252026", "NAME": "SURIGAE", "FTECH": "JTWC", "FCST_DTG": "2026-09-30 12:00:00", "RUN_DTG": "2026-10-01 06:26:00", "BASIN": "WP", "STMNR": 25, "CAT_ID": null, "CAT_DESC": null, "MSGID": "WTPN51 PGTW 301500", "VALIDTIME": "2026-09-21 18:00:00" }, "geometry": { "type": "Point", "coordinates": [ 142.399994, 12.2 ] } },
{ "type": "Feature", "properties": { "ID": 109909, "LAT": 12.5, "LON": 141.9, "VMAX": 20.0, "MSLP": 1012.95825, "RMAX": 45.0, "FSPD": 3.5931, "FDIR": 315.71515, "RENV": 500.0, "PENV": 1012.0, "VALIDT": 0, "DTG": "2026-09-22 00:00", "LATNOW": 31.9, "LONNOW": 139.9, "WINDNOW": 35.0, "DIRNOW": 5.0, "SPDNOW": 1.0, "TECH": "TRAK", "ADVNR": 30, "ATCFID": "WP252026", "NAME": "SURIGAE", "FTECH": "JTWC", "FCST_DTG": "2026-09-30 12:00:00", "RUN_DTG": "2026-10-01 06:26:00", "BASIN": "WP", "STMNR": 25, "CAT_ID": null, "CAT_DESC": null, "MSGID": "WTPN51 PGTW 301500", "VALIDTIME": "2026-09-22 00:00:00" }, "geometry": { "type": "Point", "coordinates": [ 141.899994, 12.5 ] } },
{ "type": "Feature", "properties": { "ID": 109910, "LAT": 13.0, "LON": 141.4, "VMAX": 20.0, "MSLP": 1012.95825, "RMAX": 45.0, "FSPD": 3.24126, "FDIR": 309.41028, "RENV": 500.0, "PENV": 1012.0, "VALIDT": 0, "DTG": "2026-09-22 06:00", "LATNOW": 31.9, "LONNOW": 139.9, "WINDNOW": 35.0, "DIRNOW": 5.0, "SPDNOW": 1.0, "TECH": "TRAK", "ADVNR": 30, "ATCFID": "WP252026", "NAME": "SURIGAE", "FTECH": "JTWC", "FCST_DTG": "2026-09-30 12:00:00", "RUN_DTG": "2026-10-01 06:26:00", "BASIN": "WP", "STMNR": 25, "CAT_ID": null, "CAT_DESC": null, "MSGID": "WTPN51 PGTW 301500", "VALIDTIME": "2026-09-22 06:00:00" }, "geometry": { "type": "Point", "coordinates": [ 141.399994, 13.0 ] } },
{ "type": "Feature", "properties": { "ID": 109911, "LAT": 13.4, "LON": 140.9, "VMAX": 20.0, "MSLP": 1012.95825, "RMAX": 45.0, "FSPD": 6.45331, "FDIR": 315.84534, "RENV": 500.0, "PENV": 1012.0, "VALIDT": 0, "DTG": "2026-09-22 12:00", "LATNOW": 31.9, "LONNOW": 139.9, "WINDNOW": 35.0, "DIRNOW": 5.0, "SPDNOW": 1.0, "TECH": "TRAK", "ADVNR": 30, "ATCFID": "WP252026", "NAME": "SURIGAE", "FTECH": "JTWC", "FCST_DTG": "2026-09-30 12:00:00", "RUN_DTG": "2026-10-01 06:26:00", "BASIN": "WP", "STMNR": 25, "CAT_ID": null, "CAT_DESC": null, "MSGID": "WTPN51 PGTW 301500", "VALIDTIME": "2026-09-22 12:00:00" }, "geometry": { "type": "Point", "coordinates": [ 140.899994, 13.4 ] } },
{ "type": "Feature", "properties": { "ID": 109912, "LAT": 14.3, "LON": 140.0, "VMAX": 20.0, "MSLP": 1012.95825, "RMAX": 45.0, "FSPD": 6.45747, "FDIR": 309.5932, "RENV": 500.0, "PENV": 1012.0, "VALIDT": 0, "DTG": "2026-09-22 18:00", "LATNOW": 31.9, "LONNOW": 139.9, "WINDNOW": 35.0, "DIRNOW": 5.0, "SPDNOW": 1.0, "TECH": "TRAK", "ADVNR": 30, "ATCFID": "WP252026", "NAME": "SURIGAE", "FTECH": "JTWC", "FCST_DTG": "2026-09-30 12:00:00", "RUN_DTG": "2026-10-01 06:26:00", "BASIN": "WP", "STMNR": 25, "CAT_ID": null, "CAT_DESC": null, "MSGID": "WTPN51 PGTW 301500", "VALIDTIME": "2026-09-22 18:00:00" }, "geometry": { "type": "Point", "coordinates": [ 140.0, 14.3 ] } },
{ "type": "Feature", "properties": { "ID": 109913, "LAT": 15.1, "LON": 139.0, "VMAX": 20.0, "MSLP": 1012.95825, "RMAX": 45.0, "FSPD": 5.50271, "FDIR": 327.2885, "RENV": 500.0, "PENV": 1012.0, "VALIDT": 0, "DTG": "2026-09-23 00:00", "LATNOW": 31.9, "LONNOW": 139.9, "WINDNOW": 35.0, "DIRNOW": 5.0, "SPDNOW": 1.0, "TECH": "TRAK", "ADVNR": 30, "ATCFID": "WP252026", "NAME": "SURIGAE", "FTECH": "JTWC", "FCST_DTG": "2026-09-30 12:00:00", "RUN_DTG": "2026-10-01 06:26:00", "BASIN": "WP", "STMNR": 25, "CAT_ID": null, "CAT_DESC": null, "MSGID": "WTPN51 PGTW 301500", "VALIDTIME": "2026-09-23 00:00:00" }, "geometry": { "type": "Point", "coordinates": [ 139.0, 15.1 ] } },
{ "type": "Feature", "properties": { "ID": 109914, "LAT": 16.0, "LON": 138.4, "VMAX": 25.0, "MSLP": 1005.0, "RMAX": 40.0, "FSPD": 4.71459, "FDIR": 303.06482, "RENV": 175.0, "PENV": 1009.0, "VALIDT": 0, "DTG": "2026-09-23 06:00", "LATNOW": 31.9, "LONNOW": 139.9, "WINDNOW": 35.0, "DIRNOW": 5.0, "SPDNOW": 1.0, "TECH": "TRAK", "ADVNR": 30, "ATCFID": "WP252026", "NAME": "SURIGAE", "FTECH": "JTWC", "FCST_DTG": "2026-09-30 12:00:00", "RUN_DTG": "2026-10-01 06:26:00", "BASIN": "WP", "STMNR": 25, "CAT_ID": null, "CAT_DESC": null, "MSGID": "WTPN51 PGTW 301500", "VALIDTIME": "2026-09-23 06:00:00" }, "geometry": { "type": "Point", "coordinates": [ 138.399994, 16.0 ] } },
{ "type": "Feature", "properties": { "ID": 109915, "LAT": 16.5, "LON": 137.6, "VMAX": 30.0, "MSLP": 1005.0, "RMAX": 40.0, "FSPD": 7.77703, "FDIR": 297.58374, "RENV": 175.0, "PENV": 1009.0, "VALIDT": 0, "DTG": "2026-09-23 12:00", "LATNOW": 31.9, "LONNOW": 139.9, "WINDNOW": 35.0, "DIRNOW": 5.0, "SPDNOW": 1.0, "TECH": "TRAK", "ADVNR": 30, "ATCFID": "WP252026", "NAME": "SURIGAE", "FTECH": "JTWC", "FCST_DTG": "2026-09-30 12:00:00", "RUN_DTG": "2026-10-01 06:26:00", "BASIN": "WP", "STMNR": 25, "CAT_ID": null, "CAT_DESC": null, "MSGID": "WTPN51 PGTW 301500", "VALIDTIME": "2026-09-23 12:00:00" }, "geometry": { "type": "Point", "coordinates": [ 137.600006, 16.5 ] } },
{ "type": "Feature", "properties": { "ID": 109916, "LAT": 17.2, "LON": 136.2, "VMAX": 35.0, "MSLP": 1005.0, "RMAX": 35.0, "FSPD": 10.63829, "FDIR": 298.91934, "RENV": 175.0, "PENV": 1010.0, "VALIDT": 0, "DTG": "2026-09-23 18:00", "LATNOW": 31.9, "LONNOW": 139.9, "WINDNOW": 35.0, "DIRNOW": 5.0, "SPDNOW": 1.0, "TECH": "TRAK", "ADVNR": 30, "ATCFID": "WP252026", "NAME": "SURIGAE", "FTECH": "JTWC", "FCST_DTG": "2026-09-30 12:00:00", "RUN_DTG": "2026-10-01 06:26:00", "BASIN": "WP", "STMNR": 25, "CAT_ID": null, "CAT_DESC": null, "MSGID": "WTPN51 PGTW 301500", "VALIDTIME": "2026-09-23 18:00:00" }, "geometry": { "type": "Point", "coordinates": [ 136.199997, 17.200001 ] } },
{ "type": "Feature", "properties": { "ID": 109917, "LAT": 18.2, "LON": 134.3, "VMAX": 35.0, "MSLP": 1005.0, "RMAX": 35.0, "FSPD": 6.87174, "FDIR": 301.604, "RENV": 170.0, "PENV": 1010.0, "VALIDT": 0, "DTG": "2026-09-24 00:00", "LATNOW": 31.9, "LONNOW": 139.9, "WINDNOW": 35.0, "DIRNOW": 5.0, "SPDNOW": 1.0, "TECH": "TRAK", "ADVNR": 30, "ATCFID": "WP252026", "NAME": "SURIGAE", "FTECH": "JTWC", "FCST_DTG": "2026-09-30 12:00:00", "RUN_DTG": "2026-10-01 06:26:00", "BASIN": "WP", "STMNR": 25, "CAT_ID": null, "CAT_DESC": null, "MSGID": "WTPN51 PGTW 301500", "VALIDTIME": "2026-09-24 00:00:00" }, "geometry": { "type": "Point", "coordinates": [ 134.300003, 18.200001 ] } },
{ "type": "Feature", "properties": { "ID": 109918, "LAT": 18.9, "LON": 133.1, "VMAX": 45.0, "MSLP": 1004.0, "RMAX": 35.0, "FSPD": 3.30532, "FDIR": 242.16522, "RENV": 160.0, "PENV": 1009.0, "VALIDT": 0, "DTG": "2026-09-24 06:00", "LATNOW": 31.9, "LONNOW": 139.9, "WINDNOW": 35.0, "DIRNOW": 5.0, "SPDNOW": 1.0, "TECH": "TRAK", "ADVNR": 30, "ATCFID": "WP252026", "NAME": "SURIGAE", "FTECH": "JTWC", "FCST_DTG": "2026-09-30 12:00:00", "RUN_DTG": "2026-10-01 06:26:00", "BASIN": "WP", "STMNR": 25, "CAT_ID": null, "CAT_DESC": null, "MSGID": "WTPN51 PGTW 301500", "VALIDTIME": "2026-09-24 06:00:00" }, "geometry": { "type": "Point", "coordinates": [ 133.100006, 18.9 ] } },
{ "type": "Feature", "properties": { "ID": 109919, "LAT": 18.6, "LON": 132.5, "VMAX": 40.0, "MSLP": 999.0, "RMAX": 30.0, "FSPD": 5.3028, "FDIR": 312.77298, "RENV": 140.0, "PENV": 1008.0, "VALIDT": 0, "DTG": "2026-09-24 12:00", "LATNOW": 31.9, "LONNOW": 139.9, "WINDNOW": 35.0, "DIRNOW": 5.0, "SPDNOW": 1.0, "TECH": "TRAK", "ADVNR": 30, "ATCFID": "WP252026", "NAME": "SURIGAE", "FTECH": "JTWC", "FCST_DTG": "2026-09-30 12:00:00", "RUN_DTG": "2026-10-01 06:26:00", "BASIN": "WP", "STMNR": 25, "CAT_ID": null, "CAT_DESC": null, "MSGID": "WTPN51 PGTW 301500", "VALIDTIME": "2026-09-24 12:00:00" }, "geometry": { "type": "Point", "coordinates": [ 132.5, 18.6 ] } },
{ "type": "Feature", "properties": { "ID": 109920, "LAT": 19.3, "LON": 131.7, "VMAX": 35.0, "MSLP": 1001.0, "RMAX": 30.0, "FSPD": 5.74585, "FDIR": 302.49323, "RENV": 150.0, "PENV": 1010.0, "VALIDT": 0, "DTG": "2026-09-24 18:00", "LATNOW": 31.9, "LONNOW": 139.9, "WINDNOW": 35.0, "DIRNOW": 5.0, "SPDNOW": 1.0, "TECH": "TRAK", "ADVNR": 30, "ATCFID": "WP252026", "NAME": "SURIGAE", "FTECH": "JTWC", "FCST_DTG": "2026-09-30 12:00:00", "RUN_DTG": "2026-10-01 06:26:00", "BASIN": "WP", "STMNR": 25, "CAT_ID": null, "CAT_DESC": null, "MSGID": "WTPN51 PGTW 301500", "VALIDTIME": "2026-09-24 18:00:00" }, "geometry": { "type": "Point", "coordinates": [ 131.699997, 19.299999 ] } },
{ "type": "Feature", "properties": { "ID": 109921, "LAT": 19.9, "LON": 130.7, "VMAX": 40.0, "MSLP": 1004.0, "RMAX": 25.0, "FSPD": 7.90986, "FDIR": 301.35287, "RENV": 160.0, "PENV": 1010.0, "VALIDT": 0, "DTG": "2026-09-25 00:00", "LATNOW": 31.9, "LONNOW": 139.9, "WINDNOW": 35.0, "DIRNOW": 5.0, "SPDNOW": 1.0, "TECH": "TRAK", "ADVNR": 30, "ATCFID": "WP252026", "NAME": "SURIGAE", "FTECH": "JTWC", "FCST_DTG": "2026-09-30 12:00:00", "RUN_DTG": "2026-10-01 06:26:00", "BASIN": "WP", "STMNR": 25, "CAT_ID": null, "CAT_DESC": null, "MSGID": "WTPN51 PGTW 301500", "VALIDTIME": "2026-09-25 00:00:00" }, "geometry": { "type": "Point", "coordinates": [ 130.699997, 19.9 ] } },
{ "type": "Feature", "properties": { "ID": 109922, "LAT": 20.7, "LON": 129.3, "VMAX": 45.0, "MSLP": 1003.0, "RMAX": 25.0, "FSPD": 6.39218, "FDIR": 304.28857, "RENV": 170.0, "PENV": 1011.0, "VALIDT": 0, "DTG": "2026-09-25 06:00", "LATNOW": 31.9, "LONNOW": 139.9, "WINDNOW": 35.0, "DIRNOW": 5.0, "SPDNOW": 1.0, "TECH": "TRAK", "ADVNR": 30, "ATCFID": "WP252026", "NAME": "SURIGAE", "FTECH": "JTWC", "FCST_DTG": "2026-09-30 12:00:00", "RUN_DTG": "2026-10-01 06:26:00", "BASIN": "WP", "STMNR": 25, "CAT_ID": null, "CAT_DESC": null, "MSGID": "WTPN51 PGTW 301500", "VALIDTIME": "2026-09-25 06:00:00" }, "geometry": { "type": "Point", "coordinates": [ 129.300003, 20.700001 ] } },
{ "type": "Feature", "properties": { "ID": 109923, "LAT": 21.4, "LON": 128.2, "VMAX": 50.0, "MSLP": 1003.0, "RMAX": 25.0, "FSPD": 3.20535, "FDIR": 323.36725, "RENV": 160.0, "PENV": 1008.0, "VALIDT": 0, "DTG": "2026-09-25 12:00", "LATNOW": 31.9, "LONNOW": 139.9, "WINDNOW": 35.0, "DIRNOW": 5.0, "SPDNOW": 1.0, "TECH": "TRAK", "ADVNR": 30, "ATCFID": "WP252026", "NAME": "SURIGAE", "FTECH": "JTWC", "FCST_DTG": "2026-09-30 12:00:00", "RUN_DTG": "2026-10-01 06:26:00", "BASIN": "WP", "STMNR": 25, "CAT_ID": null, "CAT_DESC": null, "MSGID": "WTPN51 PGTW 301500", "VALIDTIME": "2026-09-25 12:00:00" }, "geometry": { "type": "Point", "coordinates": [ 128.199997, 21.4 ] } },
{ "type": "Feature", "properties": { "ID": 109924, "LAT": 21.9, "LON": 127.8, "VMAX": 55.0, "MSLP": 998.0, "RMAX": 25.0, "FSPD": 4.59853, "FDIR": 304.01135, "RENV": 185.0, "PENV": 1011.0, "VALIDT": 0, "DTG": "2026-09-25 18:00", "LATNOW": 31.9, "LONNOW": 139.9, "WINDNOW": 35.0, "DIRNOW": 5.0, "SPDNOW": 1.0, "TECH": "TRAK", "ADVNR": 30, "ATCFID": "WP252026", "NAME": "SURIGAE", "FTECH": "JTWC", "FCST_DTG": "2026-09-30 12:00:00", "RUN_DTG": "2026-10-01 06:26:00", "BASIN": "WP", "STMNR": 25, "CAT_ID": null, "CAT_DESC": null, "MSGID": "WTPN51 PGTW 301500", "VALIDTIME": "2026-09-25 18:00:00" }, "geometry": { "type": "Point", "coordinates": [ 127.800003, 21.9 ] } },
{ "type": "Feature", "properties": { "ID": 109925, "LAT": 22.4, "LON": 127.0, "VMAX": 60.0, "MSLP": 994.0, "RMAX": 20.0, "FSPD": 2.74188, "FDIR": 339.73865, "RENV": 195.0, "PENV": 1010.0, "VALIDT": 0, "DTG": "2026-09-26 00:00", "LATNOW": 31.9, "LONNOW": 139.9, "WINDNOW": 35.0, "DIRNOW": 5.0, "SPDNOW": 1.0, "TECH": "TRAK", "ADVNR": 30, "ATCFID": "WP252026", "NAME": "SURIGAE", "FTECH": "JTWC", "FCST_DTG": "2026-09-30 12:00:00", "RUN_DTG": "2026-10-01 06:26:00", "BASIN": "WP", "STMNR": 25, "CAT_ID": null, "CAT_DESC": null, "MSGID": "WTPN51 PGTW 301500", "VALIDTIME": "2026-09-26 00:00:00" }, "geometry": { "type": "Point", "coordinates": [ 127.0, 22.4 ] } },
{ "type": "Feature", "properties": { "ID": 109926, "LAT": 22.9, "LON": 126.8, "VMAX": 70.0, "MSLP": 990.0, "RMAX": 20.0, "FSPD": 2.11148, "FDIR": 12.95013, "RENV": 225.0, "PENV": 1011.0, "VALIDT": 0, "DTG": "2026-09-26 06:00", "LATNOW": 31.9, "LONNOW": 139.9, "WINDNOW": 35.0, "DIRNOW": 5.0, "SPDNOW": 1.0, "TECH": "TRAK", "ADVNR": 30, "ATCFID": "WP252026", "NAME": "SURIGAE", "FTECH": "JTWC", "FCST_DTG": "2026-09-30 12:00:00", "RUN_DTG": "2026-10-01 06:26:00", "BASIN": "WP", "STMNR": 25, "CAT_ID": null, "CAT_DESC": null, "MSGID": "WTPN51 PGTW 301500", "VALIDTIME": "2026-09-26 06:00:00" }, "geometry": { "type": "Point", "coordinates": [ 126.800003, 22.9 ] } },
{ "type": "Feature", "properties": { "ID": 109927, "LAT": 23.3, "LON": 126.9, "VMAX": 70.0, "MSLP": 981.0, "RMAX": 15.0, "FSPD": 3.86866, "FDIR": 21.4335, "RENV": 245.0, "PENV": 1009.0, "VALIDT": 0, "DTG": "2026-09-26 12:00", "LATNOW": 31.9, "LONNOW": 139.9, "WINDNOW": 35.0, "DIRNOW": 5.0, "SPDNOW": 1.0, "TECH": "TRAK", "ADVNR": 30, "ATCFID": "WP252026", "NAME": "SURIGAE", "FTECH": "JTWC", "FCST_DTG": "2026-09-30 12:00:00", "RUN_DTG": "2026-10-01 06:26:00", "BASIN": "WP", "STMNR": 25, "CAT_ID": null, "CAT_DESC": null, "MSGID": "WTPN51 PGTW 301500", "VALIDTIME": "2026-09-26 12:00:00" }, "geometry": { "type": "Point", "coordinates": [ 126.900002, 23.299999 ] } },
{ "type": "Feature", "properties": { "ID": 109928, "LAT": 24.0, "LON": 127.2, "VMAX": 75.0, "MSLP": 981.0, "RMAX": 15.0, "FSPD": 3.61178, "FDIR": 31.28302, "RENV": 215.0, "PENV": 1010.0, "VALIDT": 0, "DTG": "2026-09-26 18:00", "LATNOW": 31.9, "LONNOW": 139.9, "WINDNOW": 35.0, "DIRNOW": 5.0, "SPDNOW": 1.0, "TECH": "TRAK", "ADVNR": 30, "ATCFID": "WP252026", "NAME": "SURIGAE", "FTECH": "JTWC", "FCST_DTG": "2026-09-30 12:00:00", "RUN_DTG": "2026-10-01 06:26:00", "BASIN": "WP", "STMNR": 25, "CAT_ID": null, "CAT_DESC": null, "MSGID": "WTPN51 PGTW 301500", "VALIDTIME": "2026-09-26 18:00:00" }, "geometry": { "type": "Point", "coordinates": [ 127.199997, 24.0 ] } },
{ "type": "Feature", "properties": { "ID": 109929, "LAT": 24.6, "LON": 127.6, "VMAX": 90.0, "MSLP": 977.0, "RMAX": 15.0, "FSPD": 5.25259, "FDIR": 38.41531, "RENV": 215.0, "PENV": 1010.0, "VALIDT": 0, "DTG": "2026-09-27 00:00", "LATNOW": 31.9, "LONNOW": 139.9, "WINDNOW": 35.0, "DIRNOW": 5.0, "SPDNOW": 1.0, "TECH": "TRAK", "ADVNR": 30, "ATCFID": "WP252026", "NAME": "SURIGAE", "FTECH": "JTWC", "FCST_DTG": "2026-09-30 12:00:00", "RUN_DTG": "2026-10-01 06:26:00", "BASIN": "WP", "STMNR": 25, "CAT_ID": null, "CAT_DESC": null, "MSGID": "WTPN51 PGTW 301500", "VALIDTIME": "2026-09-27 00:00:00" }, "geometry": { "type": "Point", "coordinates": [ 127.599998, 24.6 ] } },
{ "type": "Feature", "properties": { "ID": 109930, "LAT": 25.4, "LON": 128.3, "VMAX": 105.0, "MSLP": 964.0, "RMAX": 12.0, "FSPD": 4.51447, "FDIR": 55.26562, "RENV": 200.0, "PENV": 1009.0, "VALIDT": 0, "DTG": "2026-09-27 06:00", "LATNOW": 31.9, "LONNOW": 139.9, "WINDNOW": 35.0, "DIRNOW": 5.0, "SPDNOW": 1.0, "TECH": "TRAK", "ADVNR": 30, "ATCFID": "WP252026", "NAME": "SURIGAE", "FTECH": "JTWC", "FCST_DTG": "2026-09-30 12:00:00", "RUN_DTG": "2026-10-01 06:26:00", "BASIN": "WP", "STMNR": 25, "CAT_ID": null, "CAT_DESC": null, "MSGID": "WTPN51 PGTW 301500", "VALIDTIME": "2026-09-27 06:00:00" }, "geometry": { "type": "Point", "coordinates": [ 128.300003, 25.4 ] } },
{ "type": "Feature", "properties": { "ID": 109931, "LAT": 25.9, "LON": 129.1, "VMAX": 125.0, "MSLP": 952.0, "RMAX": 12.0, "FSPD": 4.63919, "FDIR": 63.66852, "RENV": 200.0, "PENV": 1009.0, "VALIDT": 0, "DTG": "2026-09-27 12:00", "LATNOW": 31.9, "LONNOW": 139.9, "WINDNOW": 35.0, "DIRNOW": 5.0, "SPDNOW": 1.0, "TECH": "TRAK", "ADVNR": 30, "ATCFID": "WP252026", "NAME": "SURIGAE", "FTECH": "JTWC", "FCST_DTG": "2026-09-30 12:00:00", "RUN_DTG": "2026-10-01 06:26:00", "BASIN": "WP", "STMNR": 25, "CAT_ID": null, "CAT_DESC": null, "MSGID": "WTPN51 PGTW 301500", "VALIDTIME": "2026-09-27 12:00:00" }, "geometry": { "type": "Point", "coordinates": [ 129.100006, 25.9 ] } },
{ "type": "Feature", "properties": { "ID": 109932, "LAT": 26.3, "LON": 130.0, "VMAX": 130.0, "MSLP": 934.0, "RMAX": 12.0, "FSPD": 4.4233, "FDIR": 69.57925, "RENV": 200.0, "PENV": 1009.0, "VALIDT": 0, "DTG": "2026-09-27 18:00", "LATNOW": 31.9, "LONNOW": 139.9, "WINDNOW": 35.0, "DIRNOW": 5.0, "SPDNOW": 1.0, "TECH": "TRAK", "ADVNR": 30, "ATCFID": "WP252026", "NAME": "SURIGAE", "FTECH": "JTWC", "FCST_DTG": "2026-09-30 12:00:00", "RUN_DTG": "2026-10-01 06:26:00", "BASIN": "WP", "STMNR": 25, "CAT_ID": null, "CAT_DESC": null, "MSGID": "WTPN51 PGTW 301500", "VALIDTIME": "2026-09-27 18:00:00" }, "geometry": { "type": "Point", "coordinates": [ 130.0, 26.299999 ] } },
{ "type": "Feature", "properties": { "ID": 109933, "LAT": 26.6, "LON": 130.9, "VMAX": 120.0, "MSLP": 929.0, "RMAX": 5.0, "FSPD": 5.63234, "FDIR": 34.71069, "RENV": 180.0, "PENV": 1008.0, "VALIDT": 0, "DTG": "2026-09-28 00:00", "LATNOW": 31.9, "LONNOW": 139.9, "WINDNOW": 35.0, "DIRNOW": 5.0, "SPDNOW": 1.0, "TECH": "TRAK", "ADVNR": 30, "ATCFID": "WP252026", "NAME": "SURIGAE", "FTECH": "JTWC", "FCST_DTG": "2026-09-30 12:00:00", "RUN_DTG": "2026-10-01 06:26:00", "BASIN": "WP", "STMNR": 25, "CAT_ID": null, "CAT_DESC": null, "MSGID": "WTPN51 PGTW 301500", "VALIDTIME": "2026-09-28 00:00:00" }, "geometry": { "type": "Point", "coordinates": [ 130.899994, 26.6 ] } },
{ "type": "Feature", "properties": { "ID": 109934, "LAT": 27.5, "LON": 131.6, "VMAX": 100.0, "MSLP": 938.0, "RMAX": 5.0, "FSPD": 5.4758, "FDIR": 90.0, "RENV": 180.0, "PENV": 1008.0, "VALIDT": 0, "DTG": "2026-09-28 06:00", "LATNOW": 31.9, "LONNOW": 139.9, "WINDNOW": 35.0, "DIRNOW": 5.0, "SPDNOW": 1.0, "TECH": "TRAK", "ADVNR": 30, "ATCFID": "WP252026", "NAME": "SURIGAE", "FTECH": "JTWC", "FCST_DTG": "2026-09-30 12:00:00", "RUN_DTG": "2026-10-01 06:26:00", "BASIN": "WP", "STMNR": 25, "CAT_ID": null, "CAT_DESC": null, "MSGID": "WTPN51 PGTW 301500", "VALIDTIME": "2026-09-28 06:00:00" }, "geometry": { "type": "Point", "coordinates": [ 131.600006, 27.5 ] } },
{ "type": "Feature", "properties": { "ID": 109935, "LAT": 27.5, "LON": 132.8, "VMAX": 90.0, "MSLP": 954.0, "RMAX": 5.0, "FSPD": 3.58341, "FDIR": 30.52832, "RENV": 180.0, "PENV": 1008.0, "VALIDT": 0, "DTG": "2026-09-28 12:00", "LATNOW": 31.9, "LONNOW": 139.9, "WINDNOW": 35.0, "DIRNOW": 5.0, "SPDNOW": 1.0, "TECH": "TRAK", "ADVNR": 30, "ATCFID": "WP252026", "NAME": "SURIGAE", "FTECH": "JTWC", "FCST_DTG": "2026-09-30 12:00:00", "RUN_DTG": "2026-10-01 06:26:00", "BASIN": "WP", "STMNR": 25, "CAT_ID": null, "CAT_DESC": null, "MSGID": "WTPN51 PGTW 301500", "VALIDTIME": "2026-09-28 12:00:00" }, "geometry": { "type": "Point", "coordinates": [ 132.800003, 27.5 ] } },
{ "type": "Feature", "properties": { "ID": 109936, "LAT": 28.1, "LON": 133.2, "VMAX": 70.0, "MSLP": 962.0, "RMAX": 5.0, "FSPD": 4.08168, "FDIR": 50.93607, "RENV": 180.0, "PENV": 1008.0, "VALIDT": 0, "DTG": "2026-09-28 18:00", "LATNOW": 31.9, "LONNOW": 139.9, "WINDNOW": 35.0, "DIRNOW": 5.0, "SPDNOW": 1.0, "TECH": "TRAK", "ADVNR": 30, "ATCFID": "WP252026", "NAME": "SURIGAE", "FTECH": "JTWC", "FCST_DTG": "2026-09-30 12:00:00", "RUN_DTG": "2026-10-01 06:26:00", "BASIN": "WP", "STMNR": 25, "CAT_ID": null, "CAT_DESC": null, "MSGID": "WTPN51 PGTW 301500", "VALIDTIME": "2026-09-28 18:00:00" }, "geometry": { "type": "Point", "coordinates": [ 133.199997, 28.1 ] } },
{ "type": "Feature", "properties": { "ID": 109937, "LAT": 28.6, "LON": 133.9, "VMAX": 55.0, "MSLP": 976.0, "RMAX": 5.0, "FSPD": 5.36895, "FDIR": 67.46341, "RENV": 230.0, "PENV": 1010.0, "VALIDT": 0, "DTG": "2026-09-29 00:00", "LATNOW": 31.9, "LONNOW": 139.9, "WINDNOW": 35.0, "DIRNOW": 5.0, "SPDNOW": 1.0, "TECH": "TRAK", "ADVNR": 30, "ATCFID": "WP252026", "NAME": "SURIGAE", "FTECH": "JTWC", "FCST_DTG": "2026-09-30 12:00:00", "RUN_DTG": "2026-10-01 06:26:00", "BASIN": "WP", "STMNR": 25, "CAT_ID": null, "CAT_DESC": null, "MSGID": "WTPN51 PGTW 301500", "VALIDTIME": "2026-09-29 00:00:00" }, "geometry": { "type": "Point", "coordinates": [ 133.899994, 28.6 ] } },
{ "type": "Feature", "properties": { "ID": 109938, "LAT": 29.0, "LON": 135.0, "VMAX": 50.0, "MSLP": 988.0, "RMAX": 35.0, "FSPD": 5.9335, "FDIR": 80.01419, "RENV": 170.0, "PENV": 1010.0, "VALIDT": 0, "DTG": "2026-09-29 06:00", "LATNOW": 31.9, "LONNOW": 139.9, "WINDNOW": 35.0, "DIRNOW": 5.0, "SPDNOW": 1.0, "TECH": "TRAK", "ADVNR": 30, "ATCFID": "WP252026", "NAME": "SURIGAE", "FTECH": "JTWC", "FCST_DTG": "2026-09-30 12:00:00", "RUN_DTG": "2026-10-01 06:26:00", "BASIN": "WP", "STMNR": 25, "CAT_ID": null, "CAT_DESC": null, "MSGID": "WTPN51 PGTW 301500", "VALIDTIME": "2026-09-29 06:00:00" }, "geometry": { "type": "Point", "coordinates": [ 135.0, 29.0 ] } },
{ "type": "Feature", "properties": { "ID": 109939, "LAT": 29.2, "LON": 136.3, "VMAX": 45.0, "MSLP": 989.0, "RMAX": 35.0, "FSPD": 2.72917, "FDIR": 41.06241, "RENV": 155.0, "PENV": 1008.0, "VALIDT": 0, "DTG": "2026-09-29 12:00", "LATNOW": 31.9, "LONNOW": 139.9, "WINDNOW": 35.0, "DIRNOW": 5.0, "SPDNOW": 1.0, "TECH": "TRAK", "ADVNR": 30, "ATCFID": "WP252026", "NAME": "SURIGAE", "FTECH": "JTWC", "FCST_DTG": "2026-09-30 12:00:00", "RUN_DTG": "2026-10-01 06:26:00", "BASIN": "WP", "STMNR": 25, "CAT_ID": null, "CAT_DESC": null, "MSGID": "WTPN51 PGTW 301500", "VALIDTIME": "2026-09-29 12:00:00" }, "geometry": { "type": "Point", "coordinates": [ 136.300003, 29.200001 ] } },
{ "type": "Feature", "properties": { "ID": 109940, "LAT": 29.6, "LON": 136.7, "VMAX": 40.0, "MSLP": 994.0, "RMAX": 35.0, "FSPD": 4.08506, "FDIR": 40.92218, "RENV": 165.0, "PENV": 1010.0, "VALIDT": 0, "DTG": "2026-09-29 18:00", "LATNOW": 31.9, "LONNOW": 139.9, "WINDNOW": 35.0, "DIRNOW": 5.0, "SPDNOW": 1.0, "TECH": "TRAK", "ADVNR": 30, "ATCFID": "WP252026", "NAME": "SURIGAE", "FTECH": "JTWC", "FCST_DTG": "2026-09-30 12:00:00", "RUN_DTG": "2026-10-01 06:26:00", "BASIN": "WP", "STMNR": 25, "CAT_ID": null, "CAT_DESC": null, "MSGID": "WTPN51 PGTW 301500", "VALIDTIME": "2026-09-29 18:00:00" }, "geometry": { "type": "Point", "coordinates": [ 136.699997, 29.6 ] } },
{ "type": "Feature", "properties": { "ID": 109941, "LAT": 30.2, "LON": 137.3, "VMAX": 35.0, "MSLP": 997.0, "RMAX": 35.0, "FSPD": 6.78471, "FDIR": 40.69067, "RENV": 230.0, "PENV": 1010.0, "VALIDT": 0, "DTG": "2026-09-30 00:00", "LATNOW": 31.9, "LONNOW": 139.9, "WINDNOW": 35.0, "DIRNOW": 5.0, "SPDNOW": 1.0, "TECH": "TRAK", "ADVNR": 30, "ATCFID": "WP252026", "NAME": "SURIGAE", "FTECH": "JTWC", "FCST_DTG": "2026-09-30 12:00:00", "RUN_DTG": "2026-10-01 06:26:00", "BASIN": "WP", "STMNR": 25, "CAT_ID": null, "CAT_DESC": null, "MSGID": "WTPN51 PGTW 301500", "VALIDTIME": "2026-09-30 00:00:00" }, "geometry": { "type": "Point", "coordinates": [ 137.300003, 30.200001 ] } },
{ "type": "Feature", "properties": { "ID": 109942, "LAT": 31.2, "LON": 138.3, "VMAX": 35.0, "MSLP": 1000.0, "RMAX": 40.0, "FSPD": 7.88476, "FDIR": 62.82452, "RENV": 160.0, "PENV": 1010.0, "VALIDT": 0, "DTG": "2026-09-30 06:00", "LATNOW": 31.9, "LONNOW": 139.9, "WINDNOW": 35.0, "DIRNOW": 5.0, "SPDNOW": 1.0, "TECH": "TRAK", "ADVNR": 30, "ATCFID": "WP252026", "NAME": "SURIGAE", "FTECH": "JTWC", "FCST_DTG": "2026-09-30 12:00:00", "RUN_DTG": "2026-10-01 06:26:00", "BASIN": "WP", "STMNR": 25, "CAT_ID": null, "CAT_DESC": null, "MSGID": "WTPN51 PGTW 301500", "VALIDTIME": "2026-09-30 06:00:00" }, "geometry": { "type": "Point", "coordinates": [ 138.300003, 31.200001 ] } },
{ "type": "Feature", "properties": { "ID": 109943, "LAT": 31.9, "LON": 139.9, "VMAX": 35.0, "MSLP": 1000.0, "RMAX": 45.0, "FSPD": 5.30742, "FDIR": 29.26553, "RENV": 165.0, "PENV": 1010.0, "VALIDT": 0, "DTG": "2026-09-30 12:00", "LATNOW": 31.9, "LONNOW": 139.9, "WINDNOW": 35.0, "DIRNOW": 5.0, "SPDNOW": 1.0, "TECH": "TRAK", "ADVNR": 30, "ATCFID": "WP252026", "NAME": "SURIGAE", "FTECH": "JTWC", "FCST_DTG": "2026-09-30 12:00:00", "RUN_DTG": "2026-10-01 06:26:00", "BASIN": "WP", "STMNR": 25, "CAT_ID": null, "CAT_DESC": null, "MSGID": "WTPN51 PGTW 301500", "VALIDTIME": "2026-09-30 12:00:00" }, "geometry": { "type": "Point", "coordinates": [ 139.899994, 31.9 ] } },
{ "type": "Feature", "properties": { "ID": 109944, "LAT": 33.7, "LON": 141.1, "VMAX": 30.0, "MSLP": 1010.40607, "RMAX": 53.10797, "FSPD": 11.23918, "FDIR": 50.14746, "RENV": 250.0, "PENV": 1012.0, "VALIDT": 12, "DTG": "2026-10-01 00:00", "LATNOW": 31.9, "LONNOW": 139.9, "WINDNOW": 35.0, "DIRNOW": 5.0, "SPDNOW": 1.0, "TECH": "FCST", "ADVNR": 30, "ATCFID": "WP252026", "NAME": "SURIGAE", "FTECH": "JTWC", "FCST_DTG": "2026-09-30 12:00:00", "RUN_DTG": "2026-10-01 06:26:00", "BASIN": "WP", "STMNR": 25, "CAT_ID": null, "CAT_DESC": null, "MSGID": "WTPN51 PGTW 301500", "VALIDTIME": "2026-10-01 00:00:00" }, "geometry": { "type": "Point", "coordinates": [ 141.100006, 33.700001 ] } },
{ "type": "Feature", "properties": { "ID": 109945, "LAT": 36.5, "LON": 145.2, "VMAX": 30.0, "MSLP": 1010.40607, "RMAX": 53.10797, "FSPD": 11.23918, "FDIR": 50.14746, "RENV": 250.0, "PENV": 1012.0, "VALIDT": 24, "DTG": "2026-10-01 12:00", "LATNOW": 31.9, "LONNOW": 139.9, "WINDNOW": 35.0, "DIRNOW": 5.0, "SPDNOW": 1.0, "TECH": "FCST", "ADVNR": 30, "ATCFID": "WP252026", "NAME": "SURIGAE", "FTECH": "JTWC", "FCST_DTG": "2026-09-30 12:00:00", "RUN_DTG": "2026-10-01 06:26:00", "BASIN": "WP", "STMNR": 25, "CAT_ID": null, "CAT_DESC": null, "MSGID": "WTPN51 PGTW 301500", "VALIDTIME": "2026-10-01 12:00:00" }, "geometry": { "type": "Point", "coordinates": [ 145.199997, 36.5 ] } },
{ "type": "Feature", "properties": { "ID": 109943, "LAT": 31.9, "LON": 139.9, "VMAX": 35.0, "MSLP": 1000.0, "RMAX": 45.0, "FSPD": 5.30742, "FDIR": 29.26553, "RENV": 165.0, "PENV": 1010.0, "VALIDT": 0, "DTG": "2026-09-30 12:00", "LATNOW": 31.9, "LONNOW": 139.9, "WINDNOW": 35.0, "DIRNOW": 5.0, "SPDNOW": 1.0, "TECH": "TRAK", "ADVNR": 30, "ATCFID": "WP252026", "NAME": "SURIGAE", "FTECH": "JTWC", "FCST_DTG": "2026-09-30 12:00:00", "RUN_DTG": "2026-10-01 06:26:00", "BASIN": "WP", "STMNR": 25, "CAT_ID": null, "CAT_DESC": null, "MSGID": "WTPN51 PGTW 301500", "VALIDTIME": "2026-09-30 12:00:00" }, "geometry": { "type": "LineString", "coordinates": [ [ 146.4, 11.1 ], [ 145.8, 11.2 ], [ 145.2, 11.2 ], [ 144.4, 11.3 ], [ 143.3, 11.5 ], [ 142.7, 11.9 ], [ 142.4, 12.2 ], [ 141.9, 12.5 ], [ 141.4, 13.0 ], [ 140.9, 13.4 ], [ 140.0, 14.3 ], [ 139.0, 15.1 ], [ 138.4, 16.0 ], [ 137.6, 16.5 ], [ 136.2, 17.2 ], [ 134.3, 18.2 ], [ 133.1, 18.9 ], [ 132.5, 18.6 ], [ 131.7, 19.3 ], [ 130.7, 19.9 ], [ 129.3, 20.7 ], [ 128.2, 21.4 ], [ 127.8, 21.9 ], [ 127.0, 22.4 ], [ 126.8, 22.9 ], [ 126.9, 23.3 ], [ 127.2, 24.0 ], [ 127.6, 24.6 ], [ 128.3, 25.4 ], [ 129.1, 25.9 ], [ 130.0, 26.3 ], [ 130.9, 26.6 ], [ 131.6, 27.5 ], [ 132.8, 27.5 ], [ 133.2, 28.1 ], [ 133.9, 28.6 ], [ 135.0, 29.0 ], [ 136.3, 29.2 ], [ 136.7, 29.6 ], [ 137.3, 30.2 ], [ 138.3, 31.2 ], [ 139.9, 31.9 ] ] } },
{ "type": "Feature", "properties": { "ID": 109945, "LAT": 36.5, "LON": 145.2, "VMAX": 30.0, "MSLP": 1010.40607, "RMAX": 53.10797, "FSPD": 11.23918, "FDIR": 50.14746, "RENV": 250.0, "PENV": 1012.0, "VALIDT": 24, "DTG": "2026-10-01 12:00", "LATNOW": 31.9, "LONNOW": 139.9, "WINDNOW": 35.0, "DIRNOW": 5.0, "SPDNOW": 1.0, "TECH": "FCST", "ADVNR": 30, "ATCFID": "WP252026", "NAME": "SURIGAE", "FTECH": "JTWC", "FCST_DTG": "2026-09-30 12:00:00", "RUN_DTG": "2026-10-01 06:26:00", "BASIN": "WP", "STMNR": 25, "CAT_ID": null, "CAT_DESC": null, "MSGID": "WTPN51 PGTW 301500", "VALIDTIME": "2026-10-01 12:00:00" }, "geometry": { "type": "LineString", "coordinates": [ [ 139.9, 31.9 ], [ 141.1, 33.7 ], [ 145.2, 36.5 ] ] } }
]
}
