{
"type": "FeatureCollection",
"crs": { "type": "name", "properties": { "name": "urn:ogc:def:crs:OGC:1.3:CRS84" } },
"features": [
{ "type": "Feature", "properties": { "ID": 27870, "LAT": 14.1, "LON": -105.4, "VMAX": 25.0, "MSLP": 1007.0, "RMAX": 90.0, "FSPD": 8.96892, "FDIR": 297.3141, "RENV": 180.0, "PENV": 1010.0, "VALIDT": 0, "DTG": "2025-08-24 00:00", "LATNOW": 25.0, "LONNOW": -120.7, "WINDNOW": 35.0, "DIRNOW": 4.0, "SPDNOW": 2.0, "TECH": "TRAK", "ADVNR": 15, "ATCFID": "EP102025", "NAME": "JULIETTE", "FTECH": "OFCL", "FCST_DTG": "2025-08-28 06:00:00", "RUN_DTG": "2025-08-28 20:46:09", "BASIN": "EP", "STMNR": 10, "CAT_ID": null, "CAT_DESC": null, "MSGID": "WTPZ25 KNHC 280833", "VALIDTIME": "2025-08-24 00:00:00" }, "geometry": { "type": "Point", "coordinates": [ -105.400002, 14.1 ] } },
{ "type": "Feature", "properties": { "ID": 27871, "LAT": 14.9, "LON": -107.0, "VMAX": 25.0, "MSLP": 1007.0, "RMAX": 90.0, "FSPD": 4.92104, "FDIR": 294.7184, "RENV": 180.0, "PENV": 1010.0, "VALIDT": 0, "DTG": "2025-08-24 06:00", "LATNOW": 25.0, "LONNOW": -120.7, "WINDNOW": 35.0, "DIRNOW": 4.0, "SPDNOW": 2.0, "TECH": "TRAK", "ADVNR": 15, "ATCFID": "EP102025", "NAME": "JULIETTE", "FTECH": "OFCL", "FCST_DTG": "2025-08-28 06:00:00", "RUN_DTG": "2025-08-28 20:46:09", "BASIN": "EP", "STMNR": 10, "CAT_ID": null, "CAT_DESC": null, "MSGID": "WTPZ25 KNHC 280833", "VALIDTIME": "2025-08-24 06:00:00" }, "geometry": { "type": "Point", "coordinates": [ -107.0, 14.9 ] } },
{ "type": "Feature", "properties": { "ID": 27872, "LAT": 15.3, "LON": -107.9, "VMAX": 25.0, "MSLP": 1007.0, "RMAX": 90.0, "FSPD": 7.23892, "FDIR": 286.51492, "RENV": 150.0, "PENV": 1009.0, "VALIDT": 0, "DTG": "2025-08-24 12:00", "LATNOW": 25.0, "LONNOW": -120.7, "WINDNOW": 35.0, "DIRNOW": 4.0, "SPDNOW": 2.0, "TECH": "TRAK", "ADVNR": 15, "ATCFID": "EP102025", "NAME": "JULIETTE", "FTECH": "OFCL", "FCST_DTG": "2025-08-28 06:00:00", "RUN_DTG": "2025-08-28 20:46:09", "BASIN": "EP", "STMNR": 10, "CAT_ID": null, "CAT_DESC": null, "MSGID": "WTPZ25 KNHC 280833", "VALIDTIME": "2025-08-24 12:00:00" }, "geometry": { "type": "Point", "coordinates": [ -107.900002, 15.3 ] } },
{ "type": "Feature", "properties": { "ID": 27873, "LAT": 15.7, "LON": -109.3, "VMAX": 30.0, "MSLP": 1006.0, "RMAX": 60.0, "FSPD": 4.71963, "FDIR": 303.02505, "RENV": 150.0, "PENV": 1009.0, "VALIDT": 0, "DTG": "2025-08-24 18:00", "LATNOW": 25.0, "LONNOW": -120.7, "WINDNOW": 35.0, "DIRNOW": 4.0, "SPDNOW": 2.0, "TECH": "TRAK", "ADVNR": 15, "ATCFID": "EP102025", "NAME": "JULIETTE", "FTECH": "OFCL", "FCST_DTG": "2025-08-28 06:00:00", "RUN_DTG": "2025-08-28 20:46:09", "BASIN": "EP", "STMNR": 10, "CAT_ID": null, "CAT_DESC": null, "MSGID": "WTPZ25 KNHC 280833", "VALIDTIME": "2025-08-24 18:00:00" }, "geometry": { "type": "Point", "coordinates": [ -109.300003, 15.7 ] } },
{ "type": "Feature", "properties": { "ID": 27874, "LAT": 16.2, "LON": -110.1, "VMAX": 30.0, "MSLP": 1005.0, "RMAX": 50.0, "FSPD": 6.12145, "FDIR": 284.60287, "RENV": 180.0, "PENV": 1008.0, "VALIDT": 0, "DTG": "2025-08-25 00:00", "LATNOW": 25.0, "LONNOW": -120.7, "WINDNOW": 35.0, "DIRNOW": 4.0, "SPDNOW": 2.0, "TECH": "TRAK", "ADVNR": 15, "ATCFID": "EP102025", "NAME": "JULIETTE", "FTECH": "OFCL", "FCST_DTG": "2025-08-28 06:00:00", "RUN_DTG": "2025-08-28 20:46:09", "BASIN": "EP", "STMNR": 10, "CAT_ID": null, "CAT_DESC": null, "MSGID": "WTPZ25 KNHC 280833", "VALIDTIME": "2025-08-25 00:00:00" }, "geometry": { "type": "Point", "coordinates": [ -110.099998, 16.200001 ] } },
{ "type": "Feature", "properties": { "ID": 27875, "LAT": 16.5, "LON": -111.3, "VMAX": 35.0, "MSLP": 1003.0, "RMAX": 40.0, "FSPD": 6.72809, "FDIR": 287.8092, "RENV": 170.0, "PENV": 1008.0, "VALIDT": 0, "DTG": "2025-08-25 06:00", "LATNOW": 25.0, "LONNOW": -120.7, "WINDNOW": 35.0, "DIRNOW": 4.0, "SPDNOW": 2.0, "TECH": "TRAK", "ADVNR": 15, "ATCFID": "EP102025", "NAME": "JULIETTE", "FTECH": "OFCL", "FCST_DTG": "2025-08-28 06:00:00", "RUN_DTG": "2025-08-28 20:46:09", "BASIN": "EP", "STMNR": 10, "CAT_ID": null, "CAT_DESC": null, "MSGID": "WTPZ25 KNHC 280833", "VALIDTIME": "2025-08-25 06:00:00" }, "geometry": { "type": "Point", "coordinates": [ -111.300003, 16.5 ] } },
{ "type": "Feature", "properties": { "ID": 27876, "LAT": 16.9, "LON": -112.6, "VMAX": 35.0, "MSLP": 1003.0, "RMAX": 40.0, "FSPD": 7.18482, "FDIR": 286.64288, "RENV": 270.0, "PENV": 1009.0, "VALIDT": 0, "DTG": "2025-08-25 12:00", "LATNOW": 25.0, "LONNOW": -120.7, "WINDNOW": 35.0, "DIRNOW": 4.0, "SPDNOW": 2.0, "TECH": "TRAK", "ADVNR": 15, "ATCFID": "EP102025", "NAME": "JULIETTE", "FTECH": "OFCL", "FCST_DTG": "2025-08-28 06:00:00", "RUN_DTG": "2025-08-28 20:46:09", "BASIN": "EP", "STMNR": 10, "CAT_ID": null, "CAT_DESC": null, "MSGID": "WTPZ25 KNHC 280833", "VALIDTIME": "2025-08-25 12:00:00" }, "geometry": { "type": "Point", "coordinates": [ -112.599998, 16.9 ] } },
{ "type": "Feature", "properties": { "ID": 27877, "LAT": 17.3, "LON": -114.0, "VMAX": 50.0, "MSLP": 999.0, "RMAX": 20.0, "FSPD": 5.49708, "FDIR": 280.78772, "RENV": 170.0, "PENV": 1009.0, "VALIDT": 0, "DTG": "2025-08-25 18:00", "LATNOW": 25.0, "LONNOW": -120.7, "WINDNOW": 35.0, "DIRNOW": 4.0, "SPDNOW": 2.0, "TECH": "TRAK", "ADVNR": 15, "ATCFID": "EP102025", "NAME": "JULIETTE", "FTECH": "OFCL", "FCST_DTG": "2025-08-28 06:00:00", "RUN_DTG": "2025-08-28 20:46:09", "BASIN": "EP", "STMNR": 10, "CAT_ID": null, "CAT_DESC": null, "MSGID": "WTPZ25 KNHC 280833", "VALIDTIME": "2025-08-25 18:00:00" }, "geometry": { "type": "Point", "coordinates": [ -114.0, 17.299999 ] } },
{ "type": "Feature", "properties": { "ID": 27878, "LAT": 17.5, "LON": -115.1, "VMAX": 55.0, "MSLP": 996.0, "RMAX": 20.0, "FSPD": 4.68828, "FDIR": 303.27435, "RENV": 170.0, "PENV": 1009.0, "VALIDT": 0, "DTG": "2025-08-26 00:00", "LATNOW": 25.0, "LONNOW": -120.7, "WINDNOW": 35.0, "DIRNOW": 4.0, "SPDNOW": 2.0, "TECH": "TRAK", "ADVNR": 15, "ATCFID": "EP102025", "NAME": "JULIETTE", "FTECH": "OFCL", "FCST_DTG": "2025-08-28 06:00:00", "RUN_DTG": "2025-08-28 20:46:09", "BASIN": "EP", "STMNR": 10, "CAT_ID": null, "CAT_DESC": null, "MSGID": "WTPZ25 KNHC 280833", "VALIDTIME": "2025-08-26 00:00:00" }, "geometry": { "type": "Point", "coordinates": [ -115.099998, 17.5 ] } },
{ "type": "Feature", "properties": { "ID": 27879, "LAT": 18.0, "LON": -115.9, "VMAX": 55.0, "MSLP": 996.0, "RMAX": 20.0, "FSPD": 3.88764, "FDIR": 337.86487, "RENV": 170.0, "PENV": 1010.0, "VALIDT": 0, "DTG": "2025-08-26 06:00", "LATNOW": 25.0, "LONNOW": -120.7, "WINDNOW": 35.0, "DIRNOW": 4.0, "SPDNOW": 2.0, "TECH": "TRAK", "ADVNR": 15, "ATCFID": "EP102025", "NAME": "JULIETTE", "FTECH": "OFCL", "FCST_DTG": "2025-08-28 06:00:00", "RUN_DTG": "2025-08-28 20:46:09", "BASIN": "EP", "STMNR": 10, "CAT_ID": null, "CAT_DESC": null, "MSGID": "WTPZ25 KNHC 280833", "VALIDTIME": "2025-08-26 06:00:00" }, "geometry": { "type": "Point", "coordinates": [ -115.900002, 18.0 ] } },
{ "type": "Feature", "properties": { "ID": 27880, "LAT": 18.7, "LON": -116.2, "VMAX": 60.0, "MSLP": 994.0, "RMAX": 20.0, "FSPD": 5.04434, "FDIR": 324.67404, "RENV": 170.0, "PENV": 1010.0, "VALIDT": 0, "DTG": "2025-08-26 12:00", "LATNOW": 25.0, "LONNOW": -120.7, "WINDNOW": 35.0, "DIRNOW": 4.0, "SPDNOW": 2.0, "TECH": "TRAK", "ADVNR": 15, "ATCFID": "EP102025", "NAME": "JULIETTE", "FTECH": "OFCL", "FCST_DTG": "2025-08-28 06:00:00", "RUN_DTG": "2025-08-28 20:46:09", "BASIN": "EP", "STMNR": 10, "CAT_ID": null, "CAT_DESC": null, "MSGID": "WTPZ25 KNHC 280833", "VALIDTIME": "2025-08-26 12:00:00" }, "geometry": { "type": "Point", "coordinates": [ -116.199997, 18.700001 ] } },
{ "type": "Feature", "properties": { "ID": 27881, "LAT": 19.5, "LON": -116.8, "VMAX": 55.0, "MSLP": 996.0, "RMAX": 20.0, "FSPD": 6.35436, "FDIR": 316.7719, "RENV": 170.0, "PENV": 1010.0, "VALIDT": 0, "DTG": "2025-08-26 18:00", "LATNOW": 25.0, "LONNOW": -120.7, "WINDNOW": 35.0, "DIRNOW": 4.0, "SPDNOW": 2.0, "TECH": "TRAK", "ADVNR": 15, "ATCFID": "EP102025", "NAME": "JULIETTE", "FTECH": "OFCL", "FCST_DTG": "2025-08-28 06:00:00", "RUN_DTG": "2025-08-28 20:46:09", "BASIN": "EP", "STMNR": 10, "CAT_ID": null, "CAT_DESC": null, "MSGID": "WTPZ25 KNHC 280833", "VALIDTIME": "2025-08-26 18:00:00" }, "geometry": { "type": "Point", "coordinates": [ -116.800003, 19.5 ] } },
{ "type": "Feature", "properties": { "ID": 27882, "LAT": 20.4, "LON": -117.7, "VMAX": 55.0, "MSLP": 996.0, "RMAX": 20.0, "FSPD": 6.42244, "FDIR": 323.22678, "RENV": 170.0, "PENV": 1010.0, "VALIDT": 0, "DTG": "2025-08-27 00:00", "LATNOW": 25.0, "LONNOW": -120.7, "WINDNOW": 35.0, "DIRNOW": 4.0, "SPDNOW": 2.0, "TECH": "TRAK", "ADVNR": 15, "ATCFID": "EP102025", "NAME": "JULIETTE", "FTECH": "OFCL", "FCST_DTG": "2025-08-28 06:00:00", "RUN_DTG": "2025-08-28 20:46:09", "BASIN": "EP", "STMNR": 10, "CAT_ID": null, "CAT_DESC": null, "MSGID": "WTPZ25 KNHC 280833", "VALIDTIME": "2025-08-27 00:00:00" }, "geometry": { "type": "Point", "coordinates": [ -117.699997, 20.4 ] } },
{ "type": "Feature", "properties": { "ID": 27883, "LAT": 21.4, "LON": -118.5, "VMAX": 45.0, "MSLP": 1001.0, "RMAX": 15.0, "FSPD": 6.57107, "FDIR": 329.44955, "RENV": 180.0, "PENV": 1011.0, "VALIDT": 0, "DTG": "2025-08-27 06:00", "LATNOW": 25.0, "LONNOW": -120.7, "WINDNOW": 35.0, "DIRNOW": 4.0, "SPDNOW": 2.0, "TECH": "TRAK", "ADVNR": 15, "ATCFID": "EP102025", "NAME": "JULIETTE", "FTECH": "OFCL", "FCST_DTG": "2025-08-28 06:00:00", "RUN_DTG": "2025-08-28 20:46:09", "BASIN": "EP", "STMNR": 10, "CAT_ID": null, "CAT_DESC": null, "MSGID": "WTPZ25 KNHC 280833", "VALIDTIME": "2025-08-27 06:00:00" }, "geometry": { "type": "Point", "coordinates": [ -118.5, 21.4 ] } },
{ "type": "Feature", "properties": { "ID": 27884, "LAT": 22.5, "LON": -119.2, "VMAX": 45.0, "MSLP": 1001.0, "RMAX": 15.0, "FSPD": 6.38884, "FDIR": 323.6318, "RENV": 180.0, "PENV": 1011.0, "VALIDT": 0, "DTG": "2025-08-27 12:00", "LATNOW": 25.0, "LONNOW": -120.7, "WINDNOW": 35.0, "DIRNOW": 4.0, "SPDNOW": 2.0, "TECH": "TRAK", "ADVNR": 15, "ATCFID": "EP102025", "NAME": "JULIETTE", "FTECH": "OFCL", "FCST_DTG": "2025-08-28 06:00:00", "RUN_DTG": "2025-08-28 20:46:09", "BASIN": "EP", "STMNR": 10, "CAT_ID": null, "CAT_DESC": null, "MSGID": "WTPZ25 KNHC 280833", "VALIDTIME": "2025-08-27 12:00:00" }, "geometry": { "type": "Point", "coordinates": [ -119.199997, 22.5 ] } },
{ "type": "Feature", "properties": { "ID": 27885, "LAT": 23.5, "LON": -120.0, "VMAX": 40.0, "MSLP": 1006.0, "RMAX": 15.0, "FSPD": 5.42166, "FDIR": 328.6475, "RENV": 180.0, "PENV": 1012.0, "VALIDT": 0, "DTG": "2025-08-27 18:00", "LATNOW": 25.0, "LONNOW": -120.7, "WINDNOW": 35.0, "DIRNOW": 4.0, "SPDNOW": 2.0, "TECH": "TRAK", "ADVNR": 15, "ATCFID": "EP102025", "NAME": "JULIETTE", "FTECH": "OFCL", "FCST_DTG": "2025-08-28 06:00:00", "RUN_DTG": "2025-08-28 20:46:09", "BASIN": "EP", "STMNR": 10, "CAT_ID": null, "CAT_DESC": null, "MSGID": "WTPZ25 KNHC 280833", "VALIDTIME": "2025-08-27 18:00:00" }, "geometry": { "type": "Point", "coordinates": [ -120.0, 23.5 ] } },
{ "type": "Feature", "properties": { "ID": 27886, "LAT": 24.4, "LON": -120.6, "VMAX": 40.0, "MSLP": 1006.0, "RMAX": 20.0, "FSPD": 3.12185, "FDIR": 351.38992, "RENV": 180.0, "PENV": 1012.0, "VALIDT": 0, "DTG": "2025-08-28 00:00", "LATNOW": 25.0, "LONNOW": -120.7, "WINDNOW": 35.0, "DIRNOW": 4.0, "SPDNOW": 2.0, "TECH": "TRAK", "ADVNR": 15, "ATCFID": "EP102025", "NAME": "JULIETTE", "FTECH": "OFCL", "FCST_DTG": "2025-08-28 06:00:00", "RUN_DTG": "2025-08-28 20:46:09", "BASIN": "EP", "STMNR": 10, "CAT_ID": null, "CAT_DESC": null, "MSGID": "WTPZ25 KNHC 280833", "VALIDTIME": "2025-08-28 00:00:00" }, "geometry": { "type": "Point", "coordinates": [ -120.599998, 24.4 ] } },
{ "type": "Feature", "properties": { "ID": 27887, "LAT": 25.0, "LON": -120.7, "VMAX": 35.0, "MSLP": 1007.0, "RMAX": 20.0, "FSPD": 4.21955, "FDIR": 347.25305, "RENV": 220.0, "PENV": 1014.0, "VALIDT": 0, "DTG": "2025-08-28 06:00", "LATNOW": 25.0, "LONNOW": -120.7, "WINDNOW": 35.0, "DIRNOW": 4.0, "SPDNOW": 2.0, "TECH": "TRAK", "ADVNR": 15, "ATCFID": "EP102025", "NAME": "JULIETTE", "FTECH": "OFCL", "FCST_DTG": "2025-08-28 06:00:00", "RUN_DTG": "2025-08-28 20:46:09", "BASIN": "EP", "STMNR": 10, "CAT_ID": null, "CAT_DESC": null, "MSGID": "WTPZ25 KNHC 280833", "VALIDTIME": "2025-08-28 06:00:00" }, "geometry": { "type": "Point", "coordinates": [ -120.699997, 25.0 ] } },
{ "type": "Feature", "properties": { "ID": 27888, "LAT": 25.4, "LON": -120.8, "VMAX": 30.0, "MSLP": 1008.0, "RMAX": 20.34906, "FSPD": 2.81235, "FDIR": 347.31546, "RENV": 250.0, "PENV": 1012.0, "VALIDT": 3, "DTG": "2025-08-28 09:00", "LATNOW": 25.0, "LONNOW": -120.7, "WINDNOW": 35.0, "DIRNOW": 4.0, "SPDNOW": 2.0, "TECH": "FCST", "ADVNR": 15, "ATCFID": "EP102025", "NAME": "JULIETTE", "FTECH": "OFCL", "FCST_DTG": "2025-08-28 06:00:00", "RUN_DTG": "2025-08-28 20:46:09", "BASIN": "EP", "STMNR": 10, "CAT_ID": null, "CAT_DESC": null, "MSGID": "WTPZ25 KNHC 280833", "VALIDTIME": "2025-08-28 09:00:00" }, "geometry": { "type": "Point", "coordinates": [ -120.800003, 25.4 ] } },
{ "type": "Feature", "properties": { "ID": 27889, "LAT": 26.2, "LON": -121.0, "VMAX": 30.0, "MSLP": 1010.40607, "RMAX": 21.37209, "FSPD": 1.85843, "FDIR": 345.6632, "RENV": 250.0, "PENV": 1012.0, "VALIDT": 12, "DTG": "2025-08-28 18:00", "LATNOW": 25.0, "LONNOW": -120.7, "WINDNOW": 35.0, "DIRNOW": 4.0, "SPDNOW": 2.0, "TECH": "FCST", "ADVNR": 15, "ATCFID": "EP102025", "NAME": "JULIETTE", "FTECH": "OFCL", "FCST_DTG": "2025-08-28 06:00:00", "RUN_DTG": "2025-08-28 20:46:09", "BASIN": "EP", "STMNR": 10, "CAT_ID": null, "CAT_DESC": null, "MSGID": "WTPZ25 KNHC 280833", "VALIDTIME": "2025-08-28 18:00:00" }, "geometry": { "type": "Point", "coordinates": [ -121.0, 26.200001 ] } },
{ "type": "Feature", "properties": { "ID": 27890, "LAT": 26.9, "LON": -121.2, "VMAX": 25.0, "MSLP": 1011.80975, "RMAX": 21.74915, "FSPD": 1.85843, "FDIR": 345.6632, "RENV": 250.0, "PENV": 1012.0, "VALIDT": 24, "DTG": "2025-08-29 06:00", "LATNOW": 25.0, "LONNOW": -120.7, "WINDNOW": 35.0, "DIRNOW": 4.0, "SPDNOW": 2.0, "TECH": "FCST", "ADVNR": 15, "ATCFID": "EP102025", "NAME": "JULIETTE", "FTECH": "OFCL", "FCST_DTG": "2025-08-28 06:00:00", "RUN_DTG": "2025-08-28 20:46:09", "BASIN": "EP", "STMNR": 10, "CAT_ID": null, "CAT_DESC": null, "MSGID": "WTPZ25 KNHC 280833", "VALIDTIME": "2025-08-29 06:00:00" }, "geometry": { "type": "Point", "coordinates": [ -121.199997, 26.9 ] } },
{ "type": "Feature", "properties": { "ID": 27887, "LAT": 25.0, "LON": -120.7, "VMAX": 35.0, "MSLP": 1007.0, "RMAX": 20.0, "FSPD": 4.21955, "FDIR": 347.25305, "RENV": 220.0, "PENV": 1014.0, "VALIDT": 0, "DTG": "2025-08-28 06:00", "LATNOW": 25.0, "LONNOW": -120.7, "WINDNOW": 35.0, "DIRNOW": 4.0, "SPDNOW": 2.0, "TECH": "TRAK", "ADVNR": 15, "ATCFID": "EP102025", "NAME": "JULIETTE", "FTECH": "OFCL", "FCST_DTG": "2025-08-28 06:00:00", "RUN_DTG": "2025-08-28 20:46:09", "BASIN": "EP", "STMNR": 10, "CAT_ID": null, "CAT_DESC": null, "MSGID": "WTPZ25 KNHC 280833", "VALIDTIME": "2025-08-28 06:00:00" }, "geometry": { "type": "LineString", "coordinates": [ [ -105.4, 14.1 ], [ -107.0, 14.9 ], [ -107.9, 15.3 ], [ -109.3, 15.7 ], [ -110.1, 16.2 ], [ -111.3, 16.5 ], [ -112.6, 16.9 ], [ -114.0, 17.3 ], [ -115.1, 17.5 ], [ -115.9, 18.0 ], [ -116.2, 18.7 ], [ -116.8, 19.5 ], [ -117.7, 20.4 ], [ -118.5, 21.4 ], [ -119.2, 22.5 ], [ -120.0, 23.5 ], [ -120.6, 24.4 ], [ -120.7, 25.0 ] ] } },
{ "type": "Feature", "properties": { "ID": 27890, "LAT": 26.9, "LON": -121.2, "VMAX": 25.0, "MSLP": 1011.80975, "RMAX": 21.74915, "FSPD": 1.85843, "FDIR": 345.6632, "RENV": 250.0, "PENV": 1012.0, "VALIDT": 24, "DTG": "2025-08-29 06:00", "LATNOW": 25.0, "LONNOW": -120.7, "WINDNOW": 35.0, "DIRNOW": 4.0, "SPDNOW": 2.0, "TECH": "FCST", "ADVNR": 15, "ATCFID": "EP102025", "NAME": "JULIETTE", "FTECH": "OFCL", "FCST_DTG": "2025-08-28 06:00:00", "RUN_DTG": "2025-08-28 20:46:09", "BASIN": "EP", "STMNR": 10, "CAT_ID": null, "CAT_DESC": null, "MSGID": "WTPZ25 KNHC 280833", "VALIDTIME": "2025-08-29 06:00:00" }, "geometry": { "type": "LineString", "coordinates": [ [ -120.7, 25.0 ], [ -120.8, 25.4 ], [ -121.0, 26.2 ], [ -121.2, 26.9 ] ] } }
]
}
