{
"type": "FeatureCollection",
"crs": { "type": "name", "properties": { "name": "urn:ogc:def:crs:OGC:1.3:CRS84" } },
"features": [
{ "type": "Feature", "properties": { "ID": 72488, "LAT": 11.0, "LON": -18.5, "VMAX": 20.0, "MSLP": 1010.0, "RMAX": 90.0, "FSPD": 4.16756, "FDIR": 284.29294, "RENV": 150.0, "PENV": 1011.0, "VALIDT": 0, "DTG": "2026-08-24 18:00", "LATNOW": 16.0, "LONNOW": -51.0, "WINDNOW": 35.0, "DIRNOW": 9.0, "SPDNOW": 3.0, "TECH": "TRAK", "ADVNR": 5, "ATCFID": "AL042026", "NAME": "DOLLY", "FTECH": "OFCL", "FCST_DTG": "2026-08-28 12:00:00", "RUN_DTG": "2026-08-29 06:27:13", "BASIN": "AL", "STMNR": 4, "CAT_ID": null, "CAT_DESC": null, "MSGID": "WTNT24 KNHC 281445", "VALIDTIME": "2026-08-24 18:00:00" }, "geometry": { "type": "Point", "coordinates": [ -18.5, 11.0 ] } },
{ "type": "Feature", "properties": { "ID": 72489, "LAT": 11.2, "LON": -19.3, "VMAX": 20.0, "MSLP": 1010.0, "RMAX": 90.0, "FSPD": 6.57942, "FDIR": 274.48453, "RENV": 150.0, "PENV": 1011.0, "VALIDT": 0, "DTG": "2026-08-25 00:00", "LATNOW": 16.0, "LONNOW": -51.0, "WINDNOW": 35.0, "DIRNOW": 9.0, "SPDNOW": 3.0, "TECH": "TRAK", "ADVNR": 5, "ATCFID": "AL042026", "NAME": "DOLLY", "FTECH": "OFCL", "FCST_DTG": "2026-08-28 12:00:00", "RUN_DTG": "2026-08-29 06:27:13", "BASIN": "AL", "STMNR": 4, "CAT_ID": null, "CAT_DESC": null, "MSGID": "WTNT24 KNHC 281445", "VALIDTIME": "2026-08-25 00:00:00" }, "geometry": { "type": "Point", "coordinates": [ -19.299999, 11.2 ] } },
{ "type": "Feature", "properties": { "ID": 72490, "LAT": 11.3, "LON": -20.6, "VMAX": 20.0, "MSLP": 1010.0, "RMAX": 90.0, "FSPD": 8.72743, "FDIR": 306.11847, "RENV": 170.0, "PENV": 1011.0, "VALIDT": 0, "DTG": "2026-08-25 06:00", "LATNOW": 16.0, "LONNOW": -51.0, "WINDNOW": 35.0, "DIRNOW": 9.0, "SPDNOW": 3.0, "TECH": "TRAK", "ADVNR": 5, "ATCFID": "AL042026", "NAME": "DOLLY", "FTECH": "OFCL", "FCST_DTG": "2026-08-28 12:00:00", "RUN_DTG": "2026-08-29 06:27:13", "BASIN": "AL", "STMNR": 4, "CAT_ID": null, "CAT_DESC": null, "MSGID": "WTNT24 KNHC 281445", "VALIDTIME": "2026-08-25 06:00:00" }, "geometry": { "type": "Point", "coordinates": [ -20.6, 11.3 ] } },
{ "type": "Feature", "properties": { "ID": 72491, "LAT": 12.3, "LON": -22.0, "VMAX": 25.0, "MSLP": 1009.0, "RMAX": 90.0, "FSPD": 8.6055, "FDIR": 291.01944, "RENV": 170.0, "PENV": 1011.0, "VALIDT": 0, "DTG": "2026-08-25 12:00", "LATNOW": 16.0, "LONNOW": -51.0, "WINDNOW": 35.0, "DIRNOW": 9.0, "SPDNOW": 3.0, "TECH": "TRAK", "ADVNR": 5, "ATCFID": "AL042026", "NAME": "DOLLY", "FTECH": "OFCL", "FCST_DTG": "2026-08-28 12:00:00", "RUN_DTG": "2026-08-29 06:27:13", "BASIN": "AL", "STMNR": 4, "CAT_ID": null, "CAT_DESC": null, "MSGID": "WTNT24 KNHC 281445", "VALIDTIME": "2026-08-25 12:00:00" }, "geometry": { "type": "Point", "coordinates": [ -22.0, 12.3 ] } },
{ "type": "Feature", "properties": { "ID": 72492, "LAT": 12.9, "LON": -23.6, "VMAX": 25.0, "MSLP": 1009.0, "RMAX": 90.0, "FSPD": 7.66125, "FDIR": 293.7592, "RENV": 170.0, "PENV": 1011.0, "VALIDT": 0, "DTG": "2026-08-25 18:00", "LATNOW": 16.0, "LONNOW": -51.0, "WINDNOW": 35.0, "DIRNOW": 9.0, "SPDNOW": 3.0, "TECH": "TRAK", "ADVNR": 5, "ATCFID": "AL042026", "NAME": "DOLLY", "FTECH": "OFCL", "FCST_DTG": "2026-08-28 12:00:00", "RUN_DTG": "2026-08-29 06:27:13", "BASIN": "AL", "STMNR": 4, "CAT_ID": null, "CAT_DESC": null, "MSGID": "WTNT24 KNHC 281445", "VALIDTIME": "2026-08-25 18:00:00" }, "geometry": { "type": "Point", "coordinates": [ -23.6, 12.9 ] } },
{ "type": "Feature", "properties": { "ID": 72493, "LAT": 13.5, "LON": -25.0, "VMAX": 25.0, "MSLP": 1010.0, "RMAX": 110.0, "FSPD": 9.50437, "FDIR": 269.99997, "RENV": 170.0, "PENV": 1012.0, "VALIDT": 0, "DTG": "2026-08-26 00:00", "LATNOW": 16.0, "LONNOW": -51.0, "WINDNOW": 35.0, "DIRNOW": 9.0, "SPDNOW": 3.0, "TECH": "TRAK", "ADVNR": 5, "ATCFID": "AL042026", "NAME": "DOLLY", "FTECH": "OFCL", "FCST_DTG": "2026-08-28 12:00:00", "RUN_DTG": "2026-08-29 06:27:13", "BASIN": "AL", "STMNR": 4, "CAT_ID": null, "CAT_DESC": null, "MSGID": "WTNT24 KNHC 281445", "VALIDTIME": "2026-08-26 00:00:00" }, "geometry": { "type": "Point", "coordinates": [ -25.0, 13.5 ] } },
{ "type": "Feature", "properties": { "ID": 72494, "LAT": 13.5, "LON": -26.9, "VMAX": 30.0, "MSLP": 1008.0, "RMAX": 110.0, "FSPD": 10.50484, "FDIR": 269.99997, "RENV": 200.0, "PENV": 1012.0, "VALIDT": 0, "DTG": "2026-08-26 06:00", "LATNOW": 16.0, "LONNOW": -51.0, "WINDNOW": 35.0, "DIRNOW": 9.0, "SPDNOW": 3.0, "TECH": "TRAK", "ADVNR": 5, "ATCFID": "AL042026", "NAME": "DOLLY", "FTECH": "OFCL", "FCST_DTG": "2026-08-28 12:00:00", "RUN_DTG": "2026-08-29 06:27:13", "BASIN": "AL", "STMNR": 4, "CAT_ID": null, "CAT_DESC": null, "MSGID": "WTNT24 KNHC 281445", "VALIDTIME": "2026-08-26 06:00:00" }, "geometry": { "type": "Point", "coordinates": [ -26.9, 13.5 ] } },
{ "type": "Feature", "properties": { "ID": 72495, "LAT": 13.5, "LON": -29.0, "VMAX": 30.0, "MSLP": 1009.0, "RMAX": 100.0, "FSPD": 9.91365, "FDIR": 245.4718, "RENV": 220.0, "PENV": 1014.0, "VALIDT": 0, "DTG": "2026-08-26 12:00", "LATNOW": 16.0, "LONNOW": -51.0, "WINDNOW": 35.0, "DIRNOW": 9.0, "SPDNOW": 3.0, "TECH": "TRAK", "ADVNR": 5, "ATCFID": "AL042026", "NAME": "DOLLY", "FTECH": "OFCL", "FCST_DTG": "2026-08-28 12:00:00", "RUN_DTG": "2026-08-29 06:27:13", "BASIN": "AL", "STMNR": 4, "CAT_ID": null, "CAT_DESC": null, "MSGID": "WTNT24 KNHC 281445", "VALIDTIME": "2026-08-26 12:00:00" }, "geometry": { "type": "Point", "coordinates": [ -29.0, 13.5 ] } },
{ "type": "Feature", "properties": { "ID": 72496, "LAT": 12.7, "LON": -30.8, "VMAX": 30.0, "MSLP": 1008.0, "RMAX": 100.0, "FSPD": 11.81468, "FDIR": 282.5748, "RENV": 200.0, "PENV": 1014.0, "VALIDT": 0, "DTG": "2026-08-26 18:00", "LATNOW": 16.0, "LONNOW": -51.0, "WINDNOW": 35.0, "DIRNOW": 9.0, "SPDNOW": 3.0, "TECH": "TRAK", "ADVNR": 5, "ATCFID": "AL042026", "NAME": "DOLLY", "FTECH": "OFCL", "FCST_DTG": "2026-08-28 12:00:00", "RUN_DTG": "2026-08-29 06:27:13", "BASIN": "AL", "STMNR": 4, "CAT_ID": null, "CAT_DESC": null, "MSGID": "WTNT24 KNHC 281445", "VALIDTIME": "2026-08-26 18:00:00" }, "geometry": { "type": "Point", "coordinates": [ -30.799999, 12.7 ] } },
{ "type": "Feature", "properties": { "ID": 72497, "LAT": 13.2, "LON": -33.1, "VMAX": 30.0, "MSLP": 1007.0, "RMAX": 110.0, "FSPD": 11.06218, "FDIR": 275.33673, "RENV": 200.0, "PENV": 1012.0, "VALIDT": 0, "DTG": "2026-08-27 00:00", "LATNOW": 16.0, "LONNOW": -51.0, "WINDNOW": 35.0, "DIRNOW": 9.0, "SPDNOW": 3.0, "TECH": "TRAK", "ADVNR": 5, "ATCFID": "AL042026", "NAME": "DOLLY", "FTECH": "OFCL", "FCST_DTG": "2026-08-28 12:00:00", "RUN_DTG": "2026-08-29 06:27:13", "BASIN": "AL", "STMNR": 4, "CAT_ID": null, "CAT_DESC": null, "MSGID": "WTNT24 KNHC 281445", "VALIDTIME": "2026-08-27 00:00:00" }, "geometry": { "type": "Point", "coordinates": [ -33.099998, 13.2 ] } },
{ "type": "Feature", "properties": { "ID": 72498, "LAT": 13.4, "LON": -35.3, "VMAX": 30.0, "MSLP": 1007.0, "RMAX": 90.0, "FSPD": 11.51919, "FDIR": 272.55966, "RENV": 200.0, "PENV": 1012.0, "VALIDT": 0, "DTG": "2026-08-27 06:00", "LATNOW": 16.0, "LONNOW": -51.0, "WINDNOW": 35.0, "DIRNOW": 9.0, "SPDNOW": 3.0, "TECH": "TRAK", "ADVNR": 5, "ATCFID": "AL042026", "NAME": "DOLLY", "FTECH": "OFCL", "FCST_DTG": "2026-08-28 12:00:00", "RUN_DTG": "2026-08-29 06:27:13", "BASIN": "AL", "STMNR": 4, "CAT_ID": null, "CAT_DESC": null, "MSGID": "WTNT24 KNHC 281445", "VALIDTIME": "2026-08-27 06:00:00" }, "geometry": { "type": "Point", "coordinates": [ -35.299999, 13.4 ] } },
{ "type": "Feature", "properties": { "ID": 72499, "LAT": 13.5, "LON": -37.6, "VMAX": 35.0, "MSLP": 1007.0, "RMAX": 50.0, "FSPD": 10.01573, "FDIR": 272.9442, "RENV": 180.0, "PENV": 1012.0, "VALIDT": 0, "DTG": "2026-08-27 12:00", "LATNOW": 16.0, "LONNOW": -51.0, "WINDNOW": 35.0, "DIRNOW": 9.0, "SPDNOW": 3.0, "TECH": "TRAK", "ADVNR": 5, "ATCFID": "AL042026", "NAME": "DOLLY", "FTECH": "OFCL", "FCST_DTG": "2026-08-28 12:00:00", "RUN_DTG": "2026-08-29 06:27:13", "BASIN": "AL", "STMNR": 4, "CAT_ID": null, "CAT_DESC": null, "MSGID": "WTNT24 KNHC 281445", "VALIDTIME": "2026-08-27 12:00:00" }, "geometry": { "type": "Point", "coordinates": [ -37.599998, 13.5 ] } },
{ "type": "Feature", "properties": { "ID": 72500, "LAT": 13.6, "LON": -39.6, "VMAX": 35.0, "MSLP": 1007.0, "RMAX": 50.0, "FSPD": 9.01316, "FDIR": 273.272, "RENV": 180.0, "PENV": 1012.0, "VALIDT": 0, "DTG": "2026-08-27 18:00", "LATNOW": 16.0, "LONNOW": -51.0, "WINDNOW": 35.0, "DIRNOW": 9.0, "SPDNOW": 3.0, "TECH": "TRAK", "ADVNR": 5, "ATCFID": "AL042026", "NAME": "DOLLY", "FTECH": "OFCL", "FCST_DTG": "2026-08-28 12:00:00", "RUN_DTG": "2026-08-29 06:27:13", "BASIN": "AL", "STMNR": 4, "CAT_ID": null, "CAT_DESC": null, "MSGID": "WTNT24 KNHC 281445", "VALIDTIME": "2026-08-27 18:00:00" }, "geometry": { "type": "Point", "coordinates": [ -39.599998, 13.6 ] } },
{ "type": "Feature", "properties": { "ID": 72501, "LAT": 13.7, "LON": -41.4, "VMAX": 35.0, "MSLP": 1007.0, "RMAX": 50.0, "FSPD": 11.88845, "FDIR": 285.04846, "RENV": 150.0, "PENV": 1012.0, "VALIDT": 0, "DTG": "2026-08-28 00:00", "LATNOW": 16.0, "LONNOW": -51.0, "WINDNOW": 35.0, "DIRNOW": 9.0, "SPDNOW": 3.0, "TECH": "TRAK", "ADVNR": 5, "ATCFID": "AL042026", "NAME": "DOLLY", "FTECH": "OFCL", "FCST_DTG": "2026-08-28 12:00:00", "RUN_DTG": "2026-08-29 06:27:13", "BASIN": "AL", "STMNR": 4, "CAT_ID": null, "CAT_DESC": null, "MSGID": "WTNT24 KNHC 281445", "VALIDTIME": "2026-08-28 00:00:00" }, "geometry": { "type": "Point", "coordinates": [ -41.400002, 13.7 ] } },
{ "type": "Feature", "properties": { "ID": 72502, "LAT": 14.3, "LON": -43.7, "VMAX": 35.0, "MSLP": 1007.0, "RMAX": 50.0, "FSPD": 10.76857, "FDIR": 283.8195, "RENV": 150.0, "PENV": 1011.0, "VALIDT": 0, "DTG": "2026-08-28 06:00", "LATNOW": 16.0, "LONNOW": -51.0, "WINDNOW": 35.0, "DIRNOW": 9.0, "SPDNOW": 3.0, "TECH": "TRAK", "ADVNR": 5, "ATCFID": "AL042026", "NAME": "DOLLY", "FTECH": "OFCL", "FCST_DTG": "2026-08-28 12:00:00", "RUN_DTG": "2026-08-29 06:27:13", "BASIN": "AL", "STMNR": 4, "CAT_ID": null, "CAT_DESC": null, "MSGID": "WTNT24 KNHC 281445", "VALIDTIME": "2026-08-28 06:00:00" }, "geometry": { "type": "Point", "coordinates": [ -43.700001, 14.3 ] } },
{ "type": "Feature", "properties": { "ID": 72503, "LAT": 14.8, "LON": -45.8, "VMAX": 35.0, "MSLP": 1008.0, "RMAX": 50.0, "FSPD": 14.02167, "FDIR": 287.06842, "RENV": 120.0, "PENV": 1011.0, "VALIDT": 0, "DTG": "2026-08-28 12:00", "LATNOW": 16.0, "LONNOW": -51.0, "WINDNOW": 35.0, "DIRNOW": 9.0, "SPDNOW": 3.0, "TECH": "TRAK", "ADVNR": 5, "ATCFID": "AL042026", "NAME": "DOLLY", "FTECH": "OFCL", "FCST_DTG": "2026-08-28 12:00:00", "RUN_DTG": "2026-08-29 06:27:13", "BASIN": "AL", "STMNR": 4, "CAT_ID": null, "CAT_DESC": null, "MSGID": "WTNT24 KNHC 281445", "VALIDTIME": "2026-08-28 12:00:00" }, "geometry": { "type": "Point", "coordinates": [ -45.799999, 14.8 ] } },
{ "type": "Feature", "properties": { "ID": 72504, "LAT": 15.6, "LON": -48.5, "VMAX": 35.0, "MSLP": 1008.0, "RMAX": 70.0, "FSPD": 12.54511, "FDIR": 279.4409, "RENV": 120.0, "PENV": 1011.0, "VALIDT": 0, "DTG": "2026-08-28 18:00", "LATNOW": 16.0, "LONNOW": -51.0, "WINDNOW": 35.0, "DIRNOW": 9.0, "SPDNOW": 3.0, "TECH": "TRAK", "ADVNR": 5, "ATCFID": "AL042026", "NAME": "DOLLY", "FTECH": "OFCL", "FCST_DTG": "2026-08-28 12:00:00", "RUN_DTG": "2026-08-29 06:27:13", "BASIN": "AL", "STMNR": 4, "CAT_ID": null, "CAT_DESC": null, "MSGID": "WTNT24 KNHC 281445", "VALIDTIME": "2026-08-28 18:00:00" }, "geometry": { "type": "Point", "coordinates": [ -48.5, 15.6 ] } },
{ "type": "Feature", "properties": { "ID": 72505, "LAT": 16.0, "LON": -51.0, "VMAX": 35.0, "MSLP": 1008.0, "RMAX": 70.0, "FSPD": 9.19706, "FDIR": 276.4232, "RENV": 120.0, "PENV": 1011.0, "VALIDT": 0, "DTG": "2026-08-29 00:00", "LATNOW": 16.0, "LONNOW": -51.0, "WINDNOW": 35.0, "DIRNOW": 9.0, "SPDNOW": 3.0, "TECH": "TRAK", "ADVNR": 5, "ATCFID": "AL042026", "NAME": "DOLLY", "FTECH": "OFCL", "FCST_DTG": "2026-08-28 12:00:00", "RUN_DTG": "2026-08-29 06:27:13", "BASIN": "AL", "STMNR": 4, "CAT_ID": null, "CAT_DESC": null, "MSGID": "WTNT24 KNHC 281445", "VALIDTIME": "2026-08-29 00:00:00" }, "geometry": { "type": "Point", "coordinates": [ -51.0, 16.0 ] } },
{ "type": "Feature", "properties": { "ID": 72506, "LAT": 16.4, "LON": -54.7, "VMAX": 35.0, "MSLP": 1008.74713, "RMAX": 71.1395, "FSPD": 9.19706, "FDIR": 276.4232, "RENV": 180.0, "PENV": 1012.0, "VALIDT": 24, "DTG": "2026-08-29 12:00", "LATNOW": 16.0, "LONNOW": -51.0, "WINDNOW": 35.0, "DIRNOW": 9.0, "SPDNOW": 3.0, "TECH": "FCST", "ADVNR": 5, "ATCFID": "AL042026", "NAME": "DOLLY", "FTECH": "OFCL", "FCST_DTG": "2026-08-28 12:00:00", "RUN_DTG": "2026-08-29 06:27:13", "BASIN": "AL", "STMNR": 4, "CAT_ID": null, "CAT_DESC": null, "MSGID": "WTNT24 KNHC 281445", "VALIDTIME": "2026-08-29 12:00:00" }, "geometry": { "type": "Point", "coordinates": [ -54.700001, 16.4 ] } },
{ "type": "Feature", "properties": { "ID": 72505, "LAT": 16.0, "LON": -51.0, "VMAX": 35.0, "MSLP": 1008.0, "RMAX": 70.0, "FSPD": 9.19706, "FDIR": 276.4232, "RENV": 120.0, "PENV": 1011.0, "VALIDT": 0, "DTG": "2026-08-29 00:00", "LATNOW": 16.0, "LONNOW": -51.0, "WINDNOW": 35.0, "DIRNOW": 9.0, "SPDNOW": 3.0, "TECH": "TRAK", "ADVNR": 5, "ATCFID": "AL042026", "NAME": "DOLLY", "FTECH": "OFCL", "FCST_DTG": "2026-08-28 12:00:00", "RUN_DTG": "2026-08-29 06:27:13", "BASIN": "AL", "STMNR": 4, "CAT_ID": null, "CAT_DESC": null, "MSGID": "WTNT24 KNHC 281445", "VALIDTIME": "2026-08-29 00:00:00" }, "geometry": { "type": "LineString", "coordinates": [ [ -18.5, 11.0 ], [ -19.3, 11.2 ], [ -20.6, 11.3 ], [ -22.0, 12.3 ], [ -23.6, 12.9 ], [ -25.0, 13.5 ], [ -26.9, 13.5 ], [ -29.0, 13.5 ], [ -30.8, 12.7 ], [ -33.1, 13.2 ], [ -35.3, 13.4 ], [ -37.6, 13.5 ], [ -39.6, 13.6 ], [ -41.4, 13.7 ], [ -43.7, 14.3 ], [ -45.8, 14.8 ], [ -48.5, 15.6 ], [ -51.0, 16.0 ] ] } },
{ "type": "Feature", "properties": { "ID": 72506, "LAT": 16.4, "LON": -54.7, "VMAX": 35.0, "MSLP": 1008.74713, "RMAX": 71.1395, "FSPD": 9.19706, "FDIR": 276.4232, "RENV": 180.0, "PENV": 1012.0, "VALIDT": 24, "DTG": "2026-08-29 12:00", "LATNOW": 16.0, "LONNOW": -51.0, "WINDNOW": 35.0, "DIRNOW": 9.0, "SPDNOW": 3.0, "TECH": "FCST", "ADVNR": 5, "ATCFID": "AL042026", "NAME": "DOLLY", "FTECH": "OFCL", "FCST_DTG": "2026-08-28 12:00:00", "RUN_DTG": "2026-08-29 06:27:13", "BASIN": "AL", "STMNR": 4, "CAT_ID": null, "CAT_DESC": null, "MSGID": "WTNT24 KNHC 281445", "VALIDTIME": "2026-08-29 12:00:00" }, "geometry": { "type": "LineString", "coordinates": [ [ -51.0, 16.0 ], [ -54.7, 16.4 ] ] } }
]
}
