{
"type": "FeatureCollection",
"crs": { "type": "name", "properties": { "name": "urn:ogc:def:crs:OGC:1.3:CRS84" } },
"features": [
{ "type": "Feature", "properties": { "ID": 48292, "LAT": 12.0, "LON": -96.0, "VMAX": 20.0, "MSLP": 1010.0, "RMAX": 43.80874, "FSPD": 3.38929, "FDIR": 297.08783, "RENV": 150.0, "PENV": 1011.0, "VALIDT": 0, "DTG": "2025-09-19 18:00", "LATNOW": 20.7, "LONNOW": -125.2, "WINDNOW": 30.0, "DIRNOW": 2.0, "SPDNOW": 1.0, "TECH": "TRAK", "ADVNR": 30, "ATCFID": "EP142025", "NAME": "NARDA", "FTECH": "OFCL", "FCST_DTG": "2025-09-29 00:00:00", "RUN_DTG": "2025-09-29 15:35:10", "BASIN": "EP", "STMNR": 14, "CAT_ID": null, "CAT_DESC": null, "MSGID": "WTPZ24 KNHC 290231", "VALIDTIME": "2025-09-19 18:00:00" }, "geometry": { "type": "Point", "coordinates": [ -96.0, 12.0 ] } },
{ "type": "Feature", "properties": { "ID": 48293, "LAT": 12.3, "LON": -96.6, "VMAX": 25.0, "MSLP": 1008.0, "RMAX": 80.0, "FSPD": 4.30495, "FDIR": 291.00824, "RENV": 150.0, "PENV": 1011.0, "VALIDT": 0, "DTG": "2025-09-20 00:00", "LATNOW": 20.7, "LONNOW": -125.2, "WINDNOW": 30.0, "DIRNOW": 2.0, "SPDNOW": 1.0, "TECH": "TRAK", "ADVNR": 30, "ATCFID": "EP142025", "NAME": "NARDA", "FTECH": "OFCL", "FCST_DTG": "2025-09-29 00:00:00", "RUN_DTG": "2025-09-29 15:35:10", "BASIN": "EP", "STMNR": 14, "CAT_ID": null, "CAT_DESC": null, "MSGID": "WTPZ24 KNHC 290231", "VALIDTIME": "2025-09-20 00:00:00" }, "geometry": { "type": "Point", "coordinates": [ -96.599998, 12.3 ] } },
{ "type": "Feature", "properties": { "ID": 48294, "LAT": 12.6, "LON": -97.4, "VMAX": 25.0, "MSLP": 1008.0, "RMAX": 80.0, "FSPD": 2.11804, "FDIR": 346.29944, "RENV": 150.0, "PENV": 1011.0, "VALIDT": 0, "DTG": "2025-09-20 06:00", "LATNOW": 20.7, "LONNOW": -125.2, "WINDNOW": 30.0, "DIRNOW": 2.0, "SPDNOW": 1.0, "TECH": "TRAK", "ADVNR": 30, "ATCFID": "EP142025", "NAME": "NARDA", "FTECH": "OFCL", "FCST_DTG": "2025-09-29 00:00:00", "RUN_DTG": "2025-09-29 15:35:10", "BASIN": "EP", "STMNR": 14, "CAT_ID": null, "CAT_DESC": null, "MSGID": "WTPZ24 KNHC 290231", "VALIDTIME": "2025-09-20 06:00:00" }, "geometry": { "type": "Point", "coordinates": [ -97.400002, 12.6 ] } },
{ "type": "Feature", "properties": { "ID": 48295, "LAT": 13.0, "LON": -97.5, "VMAX": 25.0, "MSLP": 1008.0, "RMAX": 100.0, "FSPD": 1.1444, "FDIR": 334.0348, "RENV": 150.0, "PENV": 1011.0, "VALIDT": 0, "DTG": "2025-09-20 12:00", "LATNOW": 20.7, "LONNOW": -125.2, "WINDNOW": 30.0, "DIRNOW": 2.0, "SPDNOW": 1.0, "TECH": "TRAK", "ADVNR": 30, "ATCFID": "EP142025", "NAME": "NARDA", "FTECH": "OFCL", "FCST_DTG": "2025-09-29 00:00:00", "RUN_DTG": "2025-09-29 15:35:10", "BASIN": "EP", "STMNR": 14, "CAT_ID": null, "CAT_DESC": null, "MSGID": "WTPZ24 KNHC 290231", "VALIDTIME": "2025-09-20 12:00:00" }, "geometry": { "type": "Point", "coordinates": [ -97.5, 13.0 ] } },
{ "type": "Feature", "properties": { "ID": 48296, "LAT": 13.2, "LON": -97.6, "VMAX": 30.0, "MSLP": 1008.0, "RMAX": 60.0, "FSPD": 2.06802, "FDIR": 284.40433, "RENV": 150.0, "PENV": 1011.0, "VALIDT": 0, "DTG": "2025-09-20 18:00", "LATNOW": 20.7, "LONNOW": -125.2, "WINDNOW": 30.0, "DIRNOW": 2.0, "SPDNOW": 1.0, "TECH": "TRAK", "ADVNR": 30, "ATCFID": "EP142025", "NAME": "NARDA", "FTECH": "OFCL", "FCST_DTG": "2025-09-29 00:00:00", "RUN_DTG": "2025-09-29 15:35:10", "BASIN": "EP", "STMNR": 14, "CAT_ID": null, "CAT_DESC": null, "MSGID": "WTPZ24 KNHC 290231", "VALIDTIME": "2025-09-20 18:00:00" }, "geometry": { "type": "Point", "coordinates": [ -97.599998, 13.2 ] } },
{ "type": "Feature", "properties": { "ID": 48297, "LAT": 13.3, "LON": -98.0, "VMAX": 30.0, "MSLP": 1008.0, "RMAX": 60.0, "FSPD": 1.50195, "FDIR": 269.99997, "RENV": 150.0, "PENV": 1011.0, "VALIDT": 0, "DTG": "2025-09-21 00:00", "LATNOW": 20.7, "LONNOW": -125.2, "WINDNOW": 30.0, "DIRNOW": 2.0, "SPDNOW": 1.0, "TECH": "TRAK", "ADVNR": 30, "ATCFID": "EP142025", "NAME": "NARDA", "FTECH": "OFCL", "FCST_DTG": "2025-09-29 00:00:00", "RUN_DTG": "2025-09-29 15:35:10", "BASIN": "EP", "STMNR": 14, "CAT_ID": null, "CAT_DESC": null, "MSGID": "WTPZ24 KNHC 290231", "VALIDTIME": "2025-09-21 00:00:00" }, "geometry": { "type": "Point", "coordinates": [ -98.0, 13.3 ] } },
{ "type": "Feature", "properties": { "ID": 48298, "LAT": 13.3, "LON": -98.3, "VMAX": 30.0, "MSLP": 1008.0, "RMAX": 120.0, "FSPD": 3.65103, "FDIR": 286.3681, "RENV": 150.0, "PENV": 1011.0, "VALIDT": 0, "DTG": "2025-09-21 06:00", "LATNOW": 20.7, "LONNOW": -125.2, "WINDNOW": 30.0, "DIRNOW": 2.0, "SPDNOW": 1.0, "TECH": "TRAK", "ADVNR": 30, "ATCFID": "EP142025", "NAME": "NARDA", "FTECH": "OFCL", "FCST_DTG": "2025-09-29 00:00:00", "RUN_DTG": "2025-09-29 15:35:10", "BASIN": "EP", "STMNR": 14, "CAT_ID": null, "CAT_DESC": null, "MSGID": "WTPZ24 KNHC 290231", "VALIDTIME": "2025-09-21 06:00:00" }, "geometry": { "type": "Point", "coordinates": [ -98.300003, 13.3 ] } },
{ "type": "Feature", "properties": { "ID": 48299, "LAT": 13.5, "LON": -99.0, "VMAX": 30.0, "MSLP": 1008.0, "RMAX": 90.0, "FSPD": 4.86625, "FDIR": 342.0733, "RENV": 150.0, "PENV": 1011.0, "VALIDT": 0, "DTG": "2025-09-21 12:00", "LATNOW": 20.7, "LONNOW": -125.2, "WINDNOW": 30.0, "DIRNOW": 2.0, "SPDNOW": 1.0, "TECH": "TRAK", "ADVNR": 30, "ATCFID": "EP142025", "NAME": "NARDA", "FTECH": "OFCL", "FCST_DTG": "2025-09-29 00:00:00", "RUN_DTG": "2025-09-29 15:35:10", "BASIN": "EP", "STMNR": 14, "CAT_ID": null, "CAT_DESC": null, "MSGID": "WTPZ24 KNHC 290231", "VALIDTIME": "2025-09-21 12:00:00" }, "geometry": { "type": "Point", "coordinates": [ -99.0, 13.5 ] } },
{ "type": "Feature", "properties": { "ID": 48300, "LAT": 14.4, "LON": -99.3, "VMAX": 35.0, "MSLP": 1006.0, "RMAX": 60.0, "FSPD": 5.36728, "FDIR": 312.13953, "RENV": 150.0, "PENV": 1010.0, "VALIDT": 0, "DTG": "2025-09-21 18:00", "LATNOW": 20.7, "LONNOW": -125.2, "WINDNOW": 30.0, "DIRNOW": 2.0, "SPDNOW": 1.0, "TECH": "TRAK", "ADVNR": 30, "ATCFID": "EP142025", "NAME": "NARDA", "FTECH": "OFCL", "FCST_DTG": "2025-09-29 00:00:00", "RUN_DTG": "2025-09-29 15:35:10", "BASIN": "EP", "STMNR": 14, "CAT_ID": null, "CAT_DESC": null, "MSGID": "WTPZ24 KNHC 290231", "VALIDTIME": "2025-09-21 18:00:00" }, "geometry": { "type": "Point", "coordinates": [ -99.300003, 14.4 ] } },
{ "type": "Feature", "properties": { "ID": 48301, "LAT": 15.1, "LON": -100.1, "VMAX": 35.0, "MSLP": 1006.0, "RMAX": 60.0, "FSPD": 4.4986, "FDIR": 276.56647, "RENV": 150.0, "PENV": 1009.0, "VALIDT": 0, "DTG": "2025-09-22 00:00", "LATNOW": 20.7, "LONNOW": -125.2, "WINDNOW": 30.0, "DIRNOW": 2.0, "SPDNOW": 1.0, "TECH": "TRAK", "ADVNR": 30, "ATCFID": "EP142025", "NAME": "NARDA", "FTECH": "OFCL", "FCST_DTG": "2025-09-29 00:00:00", "RUN_DTG": "2025-09-29 15:35:10", "BASIN": "EP", "STMNR": 14, "CAT_ID": null, "CAT_DESC": null, "MSGID": "WTPZ24 KNHC 290231", "VALIDTIME": "2025-09-22 00:00:00" }, "geometry": { "type": "Point", "coordinates": [ -100.099998, 15.1 ] } },
{ "type": "Feature", "properties": { "ID": 48302, "LAT": 15.2, "LON": -101.0, "VMAX": 40.0, "MSLP": 1003.0, "RMAX": 60.0, "FSPD": 6.76808, "FDIR": 287.7005, "RENV": 140.0, "PENV": 1009.0, "VALIDT": 0, "DTG": "2025-09-22 06:00", "LATNOW": 20.7, "LONNOW": -125.2, "WINDNOW": 30.0, "DIRNOW": 2.0, "SPDNOW": 1.0, "TECH": "TRAK", "ADVNR": 30, "ATCFID": "EP142025", "NAME": "NARDA", "FTECH": "OFCL", "FCST_DTG": "2025-09-29 00:00:00", "RUN_DTG": "2025-09-29 15:35:10", "BASIN": "EP", "STMNR": 14, "CAT_ID": null, "CAT_DESC": null, "MSGID": "WTPZ24 KNHC 290231", "VALIDTIME": "2025-09-22 06:00:00" }, "geometry": { "type": "Point", "coordinates": [ -101.0, 15.2 ] } },
{ "type": "Feature", "properties": { "ID": 48303, "LAT": 15.6, "LON": -102.3, "VMAX": 45.0, "MSLP": 1000.0, "RMAX": 40.0, "FSPD": 5.57741, "FDIR": 297.46365, "RENV": 180.0, "PENV": 1008.0, "VALIDT": 0, "DTG": "2025-09-22 12:00", "LATNOW": 20.7, "LONNOW": -125.2, "WINDNOW": 30.0, "DIRNOW": 2.0, "SPDNOW": 1.0, "TECH": "TRAK", "ADVNR": 30, "ATCFID": "EP142025", "NAME": "NARDA", "FTECH": "OFCL", "FCST_DTG": "2025-09-29 00:00:00", "RUN_DTG": "2025-09-29 15:35:10", "BASIN": "EP", "STMNR": 14, "CAT_ID": null, "CAT_DESC": null, "MSGID": "WTPZ24 KNHC 290231", "VALIDTIME": "2025-09-22 12:00:00" }, "geometry": { "type": "Point", "coordinates": [ -102.300003, 15.6 ] } },
{ "type": "Feature", "properties": { "ID": 48304, "LAT": 16.1, "LON": -103.3, "VMAX": 50.0, "MSLP": 997.0, "RMAX": 20.0, "FSPD": 6.02271, "FDIR": 260.16357, "RENV": 180.0, "PENV": 1008.0, "VALIDT": 0, "DTG": "2025-09-22 18:00", "LATNOW": 20.7, "LONNOW": -125.2, "WINDNOW": 30.0, "DIRNOW": 2.0, "SPDNOW": 1.0, "TECH": "TRAK", "ADVNR": 30, "ATCFID": "EP142025", "NAME": "NARDA", "FTECH": "OFCL", "FCST_DTG": "2025-09-29 00:00:00", "RUN_DTG": "2025-09-29 15:35:10", "BASIN": "EP", "STMNR": 14, "CAT_ID": null, "CAT_DESC": null, "MSGID": "WTPZ24 KNHC 290231", "VALIDTIME": "2025-09-22 18:00:00" }, "geometry": { "type": "Point", "coordinates": [ -103.300003, 16.1 ] } },
{ "type": "Feature", "properties": { "ID": 48305, "LAT": 15.9, "LON": -104.5, "VMAX": 55.0, "MSLP": 993.0, "RMAX": 20.0, "FSPD": 5.54143, "FDIR": 259.29968, "RENV": 180.0, "PENV": 1006.0, "VALIDT": 0, "DTG": "2025-09-23 00:00", "LATNOW": 20.7, "LONNOW": -125.2, "WINDNOW": 30.0, "DIRNOW": 2.0, "SPDNOW": 1.0, "TECH": "TRAK", "ADVNR": 30, "ATCFID": "EP142025", "NAME": "NARDA", "FTECH": "OFCL", "FCST_DTG": "2025-09-29 00:00:00", "RUN_DTG": "2025-09-29 15:35:10", "BASIN": "EP", "STMNR": 14, "CAT_ID": null, "CAT_DESC": null, "MSGID": "WTPZ24 KNHC 290231", "VALIDTIME": "2025-09-23 00:00:00" }, "geometry": { "type": "Point", "coordinates": [ -104.5, 15.9 ] } },
{ "type": "Feature", "properties": { "ID": 48306, "LAT": 15.7, "LON": -105.6, "VMAX": 60.0, "MSLP": 990.0, "RMAX": 10.0, "FSPD": 5.96381, "FDIR": 274.94855, "RENV": 180.0, "PENV": 1008.0, "VALIDT": 0, "DTG": "2025-09-23 06:00", "LATNOW": 20.7, "LONNOW": -125.2, "WINDNOW": 30.0, "DIRNOW": 2.0, "SPDNOW": 1.0, "TECH": "TRAK", "ADVNR": 30, "ATCFID": "EP142025", "NAME": "NARDA", "FTECH": "OFCL", "FCST_DTG": "2025-09-29 00:00:00", "RUN_DTG": "2025-09-29 15:35:10", "BASIN": "EP", "STMNR": 14, "CAT_ID": null, "CAT_DESC": null, "MSGID": "WTPZ24 KNHC 290231", "VALIDTIME": "2025-09-23 06:00:00" }, "geometry": { "type": "Point", "coordinates": [ -105.599998, 15.7 ] } },
{ "type": "Feature", "properties": { "ID": 48307, "LAT": 15.8, "LON": -106.8, "VMAX": 75.0, "MSLP": 981.0, "RMAX": 10.0, "FSPD": 5.36525, "FDIR": 247.4469, "RENV": 200.0, "PENV": 1008.0, "VALIDT": 0, "DTG": "2025-09-23 12:00", "LATNOW": 20.7, "LONNOW": -125.2, "WINDNOW": 30.0, "DIRNOW": 2.0, "SPDNOW": 1.0, "TECH": "TRAK", "ADVNR": 30, "ATCFID": "EP142025", "NAME": "NARDA", "FTECH": "OFCL", "FCST_DTG": "2025-09-29 00:00:00", "RUN_DTG": "2025-09-29 15:35:10", "BASIN": "EP", "STMNR": 14, "CAT_ID": null, "CAT_DESC": null, "MSGID": "WTPZ24 KNHC 290231", "VALIDTIME": "2025-09-23 12:00:00" }, "geometry": { "type": "Point", "coordinates": [ -106.800003, 15.8 ] } },
{ "type": "Feature", "properties": { "ID": 48308, "LAT": 15.4, "LON": -107.8, "VMAX": 75.0, "MSLP": 981.0, "RMAX": 10.0, "FSPD": 4.98753, "FDIR": 264.07965, "RENV": 200.0, "PENV": 1008.0, "VALIDT": 0, "DTG": "2025-09-23 18:00", "LATNOW": 20.7, "LONNOW": -125.2, "WINDNOW": 30.0, "DIRNOW": 2.0, "SPDNOW": 1.0, "TECH": "TRAK", "ADVNR": 30, "ATCFID": "EP142025", "NAME": "NARDA", "FTECH": "OFCL", "FCST_DTG": "2025-09-29 00:00:00", "RUN_DTG": "2025-09-29 15:35:10", "BASIN": "EP", "STMNR": 14, "CAT_ID": null, "CAT_DESC": null, "MSGID": "WTPZ24 KNHC 290231", "VALIDTIME": "2025-09-23 18:00:00" }, "geometry": { "type": "Point", "coordinates": [ -107.800003, 15.4 ] } },
{ "type": "Feature", "properties": { "ID": 48309, "LAT": 15.3, "LON": -108.8, "VMAX": 85.0, "MSLP": 972.0, "RMAX": 10.0, "FSPD": 5.4838, "FDIR": 264.617, "RENV": 250.0, "PENV": 1007.0, "VALIDT": 0, "DTG": "2025-09-24 00:00", "LATNOW": 20.7, "LONNOW": -125.2, "WINDNOW": 30.0, "DIRNOW": 2.0, "SPDNOW": 1.0, "TECH": "TRAK", "ADVNR": 30, "ATCFID": "EP142025", "NAME": "NARDA", "FTECH": "OFCL", "FCST_DTG": "2025-09-29 00:00:00", "RUN_DTG": "2025-09-29 15:35:10", "BASIN": "EP", "STMNR": 14, "CAT_ID": null, "CAT_DESC": null, "MSGID": "WTPZ24 KNHC 290231", "VALIDTIME": "2025-09-24 00:00:00" }, "geometry": { "type": "Point", "coordinates": [ -108.800003, 15.3 ] } },
{ "type": "Feature", "properties": { "ID": 48310, "LAT": 15.2, "LON": -109.9, "VMAX": 90.0, "MSLP": 970.0, "RMAX": 10.0, "FSPD": 5.98093, "FDIR": 265.06567, "RENV": 250.0, "PENV": 1009.0, "VALIDT": 0, "DTG": "2025-09-24 06:00", "LATNOW": 20.7, "LONNOW": -125.2, "WINDNOW": 30.0, "DIRNOW": 2.0, "SPDNOW": 1.0, "TECH": "TRAK", "ADVNR": 30, "ATCFID": "EP142025", "NAME": "NARDA", "FTECH": "OFCL", "FCST_DTG": "2025-09-29 00:00:00", "RUN_DTG": "2025-09-29 15:35:10", "BASIN": "EP", "STMNR": 14, "CAT_ID": null, "CAT_DESC": null, "MSGID": "WTPZ24 KNHC 290231", "VALIDTIME": "2025-09-24 06:00:00" }, "geometry": { "type": "Point", "coordinates": [ -109.900002, 15.2 ] } },
{ "type": "Feature", "properties": { "ID": 48311, "LAT": 15.1, "LON": -111.1, "VMAX": 90.0, "MSLP": 972.0, "RMAX": 10.0, "FSPD": 3.4768, "FDIR": 269.99997, "RENV": 260.0, "PENV": 1009.0, "VALIDT": 0, "DTG": "2025-09-24 12:00", "LATNOW": 20.7, "LONNOW": -125.2, "WINDNOW": 30.0, "DIRNOW": 2.0, "SPDNOW": 1.0, "TECH": "TRAK", "ADVNR": 30, "ATCFID": "EP142025", "NAME": "NARDA", "FTECH": "OFCL", "FCST_DTG": "2025-09-29 00:00:00", "RUN_DTG": "2025-09-29 15:35:10", "BASIN": "EP", "STMNR": 14, "CAT_ID": null, "CAT_DESC": null, "MSGID": "WTPZ24 KNHC 290231", "VALIDTIME": "2025-09-24 12:00:00" }, "geometry": { "type": "Point", "coordinates": [ -111.099998, 15.1 ] } },
{ "type": "Feature", "properties": { "ID": 48312, "LAT": 15.1, "LON": -111.8, "VMAX": 85.0, "MSLP": 976.0, "RMAX": 15.0, "FSPD": 4.47011, "FDIR": 269.99997, "RENV": 260.0, "PENV": 1010.0, "VALIDT": 0, "DTG": "2025-09-24 18:00", "LATNOW": 20.7, "LONNOW": -125.2, "WINDNOW": 30.0, "DIRNOW": 2.0, "SPDNOW": 1.0, "TECH": "TRAK", "ADVNR": 30, "ATCFID": "EP142025", "NAME": "NARDA", "FTECH": "OFCL", "FCST_DTG": "2025-09-29 00:00:00", "RUN_DTG": "2025-09-29 15:35:10", "BASIN": "EP", "STMNR": 14, "CAT_ID": null, "CAT_DESC": null, "MSGID": "WTPZ24 KNHC 290231", "VALIDTIME": "2025-09-24 18:00:00" }, "geometry": { "type": "Point", "coordinates": [ -111.800003, 15.1 ] } },
{ "type": "Feature", "properties": { "ID": 48313, "LAT": 15.1, "LON": -112.7, "VMAX": 80.0, "MSLP": 978.0, "RMAX": 15.0, "FSPD": 7.24533, "FDIR": 286.4999, "RENV": 260.0, "PENV": 1010.0, "VALIDT": 0, "DTG": "2025-09-25 00:00", "LATNOW": 20.7, "LONNOW": -125.2, "WINDNOW": 30.0, "DIRNOW": 2.0, "SPDNOW": 1.0, "TECH": "TRAK", "ADVNR": 30, "ATCFID": "EP142025", "NAME": "NARDA", "FTECH": "OFCL", "FCST_DTG": "2025-09-29 00:00:00", "RUN_DTG": "2025-09-29 15:35:10", "BASIN": "EP", "STMNR": 14, "CAT_ID": null, "CAT_DESC": null, "MSGID": "WTPZ24 KNHC 290231", "VALIDTIME": "2025-09-25 00:00:00" }, "geometry": { "type": "Point", "coordinates": [ -112.699997, 15.1 ] } },
{ "type": "Feature", "properties": { "ID": 48314, "LAT": 15.5, "LON": -114.1, "VMAX": 80.0, "MSLP": 980.0, "RMAX": 15.0, "FSPD": 9.27612, "FDIR": 286.09882, "RENV": 260.0, "PENV": 1011.0, "VALIDT": 0, "DTG": "2025-09-25 06:00", "LATNOW": 20.7, "LONNOW": -125.2, "WINDNOW": 30.0, "DIRNOW": 2.0, "SPDNOW": 1.0, "TECH": "TRAK", "ADVNR": 30, "ATCFID": "EP142025", "NAME": "NARDA", "FTECH": "OFCL", "FCST_DTG": "2025-09-29 00:00:00", "RUN_DTG": "2025-09-29 15:35:10", "BASIN": "EP", "STMNR": 14, "CAT_ID": null, "CAT_DESC": null, "MSGID": "WTPZ24 KNHC 290231", "VALIDTIME": "2025-09-25 06:00:00" }, "geometry": { "type": "Point", "coordinates": [ -114.099998, 15.5 ] } },
{ "type": "Feature", "properties": { "ID": 48315, "LAT": 16.0, "LON": -115.9, "VMAX": 80.0, "MSLP": 980.0, "RMAX": 15.0, "FSPD": 6.94059, "FDIR": 274.25073, "RENV": 260.0, "PENV": 1011.0, "VALIDT": 0, "DTG": "2025-09-25 12:00", "LATNOW": 20.7, "LONNOW": -125.2, "WINDNOW": 30.0, "DIRNOW": 2.0, "SPDNOW": 1.0, "TECH": "TRAK", "ADVNR": 30, "ATCFID": "EP142025", "NAME": "NARDA", "FTECH": "OFCL", "FCST_DTG": "2025-09-29 00:00:00", "RUN_DTG": "2025-09-29 15:35:10", "BASIN": "EP", "STMNR": 14, "CAT_ID": null, "CAT_DESC": null, "MSGID": "WTPZ24 KNHC 290231", "VALIDTIME": "2025-09-25 12:00:00" }, "geometry": { "type": "Point", "coordinates": [ -115.900002, 16.0 ] } },
{ "type": "Feature", "properties": { "ID": 48316, "LAT": 16.1, "LON": -117.3, "VMAX": 80.0, "MSLP": 980.0, "RMAX": 15.0, "FSPD": 6.99233, "FDIR": 278.46146, "RENV": 260.0, "PENV": 1011.0, "VALIDT": 0, "DTG": "2025-09-25 18:00", "LATNOW": 20.7, "LONNOW": -125.2, "WINDNOW": 30.0, "DIRNOW": 2.0, "SPDNOW": 1.0, "TECH": "TRAK", "ADVNR": 30, "ATCFID": "EP142025", "NAME": "NARDA", "FTECH": "OFCL", "FCST_DTG": "2025-09-29 00:00:00", "RUN_DTG": "2025-09-29 15:35:10", "BASIN": "EP", "STMNR": 14, "CAT_ID": null, "CAT_DESC": null, "MSGID": "WTPZ24 KNHC 290231", "VALIDTIME": "2025-09-25 18:00:00" }, "geometry": { "type": "Point", "coordinates": [ -117.300003, 16.1 ] } },
{ "type": "Feature", "properties": { "ID": 48317, "LAT": 16.3, "LON": -118.7, "VMAX": 80.0, "MSLP": 980.0, "RMAX": 15.0, "FSPD": 6.41898, "FDIR": 269.99997, "RENV": 260.0, "PENV": 1011.0, "VALIDT": 0, "DTG": "2025-09-26 00:00", "LATNOW": 20.7, "LONNOW": -125.2, "WINDNOW": 30.0, "DIRNOW": 2.0, "SPDNOW": 1.0, "TECH": "TRAK", "ADVNR": 30, "ATCFID": "EP142025", "NAME": "NARDA", "FTECH": "OFCL", "FCST_DTG": "2025-09-29 00:00:00", "RUN_DTG": "2025-09-29 15:35:10", "BASIN": "EP", "STMNR": 14, "CAT_ID": null, "CAT_DESC": null, "MSGID": "WTPZ24 KNHC 290231", "VALIDTIME": "2025-09-26 00:00:00" }, "geometry": { "type": "Point", "coordinates": [ -118.699997, 16.299999 ] } },
{ "type": "Feature", "properties": { "ID": 48318, "LAT": 16.3, "LON": -120.0, "VMAX": 80.0, "MSLP": 980.0, "RMAX": 15.0, "FSPD": 6.73448, "FDIR": 287.7918, "RENV": 260.0, "PENV": 1011.0, "VALIDT": 0, "DTG": "2025-09-26 06:00", "LATNOW": 20.7, "LONNOW": -125.2, "WINDNOW": 30.0, "DIRNOW": 2.0, "SPDNOW": 1.0, "TECH": "TRAK", "ADVNR": 30, "ATCFID": "EP142025", "NAME": "NARDA", "FTECH": "OFCL", "FCST_DTG": "2025-09-29 00:00:00", "RUN_DTG": "2025-09-29 15:35:10", "BASIN": "EP", "STMNR": 14, "CAT_ID": null, "CAT_DESC": null, "MSGID": "WTPZ24 KNHC 290231", "VALIDTIME": "2025-09-26 06:00:00" }, "geometry": { "type": "Point", "coordinates": [ -120.0, 16.299999 ] } },
{ "type": "Feature", "properties": { "ID": 48319, "LAT": 16.7, "LON": -121.3, "VMAX": 80.0, "MSLP": 980.0, "RMAX": 15.0, "FSPD": 4.55021, "FDIR": 283.0686, "RENV": 270.0, "PENV": 1011.0, "VALIDT": 0, "DTG": "2025-09-26 12:00", "LATNOW": 20.7, "LONNOW": -125.2, "WINDNOW": 30.0, "DIRNOW": 2.0, "SPDNOW": 1.0, "TECH": "TRAK", "ADVNR": 30, "ATCFID": "EP142025", "NAME": "NARDA", "FTECH": "OFCL", "FCST_DTG": "2025-09-29 00:00:00", "RUN_DTG": "2025-09-29 15:35:10", "BASIN": "EP", "STMNR": 14, "CAT_ID": null, "CAT_DESC": null, "MSGID": "WTPZ24 KNHC 290231", "VALIDTIME": "2025-09-26 12:00:00" }, "geometry": { "type": "Point", "coordinates": [ -121.300003, 16.700001 ] } },
{ "type": "Feature", "properties": { "ID": 48320, "LAT": 16.9, "LON": -122.2, "VMAX": 80.0, "MSLP": 979.0, "RMAX": 25.0, "FSPD": 4.68785, "FDIR": 289.2215, "RENV": 270.0, "PENV": 1012.0, "VALIDT": 0, "DTG": "2025-09-26 18:00", "LATNOW": 20.7, "LONNOW": -125.2, "WINDNOW": 30.0, "DIRNOW": 2.0, "SPDNOW": 1.0, "TECH": "TRAK", "ADVNR": 30, "ATCFID": "EP142025", "NAME": "NARDA", "FTECH": "OFCL", "FCST_DTG": "2025-09-29 00:00:00", "RUN_DTG": "2025-09-29 15:35:10", "BASIN": "EP", "STMNR": 14, "CAT_ID": null, "CAT_DESC": null, "MSGID": "WTPZ24 KNHC 290231", "VALIDTIME": "2025-09-26 18:00:00" }, "geometry": { "type": "Point", "coordinates": [ -122.199997, 16.9 ] } },
{ "type": "Feature", "properties": { "ID": 48321, "LAT": 17.2, "LON": -123.1, "VMAX": 80.0, "MSLP": 979.0, "RMAX": 25.0, "FSPD": 5.61757, "FDIR": 285.94604, "RENV": 270.0, "PENV": 1012.0, "VALIDT": 0, "DTG": "2025-09-27 00:00", "LATNOW": 20.7, "LONNOW": -125.2, "WINDNOW": 30.0, "DIRNOW": 2.0, "SPDNOW": 1.0, "TECH": "TRAK", "ADVNR": 30, "ATCFID": "EP142025", "NAME": "NARDA", "FTECH": "OFCL", "FCST_DTG": "2025-09-29 00:00:00", "RUN_DTG": "2025-09-29 15:35:10", "BASIN": "EP", "STMNR": 14, "CAT_ID": null, "CAT_DESC": null, "MSGID": "WTPZ24 KNHC 290231", "VALIDTIME": "2025-09-27 00:00:00" }, "geometry": { "type": "Point", "coordinates": [ -123.099998, 17.200001 ] } },
{ "type": "Feature", "properties": { "ID": 48322, "LAT": 17.5, "LON": -124.2, "VMAX": 80.0, "MSLP": 979.0, "RMAX": 25.0, "FSPD": 2.89654, "FDIR": 302.19604, "RENV": 270.0, "PENV": 1012.0, "VALIDT": 0, "DTG": "2025-09-27 06:00", "LATNOW": 20.7, "LONNOW": -125.2, "WINDNOW": 30.0, "DIRNOW": 2.0, "SPDNOW": 1.0, "TECH": "TRAK", "ADVNR": 30, "ATCFID": "EP142025", "NAME": "NARDA", "FTECH": "OFCL", "FCST_DTG": "2025-09-29 00:00:00", "RUN_DTG": "2025-09-29 15:35:10", "BASIN": "EP", "STMNR": 14, "CAT_ID": null, "CAT_DESC": null, "MSGID": "WTPZ24 KNHC 290231", "VALIDTIME": "2025-09-27 06:00:00" }, "geometry": { "type": "Point", "coordinates": [ -124.199997, 17.5 ] } },
{ "type": "Feature", "properties": { "ID": 48323, "LAT": 17.8, "LON": -124.7, "VMAX": 80.0, "MSLP": 979.0, "RMAX": 25.0, "FSPD": 3.75744, "FDIR": 294.25146, "RENV": 300.0, "PENV": 1012.0, "VALIDT": 0, "DTG": "2025-09-27 12:00", "LATNOW": 20.7, "LONNOW": -125.2, "WINDNOW": 30.0, "DIRNOW": 2.0, "SPDNOW": 1.0, "TECH": "TRAK", "ADVNR": 30, "ATCFID": "EP142025", "NAME": "NARDA", "FTECH": "OFCL", "FCST_DTG": "2025-09-29 00:00:00", "RUN_DTG": "2025-09-29 15:35:10", "BASIN": "EP", "STMNR": 14, "CAT_ID": null, "CAT_DESC": null, "MSGID": "WTPZ24 KNHC 290231", "VALIDTIME": "2025-09-27 12:00:00" }, "geometry": { "type": "Point", "coordinates": [ -124.699997, 17.799999 ] } },
{ "type": "Feature", "properties": { "ID": 48324, "LAT": 18.1, "LON": -125.4, "VMAX": 70.0, "MSLP": 985.0, "RMAX": 25.0, "FSPD": 2.83751, "FDIR": 316.48596, "RENV": 300.0, "PENV": 1012.0, "VALIDT": 0, "DTG": "2025-09-27 18:00", "LATNOW": 20.7, "LONNOW": -125.2, "WINDNOW": 30.0, "DIRNOW": 2.0, "SPDNOW": 1.0, "TECH": "TRAK", "ADVNR": 30, "ATCFID": "EP142025", "NAME": "NARDA", "FTECH": "OFCL", "FCST_DTG": "2025-09-29 00:00:00", "RUN_DTG": "2025-09-29 15:35:10", "BASIN": "EP", "STMNR": 14, "CAT_ID": null, "CAT_DESC": null, "MSGID": "WTPZ24 KNHC 290231", "VALIDTIME": "2025-09-27 18:00:00" }, "geometry": { "type": "Point", "coordinates": [ -125.400002, 18.1 ] } },
{ "type": "Feature", "properties": { "ID": 48325, "LAT": 18.5, "LON": -125.8, "VMAX": 65.0, "MSLP": 988.0, "RMAX": 25.0, "FSPD": 2.2769, "FDIR": 25.34299, "RENV": 300.0, "PENV": 1012.0, "VALIDT": 0, "DTG": "2025-09-28 00:00", "LATNOW": 20.7, "LONNOW": -125.2, "WINDNOW": 30.0, "DIRNOW": 2.0, "SPDNOW": 1.0, "TECH": "TRAK", "ADVNR": 30, "ATCFID": "EP142025", "NAME": "NARDA", "FTECH": "OFCL", "FCST_DTG": "2025-09-29 00:00:00", "RUN_DTG": "2025-09-29 15:35:10", "BASIN": "EP", "STMNR": 14, "CAT_ID": null, "CAT_DESC": null, "MSGID": "WTPZ24 KNHC 290231", "VALIDTIME": "2025-09-28 00:00:00" }, "geometry": { "type": "Point", "coordinates": [ -125.800003, 18.5 ] } },
{ "type": "Feature", "properties": { "ID": 48326, "LAT": 18.9, "LON": -125.6, "VMAX": 50.0, "MSLP": 997.0, "RMAX": 30.0, "FSPD": 2.61773, "FDIR": 10.69876, "RENV": 260.0, "PENV": 1012.0, "VALIDT": 0, "DTG": "2025-09-28 06:00", "LATNOW": 20.7, "LONNOW": -125.2, "WINDNOW": 30.0, "DIRNOW": 2.0, "SPDNOW": 1.0, "TECH": "TRAK", "ADVNR": 30, "ATCFID": "EP142025", "NAME": "NARDA", "FTECH": "OFCL", "FCST_DTG": "2025-09-29 00:00:00", "RUN_DTG": "2025-09-29 15:35:10", "BASIN": "EP", "STMNR": 14, "CAT_ID": null, "CAT_DESC": null, "MSGID": "WTPZ24 KNHC 290231", "VALIDTIME": "2025-09-28 06:00:00" }, "geometry": { "type": "Point", "coordinates": [ -125.599998, 18.9 ] } },
{ "type": "Feature", "properties": { "ID": 48327, "LAT": 19.4, "LON": -125.5, "VMAX": 45.0, "MSLP": 1000.0, "RMAX": 30.0, "FSPD": 3.60111, "FDIR": 360.0, "RENV": 260.0, "PENV": 1012.0, "VALIDT": 0, "DTG": "2025-09-28 12:00", "LATNOW": 20.7, "LONNOW": -125.2, "WINDNOW": 30.0, "DIRNOW": 2.0, "SPDNOW": 1.0, "TECH": "TRAK", "ADVNR": 30, "ATCFID": "EP142025", "NAME": "NARDA", "FTECH": "OFCL", "FCST_DTG": "2025-09-29 00:00:00", "RUN_DTG": "2025-09-29 15:35:10", "BASIN": "EP", "STMNR": 14, "CAT_ID": null, "CAT_DESC": null, "MSGID": "WTPZ24 KNHC 290231", "VALIDTIME": "2025-09-28 12:00:00" }, "geometry": { "type": "Point", "coordinates": [ -125.5, 19.4 ] } },
{ "type": "Feature", "properties": { "ID": 48328, "LAT": 20.1, "LON": -125.5, "VMAX": 35.0, "MSLP": 1008.0, "RMAX": 60.0, "FSPD": 3.40882, "FDIR": 25.10992, "RENV": 250.0, "PENV": 1014.0, "VALIDT": 0, "DTG": "2025-09-28 18:00", "LATNOW": 20.7, "LONNOW": -125.2, "WINDNOW": 30.0, "DIRNOW": 2.0, "SPDNOW": 1.0, "TECH": "TRAK", "ADVNR": 30, "ATCFID": "EP142025", "NAME": "NARDA", "FTECH": "OFCL", "FCST_DTG": "2025-09-29 00:00:00", "RUN_DTG": "2025-09-29 15:35:10", "BASIN": "EP", "STMNR": 14, "CAT_ID": null, "CAT_DESC": null, "MSGID": "WTPZ24 KNHC 290231", "VALIDTIME": "2025-09-28 18:00:00" }, "geometry": { "type": "Point", "coordinates": [ -125.5, 20.1 ] } },
{ "type": "Feature", "properties": { "ID": 48329, "LAT": 20.7, "LON": -125.2, "VMAX": 30.0, "MSLP": 1009.0, "RMAX": 60.0, "FSPD": 2.27145, "FDIR": 25.05176, "RENV": 250.0, "PENV": 1013.0, "VALIDT": 0, "DTG": "2025-09-29 00:00", "LATNOW": 20.7, "LONNOW": -125.2, "WINDNOW": 30.0, "DIRNOW": 2.0, "SPDNOW": 1.0, "TECH": "TRAK", "ADVNR": 30, "ATCFID": "EP142025", "NAME": "NARDA", "FTECH": "OFCL", "FCST_DTG": "2025-09-29 00:00:00", "RUN_DTG": "2025-09-29 15:35:10", "BASIN": "EP", "STMNR": 14, "CAT_ID": null, "CAT_DESC": null, "MSGID": "WTPZ24 KNHC 290231", "VALIDTIME": "2025-09-29 00:00:00" }, "geometry": { "type": "Point", "coordinates": [ -125.199997, 20.700001 ] } },
{ "type": "Feature", "properties": { "ID": 48330, "LAT": 20.9, "LON": -125.1, "VMAX": 30.0, "MSLP": 1009.0, "RMAX": 60.0, "FSPD": 1.96503, "FDIR": 29.23029, "RENV": 250.0, "PENV": 1012.0, "VALIDT": 3, "DTG": "2025-09-29 03:00", "LATNOW": 20.7, "LONNOW": -125.2, "WINDNOW": 30.0, "DIRNOW": 2.0, "SPDNOW": 1.0, "TECH": "FCST", "ADVNR": 30, "ATCFID": "EP142025", "NAME": "NARDA", "FTECH": "OFCL", "FCST_DTG": "2025-09-29 00:00:00", "RUN_DTG": "2025-09-29 15:35:10", "BASIN": "EP", "STMNR": 14, "CAT_ID": null, "CAT_DESC": null, "MSGID": "WTPZ24 KNHC 290231", "VALIDTIME": "2025-09-29 03:00:00" }, "geometry": { "type": "Point", "coordinates": [ -125.099998, 20.9 ] } },
{ "type": "Feature", "properties": { "ID": 48331, "LAT": 21.4, "LON": -124.8, "VMAX": 25.0, "MSLP": 1011.80975, "RMAX": 62.93414, "FSPD": 0.88326, "FDIR": 54.37766, "RENV": 250.0, "PENV": 1012.0, "VALIDT": 12, "DTG": "2025-09-29 12:00", "LATNOW": 20.7, "LONNOW": -125.2, "WINDNOW": 30.0, "DIRNOW": 2.0, "SPDNOW": 1.0, "TECH": "FCST", "ADVNR": 30, "ATCFID": "EP142025", "NAME": "NARDA", "FTECH": "OFCL", "FCST_DTG": "2025-09-29 00:00:00", "RUN_DTG": "2025-09-29 15:35:10", "BASIN": "EP", "STMNR": 14, "CAT_ID": null, "CAT_DESC": null, "MSGID": "WTPZ24 KNHC 290231", "VALIDTIME": "2025-09-29 12:00:00" }, "geometry": { "type": "Point", "coordinates": [ -124.800003, 21.4 ] } },
{ "type": "Feature", "properties": { "ID": 48332, "LAT": 21.6, "LON": -124.5, "VMAX": 25.0, "MSLP": 1011.80975, "RMAX": 62.93414, "FSPD": 0.77166, "FDIR": 360.0, "RENV": 250.0, "PENV": 1012.0, "VALIDT": 24, "DTG": "2025-09-30 00:00", "LATNOW": 20.7, "LONNOW": -125.2, "WINDNOW": 30.0, "DIRNOW": 2.0, "SPDNOW": 1.0, "TECH": "FCST", "ADVNR": 30, "ATCFID": "EP142025", "NAME": "NARDA", "FTECH": "OFCL", "FCST_DTG": "2025-09-29 00:00:00", "RUN_DTG": "2025-09-29 15:35:10", "BASIN": "EP", "STMNR": 14, "CAT_ID": null, "CAT_DESC": null, "MSGID": "WTPZ24 KNHC 290231", "VALIDTIME": "2025-09-30 00:00:00" }, "geometry": { "type": "Point", "coordinates": [ -124.5, 21.6 ] } },
{ "type": "Feature", "properties": { "ID": 48333, "LAT": 21.9, "LON": -124.5, "VMAX": 20.0, "MSLP": 1012.95825, "RMAX": 62.93414, "FSPD": 1.42001, "FDIR": 302.91705, "RENV": 250.0, "PENV": 1012.0, "VALIDT": 36, "DTG": "2025-09-30 12:00", "LATNOW": 20.7, "LONNOW": -125.2, "WINDNOW": 30.0, "DIRNOW": 2.0, "SPDNOW": 1.0, "TECH": "FCST", "ADVNR": 30, "ATCFID": "EP142025", "NAME": "NARDA", "FTECH": "OFCL", "FCST_DTG": "2025-09-29 00:00:00", "RUN_DTG": "2025-09-29 15:35:10", "BASIN": "EP", "STMNR": 14, "CAT_ID": null, "CAT_DESC": null, "MSGID": "WTPZ24 KNHC 290231", "VALIDTIME": "2025-09-30 12:00:00" }, "geometry": { "type": "Point", "coordinates": [ -124.5, 21.9 ] } },
{ "type": "Feature", "properties": { "ID": 48334, "LAT": 22.2, "LON": -125.0, "VMAX": 20.0, "MSLP": 1012.95825, "RMAX": 62.93414, "FSPD": 2.72829, "FDIR": 286.42966, "RENV": 250.0, "PENV": 1012.0, "VALIDT": 48, "DTG": "2025-10-01 00:00", "LATNOW": 20.7, "LONNOW": -125.2, "WINDNOW": 30.0, "DIRNOW": 2.0, "SPDNOW": 1.0, "TECH": "FCST", "ADVNR": 30, "ATCFID": "EP142025", "NAME": "NARDA", "FTECH": "OFCL", "FCST_DTG": "2025-09-29 00:00:00", "RUN_DTG": "2025-09-29 15:35:10", "BASIN": "EP", "STMNR": 14, "CAT_ID": null, "CAT_DESC": null, "MSGID": "WTPZ24 KNHC 290231", "VALIDTIME": "2025-10-01 00:00:00" }, "geometry": { "type": "Point", "coordinates": [ -125.0, 22.200001 ] } },
{ "type": "Feature", "properties": { "ID": 48335, "LAT": 22.5, "LON": -126.1, "VMAX": 20.0, "MSLP": 1012.95825, "RMAX": 62.93414, "FSPD": 2.90905, "FDIR": 296.23834, "RENV": 250.0, "PENV": 1012.0, "VALIDT": 60, "DTG": "2025-10-01 12:00", "LATNOW": 20.7, "LONNOW": -125.2, "WINDNOW": 30.0, "DIRNOW": 2.0, "SPDNOW": 1.0, "TECH": "FCST", "ADVNR": 30, "ATCFID": "EP142025", "NAME": "NARDA", "FTECH": "OFCL", "FCST_DTG": "2025-09-29 00:00:00", "RUN_DTG": "2025-09-29 15:35:10", "BASIN": "EP", "STMNR": 14, "CAT_ID": null, "CAT_DESC": null, "MSGID": "WTPZ24 KNHC 290231", "VALIDTIME": "2025-10-01 12:00:00" }, "geometry": { "type": "Point", "coordinates": [ -126.099998, 22.5 ] } },
{ "type": "Feature", "properties": { "ID": 48336, "LAT": 23.0, "LON": -127.2, "VMAX": 20.0, "MSLP": 1012.95825, "RMAX": 62.93414, "FSPD": 2.90905, "FDIR": 296.23834, "RENV": 250.0, "PENV": 1012.0, "VALIDT": 72, "DTG": "2025-10-02 00:00", "LATNOW": 20.7, "LONNOW": -125.2, "WINDNOW": 30.0, "DIRNOW": 2.0, "SPDNOW": 1.0, "TECH": "FCST", "ADVNR": 30, "ATCFID": "EP142025", "NAME": "NARDA", "FTECH": "OFCL", "FCST_DTG": "2025-09-29 00:00:00", "RUN_DTG": "2025-09-29 15:35:10", "BASIN": "EP", "STMNR": 14, "CAT_ID": null, "CAT_DESC": null, "MSGID": "WTPZ24 KNHC 290231", "VALIDTIME": "2025-10-02 00:00:00" }, "geometry": { "type": "Point", "coordinates": [ -127.199997, 23.0 ] } },
{ "type": "Feature", "properties": { "ID": 48329, "LAT": 20.7, "LON": -125.2, "VMAX": 30.0, "MSLP": 1009.0, "RMAX": 60.0, "FSPD": 2.27145, "FDIR": 25.05176, "RENV": 250.0, "PENV": 1013.0, "VALIDT": 0, "DTG": "2025-09-29 00:00", "LATNOW": 20.7, "LONNOW": -125.2, "WINDNOW": 30.0, "DIRNOW": 2.0, "SPDNOW": 1.0, "TECH": "TRAK", "ADVNR": 30, "ATCFID": "EP142025", "NAME": "NARDA", "FTECH": "OFCL", "FCST_DTG": "2025-09-29 00:00:00", "RUN_DTG": "2025-09-29 15:35:10", "BASIN": "EP", "STMNR": 14, "CAT_ID": null, "CAT_DESC": null, "MSGID": "WTPZ24 KNHC 290231", "VALIDTIME": "2025-09-29 00:00:00" }, "geometry": { "type": "LineString", "coordinates": [ [ -96.0, 12.0 ], [ -96.6, 12.3 ], [ -97.4, 12.6 ], [ -97.5, 13.0 ], [ -97.6, 13.2 ], [ -98.0, 13.3 ], [ -98.3, 13.3 ], [ -99.0, 13.5 ], [ -99.3, 14.4 ], [ -100.1, 15.1 ], [ -101.0, 15.2 ], [ -102.3, 15.6 ], [ -103.3, 16.1 ], [ -104.5, 15.9 ], [ -105.6, 15.7 ], [ -106.8, 15.8 ], [ -107.8, 15.4 ], [ -108.8, 15.3 ], [ -109.9, 15.2 ], [ -111.1, 15.1 ], [ -111.8, 15.1 ], [ -112.7, 15.1 ], [ -114.1, 15.5 ], [ -115.9, 16.0 ], [ -117.3, 16.1 ], [ -118.7, 16.3 ], [ -120.0, 16.3 ], [ -121.3, 16.7 ], [ -122.2, 16.9 ], [ -123.1, 17.2 ], [ -124.2, 17.5 ], [ -124.7, 17.8 ], [ -125.4, 18.1 ], [ -125.8, 18.5 ], [ -125.6, 18.9 ], [ -125.5, 19.4 ], [ -125.5, 20.1 ], [ -125.2, 20.7 ] ] } },
{ "type": "Feature", "properties": { "ID": 48336, "LAT": 23.0, "LON": -127.2, "VMAX": 20.0, "MSLP": 1012.95825, "RMAX": 62.93414, "FSPD": 2.90905, "FDIR": 296.23834, "RENV": 250.0, "PENV": 1012.0, "VALIDT": 72, "DTG": "2025-10-02 00:00", "LATNOW": 20.7, "LONNOW": -125.2, "WINDNOW": 30.0, "DIRNOW": 2.0, "SPDNOW": 1.0, "TECH": "FCST", "ADVNR": 30, "ATCFID": "EP142025", "NAME": "NARDA", "FTECH": "OFCL", "FCST_DTG": "2025-09-29 00:00:00", "RUN_DTG": "2025-09-29 15:35:10", "BASIN": "EP", "STMNR": 14, "CAT_ID": null, "CAT_DESC": null, "MSGID": "WTPZ24 KNHC 290231", "VALIDTIME": "2025-10-02 00:00:00" }, "geometry": { "type": "LineString", "coordinates": [ [ -125.2, 20.7 ], [ -125.1, 20.9 ], [ -124.8, 21.4 ], [ -124.5, 21.6 ], [ -124.5, 21.9 ], [ -125.0, 22.2 ], [ -126.1, 22.5 ], [ -127.2, 23.0 ] ] } }
]
}
