{
"type": "FeatureCollection",
"crs": { "type": "name", "properties": { "name": "urn:ogc:def:crs:OGC:1.3:CRS84" } },
"features": [
{ "type": "Feature", "properties": { "ID": 305100, "LAT": -12.9, "LON": 178.4, "VMAX": 15.0, "MSLP": 1013.8515, "RMAX": 40.0, "FSPD": 5.53893, "FDIR": 95.32916, "RENV": 500.0, "PENV": 1012.0, "VALIDT": 0, "DTG": "2025-02-21 00:00", "LATNOW": -25.7, "LONNOW": -176.6, "WINDNOW": 35.0, "DIRNOW": 10.0, "SPDNOW": 6.0, "TECH": "TRAK", "ADVNR": 8, "ATCFID": "SH192025", "NAME": "RAE", "FTECH": "JTWC", "FCST_DTG": "2025-02-25 18:00:00", "RUN_DTG": "2025-02-26 08:42:15", "BASIN": "SH", "STMNR": 19, "CAT_ID": null, "CAT_DESC": null, "MSGID": "WTPS52 PGTW 252100", "VALIDTIME": "2025-02-21 00:00:00" }, "geometry": { "type": "Point", "coordinates": [ 178.399994, -12.9 ] } },
{ "type": "Feature", "properties": { "ID": 305101, "LAT": -13.0, "LON": 179.5, "VMAX": 15.0, "MSLP": 1013.8515, "RMAX": 40.0, "FSPD": 5.88116, "FDIR": 110.48074, "RENV": 500.0, "PENV": 1012.0, "VALIDT": 0, "DTG": "2025-02-21 06:00", "LATNOW": -25.7, "LONNOW": -176.6, "WINDNOW": 35.0, "DIRNOW": 10.0, "SPDNOW": 6.0, "TECH": "TRAK", "ADVNR": 8, "ATCFID": "SH192025", "NAME": "RAE", "FTECH": "JTWC", "FCST_DTG": "2025-02-25 18:00:00", "RUN_DTG": "2025-02-26 08:42:15", "BASIN": "SH", "STMNR": 19, "CAT_ID": null, "CAT_DESC": null, "MSGID": "WTPS52 PGTW 252100", "VALIDTIME": "2025-02-21 06:00:00" }, "geometry": { "type": "Point", "coordinates": [ 179.5, -13.0 ] } },
{ "type": "Feature", "properties": { "ID": 305102, "LAT": -13.4, "LON": -179.4, "VMAX": 15.0, "MSLP": 1013.8515, "RMAX": 40.0, "FSPD": 3.1728, "FDIR": 108.92224, "RENV": 500.0, "PENV": 1012.0, "VALIDT": 0, "DTG": "2025-02-21 12:00", "LATNOW": -25.7, "LONNOW": -176.6, "WINDNOW": 35.0, "DIRNOW": 10.0, "SPDNOW": 6.0, "TECH": "TRAK", "ADVNR": 8, "ATCFID": "SH192025", "NAME": "RAE", "FTECH": "JTWC", "FCST_DTG": "2025-02-25 18:00:00", "RUN_DTG": "2025-02-26 08:42:15", "BASIN": "SH", "STMNR": 19, "CAT_ID": null, "CAT_DESC": null, "MSGID": "WTPS52 PGTW 252100", "VALIDTIME": "2025-02-21 12:00:00" }, "geometry": { "type": "Point", "coordinates": [ -179.399994, -13.4 ] } },
{ "type": "Feature", "properties": { "ID": 305103, "LAT": -13.6, "LON": -178.8, "VMAX": 20.0, "MSLP": 1012.95825, "RMAX": 45.0, "FSPD": 1.50008, "FDIR": 90.0, "RENV": 500.0, "PENV": 1012.0, "VALIDT": 0, "DTG": "2025-02-21 18:00", "LATNOW": -25.7, "LONNOW": -176.6, "WINDNOW": 35.0, "DIRNOW": 10.0, "SPDNOW": 6.0, "TECH": "TRAK", "ADVNR": 8, "ATCFID": "SH192025", "NAME": "RAE", "FTECH": "JTWC", "FCST_DTG": "2025-02-25 18:00:00", "RUN_DTG": "2025-02-26 08:42:15", "BASIN": "SH", "STMNR": 19, "CAT_ID": null, "CAT_DESC": null, "MSGID": "WTPS52 PGTW 252100", "VALIDTIME": "2025-02-21 18:00:00" }, "geometry": { "type": "Point", "coordinates": [ -178.800003, -13.6 ] } },
{ "type": "Feature", "properties": { "ID": 305104, "LAT": -13.6, "LON": -178.5, "VMAX": 25.0, "MSLP": 1011.80975, "RMAX": 45.0, "FSPD": 2.00005, "FDIR": 90.0, "RENV": 500.0, "PENV": 1012.0, "VALIDT": 0, "DTG": "2025-02-22 00:00", "LATNOW": -25.7, "LONNOW": -176.6, "WINDNOW": 35.0, "DIRNOW": 10.0, "SPDNOW": 6.0, "TECH": "TRAK", "ADVNR": 8, "ATCFID": "SH192025", "NAME": "RAE", "FTECH": "JTWC", "FCST_DTG": "2025-02-25 18:00:00", "RUN_DTG": "2025-02-26 08:42:15", "BASIN": "SH", "STMNR": 19, "CAT_ID": null, "CAT_DESC": null, "MSGID": "WTPS52 PGTW 252100", "VALIDTIME": "2025-02-22 00:00:00" }, "geometry": { "type": "Point", "coordinates": [ -178.5, -13.6 ] } },
{ "type": "Feature", "properties": { "ID": 305105, "LAT": -13.6, "LON": -178.1, "VMAX": 25.0, "MSLP": 1011.80975, "RMAX": 45.0, "FSPD": 2.06563, "FDIR": 75.57867, "RENV": 500.0, "PENV": 1012.0, "VALIDT": 0, "DTG": "2025-02-22 06:00", "LATNOW": -25.7, "LONNOW": -176.6, "WINDNOW": 35.0, "DIRNOW": 10.0, "SPDNOW": 6.0, "TECH": "TRAK", "ADVNR": 8, "ATCFID": "SH192025", "NAME": "RAE", "FTECH": "JTWC", "FCST_DTG": "2025-02-25 18:00:00", "RUN_DTG": "2025-02-26 08:42:15", "BASIN": "SH", "STMNR": 19, "CAT_ID": null, "CAT_DESC": null, "MSGID": "WTPS52 PGTW 252100", "VALIDTIME": "2025-02-22 06:00:00" }, "geometry": { "type": "Point", "coordinates": [ -178.100006, -13.6 ] } },
{ "type": "Feature", "properties": { "ID": 305106, "LAT": -13.5, "LON": -177.7, "VMAX": 35.0, "MSLP": 996.0, "RMAX": 70.0, "FSPD": 4.65683, "FDIR": 173.84586, "RENV": 190.0, "PENV": 1006.0, "VALIDT": 0, "DTG": "2025-02-22 12:00", "LATNOW": -25.7, "LONNOW": -176.6, "WINDNOW": 35.0, "DIRNOW": 10.0, "SPDNOW": 6.0, "TECH": "TRAK", "ADVNR": 8, "ATCFID": "SH192025", "NAME": "RAE", "FTECH": "JTWC", "FCST_DTG": "2025-02-25 18:00:00", "RUN_DTG": "2025-02-26 08:42:15", "BASIN": "SH", "STMNR": 19, "CAT_ID": null, "CAT_DESC": null, "MSGID": "WTPS52 PGTW 252100", "VALIDTIME": "2025-02-22 12:00:00" }, "geometry": { "type": "Point", "coordinates": [ -177.699997, -13.5 ] } },
{ "type": "Feature", "properties": { "ID": 305107, "LAT": -14.4, "LON": -177.6, "VMAX": 35.0, "MSLP": 996.0, "RMAX": 70.0, "FSPD": 4.73978, "FDIR": 250.99725, "RENV": 190.0, "PENV": 1006.0, "VALIDT": 0, "DTG": "2025-02-22 18:00", "LATNOW": -25.7, "LONNOW": -176.6, "WINDNOW": 35.0, "DIRNOW": 10.0, "SPDNOW": 6.0, "TECH": "TRAK", "ADVNR": 8, "ATCFID": "SH192025", "NAME": "RAE", "FTECH": "JTWC", "FCST_DTG": "2025-02-25 18:00:00", "RUN_DTG": "2025-02-26 08:42:15", "BASIN": "SH", "STMNR": 19, "CAT_ID": null, "CAT_DESC": null, "MSGID": "WTPS52 PGTW 252100", "VALIDTIME": "2025-02-22 18:00:00" }, "geometry": { "type": "Point", "coordinates": [ -177.600006, -14.4 ] } },
{ "type": "Feature", "properties": { "ID": 305108, "LAT": -14.7, "LON": -178.5, "VMAX": 45.0, "MSLP": 997.0, "RMAX": 70.0, "FSPD": 3.42781, "FDIR": 205.77902, "RENV": 165.0, "PENV": 1005.0, "VALIDT": 0, "DTG": "2025-02-23 00:00", "LATNOW": -25.7, "LONNOW": -176.6, "WINDNOW": 35.0, "DIRNOW": 10.0, "SPDNOW": 6.0, "TECH": "TRAK", "ADVNR": 8, "ATCFID": "SH192025", "NAME": "RAE", "FTECH": "JTWC", "FCST_DTG": "2025-02-25 18:00:00", "RUN_DTG": "2025-02-26 08:42:15", "BASIN": "SH", "STMNR": 19, "CAT_ID": null, "CAT_DESC": null, "MSGID": "WTPS52 PGTW 252100", "VALIDTIME": "2025-02-23 00:00:00" }, "geometry": { "type": "Point", "coordinates": [ -178.5, -14.7 ] } },
{ "type": "Feature", "properties": { "ID": 305109, "LAT": -15.3, "LON": -178.8, "VMAX": 50.0, "MSLP": 993.0, "RMAX": 35.0, "FSPD": 3.42595, "FDIR": 205.71481, "RENV": 190.0, "PENV": 1005.0, "VALIDT": 0, "DTG": "2025-02-23 06:00", "LATNOW": -25.7, "LONNOW": -176.6, "WINDNOW": 35.0, "DIRNOW": 10.0, "SPDNOW": 6.0, "TECH": "TRAK", "ADVNR": 8, "ATCFID": "SH192025", "NAME": "RAE", "FTECH": "JTWC", "FCST_DTG": "2025-02-25 18:00:00", "RUN_DTG": "2025-02-26 08:42:15", "BASIN": "SH", "STMNR": 19, "CAT_ID": null, "CAT_DESC": null, "MSGID": "WTPS52 PGTW 252100", "VALIDTIME": "2025-02-23 06:00:00" }, "geometry": { "type": "Point", "coordinates": [ -178.800003, -15.3 ] } },
{ "type": "Feature", "properties": { "ID": 305110, "LAT": -15.9, "LON": -179.1, "VMAX": 55.0, "MSLP": 989.0, "RMAX": 35.0, "FSPD": 3.63483, "FDIR": 172.19012, "RENV": 145.0, "PENV": 1004.0, "VALIDT": 0, "DTG": "2025-02-23 12:00", "LATNOW": -25.7, "LONNOW": -176.6, "WINDNOW": 35.0, "DIRNOW": 10.0, "SPDNOW": 6.0, "TECH": "TRAK", "ADVNR": 8, "ATCFID": "SH192025", "NAME": "RAE", "FTECH": "JTWC", "FCST_DTG": "2025-02-25 18:00:00", "RUN_DTG": "2025-02-26 08:42:15", "BASIN": "SH", "STMNR": 19, "CAT_ID": null, "CAT_DESC": null, "MSGID": "WTPS52 PGTW 252100", "VALIDTIME": "2025-02-23 12:00:00" }, "geometry": { "type": "Point", "coordinates": [ -179.100006, -15.9 ] } },
{ "type": "Feature", "properties": { "ID": 305111, "LAT": -16.6, "LON": -179.0, "VMAX": 60.0, "MSLP": 983.0, "RMAX": 35.0, "FSPD": 6.97053, "FDIR": 196.37526, "RENV": 175.0, "PENV": 1006.0, "VALIDT": 0, "DTG": "2025-02-23 18:00", "LATNOW": -25.7, "LONNOW": -176.6, "WINDNOW": 35.0, "DIRNOW": 10.0, "SPDNOW": 6.0, "TECH": "TRAK", "ADVNR": 8, "ATCFID": "SH192025", "NAME": "RAE", "FTECH": "JTWC", "FCST_DTG": "2025-02-25 18:00:00", "RUN_DTG": "2025-02-26 08:42:15", "BASIN": "SH", "STMNR": 19, "CAT_ID": null, "CAT_DESC": null, "MSGID": "WTPS52 PGTW 252100", "VALIDTIME": "2025-02-23 18:00:00" }, "geometry": { "type": "Point", "coordinates": [ -179.0, -16.6 ] } },
{ "type": "Feature", "properties": { "ID": 305112, "LAT": -17.9, "LON": -179.4, "VMAX": 60.0, "MSLP": 988.0, "RMAX": 35.0, "FSPD": 6.19258, "FDIR": 175.48184, "RENV": 190.0, "PENV": 1007.0, "VALIDT": 0, "DTG": "2025-02-24 00:00", "LATNOW": -25.7, "LONNOW": -176.6, "WINDNOW": 35.0, "DIRNOW": 10.0, "SPDNOW": 6.0, "TECH": "TRAK", "ADVNR": 8, "ATCFID": "SH192025", "NAME": "RAE", "FTECH": "JTWC", "FCST_DTG": "2025-02-25 18:00:00", "RUN_DTG": "2025-02-26 08:42:15", "BASIN": "SH", "STMNR": 19, "CAT_ID": null, "CAT_DESC": null, "MSGID": "WTPS52 PGTW 252100", "VALIDTIME": "2025-02-24 00:00:00" }, "geometry": { "type": "Point", "coordinates": [ -179.399994, -17.9 ] } },
{ "type": "Feature", "properties": { "ID": 305113, "LAT": -19.1, "LON": -179.3, "VMAX": 65.0, "MSLP": 988.0, "RMAX": 35.0, "FSPD": 6.24886, "FDIR": 171.08243, "RENV": 170.0, "PENV": 1007.0, "VALIDT": 0, "DTG": "2025-02-24 06:00", "LATNOW": -25.7, "LONNOW": -176.6, "WINDNOW": 35.0, "DIRNOW": 10.0, "SPDNOW": 6.0, "TECH": "TRAK", "ADVNR": 8, "ATCFID": "SH192025", "NAME": "RAE", "FTECH": "JTWC", "FCST_DTG": "2025-02-25 18:00:00", "RUN_DTG": "2025-02-26 08:42:15", "BASIN": "SH", "STMNR": 19, "CAT_ID": null, "CAT_DESC": null, "MSGID": "WTPS52 PGTW 252100", "VALIDTIME": "2025-02-24 06:00:00" }, "geometry": { "type": "Point", "coordinates": [ -179.300003, -19.1 ] } },
{ "type": "Feature", "properties": { "ID": 305114, "LAT": -20.3, "LON": -179.1, "VMAX": 75.0, "MSLP": 986.2879, "RMAX": 32.18022, "FSPD": 7.03052, "FDIR": 151.41125, "RENV": 482.70328, "PENV": 1012.0, "VALIDT": 0, "DTG": "2025-02-24 12:00", "LATNOW": -25.7, "LONNOW": -176.6, "WINDNOW": 35.0, "DIRNOW": 10.0, "SPDNOW": 6.0, "TECH": "TRAK", "ADVNR": 8, "ATCFID": "SH192025", "NAME": "RAE", "FTECH": "JTWC", "FCST_DTG": "2025-02-25 18:00:00", "RUN_DTG": "2025-02-26 08:42:15", "BASIN": "SH", "STMNR": 19, "CAT_ID": null, "CAT_DESC": null, "MSGID": "WTPS52 PGTW 252100", "VALIDTIME": "2025-02-24 12:00:00" }, "geometry": { "type": "Point", "coordinates": [ -179.100006, -20.299999 ] } },
{ "type": "Feature", "properties": { "ID": 305115, "LAT": -21.5, "LON": -178.4, "VMAX": 90.0, "MSLP": 988.0, "RMAX": 35.0, "FSPD": 7.47334, "FDIR": 153.49356, "RENV": 190.0, "PENV": 1007.0, "VALIDT": 0, "DTG": "2025-02-24 18:00", "LATNOW": -25.7, "LONNOW": -176.6, "WINDNOW": 35.0, "DIRNOW": 10.0, "SPDNOW": 6.0, "TECH": "TRAK", "ADVNR": 8, "ATCFID": "SH192025", "NAME": "RAE", "FTECH": "JTWC", "FCST_DTG": "2025-02-25 18:00:00", "RUN_DTG": "2025-02-26 08:42:15", "BASIN": "SH", "STMNR": 19, "CAT_ID": null, "CAT_DESC": null, "MSGID": "WTPS52 PGTW 252100", "VALIDTIME": "2025-02-24 18:00:00" }, "geometry": { "type": "Point", "coordinates": [ -178.399994, -21.5 ] } },
{ "type": "Feature", "properties": { "ID": 305116, "LAT": -22.8, "LON": -177.7, "VMAX": 85.0, "MSLP": 961.0, "RMAX": 6.0, "FSPD": 5.58992, "FDIR": 222.58723, "RENV": 105.0, "PENV": 1004.0, "VALIDT": 0, "DTG": "2025-02-25 00:00", "LATNOW": -25.7, "LONNOW": -176.6, "WINDNOW": 35.0, "DIRNOW": 10.0, "SPDNOW": 6.0, "TECH": "TRAK", "ADVNR": 8, "ATCFID": "SH192025", "NAME": "RAE", "FTECH": "JTWC", "FCST_DTG": "2025-02-25 18:00:00", "RUN_DTG": "2025-02-26 08:42:15", "BASIN": "SH", "STMNR": 19, "CAT_ID": null, "CAT_DESC": null, "MSGID": "WTPS52 PGTW 252100", "VALIDTIME": "2025-02-25 00:00:00" }, "geometry": { "type": "Point", "coordinates": [ -177.699997, -22.799999 ] } },
{ "type": "Feature", "properties": { "ID": 305117, "LAT": -23.6, "LON": -178.5, "VMAX": 60.0, "MSLP": 968.0, "RMAX": 5.0, "FSPD": 5.96336, "FDIR": 140.93277, "RENV": 155.0, "PENV": 1009.0, "VALIDT": 0, "DTG": "2025-02-25 06:00", "LATNOW": -25.7, "LONNOW": -176.6, "WINDNOW": 35.0, "DIRNOW": 10.0, "SPDNOW": 6.0, "TECH": "TRAK", "ADVNR": 8, "ATCFID": "SH192025", "NAME": "RAE", "FTECH": "JTWC", "FCST_DTG": "2025-02-25 18:00:00", "RUN_DTG": "2025-02-26 08:42:15", "BASIN": "SH", "STMNR": 19, "CAT_ID": null, "CAT_DESC": null, "MSGID": "WTPS52 PGTW 252100", "VALIDTIME": "2025-02-25 06:00:00" }, "geometry": { "type": "Point", "coordinates": [ -178.5, -23.6 ] } },
{ "type": "Feature", "properties": { "ID": 305118, "LAT": -24.5, "LON": -177.7, "VMAX": 50.0, "MSLP": 988.0, "RMAX": 20.0, "FSPD": 8.02311, "FDIR": 140.30396, "RENV": 155.0, "PENV": 1009.0, "VALIDT": 0, "DTG": "2025-02-25 12:00", "LATNOW": -25.7, "LONNOW": -176.6, "WINDNOW": 35.0, "DIRNOW": 10.0, "SPDNOW": 6.0, "TECH": "TRAK", "ADVNR": 8, "ATCFID": "SH192025", "NAME": "RAE", "FTECH": "JTWC", "FCST_DTG": "2025-02-25 18:00:00", "RUN_DTG": "2025-02-26 08:42:15", "BASIN": "SH", "STMNR": 19, "CAT_ID": null, "CAT_DESC": null, "MSGID": "WTPS52 PGTW 252100", "VALIDTIME": "2025-02-25 12:00:00" }, "geometry": { "type": "Point", "coordinates": [ -177.699997, -24.5 ] } },
{ "type": "Feature", "properties": { "ID": 305119, "LAT": -25.7, "LON": -176.6, "VMAX": 35.0, "MSLP": 1008.74713, "RMAX": 42.69135, "FSPD": 10.07005, "FDIR": 122.43945, "RENV": 500.0, "PENV": 1012.0, "VALIDT": 0, "DTG": "2025-02-25 18:00", "LATNOW": -25.7, "LONNOW": -176.6, "WINDNOW": 35.0, "DIRNOW": 10.0, "SPDNOW": 6.0, "TECH": "TRAK", "ADVNR": 8, "ATCFID": "SH192025", "NAME": "RAE", "FTECH": "JTWC", "FCST_DTG": "2025-02-25 18:00:00", "RUN_DTG": "2025-02-26 08:42:15", "BASIN": "SH", "STMNR": 19, "CAT_ID": null, "CAT_DESC": null, "MSGID": "WTPS52 PGTW 252100", "VALIDTIME": "2025-02-25 18:00:00" }, "geometry": { "type": "Point", "coordinates": [ -176.600006, -25.700001 ] } },
{ "type": "Feature", "properties": { "ID": 305120, "LAT": -27.8, "LON": -172.9, "VMAX": 35.0, "MSLP": 1008.74713, "RMAX": 42.69135, "FSPD": 10.07005, "FDIR": 122.43945, "RENV": 250.0, "PENV": 1012.0, "VALIDT": 12, "DTG": "2025-02-26 06:00", "LATNOW": -25.7, "LONNOW": -176.6, "WINDNOW": 35.0, "DIRNOW": 10.0, "SPDNOW": 6.0, "TECH": "FCST", "ADVNR": 8, "ATCFID": "SH192025", "NAME": "RAE", "FTECH": "JTWC", "FCST_DTG": "2025-02-25 18:00:00", "RUN_DTG": "2025-02-26 08:42:15", "BASIN": "SH", "STMNR": 19, "CAT_ID": null, "CAT_DESC": null, "MSGID": "WTPS52 PGTW 252100", "VALIDTIME": "2025-02-26 06:00:00" }, "geometry": { "type": "Point", "coordinates": [ -172.899994, -27.799999 ] } },
{ "type": "Feature", "properties": { "ID": 305119, "LAT": -25.7, "LON": -176.6, "VMAX": 35.0, "MSLP": 1008.74713, "RMAX": 42.69135, "FSPD": 10.07005, "FDIR": 122.43945, "RENV": 500.0, "PENV": 1012.0, "VALIDT": 0, "DTG": "2025-02-25 18:00", "LATNOW": -25.7, "LONNOW": -176.6, "WINDNOW": 35.0, "DIRNOW": 10.0, "SPDNOW": 6.0, "TECH": "TRAK", "ADVNR": 8, "ATCFID": "SH192025", "NAME": "RAE", "FTECH": "JTWC", "FCST_DTG": "2025-02-25 18:00:00", "RUN_DTG": "2025-02-26 08:42:15", "BASIN": "SH", "STMNR": 19, "CAT_ID": null, "CAT_DESC": null, "MSGID": "WTPS52 PGTW 252100", "VALIDTIME": "2025-02-25 18:00:00" }, "geometry": { "type": "LineString", "coordinates": [ [ 178.4, -12.9 ], [ 179.5, -13.0 ], [ -179.4, -13.4 ], [ -178.8, -13.6 ], [ -178.5, -13.6 ], [ -178.1, -13.6 ], [ -177.7, -13.5 ], [ -177.6, -14.4 ], [ -178.5, -14.7 ], [ -178.8, -15.3 ], [ -179.1, -15.9 ], [ -179.0, -16.6 ], [ -179.4, -17.9 ], [ -179.3, -19.1 ], [ -179.1, -20.3 ], [ -178.4, -21.5 ], [ -177.7, -22.8 ], [ -178.5, -23.6 ], [ -177.7, -24.5 ], [ -176.6, -25.7 ] ] } },
{ "type": "Feature", "properties": { "ID": 305120, "LAT": -27.8, "LON": -172.9, "VMAX": 35.0, "MSLP": 1008.74713, "RMAX": 42.69135, "FSPD": 10.07005, "FDIR": 122.43945, "RENV": 250.0, "PENV": 1012.0, "VALIDT": 12, "DTG": "2025-02-26 06:00", "LATNOW": -25.7, "LONNOW": -176.6, "WINDNOW": 35.0, "DIRNOW": 10.0, "SPDNOW": 6.0, "TECH": "FCST", "ADVNR": 8, "ATCFID": "SH192025", "NAME": "RAE", "FTECH": "JTWC", "FCST_DTG": "2025-02-25 18:00:00", "RUN_DTG": "2025-02-26 08:42:15", "BASIN": "SH", "STMNR": 19, "CAT_ID": null, "CAT_DESC": null, "MSGID": "WTPS52 PGTW 252100", "VALIDTIME": "2025-02-26 06:00:00" }, "geometry": { "type": "LineString", "coordinates": [ [ -176.6, -25.7 ], [ -172.9, -27.8 ] ] } }
]
}
