{
"type": "FeatureCollection",
"crs": { "type": "name", "properties": { "name": "urn:ogc:def:crs:OGC:1.3:CRS84" } },
"features": [
{ "type": "Feature", "properties": { "ID": 80900, "LAT": 4.3, "LON": 100.5, "VMAX": 25.0, "MSLP": 1011.80975, "RMAX": 45.0, "FSPD": 1.45291, "FDIR": 315.08496, "RENV": 500.0, "PENV": 1012.0, "VALIDT": 0, "DTG": "2025-11-23 18:00", "LATNOW": 3.6, "LONNOW": 100.4, "WINDNOW": 25.0, "DIRNOW": 2.0, "SPDNOW": 0.0, "TECH": "TRAK", "ADVNR": 7, "ATCFID": "IO042025", "NAME": "SENYAR", "FTECH": "JTWC", "FCST_DTG": "2025-11-27 00:00:00", "RUN_DTG": "2025-11-27 14:20:59", "BASIN": "IO", "STMNR": 4, "CAT_ID": null, "CAT_DESC": null, "MSGID": "WTPN51 PGTW 270300", "VALIDTIME": "2025-11-23 18:00:00" }, "geometry": { "type": "Point", "coordinates": [ 100.5, 4.3 ] } },
{ "type": "Feature", "properties": { "ID": 80901, "LAT": 4.5, "LON": 100.3, "VMAX": 25.0, "MSLP": 1011.80975, "RMAX": 45.0, "FSPD": 1.45274, "FDIR": 315.09174, "RENV": 500.0, "PENV": 1012.0, "VALIDT": 0, "DTG": "2025-11-24 00:00", "LATNOW": 3.6, "LONNOW": 100.4, "WINDNOW": 25.0, "DIRNOW": 2.0, "SPDNOW": 0.0, "TECH": "TRAK", "ADVNR": 7, "ATCFID": "IO042025", "NAME": "SENYAR", "FTECH": "JTWC", "FCST_DTG": "2025-11-27 00:00:00", "RUN_DTG": "2025-11-27 14:20:59", "BASIN": "IO", "STMNR": 4, "CAT_ID": null, "CAT_DESC": null, "MSGID": "WTPN51 PGTW 270300", "VALIDTIME": "2025-11-24 00:00:00" }, "geometry": { "type": "Point", "coordinates": [ 100.300003, 4.5 ] } },
{ "type": "Feature", "properties": { "ID": 80902, "LAT": 4.7, "LON": 100.1, "VMAX": 25.0, "MSLP": 1011.80975, "RMAX": 45.0, "FSPD": 0.51444, "FDIR": 179.99997, "RENV": 500.0, "PENV": 1012.0, "VALIDT": 0, "DTG": "2025-11-24 06:00", "LATNOW": 3.6, "LONNOW": 100.4, "WINDNOW": 25.0, "DIRNOW": 2.0, "SPDNOW": 0.0, "TECH": "TRAK", "ADVNR": 7, "ATCFID": "IO042025", "NAME": "SENYAR", "FTECH": "JTWC", "FCST_DTG": "2025-11-27 00:00:00", "RUN_DTG": "2025-11-27 14:20:59", "BASIN": "IO", "STMNR": 4, "CAT_ID": null, "CAT_DESC": null, "MSGID": "WTPN51 PGTW 270300", "VALIDTIME": "2025-11-24 06:00:00" }, "geometry": { "type": "Point", "coordinates": [ 100.099998, 4.7 ] } },
{ "type": "Feature", "properties": { "ID": 80903, "LAT": 4.6, "LON": 100.1, "VMAX": 25.0, "MSLP": 1011.80975, "RMAX": 45.0, "FSPD": 0.51444, "FDIR": 179.99997, "RENV": 500.0, "PENV": 1012.0, "VALIDT": 0, "DTG": "2025-11-24 12:00", "LATNOW": 3.6, "LONNOW": 100.4, "WINDNOW": 25.0, "DIRNOW": 2.0, "SPDNOW": 0.0, "TECH": "TRAK", "ADVNR": 7, "ATCFID": "IO042025", "NAME": "SENYAR", "FTECH": "JTWC", "FCST_DTG": "2025-11-27 00:00:00", "RUN_DTG": "2025-11-27 14:20:59", "BASIN": "IO", "STMNR": 4, "CAT_ID": null, "CAT_DESC": null, "MSGID": "WTPN51 PGTW 270300", "VALIDTIME": "2025-11-24 12:00:00" }, "geometry": { "type": "Point", "coordinates": [ 100.099998, 4.6 ] } },
{ "type": "Feature", "properties": { "ID": 80904, "LAT": 4.5, "LON": 100.1, "VMAX": 30.0, "MSLP": 1010.40607, "RMAX": 44.21983, "FSPD": 1.0257, "FDIR": 269.99997, "RENV": 500.0, "PENV": 1012.0, "VALIDT": 0, "DTG": "2025-11-24 18:00", "LATNOW": 3.6, "LONNOW": 100.4, "WINDNOW": 25.0, "DIRNOW": 2.0, "SPDNOW": 0.0, "TECH": "TRAK", "ADVNR": 7, "ATCFID": "IO042025", "NAME": "SENYAR", "FTECH": "JTWC", "FCST_DTG": "2025-11-27 00:00:00", "RUN_DTG": "2025-11-27 14:20:59", "BASIN": "IO", "STMNR": 4, "CAT_ID": null, "CAT_DESC": null, "MSGID": "WTPN51 PGTW 270300", "VALIDTIME": "2025-11-24 18:00:00" }, "geometry": { "type": "Point", "coordinates": [ 100.099998, 4.5 ] } },
{ "type": "Feature", "properties": { "ID": 80905, "LAT": 4.5, "LON": 99.9, "VMAX": 30.0, "MSLP": 1010.40607, "RMAX": 44.21983, "FSPD": 2.61521, "FDIR": 281.34473, "RENV": 500.0, "PENV": 1012.0, "VALIDT": 0, "DTG": "2025-11-25 00:00", "LATNOW": 3.6, "LONNOW": 100.4, "WINDNOW": 25.0, "DIRNOW": 2.0, "SPDNOW": 0.0, "TECH": "TRAK", "ADVNR": 7, "ATCFID": "IO042025", "NAME": "SENYAR", "FTECH": "JTWC", "FCST_DTG": "2025-11-27 00:00:00", "RUN_DTG": "2025-11-27 14:20:59", "BASIN": "IO", "STMNR": 4, "CAT_ID": null, "CAT_DESC": null, "MSGID": "WTPN51 PGTW 270300", "VALIDTIME": "2025-11-25 00:00:00" }, "geometry": { "type": "Point", "coordinates": [ 99.900002, 4.5 ] } },
{ "type": "Feature", "properties": { "ID": 80906, "LAT": 4.6, "LON": 99.4, "VMAX": 30.0, "MSLP": 1010.40607, "RMAX": 44.21983, "FSPD": 2.11455, "FDIR": 284.0807, "RENV": 500.0, "PENV": 1012.0, "VALIDT": 0, "DTG": "2025-11-25 06:00", "LATNOW": 3.6, "LONNOW": 100.4, "WINDNOW": 25.0, "DIRNOW": 2.0, "SPDNOW": 0.0, "TECH": "TRAK", "ADVNR": 7, "ATCFID": "IO042025", "NAME": "SENYAR", "FTECH": "JTWC", "FCST_DTG": "2025-11-27 00:00:00", "RUN_DTG": "2025-11-27 14:20:59", "BASIN": "IO", "STMNR": 4, "CAT_ID": null, "CAT_DESC": null, "MSGID": "WTPN51 PGTW 270300", "VALIDTIME": "2025-11-25 06:00:00" }, "geometry": { "type": "Point", "coordinates": [ 99.400002, 4.6 ] } },
{ "type": "Feature", "properties": { "ID": 80907, "LAT": 4.7, "LON": 99.0, "VMAX": 35.0, "MSLP": 999.0, "RMAX": 25.0, "FSPD": 3.07628, "FDIR": 269.99997, "RENV": 80.0, "PENV": 1006.0, "VALIDT": 0, "DTG": "2025-11-25 12:00", "LATNOW": 3.6, "LONNOW": 100.4, "WINDNOW": 25.0, "DIRNOW": 2.0, "SPDNOW": 0.0, "TECH": "TRAK", "ADVNR": 7, "ATCFID": "IO042025", "NAME": "SENYAR", "FTECH": "JTWC", "FCST_DTG": "2025-11-27 00:00:00", "RUN_DTG": "2025-11-27 14:20:59", "BASIN": "IO", "STMNR": 4, "CAT_ID": null, "CAT_DESC": null, "MSGID": "WTPN51 PGTW 270300", "VALIDTIME": "2025-11-25 12:00:00" }, "geometry": { "type": "Point", "coordinates": [ 99.0, 4.7 ] } },
{ "type": "Feature", "properties": { "ID": 80908, "LAT": 4.7, "LON": 98.4, "VMAX": 45.0, "MSLP": 999.0, "RMAX": 25.0, "FSPD": 2.76263, "FDIR": 248.13435, "RENV": 80.0, "PENV": 1006.0, "VALIDT": 0, "DTG": "2025-11-25 18:00", "LATNOW": 3.6, "LONNOW": 100.4, "WINDNOW": 25.0, "DIRNOW": 2.0, "SPDNOW": 0.0, "TECH": "TRAK", "ADVNR": 7, "ATCFID": "IO042025", "NAME": "SENYAR", "FTECH": "JTWC", "FCST_DTG": "2025-11-27 00:00:00", "RUN_DTG": "2025-11-27 14:20:59", "BASIN": "IO", "STMNR": 4, "CAT_ID": null, "CAT_DESC": null, "MSGID": "WTPN51 PGTW 270300", "VALIDTIME": "2025-11-25 18:00:00" }, "geometry": { "type": "Point", "coordinates": [ 98.400002, 4.7 ] } },
{ "type": "Feature", "properties": { "ID": 80909, "LAT": 4.52, "LON": 97.95, "VMAX": 45.0, "MSLP": 999.0, "RMAX": 25.0, "FSPD": 2.76312, "FDIR": 248.13844, "RENV": 80.0, "PENV": 1006.0, "VALIDT": 0, "DTG": "2025-11-25 23:00", "LATNOW": 3.6, "LONNOW": 100.4, "WINDNOW": 25.0, "DIRNOW": 2.0, "SPDNOW": 0.0, "TECH": "TRAK", "ADVNR": 7, "ATCFID": "IO042025", "NAME": "SENYAR", "FTECH": "JTWC", "FCST_DTG": "2025-11-27 00:00:00", "RUN_DTG": "2025-11-27 14:20:59", "BASIN": "IO", "STMNR": 4, "CAT_ID": null, "CAT_DESC": null, "MSGID": "WTPN51 PGTW 270300", "VALIDTIME": "2025-11-25 23:00:00" }, "geometry": { "type": "Point", "coordinates": [ 97.950005, 4.52 ] } },
{ "type": "Feature", "properties": { "ID": 80910, "LAT": 4.5, "LON": 97.9, "VMAX": 45.0, "MSLP": 996.0, "RMAX": 25.0, "FSPD": 3.44914, "FDIR": 153.49683, "RENV": 125.0, "PENV": 1007.0, "VALIDT": 0, "DTG": "2025-11-26 00:00", "LATNOW": 3.6, "LONNOW": 100.4, "WINDNOW": 25.0, "DIRNOW": 2.0, "SPDNOW": 0.0, "TECH": "TRAK", "ADVNR": 7, "ATCFID": "IO042025", "NAME": "SENYAR", "FTECH": "JTWC", "FCST_DTG": "2025-11-27 00:00:00", "RUN_DTG": "2025-11-27 14:20:59", "BASIN": "IO", "STMNR": 4, "CAT_ID": null, "CAT_DESC": null, "MSGID": "WTPN51 PGTW 270300", "VALIDTIME": "2025-11-26 00:00:00" }, "geometry": { "type": "Point", "coordinates": [ 97.900002, 4.5 ] } },
{ "type": "Feature", "properties": { "ID": 80911, "LAT": 3.9, "LON": 98.2, "VMAX": 35.0, "MSLP": 997.0, "RMAX": 25.0, "FSPD": 2.29663, "FDIR": 116.61539, "RENV": 160.0, "PENV": 1008.0, "VALIDT": 0, "DTG": "2025-11-26 06:00", "LATNOW": 3.6, "LONNOW": 100.4, "WINDNOW": 25.0, "DIRNOW": 2.0, "SPDNOW": 0.0, "TECH": "TRAK", "ADVNR": 7, "ATCFID": "IO042025", "NAME": "SENYAR", "FTECH": "JTWC", "FCST_DTG": "2025-11-27 00:00:00", "RUN_DTG": "2025-11-27 14:20:59", "BASIN": "IO", "STMNR": 4, "CAT_ID": null, "CAT_DESC": null, "MSGID": "WTPN51 PGTW 270300", "VALIDTIME": "2025-11-26 06:00:00" }, "geometry": { "type": "Point", "coordinates": [ 98.199997, 3.9 ] } },
{ "type": "Feature", "properties": { "ID": 80912, "LAT": 3.7, "LON": 98.6, "VMAX": 35.0, "MSLP": 999.0, "RMAX": 25.0, "FSPD": 6.69402, "FDIR": 94.40756, "RENV": 110.0, "PENV": 1006.0, "VALIDT": 0, "DTG": "2025-11-26 12:00", "LATNOW": 3.6, "LONNOW": 100.4, "WINDNOW": 25.0, "DIRNOW": 2.0, "SPDNOW": 0.0, "TECH": "TRAK", "ADVNR": 7, "ATCFID": "IO042025", "NAME": "SENYAR", "FTECH": "JTWC", "FCST_DTG": "2025-11-27 00:00:00", "RUN_DTG": "2025-11-27 14:20:59", "BASIN": "IO", "STMNR": 4, "CAT_ID": null, "CAT_DESC": null, "MSGID": "WTPN51 PGTW 270300", "VALIDTIME": "2025-11-26 12:00:00" }, "geometry": { "type": "Point", "coordinates": [ 98.599998, 3.7 ] } },
{ "type": "Feature", "properties": { "ID": 80913, "LAT": 3.6, "LON": 99.9, "VMAX": 30.0, "MSLP": 1003.0, "RMAX": 25.0, "FSPD": 2.56715, "FDIR": 90.0, "RENV": 100.0, "PENV": 1008.0, "VALIDT": 0, "DTG": "2025-11-26 18:00", "LATNOW": 3.6, "LONNOW": 100.4, "WINDNOW": 25.0, "DIRNOW": 2.0, "SPDNOW": 0.0, "TECH": "TRAK", "ADVNR": 7, "ATCFID": "IO042025", "NAME": "SENYAR", "FTECH": "JTWC", "FCST_DTG": "2025-11-27 00:00:00", "RUN_DTG": "2025-11-27 14:20:59", "BASIN": "IO", "STMNR": 4, "CAT_ID": null, "CAT_DESC": null, "MSGID": "WTPN51 PGTW 270300", "VALIDTIME": "2025-11-26 18:00:00" }, "geometry": { "type": "Point", "coordinates": [ 99.900002, 3.6 ] } },
{ "type": "Feature", "properties": { "ID": 80914, "LAT": 3.6, "LON": 100.4, "VMAX": 25.0, "MSLP": 1003.0, "RMAX": 25.0, "FSPD": 2.06964, "FDIR": 82.8606, "RENV": 100.0, "PENV": 1008.0, "VALIDT": 0, "DTG": "2025-11-27 00:00", "LATNOW": 3.6, "LONNOW": 100.4, "WINDNOW": 25.0, "DIRNOW": 2.0, "SPDNOW": 0.0, "TECH": "TRAK", "ADVNR": 7, "ATCFID": "IO042025", "NAME": "SENYAR", "FTECH": "JTWC", "FCST_DTG": "2025-11-27 00:00:00", "RUN_DTG": "2025-11-27 14:20:59", "BASIN": "IO", "STMNR": 4, "CAT_ID": null, "CAT_DESC": null, "MSGID": "WTPN51 PGTW 270300", "VALIDTIME": "2025-11-27 00:00:00" }, "geometry": { "type": "Point", "coordinates": [ 100.400002, 3.6 ] } },
{ "type": "Feature", "properties": { "ID": 80915, "LAT": 3.7, "LON": 101.2, "VMAX": 25.0, "MSLP": 1011.80975, "RMAX": 28.86921, "FSPD": 2.06964, "FDIR": 82.8606, "RENV": 250.0, "PENV": 1012.0, "VALIDT": 12, "DTG": "2025-11-27 12:00", "LATNOW": 3.6, "LONNOW": 100.4, "WINDNOW": 25.0, "DIRNOW": 2.0, "SPDNOW": 0.0, "TECH": "FCST", "ADVNR": 7, "ATCFID": "IO042025", "NAME": "SENYAR", "FTECH": "JTWC", "FCST_DTG": "2025-11-27 00:00:00", "RUN_DTG": "2025-11-27 14:20:59", "BASIN": "IO", "STMNR": 4, "CAT_ID": null, "CAT_DESC": null, "MSGID": "WTPN51 PGTW 270300", "VALIDTIME": "2025-11-27 12:00:00" }, "geometry": { "type": "Point", "coordinates": [ 101.199997, 3.7 ] } },
{ "type": "Feature", "properties": { "ID": 80914, "LAT": 3.6, "LON": 100.4, "VMAX": 25.0, "MSLP": 1003.0, "RMAX": 25.0, "FSPD": 2.06964, "FDIR": 82.8606, "RENV": 100.0, "PENV": 1008.0, "VALIDT": 0, "DTG": "2025-11-27 00:00", "LATNOW": 3.6, "LONNOW": 100.4, "WINDNOW": 25.0, "DIRNOW": 2.0, "SPDNOW": 0.0, "TECH": "TRAK", "ADVNR": 7, "ATCFID": "IO042025", "NAME": "SENYAR", "FTECH": "JTWC", "FCST_DTG": "2025-11-27 00:00:00", "RUN_DTG": "2025-11-27 14:20:59", "BASIN": "IO", "STMNR": 4, "CAT_ID": null, "CAT_DESC": null, "MSGID": "WTPN51 PGTW 270300", "VALIDTIME": "2025-11-27 00:00:00" }, "geometry": { "type": "LineString", "coordinates": [ [ 100.5, 4.3 ], [ 100.3, 4.5 ], [ 100.1, 4.7 ], [ 100.1, 4.6 ], [ 100.1, 4.5 ], [ 99.9, 4.5 ], [ 99.4, 4.6 ], [ 99.0, 4.7 ], [ 98.4, 4.7 ], [ 97.95, 4.52 ], [ 97.9, 4.5 ], [ 98.2, 3.9 ], [ 98.6, 3.7 ], [ 99.9, 3.6 ], [ 100.4, 3.6 ] ] } },
{ "type": "Feature", "properties": { "ID": 80915, "LAT": 3.7, "LON": 101.2, "VMAX": 25.0, "MSLP": 1011.80975, "RMAX": 28.86921, "FSPD": 2.06964, "FDIR": 82.8606, "RENV": 250.0, "PENV": 1012.0, "VALIDT": 12, "DTG": "2025-11-27 12:00", "LATNOW": 3.6, "LONNOW": 100.4, "WINDNOW": 25.0, "DIRNOW": 2.0, "SPDNOW": 0.0, "TECH": "FCST", "ADVNR": 7, "ATCFID": "IO042025", "NAME": "SENYAR", "FTECH": "JTWC", "FCST_DTG": "2025-11-27 00:00:00", "RUN_DTG": "2025-11-27 14:20:59", "BASIN": "IO", "STMNR": 4, "CAT_ID": null, "CAT_DESC": null, "MSGID": "WTPN51 PGTW 270300", "VALIDTIME": "2025-11-27 12:00:00" }, "geometry": { "type": "LineString", "coordinates": [ [ 100.4, 3.6 ], [ 101.2, 3.7 ] ] } }
]
}
