{
"type": "FeatureCollection",
"crs": { "type": "name", "properties": { "name": "urn:ogc:def:crs:OGC:1.3:CRS84" } },
"features": [
{ "type": "Feature", "properties": { "ID": 37260, "LAT": 12.2, "LON": -101.0, "VMAX": 30.0, "MSLP": 1009.0, "RMAX": 120.0, "FSPD": 10.06618, "FDIR": 311.63483, "RENV": 180.0, "PENV": 1010.0, "VALIDT": 0, "DTG": "2026-07-13 12:00", "LATNOW": 25.7, "LONNOW": -127.1, "WINDNOW": 40.0, "DIRNOW": 7.0, "SPDNOW": 2.0, "TECH": "TRAK", "ADVNR": 24, "ATCFID": "EP052026", "NAME": "ELIDA", "FTECH": "OFCL", "FCST_DTG": "2026-07-20 12:00:00", "RUN_DTG": "2026-07-21 06:26:42", "BASIN": "EP", "STMNR": 5, "CAT_ID": null, "CAT_DESC": null, "MSGID": "WTPZ25 KNHC 201434", "VALIDTIME": "2026-07-13 12:00:00" }, "geometry": { "type": "Point", "coordinates": [ -101.0, 12.2 ] } },
{ "type": "Feature", "properties": { "ID": 37261, "LAT": 13.5, "LON": -102.5, "VMAX": 30.0, "MSLP": 1009.0, "RMAX": 120.0, "FSPD": 5.87256, "FDIR": 301.70917, "RENV": 180.0, "PENV": 1010.0, "VALIDT": 0, "DTG": "2026-07-13 18:00", "LATNOW": 25.7, "LONNOW": -127.1, "WINDNOW": 40.0, "DIRNOW": 7.0, "SPDNOW": 2.0, "TECH": "TRAK", "ADVNR": 24, "ATCFID": "EP052026", "NAME": "ELIDA", "FTECH": "OFCL", "FCST_DTG": "2026-07-20 12:00:00", "RUN_DTG": "2026-07-21 06:26:42", "BASIN": "EP", "STMNR": 5, "CAT_ID": null, "CAT_DESC": null, "MSGID": "WTPZ25 KNHC 201434", "VALIDTIME": "2026-07-13 18:00:00" }, "geometry": { "type": "Point", "coordinates": [ -102.5, 13.5 ] } },
{ "type": "Feature", "properties": { "ID": 37262, "LAT": 14.1, "LON": -103.5, "VMAX": 30.0, "MSLP": 1009.0, "RMAX": 120.0, "FSPD": 5.39306, "FDIR": 292.4303, "RENV": 180.0, "PENV": 1010.0, "VALIDT": 0, "DTG": "2026-07-14 00:00", "LATNOW": 25.7, "LONNOW": -127.1, "WINDNOW": 40.0, "DIRNOW": 7.0, "SPDNOW": 2.0, "TECH": "TRAK", "ADVNR": 24, "ATCFID": "EP052026", "NAME": "ELIDA", "FTECH": "OFCL", "FCST_DTG": "2026-07-20 12:00:00", "RUN_DTG": "2026-07-21 06:26:42", "BASIN": "EP", "STMNR": 5, "CAT_ID": null, "CAT_DESC": null, "MSGID": "WTPZ25 KNHC 201434", "VALIDTIME": "2026-07-14 00:00:00" }, "geometry": { "type": "Point", "coordinates": [ -103.5, 14.1 ] } },
{ "type": "Feature", "properties": { "ID": 37263, "LAT": 14.5, "LON": -104.5, "VMAX": 30.0, "MSLP": 1008.0, "RMAX": 100.0, "FSPD": 13.90634, "FDIR": 291.7116, "RENV": 180.0, "PENV": 1010.0, "VALIDT": 0, "DTG": "2026-07-14 06:00", "LATNOW": 25.7, "LONNOW": -127.1, "WINDNOW": 40.0, "DIRNOW": 7.0, "SPDNOW": 2.0, "TECH": "TRAK", "ADVNR": 24, "ATCFID": "EP052026", "NAME": "ELIDA", "FTECH": "OFCL", "FCST_DTG": "2026-07-20 12:00:00", "RUN_DTG": "2026-07-21 06:26:42", "BASIN": "EP", "STMNR": 5, "CAT_ID": null, "CAT_DESC": null, "MSGID": "WTPZ25 KNHC 201434", "VALIDTIME": "2026-07-14 06:00:00" }, "geometry": { "type": "Point", "coordinates": [ -104.5, 14.5 ] } },
{ "type": "Feature", "properties": { "ID": 37264, "LAT": 15.5, "LON": -107.1, "VMAX": 30.0, "MSLP": 1007.0, "RMAX": 90.0, "FSPD": 8.51139, "FDIR": 241.0834, "RENV": 170.0, "PENV": 1009.0, "VALIDT": 0, "DTG": "2026-07-14 12:00", "LATNOW": 25.7, "LONNOW": -127.1, "WINDNOW": 40.0, "DIRNOW": 7.0, "SPDNOW": 2.0, "TECH": "TRAK", "ADVNR": 24, "ATCFID": "EP052026", "NAME": "ELIDA", "FTECH": "OFCL", "FCST_DTG": "2026-07-20 12:00:00", "RUN_DTG": "2026-07-21 06:26:42", "BASIN": "EP", "STMNR": 5, "CAT_ID": null, "CAT_DESC": null, "MSGID": "WTPZ25 KNHC 201434", "VALIDTIME": "2026-07-14 12:00:00" }, "geometry": { "type": "Point", "coordinates": [ -107.099998, 15.5 ] } },
{ "type": "Feature", "properties": { "ID": 37265, "LAT": 14.7, "LON": -108.6, "VMAX": 30.0, "MSLP": 1006.0, "RMAX": 130.0, "FSPD": 5.47365, "FDIR": 269.99997, "RENV": 170.0, "PENV": 1009.0, "VALIDT": 0, "DTG": "2026-07-14 18:00", "LATNOW": 25.7, "LONNOW": -127.1, "WINDNOW": 40.0, "DIRNOW": 7.0, "SPDNOW": 2.0, "TECH": "TRAK", "ADVNR": 24, "ATCFID": "EP052026", "NAME": "ELIDA", "FTECH": "OFCL", "FCST_DTG": "2026-07-20 12:00:00", "RUN_DTG": "2026-07-21 06:26:42", "BASIN": "EP", "STMNR": 5, "CAT_ID": null, "CAT_DESC": null, "MSGID": "WTPZ25 KNHC 201434", "VALIDTIME": "2026-07-14 18:00:00" }, "geometry": { "type": "Point", "coordinates": [ -108.599998, 14.7 ] } },
{ "type": "Feature", "properties": { "ID": 37266, "LAT": 14.7, "LON": -109.7, "VMAX": 30.0, "MSLP": 1006.0, "RMAX": 130.0, "FSPD": 6.98386, "FDIR": 274.22433, "RENV": 170.0, "PENV": 1009.0, "VALIDT": 0, "DTG": "2026-07-15 00:00", "LATNOW": 25.7, "LONNOW": -127.1, "WINDNOW": 40.0, "DIRNOW": 7.0, "SPDNOW": 2.0, "TECH": "TRAK", "ADVNR": 24, "ATCFID": "EP052026", "NAME": "ELIDA", "FTECH": "OFCL", "FCST_DTG": "2026-07-20 12:00:00", "RUN_DTG": "2026-07-21 06:26:42", "BASIN": "EP", "STMNR": 5, "CAT_ID": null, "CAT_DESC": null, "MSGID": "WTPZ25 KNHC 201434", "VALIDTIME": "2026-07-15 00:00:00" }, "geometry": { "type": "Point", "coordinates": [ -109.699997, 14.7 ] } },
{ "type": "Feature", "properties": { "ID": 37267, "LAT": 14.8, "LON": -111.1, "VMAX": 35.0, "MSLP": 1003.0, "RMAX": 80.0, "FSPD": 9.30498, "FDIR": 286.04752, "RENV": 170.0, "PENV": 1009.0, "VALIDT": 0, "DTG": "2026-07-15 06:00", "LATNOW": 25.7, "LONNOW": -127.1, "WINDNOW": 40.0, "DIRNOW": 7.0, "SPDNOW": 2.0, "TECH": "TRAK", "ADVNR": 24, "ATCFID": "EP052026", "NAME": "ELIDA", "FTECH": "OFCL", "FCST_DTG": "2026-07-20 12:00:00", "RUN_DTG": "2026-07-21 06:26:42", "BASIN": "EP", "STMNR": 5, "CAT_ID": null, "CAT_DESC": null, "MSGID": "WTPZ25 KNHC 201434", "VALIDTIME": "2026-07-15 06:00:00" }, "geometry": { "type": "Point", "coordinates": [ -111.099998, 14.8 ] } },
{ "type": "Feature", "properties": { "ID": 37268, "LAT": 15.3, "LON": -112.9, "VMAX": 40.0, "MSLP": 1001.0, "RMAX": 70.0, "FSPD": 6.14713, "FDIR": 284.5406, "RENV": 200.0, "PENV": 1008.0, "VALIDT": 0, "DTG": "2026-07-15 12:00", "LATNOW": 25.7, "LONNOW": -127.1, "WINDNOW": 40.0, "DIRNOW": 7.0, "SPDNOW": 2.0, "TECH": "TRAK", "ADVNR": 24, "ATCFID": "EP052026", "NAME": "ELIDA", "FTECH": "OFCL", "FCST_DTG": "2026-07-20 12:00:00", "RUN_DTG": "2026-07-21 06:26:42", "BASIN": "EP", "STMNR": 5, "CAT_ID": null, "CAT_DESC": null, "MSGID": "WTPZ25 KNHC 201434", "VALIDTIME": "2026-07-15 12:00:00" }, "geometry": { "type": "Point", "coordinates": [ -112.900002, 15.3 ] } },
{ "type": "Feature", "properties": { "ID": 37269, "LAT": 15.6, "LON": -114.1, "VMAX": 45.0, "MSLP": 999.0, "RMAX": 60.0, "FSPD": 3.14733, "FDIR": 250.91864, "RENV": 220.0, "PENV": 1008.0, "VALIDT": 0, "DTG": "2026-07-15 18:00", "LATNOW": 25.7, "LONNOW": -127.1, "WINDNOW": 40.0, "DIRNOW": 7.0, "SPDNOW": 2.0, "TECH": "TRAK", "ADVNR": 24, "ATCFID": "EP052026", "NAME": "ELIDA", "FTECH": "OFCL", "FCST_DTG": "2026-07-20 12:00:00", "RUN_DTG": "2026-07-21 06:26:42", "BASIN": "EP", "STMNR": 5, "CAT_ID": null, "CAT_DESC": null, "MSGID": "WTPZ25 KNHC 201434", "VALIDTIME": "2026-07-15 18:00:00" }, "geometry": { "type": "Point", "coordinates": [ -114.099998, 15.6 ] } },
{ "type": "Feature", "properties": { "ID": 37270, "LAT": 15.4, "LON": -114.7, "VMAX": 45.0, "MSLP": 999.0, "RMAX": 50.0, "FSPD": 5.47863, "FDIR": 275.38803, "RENV": 220.0, "PENV": 1008.0, "VALIDT": 0, "DTG": "2026-07-16 00:00", "LATNOW": 25.7, "LONNOW": -127.1, "WINDNOW": 40.0, "DIRNOW": 7.0, "SPDNOW": 2.0, "TECH": "TRAK", "ADVNR": 24, "ATCFID": "EP052026", "NAME": "ELIDA", "FTECH": "OFCL", "FCST_DTG": "2026-07-20 12:00:00", "RUN_DTG": "2026-07-21 06:26:42", "BASIN": "EP", "STMNR": 5, "CAT_ID": null, "CAT_DESC": null, "MSGID": "WTPZ25 KNHC 201434", "VALIDTIME": "2026-07-16 00:00:00" }, "geometry": { "type": "Point", "coordinates": [ -114.699997, 15.4 ] } },
{ "type": "Feature", "properties": { "ID": 37271, "LAT": 15.5, "LON": -115.8, "VMAX": 50.0, "MSLP": 997.0, "RMAX": 30.0, "FSPD": 5.47597, "FDIR": 275.39062, "RENV": 220.0, "PENV": 1008.0, "VALIDT": 0, "DTG": "2026-07-16 06:00", "LATNOW": 25.7, "LONNOW": -127.1, "WINDNOW": 40.0, "DIRNOW": 7.0, "SPDNOW": 2.0, "TECH": "TRAK", "ADVNR": 24, "ATCFID": "EP052026", "NAME": "ELIDA", "FTECH": "OFCL", "FCST_DTG": "2026-07-20 12:00:00", "RUN_DTG": "2026-07-21 06:26:42", "BASIN": "EP", "STMNR": 5, "CAT_ID": null, "CAT_DESC": null, "MSGID": "WTPZ25 KNHC 201434", "VALIDTIME": "2026-07-16 06:00:00" }, "geometry": { "type": "Point", "coordinates": [ -115.800003, 15.5 ] } },
{ "type": "Feature", "properties": { "ID": 37272, "LAT": 15.6, "LON": -116.9, "VMAX": 50.0, "MSLP": 997.0, "RMAX": 30.0, "FSPD": 4.98037, "FDIR": 275.92883, "RENV": 220.0, "PENV": 1008.0, "VALIDT": 0, "DTG": "2026-07-16 12:00", "LATNOW": 25.7, "LONNOW": -127.1, "WINDNOW": 40.0, "DIRNOW": 7.0, "SPDNOW": 2.0, "TECH": "TRAK", "ADVNR": 24, "ATCFID": "EP052026", "NAME": "ELIDA", "FTECH": "OFCL", "FCST_DTG": "2026-07-20 12:00:00", "RUN_DTG": "2026-07-21 06:26:42", "BASIN": "EP", "STMNR": 5, "CAT_ID": null, "CAT_DESC": null, "MSGID": "WTPZ25 KNHC 201434", "VALIDTIME": "2026-07-16 12:00:00" }, "geometry": { "type": "Point", "coordinates": [ -116.900002, 15.6 ] } },
{ "type": "Feature", "properties": { "ID": 37273, "LAT": 15.7, "LON": -117.9, "VMAX": 50.0, "MSLP": 997.0, "RMAX": 30.0, "FSPD": 3.99428, "FDIR": 277.39996, "RENV": 220.0, "PENV": 1008.0, "VALIDT": 0, "DTG": "2026-07-16 18:00", "LATNOW": 25.7, "LONNOW": -127.1, "WINDNOW": 40.0, "DIRNOW": 7.0, "SPDNOW": 2.0, "TECH": "TRAK", "ADVNR": 24, "ATCFID": "EP052026", "NAME": "ELIDA", "FTECH": "OFCL", "FCST_DTG": "2026-07-20 12:00:00", "RUN_DTG": "2026-07-21 06:26:42", "BASIN": "EP", "STMNR": 5, "CAT_ID": null, "CAT_DESC": null, "MSGID": "WTPZ25 KNHC 201434", "VALIDTIME": "2026-07-16 18:00:00" }, "geometry": { "type": "Point", "coordinates": [ -117.900002, 15.7 ] } },
{ "type": "Feature", "properties": { "ID": 37274, "LAT": 15.8, "LON": -118.7, "VMAX": 55.0, "MSLP": 994.0, "RMAX": 30.0, "FSPD": 5.46802, "FDIR": 275.39847, "RENV": 220.0, "PENV": 1008.0, "VALIDT": 0, "DTG": "2026-07-17 00:00", "LATNOW": 25.7, "LONNOW": -127.1, "WINDNOW": 40.0, "DIRNOW": 7.0, "SPDNOW": 2.0, "TECH": "TRAK", "ADVNR": 24, "ATCFID": "EP052026", "NAME": "ELIDA", "FTECH": "OFCL", "FCST_DTG": "2026-07-20 12:00:00", "RUN_DTG": "2026-07-21 06:26:42", "BASIN": "EP", "STMNR": 5, "CAT_ID": null, "CAT_DESC": null, "MSGID": "WTPZ25 KNHC 201434", "VALIDTIME": "2026-07-17 00:00:00" }, "geometry": { "type": "Point", "coordinates": [ -118.699997, 15.8 ] } },
{ "type": "Feature", "properties": { "ID": 37275, "LAT": 15.9, "LON": -119.8, "VMAX": 55.0, "MSLP": 994.0, "RMAX": 40.0, "FSPD": 4.6353, "FDIR": 311.7517, "RENV": 220.0, "PENV": 1009.0, "VALIDT": 0, "DTG": "2026-07-17 06:00", "LATNOW": 25.7, "LONNOW": -127.1, "WINDNOW": 40.0, "DIRNOW": 7.0, "SPDNOW": 2.0, "TECH": "TRAK", "ADVNR": 24, "ATCFID": "EP052026", "NAME": "ELIDA", "FTECH": "OFCL", "FCST_DTG": "2026-07-20 12:00:00", "RUN_DTG": "2026-07-21 06:26:42", "BASIN": "EP", "STMNR": 5, "CAT_ID": null, "CAT_DESC": null, "MSGID": "WTPZ25 KNHC 201434", "VALIDTIME": "2026-07-17 06:00:00" }, "geometry": { "type": "Point", "coordinates": [ -119.800003, 15.9 ] } },
{ "type": "Feature", "properties": { "ID": 37276, "LAT": 16.5, "LON": -120.5, "VMAX": 55.0, "MSLP": 994.0, "RMAX": 40.0, "FSPD": 5.63701, "FDIR": 285.88962, "RENV": 300.0, "PENV": 1008.0, "VALIDT": 0, "DTG": "2026-07-17 12:00", "LATNOW": 25.7, "LONNOW": -127.1, "WINDNOW": 40.0, "DIRNOW": 7.0, "SPDNOW": 2.0, "TECH": "TRAK", "ADVNR": 24, "ATCFID": "EP052026", "NAME": "ELIDA", "FTECH": "OFCL", "FCST_DTG": "2026-07-20 12:00:00", "RUN_DTG": "2026-07-21 06:26:42", "BASIN": "EP", "STMNR": 5, "CAT_ID": null, "CAT_DESC": null, "MSGID": "WTPZ25 KNHC 201434", "VALIDTIME": "2026-07-17 12:00:00" }, "geometry": { "type": "Point", "coordinates": [ -120.5, 16.5 ] } },
{ "type": "Feature", "properties": { "ID": 37277, "LAT": 16.8, "LON": -121.6, "VMAX": 55.0, "MSLP": 994.0, "RMAX": 30.0, "FSPD": 2.90446, "FDIR": 302.098, "RENV": 300.0, "PENV": 1008.0, "VALIDT": 0, "DTG": "2026-07-17 18:00", "LATNOW": 25.7, "LONNOW": -127.1, "WINDNOW": 40.0, "DIRNOW": 7.0, "SPDNOW": 2.0, "TECH": "TRAK", "ADVNR": 24, "ATCFID": "EP052026", "NAME": "ELIDA", "FTECH": "OFCL", "FCST_DTG": "2026-07-20 12:00:00", "RUN_DTG": "2026-07-21 06:26:42", "BASIN": "EP", "STMNR": 5, "CAT_ID": null, "CAT_DESC": null, "MSGID": "WTPZ25 KNHC 201434", "VALIDTIME": "2026-07-17 18:00:00" }, "geometry": { "type": "Point", "coordinates": [ -121.599998, 16.799999 ] } },
{ "type": "Feature", "properties": { "ID": 37278, "LAT": 17.1, "LON": -122.1, "VMAX": 55.0, "MSLP": 992.0, "RMAX": 30.0, "FSPD": 3.23639, "FDIR": 322.6345, "RENV": 300.0, "PENV": 1008.0, "VALIDT": 0, "DTG": "2026-07-18 00:00", "LATNOW": 25.7, "LONNOW": -127.1, "WINDNOW": 40.0, "DIRNOW": 7.0, "SPDNOW": 2.0, "TECH": "TRAK", "ADVNR": 24, "ATCFID": "EP052026", "NAME": "ELIDA", "FTECH": "OFCL", "FCST_DTG": "2026-07-20 12:00:00", "RUN_DTG": "2026-07-21 06:26:42", "BASIN": "EP", "STMNR": 5, "CAT_ID": null, "CAT_DESC": null, "MSGID": "WTPZ25 KNHC 201434", "VALIDTIME": "2026-07-18 00:00:00" }, "geometry": { "type": "Point", "coordinates": [ -122.099998, 17.1 ] } },
{ "type": "Feature", "properties": { "ID": 37279, "LAT": 17.6, "LON": -122.5, "VMAX": 55.0, "MSLP": 992.0, "RMAX": 30.0, "FSPD": 5.23622, "FDIR": 332.1563, "RENV": 300.0, "PENV": 1008.0, "VALIDT": 0, "DTG": "2026-07-18 06:00", "LATNOW": 25.7, "LONNOW": -127.1, "WINDNOW": 40.0, "DIRNOW": 7.0, "SPDNOW": 2.0, "TECH": "TRAK", "ADVNR": 24, "ATCFID": "EP052026", "NAME": "ELIDA", "FTECH": "OFCL", "FCST_DTG": "2026-07-20 12:00:00", "RUN_DTG": "2026-07-21 06:26:42", "BASIN": "EP", "STMNR": 5, "CAT_ID": null, "CAT_DESC": null, "MSGID": "WTPZ25 KNHC 201434", "VALIDTIME": "2026-07-18 06:00:00" }, "geometry": { "type": "Point", "coordinates": [ -122.5, 17.6 ] } },
{ "type": "Feature", "properties": { "ID": 37280, "LAT": 18.5, "LON": -123.0, "VMAX": 60.0, "MSLP": 990.0, "RMAX": 30.0, "FSPD": 4.7812, "FDIR": 329.404, "RENV": 275.0, "PENV": 1008.0, "VALIDT": 0, "DTG": "2026-07-18 12:00", "LATNOW": 25.7, "LONNOW": -127.1, "WINDNOW": 40.0, "DIRNOW": 7.0, "SPDNOW": 2.0, "TECH": "TRAK", "ADVNR": 24, "ATCFID": "EP052026", "NAME": "ELIDA", "FTECH": "OFCL", "FCST_DTG": "2026-07-20 12:00:00", "RUN_DTG": "2026-07-21 06:26:42", "BASIN": "EP", "STMNR": 5, "CAT_ID": null, "CAT_DESC": null, "MSGID": "WTPZ25 KNHC 201434", "VALIDTIME": "2026-07-18 12:00:00" }, "geometry": { "type": "Point", "coordinates": [ -123.0, 18.5 ] } },
{ "type": "Feature", "properties": { "ID": 37281, "LAT": 19.3, "LON": -123.5, "VMAX": 60.0, "MSLP": 990.0, "RMAX": 30.0, "FSPD": 6.35577, "FDIR": 310.3557, "RENV": 275.0, "PENV": 1008.0, "VALIDT": 0, "DTG": "2026-07-18 18:00", "LATNOW": 25.7, "LONNOW": -127.1, "WINDNOW": 40.0, "DIRNOW": 7.0, "SPDNOW": 2.0, "TECH": "TRAK", "ADVNR": 24, "ATCFID": "EP052026", "NAME": "ELIDA", "FTECH": "OFCL", "FCST_DTG": "2026-07-20 12:00:00", "RUN_DTG": "2026-07-21 06:26:42", "BASIN": "EP", "STMNR": 5, "CAT_ID": null, "CAT_DESC": null, "MSGID": "WTPZ25 KNHC 201434", "VALIDTIME": "2026-07-18 18:00:00" }, "geometry": { "type": "Point", "coordinates": [ -123.5, 19.299999 ] } },
{ "type": "Feature", "properties": { "ID": 37282, "LAT": 20.1, "LON": -124.5, "VMAX": 60.0, "MSLP": 990.0, "RMAX": 30.0, "FSPD": 4.54455, "FDIR": 334.90448, "RENV": 275.0, "PENV": 1008.0, "VALIDT": 0, "DTG": "2026-07-19 00:00", "LATNOW": 25.7, "LONNOW": -127.1, "WINDNOW": 40.0, "DIRNOW": 7.0, "SPDNOW": 2.0, "TECH": "TRAK", "ADVNR": 24, "ATCFID": "EP052026", "NAME": "ELIDA", "FTECH": "OFCL", "FCST_DTG": "2026-07-20 12:00:00", "RUN_DTG": "2026-07-21 06:26:42", "BASIN": "EP", "STMNR": 5, "CAT_ID": null, "CAT_DESC": null, "MSGID": "WTPZ25 KNHC 201434", "VALIDTIME": "2026-07-19 00:00:00" }, "geometry": { "type": "Point", "coordinates": [ -124.5, 20.1 ] } },
{ "type": "Feature", "properties": { "ID": 37283, "LAT": 20.9, "LON": -124.9, "VMAX": 50.0, "MSLP": 996.0, "RMAX": 30.0, "FSPD": 4.22572, "FDIR": 346.8885, "RENV": 275.0, "PENV": 1009.0, "VALIDT": 0, "DTG": "2026-07-19 06:00", "LATNOW": 25.7, "LONNOW": -127.1, "WINDNOW": 40.0, "DIRNOW": 7.0, "SPDNOW": 2.0, "TECH": "TRAK", "ADVNR": 24, "ATCFID": "EP052026", "NAME": "ELIDA", "FTECH": "OFCL", "FCST_DTG": "2026-07-20 12:00:00", "RUN_DTG": "2026-07-21 06:26:42", "BASIN": "EP", "STMNR": 5, "CAT_ID": null, "CAT_DESC": null, "MSGID": "WTPZ25 KNHC 201434", "VALIDTIME": "2026-07-19 06:00:00" }, "geometry": { "type": "Point", "coordinates": [ -124.900002, 20.9 ] } },
{ "type": "Feature", "properties": { "ID": 37284, "LAT": 21.7, "LON": -125.1, "VMAX": 50.0, "MSLP": 996.0, "RMAX": 30.0, "FSPD": 5.44151, "FDIR": 328.3061, "RENV": 275.0, "PENV": 1009.0, "VALIDT": 0, "DTG": "2026-07-19 12:00", "LATNOW": 25.7, "LONNOW": -127.1, "WINDNOW": 40.0, "DIRNOW": 7.0, "SPDNOW": 2.0, "TECH": "TRAK", "ADVNR": 24, "ATCFID": "EP052026", "NAME": "ELIDA", "FTECH": "OFCL", "FCST_DTG": "2026-07-20 12:00:00", "RUN_DTG": "2026-07-21 06:26:42", "BASIN": "EP", "STMNR": 5, "CAT_ID": null, "CAT_DESC": null, "MSGID": "WTPZ25 KNHC 201434", "VALIDTIME": "2026-07-19 12:00:00" }, "geometry": { "type": "Point", "coordinates": [ -125.099998, 21.700001 ] } },
{ "type": "Feature", "properties": { "ID": 37285, "LAT": 22.6, "LON": -125.7, "VMAX": 50.0, "MSLP": 996.0, "RMAX": 30.0, "FSPD": 5.98149, "FDIR": 320.71936, "RENV": 260.0, "PENV": 1008.0, "VALIDT": 0, "DTG": "2026-07-19 18:00", "LATNOW": 25.7, "LONNOW": -127.1, "WINDNOW": 40.0, "DIRNOW": 7.0, "SPDNOW": 2.0, "TECH": "TRAK", "ADVNR": 24, "ATCFID": "EP052026", "NAME": "ELIDA", "FTECH": "OFCL", "FCST_DTG": "2026-07-20 12:00:00", "RUN_DTG": "2026-07-21 06:26:42", "BASIN": "EP", "STMNR": 5, "CAT_ID": null, "CAT_DESC": null, "MSGID": "WTPZ25 KNHC 201434", "VALIDTIME": "2026-07-19 18:00:00" }, "geometry": { "type": "Point", "coordinates": [ -125.699997, 22.6 ] } },
{ "type": "Feature", "properties": { "ID": 37286, "LAT": 23.5, "LON": -126.5, "VMAX": 45.0, "MSLP": 996.0, "RMAX": 30.0, "FSPD": 6.12703, "FDIR": 337.45734, "RENV": 250.0, "PENV": 1009.0, "VALIDT": 0, "DTG": "2026-07-20 00:00", "LATNOW": 25.7, "LONNOW": -127.1, "WINDNOW": 40.0, "DIRNOW": 7.0, "SPDNOW": 2.0, "TECH": "TRAK", "ADVNR": 24, "ATCFID": "EP052026", "NAME": "ELIDA", "FTECH": "OFCL", "FCST_DTG": "2026-07-20 12:00:00", "RUN_DTG": "2026-07-21 06:26:42", "BASIN": "EP", "STMNR": 5, "CAT_ID": null, "CAT_DESC": null, "MSGID": "WTPZ25 KNHC 201434", "VALIDTIME": "2026-07-20 00:00:00" }, "geometry": { "type": "Point", "coordinates": [ -126.5, 23.5 ] } },
{ "type": "Feature", "properties": { "ID": 37287, "LAT": 24.6, "LON": -127.0, "VMAX": 45.0, "MSLP": 996.0, "RMAX": 40.0, "FSPD": 5.67802, "FDIR": 355.29575, "RENV": 250.0, "PENV": 1009.0, "VALIDT": 0, "DTG": "2026-07-20 06:00", "LATNOW": 25.7, "LONNOW": -127.1, "WINDNOW": 40.0, "DIRNOW": 7.0, "SPDNOW": 2.0, "TECH": "TRAK", "ADVNR": 24, "ATCFID": "EP052026", "NAME": "ELIDA", "FTECH": "OFCL", "FCST_DTG": "2026-07-20 12:00:00", "RUN_DTG": "2026-07-21 06:26:42", "BASIN": "EP", "STMNR": 5, "CAT_ID": null, "CAT_DESC": null, "MSGID": "WTPZ25 KNHC 201434", "VALIDTIME": "2026-07-20 06:00:00" }, "geometry": { "type": "Point", "coordinates": [ -127.0, 24.6 ] } },
{ "type": "Feature", "properties": { "ID": 37288, "LAT": 25.7, "LON": -127.1, "VMAX": 40.0, "MSLP": 998.0, "RMAX": 40.0, "FSPD": 7.26129, "FDIR": 352.68646, "RENV": 240.0, "PENV": 1009.0, "VALIDT": 0, "DTG": "2026-07-20 12:00", "LATNOW": 25.7, "LONNOW": -127.1, "WINDNOW": 40.0, "DIRNOW": 7.0, "SPDNOW": 2.0, "TECH": "TRAK", "ADVNR": 24, "ATCFID": "EP052026", "NAME": "ELIDA", "FTECH": "OFCL", "FCST_DTG": "2026-07-20 12:00:00", "RUN_DTG": "2026-07-21 06:26:42", "BASIN": "EP", "STMNR": 5, "CAT_ID": null, "CAT_DESC": null, "MSGID": "WTPZ25 KNHC 201434", "VALIDTIME": "2026-07-20 12:00:00" }, "geometry": { "type": "Point", "coordinates": [ -127.099998, 25.700001 ] } },
{ "type": "Feature", "properties": { "ID": 37289, "LAT": 26.4, "LON": -127.2, "VMAX": 35.0, "MSLP": 1000.0, "RMAX": 40.99004, "FSPD": 7.2279, "FDIR": 355.16898, "RENV": 180.0, "PENV": 1012.0, "VALIDT": 3, "DTG": "2026-07-20 15:00", "LATNOW": 25.7, "LONNOW": -127.1, "WINDNOW": 40.0, "DIRNOW": 7.0, "SPDNOW": 2.0, "TECH": "FCST", "ADVNR": 24, "ATCFID": "EP052026", "NAME": "ELIDA", "FTECH": "OFCL", "FCST_DTG": "2026-07-20 12:00:00", "RUN_DTG": "2026-07-21 06:26:42", "BASIN": "EP", "STMNR": 5, "CAT_ID": null, "CAT_DESC": null, "MSGID": "WTPZ25 KNHC 201434", "VALIDTIME": "2026-07-20 15:00:00" }, "geometry": { "type": "Point", "coordinates": [ -127.199997, 26.4 ] } },
{ "type": "Feature", "properties": { "ID": 37290, "LAT": 28.5, "LON": -127.4, "VMAX": 35.0, "MSLP": 1008.74713, "RMAX": 46.70338, "FSPD": 6.70266, "FDIR": 356.18115, "RENV": 180.0, "PENV": 1012.0, "VALIDT": 12, "DTG": "2026-07-21 00:00", "LATNOW": 25.7, "LONNOW": -127.1, "WINDNOW": 40.0, "DIRNOW": 7.0, "SPDNOW": 2.0, "TECH": "FCST", "ADVNR": 24, "ATCFID": "EP052026", "NAME": "ELIDA", "FTECH": "OFCL", "FCST_DTG": "2026-07-20 12:00:00", "RUN_DTG": "2026-07-21 06:26:42", "BASIN": "EP", "STMNR": 5, "CAT_ID": null, "CAT_DESC": null, "MSGID": "WTPZ25 KNHC 201434", "VALIDTIME": "2026-07-21 00:00:00" }, "geometry": { "type": "Point", "coordinates": [ -127.400002, 28.5 ] } },
{ "type": "Feature", "properties": { "ID": 37291, "LAT": 31.1, "LON": -127.6, "VMAX": 30.0, "MSLP": 1010.40607, "RMAX": 48.37551, "FSPD": 6.44522, "FDIR": 3.8663, "RENV": 250.0, "PENV": 1012.0, "VALIDT": 24, "DTG": "2026-07-21 12:00", "LATNOW": 25.7, "LONNOW": -127.1, "WINDNOW": 40.0, "DIRNOW": 7.0, "SPDNOW": 2.0, "TECH": "FCST", "ADVNR": 24, "ATCFID": "EP052026", "NAME": "ELIDA", "FTECH": "OFCL", "FCST_DTG": "2026-07-20 12:00:00", "RUN_DTG": "2026-07-21 06:26:42", "BASIN": "EP", "STMNR": 5, "CAT_ID": null, "CAT_DESC": null, "MSGID": "WTPZ25 KNHC 201434", "VALIDTIME": "2026-07-21 12:00:00" }, "geometry": { "type": "Point", "coordinates": [ -127.599998, 31.1 ] } },
{ "type": "Feature", "properties": { "ID": 37292, "LAT": 33.6, "LON": -127.4, "VMAX": 25.0, "MSLP": 1011.80975, "RMAX": 49.22899, "FSPD": 5.18351, "FDIR": 7.03876, "RENV": 250.0, "PENV": 1012.0, "VALIDT": 36, "DTG": "2026-07-22 00:00", "LATNOW": 25.7, "LONNOW": -127.1, "WINDNOW": 40.0, "DIRNOW": 7.0, "SPDNOW": 2.0, "TECH": "FCST", "ADVNR": 24, "ATCFID": "EP052026", "NAME": "ELIDA", "FTECH": "OFCL", "FCST_DTG": "2026-07-20 12:00:00", "RUN_DTG": "2026-07-21 06:26:42", "BASIN": "EP", "STMNR": 5, "CAT_ID": null, "CAT_DESC": null, "MSGID": "WTPZ25 KNHC 201434", "VALIDTIME": "2026-07-22 00:00:00" }, "geometry": { "type": "Point", "coordinates": [ -127.400002, 33.599998 ] } },
{ "type": "Feature", "properties": { "ID": 37293, "LAT": 35.6, "LON": -127.1, "VMAX": 20.0, "MSLP": 1012.95825, "RMAX": 49.22899, "FSPD": 5.49934, "FDIR": 10.81451, "RENV": 250.0, "PENV": 1012.0, "VALIDT": 48, "DTG": "2026-07-22 12:00", "LATNOW": 25.7, "LONNOW": -127.1, "WINDNOW": 40.0, "DIRNOW": 7.0, "SPDNOW": 2.0, "TECH": "FCST", "ADVNR": 24, "ATCFID": "EP052026", "NAME": "ELIDA", "FTECH": "OFCL", "FCST_DTG": "2026-07-20 12:00:00", "RUN_DTG": "2026-07-21 06:26:42", "BASIN": "EP", "STMNR": 5, "CAT_ID": null, "CAT_DESC": null, "MSGID": "WTPZ25 KNHC 201434", "VALIDTIME": "2026-07-22 12:00:00" }, "geometry": { "type": "Point", "coordinates": [ -127.099998, 35.599998 ] } },
{ "type": "Feature", "properties": { "ID": 37294, "LAT": 37.7, "LON": -126.6, "VMAX": 15.0, "MSLP": 1013.8515, "RMAX": 43.7591, "FSPD": 5.49934, "FDIR": 10.81451, "RENV": 250.0, "PENV": 1012.0, "VALIDT": 60, "DTG": "2026-07-23 00:00", "LATNOW": 25.7, "LONNOW": -127.1, "WINDNOW": 40.0, "DIRNOW": 7.0, "SPDNOW": 2.0, "TECH": "FCST", "ADVNR": 24, "ATCFID": "EP052026", "NAME": "ELIDA", "FTECH": "OFCL", "FCST_DTG": "2026-07-20 12:00:00", "RUN_DTG": "2026-07-21 06:26:42", "BASIN": "EP", "STMNR": 5, "CAT_ID": null, "CAT_DESC": null, "MSGID": "WTPZ25 KNHC 201434", "VALIDTIME": "2026-07-23 00:00:00" }, "geometry": { "type": "Point", "coordinates": [ -126.599998, 37.700001 ] } },
{ "type": "Feature", "properties": { "ID": 37288, "LAT": 25.7, "LON": -127.1, "VMAX": 40.0, "MSLP": 998.0, "RMAX": 40.0, "FSPD": 7.26129, "FDIR": 352.68646, "RENV": 240.0, "PENV": 1009.0, "VALIDT": 0, "DTG": "2026-07-20 12:00", "LATNOW": 25.7, "LONNOW": -127.1, "WINDNOW": 40.0, "DIRNOW": 7.0, "SPDNOW": 2.0, "TECH": "TRAK", "ADVNR": 24, "ATCFID": "EP052026", "NAME": "ELIDA", "FTECH": "OFCL", "FCST_DTG": "2026-07-20 12:00:00", "RUN_DTG": "2026-07-21 06:26:42", "BASIN": "EP", "STMNR": 5, "CAT_ID": null, "CAT_DESC": null, "MSGID": "WTPZ25 KNHC 201434", "VALIDTIME": "2026-07-20 12:00:00" }, "geometry": { "type": "LineString", "coordinates": [ [ -101.0, 12.2 ], [ -102.5, 13.5 ], [ -103.5, 14.1 ], [ -104.5, 14.5 ], [ -107.1, 15.5 ], [ -108.6, 14.7 ], [ -109.7, 14.7 ], [ -111.1, 14.8 ], [ -112.9, 15.3 ], [ -114.1, 15.6 ], [ -114.7, 15.4 ], [ -115.8, 15.5 ], [ -116.9, 15.6 ], [ -117.9, 15.7 ], [ -118.7, 15.8 ], [ -119.8, 15.9 ], [ -120.5, 16.5 ], [ -121.6, 16.8 ], [ -122.1, 17.1 ], [ -122.5, 17.6 ], [ -123.0, 18.5 ], [ -123.5, 19.3 ], [ -124.5, 20.1 ], [ -124.9, 20.9 ], [ -125.1, 21.7 ], [ -125.7, 22.6 ], [ -126.5, 23.5 ], [ -127.0, 24.6 ], [ -127.1, 25.7 ] ] } },
{ "type": "Feature", "properties": { "ID": 37294, "LAT": 37.7, "LON": -126.6, "VMAX": 15.0, "MSLP": 1013.8515, "RMAX": 43.7591, "FSPD": 5.49934, "FDIR": 10.81451, "RENV": 250.0, "PENV": 1012.0, "VALIDT": 60, "DTG": "2026-07-23 00:00", "LATNOW": 25.7, "LONNOW": -127.1, "WINDNOW": 40.0, "DIRNOW": 7.0, "SPDNOW": 2.0, "TECH": "FCST", "ADVNR": 24, "ATCFID": "EP052026", "NAME": "ELIDA", "FTECH": "OFCL", "FCST_DTG": "2026-07-20 12:00:00", "RUN_DTG": "2026-07-21 06:26:42", "BASIN": "EP", "STMNR": 5, "CAT_ID": null, "CAT_DESC": null, "MSGID": "WTPZ25 KNHC 201434", "VALIDTIME": "2026-07-23 00:00:00" }, "geometry": { "type": "LineString", "coordinates": [ [ -127.1, 25.7 ], [ -127.2, 26.4 ], [ -127.4, 28.5 ], [ -127.6, 31.1 ], [ -127.4, 33.6 ], [ -127.1, 35.6 ], [ -126.6, 37.7 ] ] } }
]
}
