{
"type": "FeatureCollection",
"crs": { "type": "name", "properties": { "name": "urn:ogc:def:crs:OGC:1.3:CRS84" } },
"features": [
{ "type": "Feature", "properties": { "ID": 262812, "LAT": 14.0, "LON": 150.0, "VMAX": 15.0, "MSLP": 1013.8515, "RMAX": 40.0, "FSPD": 4.11609, "FDIR": 331.03143, "RENV": 500.0, "PENV": 1012.0, "VALIDT": 0, "DTG": "2024-09-24 18:00", "LATNOW": 44.9, "LONNOW": 152.5, "WINDNOW": 55.0, "DIRNOW": 21.0, "SPDNOW": 1.0, "TECH": "TRAK", "ADVNR": 24, "ATCFID": "WP192024", "NAME": "JEBI", "FTECH": "JTWC", "FCST_DTG": "2024-10-02 06:00:00", "RUN_DTG": "2024-10-02 21:55:46", "BASIN": "WP", "STMNR": 19, "CAT_ID": null, "CAT_DESC": null, "MSGID": "WTPN52 PGTW 020900", "VALIDTIME": "2024-09-24 18:00:00" }, "geometry": { "type": "Point", "coordinates": [ 150.0, 14.0 ] } },
{ "type": "Feature", "properties": { "ID": 262813, "LAT": 14.7, "LON": 149.6, "VMAX": 15.0, "MSLP": 1013.8515, "RMAX": 40.0, "FSPD": 5.51442, "FDIR": 338.89264, "RENV": 500.0, "PENV": 1012.0, "VALIDT": 0, "DTG": "2024-09-25 00:00", "LATNOW": 44.9, "LONNOW": 152.5, "WINDNOW": 55.0, "DIRNOW": 21.0, "SPDNOW": 1.0, "TECH": "TRAK", "ADVNR": 24, "ATCFID": "WP192024", "NAME": "JEBI", "FTECH": "JTWC", "FCST_DTG": "2024-10-02 06:00:00", "RUN_DTG": "2024-10-02 21:55:46", "BASIN": "WP", "STMNR": 19, "CAT_ID": null, "CAT_DESC": null, "MSGID": "WTPN52 PGTW 020900", "VALIDTIME": "2024-09-25 00:00:00" }, "geometry": { "type": "Point", "coordinates": [ 149.600006, 14.7 ] } },
{ "type": "Feature", "properties": { "ID": 262814, "LAT": 15.7, "LON": 149.2, "VMAX": 20.0, "MSLP": 1012.95825, "RMAX": 45.0, "FSPD": 3.79242, "FDIR": 294.01352, "RENV": 500.0, "PENV": 1012.0, "VALIDT": 0, "DTG": "2024-09-25 06:00", "LATNOW": 44.9, "LONNOW": 152.5, "WINDNOW": 55.0, "DIRNOW": 21.0, "SPDNOW": 1.0, "TECH": "TRAK", "ADVNR": 24, "ATCFID": "WP192024", "NAME": "JEBI", "FTECH": "JTWC", "FCST_DTG": "2024-10-02 06:00:00", "RUN_DTG": "2024-10-02 21:55:46", "BASIN": "WP", "STMNR": 19, "CAT_ID": null, "CAT_DESC": null, "MSGID": "WTPN52 PGTW 020900", "VALIDTIME": "2024-09-25 06:00:00" }, "geometry": { "type": "Point", "coordinates": [ 149.199997, 15.7 ] } },
{ "type": "Feature", "properties": { "ID": 262815, "LAT": 16.0, "LON": 148.5, "VMAX": 20.0, "MSLP": 1012.95825, "RMAX": 45.0, "FSPD": 4.08582, "FDIR": 284.58524, "RENV": 500.0, "PENV": 1012.0, "VALIDT": 0, "DTG": "2024-09-25 12:00", "LATNOW": 44.9, "LONNOW": 152.5, "WINDNOW": 55.0, "DIRNOW": 21.0, "SPDNOW": 1.0, "TECH": "TRAK", "ADVNR": 24, "ATCFID": "WP192024", "NAME": "JEBI", "FTECH": "JTWC", "FCST_DTG": "2024-10-02 06:00:00", "RUN_DTG": "2024-10-02 21:55:46", "BASIN": "WP", "STMNR": 19, "CAT_ID": null, "CAT_DESC": null, "MSGID": "WTPN52 PGTW 020900", "VALIDTIME": "2024-09-25 12:00:00" }, "geometry": { "type": "Point", "coordinates": [ 148.5, 16.0 ] } },
{ "type": "Feature", "properties": { "ID": 262816, "LAT": 16.2, "LON": 147.7, "VMAX": 20.0, "MSLP": 1012.95825, "RMAX": 45.0, "FSPD": 5.43415, "FDIR": 269.99997, "RENV": 500.0, "PENV": 1012.0, "VALIDT": 0, "DTG": "2024-09-25 18:00", "LATNOW": 44.9, "LONNOW": 152.5, "WINDNOW": 55.0, "DIRNOW": 21.0, "SPDNOW": 1.0, "TECH": "TRAK", "ADVNR": 24, "ATCFID": "WP192024", "NAME": "JEBI", "FTECH": "JTWC", "FCST_DTG": "2024-10-02 06:00:00", "RUN_DTG": "2024-10-02 21:55:46", "BASIN": "WP", "STMNR": 19, "CAT_ID": null, "CAT_DESC": null, "MSGID": "WTPN52 PGTW 020900", "VALIDTIME": "2024-09-25 18:00:00" }, "geometry": { "type": "Point", "coordinates": [ 147.699997, 16.200001 ] } },
{ "type": "Feature", "properties": { "ID": 262817, "LAT": 16.2, "LON": 146.6, "VMAX": 25.0, "MSLP": 1011.80975, "RMAX": 45.0, "FSPD": 2.28224, "FDIR": 25.62469, "RENV": 500.0, "PENV": 1012.0, "VALIDT": 0, "DTG": "2024-09-26 00:00", "LATNOW": 44.9, "LONNOW": 152.5, "WINDNOW": 55.0, "DIRNOW": 21.0, "SPDNOW": 1.0, "TECH": "TRAK", "ADVNR": 24, "ATCFID": "WP192024", "NAME": "JEBI", "FTECH": "JTWC", "FCST_DTG": "2024-10-02 06:00:00", "RUN_DTG": "2024-10-02 21:55:46", "BASIN": "WP", "STMNR": 19, "CAT_ID": null, "CAT_DESC": null, "MSGID": "WTPN52 PGTW 020900", "VALIDTIME": "2024-09-26 00:00:00" }, "geometry": { "type": "Point", "coordinates": [ 146.600006, 16.200001 ] } },
{ "type": "Feature", "properties": { "ID": 262818, "LAT": 16.6, "LON": 146.8, "VMAX": 25.0, "MSLP": 1011.80975, "RMAX": 45.0, "FSPD": 3.08667, "FDIR": 360.0, "RENV": 500.0, "PENV": 1012.0, "VALIDT": 0, "DTG": "2024-09-26 06:00", "LATNOW": 44.9, "LONNOW": 152.5, "WINDNOW": 55.0, "DIRNOW": 21.0, "SPDNOW": 1.0, "TECH": "TRAK", "ADVNR": 24, "ATCFID": "WP192024", "NAME": "JEBI", "FTECH": "JTWC", "FCST_DTG": "2024-10-02 06:00:00", "RUN_DTG": "2024-10-02 21:55:46", "BASIN": "WP", "STMNR": 19, "CAT_ID": null, "CAT_DESC": null, "MSGID": "WTPN52 PGTW 020900", "VALIDTIME": "2024-09-26 06:00:00" }, "geometry": { "type": "Point", "coordinates": [ 146.800003, 16.6 ] } },
{ "type": "Feature", "properties": { "ID": 262819, "LAT": 17.2, "LON": 146.8, "VMAX": 30.0, "MSLP": 1004.0, "RMAX": 100.0, "FSPD": 4.61766, "FDIR": 311.94733, "RENV": 150.0, "PENV": 1010.0, "VALIDT": 0, "DTG": "2024-09-26 12:00", "LATNOW": 44.9, "LONNOW": 152.5, "WINDNOW": 55.0, "DIRNOW": 21.0, "SPDNOW": 1.0, "TECH": "TRAK", "ADVNR": 24, "ATCFID": "WP192024", "NAME": "JEBI", "FTECH": "JTWC", "FCST_DTG": "2024-10-02 06:00:00", "RUN_DTG": "2024-10-02 21:55:46", "BASIN": "WP", "STMNR": 19, "CAT_ID": null, "CAT_DESC": null, "MSGID": "WTPN52 PGTW 020900", "VALIDTIME": "2024-09-26 12:00:00" }, "geometry": { "type": "Point", "coordinates": [ 146.800003, 17.200001 ] } },
{ "type": "Feature", "properties": { "ID": 262820, "LAT": 17.8, "LON": 146.1, "VMAX": 30.0, "MSLP": 1004.0, "RMAX": 100.0, "FSPD": 4.66724, "FDIR": 289.30972, "RENV": 150.0, "PENV": 1010.0, "VALIDT": 0, "DTG": "2024-09-26 18:00", "LATNOW": 44.9, "LONNOW": 152.5, "WINDNOW": 55.0, "DIRNOW": 21.0, "SPDNOW": 1.0, "TECH": "TRAK", "ADVNR": 24, "ATCFID": "WP192024", "NAME": "JEBI", "FTECH": "JTWC", "FCST_DTG": "2024-10-02 06:00:00", "RUN_DTG": "2024-10-02 21:55:46", "BASIN": "WP", "STMNR": 19, "CAT_ID": null, "CAT_DESC": null, "MSGID": "WTPN52 PGTW 020900", "VALIDTIME": "2024-09-26 18:00:00" }, "geometry": { "type": "Point", "coordinates": [ 146.100006, 17.799999 ] } },
{ "type": "Feature", "properties": { "ID": 262821, "LAT": 18.1, "LON": 145.2, "VMAX": 35.0, "MSLP": 1004.0, "RMAX": 40.0, "FSPD": 2.20904, "FDIR": 297.75946, "RENV": 130.0, "PENV": 1008.0, "VALIDT": 0, "DTG": "2024-09-27 00:00", "LATNOW": 44.9, "LONNOW": 152.5, "WINDNOW": 55.0, "DIRNOW": 21.0, "SPDNOW": 1.0, "TECH": "TRAK", "ADVNR": 24, "ATCFID": "WP192024", "NAME": "JEBI", "FTECH": "JTWC", "FCST_DTG": "2024-10-02 06:00:00", "RUN_DTG": "2024-10-02 21:55:46", "BASIN": "WP", "STMNR": 19, "CAT_ID": null, "CAT_DESC": null, "MSGID": "WTPN52 PGTW 020900", "VALIDTIME": "2024-09-27 00:00:00" }, "geometry": { "type": "Point", "coordinates": [ 145.199997, 18.1 ] } },
{ "type": "Feature", "properties": { "ID": 262822, "LAT": 18.3, "LON": 144.8, "VMAX": 35.0, "MSLP": 1004.0, "RMAX": 40.0, "FSPD": 0.70925, "FDIR": 43.5029, "RENV": 140.0, "PENV": 1010.0, "VALIDT": 0, "DTG": "2024-09-27 06:00", "LATNOW": 44.9, "LONNOW": 152.5, "WINDNOW": 55.0, "DIRNOW": 21.0, "SPDNOW": 1.0, "TECH": "TRAK", "ADVNR": 24, "ATCFID": "WP192024", "NAME": "JEBI", "FTECH": "JTWC", "FCST_DTG": "2024-10-02 06:00:00", "RUN_DTG": "2024-10-02 21:55:46", "BASIN": "WP", "STMNR": 19, "CAT_ID": null, "CAT_DESC": null, "MSGID": "WTPN52 PGTW 020900", "VALIDTIME": "2024-09-27 06:00:00" }, "geometry": { "type": "Point", "coordinates": [ 144.800003, 18.299999 ] } },
{ "type": "Feature", "properties": { "ID": 262823, "LAT": 18.4, "LON": 144.9, "VMAX": 40.0, "MSLP": 1002.0, "RMAX": 40.0, "FSPD": 5.50049, "FDIR": 339.2719, "RENV": 135.0, "PENV": 1007.0, "VALIDT": 0, "DTG": "2024-09-27 12:00", "LATNOW": 44.9, "LONNOW": 152.5, "WINDNOW": 55.0, "DIRNOW": 21.0, "SPDNOW": 1.0, "TECH": "TRAK", "ADVNR": 24, "ATCFID": "WP192024", "NAME": "JEBI", "FTECH": "JTWC", "FCST_DTG": "2024-10-02 06:00:00", "RUN_DTG": "2024-10-02 21:55:46", "BASIN": "WP", "STMNR": 19, "CAT_ID": null, "CAT_DESC": null, "MSGID": "WTPN52 PGTW 020900", "VALIDTIME": "2024-09-27 12:00:00" }, "geometry": { "type": "Point", "coordinates": [ 144.899994, 18.4 ] } },
{ "type": "Feature", "properties": { "ID": 262824, "LAT": 19.4, "LON": 144.5, "VMAX": 35.0, "MSLP": 1001.0, "RMAX": 40.0, "FSPD": 6.58079, "FDIR": 297.9721, "RENV": 135.0, "PENV": 1010.0, "VALIDT": 0, "DTG": "2024-09-27 18:00", "LATNOW": 44.9, "LONNOW": 152.5, "WINDNOW": 55.0, "DIRNOW": 21.0, "SPDNOW": 1.0, "TECH": "TRAK", "ADVNR": 24, "ATCFID": "WP192024", "NAME": "JEBI", "FTECH": "JTWC", "FCST_DTG": "2024-10-02 06:00:00", "RUN_DTG": "2024-10-02 21:55:46", "BASIN": "WP", "STMNR": 19, "CAT_ID": null, "CAT_DESC": null, "MSGID": "WTPN52 PGTW 020900", "VALIDTIME": "2024-09-27 18:00:00" }, "geometry": { "type": "Point", "coordinates": [ 144.5, 19.4 ] } },
{ "type": "Feature", "properties": { "ID": 262825, "LAT": 20.0, "LON": 143.3, "VMAX": 35.0, "MSLP": 1001.0, "RMAX": 50.0, "FSPD": 4.08541, "FDIR": 331.8187, "RENV": 135.0, "PENV": 1010.0, "VALIDT": 0, "DTG": "2024-09-28 00:00", "LATNOW": 44.9, "LONNOW": 152.5, "WINDNOW": 55.0, "DIRNOW": 21.0, "SPDNOW": 1.0, "TECH": "TRAK", "ADVNR": 24, "ATCFID": "WP192024", "NAME": "JEBI", "FTECH": "JTWC", "FCST_DTG": "2024-10-02 06:00:00", "RUN_DTG": "2024-10-02 21:55:46", "BASIN": "WP", "STMNR": 19, "CAT_ID": null, "CAT_DESC": null, "MSGID": "WTPN52 PGTW 020900", "VALIDTIME": "2024-09-28 00:00:00" }, "geometry": { "type": "Point", "coordinates": [ 143.300003, 20.0 ] } },
{ "type": "Feature", "properties": { "ID": 262826, "LAT": 20.7, "LON": 142.9, "VMAX": 30.0, "MSLP": 1001.0, "RMAX": 50.0, "FSPD": 3.72692, "FDIR": 345.06976, "RENV": 135.0, "PENV": 1010.0, "VALIDT": 0, "DTG": "2024-09-28 06:00", "LATNOW": 44.9, "LONNOW": 152.5, "WINDNOW": 55.0, "DIRNOW": 21.0, "SPDNOW": 1.0, "TECH": "TRAK", "ADVNR": 24, "ATCFID": "WP192024", "NAME": "JEBI", "FTECH": "JTWC", "FCST_DTG": "2024-10-02 06:00:00", "RUN_DTG": "2024-10-02 21:55:46", "BASIN": "WP", "STMNR": 19, "CAT_ID": null, "CAT_DESC": null, "MSGID": "WTPN52 PGTW 020900", "VALIDTIME": "2024-09-28 06:00:00" }, "geometry": { "type": "Point", "coordinates": [ 142.899994, 20.700001 ] } },
{ "type": "Feature", "properties": { "ID": 262827, "LAT": 21.4, "LON": 142.7, "VMAX": 30.0, "MSLP": 1000.0, "RMAX": 50.0, "FSPD": 5.25168, "FDIR": 313.2912, "RENV": 135.0, "PENV": 1010.0, "VALIDT": 0, "DTG": "2024-09-28 12:00", "LATNOW": 44.9, "LONNOW": 152.5, "WINDNOW": 55.0, "DIRNOW": 21.0, "SPDNOW": 1.0, "TECH": "TRAK", "ADVNR": 24, "ATCFID": "WP192024", "NAME": "JEBI", "FTECH": "JTWC", "FCST_DTG": "2024-10-02 06:00:00", "RUN_DTG": "2024-10-02 21:55:46", "BASIN": "WP", "STMNR": 19, "CAT_ID": null, "CAT_DESC": null, "MSGID": "WTPN52 PGTW 020900", "VALIDTIME": "2024-09-28 12:00:00" }, "geometry": { "type": "Point", "coordinates": [ 142.699997, 21.4 ] } },
{ "type": "Feature", "properties": { "ID": 262828, "LAT": 22.1, "LON": 141.9, "VMAX": 30.0, "MSLP": 1000.0, "RMAX": 45.0, "FSPD": 2.50463, "FDIR": 325.244, "RENV": 135.0, "PENV": 1010.0, "VALIDT": 0, "DTG": "2024-09-28 18:00", "LATNOW": 44.9, "LONNOW": 152.5, "WINDNOW": 55.0, "DIRNOW": 21.0, "SPDNOW": 1.0, "TECH": "TRAK", "ADVNR": 24, "ATCFID": "WP192024", "NAME": "JEBI", "FTECH": "JTWC", "FCST_DTG": "2024-10-02 06:00:00", "RUN_DTG": "2024-10-02 21:55:46", "BASIN": "WP", "STMNR": 19, "CAT_ID": null, "CAT_DESC": null, "MSGID": "WTPN52 PGTW 020900", "VALIDTIME": "2024-09-28 18:00:00" }, "geometry": { "type": "Point", "coordinates": [ 141.899994, 22.1 ] } },
{ "type": "Feature", "properties": { "ID": 262829, "LAT": 22.5, "LON": 141.6, "VMAX": 30.0, "MSLP": 1002.0, "RMAX": 60.0, "FSPD": 7.58034, "FDIR": 341.8269, "RENV": 135.0, "PENV": 1010.0, "VALIDT": 0, "DTG": "2024-09-29 00:00", "LATNOW": 44.9, "LONNOW": 152.5, "WINDNOW": 55.0, "DIRNOW": 21.0, "SPDNOW": 1.0, "TECH": "TRAK", "ADVNR": 24, "ATCFID": "WP192024", "NAME": "JEBI", "FTECH": "JTWC", "FCST_DTG": "2024-10-02 06:00:00", "RUN_DTG": "2024-10-02 21:55:46", "BASIN": "WP", "STMNR": 19, "CAT_ID": null, "CAT_DESC": null, "MSGID": "WTPN52 PGTW 020900", "VALIDTIME": "2024-09-29 00:00:00" }, "geometry": { "type": "Point", "coordinates": [ 141.600006, 22.5 ] } },
{ "type": "Feature", "properties": { "ID": 262830, "LAT": 23.9, "LON": 141.1, "VMAX": 35.0, "MSLP": 1001.0, "RMAX": 60.0, "FSPD": 4.06058, "FDIR": 332.47964, "RENV": 75.0, "PENV": 1008.0, "VALIDT": 0, "DTG": "2024-09-29 06:00", "LATNOW": 44.9, "LONNOW": 152.5, "WINDNOW": 55.0, "DIRNOW": 21.0, "SPDNOW": 1.0, "TECH": "TRAK", "ADVNR": 24, "ATCFID": "WP192024", "NAME": "JEBI", "FTECH": "JTWC", "FCST_DTG": "2024-10-02 06:00:00", "RUN_DTG": "2024-10-02 21:55:46", "BASIN": "WP", "STMNR": 19, "CAT_ID": null, "CAT_DESC": null, "MSGID": "WTPN52 PGTW 020900", "VALIDTIME": "2024-09-29 06:00:00" }, "geometry": { "type": "Point", "coordinates": [ 141.100006, 23.9 ] } },
{ "type": "Feature", "properties": { "ID": 262831, "LAT": 24.6, "LON": 140.7, "VMAX": 35.0, "MSLP": 999.0, "RMAX": 45.0, "FSPD": 3.08667, "FDIR": 360.0, "RENV": 150.0, "PENV": 1008.0, "VALIDT": 0, "DTG": "2024-09-29 12:00", "LATNOW": 44.9, "LONNOW": 152.5, "WINDNOW": 55.0, "DIRNOW": 21.0, "SPDNOW": 1.0, "TECH": "TRAK", "ADVNR": 24, "ATCFID": "WP192024", "NAME": "JEBI", "FTECH": "JTWC", "FCST_DTG": "2024-10-02 06:00:00", "RUN_DTG": "2024-10-02 21:55:46", "BASIN": "WP", "STMNR": 19, "CAT_ID": null, "CAT_DESC": null, "MSGID": "WTPN52 PGTW 020900", "VALIDTIME": "2024-09-29 12:00:00" }, "geometry": { "type": "Point", "coordinates": [ 140.699997, 24.6 ] } },
{ "type": "Feature", "properties": { "ID": 262832, "LAT": 25.2, "LON": 140.7, "VMAX": 40.0, "MSLP": 999.0, "RMAX": 45.0, "FSPD": 3.86232, "FDIR": 323.0511, "RENV": 150.0, "PENV": 1008.0, "VALIDT": 0, "DTG": "2024-09-29 18:00", "LATNOW": 44.9, "LONNOW": 152.5, "WINDNOW": 55.0, "DIRNOW": 21.0, "SPDNOW": 1.0, "TECH": "TRAK", "ADVNR": 24, "ATCFID": "WP192024", "NAME": "JEBI", "FTECH": "JTWC", "FCST_DTG": "2024-10-02 06:00:00", "RUN_DTG": "2024-10-02 21:55:46", "BASIN": "WP", "STMNR": 19, "CAT_ID": null, "CAT_DESC": null, "MSGID": "WTPN52 PGTW 020900", "VALIDTIME": "2024-09-29 18:00:00" }, "geometry": { "type": "Point", "coordinates": [ 140.699997, 25.200001 ] } },
{ "type": "Feature", "properties": { "ID": 262833, "LAT": 25.8, "LON": 140.2, "VMAX": 35.0, "MSLP": 993.0, "RMAX": 50.0, "FSPD": 10.95823, "FDIR": 9.64499, "RENV": 160.0, "PENV": 1008.0, "VALIDT": 0, "DTG": "2024-09-30 00:00", "LATNOW": 44.9, "LONNOW": 152.5, "WINDNOW": 55.0, "DIRNOW": 21.0, "SPDNOW": 1.0, "TECH": "TRAK", "ADVNR": 24, "ATCFID": "WP192024", "NAME": "JEBI", "FTECH": "JTWC", "FCST_DTG": "2024-10-02 06:00:00", "RUN_DTG": "2024-10-02 21:55:46", "BASIN": "WP", "STMNR": 19, "CAT_ID": null, "CAT_DESC": null, "MSGID": "WTPN52 PGTW 020900", "VALIDTIME": "2024-09-30 00:00:00" }, "geometry": { "type": "Point", "coordinates": [ 140.199997, 25.799999 ] } },
{ "type": "Feature", "properties": { "ID": 262834, "LAT": 27.9, "LON": 140.6, "VMAX": 45.0, "MSLP": 1000.0, "RMAX": 40.0, "FSPD": 7.32857, "FDIR": 10.6546, "RENV": 220.0, "PENV": 1010.0, "VALIDT": 0, "DTG": "2024-09-30 06:00", "LATNOW": 44.9, "LONNOW": 152.5, "WINDNOW": 55.0, "DIRNOW": 21.0, "SPDNOW": 1.0, "TECH": "TRAK", "ADVNR": 24, "ATCFID": "WP192024", "NAME": "JEBI", "FTECH": "JTWC", "FCST_DTG": "2024-10-02 06:00:00", "RUN_DTG": "2024-10-02 21:55:46", "BASIN": "WP", "STMNR": 19, "CAT_ID": null, "CAT_DESC": null, "MSGID": "WTPN52 PGTW 020900", "VALIDTIME": "2024-09-30 06:00:00" }, "geometry": { "type": "Point", "coordinates": [ 140.600006, 27.9 ] } },
{ "type": "Feature", "properties": { "ID": 262835, "LAT": 29.3, "LON": 140.9, "VMAX": 45.0, "MSLP": 993.0, "RMAX": 30.0, "FSPD": 7.83145, "FDIR": 9.82166, "RENV": 160.0, "PENV": 1008.0, "VALIDT": 0, "DTG": "2024-09-30 12:00", "LATNOW": 44.9, "LONNOW": 152.5, "WINDNOW": 55.0, "DIRNOW": 21.0, "SPDNOW": 1.0, "TECH": "TRAK", "ADVNR": 24, "ATCFID": "WP192024", "NAME": "JEBI", "FTECH": "JTWC", "FCST_DTG": "2024-10-02 06:00:00", "RUN_DTG": "2024-10-02 21:55:46", "BASIN": "WP", "STMNR": 19, "CAT_ID": null, "CAT_DESC": null, "MSGID": "WTPN52 PGTW 020900", "VALIDTIME": "2024-09-30 12:00:00" }, "geometry": { "type": "Point", "coordinates": [ 140.899994, 29.299999 ] } },
{ "type": "Feature", "properties": { "ID": 262836, "LAT": 30.8, "LON": 141.2, "VMAX": 55.0, "MSLP": 993.0, "RMAX": 25.0, "FSPD": 10.0162, "FDIR": 12.61365, "RENV": 160.0, "PENV": 1008.0, "VALIDT": 0, "DTG": "2024-09-30 18:00", "LATNOW": 44.9, "LONNOW": 152.5, "WINDNOW": 55.0, "DIRNOW": 21.0, "SPDNOW": 1.0, "TECH": "TRAK", "ADVNR": 24, "ATCFID": "WP192024", "NAME": "JEBI", "FTECH": "JTWC", "FCST_DTG": "2024-10-02 06:00:00", "RUN_DTG": "2024-10-02 21:55:46", "BASIN": "WP", "STMNR": 19, "CAT_ID": null, "CAT_DESC": null, "MSGID": "WTPN52 PGTW 020900", "VALIDTIME": "2024-09-30 18:00:00" }, "geometry": { "type": "Point", "coordinates": [ 141.199997, 30.799999 ] } },
{ "type": "Feature", "properties": { "ID": 262837, "LAT": 32.7, "LON": 141.7, "VMAX": 70.0, "MSLP": 986.0, "RMAX": 25.0, "FSPD": 11.104, "FDIR": 13.36377, "RENV": 155.0, "PENV": 1008.0, "VALIDT": 0, "DTG": "2024-10-01 00:00", "LATNOW": 44.9, "LONNOW": 152.5, "WINDNOW": 55.0, "DIRNOW": 21.0, "SPDNOW": 1.0, "TECH": "TRAK", "ADVNR": 24, "ATCFID": "WP192024", "NAME": "JEBI", "FTECH": "JTWC", "FCST_DTG": "2024-10-02 06:00:00", "RUN_DTG": "2024-10-02 21:55:46", "BASIN": "WP", "STMNR": 19, "CAT_ID": null, "CAT_DESC": null, "MSGID": "WTPN52 PGTW 020900", "VALIDTIME": "2024-10-01 00:00:00" }, "geometry": { "type": "Point", "coordinates": [ 141.699997, 32.700001 ] } },
{ "type": "Feature", "properties": { "ID": 262838, "LAT": 34.8, "LON": 142.3, "VMAX": 65.0, "MSLP": 993.434, "RMAX": 34.7014, "FSPD": 13.48014, "FDIR": 23.66391, "RENV": 500.0, "PENV": 1012.0, "VALIDT": 0, "DTG": "2024-10-01 06:00", "LATNOW": 44.9, "LONNOW": 152.5, "WINDNOW": 55.0, "DIRNOW": 21.0, "SPDNOW": 1.0, "TECH": "TRAK", "ADVNR": 24, "ATCFID": "WP192024", "NAME": "JEBI", "FTECH": "JTWC", "FCST_DTG": "2024-10-02 06:00:00", "RUN_DTG": "2024-10-02 21:55:46", "BASIN": "WP", "STMNR": 19, "CAT_ID": null, "CAT_DESC": null, "MSGID": "WTPN52 PGTW 020900", "VALIDTIME": "2024-10-01 06:00:00" }, "geometry": { "type": "Point", "coordinates": [ 142.300003, 34.799999 ] } },
{ "type": "Feature", "properties": { "ID": 262839, "LAT": 37.2, "LON": 143.6, "VMAX": 50.0, "MSLP": 993.0, "RMAX": 25.0, "FSPD": 11.95153, "FDIR": 35.13086, "RENV": 160.0, "PENV": 1008.0, "VALIDT": 0, "DTG": "2024-10-01 12:00", "LATNOW": 44.9, "LONNOW": 152.5, "WINDNOW": 55.0, "DIRNOW": 21.0, "SPDNOW": 1.0, "TECH": "TRAK", "ADVNR": 24, "ATCFID": "WP192024", "NAME": "JEBI", "FTECH": "JTWC", "FCST_DTG": "2024-10-02 06:00:00", "RUN_DTG": "2024-10-02 21:55:46", "BASIN": "WP", "STMNR": 19, "CAT_ID": null, "CAT_DESC": null, "MSGID": "WTPN52 PGTW 020900", "VALIDTIME": "2024-10-01 12:00:00" }, "geometry": { "type": "Point", "coordinates": [ 143.600006, 37.200001 ] } },
{ "type": "Feature", "properties": { "ID": 262840, "LAT": 39.1, "LON": 145.3, "VMAX": 60.0, "MSLP": 979.0, "RMAX": 15.0, "FSPD": 18.33227, "FDIR": 43.14557, "RENV": 170.0, "PENV": 1008.0, "VALIDT": 0, "DTG": "2024-10-01 18:00", "LATNOW": 44.9, "LONNOW": 152.5, "WINDNOW": 55.0, "DIRNOW": 21.0, "SPDNOW": 1.0, "TECH": "TRAK", "ADVNR": 24, "ATCFID": "WP192024", "NAME": "JEBI", "FTECH": "JTWC", "FCST_DTG": "2024-10-02 06:00:00", "RUN_DTG": "2024-10-02 21:55:46", "BASIN": "WP", "STMNR": 19, "CAT_ID": null, "CAT_DESC": null, "MSGID": "WTPN52 PGTW 020900", "VALIDTIME": "2024-10-01 18:00:00" }, "geometry": { "type": "Point", "coordinates": [ 145.300003, 39.099998 ] } },
{ "type": "Feature", "properties": { "ID": 262841, "LAT": 41.7, "LON": 148.5, "VMAX": 60.0, "MSLP": 981.0, "RMAX": 15.0, "FSPD": 22.25497, "FDIR": 42.29327, "RENV": 170.0, "PENV": 1008.0, "VALIDT": 0, "DTG": "2024-10-02 00:00", "LATNOW": 44.9, "LONNOW": 152.5, "WINDNOW": 55.0, "DIRNOW": 21.0, "SPDNOW": 1.0, "TECH": "TRAK", "ADVNR": 24, "ATCFID": "WP192024", "NAME": "JEBI", "FTECH": "JTWC", "FCST_DTG": "2024-10-02 06:00:00", "RUN_DTG": "2024-10-02 21:55:46", "BASIN": "WP", "STMNR": 19, "CAT_ID": null, "CAT_DESC": null, "MSGID": "WTPN52 PGTW 020900", "VALIDTIME": "2024-10-02 00:00:00" }, "geometry": { "type": "Point", "coordinates": [ 148.5, 41.700001 ] } },
{ "type": "Feature", "properties": { "ID": 262842, "LAT": 44.9, "LON": 152.5, "VMAX": 55.0, "MSLP": 976.0, "RMAX": 15.0, "FSPD": 21.40407, "FDIR": 43.85904, "RENV": 120.0, "PENV": 1003.0, "VALIDT": 0, "DTG": "2024-10-02 06:00", "LATNOW": 44.9, "LONNOW": 152.5, "WINDNOW": 55.0, "DIRNOW": 21.0, "SPDNOW": 1.0, "TECH": "TRAK", "ADVNR": 24, "ATCFID": "WP192024", "NAME": "JEBI", "FTECH": "JTWC", "FCST_DTG": "2024-10-02 06:00:00", "RUN_DTG": "2024-10-02 21:55:46", "BASIN": "WP", "STMNR": 19, "CAT_ID": null, "CAT_DESC": null, "MSGID": "WTPN52 PGTW 020900", "VALIDTIME": "2024-10-02 06:00:00" }, "geometry": { "type": "Point", "coordinates": [ 152.5, 44.900002 ] } },
{ "type": "Feature", "properties": { "ID": 262843, "LAT": 50.9, "LON": 161.1, "VMAX": 40.0, "MSLP": 1006.833, "RMAX": 21.28161, "FSPD": 16.44685, "FDIR": 64.02948, "RENV": 180.0, "PENV": 1012.0, "VALIDT": 12, "DTG": "2024-10-02 18:00", "LATNOW": 44.9, "LONNOW": 152.5, "WINDNOW": 55.0, "DIRNOW": 21.0, "SPDNOW": 1.0, "TECH": "FCST", "ADVNR": 24, "ATCFID": "WP192024", "NAME": "JEBI", "FTECH": "JTWC", "FCST_DTG": "2024-10-02 06:00:00", "RUN_DTG": "2024-10-02 21:55:46", "BASIN": "WP", "STMNR": 19, "CAT_ID": null, "CAT_DESC": null, "MSGID": "WTPN52 PGTW 020900", "VALIDTIME": "2024-10-02 18:00:00" }, "geometry": { "type": "Point", "coordinates": [ 161.100006, 50.900002 ] } },
{ "type": "Feature", "properties": { "ID": 262844, "LAT": 53.7, "LON": 170.5, "VMAX": 35.0, "MSLP": 1008.74713, "RMAX": 22.01649, "FSPD": 16.44685, "FDIR": 64.02948, "RENV": 250.0, "PENV": 1012.0, "VALIDT": 24, "DTG": "2024-10-03 06:00", "LATNOW": 44.9, "LONNOW": 152.5, "WINDNOW": 55.0, "DIRNOW": 21.0, "SPDNOW": 1.0, "TECH": "FCST", "ADVNR": 24, "ATCFID": "WP192024", "NAME": "JEBI", "FTECH": "JTWC", "FCST_DTG": "2024-10-02 06:00:00", "RUN_DTG": "2024-10-02 21:55:46", "BASIN": "WP", "STMNR": 19, "CAT_ID": null, "CAT_DESC": null, "MSGID": "WTPN52 PGTW 020900", "VALIDTIME": "2024-10-03 06:00:00" }, "geometry": { "type": "Point", "coordinates": [ 170.5, 53.700001 ] } },
{ "type": "Feature", "properties": { "ID": 262842, "LAT": 44.9, "LON": 152.5, "VMAX": 55.0, "MSLP": 976.0, "RMAX": 15.0, "FSPD": 21.40407, "FDIR": 43.85904, "RENV": 120.0, "PENV": 1003.0, "VALIDT": 0, "DTG": "2024-10-02 06:00", "LATNOW": 44.9, "LONNOW": 152.5, "WINDNOW": 55.0, "DIRNOW": 21.0, "SPDNOW": 1.0, "TECH": "TRAK", "ADVNR": 24, "ATCFID": "WP192024", "NAME": "JEBI", "FTECH": "JTWC", "FCST_DTG": "2024-10-02 06:00:00", "RUN_DTG": "2024-10-02 21:55:46", "BASIN": "WP", "STMNR": 19, "CAT_ID": null, "CAT_DESC": null, "MSGID": "WTPN52 PGTW 020900", "VALIDTIME": "2024-10-02 06:00:00" }, "geometry": { "type": "LineString", "coordinates": [ [ 150.0, 14.0 ], [ 149.6, 14.7 ], [ 149.2, 15.7 ], [ 148.5, 16.0 ], [ 147.7, 16.2 ], [ 146.6, 16.2 ], [ 146.8, 16.6 ], [ 146.8, 17.2 ], [ 146.1, 17.8 ], [ 145.2, 18.1 ], [ 144.8, 18.3 ], [ 144.9, 18.4 ], [ 144.5, 19.4 ], [ 143.3, 20.0 ], [ 142.9, 20.7 ], [ 142.7, 21.4 ], [ 141.9, 22.1 ], [ 141.6, 22.5 ], [ 141.1, 23.9 ], [ 140.7, 24.6 ], [ 140.7, 25.2 ], [ 140.2, 25.8 ], [ 140.6, 27.9 ], [ 140.9, 29.3 ], [ 141.2, 30.8 ], [ 141.7, 32.7 ], [ 142.3, 34.8 ], [ 143.6, 37.2 ], [ 145.3, 39.1 ], [ 148.5, 41.7 ], [ 152.5, 44.9 ] ] } },
{ "type": "Feature", "properties": { "ID": 262844, "LAT": 53.7, "LON": 170.5, "VMAX": 35.0, "MSLP": 1008.74713, "RMAX": 22.01649, "FSPD": 16.44685, "FDIR": 64.02948, "RENV": 250.0, "PENV": 1012.0, "VALIDT": 24, "DTG": "2024-10-03 06:00", "LATNOW": 44.9, "LONNOW": 152.5, "WINDNOW": 55.0, "DIRNOW": 21.0, "SPDNOW": 1.0, "TECH": "FCST", "ADVNR": 24, "ATCFID": "WP192024", "NAME": "JEBI", "FTECH": "JTWC", "FCST_DTG": "2024-10-02 06:00:00", "RUN_DTG": "2024-10-02 21:55:46", "BASIN": "WP", "STMNR": 19, "CAT_ID": null, "CAT_DESC": null, "MSGID": "WTPN52 PGTW 020900", "VALIDTIME": "2024-10-03 06:00:00" }, "geometry": { "type": "LineString", "coordinates": [ [ 152.5, 44.9 ], [ 161.1, 50.9 ], [ 170.5, 53.7 ] ] } }
]
}
