{
"type": "FeatureCollection",
"crs": { "type": "name", "properties": { "name": "urn:ogc:def:crs:OGC:1.3:CRS84" } },
"features": [
{ "type": "Feature", "properties": { "ID": 254942, "LAT": 19.3, "LON": -45.1, "VMAX": 35.0, "MSLP": 1006.0, "RMAX": 70.0, "FSPD": 3.43847, "FDIR": 261.39554, "RENV": 150.0, "PENV": 1011.0, "VALIDT": 0, "DTG": "2024-09-15 12:00", "LATNOW": 19.3, "LONNOW": -49.1, "WINDNOW": 30.0, "DIRNOW": 2.0, "SPDNOW": 2.0, "TECH": "TRAK", "ADVNR": 25, "ATCFID": "AL072024", "NAME": "GORDON", "FTECH": "OFCL", "FCST_DTG": "2024-09-17 12:00:00", "RUN_DTG": "2024-09-18 02:47:08", "BASIN": "AL", "STMNR": 7, "CAT_ID": null, "CAT_DESC": null, "MSGID": "WTNT22 KNHC 171457", "VALIDTIME": "2024-09-15 12:00:00" }, "geometry": { "type": "Point", "coordinates": [ -45.099998, 19.299999 ] } },
{ "type": "Feature", "properties": { "ID": 254943, "LAT": 19.2, "LON": -45.8, "VMAX": 30.0, "MSLP": 1007.0, "RMAX": 70.0, "FSPD": 3.44052, "FDIR": 261.4005, "RENV": 150.0, "PENV": 1012.0, "VALIDT": 0, "DTG": "2024-09-15 18:00", "LATNOW": 19.3, "LONNOW": -49.1, "WINDNOW": 30.0, "DIRNOW": 2.0, "SPDNOW": 2.0, "TECH": "TRAK", "ADVNR": 25, "ATCFID": "AL072024", "NAME": "GORDON", "FTECH": "OFCL", "FCST_DTG": "2024-09-17 12:00:00", "RUN_DTG": "2024-09-18 02:47:08", "BASIN": "AL", "STMNR": 7, "CAT_ID": null, "CAT_DESC": null, "MSGID": "WTNT22 KNHC 171457", "VALIDTIME": "2024-09-15 18:00:00" }, "geometry": { "type": "Point", "coordinates": [ -45.799999, 19.200001 ] } },
{ "type": "Feature", "properties": { "ID": 254944, "LAT": 19.1, "LON": -46.5, "VMAX": 30.0, "MSLP": 1007.0, "RMAX": 70.0, "FSPD": 3.44052, "FDIR": 278.59943, "RENV": 150.0, "PENV": 1012.0, "VALIDT": 0, "DTG": "2024-09-16 00:00", "LATNOW": 19.3, "LONNOW": -49.1, "WINDNOW": 30.0, "DIRNOW": 2.0, "SPDNOW": 2.0, "TECH": "TRAK", "ADVNR": 25, "ATCFID": "AL072024", "NAME": "GORDON", "FTECH": "OFCL", "FCST_DTG": "2024-09-17 12:00:00", "RUN_DTG": "2024-09-18 02:47:08", "BASIN": "AL", "STMNR": 7, "CAT_ID": null, "CAT_DESC": null, "MSGID": "WTNT22 KNHC 171457", "VALIDTIME": "2024-09-16 00:00:00" }, "geometry": { "type": "Point", "coordinates": [ -46.5, 19.1 ] } },
{ "type": "Feature", "properties": { "ID": 254945, "LAT": 19.2, "LON": -47.2, "VMAX": 25.0, "MSLP": 1007.0, "RMAX": 70.0, "FSPD": 2.96089, "FDIR": 259.9942, "RENV": 160.0, "PENV": 1012.0, "VALIDT": 0, "DTG": "2024-09-16 06:00", "LATNOW": 19.3, "LONNOW": -49.1, "WINDNOW": 30.0, "DIRNOW": 2.0, "SPDNOW": 2.0, "TECH": "TRAK", "ADVNR": 25, "ATCFID": "AL072024", "NAME": "GORDON", "FTECH": "OFCL", "FCST_DTG": "2024-09-17 12:00:00", "RUN_DTG": "2024-09-18 02:47:08", "BASIN": "AL", "STMNR": 7, "CAT_ID": null, "CAT_DESC": null, "MSGID": "WTNT22 KNHC 171457", "VALIDTIME": "2024-09-16 06:00:00" }, "geometry": { "type": "Point", "coordinates": [ -47.200001, 19.200001 ] } },
{ "type": "Feature", "properties": { "ID": 254946, "LAT": 19.1, "LON": -47.8, "VMAX": 30.0, "MSLP": 1007.0, "RMAX": 70.0, "FSPD": 2.48518, "FDIR": 258.05304, "RENV": 160.0, "PENV": 1012.0, "VALIDT": 0, "DTG": "2024-09-16 12:00", "LATNOW": 19.3, "LONNOW": -49.1, "WINDNOW": 30.0, "DIRNOW": 2.0, "SPDNOW": 2.0, "TECH": "TRAK", "ADVNR": 25, "ATCFID": "AL072024", "NAME": "GORDON", "FTECH": "OFCL", "FCST_DTG": "2024-09-17 12:00:00", "RUN_DTG": "2024-09-18 02:47:08", "BASIN": "AL", "STMNR": 7, "CAT_ID": null, "CAT_DESC": null, "MSGID": "WTNT22 KNHC 171457", "VALIDTIME": "2024-09-16 12:00:00" }, "geometry": { "type": "Point", "coordinates": [ -47.799999, 19.1 ] } },
{ "type": "Feature", "properties": { "ID": 254947, "LAT": 19.0, "LON": -48.3, "VMAX": 30.0, "MSLP": 1006.0, "RMAX": 60.0, "FSPD": 2.48661, "FDIR": 258.06, "RENV": 150.0, "PENV": 1011.0, "VALIDT": 0, "DTG": "2024-09-16 18:00", "LATNOW": 19.3, "LONNOW": -49.1, "WINDNOW": 30.0, "DIRNOW": 2.0, "SPDNOW": 2.0, "TECH": "TRAK", "ADVNR": 25, "ATCFID": "AL072024", "NAME": "GORDON", "FTECH": "OFCL", "FCST_DTG": "2024-09-17 12:00:00", "RUN_DTG": "2024-09-18 02:47:08", "BASIN": "AL", "STMNR": 7, "CAT_ID": null, "CAT_DESC": null, "MSGID": "WTNT22 KNHC 171457", "VALIDTIME": "2024-09-16 18:00:00" }, "geometry": { "type": "Point", "coordinates": [ -48.299999, 19.0 ] } },
{ "type": "Feature", "properties": { "ID": 254948, "LAT": 18.9, "LON": -48.8, "VMAX": 30.0, "MSLP": 1006.0, "RMAX": 60.0, "FSPD": 0.97342, "FDIR": 269.99997, "RENV": 150.0, "PENV": 1011.0, "VALIDT": 0, "DTG": "2024-09-17 00:00", "LATNOW": 19.3, "LONNOW": -49.1, "WINDNOW": 30.0, "DIRNOW": 2.0, "SPDNOW": 2.0, "TECH": "TRAK", "ADVNR": 25, "ATCFID": "AL072024", "NAME": "GORDON", "FTECH": "OFCL", "FCST_DTG": "2024-09-17 12:00:00", "RUN_DTG": "2024-09-18 02:47:08", "BASIN": "AL", "STMNR": 7, "CAT_ID": null, "CAT_DESC": null, "MSGID": "WTNT22 KNHC 171457", "VALIDTIME": "2024-09-17 00:00:00" }, "geometry": { "type": "Point", "coordinates": [ -48.799999, 18.9 ] } },
{ "type": "Feature", "properties": { "ID": 254949, "LAT": 18.9, "LON": -49.0, "VMAX": 30.0, "MSLP": 1006.0, "RMAX": 60.0, "FSPD": 2.11441, "FDIR": 346.70847, "RENV": 150.0, "PENV": 1011.0, "VALIDT": 0, "DTG": "2024-09-17 06:00", "LATNOW": 19.3, "LONNOW": -49.1, "WINDNOW": 30.0, "DIRNOW": 2.0, "SPDNOW": 2.0, "TECH": "TRAK", "ADVNR": 25, "ATCFID": "AL072024", "NAME": "GORDON", "FTECH": "OFCL", "FCST_DTG": "2024-09-17 12:00:00", "RUN_DTG": "2024-09-18 02:47:08", "BASIN": "AL", "STMNR": 7, "CAT_ID": null, "CAT_DESC": null, "MSGID": "WTNT22 KNHC 171457", "VALIDTIME": "2024-09-17 06:00:00" }, "geometry": { "type": "Point", "coordinates": [ -49.0, 18.9 ] } },
{ "type": "Feature", "properties": { "ID": 254923, "LAT": 14.0, "LON": -22.5, "VMAX": 20.0, "MSLP": 1009.0, "RMAX": 40.0, "FSPD": 8.09949, "FDIR": 300.53903, "RENV": 70.0, "PENV": 1010.0, "VALIDT": 0, "DTG": "2024-09-10 18:00", "LATNOW": 19.3, "LONNOW": -49.1, "WINDNOW": 30.0, "DIRNOW": 2.0, "SPDNOW": 2.0, "TECH": "TRAK", "ADVNR": 25, "ATCFID": "AL072024", "NAME": "GORDON", "FTECH": "OFCL", "FCST_DTG": "2024-09-17 12:00:00", "RUN_DTG": "2024-09-18 02:47:08", "BASIN": "AL", "STMNR": 7, "CAT_ID": null, "CAT_DESC": null, "MSGID": "WTNT22 KNHC 171457", "VALIDTIME": "2024-09-10 18:00:00" }, "geometry": { "type": "Point", "coordinates": [ -22.5, 14.0 ] } },
{ "type": "Feature", "properties": { "ID": 254924, "LAT": 14.8, "LON": -23.9, "VMAX": 20.0, "MSLP": 1009.0, "RMAX": 60.0, "FSPD": 8.94604, "FDIR": 297.38983, "RENV": 100.0, "PENV": 1010.0, "VALIDT": 0, "DTG": "2024-09-11 00:00", "LATNOW": 19.3, "LONNOW": -49.1, "WINDNOW": 30.0, "DIRNOW": 2.0, "SPDNOW": 2.0, "TECH": "TRAK", "ADVNR": 25, "ATCFID": "AL072024", "NAME": "GORDON", "FTECH": "OFCL", "FCST_DTG": "2024-09-17 12:00:00", "RUN_DTG": "2024-09-18 02:47:08", "BASIN": "AL", "STMNR": 7, "CAT_ID": null, "CAT_DESC": null, "MSGID": "WTNT22 KNHC 171457", "VALIDTIME": "2024-09-11 00:00:00" }, "geometry": { "type": "Point", "coordinates": [ -23.9, 14.8 ] } },
{ "type": "Feature", "properties": { "ID": 254925, "LAT": 15.6, "LON": -25.5, "VMAX": 25.0, "MSLP": 1008.0, "RMAX": 60.0, "FSPD": 11.93048, "FDIR": 274.94733, "RENV": 100.0, "PENV": 1010.0, "VALIDT": 0, "DTG": "2024-09-11 06:00", "LATNOW": 19.3, "LONNOW": -49.1, "WINDNOW": 30.0, "DIRNOW": 2.0, "SPDNOW": 2.0, "TECH": "TRAK", "ADVNR": 25, "ATCFID": "AL072024", "NAME": "GORDON", "FTECH": "OFCL", "FCST_DTG": "2024-09-17 12:00:00", "RUN_DTG": "2024-09-18 02:47:08", "BASIN": "AL", "STMNR": 7, "CAT_ID": null, "CAT_DESC": null, "MSGID": "WTNT22 KNHC 171457", "VALIDTIME": "2024-09-11 06:00:00" }, "geometry": { "type": "Point", "coordinates": [ -25.5, 15.6 ] } },
{ "type": "Feature", "properties": { "ID": 254926, "LAT": 15.8, "LON": -27.9, "VMAX": 30.0, "MSLP": 1007.0, "RMAX": 15.0, "FSPD": 8.47366, "FDIR": 276.97415, "RENV": 100.0, "PENV": 1010.0, "VALIDT": 0, "DTG": "2024-09-11 12:00", "LATNOW": 19.3, "LONNOW": -49.1, "WINDNOW": 30.0, "DIRNOW": 2.0, "SPDNOW": 2.0, "TECH": "TRAK", "ADVNR": 25, "ATCFID": "AL072024", "NAME": "GORDON", "FTECH": "OFCL", "FCST_DTG": "2024-09-17 12:00:00", "RUN_DTG": "2024-09-18 02:47:08", "BASIN": "AL", "STMNR": 7, "CAT_ID": null, "CAT_DESC": null, "MSGID": "WTNT22 KNHC 171457", "VALIDTIME": "2024-09-11 12:00:00" }, "geometry": { "type": "Point", "coordinates": [ -27.9, 15.8 ] } },
{ "type": "Feature", "properties": { "ID": 254927, "LAT": 16.0, "LON": -29.6, "VMAX": 30.0, "MSLP": 1007.0, "RMAX": 15.0, "FSPD": 5.65043, "FDIR": 285.8509, "RENV": 100.0, "PENV": 1010.0, "VALIDT": 0, "DTG": "2024-09-11 18:00", "LATNOW": 19.3, "LONNOW": -49.1, "WINDNOW": 30.0, "DIRNOW": 2.0, "SPDNOW": 2.0, "TECH": "TRAK", "ADVNR": 25, "ATCFID": "AL072024", "NAME": "GORDON", "FTECH": "OFCL", "FCST_DTG": "2024-09-17 12:00:00", "RUN_DTG": "2024-09-18 02:47:08", "BASIN": "AL", "STMNR": 7, "CAT_ID": null, "CAT_DESC": null, "MSGID": "WTNT22 KNHC 171457", "VALIDTIME": "2024-09-11 18:00:00" }, "geometry": { "type": "Point", "coordinates": [ -29.6, 16.0 ] } },
{ "type": "Feature", "properties": { "ID": 254928, "LAT": 16.3, "LON": -30.7, "VMAX": 30.0, "MSLP": 1007.0, "RMAX": 15.0, "FSPD": 8.66931, "FDIR": 294.54364, "RENV": 100.0, "PENV": 1010.0, "VALIDT": 0, "DTG": "2024-09-12 00:00", "LATNOW": 19.3, "LONNOW": -49.1, "WINDNOW": 30.0, "DIRNOW": 2.0, "SPDNOW": 2.0, "TECH": "TRAK", "ADVNR": 25, "ATCFID": "AL072024", "NAME": "GORDON", "FTECH": "OFCL", "FCST_DTG": "2024-09-17 12:00:00", "RUN_DTG": "2024-09-18 02:47:08", "BASIN": "AL", "STMNR": 7, "CAT_ID": null, "CAT_DESC": null, "MSGID": "WTNT22 KNHC 171457", "VALIDTIME": "2024-09-12 00:00:00" }, "geometry": { "type": "Point", "coordinates": [ -30.700001, 16.299999 ] } },
{ "type": "Feature", "properties": { "ID": 254929, "LAT": 17.0, "LON": -32.3, "VMAX": 30.0, "MSLP": 1007.0, "RMAX": 15.0, "FSPD": 8.27103, "FDIR": 288.11902, "RENV": 100.0, "PENV": 1010.0, "VALIDT": 0, "DTG": "2024-09-12 06:00", "LATNOW": 19.3, "LONNOW": -49.1, "WINDNOW": 30.0, "DIRNOW": 2.0, "SPDNOW": 2.0, "TECH": "TRAK", "ADVNR": 25, "ATCFID": "AL072024", "NAME": "GORDON", "FTECH": "OFCL", "FCST_DTG": "2024-09-17 12:00:00", "RUN_DTG": "2024-09-18 02:47:08", "BASIN": "AL", "STMNR": 7, "CAT_ID": null, "CAT_DESC": null, "MSGID": "WTNT22 KNHC 171457", "VALIDTIME": "2024-09-12 06:00:00" }, "geometry": { "type": "Point", "coordinates": [ -32.299999, 17.0 ] } },
{ "type": "Feature", "properties": { "ID": 254930, "LAT": 17.5, "LON": -33.9, "VMAX": 30.0, "MSLP": 1007.0, "RMAX": 20.0, "FSPD": 7.96931, "FDIR": 292.78778, "RENV": 100.0, "PENV": 1011.0, "VALIDT": 0, "DTG": "2024-09-12 12:00", "LATNOW": 19.3, "LONNOW": -49.1, "WINDNOW": 30.0, "DIRNOW": 2.0, "SPDNOW": 2.0, "TECH": "TRAK", "ADVNR": 25, "ATCFID": "AL072024", "NAME": "GORDON", "FTECH": "OFCL", "FCST_DTG": "2024-09-17 12:00:00", "RUN_DTG": "2024-09-18 02:47:08", "BASIN": "AL", "STMNR": 7, "CAT_ID": null, "CAT_DESC": null, "MSGID": "WTNT22 KNHC 171457", "VALIDTIME": "2024-09-12 12:00:00" }, "geometry": { "type": "Point", "coordinates": [ -33.900002, 17.5 ] } },
{ "type": "Feature", "properties": { "ID": 254931, "LAT": 18.1, "LON": -35.4, "VMAX": 30.0, "MSLP": 1007.0, "RMAX": 20.0, "FSPD": 5.75328, "FDIR": 290.95715, "RENV": 100.0, "PENV": 1011.0, "VALIDT": 0, "DTG": "2024-09-12 18:00", "LATNOW": 19.3, "LONNOW": -49.1, "WINDNOW": 30.0, "DIRNOW": 2.0, "SPDNOW": 2.0, "TECH": "TRAK", "ADVNR": 25, "ATCFID": "AL072024", "NAME": "GORDON", "FTECH": "OFCL", "FCST_DTG": "2024-09-17 12:00:00", "RUN_DTG": "2024-09-18 02:47:08", "BASIN": "AL", "STMNR": 7, "CAT_ID": null, "CAT_DESC": null, "MSGID": "WTNT22 KNHC 171457", "VALIDTIME": "2024-09-12 18:00:00" }, "geometry": { "type": "Point", "coordinates": [ -35.400002, 18.1 ] } },
{ "type": "Feature", "properties": { "ID": 254932, "LAT": 18.5, "LON": -36.5, "VMAX": 30.0, "MSLP": 1007.0, "RMAX": 20.0, "FSPD": 6.04936, "FDIR": 284.78085, "RENV": 100.0, "PENV": 1011.0, "VALIDT": 0, "DTG": "2024-09-13 00:00", "LATNOW": 19.3, "LONNOW": -49.1, "WINDNOW": 30.0, "DIRNOW": 2.0, "SPDNOW": 2.0, "TECH": "TRAK", "ADVNR": 25, "ATCFID": "AL072024", "NAME": "GORDON", "FTECH": "OFCL", "FCST_DTG": "2024-09-17 12:00:00", "RUN_DTG": "2024-09-18 02:47:08", "BASIN": "AL", "STMNR": 7, "CAT_ID": null, "CAT_DESC": null, "MSGID": "WTNT22 KNHC 171457", "VALIDTIME": "2024-09-13 00:00:00" }, "geometry": { "type": "Point", "coordinates": [ -36.5, 18.5 ] } },
{ "type": "Feature", "properties": { "ID": 254933, "LAT": 18.8, "LON": -37.7, "VMAX": 30.0, "MSLP": 1007.0, "RMAX": 30.0, "FSPD": 3.57101, "FDIR": 305.18707, "RENV": 160.0, "PENV": 1011.0, "VALIDT": 0, "DTG": "2024-09-13 06:00", "LATNOW": 19.3, "LONNOW": -49.1, "WINDNOW": 30.0, "DIRNOW": 2.0, "SPDNOW": 2.0, "TECH": "TRAK", "ADVNR": 25, "ATCFID": "AL072024", "NAME": "GORDON", "FTECH": "OFCL", "FCST_DTG": "2024-09-17 12:00:00", "RUN_DTG": "2024-09-18 02:47:08", "BASIN": "AL", "STMNR": 7, "CAT_ID": null, "CAT_DESC": null, "MSGID": "WTNT22 KNHC 171457", "VALIDTIME": "2024-09-13 06:00:00" }, "geometry": { "type": "Point", "coordinates": [ -37.700001, 18.799999 ] } },
{ "type": "Feature", "properties": { "ID": 254934, "LAT": 19.2, "LON": -38.3, "VMAX": 35.0, "MSLP": 1006.0, "RMAX": 30.0, "FSPD": 3.55106, "FDIR": 286.84235, "RENV": 120.0, "PENV": 1012.0, "VALIDT": 0, "DTG": "2024-09-13 12:00", "LATNOW": 19.3, "LONNOW": -49.1, "WINDNOW": 30.0, "DIRNOW": 2.0, "SPDNOW": 2.0, "TECH": "TRAK", "ADVNR": 25, "ATCFID": "AL072024", "NAME": "GORDON", "FTECH": "OFCL", "FCST_DTG": "2024-09-17 12:00:00", "RUN_DTG": "2024-09-18 02:47:08", "BASIN": "AL", "STMNR": 7, "CAT_ID": null, "CAT_DESC": null, "MSGID": "WTNT22 KNHC 171457", "VALIDTIME": "2024-09-13 12:00:00" }, "geometry": { "type": "Point", "coordinates": [ -38.299999, 19.200001 ] } },
{ "type": "Feature", "properties": { "ID": 254935, "LAT": 19.4, "LON": -39.0, "VMAX": 35.0, "MSLP": 1006.0, "RMAX": 30.0, "FSPD": 4.38933, "FDIR": 297.95728, "RENV": 120.0, "PENV": 1012.0, "VALIDT": 0, "DTG": "2024-09-13 18:00", "LATNOW": 19.3, "LONNOW": -49.1, "WINDNOW": 30.0, "DIRNOW": 2.0, "SPDNOW": 2.0, "TECH": "TRAK", "ADVNR": 25, "ATCFID": "AL072024", "NAME": "GORDON", "FTECH": "OFCL", "FCST_DTG": "2024-09-17 12:00:00", "RUN_DTG": "2024-09-18 02:47:08", "BASIN": "AL", "STMNR": 7, "CAT_ID": null, "CAT_DESC": null, "MSGID": "WTNT22 KNHC 171457", "VALIDTIME": "2024-09-13 18:00:00" }, "geometry": { "type": "Point", "coordinates": [ -39.0, 19.4 ] } },
{ "type": "Feature", "properties": { "ID": 254936, "LAT": 19.8, "LON": -39.8, "VMAX": 40.0, "MSLP": 1004.0, "RMAX": 30.0, "FSPD": 3.07934, "FDIR": 289.51947, "RENV": 120.0, "PENV": 1012.0, "VALIDT": 0, "DTG": "2024-09-14 00:00", "LATNOW": 19.3, "LONNOW": -49.1, "WINDNOW": 30.0, "DIRNOW": 2.0, "SPDNOW": 2.0, "TECH": "TRAK", "ADVNR": 25, "ATCFID": "AL072024", "NAME": "GORDON", "FTECH": "OFCL", "FCST_DTG": "2024-09-17 12:00:00", "RUN_DTG": "2024-09-18 02:47:08", "BASIN": "AL", "STMNR": 7, "CAT_ID": null, "CAT_DESC": null, "MSGID": "WTNT22 KNHC 171457", "VALIDTIME": "2024-09-14 00:00:00" }, "geometry": { "type": "Point", "coordinates": [ -39.799999, 19.799999 ] } },
{ "type": "Feature", "properties": { "ID": 254937, "LAT": 20.0, "LON": -40.4, "VMAX": 40.0, "MSLP": 1004.0, "RMAX": 30.0, "FSPD": 3.9002, "FDIR": 277.57953, "RENV": 120.0, "PENV": 1012.0, "VALIDT": 0, "DTG": "2024-09-14 06:00", "LATNOW": 19.3, "LONNOW": -49.1, "WINDNOW": 30.0, "DIRNOW": 2.0, "SPDNOW": 2.0, "TECH": "TRAK", "ADVNR": 25, "ATCFID": "AL072024", "NAME": "GORDON", "FTECH": "OFCL", "FCST_DTG": "2024-09-17 12:00:00", "RUN_DTG": "2024-09-18 02:47:08", "BASIN": "AL", "STMNR": 7, "CAT_ID": null, "CAT_DESC": null, "MSGID": "WTNT22 KNHC 171457", "VALIDTIME": "2024-09-14 06:00:00" }, "geometry": { "type": "Point", "coordinates": [ -40.400002, 20.0 ] } },
{ "type": "Feature", "properties": { "ID": 254938, "LAT": 20.1, "LON": -41.2, "VMAX": 40.0, "MSLP": 1004.0, "RMAX": 40.0, "FSPD": 5.88428, "FDIR": 280.07007, "RENV": 120.0, "PENV": 1013.0, "VALIDT": 0, "DTG": "2024-09-14 12:00", "LATNOW": 19.3, "LONNOW": -49.1, "WINDNOW": 30.0, "DIRNOW": 2.0, "SPDNOW": 2.0, "TECH": "TRAK", "ADVNR": 25, "ATCFID": "AL072024", "NAME": "GORDON", "FTECH": "OFCL", "FCST_DTG": "2024-09-17 12:00:00", "RUN_DTG": "2024-09-18 02:47:08", "BASIN": "AL", "STMNR": 7, "CAT_ID": null, "CAT_DESC": null, "MSGID": "WTNT22 KNHC 171457", "VALIDTIME": "2024-09-14 12:00:00" }, "geometry": { "type": "Point", "coordinates": [ -41.200001, 20.1 ] } },
{ "type": "Feature", "properties": { "ID": 254939, "LAT": 20.3, "LON": -42.4, "VMAX": 40.0, "MSLP": 1004.0, "RMAX": 45.0, "FSPD": 6.34403, "FDIR": 246.0803, "RENV": 120.0, "PENV": 1011.0, "VALIDT": 0, "DTG": "2024-09-14 18:00", "LATNOW": 19.3, "LONNOW": -49.1, "WINDNOW": 30.0, "DIRNOW": 2.0, "SPDNOW": 2.0, "TECH": "TRAK", "ADVNR": 25, "ATCFID": "AL072024", "NAME": "GORDON", "FTECH": "OFCL", "FCST_DTG": "2024-09-17 12:00:00", "RUN_DTG": "2024-09-18 02:47:08", "BASIN": "AL", "STMNR": 7, "CAT_ID": null, "CAT_DESC": null, "MSGID": "WTNT22 KNHC 171457", "VALIDTIME": "2024-09-14 18:00:00" }, "geometry": { "type": "Point", "coordinates": [ -42.400002, 20.299999 ] } },
{ "type": "Feature", "properties": { "ID": 254940, "LAT": 19.8, "LON": -43.6, "VMAX": 35.0, "MSLP": 1006.0, "RMAX": 45.0, "FSPD": 4.00897, "FDIR": 255.12886, "RENV": 120.0, "PENV": 1011.0, "VALIDT": 0, "DTG": "2024-09-15 00:00", "LATNOW": 19.3, "LONNOW": -49.1, "WINDNOW": 30.0, "DIRNOW": 2.0, "SPDNOW": 2.0, "TECH": "TRAK", "ADVNR": 25, "ATCFID": "AL072024", "NAME": "GORDON", "FTECH": "OFCL", "FCST_DTG": "2024-09-17 12:00:00", "RUN_DTG": "2024-09-18 02:47:08", "BASIN": "AL", "STMNR": 7, "CAT_ID": null, "CAT_DESC": null, "MSGID": "WTNT22 KNHC 171457", "VALIDTIME": "2024-09-15 00:00:00" }, "geometry": { "type": "Point", "coordinates": [ -43.599998, 19.799999 ] } },
{ "type": "Feature", "properties": { "ID": 254941, "LAT": 19.6, "LON": -44.4, "VMAX": 35.0, "MSLP": 1006.0, "RMAX": 70.0, "FSPD": 3.72987, "FDIR": 245.55757, "RENV": 200.0, "PENV": 1011.0, "VALIDT": 0, "DTG": "2024-09-15 06:00", "LATNOW": 19.3, "LONNOW": -49.1, "WINDNOW": 30.0, "DIRNOW": 2.0, "SPDNOW": 2.0, "TECH": "TRAK", "ADVNR": 25, "ATCFID": "AL072024", "NAME": "GORDON", "FTECH": "OFCL", "FCST_DTG": "2024-09-17 12:00:00", "RUN_DTG": "2024-09-18 02:47:08", "BASIN": "AL", "STMNR": 7, "CAT_ID": null, "CAT_DESC": null, "MSGID": "WTNT22 KNHC 171457", "VALIDTIME": "2024-09-15 06:00:00" }, "geometry": { "type": "Point", "coordinates": [ -44.400002, 19.6 ] } },
{ "type": "Feature", "properties": { "ID": 254950, "LAT": 19.3, "LON": -49.1, "VMAX": 30.0, "MSLP": 1007.0, "RMAX": 60.0, "FSPD": 2.05779, "FDIR": 360.0, "RENV": 150.0, "PENV": 1011.0, "VALIDT": 0, "DTG": "2024-09-17 12:00", "LATNOW": 19.3, "LONNOW": -49.1, "WINDNOW": 30.0, "DIRNOW": 2.0, "SPDNOW": 2.0, "TECH": "TRAK", "ADVNR": 25, "ATCFID": "AL072024", "NAME": "GORDON", "FTECH": "OFCL", "FCST_DTG": "2024-09-17 12:00:00", "RUN_DTG": "2024-09-18 02:47:08", "BASIN": "AL", "STMNR": 7, "CAT_ID": null, "CAT_DESC": null, "MSGID": "WTNT22 KNHC 171457", "VALIDTIME": "2024-09-17 12:00:00" }, "geometry": { "type": "Point", "coordinates": [ -49.099998, 19.299999 ] } },
{ "type": "Feature", "properties": { "ID": 254951, "LAT": 19.5, "LON": -49.1, "VMAX": 25.0, "MSLP": 1007.0, "RMAX": 60.47576, "FSPD": 2.05779, "FDIR": 360.0, "RENV": 250.0, "PENV": 1012.0, "VALIDT": 3, "DTG": "2024-09-17 15:00", "LATNOW": 19.3, "LONNOW": -49.1, "WINDNOW": 30.0, "DIRNOW": 2.0, "SPDNOW": 2.0, "TECH": "FCST", "ADVNR": 25, "ATCFID": "AL072024", "NAME": "GORDON", "FTECH": "OFCL", "FCST_DTG": "2024-09-17 12:00:00", "RUN_DTG": "2024-09-18 02:47:08", "BASIN": "AL", "STMNR": 7, "CAT_ID": null, "CAT_DESC": null, "MSGID": "WTNT22 KNHC 171457", "VALIDTIME": "2024-09-17 15:00:00" }, "geometry": { "type": "Point", "coordinates": [ -49.099998, 19.5 ] } },
{ "type": "Feature", "properties": { "ID": 254950, "LAT": 19.3, "LON": -49.1, "VMAX": 30.0, "MSLP": 1007.0, "RMAX": 60.0, "FSPD": 2.05779, "FDIR": 360.0, "RENV": 150.0, "PENV": 1011.0, "VALIDT": 0, "DTG": "2024-09-17 12:00", "LATNOW": 19.3, "LONNOW": -49.1, "WINDNOW": 30.0, "DIRNOW": 2.0, "SPDNOW": 2.0, "TECH": "TRAK", "ADVNR": 25, "ATCFID": "AL072024", "NAME": "GORDON", "FTECH": "OFCL", "FCST_DTG": "2024-09-17 12:00:00", "RUN_DTG": "2024-09-18 02:47:08", "BASIN": "AL", "STMNR": 7, "CAT_ID": null, "CAT_DESC": null, "MSGID": "WTNT22 KNHC 171457", "VALIDTIME": "2024-09-17 12:00:00" }, "geometry": { "type": "LineString", "coordinates": [ [ -22.5, 14.0 ], [ -23.9, 14.8 ], [ -25.5, 15.6 ], [ -27.9, 15.8 ], [ -29.6, 16.0 ], [ -30.7, 16.3 ], [ -32.3, 17.0 ], [ -33.9, 17.5 ], [ -35.4, 18.1 ], [ -36.5, 18.5 ], [ -37.7, 18.8 ], [ -38.3, 19.2 ], [ -39.0, 19.4 ], [ -39.8, 19.8 ], [ -40.4, 20.0 ], [ -41.2, 20.1 ], [ -42.4, 20.3 ], [ -43.6, 19.8 ], [ -44.4, 19.6 ], [ -45.1, 19.3 ], [ -45.8, 19.2 ], [ -46.5, 19.1 ], [ -47.2, 19.2 ], [ -47.8, 19.1 ], [ -48.3, 19.0 ], [ -48.8, 18.9 ], [ -49.0, 18.9 ], [ -49.1, 19.3 ] ] } },
{ "type": "Feature", "properties": { "ID": 254951, "LAT": 19.5, "LON": -49.1, "VMAX": 25.0, "MSLP": 1007.0, "RMAX": 60.47576, "FSPD": 2.05779, "FDIR": 360.0, "RENV": 250.0, "PENV": 1012.0, "VALIDT": 3, "DTG": "2024-09-17 15:00", "LATNOW": 19.3, "LONNOW": -49.1, "WINDNOW": 30.0, "DIRNOW": 2.0, "SPDNOW": 2.0, "TECH": "FCST", "ADVNR": 25, "ATCFID": "AL072024", "NAME": "GORDON", "FTECH": "OFCL", "FCST_DTG": "2024-09-17 12:00:00", "RUN_DTG": "2024-09-18 02:47:08", "BASIN": "AL", "STMNR": 7, "CAT_ID": null, "CAT_DESC": null, "MSGID": "WTNT22 KNHC 171457", "VALIDTIME": "2024-09-17 15:00:00" }, "geometry": { "type": "LineString", "coordinates": [ [ -49.1, 19.3 ], [ -49.1, 19.5 ] ] } }
]
}
