{
"type": "FeatureCollection",
"crs": { "type": "name", "properties": { "name": "urn:ogc:def:crs:OGC:1.3:CRS84" } },
"features": [
{ "type": "Feature", "properties": { "ID": 73720, "LAT": 7.7, "LON": 142.2, "VMAX": 15.0, "MSLP": 1013.8515, "RMAX": 40.0, "FSPD": 4.34399, "FDIR": 315.28058, "RENV": 500.0, "PENV": 1012.0, "VALIDT": 0, "DTG": "2025-10-31 00:00", "LATNOW": 13.6, "LONNOW": 109.1, "WINDNOW": 100.0, "DIRNOW": 7.0, "SPDNOW": 3.0, "TECH": "TRAK", "ADVNR": 22, "ATCFID": "WP312025", "NAME": "KALMAEGI", "FTECH": "JTWC", "FCST_DTG": "2025-11-06 12:00:00", "RUN_DTG": "2025-11-07 06:26:07", "BASIN": "WP", "STMNR": 31, "CAT_ID": null, "CAT_DESC": null, "MSGID": "WTPN51 PGTW 061500", "VALIDTIME": "2025-10-31 00:00:00" }, "geometry": { "type": "Point", "coordinates": [ 142.199997, 7.7 ] } },
{ "type": "Feature", "properties": { "ID": 73721, "LAT": 8.3, "LON": 141.6, "VMAX": 15.0, "MSLP": 1013.8515, "RMAX": 40.0, "FSPD": 6.15889, "FDIR": 294.6859, "RENV": 500.0, "PENV": 1012.0, "VALIDT": 0, "DTG": "2025-10-31 06:00", "LATNOW": 13.6, "LONNOW": 109.1, "WINDNOW": 100.0, "DIRNOW": 7.0, "SPDNOW": 3.0, "TECH": "TRAK", "ADVNR": 22, "ATCFID": "WP312025", "NAME": "KALMAEGI", "FTECH": "JTWC", "FCST_DTG": "2025-11-06 12:00:00", "RUN_DTG": "2025-11-07 06:26:07", "BASIN": "WP", "STMNR": 31, "CAT_ID": null, "CAT_DESC": null, "MSGID": "WTPN51 PGTW 061500", "VALIDTIME": "2025-10-31 06:00:00" }, "geometry": { "type": "Point", "coordinates": [ 141.600006, 8.3 ] } },
{ "type": "Feature", "properties": { "ID": 73722, "LAT": 8.8, "LON": 140.5, "VMAX": 20.0, "MSLP": 1012.95825, "RMAX": 45.0, "FSPD": 3.70353, "FDIR": 286.1297, "RENV": 500.0, "PENV": 1012.0, "VALIDT": 0, "DTG": "2025-10-31 12:00", "LATNOW": 13.6, "LONNOW": 109.1, "WINDNOW": 100.0, "DIRNOW": 7.0, "SPDNOW": 3.0, "TECH": "TRAK", "ADVNR": 22, "ATCFID": "WP312025", "NAME": "KALMAEGI", "FTECH": "JTWC", "FCST_DTG": "2025-11-06 12:00:00", "RUN_DTG": "2025-11-07 06:26:07", "BASIN": "WP", "STMNR": 31, "CAT_ID": null, "CAT_DESC": null, "MSGID": "WTPN51 PGTW 061500", "VALIDTIME": "2025-10-31 12:00:00" }, "geometry": { "type": "Point", "coordinates": [ 140.5, 8.8 ] } },
{ "type": "Feature", "properties": { "ID": 73723, "LAT": 9.0, "LON": 139.8, "VMAX": 20.0, "MSLP": 1012.95825, "RMAX": 45.0, "FSPD": 4.55405, "FDIR": 296.8628, "RENV": 500.0, "PENV": 1012.0, "VALIDT": 0, "DTG": "2025-10-31 18:00", "LATNOW": 13.6, "LONNOW": 109.1, "WINDNOW": 100.0, "DIRNOW": 7.0, "SPDNOW": 3.0, "TECH": "TRAK", "ADVNR": 22, "ATCFID": "WP312025", "NAME": "KALMAEGI", "FTECH": "JTWC", "FCST_DTG": "2025-11-06 12:00:00", "RUN_DTG": "2025-11-07 06:26:07", "BASIN": "WP", "STMNR": 31, "CAT_ID": null, "CAT_DESC": null, "MSGID": "WTPN51 PGTW 061500", "VALIDTIME": "2025-10-31 18:00:00" }, "geometry": { "type": "Point", "coordinates": [ 139.800003, 9.0 ] } },
{ "type": "Feature", "properties": { "ID": 73724, "LAT": 9.4, "LON": 139.0, "VMAX": 25.0, "MSLP": 1011.80975, "RMAX": 45.0, "FSPD": 5.00748, "FDIR": 294.26395, "RENV": 500.0, "PENV": 1012.0, "VALIDT": 0, "DTG": "2025-11-01 00:00", "LATNOW": 13.6, "LONNOW": 109.1, "WINDNOW": 100.0, "DIRNOW": 7.0, "SPDNOW": 3.0, "TECH": "TRAK", "ADVNR": 22, "ATCFID": "WP312025", "NAME": "KALMAEGI", "FTECH": "JTWC", "FCST_DTG": "2025-11-06 12:00:00", "RUN_DTG": "2025-11-07 06:26:07", "BASIN": "WP", "STMNR": 31, "CAT_ID": null, "CAT_DESC": null, "MSGID": "WTPN51 PGTW 061500", "VALIDTIME": "2025-11-01 00:00:00" }, "geometry": { "type": "Point", "coordinates": [ 139.0, 9.4 ] } },
{ "type": "Feature", "properties": { "ID": 73725, "LAT": 9.8, "LON": 138.1, "VMAX": 25.0, "MSLP": 1002.0, "RMAX": 40.0, "FSPD": 5.00254, "FDIR": 294.28943, "RENV": 180.0, "PENV": 1008.0, "VALIDT": 0, "DTG": "2025-11-01 06:00", "LATNOW": 13.6, "LONNOW": 109.1, "WINDNOW": 100.0, "DIRNOW": 7.0, "SPDNOW": 3.0, "TECH": "TRAK", "ADVNR": 22, "ATCFID": "WP312025", "NAME": "KALMAEGI", "FTECH": "JTWC", "FCST_DTG": "2025-11-06 12:00:00", "RUN_DTG": "2025-11-07 06:26:07", "BASIN": "WP", "STMNR": 31, "CAT_ID": null, "CAT_DESC": null, "MSGID": "WTPN51 PGTW 061500", "VALIDTIME": "2025-11-01 06:00:00" }, "geometry": { "type": "Point", "coordinates": [ 138.100006, 9.8 ] } },
{ "type": "Feature", "properties": { "ID": 73726, "LAT": 10.2, "LON": 137.2, "VMAX": 30.0, "MSLP": 1002.0, "RMAX": 40.0, "FSPD": 4.54097, "FDIR": 296.9465, "RENV": 180.0, "PENV": 1008.0, "VALIDT": 0, "DTG": "2025-11-01 12:00", "LATNOW": 13.6, "LONNOW": 109.1, "WINDNOW": 100.0, "DIRNOW": 7.0, "SPDNOW": 3.0, "TECH": "TRAK", "ADVNR": 22, "ATCFID": "WP312025", "NAME": "KALMAEGI", "FTECH": "JTWC", "FCST_DTG": "2025-11-06 12:00:00", "RUN_DTG": "2025-11-07 06:26:07", "BASIN": "WP", "STMNR": 31, "CAT_ID": null, "CAT_DESC": null, "MSGID": "WTPN51 PGTW 061500", "VALIDTIME": "2025-11-01 12:00:00" }, "geometry": { "type": "Point", "coordinates": [ 137.199997, 10.2 ] } },
{ "type": "Feature", "properties": { "ID": 73727, "LAT": 10.6, "LON": 136.4, "VMAX": 40.0, "MSLP": 1001.0, "RMAX": 25.0, "FSPD": 6.65149, "FDIR": 278.89853, "RENV": 180.0, "PENV": 1010.0, "VALIDT": 0, "DTG": "2025-11-01 18:00", "LATNOW": 13.6, "LONNOW": 109.1, "WINDNOW": 100.0, "DIRNOW": 7.0, "SPDNOW": 3.0, "TECH": "TRAK", "ADVNR": 22, "ATCFID": "WP312025", "NAME": "KALMAEGI", "FTECH": "JTWC", "FCST_DTG": "2025-11-06 12:00:00", "RUN_DTG": "2025-11-07 06:26:07", "BASIN": "WP", "STMNR": 31, "CAT_ID": null, "CAT_DESC": null, "MSGID": "WTPN51 PGTW 061500", "VALIDTIME": "2025-11-01 18:00:00" }, "geometry": { "type": "Point", "coordinates": [ 136.399994, 10.6 ] } },
{ "type": "Feature", "properties": { "ID": 73728, "LAT": 10.8, "LON": 135.1, "VMAX": 45.0, "MSLP": 1000.0, "RMAX": 30.0, "FSPD": 9.44533, "FDIR": 285.8028, "RENV": 250.0, "PENV": 1008.0, "VALIDT": 0, "DTG": "2025-11-02 00:00", "LATNOW": 13.6, "LONNOW": 109.1, "WINDNOW": 100.0, "DIRNOW": 7.0, "SPDNOW": 3.0, "TECH": "TRAK", "ADVNR": 22, "ATCFID": "WP312025", "NAME": "KALMAEGI", "FTECH": "JTWC", "FCST_DTG": "2025-11-06 12:00:00", "RUN_DTG": "2025-11-07 06:26:07", "BASIN": "WP", "STMNR": 31, "CAT_ID": null, "CAT_DESC": null, "MSGID": "WTPN51 PGTW 061500", "VALIDTIME": "2025-11-02 00:00:00" }, "geometry": { "type": "Point", "coordinates": [ 135.100006, 10.8 ] } },
{ "type": "Feature", "properties": { "ID": 73729, "LAT": 11.3, "LON": 133.3, "VMAX": 50.0, "MSLP": 1000.0, "RMAX": 30.0, "FSPD": 7.56708, "FDIR": 269.99997, "RENV": 220.0, "PENV": 1010.0, "VALIDT": 0, "DTG": "2025-11-02 06:00", "LATNOW": 13.6, "LONNOW": 109.1, "WINDNOW": 100.0, "DIRNOW": 7.0, "SPDNOW": 3.0, "TECH": "TRAK", "ADVNR": 22, "ATCFID": "WP312025", "NAME": "KALMAEGI", "FTECH": "JTWC", "FCST_DTG": "2025-11-06 12:00:00", "RUN_DTG": "2025-11-07 06:26:07", "BASIN": "WP", "STMNR": 31, "CAT_ID": null, "CAT_DESC": null, "MSGID": "WTPN51 PGTW 061500", "VALIDTIME": "2025-11-02 06:00:00" }, "geometry": { "type": "Point", "coordinates": [ 133.300003, 11.3 ] } },
{ "type": "Feature", "properties": { "ID": 73730, "LAT": 11.3, "LON": 131.8, "VMAX": 55.0, "MSLP": 994.0, "RMAX": 20.0, "FSPD": 8.71815, "FDIR": 259.80344, "RENV": 170.0, "PENV": 1006.0, "VALIDT": 0, "DTG": "2025-11-02 12:00", "LATNOW": 13.6, "LONNOW": 109.1, "WINDNOW": 100.0, "DIRNOW": 7.0, "SPDNOW": 3.0, "TECH": "TRAK", "ADVNR": 22, "ATCFID": "WP312025", "NAME": "KALMAEGI", "FTECH": "JTWC", "FCST_DTG": "2025-11-06 12:00:00", "RUN_DTG": "2025-11-07 06:26:07", "BASIN": "WP", "STMNR": 31, "CAT_ID": null, "CAT_DESC": null, "MSGID": "WTPN51 PGTW 061500", "VALIDTIME": "2025-11-02 12:00:00" }, "geometry": { "type": "Point", "coordinates": [ 131.800003, 11.3 ] } },
{ "type": "Feature", "properties": { "ID": 73731, "LAT": 11.0, "LON": 130.1, "VMAX": 60.0, "MSLP": 993.0, "RMAX": 20.0, "FSPD": 6.58796, "FDIR": 247.01791, "RENV": 180.0, "PENV": 1008.0, "VALIDT": 0, "DTG": "2025-11-02 18:00", "LATNOW": 13.6, "LONNOW": 109.1, "WINDNOW": 100.0, "DIRNOW": 7.0, "SPDNOW": 3.0, "TECH": "TRAK", "ADVNR": 22, "ATCFID": "WP312025", "NAME": "KALMAEGI", "FTECH": "JTWC", "FCST_DTG": "2025-11-06 12:00:00", "RUN_DTG": "2025-11-07 06:26:07", "BASIN": "WP", "STMNR": 31, "CAT_ID": null, "CAT_DESC": null, "MSGID": "WTPN51 PGTW 061500", "VALIDTIME": "2025-11-02 18:00:00" }, "geometry": { "type": "Point", "coordinates": [ 130.100006, 11.0 ] } },
{ "type": "Feature", "properties": { "ID": 73732, "LAT": 10.5, "LON": 128.9, "VMAX": 70.0, "MSLP": 993.0, "RMAX": 20.0, "FSPD": 6.09268, "FDIR": 265.1563, "RENV": 180.0, "PENV": 1008.0, "VALIDT": 0, "DTG": "2025-11-03 00:00", "LATNOW": 13.6, "LONNOW": 109.1, "WINDNOW": 100.0, "DIRNOW": 7.0, "SPDNOW": 3.0, "TECH": "TRAK", "ADVNR": 22, "ATCFID": "WP312025", "NAME": "KALMAEGI", "FTECH": "JTWC", "FCST_DTG": "2025-11-06 12:00:00", "RUN_DTG": "2025-11-07 06:26:07", "BASIN": "WP", "STMNR": 31, "CAT_ID": null, "CAT_DESC": null, "MSGID": "WTPN51 PGTW 061500", "VALIDTIME": "2025-11-03 00:00:00" }, "geometry": { "type": "Point", "coordinates": [ 128.899994, 10.5 ] } },
{ "type": "Feature", "properties": { "ID": 73733, "LAT": 10.4, "LON": 127.7, "VMAX": 80.0, "MSLP": 985.0, "RMAX": 10.0, "FSPD": 7.15594, "FDIR": 278.26672, "RENV": 180.0, "PENV": 1008.0, "VALIDT": 0, "DTG": "2025-11-03 06:00", "LATNOW": 13.6, "LONNOW": 109.1, "WINDNOW": 100.0, "DIRNOW": 7.0, "SPDNOW": 3.0, "TECH": "TRAK", "ADVNR": 22, "ATCFID": "WP312025", "NAME": "KALMAEGI", "FTECH": "JTWC", "FCST_DTG": "2025-11-06 12:00:00", "RUN_DTG": "2025-11-07 06:26:07", "BASIN": "WP", "STMNR": 31, "CAT_ID": null, "CAT_DESC": null, "MSGID": "WTPN51 PGTW 061500", "VALIDTIME": "2025-11-03 06:00:00" }, "geometry": { "type": "Point", "coordinates": [ 127.699997, 10.4 ] } },
{ "type": "Feature", "properties": { "ID": 73734, "LAT": 10.6, "LON": 126.3, "VMAX": 90.0, "MSLP": 975.0, "RMAX": 10.0, "FSPD": 9.93836, "FDIR": 284.9999, "RENV": 180.0, "PENV": 1005.0, "VALIDT": 0, "DTG": "2025-11-03 12:00", "LATNOW": 13.6, "LONNOW": 109.1, "WINDNOW": 100.0, "DIRNOW": 7.0, "SPDNOW": 3.0, "TECH": "TRAK", "ADVNR": 22, "ATCFID": "WP312025", "NAME": "KALMAEGI", "FTECH": "JTWC", "FCST_DTG": "2025-11-06 12:00:00", "RUN_DTG": "2025-11-07 06:26:07", "BASIN": "WP", "STMNR": 31, "CAT_ID": null, "CAT_DESC": null, "MSGID": "WTPN51 PGTW 061500", "VALIDTIME": "2025-11-03 12:00:00" }, "geometry": { "type": "Point", "coordinates": [ 126.300003, 10.6 ] } },
{ "type": "Feature", "properties": { "ID": 73735, "LAT": 11.1, "LON": 124.4, "VMAX": 80.0, "MSLP": 968.0, "RMAX": 10.0, "FSPD": 6.58515, "FDIR": 247.00755, "RENV": 150.0, "PENV": 1006.0, "VALIDT": 0, "DTG": "2025-11-03 18:00", "LATNOW": 13.6, "LONNOW": 109.1, "WINDNOW": 100.0, "DIRNOW": 7.0, "SPDNOW": 3.0, "TECH": "TRAK", "ADVNR": 22, "ATCFID": "WP312025", "NAME": "KALMAEGI", "FTECH": "JTWC", "FCST_DTG": "2025-11-06 12:00:00", "RUN_DTG": "2025-11-07 06:26:07", "BASIN": "WP", "STMNR": 31, "CAT_ID": null, "CAT_DESC": null, "MSGID": "WTPN51 PGTW 061500", "VALIDTIME": "2025-11-03 18:00:00" }, "geometry": { "type": "Point", "coordinates": [ 124.400002, 11.1 ] } },
{ "type": "Feature", "properties": { "ID": 73736, "LAT": 10.7, "LON": 123.43999, "VMAX": 80.0, "MSLP": 968.0, "RMAX": 10.0, "FSPD": 6.5897, "FDIR": 247.02423, "RENV": 150.0, "PENV": 1006.0, "VALIDT": 0, "DTG": "2025-11-03 22:00", "LATNOW": 13.6, "LONNOW": 109.1, "WINDNOW": 100.0, "DIRNOW": 7.0, "SPDNOW": 3.0, "TECH": "TRAK", "ADVNR": 22, "ATCFID": "WP312025", "NAME": "KALMAEGI", "FTECH": "JTWC", "FCST_DTG": "2025-11-06 12:00:00", "RUN_DTG": "2025-11-07 06:26:07", "BASIN": "WP", "STMNR": 31, "CAT_ID": null, "CAT_DESC": null, "MSGID": "WTPN51 PGTW 061500", "VALIDTIME": "2025-11-03 22:00:00" }, "geometry": { "type": "Point", "coordinates": [ 123.439995, 10.700001 ] } },
{ "type": "Feature", "properties": { "ID": 73737, "LAT": 10.6, "LON": 123.2, "VMAX": 70.0, "MSLP": 987.0, "RMAX": 10.0, "FSPD": 7.15594, "FDIR": 261.73325, "RENV": 340.0, "PENV": 1008.0, "VALIDT": 0, "DTG": "2025-11-04 00:00", "LATNOW": 13.6, "LONNOW": 109.1, "WINDNOW": 100.0, "DIRNOW": 7.0, "SPDNOW": 3.0, "TECH": "TRAK", "ADVNR": 22, "ATCFID": "WP312025", "NAME": "KALMAEGI", "FTECH": "JTWC", "FCST_DTG": "2025-11-06 12:00:00", "RUN_DTG": "2025-11-07 06:26:07", "BASIN": "WP", "STMNR": 31, "CAT_ID": null, "CAT_DESC": null, "MSGID": "WTPN51 PGTW 061500", "VALIDTIME": "2025-11-04 00:00:00" }, "geometry": { "type": "Point", "coordinates": [ 123.199997, 10.6 ] } },
{ "type": "Feature", "properties": { "ID": 73738, "LAT": 10.4, "LON": 121.8, "VMAX": 70.0, "MSLP": 987.0, "RMAX": 10.0, "FSPD": 5.16188, "FDIR": 281.4975, "RENV": 300.0, "PENV": 1006.0, "VALIDT": 0, "DTG": "2025-11-04 06:00", "LATNOW": 13.6, "LONNOW": 109.1, "WINDNOW": 100.0, "DIRNOW": 7.0, "SPDNOW": 3.0, "TECH": "TRAK", "ADVNR": 22, "ATCFID": "WP312025", "NAME": "KALMAEGI", "FTECH": "JTWC", "FCST_DTG": "2025-11-06 12:00:00", "RUN_DTG": "2025-11-07 06:26:07", "BASIN": "WP", "STMNR": 31, "CAT_ID": null, "CAT_DESC": null, "MSGID": "WTPN51 PGTW 061500", "VALIDTIME": "2025-11-04 06:00:00" }, "geometry": { "type": "Point", "coordinates": [ 121.800003, 10.4 ] } },
{ "type": "Feature", "properties": { "ID": 73739, "LAT": 10.6, "LON": 120.8, "VMAX": 70.0, "MSLP": 985.0, "RMAX": 15.0, "FSPD": 4.80344, "FDIR": 288.74133, "RENV": 275.0, "PENV": 1006.0, "VALIDT": 0, "DTG": "2025-11-04 12:00", "LATNOW": 13.6, "LONNOW": 109.1, "WINDNOW": 100.0, "DIRNOW": 7.0, "SPDNOW": 3.0, "TECH": "TRAK", "ADVNR": 22, "ATCFID": "WP312025", "NAME": "KALMAEGI", "FTECH": "JTWC", "FCST_DTG": "2025-11-06 12:00:00", "RUN_DTG": "2025-11-07 06:26:07", "BASIN": "WP", "STMNR": 31, "CAT_ID": null, "CAT_DESC": null, "MSGID": "WTPN51 PGTW 061500", "VALIDTIME": "2025-11-04 12:00:00" }, "geometry": { "type": "Point", "coordinates": [ 120.800003, 10.6 ] } },
{ "type": "Feature", "properties": { "ID": 73740, "LAT": 10.9, "LON": 119.9, "VMAX": 70.0, "MSLP": 984.0, "RMAX": 15.0, "FSPD": 4.78757, "FDIR": 302.49802, "RENV": 245.0, "PENV": 1006.0, "VALIDT": 0, "DTG": "2025-11-04 18:00", "LATNOW": 13.6, "LONNOW": 109.1, "WINDNOW": 100.0, "DIRNOW": 7.0, "SPDNOW": 3.0, "TECH": "TRAK", "ADVNR": 22, "ATCFID": "WP312025", "NAME": "KALMAEGI", "FTECH": "JTWC", "FCST_DTG": "2025-11-06 12:00:00", "RUN_DTG": "2025-11-07 06:26:07", "BASIN": "WP", "STMNR": 31, "CAT_ID": null, "CAT_DESC": null, "MSGID": "WTPN51 PGTW 061500", "VALIDTIME": "2025-11-04 18:00:00" }, "geometry": { "type": "Point", "coordinates": [ 119.900002, 10.9 ] } },
{ "type": "Feature", "properties": { "ID": 73741, "LAT": 11.4, "LON": 119.1, "VMAX": 75.0, "MSLP": 980.0, "RMAX": 15.0, "FSPD": 10.69763, "FDIR": 289.6715, "RENV": 300.0, "PENV": 1008.0, "VALIDT": 0, "DTG": "2025-11-05 00:00", "LATNOW": 13.6, "LONNOW": 109.1, "WINDNOW": 100.0, "DIRNOW": 7.0, "SPDNOW": 3.0, "TECH": "TRAK", "ADVNR": 22, "ATCFID": "WP312025", "NAME": "KALMAEGI", "FTECH": "JTWC", "FCST_DTG": "2025-11-06 12:00:00", "RUN_DTG": "2025-11-07 06:26:07", "BASIN": "WP", "STMNR": 31, "CAT_ID": null, "CAT_DESC": null, "MSGID": "WTPN51 PGTW 061500", "VALIDTIME": "2025-11-05 00:00:00" }, "geometry": { "type": "Point", "coordinates": [ 119.099998, 11.4 ] } },
{ "type": "Feature", "properties": { "ID": 73742, "LAT": 12.1, "LON": 117.1, "VMAX": 80.0, "MSLP": 980.0, "RMAX": 15.0, "FSPD": 6.37297, "FDIR": 288.83783, "RENV": 350.0, "PENV": 1008.0, "VALIDT": 0, "DTG": "2025-11-05 06:00", "LATNOW": 13.6, "LONNOW": 109.1, "WINDNOW": 100.0, "DIRNOW": 7.0, "SPDNOW": 3.0, "TECH": "TRAK", "ADVNR": 22, "ATCFID": "WP312025", "NAME": "KALMAEGI", "FTECH": "JTWC", "FCST_DTG": "2025-11-06 12:00:00", "RUN_DTG": "2025-11-07 06:26:07", "BASIN": "WP", "STMNR": 31, "CAT_ID": null, "CAT_DESC": null, "MSGID": "WTPN51 PGTW 061500", "VALIDTIME": "2025-11-05 06:00:00" }, "geometry": { "type": "Point", "coordinates": [ 117.099998, 12.1 ] } },
{ "type": "Feature", "properties": { "ID": 73743, "LAT": 12.5, "LON": 115.9, "VMAX": 90.0, "MSLP": 972.0, "RMAX": 15.0, "FSPD": 8.79591, "FDIR": 294.1676, "RENV": 350.0, "PENV": 1008.0, "VALIDT": 0, "DTG": "2025-11-05 12:00", "LATNOW": 13.6, "LONNOW": 109.1, "WINDNOW": 100.0, "DIRNOW": 7.0, "SPDNOW": 3.0, "TECH": "TRAK", "ADVNR": 22, "ATCFID": "WP312025", "NAME": "KALMAEGI", "FTECH": "JTWC", "FCST_DTG": "2025-11-06 12:00:00", "RUN_DTG": "2025-11-07 06:26:07", "BASIN": "WP", "STMNR": 31, "CAT_ID": null, "CAT_DESC": null, "MSGID": "WTPN51 PGTW 061500", "VALIDTIME": "2025-11-05 12:00:00" }, "geometry": { "type": "Point", "coordinates": [ 115.900002, 12.5 ] } },
{ "type": "Feature", "properties": { "ID": 73744, "LAT": 13.2, "LON": 114.3, "VMAX": 100.0, "MSLP": 970.0, "RMAX": 15.0, "FSPD": 11.01877, "FDIR": 269.99997, "RENV": 325.0, "PENV": 1006.0, "VALIDT": 0, "DTG": "2025-11-05 18:00", "LATNOW": 13.6, "LONNOW": 109.1, "WINDNOW": 100.0, "DIRNOW": 7.0, "SPDNOW": 3.0, "TECH": "TRAK", "ADVNR": 22, "ATCFID": "WP312025", "NAME": "KALMAEGI", "FTECH": "JTWC", "FCST_DTG": "2025-11-06 12:00:00", "RUN_DTG": "2025-11-07 06:26:07", "BASIN": "WP", "STMNR": 31, "CAT_ID": null, "CAT_DESC": null, "MSGID": "WTPN51 PGTW 061500", "VALIDTIME": "2025-11-05 18:00:00" }, "geometry": { "type": "Point", "coordinates": [ 114.300003, 13.2 ] } },
{ "type": "Feature", "properties": { "ID": 73745, "LAT": 13.2, "LON": 112.1, "VMAX": 115.0, "MSLP": 960.0, "RMAX": 15.0, "FSPD": 7.52884, "FDIR": 273.91806, "RENV": 250.0, "PENV": 1005.0, "VALIDT": 0, "DTG": "2025-11-06 00:00", "LATNOW": 13.6, "LONNOW": 109.1, "WINDNOW": 100.0, "DIRNOW": 7.0, "SPDNOW": 3.0, "TECH": "TRAK", "ADVNR": 22, "ATCFID": "WP312025", "NAME": "KALMAEGI", "FTECH": "JTWC", "FCST_DTG": "2025-11-06 12:00:00", "RUN_DTG": "2025-11-07 06:26:07", "BASIN": "WP", "STMNR": 31, "CAT_ID": null, "CAT_DESC": null, "MSGID": "WTPN51 PGTW 061500", "VALIDTIME": "2025-11-06 00:00:00" }, "geometry": { "type": "Point", "coordinates": [ 112.099998, 13.2 ] } },
{ "type": "Feature", "properties": { "ID": 73746, "LAT": 13.3, "LON": 110.6, "VMAX": 110.0, "MSLP": 948.0, "RMAX": 15.0, "FSPD": 7.66207, "FDIR": 281.6203, "RENV": 250.0, "PENV": 1005.0, "VALIDT": 0, "DTG": "2025-11-06 06:00", "LATNOW": 13.6, "LONNOW": 109.1, "WINDNOW": 100.0, "DIRNOW": 7.0, "SPDNOW": 3.0, "TECH": "TRAK", "ADVNR": 22, "ATCFID": "WP312025", "NAME": "KALMAEGI", "FTECH": "JTWC", "FCST_DTG": "2025-11-06 12:00:00", "RUN_DTG": "2025-11-07 06:26:07", "BASIN": "WP", "STMNR": 31, "CAT_ID": null, "CAT_DESC": null, "MSGID": "WTPN51 PGTW 061500", "VALIDTIME": "2025-11-06 06:00:00" }, "geometry": { "type": "Point", "coordinates": [ 110.599998, 13.3 ] } },
{ "type": "Feature", "properties": { "ID": 73747, "LAT": 13.6, "LON": 109.1, "VMAX": 100.0, "MSLP": 963.95624, "RMAX": 25.97142, "FSPD": 7.30453, "FDIR": 292.78998, "RENV": 389.57135, "PENV": 1012.0, "VALIDT": 0, "DTG": "2025-11-06 12:00", "LATNOW": 13.6, "LONNOW": 109.1, "WINDNOW": 100.0, "DIRNOW": 7.0, "SPDNOW": 3.0, "TECH": "TRAK", "ADVNR": 22, "ATCFID": "WP312025", "NAME": "KALMAEGI", "FTECH": "JTWC", "FCST_DTG": "2025-11-06 12:00:00", "RUN_DTG": "2025-11-07 06:26:07", "BASIN": "WP", "STMNR": 31, "CAT_ID": null, "CAT_DESC": null, "MSGID": "WTPN51 PGTW 061500", "VALIDTIME": "2025-11-06 12:00:00" }, "geometry": { "type": "Point", "coordinates": [ 109.099998, 13.6 ] } },
{ "type": "Feature", "properties": { "ID": 73748, "LAT": 14.7, "LON": 106.4, "VMAX": 45.0, "MSLP": 1004.66364, "RMAX": 39.89946, "FSPD": 6.0364, "FDIR": 295.2215, "RENV": 250.0, "PENV": 1012.0, "VALIDT": 12, "DTG": "2025-11-07 00:00", "LATNOW": 13.6, "LONNOW": 109.1, "WINDNOW": 100.0, "DIRNOW": 7.0, "SPDNOW": 3.0, "TECH": "FCST", "ADVNR": 22, "ATCFID": "WP312025", "NAME": "KALMAEGI", "FTECH": "JTWC", "FCST_DTG": "2025-11-06 12:00:00", "RUN_DTG": "2025-11-07 06:26:07", "BASIN": "WP", "STMNR": 31, "CAT_ID": null, "CAT_DESC": null, "MSGID": "WTPN51 PGTW 061500", "VALIDTIME": "2025-11-07 00:00:00" }, "geometry": { "type": "Point", "coordinates": [ 106.400002, 14.7 ] } },
{ "type": "Feature", "properties": { "ID": 73749, "LAT": 15.7, "LON": 104.2, "VMAX": 20.0, "MSLP": 1012.95825, "RMAX": 45.0, "FSPD": 6.0364, "FDIR": 295.2215, "RENV": 250.0, "PENV": 1012.0, "VALIDT": 24, "DTG": "2025-11-07 12:00", "LATNOW": 13.6, "LONNOW": 109.1, "WINDNOW": 100.0, "DIRNOW": 7.0, "SPDNOW": 3.0, "TECH": "FCST", "ADVNR": 22, "ATCFID": "WP312025", "NAME": "KALMAEGI", "FTECH": "JTWC", "FCST_DTG": "2025-11-06 12:00:00", "RUN_DTG": "2025-11-07 06:26:07", "BASIN": "WP", "STMNR": 31, "CAT_ID": null, "CAT_DESC": null, "MSGID": "WTPN51 PGTW 061500", "VALIDTIME": "2025-11-07 12:00:00" }, "geometry": { "type": "Point", "coordinates": [ 104.199997, 15.7 ] } },
{ "type": "Feature", "properties": { "ID": 73747, "LAT": 13.6, "LON": 109.1, "VMAX": 100.0, "MSLP": 963.95624, "RMAX": 25.97142, "FSPD": 7.30453, "FDIR": 292.78998, "RENV": 389.57135, "PENV": 1012.0, "VALIDT": 0, "DTG": "2025-11-06 12:00", "LATNOW": 13.6, "LONNOW": 109.1, "WINDNOW": 100.0, "DIRNOW": 7.0, "SPDNOW": 3.0, "TECH": "TRAK", "ADVNR": 22, "ATCFID": "WP312025", "NAME": "KALMAEGI", "FTECH": "JTWC", "FCST_DTG": "2025-11-06 12:00:00", "RUN_DTG": "2025-11-07 06:26:07", "BASIN": "WP", "STMNR": 31, "CAT_ID": null, "CAT_DESC": null, "MSGID": "WTPN51 PGTW 061500", "VALIDTIME": "2025-11-06 12:00:00" }, "geometry": { "type": "LineString", "coordinates": [ [ 142.2, 7.7 ], [ 141.6, 8.3 ], [ 140.5, 8.8 ], [ 139.8, 9.0 ], [ 139.0, 9.4 ], [ 138.1, 9.8 ], [ 137.2, 10.2 ], [ 136.4, 10.6 ], [ 135.1, 10.8 ], [ 133.3, 11.3 ], [ 131.8, 11.3 ], [ 130.1, 11.0 ], [ 128.9, 10.5 ], [ 127.7, 10.4 ], [ 126.3, 10.6 ], [ 124.4, 11.1 ], [ 123.43999, 10.7 ], [ 123.2, 10.6 ], [ 121.8, 10.4 ], [ 120.8, 10.6 ], [ 119.9, 10.9 ], [ 119.1, 11.4 ], [ 117.1, 12.1 ], [ 115.9, 12.5 ], [ 114.3, 13.2 ], [ 112.1, 13.2 ], [ 110.6, 13.3 ], [ 109.1, 13.6 ] ] } },
{ "type": "Feature", "properties": { "ID": 73749, "LAT": 15.7, "LON": 104.2, "VMAX": 20.0, "MSLP": 1012.95825, "RMAX": 45.0, "FSPD": 6.0364, "FDIR": 295.2215, "RENV": 250.0, "PENV": 1012.0, "VALIDT": 24, "DTG": "2025-11-07 12:00", "LATNOW": 13.6, "LONNOW": 109.1, "WINDNOW": 100.0, "DIRNOW": 7.0, "SPDNOW": 3.0, "TECH": "FCST", "ADVNR": 22, "ATCFID": "WP312025", "NAME": "KALMAEGI", "FTECH": "JTWC", "FCST_DTG": "2025-11-06 12:00:00", "RUN_DTG": "2025-11-07 06:26:07", "BASIN": "WP", "STMNR": 31, "CAT_ID": null, "CAT_DESC": null, "MSGID": "WTPN51 PGTW 061500", "VALIDTIME": "2025-11-07 12:00:00" }, "geometry": { "type": "LineString", "coordinates": [ [ 109.1, 13.6 ], [ 106.4, 14.7 ], [ 104.2, 15.7 ] ] } }
]
}
