{
"type": "FeatureCollection",
"crs": { "type": "name", "properties": { "name": "urn:ogc:def:crs:OGC:1.3:CRS84" } },
"features": [
{ "type": "Feature", "properties": { "ID": 20894, "LAT": 18.2, "LON": 149.5, "VMAX": 15.0, "MSLP": 1013.8515, "RMAX": 40.0, "FSPD": 1.46614, "FDIR": 269.99997, "RENV": 500.0, "PENV": 1012.0, "VALIDT": 0, "DTG": "2025-08-05 18:00", "LATNOW": 24.3, "LONNOW": 116.9, "WINDNOW": 45.0, "DIRNOW": 9.0, "SPDNOW": 3.0, "TECH": "TRAK", "ADVNR": 28, "ATCFID": "WP162025", "NAME": "PODUL", "FTECH": "JTWC", "FCST_DTG": "2025-08-13 18:00:00", "RUN_DTG": "2025-08-14 09:16:28", "BASIN": "WP", "STMNR": 16, "CAT_ID": null, "CAT_DESC": null, "MSGID": "WTPN52 PGTW 132100", "VALIDTIME": "2025-08-05 18:00:00" }, "geometry": { "type": "Point", "coordinates": [ 149.5, 18.200001 ] } },
{ "type": "Feature", "properties": { "ID": 20895, "LAT": 18.2, "LON": 149.2, "VMAX": 15.0, "MSLP": 1013.8515, "RMAX": 40.0, "FSPD": 1.46614, "FDIR": 269.99997, "RENV": 500.0, "PENV": 1012.0, "VALIDT": 0, "DTG": "2025-08-06 00:00", "LATNOW": 24.3, "LONNOW": 116.9, "WINDNOW": 45.0, "DIRNOW": 9.0, "SPDNOW": 3.0, "TECH": "TRAK", "ADVNR": 28, "ATCFID": "WP162025", "NAME": "PODUL", "FTECH": "JTWC", "FCST_DTG": "2025-08-13 18:00:00", "RUN_DTG": "2025-08-14 09:16:28", "BASIN": "WP", "STMNR": 16, "CAT_ID": null, "CAT_DESC": null, "MSGID": "WTPN52 PGTW 132100", "VALIDTIME": "2025-08-06 00:00:00" }, "geometry": { "type": "Point", "coordinates": [ 149.199997, 18.200001 ] } },
{ "type": "Feature", "properties": { "ID": 20896, "LAT": 18.2, "LON": 148.9, "VMAX": 15.0, "MSLP": 1013.8515, "RMAX": 40.0, "FSPD": 2.49642, "FDIR": 281.89212, "RENV": 500.0, "PENV": 1012.0, "VALIDT": 0, "DTG": "2025-08-06 06:00", "LATNOW": 24.3, "LONNOW": 116.9, "WINDNOW": 45.0, "DIRNOW": 9.0, "SPDNOW": 3.0, "TECH": "TRAK", "ADVNR": 28, "ATCFID": "WP162025", "NAME": "PODUL", "FTECH": "JTWC", "FCST_DTG": "2025-08-13 18:00:00", "RUN_DTG": "2025-08-14 09:16:28", "BASIN": "WP", "STMNR": 16, "CAT_ID": null, "CAT_DESC": null, "MSGID": "WTPN52 PGTW 132100", "VALIDTIME": "2025-08-06 06:00:00" }, "geometry": { "type": "Point", "coordinates": [ 148.899994, 18.200001 ] } },
{ "type": "Feature", "properties": { "ID": 20897, "LAT": 18.3, "LON": 148.4, "VMAX": 20.0, "MSLP": 1012.95825, "RMAX": 45.0, "FSPD": 1.55251, "FDIR": 289.3516, "RENV": 500.0, "PENV": 1012.0, "VALIDT": 0, "DTG": "2025-08-06 12:00", "LATNOW": 24.3, "LONNOW": 116.9, "WINDNOW": 45.0, "DIRNOW": 9.0, "SPDNOW": 3.0, "TECH": "TRAK", "ADVNR": 28, "ATCFID": "WP162025", "NAME": "PODUL", "FTECH": "JTWC", "FCST_DTG": "2025-08-13 18:00:00", "RUN_DTG": "2025-08-14 09:16:28", "BASIN": "WP", "STMNR": 16, "CAT_ID": null, "CAT_DESC": null, "MSGID": "WTPN52 PGTW 132100", "VALIDTIME": "2025-08-06 12:00:00" }, "geometry": { "type": "Point", "coordinates": [ 148.399994, 18.299999 ] } },
{ "type": "Feature", "properties": { "ID": 20898, "LAT": 18.4, "LON": 148.1, "VMAX": 20.0, "MSLP": 1012.95825, "RMAX": 45.0, "FSPD": 1.46445, "FDIR": 269.99997, "RENV": 500.0, "PENV": 1012.0, "VALIDT": 0, "DTG": "2025-08-06 18:00", "LATNOW": 24.3, "LONNOW": 116.9, "WINDNOW": 45.0, "DIRNOW": 9.0, "SPDNOW": 3.0, "TECH": "TRAK", "ADVNR": 28, "ATCFID": "WP162025", "NAME": "PODUL", "FTECH": "JTWC", "FCST_DTG": "2025-08-13 18:00:00", "RUN_DTG": "2025-08-14 09:16:28", "BASIN": "WP", "STMNR": 16, "CAT_ID": null, "CAT_DESC": null, "MSGID": "WTPN52 PGTW 132100", "VALIDTIME": "2025-08-06 18:00:00" }, "geometry": { "type": "Point", "coordinates": [ 148.100006, 18.4 ] } },
{ "type": "Feature", "properties": { "ID": 20899, "LAT": 18.4, "LON": 147.8, "VMAX": 25.0, "MSLP": 1007.0, "RMAX": 20.0, "FSPD": 1.13871, "FDIR": 334.6302, "RENV": 60.0, "PENV": 1010.0, "VALIDT": 0, "DTG": "2025-08-07 00:00", "LATNOW": 24.3, "LONNOW": 116.9, "WINDNOW": 45.0, "DIRNOW": 9.0, "SPDNOW": 3.0, "TECH": "TRAK", "ADVNR": 28, "ATCFID": "WP162025", "NAME": "PODUL", "FTECH": "JTWC", "FCST_DTG": "2025-08-13 18:00:00", "RUN_DTG": "2025-08-14 09:16:28", "BASIN": "WP", "STMNR": 16, "CAT_ID": null, "CAT_DESC": null, "MSGID": "WTPN52 PGTW 132100", "VALIDTIME": "2025-08-07 00:00:00" }, "geometry": { "type": "Point", "coordinates": [ 147.800003, 18.4 ] } },
{ "type": "Feature", "properties": { "ID": 20900, "LAT": 18.6, "LON": 147.7, "VMAX": 30.0, "MSLP": 1007.0, "RMAX": 20.0, "FSPD": 3.9819, "FDIR": 301.11664, "RENV": 60.0, "PENV": 1010.0, "VALIDT": 0, "DTG": "2025-08-07 06:00", "LATNOW": 24.3, "LONNOW": 116.9, "WINDNOW": 45.0, "DIRNOW": 9.0, "SPDNOW": 3.0, "TECH": "TRAK", "ADVNR": 28, "ATCFID": "WP162025", "NAME": "PODUL", "FTECH": "JTWC", "FCST_DTG": "2025-08-13 18:00:00", "RUN_DTG": "2025-08-14 09:16:28", "BASIN": "WP", "STMNR": 16, "CAT_ID": null, "CAT_DESC": null, "MSGID": "WTPN52 PGTW 132100", "VALIDTIME": "2025-08-07 06:00:00" }, "geometry": { "type": "Point", "coordinates": [ 147.699997, 18.6 ] } },
{ "type": "Feature", "properties": { "ID": 20901, "LAT": 19.0, "LON": 147.0, "VMAX": 35.0, "MSLP": 1007.0, "RMAX": 20.0, "FSPD": 4.39778, "FDIR": 297.89883, "RENV": 130.0, "PENV": 1011.0, "VALIDT": 0, "DTG": "2025-08-07 12:00", "LATNOW": 24.3, "LONNOW": 116.9, "WINDNOW": 45.0, "DIRNOW": 9.0, "SPDNOW": 3.0, "TECH": "TRAK", "ADVNR": 28, "ATCFID": "WP162025", "NAME": "PODUL", "FTECH": "JTWC", "FCST_DTG": "2025-08-13 18:00:00", "RUN_DTG": "2025-08-14 09:16:28", "BASIN": "WP", "STMNR": 16, "CAT_ID": null, "CAT_DESC": null, "MSGID": "WTPN52 PGTW 132100", "VALIDTIME": "2025-08-07 12:00:00" }, "geometry": { "type": "Point", "coordinates": [ 147.0, 19.0 ] } },
{ "type": "Feature", "properties": { "ID": 20902, "LAT": 19.4, "LON": 146.2, "VMAX": 35.0, "MSLP": 1005.0, "RMAX": 20.0, "FSPD": 4.33922, "FDIR": 326.08832, "RENV": 135.0, "PENV": 1012.0, "VALIDT": 0, "DTG": "2025-08-07 18:00", "LATNOW": 24.3, "LONNOW": 116.9, "WINDNOW": 45.0, "DIRNOW": 9.0, "SPDNOW": 3.0, "TECH": "TRAK", "ADVNR": 28, "ATCFID": "WP162025", "NAME": "PODUL", "FTECH": "JTWC", "FCST_DTG": "2025-08-13 18:00:00", "RUN_DTG": "2025-08-14 09:16:28", "BASIN": "WP", "STMNR": 16, "CAT_ID": null, "CAT_DESC": null, "MSGID": "WTPN52 PGTW 132100", "VALIDTIME": "2025-08-07 18:00:00" }, "geometry": { "type": "Point", "coordinates": [ 146.199997, 19.4 ] } },
{ "type": "Feature", "properties": { "ID": 20903, "LAT": 20.1, "LON": 145.7, "VMAX": 45.0, "MSLP": 1003.0, "RMAX": 20.0, "FSPD": 3.87187, "FDIR": 311.63135, "RENV": 120.0, "PENV": 1010.0, "VALIDT": 0, "DTG": "2025-08-08 00:00", "LATNOW": 24.3, "LONNOW": 116.9, "WINDNOW": 45.0, "DIRNOW": 9.0, "SPDNOW": 3.0, "TECH": "TRAK", "ADVNR": 28, "ATCFID": "WP162025", "NAME": "PODUL", "FTECH": "JTWC", "FCST_DTG": "2025-08-13 18:00:00", "RUN_DTG": "2025-08-14 09:16:28", "BASIN": "WP", "STMNR": 16, "CAT_ID": null, "CAT_DESC": null, "MSGID": "WTPN52 PGTW 132100", "VALIDTIME": "2025-08-08 00:00:00" }, "geometry": { "type": "Point", "coordinates": [ 145.699997, 20.1 ] } },
{ "type": "Feature", "properties": { "ID": 20904, "LAT": 20.6, "LON": 145.1, "VMAX": 40.0, "MSLP": 1003.0, "RMAX": 15.0, "FSPD": 4.45168, "FDIR": 283.36316, "RENV": 140.0, "PENV": 1012.0, "VALIDT": 0, "DTG": "2025-08-08 06:00", "LATNOW": 24.3, "LONNOW": 116.9, "WINDNOW": 45.0, "DIRNOW": 9.0, "SPDNOW": 3.0, "TECH": "TRAK", "ADVNR": 28, "ATCFID": "WP162025", "NAME": "PODUL", "FTECH": "JTWC", "FCST_DTG": "2025-08-13 18:00:00", "RUN_DTG": "2025-08-14 09:16:28", "BASIN": "WP", "STMNR": 16, "CAT_ID": null, "CAT_DESC": null, "MSGID": "WTPN52 PGTW 132100", "VALIDTIME": "2025-08-08 06:00:00" }, "geometry": { "type": "Point", "coordinates": [ 145.100006, 20.6 ] } },
{ "type": "Feature", "properties": { "ID": 20905, "LAT": 20.8, "LON": 144.2, "VMAX": 45.0, "MSLP": 1003.0, "RMAX": 15.0, "FSPD": 3.94169, "FDIR": 301.47028, "RENV": 150.0, "PENV": 1012.0, "VALIDT": 0, "DTG": "2025-08-08 12:00", "LATNOW": 24.3, "LONNOW": 116.9, "WINDNOW": 45.0, "DIRNOW": 9.0, "SPDNOW": 3.0, "TECH": "TRAK", "ADVNR": 28, "ATCFID": "WP162025", "NAME": "PODUL", "FTECH": "JTWC", "FCST_DTG": "2025-08-13 18:00:00", "RUN_DTG": "2025-08-14 09:16:28", "BASIN": "WP", "STMNR": 16, "CAT_ID": null, "CAT_DESC": null, "MSGID": "WTPN52 PGTW 132100", "VALIDTIME": "2025-08-08 12:00:00" }, "geometry": { "type": "Point", "coordinates": [ 144.199997, 20.799999 ] } },
{ "type": "Feature", "properties": { "ID": 20906, "LAT": 21.2, "LON": 143.5, "VMAX": 45.0, "MSLP": 1001.0, "RMAX": 15.0, "FSPD": 3.26293, "FDIR": 298.22842, "RENV": 150.0, "PENV": 1010.0, "VALIDT": 0, "DTG": "2025-08-08 18:00", "LATNOW": 24.3, "LONNOW": 116.9, "WINDNOW": 45.0, "DIRNOW": 9.0, "SPDNOW": 3.0, "TECH": "TRAK", "ADVNR": 28, "ATCFID": "WP162025", "NAME": "PODUL", "FTECH": "JTWC", "FCST_DTG": "2025-08-13 18:00:00", "RUN_DTG": "2025-08-14 09:16:28", "BASIN": "WP", "STMNR": 16, "CAT_ID": null, "CAT_DESC": null, "MSGID": "WTPN52 PGTW 132100", "VALIDTIME": "2025-08-08 18:00:00" }, "geometry": { "type": "Point", "coordinates": [ 143.5, 21.200001 ] } },
{ "type": "Feature", "properties": { "ID": 20907, "LAT": 21.5, "LON": 142.9, "VMAX": 50.0, "MSLP": 999.0, "RMAX": 15.0, "FSPD": 4.81241, "FDIR": 276.13663, "RENV": 150.0, "PENV": 1010.0, "VALIDT": 0, "DTG": "2025-08-09 00:00", "LATNOW": 24.3, "LONNOW": 116.9, "WINDNOW": 45.0, "DIRNOW": 9.0, "SPDNOW": 3.0, "TECH": "TRAK", "ADVNR": 28, "ATCFID": "WP162025", "NAME": "PODUL", "FTECH": "JTWC", "FCST_DTG": "2025-08-13 18:00:00", "RUN_DTG": "2025-08-14 09:16:28", "BASIN": "WP", "STMNR": 16, "CAT_ID": null, "CAT_DESC": null, "MSGID": "WTPN52 PGTW 132100", "VALIDTIME": "2025-08-09 00:00:00" }, "geometry": { "type": "Point", "coordinates": [ 142.899994, 21.5 ] } },
{ "type": "Feature", "properties": { "ID": 20908, "LAT": 21.6, "LON": 141.9, "VMAX": 50.0, "MSLP": 996.0, "RMAX": 15.0, "FSPD": 4.33694, "FDIR": 263.18753, "RENV": 165.0, "PENV": 1010.0, "VALIDT": 0, "DTG": "2025-08-09 06:00", "LATNOW": 24.3, "LONNOW": 116.9, "WINDNOW": 45.0, "DIRNOW": 9.0, "SPDNOW": 3.0, "TECH": "TRAK", "ADVNR": 28, "ATCFID": "WP162025", "NAME": "PODUL", "FTECH": "JTWC", "FCST_DTG": "2025-08-13 18:00:00", "RUN_DTG": "2025-08-14 09:16:28", "BASIN": "WP", "STMNR": 16, "CAT_ID": null, "CAT_DESC": null, "MSGID": "WTPN52 PGTW 132100", "VALIDTIME": "2025-08-09 06:00:00" }, "geometry": { "type": "Point", "coordinates": [ 141.899994, 21.6 ] } },
{ "type": "Feature", "properties": { "ID": 20909, "LAT": 21.5, "LON": 141.0, "VMAX": 50.0, "MSLP": 996.0, "RMAX": 15.0, "FSPD": 3.8292, "FDIR": 269.99997, "RENV": 155.0, "PENV": 1012.0, "VALIDT": 0, "DTG": "2025-08-09 12:00", "LATNOW": 24.3, "LONNOW": 116.9, "WINDNOW": 45.0, "DIRNOW": 9.0, "SPDNOW": 3.0, "TECH": "TRAK", "ADVNR": 28, "ATCFID": "WP162025", "NAME": "PODUL", "FTECH": "JTWC", "FCST_DTG": "2025-08-13 18:00:00", "RUN_DTG": "2025-08-14 09:16:28", "BASIN": "WP", "STMNR": 16, "CAT_ID": null, "CAT_DESC": null, "MSGID": "WTPN52 PGTW 132100", "VALIDTIME": "2025-08-09 12:00:00" }, "geometry": { "type": "Point", "coordinates": [ 141.0, 21.5 ] } },
{ "type": "Feature", "properties": { "ID": 20910, "LAT": 21.5, "LON": 140.2, "VMAX": 55.0, "MSLP": 998.0, "RMAX": 15.0, "FSPD": 7.19567, "FDIR": 274.0998, "RENV": 155.0, "PENV": 1012.0, "VALIDT": 0, "DTG": "2025-08-09 18:00", "LATNOW": 24.3, "LONNOW": 116.9, "WINDNOW": 45.0, "DIRNOW": 9.0, "SPDNOW": 3.0, "TECH": "TRAK", "ADVNR": 28, "ATCFID": "WP162025", "NAME": "PODUL", "FTECH": "JTWC", "FCST_DTG": "2025-08-13 18:00:00", "RUN_DTG": "2025-08-14 09:16:28", "BASIN": "WP", "STMNR": 16, "CAT_ID": null, "CAT_DESC": null, "MSGID": "WTPN52 PGTW 132100", "VALIDTIME": "2025-08-09 18:00:00" }, "geometry": { "type": "Point", "coordinates": [ 140.199997, 21.5 ] } },
{ "type": "Feature", "properties": { "ID": 20911, "LAT": 21.6, "LON": 138.7, "VMAX": 55.0, "MSLP": 994.0, "RMAX": 15.0, "FSPD": 5.28474, "FDIR": 275.5863, "RENV": 155.0, "PENV": 1012.0, "VALIDT": 0, "DTG": "2025-08-10 00:00", "LATNOW": 24.3, "LONNOW": 116.9, "WINDNOW": 45.0, "DIRNOW": 9.0, "SPDNOW": 3.0, "TECH": "TRAK", "ADVNR": 28, "ATCFID": "WP162025", "NAME": "PODUL", "FTECH": "JTWC", "FCST_DTG": "2025-08-13 18:00:00", "RUN_DTG": "2025-08-14 09:16:28", "BASIN": "WP", "STMNR": 16, "CAT_ID": null, "CAT_DESC": null, "MSGID": "WTPN52 PGTW 132100", "VALIDTIME": "2025-08-10 00:00:00" }, "geometry": { "type": "Point", "coordinates": [ 138.699997, 21.6 ] } },
{ "type": "Feature", "properties": { "ID": 20912, "LAT": 21.7, "LON": 137.6, "VMAX": 50.0, "MSLP": 993.0, "RMAX": 15.0, "FSPD": 7.66775, "FDIR": 266.15298, "RENV": 145.0, "PENV": 1010.0, "VALIDT": 0, "DTG": "2025-08-10 06:00", "LATNOW": 24.3, "LONNOW": 116.9, "WINDNOW": 45.0, "DIRNOW": 9.0, "SPDNOW": 3.0, "TECH": "TRAK", "ADVNR": 28, "ATCFID": "WP162025", "NAME": "PODUL", "FTECH": "JTWC", "FCST_DTG": "2025-08-13 18:00:00", "RUN_DTG": "2025-08-14 09:16:28", "BASIN": "WP", "STMNR": 16, "CAT_ID": null, "CAT_DESC": null, "MSGID": "WTPN52 PGTW 132100", "VALIDTIME": "2025-08-10 06:00:00" }, "geometry": { "type": "Point", "coordinates": [ 137.600006, 21.700001 ] } },
{ "type": "Feature", "properties": { "ID": 20913, "LAT": 21.6, "LON": 136.0, "VMAX": 50.0, "MSLP": 996.0, "RMAX": 15.0, "FSPD": 6.41305, "FDIR": 256.0747, "RENV": 225.0, "PENV": 1008.0, "VALIDT": 0, "DTG": "2025-08-10 12:00", "LATNOW": 24.3, "LONNOW": 116.9, "WINDNOW": 45.0, "DIRNOW": 9.0, "SPDNOW": 3.0, "TECH": "TRAK", "ADVNR": 28, "ATCFID": "WP162025", "NAME": "PODUL", "FTECH": "JTWC", "FCST_DTG": "2025-08-13 18:00:00", "RUN_DTG": "2025-08-14 09:16:28", "BASIN": "WP", "STMNR": 16, "CAT_ID": null, "CAT_DESC": null, "MSGID": "WTPN52 PGTW 132100", "VALIDTIME": "2025-08-10 12:00:00" }, "geometry": { "type": "Point", "coordinates": [ 136.0, 21.6 ] } },
{ "type": "Feature", "properties": { "ID": 20914, "LAT": 21.3, "LON": 134.7, "VMAX": 50.0, "MSLP": 997.0, "RMAX": 15.0, "FSPD": 6.25427, "FDIR": 265.28186, "RENV": 110.0, "PENV": 1008.0, "VALIDT": 0, "DTG": "2025-08-10 18:00", "LATNOW": 24.3, "LONNOW": 116.9, "WINDNOW": 45.0, "DIRNOW": 9.0, "SPDNOW": 3.0, "TECH": "TRAK", "ADVNR": 28, "ATCFID": "WP162025", "NAME": "PODUL", "FTECH": "JTWC", "FCST_DTG": "2025-08-13 18:00:00", "RUN_DTG": "2025-08-14 09:16:28", "BASIN": "WP", "STMNR": 16, "CAT_ID": null, "CAT_DESC": null, "MSGID": "WTPN52 PGTW 132100", "VALIDTIME": "2025-08-10 18:00:00" }, "geometry": { "type": "Point", "coordinates": [ 134.699997, 21.299999 ] } },
{ "type": "Feature", "properties": { "ID": 20915, "LAT": 21.2, "LON": 133.4, "VMAX": 55.0, "MSLP": 993.0, "RMAX": 15.0, "FSPD": 6.31301, "FDIR": 245.95534, "RENV": 110.0, "PENV": 1006.0, "VALIDT": 0, "DTG": "2025-08-11 00:00", "LATNOW": 24.3, "LONNOW": 116.9, "WINDNOW": 45.0, "DIRNOW": 9.0, "SPDNOW": 3.0, "TECH": "TRAK", "ADVNR": 28, "ATCFID": "WP162025", "NAME": "PODUL", "FTECH": "JTWC", "FCST_DTG": "2025-08-13 18:00:00", "RUN_DTG": "2025-08-14 09:16:28", "BASIN": "WP", "STMNR": 16, "CAT_ID": null, "CAT_DESC": null, "MSGID": "WTPN52 PGTW 132100", "VALIDTIME": "2025-08-11 00:00:00" }, "geometry": { "type": "Point", "coordinates": [ 133.399994, 21.200001 ] } },
{ "type": "Feature", "properties": { "ID": 20916, "LAT": 20.7, "LON": 132.2, "VMAX": 55.0, "MSLP": 990.0, "RMAX": 15.0, "FSPD": 6.43758, "FDIR": 283.87103, "RENV": 110.0, "PENV": 1006.0, "VALIDT": 0, "DTG": "2025-08-11 06:00", "LATNOW": 24.3, "LONNOW": 116.9, "WINDNOW": 45.0, "DIRNOW": 9.0, "SPDNOW": 3.0, "TECH": "TRAK", "ADVNR": 28, "ATCFID": "WP162025", "NAME": "PODUL", "FTECH": "JTWC", "FCST_DTG": "2025-08-13 18:00:00", "RUN_DTG": "2025-08-14 09:16:28", "BASIN": "WP", "STMNR": 16, "CAT_ID": null, "CAT_DESC": null, "MSGID": "WTPN52 PGTW 132100", "VALIDTIME": "2025-08-11 06:00:00" }, "geometry": { "type": "Point", "coordinates": [ 132.199997, 20.700001 ] } },
{ "type": "Feature", "properties": { "ID": 20917, "LAT": 21.0, "LON": 130.9, "VMAX": 55.0, "MSLP": 990.0, "RMAX": 15.0, "FSPD": 7.96501, "FDIR": 255.02768, "RENV": 165.0, "PENV": 1006.0, "VALIDT": 0, "DTG": "2025-08-11 12:00", "LATNOW": 24.3, "LONNOW": 116.9, "WINDNOW": 45.0, "DIRNOW": 9.0, "SPDNOW": 3.0, "TECH": "TRAK", "ADVNR": 28, "ATCFID": "WP162025", "NAME": "PODUL", "FTECH": "JTWC", "FCST_DTG": "2025-08-13 18:00:00", "RUN_DTG": "2025-08-14 09:16:28", "BASIN": "WP", "STMNR": 16, "CAT_ID": null, "CAT_DESC": null, "MSGID": "WTPN52 PGTW 132100", "VALIDTIME": "2025-08-11 12:00:00" }, "geometry": { "type": "Point", "coordinates": [ 130.899994, 21.0 ] } },
{ "type": "Feature", "properties": { "ID": 20918, "LAT": 20.6, "LON": 129.3, "VMAX": 65.0, "MSLP": 990.0, "RMAX": 15.0, "FSPD": 5.97562, "FDIR": 284.96747, "RENV": 135.0, "PENV": 1006.0, "VALIDT": 0, "DTG": "2025-08-11 18:00", "LATNOW": 24.3, "LONNOW": 116.9, "WINDNOW": 45.0, "DIRNOW": 9.0, "SPDNOW": 3.0, "TECH": "TRAK", "ADVNR": 28, "ATCFID": "WP162025", "NAME": "PODUL", "FTECH": "JTWC", "FCST_DTG": "2025-08-13 18:00:00", "RUN_DTG": "2025-08-14 09:16:28", "BASIN": "WP", "STMNR": 16, "CAT_ID": null, "CAT_DESC": null, "MSGID": "WTPN52 PGTW 132100", "VALIDTIME": "2025-08-11 18:00:00" }, "geometry": { "type": "Point", "coordinates": [ 129.300003, 20.6 ] } },
{ "type": "Feature", "properties": { "ID": 20919, "LAT": 20.9, "LON": 128.1, "VMAX": 65.0, "MSLP": 984.0, "RMAX": 15.0, "FSPD": 7.9502, "FDIR": 285.00082, "RENV": 150.0, "PENV": 1006.0, "VALIDT": 0, "DTG": "2025-08-12 00:00", "LATNOW": 24.3, "LONNOW": 116.9, "WINDNOW": 45.0, "DIRNOW": 9.0, "SPDNOW": 3.0, "TECH": "TRAK", "ADVNR": 28, "ATCFID": "WP162025", "NAME": "PODUL", "FTECH": "JTWC", "FCST_DTG": "2025-08-13 18:00:00", "RUN_DTG": "2025-08-14 09:16:28", "BASIN": "WP", "STMNR": 16, "CAT_ID": null, "CAT_DESC": null, "MSGID": "WTPN52 PGTW 132100", "VALIDTIME": "2025-08-12 00:00:00" }, "geometry": { "type": "Point", "coordinates": [ 128.100006, 20.9 ] } },
{ "type": "Feature", "properties": { "ID": 20920, "LAT": 21.3, "LON": 126.5, "VMAX": 70.0, "MSLP": 984.0, "RMAX": 15.0, "FSPD": 7.34614, "FDIR": 282.1275, "RENV": 180.0, "PENV": 1007.0, "VALIDT": 0, "DTG": "2025-08-12 06:00", "LATNOW": 24.3, "LONNOW": 116.9, "WINDNOW": 45.0, "DIRNOW": 9.0, "SPDNOW": 3.0, "TECH": "TRAK", "ADVNR": 28, "ATCFID": "WP162025", "NAME": "PODUL", "FTECH": "JTWC", "FCST_DTG": "2025-08-13 18:00:00", "RUN_DTG": "2025-08-14 09:16:28", "BASIN": "WP", "STMNR": 16, "CAT_ID": null, "CAT_DESC": null, "MSGID": "WTPN52 PGTW 132100", "VALIDTIME": "2025-08-12 06:00:00" }, "geometry": { "type": "Point", "coordinates": [ 126.5, 21.299999 ] } },
{ "type": "Feature", "properties": { "ID": 20921, "LAT": 21.6, "LON": 125.0, "VMAX": 80.0, "MSLP": 981.0, "RMAX": 20.0, "FSPD": 7.91465, "FDIR": 285.0698, "RENV": 210.0, "PENV": 1006.0, "VALIDT": 0, "DTG": "2025-08-12 12:00", "LATNOW": 24.3, "LONNOW": 116.9, "WINDNOW": 45.0, "DIRNOW": 9.0, "SPDNOW": 3.0, "TECH": "TRAK", "ADVNR": 28, "ATCFID": "WP162025", "NAME": "PODUL", "FTECH": "JTWC", "FCST_DTG": "2025-08-13 18:00:00", "RUN_DTG": "2025-08-14 09:16:28", "BASIN": "WP", "STMNR": 16, "CAT_ID": null, "CAT_DESC": null, "MSGID": "WTPN52 PGTW 132100", "VALIDTIME": "2025-08-12 12:00:00" }, "geometry": { "type": "Point", "coordinates": [ 125.0, 21.6 ] } },
{ "type": "Feature", "properties": { "ID": 20922, "LAT": 22.0, "LON": 123.4, "VMAX": 85.0, "MSLP": 975.0, "RMAX": 17.0, "FSPD": 6.69523, "FDIR": 274.4068, "RENV": 200.0, "PENV": 1007.0, "VALIDT": 0, "DTG": "2025-08-12 18:00", "LATNOW": 24.3, "LONNOW": 116.9, "WINDNOW": 45.0, "DIRNOW": 9.0, "SPDNOW": 3.0, "TECH": "TRAK", "ADVNR": 28, "ATCFID": "WP162025", "NAME": "PODUL", "FTECH": "JTWC", "FCST_DTG": "2025-08-13 18:00:00", "RUN_DTG": "2025-08-14 09:16:28", "BASIN": "WP", "STMNR": 16, "CAT_ID": null, "CAT_DESC": null, "MSGID": "WTPN52 PGTW 132100", "VALIDTIME": "2025-08-12 18:00:00" }, "geometry": { "type": "Point", "coordinates": [ 123.400002, 22.0 ] } },
{ "type": "Feature", "properties": { "ID": 20923, "LAT": 22.1, "LON": 122.0, "VMAX": 90.0, "MSLP": 970.0, "RMAX": 20.0, "FSPD": 7.82717, "FDIR": 301.7223, "RENV": 160.0, "PENV": 1006.0, "VALIDT": 0, "DTG": "2025-08-13 00:00", "LATNOW": 24.3, "LONNOW": 116.9, "WINDNOW": 45.0, "DIRNOW": 9.0, "SPDNOW": 3.0, "TECH": "TRAK", "ADVNR": 28, "ATCFID": "WP162025", "NAME": "PODUL", "FTECH": "JTWC", "FCST_DTG": "2025-08-13 18:00:00", "RUN_DTG": "2025-08-14 09:16:28", "BASIN": "WP", "STMNR": 16, "CAT_ID": null, "CAT_DESC": null, "MSGID": "WTPN52 PGTW 132100", "VALIDTIME": "2025-08-13 00:00:00" }, "geometry": { "type": "Point", "coordinates": [ 122.0, 22.1 ] } },
{ "type": "Feature", "properties": { "ID": 20924, "LAT": 22.74, "LON": 120.88, "VMAX": 90.0, "MSLP": 970.0, "RMAX": 20.0, "FSPD": 7.81069, "FDIR": 301.79706, "RENV": 160.0, "PENV": 1006.0, "VALIDT": 0, "DTG": "2025-08-13 04:00", "LATNOW": 24.3, "LONNOW": 116.9, "WINDNOW": 45.0, "DIRNOW": 9.0, "SPDNOW": 3.0, "TECH": "TRAK", "ADVNR": 28, "ATCFID": "WP162025", "NAME": "PODUL", "FTECH": "JTWC", "FCST_DTG": "2025-08-13 18:00:00", "RUN_DTG": "2025-08-14 09:16:28", "BASIN": "WP", "STMNR": 16, "CAT_ID": null, "CAT_DESC": null, "MSGID": "WTPN52 PGTW 132100", "VALIDTIME": "2025-08-13 04:00:00" }, "geometry": { "type": "Point", "coordinates": [ 120.879997, 22.74 ] } },
{ "type": "Feature", "properties": { "ID": 20925, "LAT": 22.9, "LON": 120.6, "VMAX": 75.0, "MSLP": 966.0, "RMAX": 20.0, "FSPD": 8.89441, "FDIR": 286.80975, "RENV": 170.0, "PENV": 1006.0, "VALIDT": 0, "DTG": "2025-08-13 06:00", "LATNOW": 24.3, "LONNOW": 116.9, "WINDNOW": 45.0, "DIRNOW": 9.0, "SPDNOW": 3.0, "TECH": "TRAK", "ADVNR": 28, "ATCFID": "WP162025", "NAME": "PODUL", "FTECH": "JTWC", "FCST_DTG": "2025-08-13 18:00:00", "RUN_DTG": "2025-08-14 09:16:28", "BASIN": "WP", "STMNR": 16, "CAT_ID": null, "CAT_DESC": null, "MSGID": "WTPN52 PGTW 132100", "VALIDTIME": "2025-08-13 06:00:00" }, "geometry": { "type": "Point", "coordinates": [ 120.599998, 22.9 ] } },
{ "type": "Feature", "properties": { "ID": 20926, "LAT": 23.4, "LON": 118.8, "VMAX": 65.0, "MSLP": 977.0, "RMAX": 20.0, "FSPD": 10.07585, "FDIR": 297.3557, "RENV": 160.0, "PENV": 1004.0, "VALIDT": 0, "DTG": "2025-08-13 12:00", "LATNOW": 24.3, "LONNOW": 116.9, "WINDNOW": 45.0, "DIRNOW": 9.0, "SPDNOW": 3.0, "TECH": "TRAK", "ADVNR": 28, "ATCFID": "WP162025", "NAME": "PODUL", "FTECH": "JTWC", "FCST_DTG": "2025-08-13 18:00:00", "RUN_DTG": "2025-08-14 09:16:28", "BASIN": "WP", "STMNR": 16, "CAT_ID": null, "CAT_DESC": null, "MSGID": "WTPN52 PGTW 132100", "VALIDTIME": "2025-08-13 12:00:00" }, "geometry": { "type": "Point", "coordinates": [ 118.800003, 23.4 ] } },
{ "type": "Feature", "properties": { "ID": 20927, "LAT": 24.03, "LON": 117.47, "VMAX": 65.0, "MSLP": 977.0, "RMAX": 20.0, "FSPD": 10.04819, "FDIR": 297.43747, "RENV": 160.0, "PENV": 1004.0, "VALIDT": 0, "DTG": "2025-08-13 16:00", "LATNOW": 24.3, "LONNOW": 116.9, "WINDNOW": 45.0, "DIRNOW": 9.0, "SPDNOW": 3.0, "TECH": "TRAK", "ADVNR": 28, "ATCFID": "WP162025", "NAME": "PODUL", "FTECH": "JTWC", "FCST_DTG": "2025-08-13 18:00:00", "RUN_DTG": "2025-08-14 09:16:28", "BASIN": "WP", "STMNR": 16, "CAT_ID": null, "CAT_DESC": null, "MSGID": "WTPN52 PGTW 132100", "VALIDTIME": "2025-08-13 16:00:00" }, "geometry": { "type": "Point", "coordinates": [ 117.470001, 24.029999 ] } },
{ "type": "Feature", "properties": { "ID": 20928, "LAT": 24.3, "LON": 116.9, "VMAX": 45.0, "MSLP": 1004.66364, "RMAX": 39.89946, "FSPD": 8.60563, "FDIR": 292.86554, "RENV": 500.0, "PENV": 1012.0, "VALIDT": 0, "DTG": "2025-08-13 18:00", "LATNOW": 24.3, "LONNOW": 116.9, "WINDNOW": 45.0, "DIRNOW": 9.0, "SPDNOW": 3.0, "TECH": "TRAK", "ADVNR": 28, "ATCFID": "WP162025", "NAME": "PODUL", "FTECH": "JTWC", "FCST_DTG": "2025-08-13 18:00:00", "RUN_DTG": "2025-08-14 09:16:28", "BASIN": "WP", "STMNR": 16, "CAT_ID": null, "CAT_DESC": null, "MSGID": "WTPN52 PGTW 132100", "VALIDTIME": "2025-08-13 18:00:00" }, "geometry": { "type": "Point", "coordinates": [ 116.900002, 24.299999 ] } },
{ "type": "Feature", "properties": { "ID": 20929, "LAT": 25.6, "LON": 113.5, "VMAX": 25.0, "MSLP": 1011.80975, "RMAX": 45.0, "FSPD": 7.37051, "FDIR": 294.75793, "RENV": 250.0, "PENV": 1012.0, "VALIDT": 12, "DTG": "2025-08-14 06:00", "LATNOW": 24.3, "LONNOW": 116.9, "WINDNOW": 45.0, "DIRNOW": 9.0, "SPDNOW": 3.0, "TECH": "FCST", "ADVNR": 28, "ATCFID": "WP162025", "NAME": "PODUL", "FTECH": "JTWC", "FCST_DTG": "2025-08-13 18:00:00", "RUN_DTG": "2025-08-14 09:16:28", "BASIN": "WP", "STMNR": 16, "CAT_ID": null, "CAT_DESC": null, "MSGID": "WTPN52 PGTW 132100", "VALIDTIME": "2025-08-14 06:00:00" }, "geometry": { "type": "Point", "coordinates": [ 113.5, 25.6 ] } },
{ "type": "Feature", "properties": { "ID": 20930, "LAT": 26.8, "LON": 110.6, "VMAX": 20.0, "MSLP": 1012.95825, "RMAX": 45.0, "FSPD": 7.37051, "FDIR": 294.75793, "RENV": 250.0, "PENV": 1012.0, "VALIDT": 24, "DTG": "2025-08-14 18:00", "LATNOW": 24.3, "LONNOW": 116.9, "WINDNOW": 45.0, "DIRNOW": 9.0, "SPDNOW": 3.0, "TECH": "FCST", "ADVNR": 28, "ATCFID": "WP162025", "NAME": "PODUL", "FTECH": "JTWC", "FCST_DTG": "2025-08-13 18:00:00", "RUN_DTG": "2025-08-14 09:16:28", "BASIN": "WP", "STMNR": 16, "CAT_ID": null, "CAT_DESC": null, "MSGID": "WTPN52 PGTW 132100", "VALIDTIME": "2025-08-14 18:00:00" }, "geometry": { "type": "Point", "coordinates": [ 110.599998, 26.799999 ] } },
{ "type": "Feature", "properties": { "ID": 20928, "LAT": 24.3, "LON": 116.9, "VMAX": 45.0, "MSLP": 1004.66364, "RMAX": 39.89946, "FSPD": 8.60563, "FDIR": 292.86554, "RENV": 500.0, "PENV": 1012.0, "VALIDT": 0, "DTG": "2025-08-13 18:00", "LATNOW": 24.3, "LONNOW": 116.9, "WINDNOW": 45.0, "DIRNOW": 9.0, "SPDNOW": 3.0, "TECH": "TRAK", "ADVNR": 28, "ATCFID": "WP162025", "NAME": "PODUL", "FTECH": "JTWC", "FCST_DTG": "2025-08-13 18:00:00", "RUN_DTG": "2025-08-14 09:16:28", "BASIN": "WP", "STMNR": 16, "CAT_ID": null, "CAT_DESC": null, "MSGID": "WTPN52 PGTW 132100", "VALIDTIME": "2025-08-13 18:00:00" }, "geometry": { "type": "LineString", "coordinates": [ [ 149.5, 18.2 ], [ 149.2, 18.2 ], [ 148.9, 18.2 ], [ 148.4, 18.3 ], [ 148.1, 18.4 ], [ 147.8, 18.4 ], [ 147.7, 18.6 ], [ 147.0, 19.0 ], [ 146.2, 19.4 ], [ 145.7, 20.1 ], [ 145.1, 20.6 ], [ 144.2, 20.8 ], [ 143.5, 21.2 ], [ 142.9, 21.5 ], [ 141.9, 21.6 ], [ 141.0, 21.5 ], [ 140.2, 21.5 ], [ 138.7, 21.6 ], [ 137.6, 21.7 ], [ 136.0, 21.6 ], [ 134.7, 21.3 ], [ 133.4, 21.2 ], [ 132.2, 20.7 ], [ 130.9, 21.0 ], [ 129.3, 20.6 ], [ 128.1, 20.9 ], [ 126.5, 21.3 ], [ 125.0, 21.6 ], [ 123.4, 22.0 ], [ 122.0, 22.1 ], [ 120.88, 22.74 ], [ 120.6, 22.9 ], [ 118.8, 23.4 ], [ 117.47, 24.03 ], [ 116.9, 24.3 ] ] } },
{ "type": "Feature", "properties": { "ID": 20930, "LAT": 26.8, "LON": 110.6, "VMAX": 20.0, "MSLP": 1012.95825, "RMAX": 45.0, "FSPD": 7.37051, "FDIR": 294.75793, "RENV": 250.0, "PENV": 1012.0, "VALIDT": 24, "DTG": "2025-08-14 18:00", "LATNOW": 24.3, "LONNOW": 116.9, "WINDNOW": 45.0, "DIRNOW": 9.0, "SPDNOW": 3.0, "TECH": "FCST", "ADVNR": 28, "ATCFID": "WP162025", "NAME": "PODUL", "FTECH": "JTWC", "FCST_DTG": "2025-08-13 18:00:00", "RUN_DTG": "2025-08-14 09:16:28", "BASIN": "WP", "STMNR": 16, "CAT_ID": null, "CAT_DESC": null, "MSGID": "WTPN52 PGTW 132100", "VALIDTIME": "2025-08-14 18:00:00" }, "geometry": { "type": "LineString", "coordinates": [ [ 116.9, 24.3 ], [ 113.5, 25.6 ], [ 110.6, 26.8 ] ] } }
]
}
