{
"type": "FeatureCollection",
"crs": { "type": "name", "properties": { "name": "urn:ogc:def:crs:OGC:1.3:CRS84" } },
"features": [
{ "type": "Feature", "properties": { "ID": 59456, "LAT": 12.4, "LON": -102.0, "VMAX": 20.0, "MSLP": 1009.0, "RMAX": 80.0, "FSPD": 2.56388, "FDIR": 281.57507, "RENV": 100.0, "PENV": 1011.0, "VALIDT": 0, "DTG": "2025-10-02 18:00", "LATNOW": 26.1, "LONNOW": -115.4, "WINDNOW": 30.0, "DIRNOW": 2.0, "SPDNOW": 2.0, "TECH": "TRAK", "ADVNR": 25, "ATCFID": "EP162025", "NAME": "PRISCILLA", "FTECH": "OFCL", "FCST_DTG": "2025-10-10 18:00:00", "RUN_DTG": "2025-10-11 16:32:53", "BASIN": "EP", "STMNR": 16, "CAT_ID": null, "CAT_DESC": null, "MSGID": "WTPZ21 KNHC 102032", "VALIDTIME": "2025-10-02 18:00:00" }, "geometry": { "type": "Point", "coordinates": [ -102.0, 12.4 ] } },
{ "type": "Feature", "properties": { "ID": 59457, "LAT": 12.5, "LON": -102.5, "VMAX": 20.0, "MSLP": 1009.0, "RMAX": 80.0, "FSPD": 5.61762, "FDIR": 280.55347, "RENV": 100.0, "PENV": 1011.0, "VALIDT": 0, "DTG": "2025-10-03 00:00", "LATNOW": 26.1, "LONNOW": -115.4, "WINDNOW": 30.0, "DIRNOW": 2.0, "SPDNOW": 2.0, "TECH": "TRAK", "ADVNR": 25, "ATCFID": "EP162025", "NAME": "PRISCILLA", "FTECH": "OFCL", "FCST_DTG": "2025-10-10 18:00:00", "RUN_DTG": "2025-10-11 16:32:53", "BASIN": "EP", "STMNR": 16, "CAT_ID": null, "CAT_DESC": null, "MSGID": "WTPZ21 KNHC 102032", "VALIDTIME": "2025-10-03 00:00:00" }, "geometry": { "type": "Point", "coordinates": [ -102.5, 12.5 ] } },
{ "type": "Feature", "properties": { "ID": 59458, "LAT": 12.7, "LON": -103.6, "VMAX": 20.0, "MSLP": 1009.0, "RMAX": 80.0, "FSPD": 9.24951, "FDIR": 292.91278, "RENV": 100.0, "PENV": 1011.0, "VALIDT": 0, "DTG": "2025-10-03 06:00", "LATNOW": 26.1, "LONNOW": -115.4, "WINDNOW": 30.0, "DIRNOW": 2.0, "SPDNOW": 2.0, "TECH": "TRAK", "ADVNR": 25, "ATCFID": "EP162025", "NAME": "PRISCILLA", "FTECH": "OFCL", "FCST_DTG": "2025-10-10 18:00:00", "RUN_DTG": "2025-10-11 16:32:53", "BASIN": "EP", "STMNR": 16, "CAT_ID": null, "CAT_DESC": null, "MSGID": "WTPZ21 KNHC 102032", "VALIDTIME": "2025-10-03 06:00:00" }, "geometry": { "type": "Point", "coordinates": [ -103.599998, 12.7 ] } },
{ "type": "Feature", "properties": { "ID": 59459, "LAT": 13.4, "LON": -105.3, "VMAX": 20.0, "MSLP": 1008.0, "RMAX": 80.0, "FSPD": 3.37773, "FDIR": 117.18808, "RENV": 160.0, "PENV": 1010.0, "VALIDT": 0, "DTG": "2025-10-03 12:00", "LATNOW": 26.1, "LONNOW": -115.4, "WINDNOW": 30.0, "DIRNOW": 2.0, "SPDNOW": 2.0, "TECH": "TRAK", "ADVNR": 25, "ATCFID": "EP162025", "NAME": "PRISCILLA", "FTECH": "OFCL", "FCST_DTG": "2025-10-10 18:00:00", "RUN_DTG": "2025-10-11 16:32:53", "BASIN": "EP", "STMNR": 16, "CAT_ID": null, "CAT_DESC": null, "MSGID": "WTPZ21 KNHC 102032", "VALIDTIME": "2025-10-03 12:00:00" }, "geometry": { "type": "Point", "coordinates": [ -105.300003, 13.4 ] } },
{ "type": "Feature", "properties": { "ID": 59460, "LAT": 13.1, "LON": -104.7, "VMAX": 30.0, "MSLP": 1007.0, "RMAX": 120.0, "FSPD": 3.65384, "FDIR": 286.35513, "RENV": 180.0, "PENV": 1011.0, "VALIDT": 0, "DTG": "2025-10-03 18:00", "LATNOW": 26.1, "LONNOW": -115.4, "WINDNOW": 30.0, "DIRNOW": 2.0, "SPDNOW": 2.0, "TECH": "TRAK", "ADVNR": 25, "ATCFID": "EP162025", "NAME": "PRISCILLA", "FTECH": "OFCL", "FCST_DTG": "2025-10-10 18:00:00", "RUN_DTG": "2025-10-11 16:32:53", "BASIN": "EP", "STMNR": 16, "CAT_ID": null, "CAT_DESC": null, "MSGID": "WTPZ21 KNHC 102032", "VALIDTIME": "2025-10-03 18:00:00" }, "geometry": { "type": "Point", "coordinates": [ -104.699997, 13.1 ] } },
{ "type": "Feature", "properties": { "ID": 59461, "LAT": 13.3, "LON": -105.4, "VMAX": 30.0, "MSLP": 1006.0, "RMAX": 100.0, "FSPD": 6.1935, "FDIR": 4.62469, "RENV": 200.0, "PENV": 1010.0, "VALIDT": 0, "DTG": "2025-10-04 00:00", "LATNOW": 26.1, "LONNOW": -115.4, "WINDNOW": 30.0, "DIRNOW": 2.0, "SPDNOW": 2.0, "TECH": "TRAK", "ADVNR": 25, "ATCFID": "EP162025", "NAME": "PRISCILLA", "FTECH": "OFCL", "FCST_DTG": "2025-10-10 18:00:00", "RUN_DTG": "2025-10-11 16:32:53", "BASIN": "EP", "STMNR": 16, "CAT_ID": null, "CAT_DESC": null, "MSGID": "WTPZ21 KNHC 102032", "VALIDTIME": "2025-10-04 00:00:00" }, "geometry": { "type": "Point", "coordinates": [ -105.400002, 13.3 ] } },
{ "type": "Feature", "properties": { "ID": 59462, "LAT": 14.5, "LON": -105.3, "VMAX": 30.0, "MSLP": 1006.0, "RMAX": 100.0, "FSPD": 3.2521, "FDIR": 322.27356, "RENV": 200.0, "PENV": 1010.0, "VALIDT": 0, "DTG": "2025-10-04 06:00", "LATNOW": 26.1, "LONNOW": -115.4, "WINDNOW": 30.0, "DIRNOW": 2.0, "SPDNOW": 2.0, "TECH": "TRAK", "ADVNR": 25, "ATCFID": "EP162025", "NAME": "PRISCILLA", "FTECH": "OFCL", "FCST_DTG": "2025-10-10 18:00:00", "RUN_DTG": "2025-10-11 16:32:53", "BASIN": "EP", "STMNR": 16, "CAT_ID": null, "CAT_DESC": null, "MSGID": "WTPZ21 KNHC 102032", "VALIDTIME": "2025-10-04 06:00:00" }, "geometry": { "type": "Point", "coordinates": [ -105.300003, 14.5 ] } },
{ "type": "Feature", "properties": { "ID": 59463, "LAT": 15.0, "LON": -105.7, "VMAX": 30.0, "MSLP": 1005.0, "RMAX": 100.0, "FSPD": 4.47303, "FDIR": 297.3897, "RENV": 200.0, "PENV": 1009.0, "VALIDT": 0, "DTG": "2025-10-04 12:00", "LATNOW": 26.1, "LONNOW": -115.4, "WINDNOW": 30.0, "DIRNOW": 2.0, "SPDNOW": 2.0, "TECH": "TRAK", "ADVNR": 25, "ATCFID": "EP162025", "NAME": "PRISCILLA", "FTECH": "OFCL", "FCST_DTG": "2025-10-10 18:00:00", "RUN_DTG": "2025-10-11 16:32:53", "BASIN": "EP", "STMNR": 16, "CAT_ID": null, "CAT_DESC": null, "MSGID": "WTPZ21 KNHC 102032", "VALIDTIME": "2025-10-04 12:00:00" }, "geometry": { "type": "Point", "coordinates": [ -105.699997, 15.0 ] } },
{ "type": "Feature", "properties": { "ID": 59464, "LAT": 15.4, "LON": -106.5, "VMAX": 40.0, "MSLP": 1002.0, "RMAX": 60.0, "FSPD": 0.71451, "FDIR": 316.0547, "RENV": 160.0, "PENV": 1008.0, "VALIDT": 0, "DTG": "2025-10-04 18:00", "LATNOW": 26.1, "LONNOW": -115.4, "WINDNOW": 30.0, "DIRNOW": 2.0, "SPDNOW": 2.0, "TECH": "TRAK", "ADVNR": 25, "ATCFID": "EP162025", "NAME": "PRISCILLA", "FTECH": "OFCL", "FCST_DTG": "2025-10-10 18:00:00", "RUN_DTG": "2025-10-11 16:32:53", "BASIN": "EP", "STMNR": 16, "CAT_ID": null, "CAT_DESC": null, "MSGID": "WTPZ21 KNHC 102032", "VALIDTIME": "2025-10-04 18:00:00" }, "geometry": { "type": "Point", "coordinates": [ -106.5, 15.4 ] } },
{ "type": "Feature", "properties": { "ID": 59465, "LAT": 15.5, "LON": -106.6, "VMAX": 40.0, "MSLP": 1000.0, "RMAX": 60.0, "FSPD": 2.28376, "FDIR": 334.2958, "RENV": 160.0, "PENV": 1008.0, "VALIDT": 0, "DTG": "2025-10-05 00:00", "LATNOW": 26.1, "LONNOW": -115.4, "WINDNOW": 30.0, "DIRNOW": 2.0, "SPDNOW": 2.0, "TECH": "TRAK", "ADVNR": 25, "ATCFID": "EP162025", "NAME": "PRISCILLA", "FTECH": "OFCL", "FCST_DTG": "2025-10-10 18:00:00", "RUN_DTG": "2025-10-11 16:32:53", "BASIN": "EP", "STMNR": 16, "CAT_ID": null, "CAT_DESC": null, "MSGID": "WTPZ21 KNHC 102032", "VALIDTIME": "2025-10-05 00:00:00" }, "geometry": { "type": "Point", "coordinates": [ -106.599998, 15.5 ] } },
{ "type": "Feature", "properties": { "ID": 59466, "LAT": 15.9, "LON": -106.8, "VMAX": 50.0, "MSLP": 994.0, "RMAX": 20.0, "FSPD": 2.1163, "FDIR": 346.4939, "RENV": 160.0, "PENV": 1007.0, "VALIDT": 0, "DTG": "2025-10-05 06:00", "LATNOW": 26.1, "LONNOW": -115.4, "WINDNOW": 30.0, "DIRNOW": 2.0, "SPDNOW": 2.0, "TECH": "TRAK", "ADVNR": 25, "ATCFID": "EP162025", "NAME": "PRISCILLA", "FTECH": "OFCL", "FCST_DTG": "2025-10-10 18:00:00", "RUN_DTG": "2025-10-11 16:32:53", "BASIN": "EP", "STMNR": 16, "CAT_ID": null, "CAT_DESC": null, "MSGID": "WTPZ21 KNHC 102032", "VALIDTIME": "2025-10-05 06:00:00" }, "geometry": { "type": "Point", "coordinates": [ -106.800003, 15.9 ] } },
{ "type": "Feature", "properties": { "ID": 59467, "LAT": 16.3, "LON": -106.9, "VMAX": 55.0, "MSLP": 991.0, "RMAX": 30.0, "FSPD": 0.49376, "FDIR": 269.99997, "RENV": 160.0, "PENV": 1006.0, "VALIDT": 0, "DTG": "2025-10-05 12:00", "LATNOW": 26.1, "LONNOW": -115.4, "WINDNOW": 30.0, "DIRNOW": 2.0, "SPDNOW": 2.0, "TECH": "TRAK", "ADVNR": 25, "ATCFID": "EP162025", "NAME": "PRISCILLA", "FTECH": "OFCL", "FCST_DTG": "2025-10-10 18:00:00", "RUN_DTG": "2025-10-11 16:32:53", "BASIN": "EP", "STMNR": 16, "CAT_ID": null, "CAT_DESC": null, "MSGID": "WTPZ21 KNHC 102032", "VALIDTIME": "2025-10-05 12:00:00" }, "geometry": { "type": "Point", "coordinates": [ -106.900002, 16.299999 ] } },
{ "type": "Feature", "properties": { "ID": 59468, "LAT": 16.3, "LON": -107.0, "VMAX": 60.0, "MSLP": 988.0, "RMAX": 35.0, "FSPD": 1.14113, "FDIR": 334.37537, "RENV": 170.0, "PENV": 1006.0, "VALIDT": 0, "DTG": "2025-10-05 18:00", "LATNOW": 26.1, "LONNOW": -115.4, "WINDNOW": 30.0, "DIRNOW": 2.0, "SPDNOW": 2.0, "TECH": "TRAK", "ADVNR": 25, "ATCFID": "EP162025", "NAME": "PRISCILLA", "FTECH": "OFCL", "FCST_DTG": "2025-10-10 18:00:00", "RUN_DTG": "2025-10-11 16:32:53", "BASIN": "EP", "STMNR": 16, "CAT_ID": null, "CAT_DESC": null, "MSGID": "WTPZ21 KNHC 102032", "VALIDTIME": "2025-10-05 18:00:00" }, "geometry": { "type": "Point", "coordinates": [ -107.0, 16.299999 ] } },
{ "type": "Feature", "properties": { "ID": 59469, "LAT": 16.5, "LON": -107.1, "VMAX": 65.0, "MSLP": 986.0, "RMAX": 35.0, "FSPD": 2.61897, "FDIR": 349.15848, "RENV": 170.0, "PENV": 1006.0, "VALIDT": 0, "DTG": "2025-10-06 00:00", "LATNOW": 26.1, "LONNOW": -115.4, "WINDNOW": 30.0, "DIRNOW": 2.0, "SPDNOW": 2.0, "TECH": "TRAK", "ADVNR": 25, "ATCFID": "EP162025", "NAME": "PRISCILLA", "FTECH": "OFCL", "FCST_DTG": "2025-10-10 18:00:00", "RUN_DTG": "2025-10-11 16:32:53", "BASIN": "EP", "STMNR": 16, "CAT_ID": null, "CAT_DESC": null, "MSGID": "WTPZ21 KNHC 102032", "VALIDTIME": "2025-10-06 00:00:00" }, "geometry": { "type": "Point", "coordinates": [ -107.099998, 16.5 ] } },
{ "type": "Feature", "properties": { "ID": 59470, "LAT": 17.0, "LON": -107.2, "VMAX": 75.0, "MSLP": 977.0, "RMAX": 35.0, "FSPD": 1.61973, "FDIR": 342.33163, "RENV": 180.0, "PENV": 1006.0, "VALIDT": 0, "DTG": "2025-10-06 06:00", "LATNOW": 26.1, "LONNOW": -115.4, "WINDNOW": 30.0, "DIRNOW": 2.0, "SPDNOW": 2.0, "TECH": "TRAK", "ADVNR": 25, "ATCFID": "EP162025", "NAME": "PRISCILLA", "FTECH": "OFCL", "FCST_DTG": "2025-10-10 18:00:00", "RUN_DTG": "2025-10-11 16:32:53", "BASIN": "EP", "STMNR": 16, "CAT_ID": null, "CAT_DESC": null, "MSGID": "WTPZ21 KNHC 102032", "VALIDTIME": "2025-10-06 06:00:00" }, "geometry": { "type": "Point", "coordinates": [ -107.199997, 17.0 ] } },
{ "type": "Feature", "properties": { "ID": 59471, "LAT": 17.3, "LON": -107.3, "VMAX": 75.0, "MSLP": 973.0, "RMAX": 45.0, "FSPD": 3.88984, "FDIR": 337.78534, "RENV": 190.0, "PENV": 1005.0, "VALIDT": 0, "DTG": "2025-10-06 12:00", "LATNOW": 26.1, "LONNOW": -115.4, "WINDNOW": 30.0, "DIRNOW": 2.0, "SPDNOW": 2.0, "TECH": "TRAK", "ADVNR": 25, "ATCFID": "EP162025", "NAME": "PRISCILLA", "FTECH": "OFCL", "FCST_DTG": "2025-10-10 18:00:00", "RUN_DTG": "2025-10-11 16:32:53", "BASIN": "EP", "STMNR": 16, "CAT_ID": null, "CAT_DESC": null, "MSGID": "WTPZ21 KNHC 102032", "VALIDTIME": "2025-10-06 12:00:00" }, "geometry": { "type": "Point", "coordinates": [ -107.300003, 17.299999 ] } },
{ "type": "Feature", "properties": { "ID": 59472, "LAT": 18.0, "LON": -107.6, "VMAX": 75.0, "MSLP": 972.0, "RMAX": 45.0, "FSPD": 5.05133, "FDIR": 324.5622, "RENV": 180.0, "PENV": 1005.0, "VALIDT": 0, "DTG": "2025-10-06 18:00", "LATNOW": 26.1, "LONNOW": -115.4, "WINDNOW": 30.0, "DIRNOW": 2.0, "SPDNOW": 2.0, "TECH": "TRAK", "ADVNR": 25, "ATCFID": "EP162025", "NAME": "PRISCILLA", "FTECH": "OFCL", "FCST_DTG": "2025-10-10 18:00:00", "RUN_DTG": "2025-10-11 16:32:53", "BASIN": "EP", "STMNR": 16, "CAT_ID": null, "CAT_DESC": null, "MSGID": "WTPZ21 KNHC 102032", "VALIDTIME": "2025-10-06 18:00:00" }, "geometry": { "type": "Point", "coordinates": [ -107.599998, 18.0 ] } },
{ "type": "Feature", "properties": { "ID": 59473, "LAT": 18.8, "LON": -108.2, "VMAX": 75.0, "MSLP": 972.0, "RMAX": 45.0, "FSPD": 4.18731, "FDIR": 291.62775, "RENV": 230.0, "PENV": 1006.0, "VALIDT": 0, "DTG": "2025-10-07 00:00", "LATNOW": 26.1, "LONNOW": -115.4, "WINDNOW": 30.0, "DIRNOW": 2.0, "SPDNOW": 2.0, "TECH": "TRAK", "ADVNR": 25, "ATCFID": "EP162025", "NAME": "PRISCILLA", "FTECH": "OFCL", "FCST_DTG": "2025-10-10 18:00:00", "RUN_DTG": "2025-10-11 16:32:53", "BASIN": "EP", "STMNR": 16, "CAT_ID": null, "CAT_DESC": null, "MSGID": "WTPZ21 KNHC 102032", "VALIDTIME": "2025-10-07 00:00:00" }, "geometry": { "type": "Point", "coordinates": [ -108.199997, 18.799999 ] } },
{ "type": "Feature", "properties": { "ID": 59474, "LAT": 19.1, "LON": -109.0, "VMAX": 80.0, "MSLP": 970.0, "RMAX": 30.0, "FSPD": 4.65776, "FDIR": 303.52112, "RENV": 230.0, "PENV": 1006.0, "VALIDT": 0, "DTG": "2025-10-07 06:00", "LATNOW": 26.1, "LONNOW": -115.4, "WINDNOW": 30.0, "DIRNOW": 2.0, "SPDNOW": 2.0, "TECH": "TRAK", "ADVNR": 25, "ATCFID": "EP162025", "NAME": "PRISCILLA", "FTECH": "OFCL", "FCST_DTG": "2025-10-10 18:00:00", "RUN_DTG": "2025-10-11 16:32:53", "BASIN": "EP", "STMNR": 16, "CAT_ID": null, "CAT_DESC": null, "MSGID": "WTPZ21 KNHC 102032", "VALIDTIME": "2025-10-07 06:00:00" }, "geometry": { "type": "Point", "coordinates": [ -109.0, 19.1 ] } },
{ "type": "Feature", "properties": { "ID": 59475, "LAT": 19.6, "LON": -109.8, "VMAX": 90.0, "MSLP": 963.0, "RMAX": 30.0, "FSPD": 3.43018, "FDIR": 278.62555, "RENV": 230.0, "PENV": 1006.0, "VALIDT": 0, "DTG": "2025-10-07 12:00", "LATNOW": 26.1, "LONNOW": -115.4, "WINDNOW": 30.0, "DIRNOW": 2.0, "SPDNOW": 2.0, "TECH": "TRAK", "ADVNR": 25, "ATCFID": "EP162025", "NAME": "PRISCILLA", "FTECH": "OFCL", "FCST_DTG": "2025-10-10 18:00:00", "RUN_DTG": "2025-10-11 16:32:53", "BASIN": "EP", "STMNR": 16, "CAT_ID": null, "CAT_DESC": null, "MSGID": "WTPZ21 KNHC 102032", "VALIDTIME": "2025-10-07 12:00:00" }, "geometry": { "type": "Point", "coordinates": [ -109.800003, 19.6 ] } },
{ "type": "Feature", "properties": { "ID": 59476, "LAT": 19.7, "LON": -110.5, "VMAX": 95.0, "MSLP": 958.0, "RMAX": 30.0, "FSPD": 4.58022, "FDIR": 312.36963, "RENV": 210.0, "PENV": 1006.0, "VALIDT": 0, "DTG": "2025-10-07 18:00", "LATNOW": 26.1, "LONNOW": -115.4, "WINDNOW": 30.0, "DIRNOW": 2.0, "SPDNOW": 2.0, "TECH": "TRAK", "ADVNR": 25, "ATCFID": "EP162025", "NAME": "PRISCILLA", "FTECH": "OFCL", "FCST_DTG": "2025-10-10 18:00:00", "RUN_DTG": "2025-10-11 16:32:53", "BASIN": "EP", "STMNR": 16, "CAT_ID": null, "CAT_DESC": null, "MSGID": "WTPZ21 KNHC 102032", "VALIDTIME": "2025-10-07 18:00:00" }, "geometry": { "type": "Point", "coordinates": [ -110.5, 19.700001 ] } },
{ "type": "Feature", "properties": { "ID": 59477, "LAT": 20.3, "LON": -111.2, "VMAX": 95.0, "MSLP": 958.0, "RMAX": 30.0, "FSPD": 3.16849, "FDIR": 310.5003, "RENV": 220.0, "PENV": 1006.0, "VALIDT": 0, "DTG": "2025-10-08 00:00", "LATNOW": 26.1, "LONNOW": -115.4, "WINDNOW": 30.0, "DIRNOW": 2.0, "SPDNOW": 2.0, "TECH": "TRAK", "ADVNR": 25, "ATCFID": "EP162025", "NAME": "PRISCILLA", "FTECH": "OFCL", "FCST_DTG": "2025-10-10 18:00:00", "RUN_DTG": "2025-10-11 16:32:53", "BASIN": "EP", "STMNR": 16, "CAT_ID": null, "CAT_DESC": null, "MSGID": "WTPZ21 KNHC 102032", "VALIDTIME": "2025-10-08 00:00:00" }, "geometry": { "type": "Point", "coordinates": [ -111.199997, 20.299999 ] } },
{ "type": "Feature", "properties": { "ID": 59478, "LAT": 20.7, "LON": -111.7, "VMAX": 85.0, "MSLP": 968.0, "RMAX": 30.0, "FSPD": 3.16366, "FDIR": 310.57483, "RENV": 200.0, "PENV": 1008.0, "VALIDT": 0, "DTG": "2025-10-08 06:00", "LATNOW": 26.1, "LONNOW": -115.4, "WINDNOW": 30.0, "DIRNOW": 2.0, "SPDNOW": 2.0, "TECH": "TRAK", "ADVNR": 25, "ATCFID": "EP162025", "NAME": "PRISCILLA", "FTECH": "OFCL", "FCST_DTG": "2025-10-10 18:00:00", "RUN_DTG": "2025-10-11 16:32:53", "BASIN": "EP", "STMNR": 16, "CAT_ID": null, "CAT_DESC": null, "MSGID": "WTPZ21 KNHC 102032", "VALIDTIME": "2025-10-08 06:00:00" }, "geometry": { "type": "Point", "coordinates": [ -111.699997, 20.700001 ] } },
{ "type": "Feature", "properties": { "ID": 59479, "LAT": 21.1, "LON": -112.2, "VMAX": 70.0, "MSLP": 979.0, "RMAX": 35.0, "FSPD": 3.90679, "FDIR": 322.19284, "RENV": 210.0, "PENV": 1008.0, "VALIDT": 0, "DTG": "2025-10-08 12:00", "LATNOW": 26.1, "LONNOW": -115.4, "WINDNOW": 30.0, "DIRNOW": 2.0, "SPDNOW": 2.0, "TECH": "TRAK", "ADVNR": 25, "ATCFID": "EP162025", "NAME": "PRISCILLA", "FTECH": "OFCL", "FCST_DTG": "2025-10-10 18:00:00", "RUN_DTG": "2025-10-11 16:32:53", "BASIN": "EP", "STMNR": 16, "CAT_ID": null, "CAT_DESC": null, "MSGID": "WTPZ21 KNHC 102032", "VALIDTIME": "2025-10-08 12:00:00" }, "geometry": { "type": "Point", "coordinates": [ -112.199997, 21.1 ] } },
{ "type": "Feature", "properties": { "ID": 59480, "LAT": 21.7, "LON": -112.7, "VMAX": 60.0, "MSLP": 985.0, "RMAX": 40.0, "FSPD": 4.20929, "FDIR": 317.16345, "RENV": 200.0, "PENV": 1008.0, "VALIDT": 0, "DTG": "2025-10-08 18:00", "LATNOW": 26.1, "LONNOW": -115.4, "WINDNOW": 30.0, "DIRNOW": 2.0, "SPDNOW": 2.0, "TECH": "TRAK", "ADVNR": 25, "ATCFID": "EP162025", "NAME": "PRISCILLA", "FTECH": "OFCL", "FCST_DTG": "2025-10-10 18:00:00", "RUN_DTG": "2025-10-11 16:32:53", "BASIN": "EP", "STMNR": 16, "CAT_ID": null, "CAT_DESC": null, "MSGID": "WTPZ21 KNHC 102032", "VALIDTIME": "2025-10-08 18:00:00" }, "geometry": { "type": "Point", "coordinates": [ -112.699997, 21.700001 ] } },
{ "type": "Feature", "properties": { "ID": 59481, "LAT": 22.3, "LON": -113.3, "VMAX": 55.0, "MSLP": 987.0, "RMAX": 40.0, "FSPD": 5.00464, "FDIR": 325.3206, "RENV": 200.0, "PENV": 1008.0, "VALIDT": 0, "DTG": "2025-10-09 00:00", "LATNOW": 26.1, "LONNOW": -115.4, "WINDNOW": 30.0, "DIRNOW": 2.0, "SPDNOW": 2.0, "TECH": "TRAK", "ADVNR": 25, "ATCFID": "EP162025", "NAME": "PRISCILLA", "FTECH": "OFCL", "FCST_DTG": "2025-10-10 18:00:00", "RUN_DTG": "2025-10-11 16:32:53", "BASIN": "EP", "STMNR": 16, "CAT_ID": null, "CAT_DESC": null, "MSGID": "WTPZ21 KNHC 102032", "VALIDTIME": "2025-10-09 00:00:00" }, "geometry": { "type": "Point", "coordinates": [ -113.300003, 22.299999 ] } },
{ "type": "Feature", "properties": { "ID": 59482, "LAT": 23.1, "LON": -113.9, "VMAX": 50.0, "MSLP": 989.0, "RMAX": 40.0, "FSPD": 3.82715, "FDIR": 312.2292, "RENV": 160.0, "PENV": 1008.0, "VALIDT": 0, "DTG": "2025-10-09 06:00", "LATNOW": 26.1, "LONNOW": -115.4, "WINDNOW": 30.0, "DIRNOW": 2.0, "SPDNOW": 2.0, "TECH": "TRAK", "ADVNR": 25, "ATCFID": "EP162025", "NAME": "PRISCILLA", "FTECH": "OFCL", "FCST_DTG": "2025-10-10 18:00:00", "RUN_DTG": "2025-10-11 16:32:53", "BASIN": "EP", "STMNR": 16, "CAT_ID": null, "CAT_DESC": null, "MSGID": "WTPZ21 KNHC 102032", "VALIDTIME": "2025-10-09 06:00:00" }, "geometry": { "type": "Point", "coordinates": [ -113.900002, 23.1 ] } },
{ "type": "Feature", "properties": { "ID": 59483, "LAT": 23.6, "LON": -114.5, "VMAX": 40.0, "MSLP": 996.0, "RMAX": 40.0, "FSPD": 2.93408, "FDIR": 331.24335, "RENV": 160.0, "PENV": 1008.0, "VALIDT": 0, "DTG": "2025-10-09 12:00", "LATNOW": 26.1, "LONNOW": -115.4, "WINDNOW": 30.0, "DIRNOW": 2.0, "SPDNOW": 2.0, "TECH": "TRAK", "ADVNR": 25, "ATCFID": "EP162025", "NAME": "PRISCILLA", "FTECH": "OFCL", "FCST_DTG": "2025-10-10 18:00:00", "RUN_DTG": "2025-10-11 16:32:53", "BASIN": "EP", "STMNR": 16, "CAT_ID": null, "CAT_DESC": null, "MSGID": "WTPZ21 KNHC 102032", "VALIDTIME": "2025-10-09 12:00:00" }, "geometry": { "type": "Point", "coordinates": [ -114.5, 23.6 ] } },
{ "type": "Feature", "properties": { "ID": 59484, "LAT": 24.1, "LON": -114.8, "VMAX": 40.0, "MSLP": 996.0, "RMAX": 40.0, "FSPD": 3.72091, "FDIR": 345.42102, "RENV": 160.0, "PENV": 1009.0, "VALIDT": 0, "DTG": "2025-10-09 18:00", "LATNOW": 26.1, "LONNOW": -115.4, "WINDNOW": 30.0, "DIRNOW": 2.0, "SPDNOW": 2.0, "TECH": "TRAK", "ADVNR": 25, "ATCFID": "EP162025", "NAME": "PRISCILLA", "FTECH": "OFCL", "FCST_DTG": "2025-10-10 18:00:00", "RUN_DTG": "2025-10-11 16:32:53", "BASIN": "EP", "STMNR": 16, "CAT_ID": null, "CAT_DESC": null, "MSGID": "WTPZ21 KNHC 102032", "VALIDTIME": "2025-10-09 18:00:00" }, "geometry": { "type": "Point", "coordinates": [ -114.800003, 24.1 ] } },
{ "type": "Feature", "properties": { "ID": 59485, "LAT": 24.8, "LON": -115.0, "VMAX": 45.0, "MSLP": 995.0, "RMAX": 45.0, "FSPD": 2.2592, "FDIR": 335.62256, "RENV": 180.0, "PENV": 1009.0, "VALIDT": 0, "DTG": "2025-10-10 00:00", "LATNOW": 26.1, "LONNOW": -115.4, "WINDNOW": 30.0, "DIRNOW": 2.0, "SPDNOW": 2.0, "TECH": "TRAK", "ADVNR": 25, "ATCFID": "EP162025", "NAME": "PRISCILLA", "FTECH": "OFCL", "FCST_DTG": "2025-10-10 18:00:00", "RUN_DTG": "2025-10-11 16:32:53", "BASIN": "EP", "STMNR": 16, "CAT_ID": null, "CAT_DESC": null, "MSGID": "WTPZ21 KNHC 102032", "VALIDTIME": "2025-10-10 00:00:00" }, "geometry": { "type": "Point", "coordinates": [ -115.0, 24.799999 ] } },
{ "type": "Feature", "properties": { "ID": 59486, "LAT": 25.2, "LON": -115.2, "VMAX": 45.0, "MSLP": 994.0, "RMAX": 35.0, "FSPD": 2.57222, "FDIR": 360.0, "RENV": 150.0, "PENV": 1009.0, "VALIDT": 0, "DTG": "2025-10-10 06:00", "LATNOW": 26.1, "LONNOW": -115.4, "WINDNOW": 30.0, "DIRNOW": 2.0, "SPDNOW": 2.0, "TECH": "TRAK", "ADVNR": 25, "ATCFID": "EP162025", "NAME": "PRISCILLA", "FTECH": "OFCL", "FCST_DTG": "2025-10-10 18:00:00", "RUN_DTG": "2025-10-11 16:32:53", "BASIN": "EP", "STMNR": 16, "CAT_ID": null, "CAT_DESC": null, "MSGID": "WTPZ21 KNHC 102032", "VALIDTIME": "2025-10-10 06:00:00" }, "geometry": { "type": "Point", "coordinates": [ -115.199997, 25.200001 ] } },
{ "type": "Feature", "properties": { "ID": 59487, "LAT": 25.7, "LON": -115.2, "VMAX": 40.0, "MSLP": 1000.0, "RMAX": 35.0, "FSPD": 2.25635, "FDIR": 335.78226, "RENV": 150.0, "PENV": 1009.0, "VALIDT": 0, "DTG": "2025-10-10 12:00", "LATNOW": 26.1, "LONNOW": -115.4, "WINDNOW": 30.0, "DIRNOW": 2.0, "SPDNOW": 2.0, "TECH": "TRAK", "ADVNR": 25, "ATCFID": "EP162025", "NAME": "PRISCILLA", "FTECH": "OFCL", "FCST_DTG": "2025-10-10 18:00:00", "RUN_DTG": "2025-10-11 16:32:53", "BASIN": "EP", "STMNR": 16, "CAT_ID": null, "CAT_DESC": null, "MSGID": "WTPZ21 KNHC 102032", "VALIDTIME": "2025-10-10 12:00:00" }, "geometry": { "type": "Point", "coordinates": [ -115.199997, 25.700001 ] } },
{ "type": "Feature", "properties": { "ID": 59488, "LAT": 26.1, "LON": -115.4, "VMAX": 30.0, "MSLP": 1004.0, "RMAX": 40.0, "FSPD": 2.05777, "FDIR": 360.0, "RENV": 150.0, "PENV": 1009.0, "VALIDT": 0, "DTG": "2025-10-10 18:00", "LATNOW": 26.1, "LONNOW": -115.4, "WINDNOW": 30.0, "DIRNOW": 2.0, "SPDNOW": 2.0, "TECH": "TRAK", "ADVNR": 25, "ATCFID": "EP162025", "NAME": "PRISCILLA", "FTECH": "OFCL", "FCST_DTG": "2025-10-10 18:00:00", "RUN_DTG": "2025-10-11 16:32:53", "BASIN": "EP", "STMNR": 16, "CAT_ID": null, "CAT_DESC": null, "MSGID": "WTPZ21 KNHC 102032", "VALIDTIME": "2025-10-10 18:00:00" }, "geometry": { "type": "Point", "coordinates": [ -115.400002, 26.1 ] } },
{ "type": "Feature", "properties": { "ID": 59489, "LAT": 26.3, "LON": -115.4, "VMAX": 30.0, "MSLP": 1004.0, "RMAX": 40.0, "FSPD": 1.82128, "FDIR": 340.31213, "RENV": 250.0, "PENV": 1012.0, "VALIDT": 3, "DTG": "2025-10-10 21:00", "LATNOW": 26.1, "LONNOW": -115.4, "WINDNOW": 30.0, "DIRNOW": 2.0, "SPDNOW": 2.0, "TECH": "FCST", "ADVNR": 25, "ATCFID": "EP162025", "NAME": "PRISCILLA", "FTECH": "OFCL", "FCST_DTG": "2025-10-10 18:00:00", "RUN_DTG": "2025-10-11 16:32:53", "BASIN": "EP", "STMNR": 16, "CAT_ID": null, "CAT_DESC": null, "MSGID": "WTPZ21 KNHC 102032", "VALIDTIME": "2025-10-10 21:00:00" }, "geometry": { "type": "Point", "coordinates": [ -115.400002, 26.299999 ] } },
{ "type": "Feature", "properties": { "ID": 59490, "LAT": 26.8, "LON": -115.6, "VMAX": 25.0, "MSLP": 1011.80975, "RMAX": 45.54887, "FSPD": 1.82128, "FDIR": 340.31213, "RENV": 250.0, "PENV": 1012.0, "VALIDT": 12, "DTG": "2025-10-11 06:00", "LATNOW": 26.1, "LONNOW": -115.4, "WINDNOW": 30.0, "DIRNOW": 2.0, "SPDNOW": 2.0, "TECH": "FCST", "ADVNR": 25, "ATCFID": "EP162025", "NAME": "PRISCILLA", "FTECH": "OFCL", "FCST_DTG": "2025-10-10 18:00:00", "RUN_DTG": "2025-10-11 16:32:53", "BASIN": "EP", "STMNR": 16, "CAT_ID": null, "CAT_DESC": null, "MSGID": "WTPZ21 KNHC 102032", "VALIDTIME": "2025-10-11 06:00:00" }, "geometry": { "type": "Point", "coordinates": [ -115.599998, 26.799999 ] } },
{ "type": "Feature", "properties": { "ID": 59488, "LAT": 26.1, "LON": -115.4, "VMAX": 30.0, "MSLP": 1004.0, "RMAX": 40.0, "FSPD": 2.05777, "FDIR": 360.0, "RENV": 150.0, "PENV": 1009.0, "VALIDT": 0, "DTG": "2025-10-10 18:00", "LATNOW": 26.1, "LONNOW": -115.4, "WINDNOW": 30.0, "DIRNOW": 2.0, "SPDNOW": 2.0, "TECH": "TRAK", "ADVNR": 25, "ATCFID": "EP162025", "NAME": "PRISCILLA", "FTECH": "OFCL", "FCST_DTG": "2025-10-10 18:00:00", "RUN_DTG": "2025-10-11 16:32:53", "BASIN": "EP", "STMNR": 16, "CAT_ID": null, "CAT_DESC": null, "MSGID": "WTPZ21 KNHC 102032", "VALIDTIME": "2025-10-10 18:00:00" }, "geometry": { "type": "LineString", "coordinates": [ [ -102.0, 12.4 ], [ -102.5, 12.5 ], [ -103.6, 12.7 ], [ -105.3, 13.4 ], [ -104.7, 13.1 ], [ -105.4, 13.3 ], [ -105.3, 14.5 ], [ -105.7, 15.0 ], [ -106.5, 15.4 ], [ -106.6, 15.5 ], [ -106.8, 15.9 ], [ -106.9, 16.3 ], [ -107.0, 16.3 ], [ -107.1, 16.5 ], [ -107.2, 17.0 ], [ -107.3, 17.3 ], [ -107.6, 18.0 ], [ -108.2, 18.8 ], [ -109.0, 19.1 ], [ -109.8, 19.6 ], [ -110.5, 19.7 ], [ -111.2, 20.3 ], [ -111.7, 20.7 ], [ -112.2, 21.1 ], [ -112.7, 21.7 ], [ -113.3, 22.3 ], [ -113.9, 23.1 ], [ -114.5, 23.6 ], [ -114.8, 24.1 ], [ -115.0, 24.8 ], [ -115.2, 25.2 ], [ -115.2, 25.7 ], [ -115.4, 26.1 ] ] } },
{ "type": "Feature", "properties": { "ID": 59490, "LAT": 26.8, "LON": -115.6, "VMAX": 25.0, "MSLP": 1011.80975, "RMAX": 45.54887, "FSPD": 1.82128, "FDIR": 340.31213, "RENV": 250.0, "PENV": 1012.0, "VALIDT": 12, "DTG": "2025-10-11 06:00", "LATNOW": 26.1, "LONNOW": -115.4, "WINDNOW": 30.0, "DIRNOW": 2.0, "SPDNOW": 2.0, "TECH": "FCST", "ADVNR": 25, "ATCFID": "EP162025", "NAME": "PRISCILLA", "FTECH": "OFCL", "FCST_DTG": "2025-10-10 18:00:00", "RUN_DTG": "2025-10-11 16:32:53", "BASIN": "EP", "STMNR": 16, "CAT_ID": null, "CAT_DESC": null, "MSGID": "WTPZ21 KNHC 102032", "VALIDTIME": "2025-10-11 06:00:00" }, "geometry": { "type": "LineString", "coordinates": [ [ -115.4, 26.1 ], [ -115.4, 26.3 ], [ -115.6, 26.8 ] ] } }
]
}
