{
"type": "FeatureCollection",
"crs": { "type": "name", "properties": { "name": "urn:ogc:def:crs:OGC:1.3:CRS84" } },
"features": [
{ "type": "Feature", "properties": { "ID": 294225, "LAT": -15.0, "LON": 169.9, "VMAX": 15.0, "MSLP": 1013.8515, "RMAX": 40.0, "FSPD": 4.731, "FDIR": 122.93549, "RENV": 500.0, "PENV": 1012.0, "VALIDT": 0, "DTG": "2025-01-07 00:00", "LATNOW": -21.9, "LONNOW": -158.8, "WINDNOW": 35.0, "DIRNOW": 5.0, "SPDNOW": 0.0, "TECH": "TRAK", "ADVNR": 4, "ATCFID": "SH082025", "NAME": "PITA", "FTECH": "JTWC", "FCST_DTG": "2025-01-12 00:00:00", "RUN_DTG": "2025-01-12 08:50:36", "BASIN": "SH", "STMNR": 8, "CAT_ID": null, "CAT_DESC": null, "MSGID": "WTPS51 PGTW 120300", "VALIDTIME": "2025-01-07 00:00:00" }, "geometry": { "type": "Point", "coordinates": [ 169.899994, -15.0 ] } },
{ "type": "Feature", "properties": { "ID": 294226, "LAT": -15.5, "LON": 170.7, "VMAX": 15.0, "MSLP": 1013.8515, "RMAX": 40.0, "FSPD": 4.3161, "FDIR": 126.58099, "RENV": 500.0, "PENV": 1012.0, "VALIDT": 0, "DTG": "2025-01-07 06:00", "LATNOW": -21.9, "LONNOW": -158.8, "WINDNOW": 35.0, "DIRNOW": 5.0, "SPDNOW": 0.0, "TECH": "TRAK", "ADVNR": 4, "ATCFID": "SH082025", "NAME": "PITA", "FTECH": "JTWC", "FCST_DTG": "2025-01-12 00:00:00", "RUN_DTG": "2025-01-12 08:50:36", "BASIN": "SH", "STMNR": 8, "CAT_ID": null, "CAT_DESC": null, "MSGID": "WTPS51 PGTW 120300", "VALIDTIME": "2025-01-07 06:00:00" }, "geometry": { "type": "Point", "coordinates": [ 170.699997, -15.5 ] } },
{ "type": "Feature", "properties": { "ID": 294227, "LAT": -16.0, "LON": 171.4, "VMAX": 15.0, "MSLP": 1013.8515, "RMAX": 40.0, "FSPD": 12.4496, "FDIR": 97.121, "RENV": 500.0, "PENV": 1012.0, "VALIDT": 0, "DTG": "2025-01-07 12:00", "LATNOW": -21.9, "LONNOW": -158.8, "WINDNOW": 35.0, "DIRNOW": 5.0, "SPDNOW": 0.0, "TECH": "TRAK", "ADVNR": 4, "ATCFID": "SH082025", "NAME": "PITA", "FTECH": "JTWC", "FCST_DTG": "2025-01-12 00:00:00", "RUN_DTG": "2025-01-12 08:50:36", "BASIN": "SH", "STMNR": 8, "CAT_ID": null, "CAT_DESC": null, "MSGID": "WTPS51 PGTW 120300", "VALIDTIME": "2025-01-07 12:00:00" }, "geometry": { "type": "Point", "coordinates": [ 171.399994, -16.0 ] } },
{ "type": "Feature", "properties": { "ID": 294228, "LAT": -16.3, "LON": 173.9, "VMAX": 15.0, "MSLP": 1013.8515, "RMAX": 40.0, "FSPD": 6.9924, "FDIR": 81.5386, "RENV": 500.0, "PENV": 1012.0, "VALIDT": 0, "DTG": "2025-01-07 18:00", "LATNOW": -21.9, "LONNOW": -158.8, "WINDNOW": 35.0, "DIRNOW": 5.0, "SPDNOW": 0.0, "TECH": "TRAK", "ADVNR": 4, "ATCFID": "SH082025", "NAME": "PITA", "FTECH": "JTWC", "FCST_DTG": "2025-01-12 00:00:00", "RUN_DTG": "2025-01-12 08:50:36", "BASIN": "SH", "STMNR": 8, "CAT_ID": null, "CAT_DESC": null, "MSGID": "WTPS51 PGTW 120300", "VALIDTIME": "2025-01-07 18:00:00" }, "geometry": { "type": "Point", "coordinates": [ 173.899994, -16.299999 ] } },
{ "type": "Feature", "properties": { "ID": 294229, "LAT": -16.1, "LON": 175.3, "VMAX": 15.0, "MSLP": 1013.8515, "RMAX": 40.0, "FSPD": 4.24187, "FDIR": 111.33569, "RENV": 500.0, "PENV": 1012.0, "VALIDT": 0, "DTG": "2025-01-08 00:00", "LATNOW": -21.9, "LONNOW": -158.8, "WINDNOW": 35.0, "DIRNOW": 5.0, "SPDNOW": 0.0, "TECH": "TRAK", "ADVNR": 4, "ATCFID": "SH082025", "NAME": "PITA", "FTECH": "JTWC", "FCST_DTG": "2025-01-12 00:00:00", "RUN_DTG": "2025-01-12 08:50:36", "BASIN": "SH", "STMNR": 8, "CAT_ID": null, "CAT_DESC": null, "MSGID": "WTPS51 PGTW 120300", "VALIDTIME": "2025-01-08 00:00:00" }, "geometry": { "type": "Point", "coordinates": [ 175.300003, -16.1 ] } },
{ "type": "Feature", "properties": { "ID": 294230, "LAT": -16.4, "LON": 176.1, "VMAX": 20.0, "MSLP": 1012.95825, "RMAX": 45.0, "FSPD": 4.89095, "FDIR": 114.88068, "RENV": 500.0, "PENV": 1012.0, "VALIDT": 0, "DTG": "2025-01-08 06:00", "LATNOW": -21.9, "LONNOW": -158.8, "WINDNOW": 35.0, "DIRNOW": 5.0, "SPDNOW": 0.0, "TECH": "TRAK", "ADVNR": 4, "ATCFID": "SH082025", "NAME": "PITA", "FTECH": "JTWC", "FCST_DTG": "2025-01-12 00:00:00", "RUN_DTG": "2025-01-12 08:50:36", "BASIN": "SH", "STMNR": 8, "CAT_ID": null, "CAT_DESC": null, "MSGID": "WTPS51 PGTW 120300", "VALIDTIME": "2025-01-08 06:00:00" }, "geometry": { "type": "Point", "coordinates": [ 176.100006, -16.4 ] } },
{ "type": "Feature", "properties": { "ID": 294231, "LAT": -16.8, "LON": 177.0, "VMAX": 20.0, "MSLP": 1012.95825, "RMAX": 45.0, "FSPD": 6.8948, "FDIR": 90.0, "RENV": 500.0, "PENV": 1012.0, "VALIDT": 0, "DTG": "2025-01-08 12:00", "LATNOW": -21.9, "LONNOW": -158.8, "WINDNOW": 35.0, "DIRNOW": 5.0, "SPDNOW": 0.0, "TECH": "TRAK", "ADVNR": 4, "ATCFID": "SH082025", "NAME": "PITA", "FTECH": "JTWC", "FCST_DTG": "2025-01-12 00:00:00", "RUN_DTG": "2025-01-12 08:50:36", "BASIN": "SH", "STMNR": 8, "CAT_ID": null, "CAT_DESC": null, "MSGID": "WTPS51 PGTW 120300", "VALIDTIME": "2025-01-08 12:00:00" }, "geometry": { "type": "Point", "coordinates": [ 177.0, -16.799999 ] } },
{ "type": "Feature", "properties": { "ID": 294232, "LAT": -16.8, "LON": 178.4, "VMAX": 20.0, "MSLP": 1012.95825, "RMAX": 45.0, "FSPD": 8.4397, "FDIR": 82.99765, "RENV": 500.0, "PENV": 1012.0, "VALIDT": 0, "DTG": "2025-01-08 18:00", "LATNOW": -21.9, "LONNOW": -158.8, "WINDNOW": 35.0, "DIRNOW": 5.0, "SPDNOW": 0.0, "TECH": "TRAK", "ADVNR": 4, "ATCFID": "SH082025", "NAME": "PITA", "FTECH": "JTWC", "FCST_DTG": "2025-01-12 00:00:00", "RUN_DTG": "2025-01-12 08:50:36", "BASIN": "SH", "STMNR": 8, "CAT_ID": null, "CAT_DESC": null, "MSGID": "WTPS51 PGTW 120300", "VALIDTIME": "2025-01-08 18:00:00" }, "geometry": { "type": "Point", "coordinates": [ 178.399994, -16.799999 ] } },
{ "type": "Feature", "properties": { "ID": 294233, "LAT": -16.6, "LON": -179.9, "VMAX": 20.0, "MSLP": 1012.95825, "RMAX": 45.0, "FSPD": 6.10954, "FDIR": 104.63196, "RENV": 500.0, "PENV": 1012.0, "VALIDT": 0, "DTG": "2025-01-09 00:00", "LATNOW": -21.9, "LONNOW": -158.8, "WINDNOW": 35.0, "DIRNOW": 5.0, "SPDNOW": 0.0, "TECH": "TRAK", "ADVNR": 4, "ATCFID": "SH082025", "NAME": "PITA", "FTECH": "JTWC", "FCST_DTG": "2025-01-12 00:00:00", "RUN_DTG": "2025-01-12 08:50:36", "BASIN": "SH", "STMNR": 8, "CAT_ID": null, "CAT_DESC": null, "MSGID": "WTPS51 PGTW 120300", "VALIDTIME": "2025-01-09 00:00:00" }, "geometry": { "type": "Point", "coordinates": [ -179.899994, -16.6 ] } },
{ "type": "Feature", "properties": { "ID": 294234, "LAT": -16.9, "LON": -178.7, "VMAX": 20.0, "MSLP": 1012.95825, "RMAX": 45.0, "FSPD": 6.7152, "FDIR": 107.84448, "RENV": 500.0, "PENV": 1012.0, "VALIDT": 0, "DTG": "2025-01-09 06:00", "LATNOW": -21.9, "LONNOW": -158.8, "WINDNOW": 35.0, "DIRNOW": 5.0, "SPDNOW": 0.0, "TECH": "TRAK", "ADVNR": 4, "ATCFID": "SH082025", "NAME": "PITA", "FTECH": "JTWC", "FCST_DTG": "2025-01-12 00:00:00", "RUN_DTG": "2025-01-12 08:50:36", "BASIN": "SH", "STMNR": 8, "CAT_ID": null, "CAT_DESC": null, "MSGID": "WTPS51 PGTW 120300", "VALIDTIME": "2025-01-09 06:00:00" }, "geometry": { "type": "Point", "coordinates": [ -178.699997, -16.9 ] } },
{ "type": "Feature", "properties": { "ID": 294235, "LAT": -17.3, "LON": -177.4, "VMAX": 30.0, "MSLP": 1010.40607, "RMAX": 44.21983, "FSPD": 6.08808, "FDIR": 104.68478, "RENV": 500.0, "PENV": 1012.0, "VALIDT": 0, "DTG": "2025-01-09 12:00", "LATNOW": -21.9, "LONNOW": -158.8, "WINDNOW": 35.0, "DIRNOW": 5.0, "SPDNOW": 0.0, "TECH": "TRAK", "ADVNR": 4, "ATCFID": "SH082025", "NAME": "PITA", "FTECH": "JTWC", "FCST_DTG": "2025-01-12 00:00:00", "RUN_DTG": "2025-01-12 08:50:36", "BASIN": "SH", "STMNR": 8, "CAT_ID": null, "CAT_DESC": null, "MSGID": "WTPS51 PGTW 120300", "VALIDTIME": "2025-01-09 12:00:00" }, "geometry": { "type": "Point", "coordinates": [ -177.399994, -17.299999 ] } },
{ "type": "Feature", "properties": { "ID": 294236, "LAT": -17.6, "LON": -176.2, "VMAX": 30.0, "MSLP": 1010.40607, "RMAX": 44.21983, "FSPD": 5.39396, "FDIR": 90.0, "RENV": 500.0, "PENV": 1012.0, "VALIDT": 0, "DTG": "2025-01-09 18:00", "LATNOW": -21.9, "LONNOW": -158.8, "WINDNOW": 35.0, "DIRNOW": 5.0, "SPDNOW": 0.0, "TECH": "TRAK", "ADVNR": 4, "ATCFID": "SH082025", "NAME": "PITA", "FTECH": "JTWC", "FCST_DTG": "2025-01-12 00:00:00", "RUN_DTG": "2025-01-12 08:50:36", "BASIN": "SH", "STMNR": 8, "CAT_ID": null, "CAT_DESC": null, "MSGID": "WTPS51 PGTW 120300", "VALIDTIME": "2025-01-09 18:00:00" }, "geometry": { "type": "Point", "coordinates": [ -176.199997, -17.6 ] } },
{ "type": "Feature", "properties": { "ID": 294237, "LAT": -17.6, "LON": -175.1, "VMAX": 30.0, "MSLP": 1010.40607, "RMAX": 44.21983, "FSPD": 8.57745, "FDIR": 103.88089, "RENV": 500.0, "PENV": 1012.0, "VALIDT": 0, "DTG": "2025-01-10 00:00", "LATNOW": -21.9, "LONNOW": -158.8, "WINDNOW": 35.0, "DIRNOW": 5.0, "SPDNOW": 0.0, "TECH": "TRAK", "ADVNR": 4, "ATCFID": "SH082025", "NAME": "PITA", "FTECH": "JTWC", "FCST_DTG": "2025-01-12 00:00:00", "RUN_DTG": "2025-01-12 08:50:36", "BASIN": "SH", "STMNR": 8, "CAT_ID": null, "CAT_DESC": null, "MSGID": "WTPS51 PGTW 120300", "VALIDTIME": "2025-01-10 00:00:00" }, "geometry": { "type": "Point", "coordinates": [ -175.100006, -17.6 ] } },
{ "type": "Feature", "properties": { "ID": 294238, "LAT": -18.0, "LON": -173.4, "VMAX": 35.0, "MSLP": 1008.74713, "RMAX": 42.69135, "FSPD": 6.40224, "FDIR": 113.68878, "RENV": 500.0, "PENV": 1012.0, "VALIDT": 0, "DTG": "2025-01-10 06:00", "LATNOW": -21.9, "LONNOW": -158.8, "WINDNOW": 35.0, "DIRNOW": 5.0, "SPDNOW": 0.0, "TECH": "TRAK", "ADVNR": 4, "ATCFID": "SH082025", "NAME": "PITA", "FTECH": "JTWC", "FCST_DTG": "2025-01-12 00:00:00", "RUN_DTG": "2025-01-12 08:50:36", "BASIN": "SH", "STMNR": 8, "CAT_ID": null, "CAT_DESC": null, "MSGID": "WTPS51 PGTW 120300", "VALIDTIME": "2025-01-10 06:00:00" }, "geometry": { "type": "Point", "coordinates": [ -173.399994, -18.0 ] } },
{ "type": "Feature", "properties": { "ID": 294239, "LAT": -18.5, "LON": -172.2, "VMAX": 35.0, "MSLP": 1008.74713, "RMAX": 42.69135, "FSPD": 9.7542, "FDIR": 108.44803, "RENV": 500.0, "PENV": 1012.0, "VALIDT": 0, "DTG": "2025-01-10 12:00", "LATNOW": -21.9, "LONNOW": -158.8, "WINDNOW": 35.0, "DIRNOW": 5.0, "SPDNOW": 0.0, "TECH": "TRAK", "ADVNR": 4, "ATCFID": "SH082025", "NAME": "PITA", "FTECH": "JTWC", "FCST_DTG": "2025-01-12 00:00:00", "RUN_DTG": "2025-01-12 08:50:36", "BASIN": "SH", "STMNR": 8, "CAT_ID": null, "CAT_DESC": null, "MSGID": "WTPS51 PGTW 120300", "VALIDTIME": "2025-01-10 12:00:00" }, "geometry": { "type": "Point", "coordinates": [ -172.199997, -18.5 ] } },
{ "type": "Feature", "properties": { "ID": 294240, "LAT": -19.1, "LON": -170.3, "VMAX": 35.0, "MSLP": 1008.74713, "RMAX": 42.69135, "FSPD": 13.72485, "FDIR": 107.44922, "RENV": 500.0, "PENV": 1012.0, "VALIDT": 0, "DTG": "2025-01-10 18:00", "LATNOW": -21.9, "LONNOW": -158.8, "WINDNOW": 35.0, "DIRNOW": 5.0, "SPDNOW": 0.0, "TECH": "TRAK", "ADVNR": 4, "ATCFID": "SH082025", "NAME": "PITA", "FTECH": "JTWC", "FCST_DTG": "2025-01-12 00:00:00", "RUN_DTG": "2025-01-12 08:50:36", "BASIN": "SH", "STMNR": 8, "CAT_ID": null, "CAT_DESC": null, "MSGID": "WTPS51 PGTW 120300", "VALIDTIME": "2025-01-10 18:00:00" }, "geometry": { "type": "Point", "coordinates": [ -170.300003, -19.1 ] } },
{ "type": "Feature", "properties": { "ID": 294241, "LAT": -19.9, "LON": -167.6, "VMAX": 40.0, "MSLP": 998.0, "RMAX": 80.0, "FSPD": 18.09526, "FDIR": 115.24222, "RENV": 150.0, "PENV": 1004.0, "VALIDT": 0, "DTG": "2025-01-11 00:00", "LATNOW": -21.9, "LONNOW": -158.8, "WINDNOW": 35.0, "DIRNOW": 5.0, "SPDNOW": 0.0, "TECH": "TRAK", "ADVNR": 4, "ATCFID": "SH082025", "NAME": "PITA", "FTECH": "JTWC", "FCST_DTG": "2025-01-12 00:00:00", "RUN_DTG": "2025-01-12 08:50:36", "BASIN": "SH", "STMNR": 8, "CAT_ID": null, "CAT_DESC": null, "MSGID": "WTPS51 PGTW 120300", "VALIDTIME": "2025-01-11 00:00:00" }, "geometry": { "type": "Point", "coordinates": [ -167.600006, -19.9 ] } },
{ "type": "Feature", "properties": { "ID": 294242, "LAT": -21.4, "LON": -164.2, "VMAX": 40.0, "MSLP": 998.0, "RMAX": 80.0, "FSPD": 13.16387, "FDIR": 101.26804, "RENV": 150.0, "PENV": 1004.0, "VALIDT": 0, "DTG": "2025-01-11 06:00", "LATNOW": -21.9, "LONNOW": -158.8, "WINDNOW": 35.0, "DIRNOW": 5.0, "SPDNOW": 0.0, "TECH": "TRAK", "ADVNR": 4, "ATCFID": "SH082025", "NAME": "PITA", "FTECH": "JTWC", "FCST_DTG": "2025-01-12 00:00:00", "RUN_DTG": "2025-01-12 08:50:36", "BASIN": "SH", "STMNR": 8, "CAT_ID": null, "CAT_DESC": null, "MSGID": "WTPS51 PGTW 120300", "VALIDTIME": "2025-01-11 06:00:00" }, "geometry": { "type": "Point", "coordinates": [ -164.199997, -21.4 ] } },
{ "type": "Feature", "properties": { "ID": 294243, "LAT": -21.9, "LON": -161.5, "VMAX": 35.0, "MSLP": 996.0, "RMAX": 6.0, "FSPD": 4.29585, "FDIR": 90.0, "RENV": 230.0, "PENV": 1006.0, "VALIDT": 0, "DTG": "2025-01-11 12:00", "LATNOW": -21.9, "LONNOW": -158.8, "WINDNOW": 35.0, "DIRNOW": 5.0, "SPDNOW": 0.0, "TECH": "TRAK", "ADVNR": 4, "ATCFID": "SH082025", "NAME": "PITA", "FTECH": "JTWC", "FCST_DTG": "2025-01-12 00:00:00", "RUN_DTG": "2025-01-12 08:50:36", "BASIN": "SH", "STMNR": 8, "CAT_ID": null, "CAT_DESC": null, "MSGID": "WTPS51 PGTW 120300", "VALIDTIME": "2025-01-11 12:00:00" }, "geometry": { "type": "Point", "coordinates": [ -161.5, -21.9 ] } },
{ "type": "Feature", "properties": { "ID": 294244, "LAT": -21.9, "LON": -160.6, "VMAX": 40.0, "MSLP": 993.0, "RMAX": 5.0, "FSPD": 8.59178, "FDIR": 90.0, "RENV": 245.0, "PENV": 1006.0, "VALIDT": 0, "DTG": "2025-01-11 18:00", "LATNOW": -21.9, "LONNOW": -158.8, "WINDNOW": 35.0, "DIRNOW": 5.0, "SPDNOW": 0.0, "TECH": "TRAK", "ADVNR": 4, "ATCFID": "SH082025", "NAME": "PITA", "FTECH": "JTWC", "FCST_DTG": "2025-01-12 00:00:00", "RUN_DTG": "2025-01-12 08:50:36", "BASIN": "SH", "STMNR": 8, "CAT_ID": null, "CAT_DESC": null, "MSGID": "WTPS51 PGTW 120300", "VALIDTIME": "2025-01-11 18:00:00" }, "geometry": { "type": "Point", "coordinates": [ -160.600006, -21.9 ] } },
{ "type": "Feature", "properties": { "ID": 294245, "LAT": -21.9, "LON": -158.8, "VMAX": 35.0, "MSLP": 996.0, "RMAX": 20.0, "FSPD": 5.48919, "FDIR": 90.0, "RENV": 255.0, "PENV": 1006.0, "VALIDT": 0, "DTG": "2025-01-12 00:00", "LATNOW": -21.9, "LONNOW": -158.8, "WINDNOW": 35.0, "DIRNOW": 5.0, "SPDNOW": 0.0, "TECH": "TRAK", "ADVNR": 4, "ATCFID": "SH082025", "NAME": "PITA", "FTECH": "JTWC", "FCST_DTG": "2025-01-12 00:00:00", "RUN_DTG": "2025-01-12 08:50:36", "BASIN": "SH", "STMNR": 8, "CAT_ID": null, "CAT_DESC": null, "MSGID": "WTPS51 PGTW 120300", "VALIDTIME": "2025-01-12 00:00:00" }, "geometry": { "type": "Point", "coordinates": [ -158.800003, -21.9 ] } },
{ "type": "Feature", "properties": { "ID": 294246, "LAT": -21.9, "LON": -156.5, "VMAX": 30.0, "MSLP": 1010.40607, "RMAX": 24.76094, "FSPD": 5.48919, "FDIR": 90.0, "RENV": 250.0, "PENV": 1012.0, "VALIDT": 12, "DTG": "2025-01-12 12:00", "LATNOW": -21.9, "LONNOW": -158.8, "WINDNOW": 35.0, "DIRNOW": 5.0, "SPDNOW": 0.0, "TECH": "FCST", "ADVNR": 4, "ATCFID": "SH082025", "NAME": "PITA", "FTECH": "JTWC", "FCST_DTG": "2025-01-12 00:00:00", "RUN_DTG": "2025-01-12 08:50:36", "BASIN": "SH", "STMNR": 8, "CAT_ID": null, "CAT_DESC": null, "MSGID": "WTPS51 PGTW 120300", "VALIDTIME": "2025-01-12 12:00:00" }, "geometry": { "type": "Point", "coordinates": [ -156.5, -21.9 ] } },
{ "type": "Feature", "properties": { "ID": 294245, "LAT": -21.9, "LON": -158.8, "VMAX": 35.0, "MSLP": 996.0, "RMAX": 20.0, "FSPD": 5.48919, "FDIR": 90.0, "RENV": 255.0, "PENV": 1006.0, "VALIDT": 0, "DTG": "2025-01-12 00:00", "LATNOW": -21.9, "LONNOW": -158.8, "WINDNOW": 35.0, "DIRNOW": 5.0, "SPDNOW": 0.0, "TECH": "TRAK", "ADVNR": 4, "ATCFID": "SH082025", "NAME": "PITA", "FTECH": "JTWC", "FCST_DTG": "2025-01-12 00:00:00", "RUN_DTG": "2025-01-12 08:50:36", "BASIN": "SH", "STMNR": 8, "CAT_ID": null, "CAT_DESC": null, "MSGID": "WTPS51 PGTW 120300", "VALIDTIME": "2025-01-12 00:00:00" }, "geometry": { "type": "LineString", "coordinates": [ [ 169.9, -15.0 ], [ 170.7, -15.5 ], [ 171.4, -16.0 ], [ 173.9, -16.3 ], [ 175.3, -16.1 ], [ 176.1, -16.4 ], [ 177.0, -16.8 ], [ 178.4, -16.8 ], [ -179.9, -16.6 ], [ -178.7, -16.9 ], [ -177.4, -17.3 ], [ -176.2, -17.6 ], [ -175.1, -17.6 ], [ -173.4, -18.0 ], [ -172.2, -18.5 ], [ -170.3, -19.1 ], [ -167.6, -19.9 ], [ -164.2, -21.4 ], [ -161.5, -21.9 ], [ -160.6, -21.9 ], [ -158.8, -21.9 ] ] } },
{ "type": "Feature", "properties": { "ID": 294246, "LAT": -21.9, "LON": -156.5, "VMAX": 30.0, "MSLP": 1010.40607, "RMAX": 24.76094, "FSPD": 5.48919, "FDIR": 90.0, "RENV": 250.0, "PENV": 1012.0, "VALIDT": 12, "DTG": "2025-01-12 12:00", "LATNOW": -21.9, "LONNOW": -158.8, "WINDNOW": 35.0, "DIRNOW": 5.0, "SPDNOW": 0.0, "TECH": "FCST", "ADVNR": 4, "ATCFID": "SH082025", "NAME": "PITA", "FTECH": "JTWC", "FCST_DTG": "2025-01-12 00:00:00", "RUN_DTG": "2025-01-12 08:50:36", "BASIN": "SH", "STMNR": 8, "CAT_ID": null, "CAT_DESC": null, "MSGID": "WTPS51 PGTW 120300", "VALIDTIME": "2025-01-12 12:00:00" }, "geometry": { "type": "LineString", "coordinates": [ [ -158.8, -21.9 ], [ -156.5, -21.9 ] ] } }
]
}
