{
"type": "FeatureCollection",
"crs": { "type": "name", "properties": { "name": "urn:ogc:def:crs:OGC:1.3:CRS84" } },
"features": [
{ "type": "Feature", "properties": { "ID": 72195, "LAT": 10.1, "LON": -140.6, "VMAX": 20.0, "MSLP": 1007.0, "RMAX": 41.38092, "FSPD": 4.55822, "FDIR": 269.99997, "RENV": 180.0, "PENV": 1010.0, "VALIDT": 0, "DTG": "2026-08-09 12:00", "LATNOW": 38.1, "LONNOW": -179.1, "WINDNOW": 35.0, "DIRNOW": 3.0, "SPDNOW": 3.0, "TECH": "TRAK", "ADVNR": null, "ATCFID": "CP012026", "NAME": "LALA", "FTECH": "OFCL", "FCST_DTG": "2026-08-28 06:00:00", "RUN_DTG": "2026-08-29 03:08:22", "BASIN": "CP", "STMNR": 1, "CAT_ID": null, "CAT_DESC": null, "MSGID": null, "VALIDTIME": "2026-08-09 12:00:00" }, "geometry": { "type": "Point", "coordinates": [ -140.600006, 10.1 ] } },
{ "type": "Feature", "properties": { "ID": 72196, "LAT": 10.1, "LON": -141.5, "VMAX": 20.0, "MSLP": 1008.0, "RMAX": 42.10314, "FSPD": 2.55738, "FDIR": 36.42444, "RENV": 180.0, "PENV": 1010.0, "VALIDT": 0, "DTG": "2026-08-09 18:00", "LATNOW": 38.1, "LONNOW": -179.1, "WINDNOW": 35.0, "DIRNOW": 3.0, "SPDNOW": 3.0, "TECH": "TRAK", "ADVNR": null, "ATCFID": "CP012026", "NAME": "LALA", "FTECH": "OFCL", "FCST_DTG": "2026-08-28 06:00:00", "RUN_DTG": "2026-08-29 03:08:22", "BASIN": "CP", "STMNR": 1, "CAT_ID": null, "CAT_DESC": null, "MSGID": null, "VALIDTIME": "2026-08-09 18:00:00" }, "geometry": { "type": "Point", "coordinates": [ -141.5, 10.1 ] } },
{ "type": "Feature", "properties": { "ID": 72197, "LAT": 10.5, "LON": -141.2, "VMAX": 20.0, "MSLP": 1007.0, "RMAX": 120.0, "FSPD": 0.51445, "FDIR": 360.0, "RENV": 180.0, "PENV": 1009.0, "VALIDT": 0, "DTG": "2026-08-10 00:00", "LATNOW": 38.1, "LONNOW": -179.1, "WINDNOW": 35.0, "DIRNOW": 3.0, "SPDNOW": 3.0, "TECH": "TRAK", "ADVNR": null, "ATCFID": "CP012026", "NAME": "LALA", "FTECH": "OFCL", "FCST_DTG": "2026-08-28 06:00:00", "RUN_DTG": "2026-08-29 03:08:22", "BASIN": "CP", "STMNR": 1, "CAT_ID": null, "CAT_DESC": null, "MSGID": null, "VALIDTIME": "2026-08-10 00:00:00" }, "geometry": { "type": "Point", "coordinates": [ -141.199997, 10.5 ] } },
{ "type": "Feature", "properties": { "ID": 72198, "LAT": 10.6, "LON": -141.2, "VMAX": 20.0, "MSLP": 1007.0, "RMAX": 120.0, "FSPD": 0.0, "FDIR": 90.0, "RENV": 180.0, "PENV": 1009.0, "VALIDT": 0, "DTG": "2026-08-10 06:00", "LATNOW": 38.1, "LONNOW": -179.1, "WINDNOW": 35.0, "DIRNOW": 3.0, "SPDNOW": 3.0, "TECH": "TRAK", "ADVNR": null, "ATCFID": "CP012026", "NAME": "LALA", "FTECH": "OFCL", "FCST_DTG": "2026-08-28 06:00:00", "RUN_DTG": "2026-08-29 03:08:22", "BASIN": "CP", "STMNR": 1, "CAT_ID": null, "CAT_DESC": null, "MSGID": null, "VALIDTIME": "2026-08-10 06:00:00" }, "geometry": { "type": "Point", "coordinates": [ -141.199997, 10.6 ] } },
{ "type": "Feature", "properties": { "ID": 72199, "LAT": 10.6, "LON": -141.2, "VMAX": 20.0, "MSLP": 1006.0, "RMAX": 120.0, "FSPD": 1.13479, "FDIR": 116.95816, "RENV": 180.0, "PENV": 1008.0, "VALIDT": 0, "DTG": "2026-08-10 12:00", "LATNOW": 38.1, "LONNOW": -179.1, "WINDNOW": 35.0, "DIRNOW": 3.0, "SPDNOW": 3.0, "TECH": "TRAK", "ADVNR": null, "ATCFID": "CP012026", "NAME": "LALA", "FTECH": "OFCL", "FCST_DTG": "2026-08-28 06:00:00", "RUN_DTG": "2026-08-29 03:08:22", "BASIN": "CP", "STMNR": 1, "CAT_ID": null, "CAT_DESC": null, "MSGID": null, "VALIDTIME": "2026-08-10 12:00:00" }, "geometry": { "type": "Point", "coordinates": [ -141.199997, 10.6 ] } },
{ "type": "Feature", "properties": { "ID": 72200, "LAT": 10.5, "LON": -141.0, "VMAX": 20.0, "MSLP": 1006.0, "RMAX": 120.0, "FSPD": 1.60257, "FDIR": 108.72421, "RENV": 180.0, "PENV": 1009.0, "VALIDT": 0, "DTG": "2026-08-10 18:00", "LATNOW": 38.1, "LONNOW": -179.1, "WINDNOW": 35.0, "DIRNOW": 3.0, "SPDNOW": 3.0, "TECH": "TRAK", "ADVNR": null, "ATCFID": "CP012026", "NAME": "LALA", "FTECH": "OFCL", "FCST_DTG": "2026-08-28 06:00:00", "RUN_DTG": "2026-08-29 03:08:22", "BASIN": "CP", "STMNR": 1, "CAT_ID": null, "CAT_DESC": null, "MSGID": null, "VALIDTIME": "2026-08-10 18:00:00" }, "geometry": { "type": "Point", "coordinates": [ -141.0, 10.5 ] } },
{ "type": "Feature", "properties": { "ID": 72201, "LAT": 10.4, "LON": -140.7, "VMAX": 20.0, "MSLP": 1006.0, "RMAX": 120.0, "FSPD": 1.6241, "FDIR": 341.85507, "RENV": 180.0, "PENV": 1009.0, "VALIDT": 0, "DTG": "2026-08-11 00:00", "LATNOW": 38.1, "LONNOW": -179.1, "WINDNOW": 35.0, "DIRNOW": 3.0, "SPDNOW": 3.0, "TECH": "TRAK", "ADVNR": null, "ATCFID": "CP012026", "NAME": "LALA", "FTECH": "OFCL", "FCST_DTG": "2026-08-28 06:00:00", "RUN_DTG": "2026-08-29 03:08:22", "BASIN": "CP", "STMNR": 1, "CAT_ID": null, "CAT_DESC": null, "MSGID": null, "VALIDTIME": "2026-08-11 00:00:00" }, "geometry": { "type": "Point", "coordinates": [ -140.699997, 10.4 ] } },
{ "type": "Feature", "properties": { "ID": 72202, "LAT": 10.7, "LON": -140.8, "VMAX": 25.0, "MSLP": 1006.0, "RMAX": 120.0, "FSPD": 1.84471, "FDIR": 326.78568, "RENV": 180.0, "PENV": 1009.0, "VALIDT": 0, "DTG": "2026-08-11 06:00", "LATNOW": 38.1, "LONNOW": -179.1, "WINDNOW": 35.0, "DIRNOW": 3.0, "SPDNOW": 3.0, "TECH": "TRAK", "ADVNR": null, "ATCFID": "CP012026", "NAME": "LALA", "FTECH": "OFCL", "FCST_DTG": "2026-08-28 06:00:00", "RUN_DTG": "2026-08-29 03:08:22", "BASIN": "CP", "STMNR": 1, "CAT_ID": null, "CAT_DESC": null, "MSGID": null, "VALIDTIME": "2026-08-11 06:00:00" }, "geometry": { "type": "Point", "coordinates": [ -140.800003, 10.7 ] } },
{ "type": "Feature", "properties": { "ID": 72203, "LAT": 11.0, "LON": -141.0, "VMAX": 25.0, "MSLP": 1006.0, "RMAX": 120.0, "FSPD": 27.04144, "FDIR": 40.45004, "RENV": 180.0, "PENV": 1008.0, "VALIDT": 0, "DTG": "2026-08-11 12:00", "LATNOW": 38.1, "LONNOW": -179.1, "WINDNOW": 35.0, "DIRNOW": 3.0, "SPDNOW": 3.0, "TECH": "TRAK", "ADVNR": null, "ATCFID": "CP012026", "NAME": "LALA", "FTECH": "OFCL", "FCST_DTG": "2026-08-28 06:00:00", "RUN_DTG": "2026-08-29 03:08:22", "BASIN": "CP", "STMNR": 1, "CAT_ID": null, "CAT_DESC": null, "MSGID": null, "VALIDTIME": "2026-08-11 12:00:00" }, "geometry": { "type": "Point", "coordinates": [ -141.0, 11.0 ] } },
{ "type": "Feature", "properties": { "ID": 72204, "LAT": 15.0, "LON": -137.5, "VMAX": 25.0, "MSLP": 1006.0, "RMAX": 120.0, "FSPD": 9.45316, "FDIR": 273.1196, "RENV": 180.0, "PENV": 1008.0, "VALIDT": 0, "DTG": "2026-08-11 18:00", "LATNOW": 38.1, "LONNOW": -179.1, "WINDNOW": 35.0, "DIRNOW": 3.0, "SPDNOW": 3.0, "TECH": "TRAK", "ADVNR": null, "ATCFID": "CP012026", "NAME": "LALA", "FTECH": "OFCL", "FCST_DTG": "2026-08-28 06:00:00", "RUN_DTG": "2026-08-29 03:08:22", "BASIN": "CP", "STMNR": 1, "CAT_ID": null, "CAT_DESC": null, "MSGID": null, "VALIDTIME": "2026-08-11 18:00:00" }, "geometry": { "type": "Point", "coordinates": [ -137.5, 15.0 ] } },
{ "type": "Feature", "properties": { "ID": 72205, "LAT": 15.1, "LON": -139.4, "VMAX": 30.0, "MSLP": 1003.0, "RMAX": 60.0, "FSPD": 4.99455, "FDIR": 264.08795, "RENV": 180.0, "PENV": 1007.0, "VALIDT": 0, "DTG": "2026-08-12 00:00", "LATNOW": 38.1, "LONNOW": -179.1, "WINDNOW": 35.0, "DIRNOW": 3.0, "SPDNOW": 3.0, "TECH": "TRAK", "ADVNR": null, "ATCFID": "CP012026", "NAME": "LALA", "FTECH": "OFCL", "FCST_DTG": "2026-08-28 06:00:00", "RUN_DTG": "2026-08-29 03:08:22", "BASIN": "CP", "STMNR": 1, "CAT_ID": null, "CAT_DESC": null, "MSGID": null, "VALIDTIME": "2026-08-12 00:00:00" }, "geometry": { "type": "Point", "coordinates": [ -139.399994, 15.1 ] } },
{ "type": "Feature", "properties": { "ID": 72206, "LAT": 15.0, "LON": -140.4, "VMAX": 30.0, "MSLP": 1003.0, "RMAX": 60.0, "FSPD": 4.96915, "FDIR": 269.99997, "RENV": 180.0, "PENV": 1007.0, "VALIDT": 0, "DTG": "2026-08-12 06:00", "LATNOW": 38.1, "LONNOW": -179.1, "WINDNOW": 35.0, "DIRNOW": 3.0, "SPDNOW": 3.0, "TECH": "TRAK", "ADVNR": null, "ATCFID": "CP012026", "NAME": "LALA", "FTECH": "OFCL", "FCST_DTG": "2026-08-28 06:00:00", "RUN_DTG": "2026-08-29 03:08:22", "BASIN": "CP", "STMNR": 1, "CAT_ID": null, "CAT_DESC": null, "MSGID": null, "VALIDTIME": "2026-08-12 06:00:00" }, "geometry": { "type": "Point", "coordinates": [ -140.399994, 15.0 ] } },
{ "type": "Feature", "properties": { "ID": 72207, "LAT": 15.0, "LON": -141.4, "VMAX": 30.0, "MSLP": 1003.0, "RMAX": 60.0, "FSPD": 4.267, "FDIR": 248.79588, "RENV": 180.0, "PENV": 1007.0, "VALIDT": 0, "DTG": "2026-08-12 12:00", "LATNOW": 38.1, "LONNOW": -179.1, "WINDNOW": 35.0, "DIRNOW": 3.0, "SPDNOW": 3.0, "TECH": "TRAK", "ADVNR": null, "ATCFID": "CP012026", "NAME": "LALA", "FTECH": "OFCL", "FCST_DTG": "2026-08-28 06:00:00", "RUN_DTG": "2026-08-29 03:08:22", "BASIN": "CP", "STMNR": 1, "CAT_ID": null, "CAT_DESC": null, "MSGID": null, "VALIDTIME": "2026-08-12 12:00:00" }, "geometry": { "type": "Point", "coordinates": [ -141.399994, 15.0 ] } },
{ "type": "Feature", "properties": { "ID": 72208, "LAT": 14.7, "LON": -142.2, "VMAX": 35.0, "MSLP": 1003.0, "RMAX": 230.0, "FSPD": 4.4785, "FDIR": 269.99997, "RENV": 235.0, "PENV": 1007.0, "VALIDT": 0, "DTG": "2026-08-12 18:00", "LATNOW": 38.1, "LONNOW": -179.1, "WINDNOW": 35.0, "DIRNOW": 3.0, "SPDNOW": 3.0, "TECH": "TRAK", "ADVNR": null, "ATCFID": "CP012026", "NAME": "LALA", "FTECH": "OFCL", "FCST_DTG": "2026-08-28 06:00:00", "RUN_DTG": "2026-08-29 03:08:22", "BASIN": "CP", "STMNR": 1, "CAT_ID": null, "CAT_DESC": null, "MSGID": null, "VALIDTIME": "2026-08-12 18:00:00" }, "geometry": { "type": "Point", "coordinates": [ -142.199997, 14.7 ] } },
{ "type": "Feature", "properties": { "ID": 72209, "LAT": 14.7, "LON": -143.1, "VMAX": 35.0, "MSLP": 1002.0, "RMAX": 210.0, "FSPD": 4.97606, "FDIR": 269.99997, "RENV": 235.0, "PENV": 1007.0, "VALIDT": 0, "DTG": "2026-08-13 00:00", "LATNOW": 38.1, "LONNOW": -179.1, "WINDNOW": 35.0, "DIRNOW": 3.0, "SPDNOW": 3.0, "TECH": "TRAK", "ADVNR": null, "ATCFID": "CP012026", "NAME": "LALA", "FTECH": "OFCL", "FCST_DTG": "2026-08-28 06:00:00", "RUN_DTG": "2026-08-29 03:08:22", "BASIN": "CP", "STMNR": 1, "CAT_ID": null, "CAT_DESC": null, "MSGID": null, "VALIDTIME": "2026-08-13 00:00:00" }, "geometry": { "type": "Point", "coordinates": [ -143.100006, 14.7 ] } },
{ "type": "Feature", "properties": { "ID": 72210, "LAT": 14.7, "LON": -144.1, "VMAX": 35.0, "MSLP": 1002.0, "RMAX": 210.0, "FSPD": 4.59308, "FDIR": 282.94452, "RENV": 235.0, "PENV": 1007.0, "VALIDT": 0, "DTG": "2026-08-13 06:00", "LATNOW": 38.1, "LONNOW": -179.1, "WINDNOW": 35.0, "DIRNOW": 3.0, "SPDNOW": 3.0, "TECH": "TRAK", "ADVNR": null, "ATCFID": "CP012026", "NAME": "LALA", "FTECH": "OFCL", "FCST_DTG": "2026-08-28 06:00:00", "RUN_DTG": "2026-08-29 03:08:22", "BASIN": "CP", "STMNR": 1, "CAT_ID": null, "CAT_DESC": null, "MSGID": null, "VALIDTIME": "2026-08-13 06:00:00" }, "geometry": { "type": "Point", "coordinates": [ -144.100006, 14.7 ] } },
{ "type": "Feature", "properties": { "ID": 72211, "LAT": 14.9, "LON": -145.0, "VMAX": 35.0, "MSLP": 1001.0, "RMAX": 80.0, "FSPD": 3.80466, "FDIR": 293.93143, "RENV": 200.0, "PENV": 1007.0, "VALIDT": 0, "DTG": "2026-08-13 12:00", "LATNOW": 38.1, "LONNOW": -179.1, "WINDNOW": 35.0, "DIRNOW": 3.0, "SPDNOW": 3.0, "TECH": "TRAK", "ADVNR": null, "ATCFID": "CP012026", "NAME": "LALA", "FTECH": "OFCL", "FCST_DTG": "2026-08-28 06:00:00", "RUN_DTG": "2026-08-29 03:08:22", "BASIN": "CP", "STMNR": 1, "CAT_ID": null, "CAT_DESC": null, "MSGID": null, "VALIDTIME": "2026-08-13 12:00:00" }, "geometry": { "type": "Point", "coordinates": [ -145.0, 14.9 ] } },
{ "type": "Feature", "properties": { "ID": 72212, "LAT": 15.2, "LON": -145.7, "VMAX": 40.0, "MSLP": 1000.0, "RMAX": 120.0, "FSPD": 7.64394, "FDIR": 302.5753, "RENV": 200.0, "PENV": 1007.0, "VALIDT": 0, "DTG": "2026-08-13 18:00", "LATNOW": 38.1, "LONNOW": -179.1, "WINDNOW": 35.0, "DIRNOW": 3.0, "SPDNOW": 3.0, "TECH": "TRAK", "ADVNR": null, "ATCFID": "CP012026", "NAME": "LALA", "FTECH": "OFCL", "FCST_DTG": "2026-08-28 06:00:00", "RUN_DTG": "2026-08-29 03:08:22", "BASIN": "CP", "STMNR": 1, "CAT_ID": null, "CAT_DESC": null, "MSGID": null, "VALIDTIME": "2026-08-13 18:00:00" }, "geometry": { "type": "Point", "coordinates": [ -145.699997, 15.2 ] } },
{ "type": "Feature", "properties": { "ID": 72213, "LAT": 16.0, "LON": -147.0, "VMAX": 45.0, "MSLP": 999.0, "RMAX": 120.0, "FSPD": 4.56582, "FDIR": 283.02325, "RENV": 200.0, "PENV": 1007.0, "VALIDT": 0, "DTG": "2026-08-14 00:00", "LATNOW": 38.1, "LONNOW": -179.1, "WINDNOW": 35.0, "DIRNOW": 3.0, "SPDNOW": 3.0, "TECH": "TRAK", "ADVNR": null, "ATCFID": "CP012026", "NAME": "LALA", "FTECH": "OFCL", "FCST_DTG": "2026-08-28 06:00:00", "RUN_DTG": "2026-08-29 03:08:22", "BASIN": "CP", "STMNR": 1, "CAT_ID": null, "CAT_DESC": null, "MSGID": null, "VALIDTIME": "2026-08-14 00:00:00" }, "geometry": { "type": "Point", "coordinates": [ -147.0, 16.0 ] } },
{ "type": "Feature", "properties": { "ID": 72214, "LAT": 16.2, "LON": -147.9, "VMAX": 50.0, "MSLP": 997.0, "RMAX": 110.0, "FSPD": 5.64514, "FDIR": 285.86615, "RENV": 200.0, "PENV": 1008.0, "VALIDT": 0, "DTG": "2026-08-14 06:00", "LATNOW": 38.1, "LONNOW": -179.1, "WINDNOW": 35.0, "DIRNOW": 3.0, "SPDNOW": 3.0, "TECH": "TRAK", "ADVNR": null, "ATCFID": "CP012026", "NAME": "LALA", "FTECH": "OFCL", "FCST_DTG": "2026-08-28 06:00:00", "RUN_DTG": "2026-08-29 03:08:22", "BASIN": "CP", "STMNR": 1, "CAT_ID": null, "CAT_DESC": null, "MSGID": null, "VALIDTIME": "2026-08-14 06:00:00" }, "geometry": { "type": "Point", "coordinates": [ -147.899994, 16.200001 ] } },
{ "type": "Feature", "properties": { "ID": 72215, "LAT": 16.5, "LON": -149.0, "VMAX": 50.0, "MSLP": 997.0, "RMAX": 100.0, "FSPD": 6.90131, "FDIR": 291.88315, "RENV": 200.0, "PENV": 1008.0, "VALIDT": 0, "DTG": "2026-08-14 12:00", "LATNOW": 38.1, "LONNOW": -179.1, "WINDNOW": 35.0, "DIRNOW": 3.0, "SPDNOW": 3.0, "TECH": "TRAK", "ADVNR": null, "ATCFID": "CP012026", "NAME": "LALA", "FTECH": "OFCL", "FCST_DTG": "2026-08-28 06:00:00", "RUN_DTG": "2026-08-29 03:08:22", "BASIN": "CP", "STMNR": 1, "CAT_ID": null, "CAT_DESC": null, "MSGID": null, "VALIDTIME": "2026-08-14 12:00:00" }, "geometry": { "type": "Point", "coordinates": [ -149.0, 16.5 ] } },
{ "type": "Feature", "properties": { "ID": 72216, "LAT": 17.0, "LON": -150.3, "VMAX": 50.0, "MSLP": 997.0, "RMAX": 80.0, "FSPD": 8.12776, "FDIR": 284.66565, "RENV": 200.0, "PENV": 1008.0, "VALIDT": 0, "DTG": "2026-08-14 18:00", "LATNOW": 38.1, "LONNOW": -179.1, "WINDNOW": 35.0, "DIRNOW": 3.0, "SPDNOW": 3.0, "TECH": "TRAK", "ADVNR": null, "ATCFID": "CP012026", "NAME": "LALA", "FTECH": "OFCL", "FCST_DTG": "2026-08-28 06:00:00", "RUN_DTG": "2026-08-29 03:08:22", "BASIN": "CP", "STMNR": 1, "CAT_ID": null, "CAT_DESC": null, "MSGID": null, "VALIDTIME": "2026-08-14 18:00:00" }, "geometry": { "type": "Point", "coordinates": [ -150.300003, 17.0 ] } },
{ "type": "Feature", "properties": { "ID": 72217, "LAT": 17.4, "LON": -151.9, "VMAX": 55.0, "MSLP": 995.0, "RMAX": 80.0, "FSPD": 5.49421, "FDIR": 280.7934, "RENV": 200.0, "PENV": 1008.0, "VALIDT": 0, "DTG": "2026-08-15 00:00", "LATNOW": 38.1, "LONNOW": -179.1, "WINDNOW": 35.0, "DIRNOW": 3.0, "SPDNOW": 3.0, "TECH": "TRAK", "ADVNR": null, "ATCFID": "CP012026", "NAME": "LALA", "FTECH": "OFCL", "FCST_DTG": "2026-08-28 06:00:00", "RUN_DTG": "2026-08-29 03:08:22", "BASIN": "CP", "STMNR": 1, "CAT_ID": null, "CAT_DESC": null, "MSGID": null, "VALIDTIME": "2026-08-15 00:00:00" }, "geometry": { "type": "Point", "coordinates": [ -151.899994, 17.4 ] } },
{ "type": "Feature", "properties": { "ID": 72218, "LAT": 17.6, "LON": -153.0, "VMAX": 55.0, "MSLP": 991.0, "RMAX": 80.0, "FSPD": 5.48834, "FDIR": 280.805, "RENV": 200.0, "PENV": 1009.0, "VALIDT": 0, "DTG": "2026-08-15 06:00", "LATNOW": 38.1, "LONNOW": -179.1, "WINDNOW": 35.0, "DIRNOW": 3.0, "SPDNOW": 3.0, "TECH": "TRAK", "ADVNR": null, "ATCFID": "CP012026", "NAME": "LALA", "FTECH": "OFCL", "FCST_DTG": "2026-08-28 06:00:00", "RUN_DTG": "2026-08-29 03:08:22", "BASIN": "CP", "STMNR": 1, "CAT_ID": null, "CAT_DESC": null, "MSGID": null, "VALIDTIME": "2026-08-15 06:00:00" }, "geometry": { "type": "Point", "coordinates": [ -153.0, 17.6 ] } },
{ "type": "Feature", "properties": { "ID": 72219, "LAT": 17.8, "LON": -154.1, "VMAX": 55.0, "MSLP": 991.0, "RMAX": 60.0, "FSPD": 4.43702, "FDIR": 276.65808, "RENV": 200.0, "PENV": 1009.0, "VALIDT": 0, "DTG": "2026-08-15 12:00", "LATNOW": 38.1, "LONNOW": -179.1, "WINDNOW": 35.0, "DIRNOW": 3.0, "SPDNOW": 3.0, "TECH": "TRAK", "ADVNR": null, "ATCFID": "CP012026", "NAME": "LALA", "FTECH": "OFCL", "FCST_DTG": "2026-08-28 06:00:00", "RUN_DTG": "2026-08-29 03:08:22", "BASIN": "CP", "STMNR": 1, "CAT_ID": null, "CAT_DESC": null, "MSGID": null, "VALIDTIME": "2026-08-15 12:00:00" }, "geometry": { "type": "Point", "coordinates": [ -154.100006, 17.799999 ] } },
{ "type": "Feature", "properties": { "ID": 72220, "LAT": 17.9, "LON": -155.0, "VMAX": 65.0, "MSLP": 988.0, "RMAX": 30.0, "FSPD": 3.99383, "FDIR": 301.01343, "RENV": 160.0, "PENV": 1009.0, "VALIDT": 0, "DTG": "2026-08-15 18:00", "LATNOW": 38.1, "LONNOW": -179.1, "WINDNOW": 35.0, "DIRNOW": 3.0, "SPDNOW": 3.0, "TECH": "TRAK", "ADVNR": null, "ATCFID": "CP012026", "NAME": "LALA", "FTECH": "OFCL", "FCST_DTG": "2026-08-28 06:00:00", "RUN_DTG": "2026-08-29 03:08:22", "BASIN": "CP", "STMNR": 1, "CAT_ID": null, "CAT_DESC": null, "MSGID": null, "VALIDTIME": "2026-08-15 18:00:00" }, "geometry": { "type": "Point", "coordinates": [ -155.0, 17.9 ] } },
{ "type": "Feature", "properties": { "ID": 72221, "LAT": 18.3, "LON": -155.7, "VMAX": 65.0, "MSLP": 988.0, "RMAX": 20.0, "FSPD": 5.66875, "FDIR": 316.55286, "RENV": 160.0, "PENV": 1009.0, "VALIDT": 0, "DTG": "2026-08-16 00:00", "LATNOW": 38.1, "LONNOW": -179.1, "WINDNOW": 35.0, "DIRNOW": 3.0, "SPDNOW": 3.0, "TECH": "TRAK", "ADVNR": null, "ATCFID": "CP012026", "NAME": "LALA", "FTECH": "OFCL", "FCST_DTG": "2026-08-28 06:00:00", "RUN_DTG": "2026-08-29 03:08:22", "BASIN": "CP", "STMNR": 1, "CAT_ID": null, "CAT_DESC": null, "MSGID": null, "VALIDTIME": "2026-08-16 00:00:00" }, "geometry": { "type": "Point", "coordinates": [ -155.699997, 18.299999 ] } },
{ "type": "Feature", "properties": { "ID": 72222, "LAT": 19.1, "LON": -156.5, "VMAX": 65.0, "MSLP": 988.0, "RMAX": 20.0, "FSPD": 6.73742, "FDIR": 307.65094, "RENV": 160.0, "PENV": 1009.0, "VALIDT": 0, "DTG": "2026-08-16 06:00", "LATNOW": 38.1, "LONNOW": -179.1, "WINDNOW": 35.0, "DIRNOW": 3.0, "SPDNOW": 3.0, "TECH": "TRAK", "ADVNR": null, "ATCFID": "CP012026", "NAME": "LALA", "FTECH": "OFCL", "FCST_DTG": "2026-08-28 06:00:00", "RUN_DTG": "2026-08-29 03:08:22", "BASIN": "CP", "STMNR": 1, "CAT_ID": null, "CAT_DESC": null, "MSGID": null, "VALIDTIME": "2026-08-16 06:00:00" }, "geometry": { "type": "Point", "coordinates": [ -156.5, 19.1 ] } },
{ "type": "Feature", "properties": { "ID": 72223, "LAT": 19.9, "LON": -157.6, "VMAX": 60.0, "MSLP": 991.0, "RMAX": 20.0, "FSPD": 7.41202, "FDIR": 308.6573, "RENV": 160.0, "PENV": 1009.0, "VALIDT": 0, "DTG": "2026-08-16 12:00", "LATNOW": 38.1, "LONNOW": -179.1, "WINDNOW": 35.0, "DIRNOW": 3.0, "SPDNOW": 3.0, "TECH": "TRAK", "ADVNR": null, "ATCFID": "CP012026", "NAME": "LALA", "FTECH": "OFCL", "FCST_DTG": "2026-08-28 06:00:00", "RUN_DTG": "2026-08-29 03:08:22", "BASIN": "CP", "STMNR": 1, "CAT_ID": null, "CAT_DESC": null, "MSGID": null, "VALIDTIME": "2026-08-16 12:00:00" }, "geometry": { "type": "Point", "coordinates": [ -157.600006, 19.9 ] } },
{ "type": "Feature", "properties": { "ID": 72224, "LAT": 20.8, "LON": -158.8, "VMAX": 55.0, "MSLP": 994.0, "RMAX": 20.0, "FSPD": 10.09919, "FDIR": 269.99997, "RENV": 160.0, "PENV": 1009.0, "VALIDT": 0, "DTG": "2026-08-16 18:00", "LATNOW": 38.1, "LONNOW": -179.1, "WINDNOW": 35.0, "DIRNOW": 3.0, "SPDNOW": 3.0, "TECH": "TRAK", "ADVNR": null, "ATCFID": "CP012026", "NAME": "LALA", "FTECH": "OFCL", "FCST_DTG": "2026-08-28 06:00:00", "RUN_DTG": "2026-08-29 03:08:22", "BASIN": "CP", "STMNR": 1, "CAT_ID": null, "CAT_DESC": null, "MSGID": null, "VALIDTIME": "2026-08-16 18:00:00" }, "geometry": { "type": "Point", "coordinates": [ -158.800003, 20.799999 ] } },
{ "type": "Feature", "properties": { "ID": 72225, "LAT": 20.8, "LON": -160.9, "VMAX": 55.0, "MSLP": 994.0, "RMAX": 20.0, "FSPD": 5.3168, "FDIR": 264.4475, "RENV": 160.0, "PENV": 1009.0, "VALIDT": 0, "DTG": "2026-08-17 00:00", "LATNOW": 38.1, "LONNOW": -179.1, "WINDNOW": 35.0, "DIRNOW": 3.0, "SPDNOW": 3.0, "TECH": "TRAK", "ADVNR": null, "ATCFID": "CP012026", "NAME": "LALA", "FTECH": "OFCL", "FCST_DTG": "2026-08-28 06:00:00", "RUN_DTG": "2026-08-29 03:08:22", "BASIN": "CP", "STMNR": 1, "CAT_ID": null, "CAT_DESC": null, "MSGID": null, "VALIDTIME": "2026-08-17 00:00:00" }, "geometry": { "type": "Point", "coordinates": [ -160.899994, 20.799999 ] } },
{ "type": "Feature", "properties": { "ID": 72226, "LAT": 20.7, "LON": -162.0, "VMAX": 50.0, "MSLP": 997.0, "RMAX": 30.0, "FSPD": 4.45438, "FDIR": 256.64496, "RENV": 170.0, "PENV": 1009.0, "VALIDT": 0, "DTG": "2026-08-17 06:00", "LATNOW": 38.1, "LONNOW": -179.1, "WINDNOW": 35.0, "DIRNOW": 3.0, "SPDNOW": 3.0, "TECH": "TRAK", "ADVNR": null, "ATCFID": "CP012026", "NAME": "LALA", "FTECH": "OFCL", "FCST_DTG": "2026-08-28 06:00:00", "RUN_DTG": "2026-08-29 03:08:22", "BASIN": "CP", "STMNR": 1, "CAT_ID": null, "CAT_DESC": null, "MSGID": null, "VALIDTIME": "2026-08-17 06:00:00" }, "geometry": { "type": "Point", "coordinates": [ -162.0, 20.700001 ] } },
{ "type": "Feature", "properties": { "ID": 72227, "LAT": 20.5, "LON": -162.9, "VMAX": 50.0, "MSLP": 997.0, "RMAX": 25.0, "FSPD": 4.8476, "FDIR": 263.90805, "RENV": 170.0, "PENV": 1010.0, "VALIDT": 0, "DTG": "2026-08-17 12:00", "LATNOW": 38.1, "LONNOW": -179.1, "WINDNOW": 35.0, "DIRNOW": 3.0, "SPDNOW": 3.0, "TECH": "TRAK", "ADVNR": null, "ATCFID": "CP012026", "NAME": "LALA", "FTECH": "OFCL", "FCST_DTG": "2026-08-28 06:00:00", "RUN_DTG": "2026-08-29 03:08:22", "BASIN": "CP", "STMNR": 1, "CAT_ID": null, "CAT_DESC": null, "MSGID": null, "VALIDTIME": "2026-08-17 12:00:00" }, "geometry": { "type": "Point", "coordinates": [ -162.899994, 20.5 ] } },
{ "type": "Feature", "properties": { "ID": 72228, "LAT": 20.4, "LON": -163.9, "VMAX": 55.0, "MSLP": 994.0, "RMAX": 20.0, "FSPD": 5.33061, "FDIR": 264.46185, "RENV": 170.0, "PENV": 1010.0, "VALIDT": 0, "DTG": "2026-08-17 18:00", "LATNOW": 38.1, "LONNOW": -179.1, "WINDNOW": 35.0, "DIRNOW": 3.0, "SPDNOW": 3.0, "TECH": "TRAK", "ADVNR": null, "ATCFID": "CP012026", "NAME": "LALA", "FTECH": "OFCL", "FCST_DTG": "2026-08-28 06:00:00", "RUN_DTG": "2026-08-29 03:08:22", "BASIN": "CP", "STMNR": 1, "CAT_ID": null, "CAT_DESC": null, "MSGID": null, "VALIDTIME": "2026-08-17 18:00:00" }, "geometry": { "type": "Point", "coordinates": [ -163.899994, 20.4 ] } },
{ "type": "Feature", "properties": { "ID": 72229, "LAT": 20.3, "LON": -165.0, "VMAX": 60.0, "MSLP": 991.0, "RMAX": 20.0, "FSPD": 3.89284, "FDIR": 277.59393, "RENV": 170.0, "PENV": 1010.0, "VALIDT": 0, "DTG": "2026-08-18 00:00", "LATNOW": 38.1, "LONNOW": -179.1, "WINDNOW": 35.0, "DIRNOW": 3.0, "SPDNOW": 3.0, "TECH": "TRAK", "ADVNR": null, "ATCFID": "CP012026", "NAME": "LALA", "FTECH": "OFCL", "FCST_DTG": "2026-08-28 06:00:00", "RUN_DTG": "2026-08-29 03:08:22", "BASIN": "CP", "STMNR": 1, "CAT_ID": null, "CAT_DESC": null, "MSGID": null, "VALIDTIME": "2026-08-18 00:00:00" }, "geometry": { "type": "Point", "coordinates": [ -165.0, 20.299999 ] } },
{ "type": "Feature", "properties": { "ID": 72230, "LAT": 20.4, "LON": -165.8, "VMAX": 65.0, "MSLP": 989.0, "RMAX": 15.0, "FSPD": 3.85745, "FDIR": 269.99997, "RENV": 170.0, "PENV": 1010.0, "VALIDT": 0, "DTG": "2026-08-18 06:00", "LATNOW": 38.1, "LONNOW": -179.1, "WINDNOW": 35.0, "DIRNOW": 3.0, "SPDNOW": 3.0, "TECH": "TRAK", "ADVNR": null, "ATCFID": "CP012026", "NAME": "LALA", "FTECH": "OFCL", "FCST_DTG": "2026-08-28 06:00:00", "RUN_DTG": "2026-08-29 03:08:22", "BASIN": "CP", "STMNR": 1, "CAT_ID": null, "CAT_DESC": null, "MSGID": null, "VALIDTIME": "2026-08-18 06:00:00" }, "geometry": { "type": "Point", "coordinates": [ -165.800003, 20.4 ] } },
{ "type": "Feature", "properties": { "ID": 72231, "LAT": 20.4, "LON": -166.6, "VMAX": 70.0, "MSLP": 985.0, "RMAX": 15.0, "FSPD": 5.33053, "FDIR": 264.4618, "RENV": 170.0, "PENV": 1010.0, "VALIDT": 0, "DTG": "2026-08-18 12:00", "LATNOW": 38.1, "LONNOW": -179.1, "WINDNOW": 35.0, "DIRNOW": 3.0, "SPDNOW": 3.0, "TECH": "TRAK", "ADVNR": null, "ATCFID": "CP012026", "NAME": "LALA", "FTECH": "OFCL", "FCST_DTG": "2026-08-28 06:00:00", "RUN_DTG": "2026-08-29 03:08:22", "BASIN": "CP", "STMNR": 1, "CAT_ID": null, "CAT_DESC": null, "MSGID": null, "VALIDTIME": "2026-08-18 12:00:00" }, "geometry": { "type": "Point", "coordinates": [ -166.600006, 20.4 ] } },
{ "type": "Feature", "properties": { "ID": 72232, "LAT": 20.3, "LON": -167.7, "VMAX": 85.0, "MSLP": 974.0, "RMAX": 15.0, "FSPD": 3.99231, "FDIR": 284.93472, "RENV": 170.0, "PENV": 1010.0, "VALIDT": 0, "DTG": "2026-08-18 18:00", "LATNOW": 38.1, "LONNOW": -179.1, "WINDNOW": 35.0, "DIRNOW": 3.0, "SPDNOW": 3.0, "TECH": "TRAK", "ADVNR": null, "ATCFID": "CP012026", "NAME": "LALA", "FTECH": "OFCL", "FCST_DTG": "2026-08-28 06:00:00", "RUN_DTG": "2026-08-29 03:08:22", "BASIN": "CP", "STMNR": 1, "CAT_ID": null, "CAT_DESC": null, "MSGID": null, "VALIDTIME": "2026-08-18 18:00:00" }, "geometry": { "type": "Point", "coordinates": [ -167.699997, 20.299999 ] } },
{ "type": "Feature", "properties": { "ID": 72233, "LAT": 20.5, "LON": -168.5, "VMAX": 100.0, "MSLP": 960.0, "RMAX": 20.0, "FSPD": 3.98745, "FDIR": 284.95337, "RENV": 160.0, "PENV": 1009.0, "VALIDT": 0, "DTG": "2026-08-19 00:00", "LATNOW": 38.1, "LONNOW": -179.1, "WINDNOW": 35.0, "DIRNOW": 3.0, "SPDNOW": 3.0, "TECH": "TRAK", "ADVNR": null, "ATCFID": "CP012026", "NAME": "LALA", "FTECH": "OFCL", "FCST_DTG": "2026-08-28 06:00:00", "RUN_DTG": "2026-08-29 03:08:22", "BASIN": "CP", "STMNR": 1, "CAT_ID": null, "CAT_DESC": null, "MSGID": null, "VALIDTIME": "2026-08-19 00:00:00" }, "geometry": { "type": "Point", "coordinates": [ -168.5, 20.5 ] } },
{ "type": "Feature", "properties": { "ID": 72234, "LAT": 20.7, "LON": -169.3, "VMAX": 115.0, "MSLP": 947.0, "RMAX": 15.0, "FSPD": 3.27142, "FDIR": 298.14868, "RENV": 180.0, "PENV": 1009.0, "VALIDT": 0, "DTG": "2026-08-19 06:00", "LATNOW": 38.1, "LONNOW": -179.1, "WINDNOW": 35.0, "DIRNOW": 3.0, "SPDNOW": 3.0, "TECH": "TRAK", "ADVNR": null, "ATCFID": "CP012026", "NAME": "LALA", "FTECH": "OFCL", "FCST_DTG": "2026-08-28 06:00:00", "RUN_DTG": "2026-08-29 03:08:22", "BASIN": "CP", "STMNR": 1, "CAT_ID": null, "CAT_DESC": null, "MSGID": null, "VALIDTIME": "2026-08-19 06:00:00" }, "geometry": { "type": "Point", "coordinates": [ -169.300003, 20.700001 ] } },
{ "type": "Feature", "properties": { "ID": 72235, "LAT": 21.0, "LON": -169.9, "VMAX": 110.0, "MSLP": 953.0, "RMAX": 15.0, "FSPD": 6.00914, "FDIR": 320.39816, "RENV": 180.0, "PENV": 1009.0, "VALIDT": 0, "DTG": "2026-08-19 12:00", "LATNOW": 38.1, "LONNOW": -179.1, "WINDNOW": 35.0, "DIRNOW": 3.0, "SPDNOW": 3.0, "TECH": "TRAK", "ADVNR": null, "ATCFID": "CP012026", "NAME": "LALA", "FTECH": "OFCL", "FCST_DTG": "2026-08-28 06:00:00", "RUN_DTG": "2026-08-29 03:08:22", "BASIN": "CP", "STMNR": 1, "CAT_ID": null, "CAT_DESC": null, "MSGID": null, "VALIDTIME": "2026-08-19 12:00:00" }, "geometry": { "type": "Point", "coordinates": [ -169.899994, 21.0 ] } },
{ "type": "Feature", "properties": { "ID": 72236, "LAT": 21.9, "LON": -170.7, "VMAX": 110.0, "MSLP": 953.0, "RMAX": 15.0, "FSPD": 3.84573, "FDIR": 311.97845, "RENV": 180.0, "PENV": 1009.0, "VALIDT": 0, "DTG": "2026-08-19 18:00", "LATNOW": 38.1, "LONNOW": -179.1, "WINDNOW": 35.0, "DIRNOW": 3.0, "SPDNOW": 3.0, "TECH": "TRAK", "ADVNR": null, "ATCFID": "CP012026", "NAME": "LALA", "FTECH": "OFCL", "FCST_DTG": "2026-08-28 06:00:00", "RUN_DTG": "2026-08-29 03:08:22", "BASIN": "CP", "STMNR": 1, "CAT_ID": null, "CAT_DESC": null, "MSGID": null, "VALIDTIME": "2026-08-19 18:00:00" }, "geometry": { "type": "Point", "coordinates": [ -170.699997, 21.9 ] } },
{ "type": "Feature", "properties": { "ID": 72237, "LAT": 22.4, "LON": -171.3, "VMAX": 100.0, "MSLP": 959.0, "RMAX": 15.0, "FSPD": 4.31218, "FDIR": 326.62653, "RENV": 190.0, "PENV": 1010.0, "VALIDT": 0, "DTG": "2026-08-20 00:00", "LATNOW": 38.1, "LONNOW": -179.1, "WINDNOW": 35.0, "DIRNOW": 3.0, "SPDNOW": 3.0, "TECH": "TRAK", "ADVNR": null, "ATCFID": "CP012026", "NAME": "LALA", "FTECH": "OFCL", "FCST_DTG": "2026-08-28 06:00:00", "RUN_DTG": "2026-08-29 03:08:22", "BASIN": "CP", "STMNR": 1, "CAT_ID": null, "CAT_DESC": null, "MSGID": null, "VALIDTIME": "2026-08-20 00:00:00" }, "geometry": { "type": "Point", "coordinates": [ -171.300003, 22.4 ] } },
{ "type": "Feature", "properties": { "ID": 72238, "LAT": 23.1, "LON": -171.8, "VMAX": 95.0, "MSLP": 963.0, "RMAX": 15.0, "FSPD": 3.72275, "FDIR": 345.31244, "RENV": 190.0, "PENV": 1010.0, "VALIDT": 0, "DTG": "2026-08-20 06:00", "LATNOW": 38.1, "LONNOW": -179.1, "WINDNOW": 35.0, "DIRNOW": 3.0, "SPDNOW": 3.0, "TECH": "TRAK", "ADVNR": null, "ATCFID": "CP012026", "NAME": "LALA", "FTECH": "OFCL", "FCST_DTG": "2026-08-28 06:00:00", "RUN_DTG": "2026-08-29 03:08:22", "BASIN": "CP", "STMNR": 1, "CAT_ID": null, "CAT_DESC": null, "MSGID": null, "VALIDTIME": "2026-08-20 06:00:00" }, "geometry": { "type": "Point", "coordinates": [ -171.800003, 23.1 ] } },
{ "type": "Feature", "properties": { "ID": 72239, "LAT": 23.8, "LON": -172.0, "VMAX": 85.0, "MSLP": 969.0, "RMAX": 20.0, "FSPD": 4.34966, "FDIR": 341.11682, "RENV": 190.0, "PENV": 1009.0, "VALIDT": 0, "DTG": "2026-08-20 12:00", "LATNOW": 38.1, "LONNOW": -179.1, "WINDNOW": 35.0, "DIRNOW": 3.0, "SPDNOW": 3.0, "TECH": "TRAK", "ADVNR": null, "ATCFID": "CP012026", "NAME": "LALA", "FTECH": "OFCL", "FCST_DTG": "2026-08-28 06:00:00", "RUN_DTG": "2026-08-29 03:08:22", "BASIN": "CP", "STMNR": 1, "CAT_ID": null, "CAT_DESC": null, "MSGID": null, "VALIDTIME": "2026-08-20 12:00:00" }, "geometry": { "type": "Point", "coordinates": [ -172.0, 23.799999 ] } },
{ "type": "Feature", "properties": { "ID": 72240, "LAT": 24.6, "LON": -172.3, "VMAX": 80.0, "MSLP": 973.0, "RMAX": 25.0, "FSPD": 3.12173, "FDIR": 351.40424, "RENV": 190.0, "PENV": 1010.0, "VALIDT": 0, "DTG": "2026-08-20 18:00", "LATNOW": 38.1, "LONNOW": -179.1, "WINDNOW": 35.0, "DIRNOW": 3.0, "SPDNOW": 3.0, "TECH": "TRAK", "ADVNR": null, "ATCFID": "CP012026", "NAME": "LALA", "FTECH": "OFCL", "FCST_DTG": "2026-08-28 06:00:00", "RUN_DTG": "2026-08-29 03:08:22", "BASIN": "CP", "STMNR": 1, "CAT_ID": null, "CAT_DESC": null, "MSGID": null, "VALIDTIME": "2026-08-20 18:00:00" }, "geometry": { "type": "Point", "coordinates": [ -172.300003, 24.6 ] } },
{ "type": "Feature", "properties": { "ID": 72241, "LAT": 25.2, "LON": -172.4, "VMAX": 80.0, "MSLP": 974.0, "RMAX": 25.0, "FSPD": 5.17817, "FDIR": 26.60211, "RENV": 190.0, "PENV": 1011.0, "VALIDT": 0, "DTG": "2026-08-21 00:00", "LATNOW": 38.1, "LONNOW": -179.1, "WINDNOW": 35.0, "DIRNOW": 3.0, "SPDNOW": 3.0, "TECH": "TRAK", "ADVNR": null, "ATCFID": "CP012026", "NAME": "LALA", "FTECH": "OFCL", "FCST_DTG": "2026-08-28 06:00:00", "RUN_DTG": "2026-08-29 03:08:22", "BASIN": "CP", "STMNR": 1, "CAT_ID": null, "CAT_DESC": null, "MSGID": null, "VALIDTIME": "2026-08-21 00:00:00" }, "geometry": { "type": "Point", "coordinates": [ -172.399994, 25.200001 ] } },
{ "type": "Feature", "properties": { "ID": 72242, "LAT": 26.1, "LON": -171.9, "VMAX": 80.0, "MSLP": 974.0, "RMAX": 25.0, "FSPD": 5.39079, "FDIR": 30.80991, "RENV": 190.0, "PENV": 1012.0, "VALIDT": 0, "DTG": "2026-08-21 06:00", "LATNOW": 38.1, "LONNOW": -179.1, "WINDNOW": 35.0, "DIRNOW": 3.0, "SPDNOW": 3.0, "TECH": "TRAK", "ADVNR": null, "ATCFID": "CP012026", "NAME": "LALA", "FTECH": "OFCL", "FCST_DTG": "2026-08-28 06:00:00", "RUN_DTG": "2026-08-29 03:08:22", "BASIN": "CP", "STMNR": 1, "CAT_ID": null, "CAT_DESC": null, "MSGID": null, "VALIDTIME": "2026-08-21 06:00:00" }, "geometry": { "type": "Point", "coordinates": [ -171.899994, 26.1 ] } },
{ "type": "Feature", "properties": { "ID": 72243, "LAT": 27.0, "LON": -171.3, "VMAX": 85.0, "MSLP": 970.0, "RMAX": 25.0, "FSPD": 6.2859, "FDIR": 25.80881, "RENV": 200.0, "PENV": 1011.0, "VALIDT": 0, "DTG": "2026-08-21 12:00", "LATNOW": 38.1, "LONNOW": -179.1, "WINDNOW": 35.0, "DIRNOW": 3.0, "SPDNOW": 3.0, "TECH": "TRAK", "ADVNR": null, "ATCFID": "CP012026", "NAME": "LALA", "FTECH": "OFCL", "FCST_DTG": "2026-08-28 06:00:00", "RUN_DTG": "2026-08-29 03:08:22", "BASIN": "CP", "STMNR": 1, "CAT_ID": null, "CAT_DESC": null, "MSGID": null, "VALIDTIME": "2026-08-21 12:00:00" }, "geometry": { "type": "Point", "coordinates": [ -171.300003, 27.0 ] } },
{ "type": "Feature", "properties": { "ID": 72244, "LAT": 28.1, "LON": -170.7, "VMAX": 80.0, "MSLP": 974.0, "RMAX": 25.0, "FSPD": 2.90881, "FDIR": 27.836, "RENV": 250.0, "PENV": 1012.0, "VALIDT": 0, "DTG": "2026-08-21 18:00", "LATNOW": 38.1, "LONNOW": -179.1, "WINDNOW": 35.0, "DIRNOW": 3.0, "SPDNOW": 3.0, "TECH": "TRAK", "ADVNR": null, "ATCFID": "CP012026", "NAME": "LALA", "FTECH": "OFCL", "FCST_DTG": "2026-08-28 06:00:00", "RUN_DTG": "2026-08-29 03:08:22", "BASIN": "CP", "STMNR": 1, "CAT_ID": null, "CAT_DESC": null, "MSGID": null, "VALIDTIME": "2026-08-21 18:00:00" }, "geometry": { "type": "Point", "coordinates": [ -170.699997, 28.1 ] } },
{ "type": "Feature", "properties": { "ID": 72245, "LAT": 28.6, "LON": -170.4, "VMAX": 75.0, "MSLP": 977.0, "RMAX": 25.0, "FSPD": 9.37223, "FDIR": 331.43134, "RENV": 250.0, "PENV": 1012.0, "VALIDT": 0, "DTG": "2026-08-22 00:00", "LATNOW": 38.1, "LONNOW": -179.1, "WINDNOW": 35.0, "DIRNOW": 3.0, "SPDNOW": 3.0, "TECH": "TRAK", "ADVNR": null, "ATCFID": "CP012026", "NAME": "LALA", "FTECH": "OFCL", "FCST_DTG": "2026-08-28 06:00:00", "RUN_DTG": "2026-08-29 03:08:22", "BASIN": "CP", "STMNR": 1, "CAT_ID": null, "CAT_DESC": null, "MSGID": null, "VALIDTIME": "2026-08-22 00:00:00" }, "geometry": { "type": "Point", "coordinates": [ -170.399994, 28.6 ] } },
{ "type": "Feature", "properties": { "ID": 72246, "LAT": 30.2, "LON": -171.4, "VMAX": 75.0, "MSLP": 976.0, "RMAX": 30.0, "FSPD": 3.5922, "FDIR": 278.23358, "RENV": 250.0, "PENV": 1011.0, "VALIDT": 0, "DTG": "2026-08-22 06:00", "LATNOW": 38.1, "LONNOW": -179.1, "WINDNOW": 35.0, "DIRNOW": 3.0, "SPDNOW": 3.0, "TECH": "TRAK", "ADVNR": null, "ATCFID": "CP012026", "NAME": "LALA", "FTECH": "OFCL", "FCST_DTG": "2026-08-28 06:00:00", "RUN_DTG": "2026-08-29 03:08:22", "BASIN": "CP", "STMNR": 1, "CAT_ID": null, "CAT_DESC": null, "MSGID": null, "VALIDTIME": "2026-08-22 06:00:00" }, "geometry": { "type": "Point", "coordinates": [ -171.399994, 30.200001 ] } },
{ "type": "Feature", "properties": { "ID": 72247, "LAT": 30.3, "LON": -172.2, "VMAX": 70.0, "MSLP": 979.0, "RMAX": 35.0, "FSPD": 2.89532, "FDIR": 332.67383, "RENV": 270.0, "PENV": 1013.0, "VALIDT": 0, "DTG": "2026-08-22 12:00", "LATNOW": 38.1, "LONNOW": -179.1, "WINDNOW": 35.0, "DIRNOW": 3.0, "SPDNOW": 3.0, "TECH": "TRAK", "ADVNR": null, "ATCFID": "CP012026", "NAME": "LALA", "FTECH": "OFCL", "FCST_DTG": "2026-08-28 06:00:00", "RUN_DTG": "2026-08-29 03:08:22", "BASIN": "CP", "STMNR": 1, "CAT_ID": null, "CAT_DESC": null, "MSGID": null, "VALIDTIME": "2026-08-22 12:00:00" }, "geometry": { "type": "Point", "coordinates": [ -172.199997, 30.299999 ] } },
{ "type": "Feature", "properties": { "ID": 72248, "LAT": 30.8, "LON": -172.5, "VMAX": 65.0, "MSLP": 981.0, "RMAX": 35.0, "FSPD": 2.71906, "FDIR": 341.08435, "RENV": 270.0, "PENV": 1013.0, "VALIDT": 0, "DTG": "2026-08-22 18:00", "LATNOW": 38.1, "LONNOW": -179.1, "WINDNOW": 35.0, "DIRNOW": 3.0, "SPDNOW": 3.0, "TECH": "TRAK", "ADVNR": null, "ATCFID": "CP012026", "NAME": "LALA", "FTECH": "OFCL", "FCST_DTG": "2026-08-28 06:00:00", "RUN_DTG": "2026-08-29 03:08:22", "BASIN": "CP", "STMNR": 1, "CAT_ID": null, "CAT_DESC": null, "MSGID": null, "VALIDTIME": "2026-08-22 18:00:00" }, "geometry": { "type": "Point", "coordinates": [ -172.5, 30.799999 ] } },
{ "type": "Feature", "properties": { "ID": 72249, "LAT": 31.3, "LON": -172.7, "VMAX": 65.0, "MSLP": 981.0, "RMAX": 35.0, "FSPD": 3.67906, "FDIR": 314.35895, "RENV": 270.0, "PENV": 1013.0, "VALIDT": 0, "DTG": "2026-08-23 00:00", "LATNOW": 38.1, "LONNOW": -179.1, "WINDNOW": 35.0, "DIRNOW": 3.0, "SPDNOW": 3.0, "TECH": "TRAK", "ADVNR": null, "ATCFID": "CP012026", "NAME": "LALA", "FTECH": "OFCL", "FCST_DTG": "2026-08-28 06:00:00", "RUN_DTG": "2026-08-29 03:08:22", "BASIN": "CP", "STMNR": 1, "CAT_ID": null, "CAT_DESC": null, "MSGID": null, "VALIDTIME": "2026-08-23 00:00:00" }, "geometry": { "type": "Point", "coordinates": [ -172.699997, 31.299999 ] } },
{ "type": "Feature", "properties": { "ID": 72250, "LAT": 31.8, "LON": -173.3, "VMAX": 60.0, "MSLP": 984.0, "RMAX": 35.0, "FSPD": 1.82205, "FDIR": 286.40018, "RENV": 270.0, "PENV": 1013.0, "VALIDT": 0, "DTG": "2026-08-23 06:00", "LATNOW": 38.1, "LONNOW": -179.1, "WINDNOW": 35.0, "DIRNOW": 3.0, "SPDNOW": 3.0, "TECH": "TRAK", "ADVNR": null, "ATCFID": "CP012026", "NAME": "LALA", "FTECH": "OFCL", "FCST_DTG": "2026-08-28 06:00:00", "RUN_DTG": "2026-08-29 03:08:22", "BASIN": "CP", "STMNR": 1, "CAT_ID": null, "CAT_DESC": null, "MSGID": null, "VALIDTIME": "2026-08-23 06:00:00" }, "geometry": { "type": "Point", "coordinates": [ -173.300003, 31.799999 ] } },
{ "type": "Feature", "properties": { "ID": 72251, "LAT": 31.9, "LON": -173.7, "VMAX": 55.0, "MSLP": 988.0, "RMAX": 35.0, "FSPD": 2.99707, "FDIR": 313.36124, "RENV": 270.0, "PENV": 1014.0, "VALIDT": 0, "DTG": "2026-08-23 12:00", "LATNOW": 38.1, "LONNOW": -179.1, "WINDNOW": 35.0, "DIRNOW": 3.0, "SPDNOW": 3.0, "TECH": "TRAK", "ADVNR": null, "ATCFID": "CP012026", "NAME": "LALA", "FTECH": "OFCL", "FCST_DTG": "2026-08-28 06:00:00", "RUN_DTG": "2026-08-29 03:08:22", "BASIN": "CP", "STMNR": 1, "CAT_ID": null, "CAT_DESC": null, "MSGID": null, "VALIDTIME": "2026-08-23 12:00:00" }, "geometry": { "type": "Point", "coordinates": [ -173.699997, 31.9 ] } },
{ "type": "Feature", "properties": { "ID": 72252, "LAT": 32.3, "LON": -174.2, "VMAX": 55.0, "MSLP": 988.0, "RMAX": 40.0, "FSPD": 3.5402, "FDIR": 330.67944, "RENV": 270.0, "PENV": 1014.0, "VALIDT": 0, "DTG": "2026-08-23 18:00", "LATNOW": 38.1, "LONNOW": -179.1, "WINDNOW": 35.0, "DIRNOW": 3.0, "SPDNOW": 3.0, "TECH": "TRAK", "ADVNR": null, "ATCFID": "CP012026", "NAME": "LALA", "FTECH": "OFCL", "FCST_DTG": "2026-08-28 06:00:00", "RUN_DTG": "2026-08-29 03:08:22", "BASIN": "CP", "STMNR": 1, "CAT_ID": null, "CAT_DESC": null, "MSGID": null, "VALIDTIME": "2026-08-23 18:00:00" }, "geometry": { "type": "Point", "coordinates": [ -174.199997, 32.299999 ] } },
{ "type": "Feature", "properties": { "ID": 72253, "LAT": 32.9, "LON": -174.6, "VMAX": 55.0, "MSLP": 988.0, "RMAX": 40.0, "FSPD": 1.60243, "FDIR": 344.39105, "RENV": 270.0, "PENV": 1014.0, "VALIDT": 0, "DTG": "2026-08-24 00:00", "LATNOW": 38.1, "LONNOW": -179.1, "WINDNOW": 35.0, "DIRNOW": 3.0, "SPDNOW": 3.0, "TECH": "TRAK", "ADVNR": null, "ATCFID": "CP012026", "NAME": "LALA", "FTECH": "OFCL", "FCST_DTG": "2026-08-28 06:00:00", "RUN_DTG": "2026-08-29 03:08:22", "BASIN": "CP", "STMNR": 1, "CAT_ID": null, "CAT_DESC": null, "MSGID": null, "VALIDTIME": "2026-08-24 00:00:00" }, "geometry": { "type": "Point", "coordinates": [ -174.600006, 32.900002 ] } },
{ "type": "Feature", "properties": { "ID": 72254, "LAT": 33.2, "LON": -174.7, "VMAX": 55.0, "MSLP": 988.0, "RMAX": 35.0, "FSPD": 2.21177, "FDIR": 283.4496, "RENV": 270.0, "PENV": 1014.0, "VALIDT": 0, "DTG": "2026-08-24 06:00", "LATNOW": 38.1, "LONNOW": -179.1, "WINDNOW": 35.0, "DIRNOW": 3.0, "SPDNOW": 3.0, "TECH": "TRAK", "ADVNR": null, "ATCFID": "CP012026", "NAME": "LALA", "FTECH": "OFCL", "FCST_DTG": "2026-08-28 06:00:00", "RUN_DTG": "2026-08-29 03:08:22", "BASIN": "CP", "STMNR": 1, "CAT_ID": null, "CAT_DESC": null, "MSGID": null, "VALIDTIME": "2026-08-24 06:00:00" }, "geometry": { "type": "Point", "coordinates": [ -174.699997, 33.200001 ] } },
{ "type": "Feature", "properties": { "ID": 72255, "LAT": 33.3, "LON": -175.2, "VMAX": 55.0, "MSLP": 988.0, "RMAX": 30.0, "FSPD": 1.02889, "FDIR": 360.0, "RENV": 270.0, "PENV": 1014.0, "VALIDT": 0, "DTG": "2026-08-24 12:00", "LATNOW": 38.1, "LONNOW": -179.1, "WINDNOW": 35.0, "DIRNOW": 3.0, "SPDNOW": 3.0, "TECH": "TRAK", "ADVNR": null, "ATCFID": "CP012026", "NAME": "LALA", "FTECH": "OFCL", "FCST_DTG": "2026-08-28 06:00:00", "RUN_DTG": "2026-08-29 03:08:22", "BASIN": "CP", "STMNR": 1, "CAT_ID": null, "CAT_DESC": null, "MSGID": null, "VALIDTIME": "2026-08-24 12:00:00" }, "geometry": { "type": "Point", "coordinates": [ -175.199997, 33.299999 ] } },
{ "type": "Feature", "properties": { "ID": 72256, "LAT": 33.5, "LON": -175.2, "VMAX": 55.0, "MSLP": 988.0, "RMAX": 30.0, "FSPD": 3.20288, "FDIR": 344.51773, "RENV": 270.0, "PENV": 1014.0, "VALIDT": 0, "DTG": "2026-08-24 18:00", "LATNOW": 38.1, "LONNOW": -179.1, "WINDNOW": 35.0, "DIRNOW": 3.0, "SPDNOW": 3.0, "TECH": "TRAK", "ADVNR": null, "ATCFID": "CP012026", "NAME": "LALA", "FTECH": "OFCL", "FCST_DTG": "2026-08-28 06:00:00", "RUN_DTG": "2026-08-29 03:08:22", "BASIN": "CP", "STMNR": 1, "CAT_ID": null, "CAT_DESC": null, "MSGID": null, "VALIDTIME": "2026-08-24 18:00:00" }, "geometry": { "type": "Point", "coordinates": [ -175.199997, 33.5 ] } },
{ "type": "Feature", "properties": { "ID": 72257, "LAT": 34.1, "LON": -175.4, "VMAX": 50.0, "MSLP": 992.0, "RMAX": 30.0, "FSPD": 2.42074, "FDIR": 328.21857, "RENV": 270.0, "PENV": 1015.0, "VALIDT": 0, "DTG": "2026-08-25 00:00", "LATNOW": 38.1, "LONNOW": -179.1, "WINDNOW": 35.0, "DIRNOW": 3.0, "SPDNOW": 3.0, "TECH": "TRAK", "ADVNR": null, "ATCFID": "CP012026", "NAME": "LALA", "FTECH": "OFCL", "FCST_DTG": "2026-08-28 06:00:00", "RUN_DTG": "2026-08-29 03:08:22", "BASIN": "CP", "STMNR": 1, "CAT_ID": null, "CAT_DESC": null, "MSGID": null, "VALIDTIME": "2026-08-25 00:00:00" }, "geometry": { "type": "Point", "coordinates": [ -175.399994, 34.099998 ] } },
{ "type": "Feature", "properties": { "ID": 72258, "LAT": 34.5, "LON": -175.7, "VMAX": 50.0, "MSLP": 992.0, "RMAX": 30.0, "FSPD": 3.34032, "FDIR": 297.5182, "RENV": 270.0, "PENV": 1015.0, "VALIDT": 0, "DTG": "2026-08-25 06:00", "LATNOW": 38.1, "LONNOW": -179.1, "WINDNOW": 35.0, "DIRNOW": 3.0, "SPDNOW": 3.0, "TECH": "TRAK", "ADVNR": null, "ATCFID": "CP012026", "NAME": "LALA", "FTECH": "OFCL", "FCST_DTG": "2026-08-28 06:00:00", "RUN_DTG": "2026-08-29 03:08:22", "BASIN": "CP", "STMNR": 1, "CAT_ID": null, "CAT_DESC": null, "MSGID": null, "VALIDTIME": "2026-08-25 06:00:00" }, "geometry": { "type": "Point", "coordinates": [ -175.699997, 34.5 ] } },
{ "type": "Feature", "properties": { "ID": 72259, "LAT": 34.8, "LON": -176.4, "VMAX": 45.0, "MSLP": 994.0, "RMAX": 30.0, "FSPD": 2.58482, "FDIR": 281.48022, "RENV": 250.0, "PENV": 1014.0, "VALIDT": 0, "DTG": "2026-08-25 12:00", "LATNOW": 38.1, "LONNOW": -179.1, "WINDNOW": 35.0, "DIRNOW": 3.0, "SPDNOW": 3.0, "TECH": "TRAK", "ADVNR": null, "ATCFID": "CP012026", "NAME": "LALA", "FTECH": "OFCL", "FCST_DTG": "2026-08-28 06:00:00", "RUN_DTG": "2026-08-29 03:08:22", "BASIN": "CP", "STMNR": 1, "CAT_ID": null, "CAT_DESC": null, "MSGID": null, "VALIDTIME": "2026-08-25 12:00:00" }, "geometry": { "type": "Point", "coordinates": [ -176.399994, 34.799999 ] } },
{ "type": "Feature", "properties": { "ID": 72260, "LAT": 34.9, "LON": -177.0, "VMAX": 45.0, "MSLP": 994.0, "RMAX": 30.0, "FSPD": 1.9748, "FDIR": 301.39935, "RENV": 250.0, "PENV": 1014.0, "VALIDT": 0, "DTG": "2026-08-25 18:00", "LATNOW": 38.1, "LONNOW": -179.1, "WINDNOW": 35.0, "DIRNOW": 3.0, "SPDNOW": 3.0, "TECH": "TRAK", "ADVNR": null, "ATCFID": "CP012026", "NAME": "LALA", "FTECH": "OFCL", "FCST_DTG": "2026-08-28 06:00:00", "RUN_DTG": "2026-08-29 03:08:22", "BASIN": "CP", "STMNR": 1, "CAT_ID": null, "CAT_DESC": null, "MSGID": null, "VALIDTIME": "2026-08-25 18:00:00" }, "geometry": { "type": "Point", "coordinates": [ -177.0, 34.900002 ] } },
{ "type": "Feature", "properties": { "ID": 72261, "LAT": 35.1, "LON": -177.4, "VMAX": 45.0, "MSLP": 995.0, "RMAX": 40.0, "FSPD": 1.32875, "FDIR": 320.74457, "RENV": 300.0, "PENV": 1015.0, "VALIDT": 0, "DTG": "2026-08-26 00:00", "LATNOW": 38.1, "LONNOW": -179.1, "WINDNOW": 35.0, "DIRNOW": 3.0, "SPDNOW": 3.0, "TECH": "TRAK", "ADVNR": null, "ATCFID": "CP012026", "NAME": "LALA", "FTECH": "OFCL", "FCST_DTG": "2026-08-28 06:00:00", "RUN_DTG": "2026-08-29 03:08:22", "BASIN": "CP", "STMNR": 1, "CAT_ID": null, "CAT_DESC": null, "MSGID": null, "VALIDTIME": "2026-08-26 00:00:00" }, "geometry": { "type": "Point", "coordinates": [ -177.399994, 35.099998 ] } },
{ "type": "Feature", "properties": { "ID": 72262, "LAT": 35.3, "LON": -177.6, "VMAX": 40.0, "MSLP": 997.0, "RMAX": 40.0, "FSPD": 1.99057, "FDIR": 320.83405, "RENV": 300.0, "PENV": 1015.0, "VALIDT": 0, "DTG": "2026-08-26 06:00", "LATNOW": 38.1, "LONNOW": -179.1, "WINDNOW": 35.0, "DIRNOW": 3.0, "SPDNOW": 3.0, "TECH": "TRAK", "ADVNR": null, "ATCFID": "CP012026", "NAME": "LALA", "FTECH": "OFCL", "FCST_DTG": "2026-08-28 06:00:00", "RUN_DTG": "2026-08-29 03:08:22", "BASIN": "CP", "STMNR": 1, "CAT_ID": null, "CAT_DESC": null, "MSGID": null, "VALIDTIME": "2026-08-26 06:00:00" }, "geometry": { "type": "Point", "coordinates": [ -177.600006, 35.299999 ] } },
{ "type": "Feature", "properties": { "ID": 72263, "LAT": 35.6, "LON": -177.9, "VMAX": 40.0, "MSLP": 997.0, "RMAX": 40.0, "FSPD": 1.98766, "FDIR": 320.9381, "RENV": 250.0, "PENV": 1016.0, "VALIDT": 0, "DTG": "2026-08-26 12:00", "LATNOW": 38.1, "LONNOW": -179.1, "WINDNOW": 35.0, "DIRNOW": 3.0, "SPDNOW": 3.0, "TECH": "TRAK", "ADVNR": null, "ATCFID": "CP012026", "NAME": "LALA", "FTECH": "OFCL", "FCST_DTG": "2026-08-28 06:00:00", "RUN_DTG": "2026-08-29 03:08:22", "BASIN": "CP", "STMNR": 1, "CAT_ID": null, "CAT_DESC": null, "MSGID": null, "VALIDTIME": "2026-08-26 12:00:00" }, "geometry": { "type": "Point", "coordinates": [ -177.899994, 35.599998 ] } },
{ "type": "Feature", "properties": { "ID": 72264, "LAT": 35.9, "LON": -178.2, "VMAX": 40.0, "MSLP": 999.0, "RMAX": 40.0, "FSPD": 1.75324, "FDIR": 331.6755, "RENV": 240.0, "PENV": 1016.0, "VALIDT": 0, "DTG": "2026-08-26 18:00", "LATNOW": 38.1, "LONNOW": -179.1, "WINDNOW": 35.0, "DIRNOW": 3.0, "SPDNOW": 3.0, "TECH": "TRAK", "ADVNR": null, "ATCFID": "CP012026", "NAME": "LALA", "FTECH": "OFCL", "FCST_DTG": "2026-08-28 06:00:00", "RUN_DTG": "2026-08-29 03:08:22", "BASIN": "CP", "STMNR": 1, "CAT_ID": null, "CAT_DESC": null, "MSGID": null, "VALIDTIME": "2026-08-26 18:00:00" }, "geometry": { "type": "Point", "coordinates": [ -178.199997, 35.900002 ] } },
{ "type": "Feature", "properties": { "ID": 72265, "LAT": 36.2, "LON": -178.4, "VMAX": 40.0, "MSLP": 999.0, "RMAX": 45.0, "FSPD": 2.57222, "FDIR": 360.0, "RENV": 230.0, "PENV": 1016.0, "VALIDT": 0, "DTG": "2026-08-27 00:00", "LATNOW": 38.1, "LONNOW": -179.1, "WINDNOW": 35.0, "DIRNOW": 3.0, "SPDNOW": 3.0, "TECH": "TRAK", "ADVNR": null, "ATCFID": "CP012026", "NAME": "LALA", "FTECH": "OFCL", "FCST_DTG": "2026-08-28 06:00:00", "RUN_DTG": "2026-08-29 03:08:22", "BASIN": "CP", "STMNR": 1, "CAT_ID": null, "CAT_DESC": null, "MSGID": null, "VALIDTIME": "2026-08-27 00:00:00" }, "geometry": { "type": "Point", "coordinates": [ -178.399994, 36.200001 ] } },
{ "type": "Feature", "properties": { "ID": 72266, "LAT": 36.7, "LON": -178.4, "VMAX": 40.0, "MSLP": 999.0, "RMAX": 40.0, "FSPD": 1.5973, "FDIR": 345.06396, "RENV": 180.0, "PENV": 1010.0, "VALIDT": 0, "DTG": "2026-08-27 06:00", "LATNOW": 38.1, "LONNOW": -179.1, "WINDNOW": 35.0, "DIRNOW": 3.0, "SPDNOW": 3.0, "TECH": "TRAK", "ADVNR": null, "ATCFID": "CP012026", "NAME": "LALA", "FTECH": "OFCL", "FCST_DTG": "2026-08-28 06:00:00", "RUN_DTG": "2026-08-29 03:08:22", "BASIN": "CP", "STMNR": 1, "CAT_ID": null, "CAT_DESC": null, "MSGID": null, "VALIDTIME": "2026-08-27 06:00:00" }, "geometry": { "type": "Point", "coordinates": [ -178.399994, 36.700001 ] } },
{ "type": "Feature", "properties": { "ID": 72267, "LAT": 37.0, "LON": -178.5, "VMAX": 40.0, "MSLP": 999.0, "RMAX": 40.0, "FSPD": 1.9736, "FDIR": 321.44278, "RENV": 180.0, "PENV": 1010.0, "VALIDT": 0, "DTG": "2026-08-27 12:00", "LATNOW": 38.1, "LONNOW": -179.1, "WINDNOW": 35.0, "DIRNOW": 3.0, "SPDNOW": 3.0, "TECH": "TRAK", "ADVNR": null, "ATCFID": "CP012026", "NAME": "LALA", "FTECH": "OFCL", "FCST_DTG": "2026-08-28 06:00:00", "RUN_DTG": "2026-08-29 03:08:22", "BASIN": "CP", "STMNR": 1, "CAT_ID": null, "CAT_DESC": null, "MSGID": null, "VALIDTIME": "2026-08-27 12:00:00" }, "geometry": { "type": "Point", "coordinates": [ -178.5, 37.0 ] } },
{ "type": "Feature", "properties": { "ID": 72268, "LAT": 37.3, "LON": -178.8, "VMAX": 40.0, "MSLP": 1000.0, "RMAX": 40.0, "FSPD": 2.21377, "FDIR": 338.36328, "RENV": 180.0, "PENV": 1010.0, "VALIDT": 0, "DTG": "2026-08-27 18:00", "LATNOW": 38.1, "LONNOW": -179.1, "WINDNOW": 35.0, "DIRNOW": 3.0, "SPDNOW": 3.0, "TECH": "TRAK", "ADVNR": null, "ATCFID": "CP012026", "NAME": "LALA", "FTECH": "OFCL", "FCST_DTG": "2026-08-28 06:00:00", "RUN_DTG": "2026-08-29 03:08:22", "BASIN": "CP", "STMNR": 1, "CAT_ID": null, "CAT_DESC": null, "MSGID": null, "VALIDTIME": "2026-08-27 18:00:00" }, "geometry": { "type": "Point", "coordinates": [ -178.800003, 37.299999 ] } },
{ "type": "Feature", "properties": { "ID": 72269, "LAT": 37.7, "LON": -179.0, "VMAX": 35.0, "MSLP": 1002.0, "RMAX": 80.0, "FSPD": 2.09743, "FDIR": 348.83975, "RENV": 180.0, "PENV": 1016.0, "VALIDT": 0, "DTG": "2026-08-28 00:00", "LATNOW": 38.1, "LONNOW": -179.1, "WINDNOW": 35.0, "DIRNOW": 3.0, "SPDNOW": 3.0, "TECH": "TRAK", "ADVNR": null, "ATCFID": "CP012026", "NAME": "LALA", "FTECH": "OFCL", "FCST_DTG": "2026-08-28 06:00:00", "RUN_DTG": "2026-08-29 03:08:22", "BASIN": "CP", "STMNR": 1, "CAT_ID": null, "CAT_DESC": null, "MSGID": null, "VALIDTIME": "2026-08-28 00:00:00" }, "geometry": { "type": "Point", "coordinates": [ -179.0, 37.700001 ] } },
{ "type": "Feature", "properties": { "ID": 72270, "LAT": 38.1, "LON": -179.1, "VMAX": 35.0, "MSLP": 1003.0, "RMAX": 80.0, "FSPD": 2.63632, "FDIR": 292.97214, "RENV": 180.0, "PENV": 1016.0, "VALIDT": 0, "DTG": "2026-08-28 06:00", "LATNOW": 38.1, "LONNOW": -179.1, "WINDNOW": 35.0, "DIRNOW": 3.0, "SPDNOW": 3.0, "TECH": "TRAK", "ADVNR": null, "ATCFID": "CP012026", "NAME": "LALA", "FTECH": "OFCL", "FCST_DTG": "2026-08-28 06:00:00", "RUN_DTG": "2026-08-29 03:08:22", "BASIN": "CP", "STMNR": 1, "CAT_ID": null, "CAT_DESC": null, "MSGID": null, "VALIDTIME": "2026-08-28 06:00:00" }, "geometry": { "type": "Point", "coordinates": [ -179.100006, 38.099998 ] } },
{ "type": "Feature", "properties": { "ID": 72271, "LAT": 38.2, "LON": -179.4, "VMAX": 35.0, "MSLP": 1003.0, "RMAX": 80.0, "FSPD": 2.38506, "FDIR": 295.55573, "RENV": 180.0, "PENV": 1012.0, "VALIDT": 3, "DTG": "2026-08-28 09:00", "LATNOW": 38.1, "LONNOW": -179.1, "WINDNOW": 35.0, "DIRNOW": 3.0, "SPDNOW": 3.0, "TECH": "FCST", "ADVNR": null, "ATCFID": "CP012026", "NAME": "LALA", "FTECH": "OFCL", "FCST_DTG": "2026-08-28 06:00:00", "RUN_DTG": "2026-08-29 03:08:22", "BASIN": "CP", "STMNR": 1, "CAT_ID": null, "CAT_DESC": null, "MSGID": null, "VALIDTIME": "2026-08-28 09:00:00" }, "geometry": { "type": "Point", "coordinates": [ -179.399994, 38.200001 ] } },
{ "type": "Feature", "properties": { "ID": 72272, "LAT": 38.5, "LON": 179.8, "VMAX": 30.0, "MSLP": 1010.40607, "RMAX": 90.77986, "FSPD": 3.92454, "FDIR": 293.15692, "RENV": 250.0, "PENV": 1012.0, "VALIDT": 12, "DTG": "2026-08-28 18:00", "LATNOW": 38.1, "LONNOW": -179.1, "WINDNOW": 35.0, "DIRNOW": 3.0, "SPDNOW": 3.0, "TECH": "FCST", "ADVNR": null, "ATCFID": "CP012026", "NAME": "LALA", "FTECH": "OFCL", "FCST_DTG": "2026-08-28 06:00:00", "RUN_DTG": "2026-08-29 03:08:22", "BASIN": "CP", "STMNR": 1, "CAT_ID": null, "CAT_DESC": null, "MSGID": null, "VALIDTIME": "2026-08-28 18:00:00" }, "geometry": { "type": "Point", "coordinates": [ 179.800003, 38.5 ] } },
{ "type": "Feature", "properties": { "ID": 72273, "LAT": 39.1, "LON": 178.0, "VMAX": 30.0, "MSLP": 1010.40607, "RMAX": 90.77986, "FSPD": 6.42251, "FDIR": 306.92374, "RENV": 250.0, "PENV": 1012.0, "VALIDT": 24, "DTG": "2026-08-29 06:00", "LATNOW": 38.1, "LONNOW": -179.1, "WINDNOW": 35.0, "DIRNOW": 3.0, "SPDNOW": 3.0, "TECH": "FCST", "ADVNR": null, "ATCFID": "CP012026", "NAME": "LALA", "FTECH": "OFCL", "FCST_DTG": "2026-08-28 06:00:00", "RUN_DTG": "2026-08-29 03:08:22", "BASIN": "CP", "STMNR": 1, "CAT_ID": null, "CAT_DESC": null, "MSGID": null, "VALIDTIME": "2026-08-29 06:00:00" }, "geometry": { "type": "Point", "coordinates": [ 178.0, 39.099998 ] } },
{ "type": "Feature", "properties": { "ID": 72274, "LAT": 40.6, "LON": 175.4, "VMAX": 25.0, "MSLP": 1011.80975, "RMAX": 92.38148, "FSPD": 6.42251, "FDIR": 306.92374, "RENV": 250.0, "PENV": 1012.0, "VALIDT": 36, "DTG": "2026-08-29 18:00", "LATNOW": 38.1, "LONNOW": -179.1, "WINDNOW": 35.0, "DIRNOW": 3.0, "SPDNOW": 3.0, "TECH": "FCST", "ADVNR": null, "ATCFID": "CP012026", "NAME": "LALA", "FTECH": "OFCL", "FCST_DTG": "2026-08-28 06:00:00", "RUN_DTG": "2026-08-29 03:08:22", "BASIN": "CP", "STMNR": 1, "CAT_ID": null, "CAT_DESC": null, "MSGID": null, "VALIDTIME": "2026-08-29 18:00:00" }, "geometry": { "type": "Point", "coordinates": [ 175.399994, 40.599998 ] } },
{ "type": "Feature", "properties": { "ID": 72270, "LAT": 38.1, "LON": -179.1, "VMAX": 35.0, "MSLP": 1003.0, "RMAX": 80.0, "FSPD": 2.63632, "FDIR": 292.97214, "RENV": 180.0, "PENV": 1016.0, "VALIDT": 0, "DTG": "2026-08-28 06:00", "LATNOW": 38.1, "LONNOW": -179.1, "WINDNOW": 35.0, "DIRNOW": 3.0, "SPDNOW": 3.0, "TECH": "TRAK", "ADVNR": null, "ATCFID": "CP012026", "NAME": "LALA", "FTECH": "OFCL", "FCST_DTG": "2026-08-28 06:00:00", "RUN_DTG": "2026-08-29 03:08:22", "BASIN": "CP", "STMNR": 1, "CAT_ID": null, "CAT_DESC": null, "MSGID": null, "VALIDTIME": "2026-08-28 06:00:00" }, "geometry": { "type": "LineString", "coordinates": [ [ -140.6, 10.1 ], [ -141.5, 10.1 ], [ -141.2, 10.5 ], [ -141.2, 10.6 ], [ -141.2, 10.6 ], [ -141.0, 10.5 ], [ -140.7, 10.4 ], [ -140.8, 10.7 ], [ -141.0, 11.0 ], [ -137.5, 15.0 ], [ -139.4, 15.1 ], [ -140.4, 15.0 ], [ -141.4, 15.0 ], [ -142.2, 14.7 ], [ -143.1, 14.7 ], [ -144.1, 14.7 ], [ -145.0, 14.9 ], [ -145.7, 15.2 ], [ -147.0, 16.0 ], [ -147.9, 16.2 ], [ -149.0, 16.5 ], [ -150.3, 17.0 ], [ -151.9, 17.4 ], [ -153.0, 17.6 ], [ -154.1, 17.8 ], [ -155.0, 17.9 ], [ -155.7, 18.3 ], [ -156.5, 19.1 ], [ -157.6, 19.9 ], [ -158.8, 20.8 ], [ -160.9, 20.8 ], [ -162.0, 20.7 ], [ -162.9, 20.5 ], [ -163.9, 20.4 ], [ -165.0, 20.3 ], [ -165.8, 20.4 ], [ -166.6, 20.4 ], [ -167.7, 20.3 ], [ -168.5, 20.5 ], [ -169.3, 20.7 ], [ -169.9, 21.0 ], [ -170.7, 21.9 ], [ -171.3, 22.4 ], [ -171.8, 23.1 ], [ -172.0, 23.8 ], [ -172.3, 24.6 ], [ -172.4, 25.2 ], [ -171.9, 26.1 ], [ -171.3, 27.0 ], [ -170.7, 28.1 ], [ -170.4, 28.6 ], [ -171.4, 30.2 ], [ -172.2, 30.3 ], [ -172.5, 30.8 ], [ -172.7, 31.3 ], [ -173.3, 31.8 ], [ -173.7, 31.9 ], [ -174.2, 32.3 ], [ -174.6, 32.9 ], [ -174.7, 33.2 ], [ -175.2, 33.3 ], [ -175.2, 33.5 ], [ -175.4, 34.1 ], [ -175.7, 34.5 ], [ -176.4, 34.8 ], [ -177.0, 34.9 ], [ -177.4, 35.1 ], [ -177.6, 35.3 ], [ -177.9, 35.6 ], [ -178.2, 35.9 ], [ -178.4, 36.2 ], [ -178.4, 36.7 ], [ -178.5, 37.0 ], [ -178.8, 37.3 ], [ -179.0, 37.7 ], [ -179.1, 38.1 ] ] } },
{ "type": "Feature", "properties": { "ID": 72274, "LAT": 40.6, "LON": 175.4, "VMAX": 25.0, "MSLP": 1011.80975, "RMAX": 92.38148, "FSPD": 6.42251, "FDIR": 306.92374, "RENV": 250.0, "PENV": 1012.0, "VALIDT": 36, "DTG": "2026-08-29 18:00", "LATNOW": 38.1, "LONNOW": -179.1, "WINDNOW": 35.0, "DIRNOW": 3.0, "SPDNOW": 3.0, "TECH": "FCST", "ADVNR": null, "ATCFID": "CP012026", "NAME": "LALA", "FTECH": "OFCL", "FCST_DTG": "2026-08-28 06:00:00", "RUN_DTG": "2026-08-29 03:08:22", "BASIN": "CP", "STMNR": 1, "CAT_ID": null, "CAT_DESC": null, "MSGID": null, "VALIDTIME": "2026-08-29 18:00:00" }, "geometry": { "type": "LineString", "coordinates": [ [ -179.1, 38.1 ], [ -179.4, 38.2 ], [ 179.8, 38.5 ], [ 178.0, 39.1 ], [ 175.4, 40.6 ] ] } }
]
}
