{
"type": "FeatureCollection",
"crs": { "type": "name", "properties": { "name": "urn:ogc:def:crs:OGC:1.3:CRS84" } },
"features": [
{ "type": "Feature", "properties": { "ID": 42637, "LAT": 13.0, "LON": 138.3, "VMAX": 15.0, "MSLP": 1013.8515, "RMAX": 40.0, "FSPD": 4.13841, "FDIR": 284.3958, "RENV": 500.0, "PENV": 1012.0, "VALIDT": 0, "DTG": "2025-09-16 06:00", "LATNOW": 21.8, "LONNOW": 111.1, "WINDNOW": 80.0, "DIRNOW": 6.0, "SPDNOW": 3.0, "TECH": "TRAK", "ADVNR": 25, "ATCFID": "WP242025", "NAME": "RAGASA", "FTECH": "JTWC", "FCST_DTG": "2025-09-24 12:00:00", "RUN_DTG": "2025-09-25 07:41:15", "BASIN": "WP", "STMNR": 24, "CAT_ID": null, "CAT_DESC": null, "MSGID": "WTPN52 PGTW 241500", "VALIDTIME": "2025-09-16 06:00:00" }, "geometry": { "type": "Point", "coordinates": [ 138.300003, 13.0 ] } },
{ "type": "Feature", "properties": { "ID": 42638, "LAT": 13.2, "LON": 137.5, "VMAX": 15.0, "MSLP": 1013.8515, "RMAX": 40.0, "FSPD": 2.25141, "FDIR": 297.1935, "RENV": 500.0, "PENV": 1012.0, "VALIDT": 0, "DTG": "2025-09-16 12:00", "LATNOW": 21.8, "LONNOW": 111.1, "WINDNOW": 80.0, "DIRNOW": 6.0, "SPDNOW": 3.0, "TECH": "TRAK", "ADVNR": 25, "ATCFID": "WP242025", "NAME": "RAGASA", "FTECH": "JTWC", "FCST_DTG": "2025-09-24 12:00:00", "RUN_DTG": "2025-09-25 07:41:15", "BASIN": "WP", "STMNR": 24, "CAT_ID": null, "CAT_DESC": null, "MSGID": "WTPN52 PGTW 241500", "VALIDTIME": "2025-09-16 12:00:00" }, "geometry": { "type": "Point", "coordinates": [ 137.5, 13.2 ] } },
{ "type": "Feature", "properties": { "ID": 42639, "LAT": 13.4, "LON": 137.1, "VMAX": 15.0, "MSLP": 1013.8515, "RMAX": 40.0, "FSPD": 2.70451, "FDIR": 292.36066, "RENV": 500.0, "PENV": 1012.0, "VALIDT": 0, "DTG": "2025-09-16 18:00", "LATNOW": 21.8, "LONNOW": 111.1, "WINDNOW": 80.0, "DIRNOW": 6.0, "SPDNOW": 3.0, "TECH": "TRAK", "ADVNR": 25, "ATCFID": "WP242025", "NAME": "RAGASA", "FTECH": "JTWC", "FCST_DTG": "2025-09-24 12:00:00", "RUN_DTG": "2025-09-25 07:41:15", "BASIN": "WP", "STMNR": 24, "CAT_ID": null, "CAT_DESC": null, "MSGID": "WTPN52 PGTW 241500", "VALIDTIME": "2025-09-16 18:00:00" }, "geometry": { "type": "Point", "coordinates": [ 137.100006, 13.4 ] } },
{ "type": "Feature", "properties": { "ID": 42640, "LAT": 13.6, "LON": 136.6, "VMAX": 20.0, "MSLP": 1012.95825, "RMAX": 45.0, "FSPD": 5.73449, "FDIR": 315.8636, "RENV": 500.0, "PENV": 1012.0, "VALIDT": 0, "DTG": "2025-09-17 00:00", "LATNOW": 21.8, "LONNOW": 111.1, "WINDNOW": 80.0, "DIRNOW": 6.0, "SPDNOW": 3.0, "TECH": "TRAK", "ADVNR": 25, "ATCFID": "WP242025", "NAME": "RAGASA", "FTECH": "JTWC", "FCST_DTG": "2025-09-24 12:00:00", "RUN_DTG": "2025-09-25 07:41:15", "BASIN": "WP", "STMNR": 24, "CAT_ID": null, "CAT_DESC": null, "MSGID": "WTPN52 PGTW 241500", "VALIDTIME": "2025-09-17 00:00:00" }, "geometry": { "type": "Point", "coordinates": [ 136.600006, 13.6 ] } },
{ "type": "Feature", "properties": { "ID": 42641, "LAT": 14.4, "LON": 135.8, "VMAX": 20.0, "MSLP": 1012.95825, "RMAX": 45.0, "FSPD": 5.00952, "FDIR": 315.95993, "RENV": 500.0, "PENV": 1012.0, "VALIDT": 0, "DTG": "2025-09-17 06:00", "LATNOW": 21.8, "LONNOW": 111.1, "WINDNOW": 80.0, "DIRNOW": 6.0, "SPDNOW": 3.0, "TECH": "TRAK", "ADVNR": 25, "ATCFID": "WP242025", "NAME": "RAGASA", "FTECH": "JTWC", "FCST_DTG": "2025-09-24 12:00:00", "RUN_DTG": "2025-09-25 07:41:15", "BASIN": "WP", "STMNR": 24, "CAT_ID": null, "CAT_DESC": null, "MSGID": "WTPN52 PGTW 241500", "VALIDTIME": "2025-09-17 06:00:00" }, "geometry": { "type": "Point", "coordinates": [ 135.800003, 14.4 ] } },
{ "type": "Feature", "properties": { "ID": 42642, "LAT": 15.1, "LON": 135.1, "VMAX": 20.0, "MSLP": 1012.95825, "RMAX": 45.0, "FSPD": 2.68919, "FDIR": 247.50493, "RENV": 500.0, "PENV": 1012.0, "VALIDT": 0, "DTG": "2025-09-17 12:00", "LATNOW": 21.8, "LONNOW": 111.1, "WINDNOW": 80.0, "DIRNOW": 6.0, "SPDNOW": 3.0, "TECH": "TRAK", "ADVNR": 25, "ATCFID": "WP242025", "NAME": "RAGASA", "FTECH": "JTWC", "FCST_DTG": "2025-09-24 12:00:00", "RUN_DTG": "2025-09-25 07:41:15", "BASIN": "WP", "STMNR": 24, "CAT_ID": null, "CAT_DESC": null, "MSGID": "WTPN52 PGTW 241500", "VALIDTIME": "2025-09-17 12:00:00" }, "geometry": { "type": "Point", "coordinates": [ 135.100006, 15.1 ] } },
{ "type": "Feature", "properties": { "ID": 42643, "LAT": 14.9, "LON": 134.6, "VMAX": 20.0, "MSLP": 1012.95825, "RMAX": 45.0, "FSPD": 3.22518, "FDIR": 309.6455, "RENV": 500.0, "PENV": 1012.0, "VALIDT": 0, "DTG": "2025-09-17 18:00", "LATNOW": 21.8, "LONNOW": 111.1, "WINDNOW": 80.0, "DIRNOW": 6.0, "SPDNOW": 3.0, "TECH": "TRAK", "ADVNR": 25, "ATCFID": "WP242025", "NAME": "RAGASA", "FTECH": "JTWC", "FCST_DTG": "2025-09-24 12:00:00", "RUN_DTG": "2025-09-25 07:41:15", "BASIN": "WP", "STMNR": 24, "CAT_ID": null, "CAT_DESC": null, "MSGID": "WTPN52 PGTW 241500", "VALIDTIME": "2025-09-17 18:00:00" }, "geometry": { "type": "Point", "coordinates": [ 134.600006, 14.9 ] } },
{ "type": "Feature", "properties": { "ID": 42644, "LAT": 15.3, "LON": 134.1, "VMAX": 20.0, "MSLP": 1012.95825, "RMAX": 45.0, "FSPD": 4.03444, "FDIR": 300.66727, "RENV": 500.0, "PENV": 1012.0, "VALIDT": 0, "DTG": "2025-09-18 00:00", "LATNOW": 21.8, "LONNOW": 111.1, "WINDNOW": 80.0, "DIRNOW": 6.0, "SPDNOW": 3.0, "TECH": "TRAK", "ADVNR": 25, "ATCFID": "WP242025", "NAME": "RAGASA", "FTECH": "JTWC", "FCST_DTG": "2025-09-24 12:00:00", "RUN_DTG": "2025-09-25 07:41:15", "BASIN": "WP", "STMNR": 24, "CAT_ID": null, "CAT_DESC": null, "MSGID": "WTPN52 PGTW 241500", "VALIDTIME": "2025-09-18 00:00:00" }, "geometry": { "type": "Point", "coordinates": [ 134.100006, 15.3 ] } },
{ "type": "Feature", "properties": { "ID": 42645, "LAT": 15.7, "LON": 133.4, "VMAX": 25.0, "MSLP": 1011.80975, "RMAX": 45.0, "FSPD": 2.23137, "FDIR": 297.4582, "RENV": 500.0, "PENV": 1012.0, "VALIDT": 0, "DTG": "2025-09-18 06:00", "LATNOW": 21.8, "LONNOW": 111.1, "WINDNOW": 80.0, "DIRNOW": 6.0, "SPDNOW": 3.0, "TECH": "TRAK", "ADVNR": 25, "ATCFID": "WP242025", "NAME": "RAGASA", "FTECH": "JTWC", "FCST_DTG": "2025-09-24 12:00:00", "RUN_DTG": "2025-09-25 07:41:15", "BASIN": "WP", "STMNR": 24, "CAT_ID": null, "CAT_DESC": null, "MSGID": "WTPN52 PGTW 241500", "VALIDTIME": "2025-09-18 06:00:00" }, "geometry": { "type": "Point", "coordinates": [ 133.399994, 15.7 ] } },
{ "type": "Feature", "properties": { "ID": 42646, "LAT": 15.9, "LON": 133.0, "VMAX": 30.0, "MSLP": 1005.0, "RMAX": 60.0, "FSPD": 3.78927, "FDIR": 294.03485, "RENV": 180.0, "PENV": 1010.0, "VALIDT": 0, "DTG": "2025-09-18 12:00", "LATNOW": 21.8, "LONNOW": 111.1, "WINDNOW": 80.0, "DIRNOW": 6.0, "SPDNOW": 3.0, "TECH": "TRAK", "ADVNR": 25, "ATCFID": "WP242025", "NAME": "RAGASA", "FTECH": "JTWC", "FCST_DTG": "2025-09-24 12:00:00", "RUN_DTG": "2025-09-25 07:41:15", "BASIN": "WP", "STMNR": 24, "CAT_ID": null, "CAT_DESC": null, "MSGID": "WTPN52 PGTW 241500", "VALIDTIME": "2025-09-18 12:00:00" }, "geometry": { "type": "Point", "coordinates": [ 133.0, 15.9 ] } },
{ "type": "Feature", "properties": { "ID": 42647, "LAT": 16.2, "LON": 132.3, "VMAX": 35.0, "MSLP": 1005.0, "RMAX": 60.0, "FSPD": 5.04863, "FDIR": 258.2409, "RENV": 180.0, "PENV": 1010.0, "VALIDT": 0, "DTG": "2025-09-18 18:00", "LATNOW": 21.8, "LONNOW": 111.1, "WINDNOW": 80.0, "DIRNOW": 6.0, "SPDNOW": 3.0, "TECH": "TRAK", "ADVNR": 25, "ATCFID": "WP242025", "NAME": "RAGASA", "FTECH": "JTWC", "FCST_DTG": "2025-09-24 12:00:00", "RUN_DTG": "2025-09-25 07:41:15", "BASIN": "WP", "STMNR": 24, "CAT_ID": null, "CAT_DESC": null, "MSGID": "WTPN52 PGTW 241500", "VALIDTIME": "2025-09-18 18:00:00" }, "geometry": { "type": "Point", "coordinates": [ 132.300003, 16.200001 ] } },
{ "type": "Feature", "properties": { "ID": 42648, "LAT": 16.0, "LON": 131.3, "VMAX": 40.0, "MSLP": 1004.0, "RMAX": 65.0, "FSPD": 3.01066, "FDIR": 279.83868, "RENV": 180.0, "PENV": 1010.0, "VALIDT": 0, "DTG": "2025-09-19 00:00", "LATNOW": 21.8, "LONNOW": 111.1, "WINDNOW": 80.0, "DIRNOW": 6.0, "SPDNOW": 3.0, "TECH": "TRAK", "ADVNR": 25, "ATCFID": "WP242025", "NAME": "RAGASA", "FTECH": "JTWC", "FCST_DTG": "2025-09-24 12:00:00", "RUN_DTG": "2025-09-25 07:41:15", "BASIN": "WP", "STMNR": 24, "CAT_ID": null, "CAT_DESC": null, "MSGID": "WTPN52 PGTW 241500", "VALIDTIME": "2025-09-19 00:00:00" }, "geometry": { "type": "Point", "coordinates": [ 131.300003, 16.0 ] } },
{ "type": "Feature", "properties": { "ID": 42649, "LAT": 16.1, "LON": 130.7, "VMAX": 40.0, "MSLP": 1000.0, "RMAX": 60.0, "FSPD": 3.13756, "FDIR": 289.14285, "RENV": 240.0, "PENV": 1009.0, "VALIDT": 0, "DTG": "2025-09-19 06:00", "LATNOW": 21.8, "LONNOW": 111.1, "WINDNOW": 80.0, "DIRNOW": 6.0, "SPDNOW": 3.0, "TECH": "TRAK", "ADVNR": 25, "ATCFID": "WP242025", "NAME": "RAGASA", "FTECH": "JTWC", "FCST_DTG": "2025-09-24 12:00:00", "RUN_DTG": "2025-09-25 07:41:15", "BASIN": "WP", "STMNR": 24, "CAT_ID": null, "CAT_DESC": null, "MSGID": "WTPN52 PGTW 241500", "VALIDTIME": "2025-09-19 06:00:00" }, "geometry": { "type": "Point", "coordinates": [ 130.699997, 16.1 ] } },
{ "type": "Feature", "properties": { "ID": 42650, "LAT": 16.3, "LON": 130.1, "VMAX": 45.0, "MSLP": 998.0, "RMAX": 50.0, "FSPD": 0.71317, "FDIR": 223.83449, "RENV": 220.0, "PENV": 1008.0, "VALIDT": 0, "DTG": "2025-09-19 12:00", "LATNOW": 21.8, "LONNOW": 111.1, "WINDNOW": 80.0, "DIRNOW": 6.0, "SPDNOW": 3.0, "TECH": "TRAK", "ADVNR": 25, "ATCFID": "WP242025", "NAME": "RAGASA", "FTECH": "JTWC", "FCST_DTG": "2025-09-24 12:00:00", "RUN_DTG": "2025-09-25 07:41:15", "BASIN": "WP", "STMNR": 24, "CAT_ID": null, "CAT_DESC": null, "MSGID": "WTPN52 PGTW 241500", "VALIDTIME": "2025-09-19 12:00:00" }, "geometry": { "type": "Point", "coordinates": [ 130.100006, 16.299999 ] } },
{ "type": "Feature", "properties": { "ID": 42651, "LAT": 16.2, "LON": 130.0, "VMAX": 55.0, "MSLP": 996.0, "RMAX": 40.0, "FSPD": 2.04142, "FDIR": 284.59583, "RENV": 270.0, "PENV": 1010.0, "VALIDT": 0, "DTG": "2025-09-19 18:00", "LATNOW": 21.8, "LONNOW": 111.1, "WINDNOW": 80.0, "DIRNOW": 6.0, "SPDNOW": 3.0, "TECH": "TRAK", "ADVNR": 25, "ATCFID": "WP242025", "NAME": "RAGASA", "FTECH": "JTWC", "FCST_DTG": "2025-09-24 12:00:00", "RUN_DTG": "2025-09-25 07:41:15", "BASIN": "WP", "STMNR": 24, "CAT_ID": null, "CAT_DESC": null, "MSGID": "WTPN52 PGTW 241500", "VALIDTIME": "2025-09-19 18:00:00" }, "geometry": { "type": "Point", "coordinates": [ 130.0, 16.200001 ] } },
{ "type": "Feature", "properties": { "ID": 42652, "LAT": 16.3, "LON": 129.6, "VMAX": 65.0, "MSLP": 992.0, "RMAX": 35.0, "FSPD": 3.21202, "FDIR": 309.84033, "RENV": 300.0, "PENV": 1009.0, "VALIDT": 0, "DTG": "2025-09-20 00:00", "LATNOW": 21.8, "LONNOW": 111.1, "WINDNOW": 80.0, "DIRNOW": 6.0, "SPDNOW": 3.0, "TECH": "TRAK", "ADVNR": 25, "ATCFID": "WP242025", "NAME": "RAGASA", "FTECH": "JTWC", "FCST_DTG": "2025-09-24 12:00:00", "RUN_DTG": "2025-09-25 07:41:15", "BASIN": "WP", "STMNR": 24, "CAT_ID": null, "CAT_DESC": null, "MSGID": "WTPN52 PGTW 241500", "VALIDTIME": "2025-09-20 00:00:00" }, "geometry": { "type": "Point", "coordinates": [ 129.600006, 16.299999 ] } },
{ "type": "Feature", "properties": { "ID": 42653, "LAT": 16.7, "LON": 129.1, "VMAX": 70.0, "MSLP": 985.0, "RMAX": 60.0, "FSPD": 3.23899, "FDIR": 322.5744, "RENV": 275.0, "PENV": 1008.0, "VALIDT": 0, "DTG": "2025-09-20 06:00", "LATNOW": 21.8, "LONNOW": 111.1, "WINDNOW": 80.0, "DIRNOW": 6.0, "SPDNOW": 3.0, "TECH": "TRAK", "ADVNR": 25, "ATCFID": "WP242025", "NAME": "RAGASA", "FTECH": "JTWC", "FCST_DTG": "2025-09-24 12:00:00", "RUN_DTG": "2025-09-25 07:41:15", "BASIN": "WP", "STMNR": 24, "CAT_ID": null, "CAT_DESC": null, "MSGID": "WTPN52 PGTW 241500", "VALIDTIME": "2025-09-20 06:00:00" }, "geometry": { "type": "Point", "coordinates": [ 129.100006, 16.700001 ] } },
{ "type": "Feature", "properties": { "ID": 42654, "LAT": 17.2, "LON": 128.7, "VMAX": 100.0, "MSLP": 974.0, "RMAX": 30.0, "FSPD": 4.99335, "FDIR": 308.18146, "RENV": 275.0, "PENV": 1008.0, "VALIDT": 0, "DTG": "2025-09-20 12:00", "LATNOW": 21.8, "LONNOW": 111.1, "WINDNOW": 80.0, "DIRNOW": 6.0, "SPDNOW": 3.0, "TECH": "TRAK", "ADVNR": 25, "ATCFID": "WP242025", "NAME": "RAGASA", "FTECH": "JTWC", "FCST_DTG": "2025-09-24 12:00:00", "RUN_DTG": "2025-09-25 07:41:15", "BASIN": "WP", "STMNR": 24, "CAT_ID": null, "CAT_DESC": null, "MSGID": "WTPN52 PGTW 241500", "VALIDTIME": "2025-09-20 12:00:00" }, "geometry": { "type": "Point", "coordinates": [ 128.699997, 17.200001 ] } },
{ "type": "Feature", "properties": { "ID": 42655, "LAT": 17.8, "LON": 127.9, "VMAX": 115.0, "MSLP": 957.0, "RMAX": 5.0, "FSPD": 4.43705, "FDIR": 276.65802, "RENV": 275.0, "PENV": 1008.0, "VALIDT": 0, "DTG": "2025-09-20 18:00", "LATNOW": 21.8, "LONNOW": 111.1, "WINDNOW": 80.0, "DIRNOW": 6.0, "SPDNOW": 3.0, "TECH": "TRAK", "ADVNR": 25, "ATCFID": "WP242025", "NAME": "RAGASA", "FTECH": "JTWC", "FCST_DTG": "2025-09-24 12:00:00", "RUN_DTG": "2025-09-25 07:41:15", "BASIN": "WP", "STMNR": 24, "CAT_ID": null, "CAT_DESC": null, "MSGID": "WTPN52 PGTW 241500", "VALIDTIME": "2025-09-20 18:00:00" }, "geometry": { "type": "Point", "coordinates": [ 127.900002, 17.799999 ] } },
{ "type": "Feature", "properties": { "ID": 42656, "LAT": 17.9, "LON": 127.0, "VMAX": 120.0, "MSLP": 937.0, "RMAX": 5.0, "FSPD": 3.99383, "FDIR": 301.01343, "RENV": 260.0, "PENV": 1006.0, "VALIDT": 0, "DTG": "2025-09-21 00:00", "LATNOW": 21.8, "LONNOW": 111.1, "WINDNOW": 80.0, "DIRNOW": 6.0, "SPDNOW": 3.0, "TECH": "TRAK", "ADVNR": 25, "ATCFID": "WP242025", "NAME": "RAGASA", "FTECH": "JTWC", "FCST_DTG": "2025-09-24 12:00:00", "RUN_DTG": "2025-09-25 07:41:15", "BASIN": "WP", "STMNR": 24, "CAT_ID": null, "CAT_DESC": null, "MSGID": "WTPN52 PGTW 241500", "VALIDTIME": "2025-09-21 00:00:00" }, "geometry": { "type": "Point", "coordinates": [ 127.0, 17.9 ] } },
{ "type": "Feature", "properties": { "ID": 42657, "LAT": 18.3, "LON": 126.3, "VMAX": 140.0, "MSLP": 933.0, "RMAX": 5.0, "FSPD": 5.36504, "FDIR": 305.12274, "RENV": 240.0, "PENV": 1006.0, "VALIDT": 0, "DTG": "2025-09-21 06:00", "LATNOW": 21.8, "LONNOW": 111.1, "WINDNOW": 80.0, "DIRNOW": 6.0, "SPDNOW": 3.0, "TECH": "TRAK", "ADVNR": 25, "ATCFID": "WP242025", "NAME": "RAGASA", "FTECH": "JTWC", "FCST_DTG": "2025-09-24 12:00:00", "RUN_DTG": "2025-09-25 07:41:15", "BASIN": "WP", "STMNR": 24, "CAT_ID": null, "CAT_DESC": null, "MSGID": "WTPN52 PGTW 241500", "VALIDTIME": "2025-09-21 06:00:00" }, "geometry": { "type": "Point", "coordinates": [ 126.300003, 18.299999 ] } },
{ "type": "Feature", "properties": { "ID": 42658, "LAT": 18.9, "LON": 125.4, "VMAX": 145.0, "MSLP": 922.0, "RMAX": 5.0, "FSPD": 6.40659, "FDIR": 279.24164, "RENV": 320.0, "PENV": 1006.0, "VALIDT": 0, "DTG": "2025-09-21 12:00", "LATNOW": 21.8, "LONNOW": 111.1, "WINDNOW": 80.0, "DIRNOW": 6.0, "SPDNOW": 3.0, "TECH": "TRAK", "ADVNR": 25, "ATCFID": "WP242025", "NAME": "RAGASA", "FTECH": "JTWC", "FCST_DTG": "2025-09-24 12:00:00", "RUN_DTG": "2025-09-25 07:41:15", "BASIN": "WP", "STMNR": 24, "CAT_ID": null, "CAT_DESC": null, "MSGID": "WTPN52 PGTW 241500", "VALIDTIME": "2025-09-21 12:00:00" }, "geometry": { "type": "Point", "coordinates": [ 125.400002, 18.9 ] } },
{ "type": "Feature", "properties": { "ID": 42659, "LAT": 19.1, "LON": 124.1, "VMAX": 145.0, "MSLP": 911.0, "RMAX": 5.0, "FSPD": 5.92003, "FDIR": 280.00864, "RENV": 320.0, "PENV": 1006.0, "VALIDT": 0, "DTG": "2025-09-21 18:00", "LATNOW": 21.8, "LONNOW": 111.1, "WINDNOW": 80.0, "DIRNOW": 6.0, "SPDNOW": 3.0, "TECH": "TRAK", "ADVNR": 25, "ATCFID": "WP242025", "NAME": "RAGASA", "FTECH": "JTWC", "FCST_DTG": "2025-09-24 12:00:00", "RUN_DTG": "2025-09-25 07:41:15", "BASIN": "WP", "STMNR": 24, "CAT_ID": null, "CAT_DESC": null, "MSGID": "WTPN52 PGTW 241500", "VALIDTIME": "2025-09-21 18:00:00" }, "geometry": { "type": "Point", "coordinates": [ 124.099998, 19.1 ] } },
{ "type": "Feature", "properties": { "ID": 42660, "LAT": 19.3, "LON": 122.9, "VMAX": 145.0, "MSLP": 914.0, "RMAX": 15.0, "FSPD": 5.82642, "FDIR": 269.99997, "RENV": 280.0, "PENV": 1004.0, "VALIDT": 0, "DTG": "2025-09-22 00:00", "LATNOW": 21.8, "LONNOW": 111.1, "WINDNOW": 80.0, "DIRNOW": 6.0, "SPDNOW": 3.0, "TECH": "TRAK", "ADVNR": 25, "ATCFID": "WP242025", "NAME": "RAGASA", "FTECH": "JTWC", "FCST_DTG": "2025-09-24 12:00:00", "RUN_DTG": "2025-09-25 07:41:15", "BASIN": "WP", "STMNR": 24, "CAT_ID": null, "CAT_DESC": null, "MSGID": "WTPN52 PGTW 241500", "VALIDTIME": "2025-09-22 00:00:00" }, "geometry": { "type": "Point", "coordinates": [ 122.900002, 19.299999 ] } },
{ "type": "Feature", "properties": { "ID": 42661, "LAT": 19.3, "LON": 121.7, "VMAX": 140.0, "MSLP": 910.0, "RMAX": 25.0, "FSPD": 5.84727, "FDIR": 275.04742, "RENV": 280.0, "PENV": 1004.0, "VALIDT": 0, "DTG": "2025-09-22 06:00", "LATNOW": 21.8, "LONNOW": 111.1, "WINDNOW": 80.0, "DIRNOW": 6.0, "SPDNOW": 3.0, "TECH": "TRAK", "ADVNR": 25, "ATCFID": "WP242025", "NAME": "RAGASA", "FTECH": "JTWC", "FCST_DTG": "2025-09-24 12:00:00", "RUN_DTG": "2025-09-25 07:41:15", "BASIN": "WP", "STMNR": 24, "CAT_ID": null, "CAT_DESC": null, "MSGID": "WTPN52 PGTW 241500", "VALIDTIME": "2025-09-22 06:00:00" }, "geometry": { "type": "Point", "coordinates": [ 121.699997, 19.299999 ] } },
{ "type": "Feature", "properties": { "ID": 42662, "LAT": 19.4, "LON": 120.5, "VMAX": 130.0, "MSLP": 916.0, "RMAX": 25.0, "FSPD": 5.90948, "FDIR": 280.0268, "RENV": 400.0, "PENV": 1004.0, "VALIDT": 0, "DTG": "2025-09-22 12:00", "LATNOW": 21.8, "LONNOW": 111.1, "WINDNOW": 80.0, "DIRNOW": 6.0, "SPDNOW": 3.0, "TECH": "TRAK", "ADVNR": 25, "ATCFID": "WP242025", "NAME": "RAGASA", "FTECH": "JTWC", "FCST_DTG": "2025-09-24 12:00:00", "RUN_DTG": "2025-09-25 07:41:15", "BASIN": "WP", "STMNR": 24, "CAT_ID": null, "CAT_DESC": null, "MSGID": "WTPN52 PGTW 241500", "VALIDTIME": "2025-09-22 12:00:00" }, "geometry": { "type": "Point", "coordinates": [ 120.5, 19.4 ] } },
{ "type": "Feature", "properties": { "ID": 42663, "LAT": 19.6, "LON": 119.3, "VMAX": 125.0, "MSLP": 926.0, "RMAX": 17.0, "FSPD": 5.70818, "FDIR": 291.1306, "RENV": 305.0, "PENV": 1004.0, "VALIDT": 0, "DTG": "2025-09-22 18:00", "LATNOW": 21.8, "LONNOW": 111.1, "WINDNOW": 80.0, "DIRNOW": 6.0, "SPDNOW": 3.0, "TECH": "TRAK", "ADVNR": 25, "ATCFID": "WP242025", "NAME": "RAGASA", "FTECH": "JTWC", "FCST_DTG": "2025-09-24 12:00:00", "RUN_DTG": "2025-09-25 07:41:15", "BASIN": "WP", "STMNR": 24, "CAT_ID": null, "CAT_DESC": null, "MSGID": "WTPN52 PGTW 241500", "VALIDTIME": "2025-09-22 18:00:00" }, "geometry": { "type": "Point", "coordinates": [ 119.300003, 19.6 ] } },
{ "type": "Feature", "properties": { "ID": 42664, "LAT": 20.0, "LON": 118.2, "VMAX": 125.0, "MSLP": 930.0, "RMAX": 17.0, "FSPD": 5.69555, "FDIR": 291.17975, "RENV": 250.0, "PENV": 1002.0, "VALIDT": 0, "DTG": "2025-09-23 00:00", "LATNOW": 21.8, "LONNOW": 111.1, "WINDNOW": 80.0, "DIRNOW": 6.0, "SPDNOW": 3.0, "TECH": "TRAK", "ADVNR": 25, "ATCFID": "WP242025", "NAME": "RAGASA", "FTECH": "JTWC", "FCST_DTG": "2025-09-24 12:00:00", "RUN_DTG": "2025-09-25 07:41:15", "BASIN": "WP", "STMNR": 24, "CAT_ID": null, "CAT_DESC": null, "MSGID": "WTPN52 PGTW 241500", "VALIDTIME": "2025-09-23 00:00:00" }, "geometry": { "type": "Point", "coordinates": [ 118.199997, 20.0 ] } },
{ "type": "Feature", "properties": { "ID": 42665, "LAT": 20.4, "LON": 117.1, "VMAX": 120.0, "MSLP": 930.0, "RMAX": 17.0, "FSPD": 5.68271, "FDIR": 291.22992, "RENV": 220.0, "PENV": 1000.0, "VALIDT": 0, "DTG": "2025-09-23 06:00", "LATNOW": 21.8, "LONNOW": 111.1, "WINDNOW": 80.0, "DIRNOW": 6.0, "SPDNOW": 3.0, "TECH": "TRAK", "ADVNR": 25, "ATCFID": "WP242025", "NAME": "RAGASA", "FTECH": "JTWC", "FCST_DTG": "2025-09-24 12:00:00", "RUN_DTG": "2025-09-25 07:41:15", "BASIN": "WP", "STMNR": 24, "CAT_ID": null, "CAT_DESC": null, "MSGID": "WTPN52 PGTW 241500", "VALIDTIME": "2025-09-23 06:00:00" }, "geometry": { "type": "Point", "coordinates": [ 117.099998, 20.4 ] } },
{ "type": "Feature", "properties": { "ID": 42666, "LAT": 20.8, "LON": 116.0, "VMAX": 115.0, "MSLP": 931.0, "RMAX": 17.0, "FSPD": 5.96822, "FDIR": 284.98657, "RENV": 290.0, "PENV": 1002.0, "VALIDT": 0, "DTG": "2025-09-23 12:00", "LATNOW": 21.8, "LONNOW": 111.1, "WINDNOW": 80.0, "DIRNOW": 6.0, "SPDNOW": 3.0, "TECH": "TRAK", "ADVNR": 25, "ATCFID": "WP242025", "NAME": "RAGASA", "FTECH": "JTWC", "FCST_DTG": "2025-09-24 12:00:00", "RUN_DTG": "2025-09-25 07:41:15", "BASIN": "WP", "STMNR": 24, "CAT_ID": null, "CAT_DESC": null, "MSGID": "WTPN52 PGTW 241500", "VALIDTIME": "2025-09-23 12:00:00" }, "geometry": { "type": "Point", "coordinates": [ 116.0, 20.799999 ] } },
{ "type": "Feature", "properties": { "ID": 42667, "LAT": 21.1, "LON": 114.8, "VMAX": 115.0, "MSLP": 937.0, "RMAX": 17.0, "FSPD": 4.82541, "FDIR": 276.12003, "RENV": 295.0, "PENV": 1002.0, "VALIDT": 0, "DTG": "2025-09-23 18:00", "LATNOW": 21.8, "LONNOW": 111.1, "WINDNOW": 80.0, "DIRNOW": 6.0, "SPDNOW": 3.0, "TECH": "TRAK", "ADVNR": 25, "ATCFID": "WP242025", "NAME": "RAGASA", "FTECH": "JTWC", "FCST_DTG": "2025-09-24 12:00:00", "RUN_DTG": "2025-09-25 07:41:15", "BASIN": "WP", "STMNR": 24, "CAT_ID": null, "CAT_DESC": null, "MSGID": "WTPN52 PGTW 241500", "VALIDTIME": "2025-09-23 18:00:00" }, "geometry": { "type": "Point", "coordinates": [ 114.800003, 21.1 ] } },
{ "type": "Feature", "properties": { "ID": 42668, "LAT": 21.2, "LON": 113.8, "VMAX": 110.0, "MSLP": 939.0, "RMAX": 15.0, "FSPD": 6.10499, "FDIR": 289.6981, "RENV": 300.0, "PENV": 1002.0, "VALIDT": 0, "DTG": "2025-09-24 00:00", "LATNOW": 21.8, "LONNOW": 111.1, "WINDNOW": 80.0, "DIRNOW": 6.0, "SPDNOW": 3.0, "TECH": "TRAK", "ADVNR": 25, "ATCFID": "WP242025", "NAME": "RAGASA", "FTECH": "JTWC", "FCST_DTG": "2025-09-24 12:00:00", "RUN_DTG": "2025-09-25 07:41:15", "BASIN": "WP", "STMNR": 24, "CAT_ID": null, "CAT_DESC": null, "MSGID": "WTPN52 PGTW 241500", "VALIDTIME": "2025-09-24 00:00:00" }, "geometry": { "type": "Point", "coordinates": [ 113.800003, 21.200001 ] } },
{ "type": "Feature", "properties": { "ID": 42669, "LAT": 21.6, "LON": 112.6, "VMAX": 105.0, "MSLP": 944.0, "RMAX": 5.0, "FSPD": 7.24523, "FDIR": 278.164, "RENV": 280.0, "PENV": 1002.0, "VALIDT": 0, "DTG": "2025-09-24 06:00", "LATNOW": 21.8, "LONNOW": 111.1, "WINDNOW": 80.0, "DIRNOW": 6.0, "SPDNOW": 3.0, "TECH": "TRAK", "ADVNR": 25, "ATCFID": "WP242025", "NAME": "RAGASA", "FTECH": "JTWC", "FCST_DTG": "2025-09-24 12:00:00", "RUN_DTG": "2025-09-25 07:41:15", "BASIN": "WP", "STMNR": 24, "CAT_ID": null, "CAT_DESC": null, "MSGID": "WTPN52 PGTW 241500", "VALIDTIME": "2025-09-24 06:00:00" }, "geometry": { "type": "Point", "coordinates": [ 112.599998, 21.6 ] } },
{ "type": "Feature", "properties": { "ID": 42670, "LAT": 21.72, "LON": 111.7, "VMAX": 105.0, "MSLP": 944.0, "RMAX": 5.0, "FSPD": 7.24028, "FDIR": 278.1697, "RENV": 280.0, "PENV": 1002.0, "VALIDT": 0, "DTG": "2025-09-24 09:00", "LATNOW": 21.8, "LONNOW": 111.1, "WINDNOW": 80.0, "DIRNOW": 6.0, "SPDNOW": 3.0, "TECH": "TRAK", "ADVNR": 25, "ATCFID": "WP242025", "NAME": "RAGASA", "FTECH": "JTWC", "FCST_DTG": "2025-09-24 12:00:00", "RUN_DTG": "2025-09-25 07:41:15", "BASIN": "WP", "STMNR": 24, "CAT_ID": null, "CAT_DESC": null, "MSGID": "WTPN52 PGTW 241500", "VALIDTIME": "2025-09-24 09:00:00" }, "geometry": { "type": "Point", "coordinates": [ 111.699997, 21.719999 ] } },
{ "type": "Feature", "properties": { "ID": 42671, "LAT": 21.8, "LON": 111.1, "VMAX": 80.0, "MSLP": 948.0, "RMAX": 30.0, "FSPD": 6.22645, "FDIR": 274.73932, "RENV": 280.0, "PENV": 1002.0, "VALIDT": 0, "DTG": "2025-09-24 12:00", "LATNOW": 21.8, "LONNOW": 111.1, "WINDNOW": 80.0, "DIRNOW": 6.0, "SPDNOW": 3.0, "TECH": "TRAK", "ADVNR": 25, "ATCFID": "WP242025", "NAME": "RAGASA", "FTECH": "JTWC", "FCST_DTG": "2025-09-24 12:00:00", "RUN_DTG": "2025-09-25 07:41:15", "BASIN": "WP", "STMNR": 24, "CAT_ID": null, "CAT_DESC": null, "MSGID": "WTPN52 PGTW 241500", "VALIDTIME": "2025-09-24 12:00:00" }, "geometry": { "type": "Point", "coordinates": [ 111.099998, 21.799999 ] } },
{ "type": "Feature", "properties": { "ID": 42672, "LAT": 22.0, "LON": 108.5, "VMAX": 50.0, "MSLP": 1002.2391, "RMAX": 51.68441, "FSPD": 5.49329, "FDIR": 267.3161, "RENV": 180.0, "PENV": 1012.0, "VALIDT": 12, "DTG": "2025-09-25 00:00", "LATNOW": 21.8, "LONNOW": 111.1, "WINDNOW": 80.0, "DIRNOW": 6.0, "SPDNOW": 3.0, "TECH": "FCST", "ADVNR": 25, "ATCFID": "WP242025", "NAME": "RAGASA", "FTECH": "JTWC", "FCST_DTG": "2025-09-24 12:00:00", "RUN_DTG": "2025-09-25 07:41:15", "BASIN": "WP", "STMNR": 24, "CAT_ID": null, "CAT_DESC": null, "MSGID": "WTPN52 PGTW 241500", "VALIDTIME": "2025-09-25 00:00:00" }, "geometry": { "type": "Point", "coordinates": [ 108.5, 22.0 ] } },
{ "type": "Feature", "properties": { "ID": 42673, "LAT": 21.9, "LON": 106.2, "VMAX": 30.0, "MSLP": 1010.40607, "RMAX": 59.25654, "FSPD": 5.02021, "FDIR": 267.063, "RENV": 250.0, "PENV": 1012.0, "VALIDT": 24, "DTG": "2025-09-25 12:00", "LATNOW": 21.8, "LONNOW": 111.1, "WINDNOW": 80.0, "DIRNOW": 6.0, "SPDNOW": 3.0, "TECH": "FCST", "ADVNR": 25, "ATCFID": "WP242025", "NAME": "RAGASA", "FTECH": "JTWC", "FCST_DTG": "2025-09-24 12:00:00", "RUN_DTG": "2025-09-25 07:41:15", "BASIN": "WP", "STMNR": 24, "CAT_ID": null, "CAT_DESC": null, "MSGID": "WTPN52 PGTW 241500", "VALIDTIME": "2025-09-25 12:00:00" }, "geometry": { "type": "Point", "coordinates": [ 106.199997, 21.9 ] } },
{ "type": "Feature", "properties": { "ID": 42674, "LAT": 21.8, "LON": 104.1, "VMAX": 20.0, "MSLP": 1012.95825, "RMAX": 60.302, "FSPD": 5.02021, "FDIR": 267.063, "RENV": 250.0, "PENV": 1012.0, "VALIDT": 36, "DTG": "2025-09-26 00:00", "LATNOW": 21.8, "LONNOW": 111.1, "WINDNOW": 80.0, "DIRNOW": 6.0, "SPDNOW": 3.0, "TECH": "FCST", "ADVNR": 25, "ATCFID": "WP242025", "NAME": "RAGASA", "FTECH": "JTWC", "FCST_DTG": "2025-09-24 12:00:00", "RUN_DTG": "2025-09-25 07:41:15", "BASIN": "WP", "STMNR": 24, "CAT_ID": null, "CAT_DESC": null, "MSGID": "WTPN52 PGTW 241500", "VALIDTIME": "2025-09-26 00:00:00" }, "geometry": { "type": "Point", "coordinates": [ 104.099998, 21.799999 ] } },
{ "type": "Feature", "properties": { "ID": 42671, "LAT": 21.8, "LON": 111.1, "VMAX": 80.0, "MSLP": 948.0, "RMAX": 30.0, "FSPD": 6.22645, "FDIR": 274.73932, "RENV": 280.0, "PENV": 1002.0, "VALIDT": 0, "DTG": "2025-09-24 12:00", "LATNOW": 21.8, "LONNOW": 111.1, "WINDNOW": 80.0, "DIRNOW": 6.0, "SPDNOW": 3.0, "TECH": "TRAK", "ADVNR": 25, "ATCFID": "WP242025", "NAME": "RAGASA", "FTECH": "JTWC", "FCST_DTG": "2025-09-24 12:00:00", "RUN_DTG": "2025-09-25 07:41:15", "BASIN": "WP", "STMNR": 24, "CAT_ID": null, "CAT_DESC": null, "MSGID": "WTPN52 PGTW 241500", "VALIDTIME": "2025-09-24 12:00:00" }, "geometry": { "type": "LineString", "coordinates": [ [ 138.3, 13.0 ], [ 137.5, 13.2 ], [ 137.1, 13.4 ], [ 136.6, 13.6 ], [ 135.8, 14.4 ], [ 135.1, 15.1 ], [ 134.6, 14.9 ], [ 134.1, 15.3 ], [ 133.4, 15.7 ], [ 133.0, 15.9 ], [ 132.3, 16.2 ], [ 131.3, 16.0 ], [ 130.7, 16.1 ], [ 130.1, 16.3 ], [ 130.0, 16.2 ], [ 129.6, 16.3 ], [ 129.1, 16.7 ], [ 128.7, 17.2 ], [ 127.9, 17.8 ], [ 127.0, 17.9 ], [ 126.3, 18.3 ], [ 125.4, 18.9 ], [ 124.1, 19.1 ], [ 122.9, 19.3 ], [ 121.7, 19.3 ], [ 120.5, 19.4 ], [ 119.3, 19.6 ], [ 118.2, 20.0 ], [ 117.1, 20.4 ], [ 116.0, 20.8 ], [ 114.8, 21.1 ], [ 113.8, 21.2 ], [ 112.6, 21.6 ], [ 111.7, 21.72 ], [ 111.1, 21.8 ] ] } },
{ "type": "Feature", "properties": { "ID": 42674, "LAT": 21.8, "LON": 104.1, "VMAX": 20.0, "MSLP": 1012.95825, "RMAX": 60.302, "FSPD": 5.02021, "FDIR": 267.063, "RENV": 250.0, "PENV": 1012.0, "VALIDT": 36, "DTG": "2025-09-26 00:00", "LATNOW": 21.8, "LONNOW": 111.1, "WINDNOW": 80.0, "DIRNOW": 6.0, "SPDNOW": 3.0, "TECH": "FCST", "ADVNR": 25, "ATCFID": "WP242025", "NAME": "RAGASA", "FTECH": "JTWC", "FCST_DTG": "2025-09-24 12:00:00", "RUN_DTG": "2025-09-25 07:41:15", "BASIN": "WP", "STMNR": 24, "CAT_ID": null, "CAT_DESC": null, "MSGID": "WTPN52 PGTW 241500", "VALIDTIME": "2025-09-26 00:00:00" }, "geometry": { "type": "LineString", "coordinates": [ [ 111.1, 21.8 ], [ 108.5, 22.0 ], [ 106.2, 21.9 ], [ 104.1, 21.8 ] ] } }
]
}
