{
"type": "FeatureCollection",
"crs": { "type": "name", "properties": { "name": "urn:ogc:def:crs:OGC:1.3:CRS84" } },
"features": [
{ "type": "Feature", "properties": { "ID": 27818, "LAT": 17.1, "LON": -55.5, "VMAX": 25.0, "MSLP": 1011.0, "RMAX": 60.0, "FSPD": 5.32535, "FDIR": 292.73138, "RENV": 180.0, "PENV": 1014.0, "VALIDT": 0, "DTG": "2025-08-21 12:00", "LATNOW": 40.6, "LONNOW": -44.2, "WINDNOW": 40.0, "DIRNOW": 12.0, "SPDNOW": 1.0, "TECH": "TRAK", "ADVNR": 19, "ATCFID": "AL062025", "NAME": "FERNAND", "FTECH": "OFCL", "FCST_DTG": "2025-08-28 06:00:00", "RUN_DTG": "2025-08-28 20:46:09", "BASIN": "AL", "STMNR": 6, "CAT_ID": null, "CAT_DESC": null, "MSGID": "WTNT21 KNHC 280834", "VALIDTIME": "2025-08-21 12:00:00" }, "geometry": { "type": "Point", "coordinates": [ -55.5, 17.1 ] } },
{ "type": "Feature", "properties": { "ID": 27819, "LAT": 17.5, "LON": -56.5, "VMAX": 25.0, "MSLP": 1010.0, "RMAX": 90.0, "FSPD": 5.01042, "FDIR": 281.85, "RENV": 180.0, "PENV": 1013.0, "VALIDT": 0, "DTG": "2025-08-21 18:00", "LATNOW": 40.6, "LONNOW": -44.2, "WINDNOW": 40.0, "DIRNOW": 12.0, "SPDNOW": 1.0, "TECH": "TRAK", "ADVNR": 19, "ATCFID": "AL062025", "NAME": "FERNAND", "FTECH": "OFCL", "FCST_DTG": "2025-08-28 06:00:00", "RUN_DTG": "2025-08-28 20:46:09", "BASIN": "AL", "STMNR": 6, "CAT_ID": null, "CAT_DESC": null, "MSGID": "WTNT21 KNHC 280834", "VALIDTIME": "2025-08-21 18:00:00" }, "geometry": { "type": "Point", "coordinates": [ -56.5, 17.5 ] } },
{ "type": "Feature", "properties": { "ID": 27820, "LAT": 17.7, "LON": -57.5, "VMAX": 25.0, "MSLP": 1010.0, "RMAX": 90.0, "FSPD": 7.47321, "FDIR": 308.28296, "RENV": 180.0, "PENV": 1013.0, "VALIDT": 0, "DTG": "2025-08-22 00:00", "LATNOW": 40.6, "LONNOW": -44.2, "WINDNOW": 40.0, "DIRNOW": 12.0, "SPDNOW": 1.0, "TECH": "TRAK", "ADVNR": 19, "ATCFID": "AL062025", "NAME": "FERNAND", "FTECH": "OFCL", "FCST_DTG": "2025-08-28 06:00:00", "RUN_DTG": "2025-08-28 20:46:09", "BASIN": "AL", "STMNR": 6, "CAT_ID": null, "CAT_DESC": null, "MSGID": "WTNT21 KNHC 280834", "VALIDTIME": "2025-08-22 00:00:00" }, "geometry": { "type": "Point", "coordinates": [ -57.5, 17.700001 ] } },
{ "type": "Feature", "properties": { "ID": 27821, "LAT": 18.6, "LON": -58.7, "VMAX": 25.0, "MSLP": 1011.0, "RMAX": 90.0, "FSPD": 8.42419, "FDIR": 328.75363, "RENV": 150.0, "PENV": 1013.0, "VALIDT": 0, "DTG": "2025-08-22 06:00", "LATNOW": 40.6, "LONNOW": -44.2, "WINDNOW": 40.0, "DIRNOW": 12.0, "SPDNOW": 1.0, "TECH": "TRAK", "ADVNR": 19, "ATCFID": "AL062025", "NAME": "FERNAND", "FTECH": "OFCL", "FCST_DTG": "2025-08-28 06:00:00", "RUN_DTG": "2025-08-28 20:46:09", "BASIN": "AL", "STMNR": 6, "CAT_ID": null, "CAT_DESC": null, "MSGID": "WTNT21 KNHC 280834", "VALIDTIME": "2025-08-22 06:00:00" }, "geometry": { "type": "Point", "coordinates": [ -58.700001, 18.6 ] } },
{ "type": "Feature", "properties": { "ID": 27822, "LAT": 20.0, "LON": -59.6, "VMAX": 25.0, "MSLP": 1011.0, "RMAX": 90.0, "FSPD": 8.16661, "FDIR": 331.87363, "RENV": 150.0, "PENV": 1013.0, "VALIDT": 0, "DTG": "2025-08-22 12:00", "LATNOW": 40.6, "LONNOW": -44.2, "WINDNOW": 40.0, "DIRNOW": 12.0, "SPDNOW": 1.0, "TECH": "TRAK", "ADVNR": 19, "ATCFID": "AL062025", "NAME": "FERNAND", "FTECH": "OFCL", "FCST_DTG": "2025-08-28 06:00:00", "RUN_DTG": "2025-08-28 20:46:09", "BASIN": "AL", "STMNR": 6, "CAT_ID": null, "CAT_DESC": null, "MSGID": "WTNT21 KNHC 280834", "VALIDTIME": "2025-08-22 12:00:00" }, "geometry": { "type": "Point", "coordinates": [ -59.599998, 20.0 ] } },
{ "type": "Feature", "properties": { "ID": 27823, "LAT": 21.4, "LON": -60.4, "VMAX": 25.0, "MSLP": 1011.0, "RMAX": 90.0, "FSPD": 7.94619, "FDIR": 327.313, "RENV": 150.0, "PENV": 1013.0, "VALIDT": 0, "DTG": "2025-08-22 18:00", "LATNOW": 40.6, "LONNOW": -44.2, "WINDNOW": 40.0, "DIRNOW": 12.0, "SPDNOW": 1.0, "TECH": "TRAK", "ADVNR": 19, "ATCFID": "AL062025", "NAME": "FERNAND", "FTECH": "OFCL", "FCST_DTG": "2025-08-28 06:00:00", "RUN_DTG": "2025-08-28 20:46:09", "BASIN": "AL", "STMNR": 6, "CAT_ID": null, "CAT_DESC": null, "MSGID": "WTNT21 KNHC 280834", "VALIDTIME": "2025-08-22 18:00:00" }, "geometry": { "type": "Point", "coordinates": [ -60.400002, 21.4 ] } },
{ "type": "Feature", "properties": { "ID": 27824, "LAT": 22.7, "LON": -61.3, "VMAX": 25.0, "MSLP": 1011.0, "RMAX": 90.0, "FSPD": 5.28296, "FDIR": 321.1713, "RENV": 150.0, "PENV": 1013.0, "VALIDT": 0, "DTG": "2025-08-23 00:00", "LATNOW": 40.6, "LONNOW": -44.2, "WINDNOW": 40.0, "DIRNOW": 12.0, "SPDNOW": 1.0, "TECH": "TRAK", "ADVNR": 19, "ATCFID": "AL062025", "NAME": "FERNAND", "FTECH": "OFCL", "FCST_DTG": "2025-08-28 06:00:00", "RUN_DTG": "2025-08-28 20:46:09", "BASIN": "AL", "STMNR": 6, "CAT_ID": null, "CAT_DESC": null, "MSGID": "WTNT21 KNHC 280834", "VALIDTIME": "2025-08-23 00:00:00" }, "geometry": { "type": "Point", "coordinates": [ -61.299999, 22.700001 ] } },
{ "type": "Feature", "properties": { "ID": 27825, "LAT": 23.5, "LON": -62.0, "VMAX": 25.0, "MSLP": 1011.0, "RMAX": 60.0, "FSPD": 8.79565, "FDIR": 353.88226, "RENV": 130.0, "PENV": 1014.0, "VALIDT": 0, "DTG": "2025-08-23 06:00", "LATNOW": 40.6, "LONNOW": -44.2, "WINDNOW": 40.0, "DIRNOW": 12.0, "SPDNOW": 1.0, "TECH": "TRAK", "ADVNR": 19, "ATCFID": "AL062025", "NAME": "FERNAND", "FTECH": "OFCL", "FCST_DTG": "2025-08-28 06:00:00", "RUN_DTG": "2025-08-28 20:46:09", "BASIN": "AL", "STMNR": 6, "CAT_ID": null, "CAT_DESC": null, "MSGID": "WTNT21 KNHC 280834", "VALIDTIME": "2025-08-23 06:00:00" }, "geometry": { "type": "Point", "coordinates": [ -62.0, 23.5 ] } },
{ "type": "Feature", "properties": { "ID": 27826, "LAT": 25.2, "LON": -62.2, "VMAX": 30.0, "MSLP": 1012.0, "RMAX": 90.0, "FSPD": 7.56478, "FDIR": 17.81067, "RENV": 110.0, "PENV": 1015.0, "VALIDT": 0, "DTG": "2025-08-23 12:00", "LATNOW": 40.6, "LONNOW": -44.2, "WINDNOW": 40.0, "DIRNOW": 12.0, "SPDNOW": 1.0, "TECH": "TRAK", "ADVNR": 19, "ATCFID": "AL062025", "NAME": "FERNAND", "FTECH": "OFCL", "FCST_DTG": "2025-08-28 06:00:00", "RUN_DTG": "2025-08-28 20:46:09", "BASIN": "AL", "STMNR": 6, "CAT_ID": null, "CAT_DESC": null, "MSGID": "WTNT21 KNHC 280834", "VALIDTIME": "2025-08-23 12:00:00" }, "geometry": { "type": "Point", "coordinates": [ -62.200001, 25.200001 ] } },
{ "type": "Feature", "properties": { "ID": 27827, "LAT": 26.6, "LON": -61.7, "VMAX": 35.0, "MSLP": 1010.0, "RMAX": 90.0, "FSPD": 8.43142, "FDIR": 12.51419, "RENV": 110.0, "PENV": 1015.0, "VALIDT": 0, "DTG": "2025-08-23 18:00", "LATNOW": 40.6, "LONNOW": -44.2, "WINDNOW": 40.0, "DIRNOW": 12.0, "SPDNOW": 1.0, "TECH": "TRAK", "ADVNR": 19, "ATCFID": "AL062025", "NAME": "FERNAND", "FTECH": "OFCL", "FCST_DTG": "2025-08-28 06:00:00", "RUN_DTG": "2025-08-28 20:46:09", "BASIN": "AL", "STMNR": 6, "CAT_ID": null, "CAT_DESC": null, "MSGID": "WTNT21 KNHC 280834", "VALIDTIME": "2025-08-23 18:00:00" }, "geometry": { "type": "Point", "coordinates": [ -61.700001, 26.6 ] } },
{ "type": "Feature", "properties": { "ID": 27828, "LAT": 28.2, "LON": -61.3, "VMAX": 35.0, "MSLP": 1010.0, "RMAX": 90.0, "FSPD": 4.82402, "FDIR": 16.3053, "RENV": 110.0, "PENV": 1015.0, "VALIDT": 0, "DTG": "2025-08-24 00:00", "LATNOW": 40.6, "LONNOW": -44.2, "WINDNOW": 40.0, "DIRNOW": 12.0, "SPDNOW": 1.0, "TECH": "TRAK", "ADVNR": 19, "ATCFID": "AL062025", "NAME": "FERNAND", "FTECH": "OFCL", "FCST_DTG": "2025-08-28 06:00:00", "RUN_DTG": "2025-08-28 20:46:09", "BASIN": "AL", "STMNR": 6, "CAT_ID": null, "CAT_DESC": null, "MSGID": "WTNT21 KNHC 280834", "VALIDTIME": "2025-08-24 00:00:00" }, "geometry": { "type": "Point", "coordinates": [ -61.299999, 28.200001 ] } },
{ "type": "Feature", "properties": { "ID": 27829, "LAT": 29.1, "LON": -61.0, "VMAX": 35.0, "MSLP": 1010.0, "RMAX": 90.0, "FSPD": 7.58245, "FDIR": 28.1145, "RENV": 110.0, "PENV": 1015.0, "VALIDT": 0, "DTG": "2025-08-24 06:00", "LATNOW": 40.6, "LONNOW": -44.2, "WINDNOW": 40.0, "DIRNOW": 12.0, "SPDNOW": 1.0, "TECH": "TRAK", "ADVNR": 19, "ATCFID": "AL062025", "NAME": "FERNAND", "FTECH": "OFCL", "FCST_DTG": "2025-08-28 06:00:00", "RUN_DTG": "2025-08-28 20:46:09", "BASIN": "AL", "STMNR": 6, "CAT_ID": null, "CAT_DESC": null, "MSGID": "WTNT21 KNHC 280834", "VALIDTIME": "2025-08-24 06:00:00" }, "geometry": { "type": "Point", "coordinates": [ -61.0, 29.1 ] } },
{ "type": "Feature", "properties": { "ID": 27830, "LAT": 30.4, "LON": -60.2, "VMAX": 35.0, "MSLP": 1010.0, "RMAX": 80.0, "FSPD": 4.71351, "FDIR": 10.80115, "RENV": 110.0, "PENV": 1016.0, "VALIDT": 0, "DTG": "2025-08-24 12:00", "LATNOW": 40.6, "LONNOW": -44.2, "WINDNOW": 40.0, "DIRNOW": 12.0, "SPDNOW": 1.0, "TECH": "TRAK", "ADVNR": 19, "ATCFID": "AL062025", "NAME": "FERNAND", "FTECH": "OFCL", "FCST_DTG": "2025-08-28 06:00:00", "RUN_DTG": "2025-08-28 20:46:09", "BASIN": "AL", "STMNR": 6, "CAT_ID": null, "CAT_DESC": null, "MSGID": "WTNT21 KNHC 280834", "VALIDTIME": "2025-08-24 12:00:00" }, "geometry": { "type": "Point", "coordinates": [ -60.200001, 30.4 ] } },
{ "type": "Feature", "properties": { "ID": 27831, "LAT": 31.3, "LON": -60.0, "VMAX": 40.0, "MSLP": 1009.0, "RMAX": 40.0, "FSPD": 4.47247, "FDIR": 23.04526, "RENV": 110.0, "PENV": 1017.0, "VALIDT": 0, "DTG": "2025-08-24 18:00", "LATNOW": 40.6, "LONNOW": -44.2, "WINDNOW": 40.0, "DIRNOW": 12.0, "SPDNOW": 1.0, "TECH": "TRAK", "ADVNR": 19, "ATCFID": "AL062025", "NAME": "FERNAND", "FTECH": "OFCL", "FCST_DTG": "2025-08-28 06:00:00", "RUN_DTG": "2025-08-28 20:46:09", "BASIN": "AL", "STMNR": 6, "CAT_ID": null, "CAT_DESC": null, "MSGID": "WTNT21 KNHC 280834", "VALIDTIME": "2025-08-24 18:00:00" }, "geometry": { "type": "Point", "coordinates": [ -60.0, 31.299999 ] } },
{ "type": "Feature", "properties": { "ID": 27832, "LAT": 32.1, "LON": -59.6, "VMAX": 45.0, "MSLP": 1007.0, "RMAX": 40.0, "FSPD": 6.05918, "FDIR": 20.94275, "RENV": 110.0, "PENV": 1017.0, "VALIDT": 0, "DTG": "2025-08-25 00:00", "LATNOW": 40.6, "LONNOW": -44.2, "WINDNOW": 40.0, "DIRNOW": 12.0, "SPDNOW": 1.0, "TECH": "TRAK", "ADVNR": 19, "ATCFID": "AL062025", "NAME": "FERNAND", "FTECH": "OFCL", "FCST_DTG": "2025-08-28 06:00:00", "RUN_DTG": "2025-08-28 20:46:09", "BASIN": "AL", "STMNR": 6, "CAT_ID": null, "CAT_DESC": null, "MSGID": "WTNT21 KNHC 280834", "VALIDTIME": "2025-08-25 00:00:00" }, "geometry": { "type": "Point", "coordinates": [ -59.599998, 32.099998 ] } },
{ "type": "Feature", "properties": { "ID": 27833, "LAT": 33.2, "LON": -59.1, "VMAX": 45.0, "MSLP": 1007.0, "RMAX": 40.0, "FSPD": 4.61578, "FDIR": 48.03171, "RENV": 120.0, "PENV": 1017.0, "VALIDT": 0, "DTG": "2025-08-25 06:00", "LATNOW": 40.6, "LONNOW": -44.2, "WINDNOW": 40.0, "DIRNOW": 12.0, "SPDNOW": 1.0, "TECH": "TRAK", "ADVNR": 19, "ATCFID": "AL062025", "NAME": "FERNAND", "FTECH": "OFCL", "FCST_DTG": "2025-08-28 06:00:00", "RUN_DTG": "2025-08-28 20:46:09", "BASIN": "AL", "STMNR": 6, "CAT_ID": null, "CAT_DESC": null, "MSGID": "WTNT21 KNHC 280834", "VALIDTIME": "2025-08-25 06:00:00" }, "geometry": { "type": "Point", "coordinates": [ -59.099998, 33.200001 ] } },
{ "type": "Feature", "properties": { "ID": 27834, "LAT": 33.8, "LON": -58.3, "VMAX": 50.0, "MSLP": 1000.0, "RMAX": 30.0, "FSPD": 5.94266, "FDIR": 30.03949, "RENV": 120.0, "PENV": 1017.0, "VALIDT": 0, "DTG": "2025-08-25 12:00", "LATNOW": 40.6, "LONNOW": -44.2, "WINDNOW": 40.0, "DIRNOW": 12.0, "SPDNOW": 1.0, "TECH": "TRAK", "ADVNR": 19, "ATCFID": "AL062025", "NAME": "FERNAND", "FTECH": "OFCL", "FCST_DTG": "2025-08-28 06:00:00", "RUN_DTG": "2025-08-28 20:46:09", "BASIN": "AL", "STMNR": 6, "CAT_ID": null, "CAT_DESC": null, "MSGID": "WTNT21 KNHC 280834", "VALIDTIME": "2025-08-25 12:00:00" }, "geometry": { "type": "Point", "coordinates": [ -58.299999, 33.799999 ] } },
{ "type": "Feature", "properties": { "ID": 27835, "LAT": 34.8, "LON": -57.6, "VMAX": 50.0, "MSLP": 1000.0, "RMAX": 30.0, "FSPD": 5.31484, "FDIR": 39.25378, "RENV": 130.0, "PENV": 1017.0, "VALIDT": 0, "DTG": "2025-08-25 18:00", "LATNOW": 40.6, "LONNOW": -44.2, "WINDNOW": 40.0, "DIRNOW": 12.0, "SPDNOW": 1.0, "TECH": "TRAK", "ADVNR": 19, "ATCFID": "AL062025", "NAME": "FERNAND", "FTECH": "OFCL", "FCST_DTG": "2025-08-28 06:00:00", "RUN_DTG": "2025-08-28 20:46:09", "BASIN": "AL", "STMNR": 6, "CAT_ID": null, "CAT_DESC": null, "MSGID": "WTNT21 KNHC 280834", "VALIDTIME": "2025-08-25 18:00:00" }, "geometry": { "type": "Point", "coordinates": [ -57.599998, 34.799999 ] } },
{ "type": "Feature", "properties": { "ID": 27836, "LAT": 35.6, "LON": -56.8, "VMAX": 45.0, "MSLP": 1002.0, "RMAX": 40.0, "FSPD": 6.5092, "FDIR": 44.65903, "RENV": 130.0, "PENV": 1017.0, "VALIDT": 0, "DTG": "2025-08-26 00:00", "LATNOW": 40.6, "LONNOW": -44.2, "WINDNOW": 40.0, "DIRNOW": 12.0, "SPDNOW": 1.0, "TECH": "TRAK", "ADVNR": 19, "ATCFID": "AL062025", "NAME": "FERNAND", "FTECH": "OFCL", "FCST_DTG": "2025-08-28 06:00:00", "RUN_DTG": "2025-08-28 20:46:09", "BASIN": "AL", "STMNR": 6, "CAT_ID": null, "CAT_DESC": null, "MSGID": "WTNT21 KNHC 280834", "VALIDTIME": "2025-08-26 00:00:00" }, "geometry": { "type": "Point", "coordinates": [ -56.799999, 35.599998 ] } },
{ "type": "Feature", "properties": { "ID": 27837, "LAT": 36.5, "LON": -55.7, "VMAX": 40.0, "MSLP": 1005.0, "RMAX": 50.0, "FSPD": 4.79902, "FDIR": 30.95392, "RENV": 130.0, "PENV": 1017.0, "VALIDT": 0, "DTG": "2025-08-26 06:00", "LATNOW": 40.6, "LONNOW": -44.2, "WINDNOW": 40.0, "DIRNOW": 12.0, "SPDNOW": 1.0, "TECH": "TRAK", "ADVNR": 19, "ATCFID": "AL062025", "NAME": "FERNAND", "FTECH": "OFCL", "FCST_DTG": "2025-08-28 06:00:00", "RUN_DTG": "2025-08-28 20:46:09", "BASIN": "AL", "STMNR": 6, "CAT_ID": null, "CAT_DESC": null, "MSGID": "WTNT21 KNHC 280834", "VALIDTIME": "2025-08-26 06:00:00" }, "geometry": { "type": "Point", "coordinates": [ -55.700001, 36.5 ] } },
{ "type": "Feature", "properties": { "ID": 27838, "LAT": 37.3, "LON": -55.1, "VMAX": 35.0, "MSLP": 1007.0, "RMAX": 50.0, "FSPD": 5.17154, "FDIR": 60.17319, "RENV": 70.0, "PENV": 1017.0, "VALIDT": 0, "DTG": "2025-08-26 12:00", "LATNOW": 40.6, "LONNOW": -44.2, "WINDNOW": 40.0, "DIRNOW": 12.0, "SPDNOW": 1.0, "TECH": "TRAK", "ADVNR": 19, "ATCFID": "AL062025", "NAME": "FERNAND", "FTECH": "OFCL", "FCST_DTG": "2025-08-28 06:00:00", "RUN_DTG": "2025-08-28 20:46:09", "BASIN": "AL", "STMNR": 6, "CAT_ID": null, "CAT_DESC": null, "MSGID": "WTNT21 KNHC 280834", "VALIDTIME": "2025-08-26 12:00:00" }, "geometry": { "type": "Point", "coordinates": [ -55.099998, 37.299999 ] } },
{ "type": "Feature", "properties": { "ID": 27839, "LAT": 37.8, "LON": -54.0, "VMAX": 35.0, "MSLP": 1007.0, "RMAX": 40.0, "FSPD": 5.65754, "FDIR": 68.6709, "RENV": 60.0, "PENV": 1016.0, "VALIDT": 0, "DTG": "2025-08-26 18:00", "LATNOW": 40.6, "LONNOW": -44.2, "WINDNOW": 40.0, "DIRNOW": 12.0, "SPDNOW": 1.0, "TECH": "TRAK", "ADVNR": 19, "ATCFID": "AL062025", "NAME": "FERNAND", "FTECH": "OFCL", "FCST_DTG": "2025-08-28 06:00:00", "RUN_DTG": "2025-08-28 20:46:09", "BASIN": "AL", "STMNR": 6, "CAT_ID": null, "CAT_DESC": null, "MSGID": "WTNT21 KNHC 280834", "VALIDTIME": "2025-08-26 18:00:00" }, "geometry": { "type": "Point", "coordinates": [ -54.0, 37.799999 ] } },
{ "type": "Feature", "properties": { "ID": 27840, "LAT": 38.2, "LON": -52.7, "VMAX": 40.0, "MSLP": 1007.0, "RMAX": 40.0, "FSPD": 5.27716, "FDIR": 84.4057, "RENV": 60.0, "PENV": 1016.0, "VALIDT": 0, "DTG": "2025-08-27 00:00", "LATNOW": 40.6, "LONNOW": -44.2, "WINDNOW": 40.0, "DIRNOW": 12.0, "SPDNOW": 1.0, "TECH": "TRAK", "ADVNR": 19, "ATCFID": "AL062025", "NAME": "FERNAND", "FTECH": "OFCL", "FCST_DTG": "2025-08-28 06:00:00", "RUN_DTG": "2025-08-28 20:46:09", "BASIN": "AL", "STMNR": 6, "CAT_ID": null, "CAT_DESC": null, "MSGID": "WTNT21 KNHC 280834", "VALIDTIME": "2025-08-27 00:00:00" }, "geometry": { "type": "Point", "coordinates": [ -52.700001, 38.200001 ] } },
{ "type": "Feature", "properties": { "ID": 27841, "LAT": 38.3, "LON": -51.4, "VMAX": 40.0, "MSLP": 1007.0, "RMAX": 40.0, "FSPD": 4.07264, "FDIR": 97.25668, "RENV": 60.0, "PENV": 1016.0, "VALIDT": 0, "DTG": "2025-08-27 06:00", "LATNOW": 40.6, "LONNOW": -44.2, "WINDNOW": 40.0, "DIRNOW": 12.0, "SPDNOW": 1.0, "TECH": "TRAK", "ADVNR": 19, "ATCFID": "AL062025", "NAME": "FERNAND", "FTECH": "OFCL", "FCST_DTG": "2025-08-28 06:00:00", "RUN_DTG": "2025-08-28 20:46:09", "BASIN": "AL", "STMNR": 6, "CAT_ID": null, "CAT_DESC": null, "MSGID": "WTNT21 KNHC 280834", "VALIDTIME": "2025-08-27 06:00:00" }, "geometry": { "type": "Point", "coordinates": [ -51.400002, 38.299999 ] } },
{ "type": "Feature", "properties": { "ID": 27842, "LAT": 38.2, "LON": -50.4, "VMAX": 40.0, "MSLP": 1007.0, "RMAX": 40.0, "FSPD": 8.81563, "FDIR": 65.88986, "RENV": 60.0, "PENV": 1016.0, "VALIDT": 0, "DTG": "2025-08-27 12:00", "LATNOW": 40.6, "LONNOW": -44.2, "WINDNOW": 40.0, "DIRNOW": 12.0, "SPDNOW": 1.0, "TECH": "TRAK", "ADVNR": 19, "ATCFID": "AL062025", "NAME": "FERNAND", "FTECH": "OFCL", "FCST_DTG": "2025-08-28 06:00:00", "RUN_DTG": "2025-08-28 20:46:09", "BASIN": "AL", "STMNR": 6, "CAT_ID": null, "CAT_DESC": null, "MSGID": "WTNT21 KNHC 280834", "VALIDTIME": "2025-08-27 12:00:00" }, "geometry": { "type": "Point", "coordinates": [ -50.400002, 38.200001 ] } },
{ "type": "Feature", "properties": { "ID": 27843, "LAT": 38.9, "LON": -48.4, "VMAX": 45.0, "MSLP": 1006.0, "RMAX": 35.0, "FSPD": 9.31818, "FDIR": 63.78955, "RENV": 60.0, "PENV": 1016.0, "VALIDT": 0, "DTG": "2025-08-27 18:00", "LATNOW": 40.6, "LONNOW": -44.2, "WINDNOW": 40.0, "DIRNOW": 12.0, "SPDNOW": 1.0, "TECH": "TRAK", "ADVNR": 19, "ATCFID": "AL062025", "NAME": "FERNAND", "FTECH": "OFCL", "FCST_DTG": "2025-08-28 06:00:00", "RUN_DTG": "2025-08-28 20:46:09", "BASIN": "AL", "STMNR": 6, "CAT_ID": null, "CAT_DESC": null, "MSGID": "WTNT21 KNHC 280834", "VALIDTIME": "2025-08-27 18:00:00" }, "geometry": { "type": "Point", "coordinates": [ -48.400002, 38.900002 ] } },
{ "type": "Feature", "properties": { "ID": 27844, "LAT": 39.7, "LON": -46.3, "VMAX": 45.0, "MSLP": 1006.0, "RMAX": 60.0, "FSPD": 9.46705, "FDIR": 60.72095, "RENV": 80.0, "PENV": 1016.0, "VALIDT": 0, "DTG": "2025-08-28 00:00", "LATNOW": 40.6, "LONNOW": -44.2, "WINDNOW": 40.0, "DIRNOW": 12.0, "SPDNOW": 1.0, "TECH": "TRAK", "ADVNR": 19, "ATCFID": "AL062025", "NAME": "FERNAND", "FTECH": "OFCL", "FCST_DTG": "2025-08-28 06:00:00", "RUN_DTG": "2025-08-28 20:46:09", "BASIN": "AL", "STMNR": 6, "CAT_ID": null, "CAT_DESC": null, "MSGID": "WTNT21 KNHC 280834", "VALIDTIME": "2025-08-28 00:00:00" }, "geometry": { "type": "Point", "coordinates": [ -46.299999, 39.700001 ] } },
{ "type": "Feature", "properties": { "ID": 27845, "LAT": 40.6, "LON": -44.2, "VMAX": 40.0, "MSLP": 1009.0, "RMAX": 60.0, "FSPD": 11.84574, "FDIR": 58.59085, "RENV": 80.0, "PENV": 1016.0, "VALIDT": 0, "DTG": "2025-08-28 06:00", "LATNOW": 40.6, "LONNOW": -44.2, "WINDNOW": 40.0, "DIRNOW": 12.0, "SPDNOW": 1.0, "TECH": "TRAK", "ADVNR": 19, "ATCFID": "AL062025", "NAME": "FERNAND", "FTECH": "OFCL", "FCST_DTG": "2025-08-28 06:00:00", "RUN_DTG": "2025-08-28 20:46:09", "BASIN": "AL", "STMNR": 6, "CAT_ID": null, "CAT_DESC": null, "MSGID": "WTNT21 KNHC 280834", "VALIDTIME": "2025-08-28 06:00:00" }, "geometry": { "type": "Point", "coordinates": [ -44.200001, 40.599998 ] } },
{ "type": "Feature", "properties": { "ID": 27846, "LAT": 41.2, "LON": -42.9, "VMAX": 40.0, "MSLP": 1009.0, "RMAX": 61.43863, "FSPD": 11.88418, "FDIR": 64.3494, "RENV": 300.0, "PENV": 1012.0, "VALIDT": 3, "DTG": "2025-08-28 09:00", "LATNOW": 40.6, "LONNOW": -44.2, "WINDNOW": 40.0, "DIRNOW": 12.0, "SPDNOW": 1.0, "TECH": "FCST", "ADVNR": 19, "ATCFID": "AL062025", "NAME": "FERNAND", "FTECH": "OFCL", "FCST_DTG": "2025-08-28 06:00:00", "RUN_DTG": "2025-08-28 20:46:09", "BASIN": "AL", "STMNR": 6, "CAT_ID": null, "CAT_DESC": null, "MSGID": "WTNT21 KNHC 280834", "VALIDTIME": "2025-08-28 09:00:00" }, "geometry": { "type": "Point", "coordinates": [ -42.900002, 41.200001 ] } },
{ "type": "Feature", "properties": { "ID": 27847, "LAT": 42.7, "LON": -38.7, "VMAX": 35.0, "MSLP": 1008.74713, "RMAX": 65.18095, "FSPD": 14.5155, "FDIR": 67.05475, "RENV": 300.0, "PENV": 1012.0, "VALIDT": 12, "DTG": "2025-08-28 18:00", "LATNOW": 40.6, "LONNOW": -44.2, "WINDNOW": 40.0, "DIRNOW": 12.0, "SPDNOW": 1.0, "TECH": "FCST", "ADVNR": 19, "ATCFID": "AL062025", "NAME": "FERNAND", "FTECH": "OFCL", "FCST_DTG": "2025-08-28 06:00:00", "RUN_DTG": "2025-08-28 20:46:09", "BASIN": "AL", "STMNR": 6, "CAT_ID": null, "CAT_DESC": null, "MSGID": "WTNT21 KNHC 280834", "VALIDTIME": "2025-08-28 18:00:00" }, "geometry": { "type": "Point", "coordinates": [ -38.700001, 42.700001 ] } },
{ "type": "Feature", "properties": { "ID": 27848, "LAT": 44.9, "LON": -31.5, "VMAX": 35.0, "MSLP": 1008.74713, "RMAX": 71.09701, "FSPD": 14.5155, "FDIR": 67.05475, "RENV": 300.0, "PENV": 1012.0, "VALIDT": 24, "DTG": "2025-08-29 06:00", "LATNOW": 40.6, "LONNOW": -44.2, "WINDNOW": 40.0, "DIRNOW": 12.0, "SPDNOW": 1.0, "TECH": "FCST", "ADVNR": 19, "ATCFID": "AL062025", "NAME": "FERNAND", "FTECH": "OFCL", "FCST_DTG": "2025-08-28 06:00:00", "RUN_DTG": "2025-08-28 20:46:09", "BASIN": "AL", "STMNR": 6, "CAT_ID": null, "CAT_DESC": null, "MSGID": "WTNT21 KNHC 280834", "VALIDTIME": "2025-08-29 06:00:00" }, "geometry": { "type": "Point", "coordinates": [ -31.5, 44.900002 ] } },
{ "type": "Feature", "properties": { "ID": 27845, "LAT": 40.6, "LON": -44.2, "VMAX": 40.0, "MSLP": 1009.0, "RMAX": 60.0, "FSPD": 11.84574, "FDIR": 58.59085, "RENV": 80.0, "PENV": 1016.0, "VALIDT": 0, "DTG": "2025-08-28 06:00", "LATNOW": 40.6, "LONNOW": -44.2, "WINDNOW": 40.0, "DIRNOW": 12.0, "SPDNOW": 1.0, "TECH": "TRAK", "ADVNR": 19, "ATCFID": "AL062025", "NAME": "FERNAND", "FTECH": "OFCL", "FCST_DTG": "2025-08-28 06:00:00", "RUN_DTG": "2025-08-28 20:46:09", "BASIN": "AL", "STMNR": 6, "CAT_ID": null, "CAT_DESC": null, "MSGID": "WTNT21 KNHC 280834", "VALIDTIME": "2025-08-28 06:00:00" }, "geometry": { "type": "LineString", "coordinates": [ [ -55.5, 17.1 ], [ -56.5, 17.5 ], [ -57.5, 17.7 ], [ -58.7, 18.6 ], [ -59.6, 20.0 ], [ -60.4, 21.4 ], [ -61.3, 22.7 ], [ -62.0, 23.5 ], [ -62.2, 25.2 ], [ -61.7, 26.6 ], [ -61.3, 28.2 ], [ -61.0, 29.1 ], [ -60.2, 30.4 ], [ -60.0, 31.3 ], [ -59.6, 32.1 ], [ -59.1, 33.2 ], [ -58.3, 33.8 ], [ -57.6, 34.8 ], [ -56.8, 35.6 ], [ -55.7, 36.5 ], [ -55.1, 37.3 ], [ -54.0, 37.8 ], [ -52.7, 38.2 ], [ -51.4, 38.3 ], [ -50.4, 38.2 ], [ -48.4, 38.9 ], [ -46.3, 39.7 ], [ -44.2, 40.6 ] ] } },
{ "type": "Feature", "properties": { "ID": 27848, "LAT": 44.9, "LON": -31.5, "VMAX": 35.0, "MSLP": 1008.74713, "RMAX": 71.09701, "FSPD": 14.5155, "FDIR": 67.05475, "RENV": 300.0, "PENV": 1012.0, "VALIDT": 24, "DTG": "2025-08-29 06:00", "LATNOW": 40.6, "LONNOW": -44.2, "WINDNOW": 40.0, "DIRNOW": 12.0, "SPDNOW": 1.0, "TECH": "FCST", "ADVNR": 19, "ATCFID": "AL062025", "NAME": "FERNAND", "FTECH": "OFCL", "FCST_DTG": "2025-08-28 06:00:00", "RUN_DTG": "2025-08-28 20:46:09", "BASIN": "AL", "STMNR": 6, "CAT_ID": null, "CAT_DESC": null, "MSGID": "WTNT21 KNHC 280834", "VALIDTIME": "2025-08-29 06:00:00" }, "geometry": { "type": "LineString", "coordinates": [ [ -44.2, 40.6 ], [ -42.9, 41.2 ], [ -38.7, 42.7 ], [ -31.5, 44.9 ] ] } }
]
}
