{
"type": "FeatureCollection",
"crs": { "type": "name", "properties": { "name": "urn:ogc:def:crs:OGC:1.3:CRS84" } },
"features": [
{ "type": "Feature", "properties": { "ID": 84196, "LAT": -11.2, "LON": -157.9, "VMAX": 15.0, "MSLP": 1013.8515, "RMAX": 40.0, "FSPD": 7.35388, "FDIR": 106.24957, "RENV": 500.0, "PENV": 1012.0, "VALIDT": 0, "DTG": "2025-12-03 12:00", "LATNOW": -18.7, "LONNOW": -147.0, "WINDNOW": 35.0, "DIRNOW": 9.0, "SPDNOW": 5.0, "TECH": "TRAK", "ADVNR": 3, "ATCFID": "SH062026", "NAME": "SIX", "FTECH": "JTWC", "FCST_DTG": "2025-12-06 00:00:00", "RUN_DTG": "2025-12-06 19:12:12", "BASIN": "SH", "STMNR": 6, "CAT_ID": null, "CAT_DESC": null, "MSGID": "WTPS51 PGTW 060300", "VALIDTIME": "2025-12-03 12:00:00" }, "geometry": { "type": "Point", "coordinates": [ -157.899994, -11.2 ] } },
{ "type": "Feature", "properties": { "ID": 84197, "LAT": -11.6, "LON": -156.5, "VMAX": 15.0, "MSLP": 1013.8515, "RMAX": 40.0, "FSPD": 5.9092, "FDIR": 110.37918, "RENV": 500.0, "PENV": 1012.0, "VALIDT": 0, "DTG": "2025-12-03 18:00", "LATNOW": -18.7, "LONNOW": -147.0, "WINDNOW": 35.0, "DIRNOW": 9.0, "SPDNOW": 5.0, "TECH": "TRAK", "ADVNR": 3, "ATCFID": "SH062026", "NAME": "SIX", "FTECH": "JTWC", "FCST_DTG": "2025-12-06 00:00:00", "RUN_DTG": "2025-12-06 19:12:12", "BASIN": "SH", "STMNR": 6, "CAT_ID": null, "CAT_DESC": null, "MSGID": "WTPS51 PGTW 060300", "VALIDTIME": "2025-12-03 18:00:00" }, "geometry": { "type": "Point", "coordinates": [ -156.5, -11.6 ] } },
{ "type": "Feature", "properties": { "ID": 84198, "LAT": -12.0, "LON": -155.4, "VMAX": 25.0, "MSLP": 1011.80975, "RMAX": 45.0, "FSPD": 6.12323, "FDIR": 99.67328, "RENV": 500.0, "PENV": 1012.0, "VALIDT": 0, "DTG": "2025-12-04 00:00", "LATNOW": -18.7, "LONNOW": -147.0, "WINDNOW": 35.0, "DIRNOW": 9.0, "SPDNOW": 5.0, "TECH": "TRAK", "ADVNR": 3, "ATCFID": "SH062026", "NAME": "SIX", "FTECH": "JTWC", "FCST_DTG": "2025-12-06 00:00:00", "RUN_DTG": "2025-12-06 19:12:12", "BASIN": "SH", "STMNR": 6, "CAT_ID": null, "CAT_DESC": null, "MSGID": "WTPS51 PGTW 060300", "VALIDTIME": "2025-12-04 00:00:00" }, "geometry": { "type": "Point", "coordinates": [ -155.399994, -12.0 ] } },
{ "type": "Feature", "properties": { "ID": 84199, "LAT": -12.2, "LON": -154.2, "VMAX": 25.0, "MSLP": 1011.80975, "RMAX": 45.0, "FSPD": 7.20281, "FDIR": 102.37253, "RENV": 500.0, "PENV": 1012.0, "VALIDT": 0, "DTG": "2025-12-04 06:00", "LATNOW": -18.7, "LONNOW": -147.0, "WINDNOW": 35.0, "DIRNOW": 9.0, "SPDNOW": 5.0, "TECH": "TRAK", "ADVNR": 3, "ATCFID": "SH062026", "NAME": "SIX", "FTECH": "JTWC", "FCST_DTG": "2025-12-06 00:00:00", "RUN_DTG": "2025-12-06 19:12:12", "BASIN": "SH", "STMNR": 6, "CAT_ID": null, "CAT_DESC": null, "MSGID": "WTPS51 PGTW 060300", "VALIDTIME": "2025-12-04 06:00:00" }, "geometry": { "type": "Point", "coordinates": [ -154.199997, -12.2 ] } },
{ "type": "Feature", "properties": { "ID": 84200, "LAT": -12.5, "LON": -152.8, "VMAX": 30.0, "MSLP": 1010.40607, "RMAX": 44.21983, "FSPD": 7.19492, "FDIR": 102.38632, "RENV": 500.0, "PENV": 1012.0, "VALIDT": 0, "DTG": "2025-12-04 12:00", "LATNOW": -18.7, "LONNOW": -147.0, "WINDNOW": 35.0, "DIRNOW": 9.0, "SPDNOW": 5.0, "TECH": "TRAK", "ADVNR": 3, "ATCFID": "SH062026", "NAME": "SIX", "FTECH": "JTWC", "FCST_DTG": "2025-12-06 00:00:00", "RUN_DTG": "2025-12-06 19:12:12", "BASIN": "SH", "STMNR": 6, "CAT_ID": null, "CAT_DESC": null, "MSGID": "WTPS51 PGTW 060300", "VALIDTIME": "2025-12-04 12:00:00" }, "geometry": { "type": "Point", "coordinates": [ -152.800003, -12.5 ] } },
{ "type": "Feature", "properties": { "ID": 84201, "LAT": -12.8, "LON": -151.4, "VMAX": 30.0, "MSLP": 1010.40607, "RMAX": 44.21983, "FSPD": 10.21909, "FDIR": 123.62506, "RENV": 500.0, "PENV": 1012.0, "VALIDT": 0, "DTG": "2025-12-04 18:00", "LATNOW": -18.7, "LONNOW": -147.0, "WINDNOW": 35.0, "DIRNOW": 9.0, "SPDNOW": 5.0, "TECH": "TRAK", "ADVNR": 3, "ATCFID": "SH062026", "NAME": "SIX", "FTECH": "JTWC", "FCST_DTG": "2025-12-06 00:00:00", "RUN_DTG": "2025-12-06 19:12:12", "BASIN": "SH", "STMNR": 6, "CAT_ID": null, "CAT_DESC": null, "MSGID": "WTPS51 PGTW 060300", "VALIDTIME": "2025-12-04 18:00:00" }, "geometry": { "type": "Point", "coordinates": [ -151.399994, -12.8 ] } },
{ "type": "Feature", "properties": { "ID": 84202, "LAT": -13.9, "LON": -149.7, "VMAX": 35.0, "MSLP": 1002.0, "RMAX": 20.0, "FSPD": 7.21975, "FDIR": 141.61038, "RENV": 60.0, "PENV": 1006.0, "VALIDT": 0, "DTG": "2025-12-05 00:00", "LATNOW": -18.7, "LONNOW": -147.0, "WINDNOW": 35.0, "DIRNOW": 9.0, "SPDNOW": 5.0, "TECH": "TRAK", "ADVNR": 3, "ATCFID": "SH062026", "NAME": "SIX", "FTECH": "JTWC", "FCST_DTG": "2025-12-06 00:00:00", "RUN_DTG": "2025-12-06 19:12:12", "BASIN": "SH", "STMNR": 6, "CAT_ID": null, "CAT_DESC": null, "MSGID": "WTPS51 PGTW 060300", "VALIDTIME": "2025-12-05 00:00:00" }, "geometry": { "type": "Point", "coordinates": [ -149.699997, -13.9 ] } },
{ "type": "Feature", "properties": { "ID": 84203, "LAT": -15.0, "LON": -148.8, "VMAX": 40.0, "MSLP": 1002.0, "RMAX": 20.0, "FSPD": 6.49566, "FDIR": 142.37106, "RENV": 60.0, "PENV": 1006.0, "VALIDT": 0, "DTG": "2025-12-05 06:00", "LATNOW": -18.7, "LONNOW": -147.0, "WINDNOW": 35.0, "DIRNOW": 9.0, "SPDNOW": 5.0, "TECH": "TRAK", "ADVNR": 3, "ATCFID": "SH062026", "NAME": "SIX", "FTECH": "JTWC", "FCST_DTG": "2025-12-06 00:00:00", "RUN_DTG": "2025-12-06 19:12:12", "BASIN": "SH", "STMNR": 6, "CAT_ID": null, "CAT_DESC": null, "MSGID": "WTPS51 PGTW 060300", "VALIDTIME": "2025-12-05 06:00:00" }, "geometry": { "type": "Point", "coordinates": [ -148.800003, -15.0 ] } },
{ "type": "Feature", "properties": { "ID": 84204, "LAT": -16.0, "LON": -148.0, "VMAX": 40.0, "MSLP": 1001.0, "RMAX": 20.0, "FSPD": 8.45804, "FDIR": 148.37772, "RENV": 70.0, "PENV": 1008.0, "VALIDT": 0, "DTG": "2025-12-05 12:00", "LATNOW": -18.7, "LONNOW": -147.0, "WINDNOW": 35.0, "DIRNOW": 9.0, "SPDNOW": 5.0, "TECH": "TRAK", "ADVNR": 3, "ATCFID": "SH062026", "NAME": "SIX", "FTECH": "JTWC", "FCST_DTG": "2025-12-06 00:00:00", "RUN_DTG": "2025-12-06 19:12:12", "BASIN": "SH", "STMNR": 6, "CAT_ID": null, "CAT_DESC": null, "MSGID": "WTPS51 PGTW 060300", "VALIDTIME": "2025-12-05 12:00:00" }, "geometry": { "type": "Point", "coordinates": [ -148.0, -16.0 ] } },
{ "type": "Feature", "properties": { "ID": 84205, "LAT": -17.4, "LON": -147.1, "VMAX": 40.0, "MSLP": 999.0, "RMAX": 20.0, "FSPD": 6.70565, "FDIR": 175.81668, "RENV": 80.0, "PENV": 1007.0, "VALIDT": 0, "DTG": "2025-12-05 18:00", "LATNOW": -18.7, "LONNOW": -147.0, "WINDNOW": 35.0, "DIRNOW": 9.0, "SPDNOW": 5.0, "TECH": "TRAK", "ADVNR": 3, "ATCFID": "SH062026", "NAME": "SIX", "FTECH": "JTWC", "FCST_DTG": "2025-12-06 00:00:00", "RUN_DTG": "2025-12-06 19:12:12", "BASIN": "SH", "STMNR": 6, "CAT_ID": null, "CAT_DESC": null, "MSGID": "WTPS51 PGTW 060300", "VALIDTIME": "2025-12-05 18:00:00" }, "geometry": { "type": "Point", "coordinates": [ -147.100006, -17.4 ] } },
{ "type": "Feature", "properties": { "ID": 84206, "LAT": -18.7, "LON": -147.0, "VMAX": 35.0, "MSLP": 1008.74713, "RMAX": 42.69135, "FSPD": 8.85596, "FDIR": 150.61621, "RENV": 500.0, "PENV": 1012.0, "VALIDT": 0, "DTG": "2025-12-06 00:00", "LATNOW": -18.7, "LONNOW": -147.0, "WINDNOW": 35.0, "DIRNOW": 9.0, "SPDNOW": 5.0, "TECH": "TRAK", "ADVNR": 3, "ATCFID": "SH062026", "NAME": "SIX", "FTECH": "JTWC", "FCST_DTG": "2025-12-06 00:00:00", "RUN_DTG": "2025-12-06 19:12:12", "BASIN": "SH", "STMNR": 6, "CAT_ID": null, "CAT_DESC": null, "MSGID": "WTPS51 PGTW 060300", "VALIDTIME": "2025-12-06 00:00:00" }, "geometry": { "type": "Point", "coordinates": [ -147.0, -18.700001 ] } },
{ "type": "Feature", "properties": { "ID": 84207, "LAT": -21.7, "LON": -145.2, "VMAX": 35.0, "MSLP": 1008.74713, "RMAX": 42.69135, "FSPD": 8.85596, "FDIR": 150.61621, "RENV": 250.0, "PENV": 1012.0, "VALIDT": 12, "DTG": "2025-12-06 12:00", "LATNOW": -18.7, "LONNOW": -147.0, "WINDNOW": 35.0, "DIRNOW": 9.0, "SPDNOW": 5.0, "TECH": "FCST", "ADVNR": 3, "ATCFID": "SH062026", "NAME": "SIX", "FTECH": "JTWC", "FCST_DTG": "2025-12-06 00:00:00", "RUN_DTG": "2025-12-06 19:12:12", "BASIN": "SH", "STMNR": 6, "CAT_ID": null, "CAT_DESC": null, "MSGID": "WTPS51 PGTW 060300", "VALIDTIME": "2025-12-06 12:00:00" }, "geometry": { "type": "Point", "coordinates": [ -145.199997, -21.700001 ] } },
{ "type": "Feature", "properties": { "ID": 84206, "LAT": -18.7, "LON": -147.0, "VMAX": 35.0, "MSLP": 1008.74713, "RMAX": 42.69135, "FSPD": 8.85596, "FDIR": 150.61621, "RENV": 500.0, "PENV": 1012.0, "VALIDT": 0, "DTG": "2025-12-06 00:00", "LATNOW": -18.7, "LONNOW": -147.0, "WINDNOW": 35.0, "DIRNOW": 9.0, "SPDNOW": 5.0, "TECH": "TRAK", "ADVNR": 3, "ATCFID": "SH062026", "NAME": "SIX", "FTECH": "JTWC", "FCST_DTG": "2025-12-06 00:00:00", "RUN_DTG": "2025-12-06 19:12:12", "BASIN": "SH", "STMNR": 6, "CAT_ID": null, "CAT_DESC": null, "MSGID": "WTPS51 PGTW 060300", "VALIDTIME": "2025-12-06 00:00:00" }, "geometry": { "type": "LineString", "coordinates": [ [ -157.9, -11.2 ], [ -156.5, -11.6 ], [ -155.4, -12.0 ], [ -154.2, -12.2 ], [ -152.8, -12.5 ], [ -151.4, -12.8 ], [ -149.7, -13.9 ], [ -148.8, -15.0 ], [ -148.0, -16.0 ], [ -147.1, -17.4 ], [ -147.0, -18.7 ] ] } },
{ "type": "Feature", "properties": { "ID": 84207, "LAT": -21.7, "LON": -145.2, "VMAX": 35.0, "MSLP": 1008.74713, "RMAX": 42.69135, "FSPD": 8.85596, "FDIR": 150.61621, "RENV": 250.0, "PENV": 1012.0, "VALIDT": 12, "DTG": "2025-12-06 12:00", "LATNOW": -18.7, "LONNOW": -147.0, "WINDNOW": 35.0, "DIRNOW": 9.0, "SPDNOW": 5.0, "TECH": "FCST", "ADVNR": 3, "ATCFID": "SH062026", "NAME": "SIX", "FTECH": "JTWC", "FCST_DTG": "2025-12-06 00:00:00", "RUN_DTG": "2025-12-06 19:12:12", "BASIN": "SH", "STMNR": 6, "CAT_ID": null, "CAT_DESC": null, "MSGID": "WTPS51 PGTW 060300", "VALIDTIME": "2025-12-06 12:00:00" }, "geometry": { "type": "LineString", "coordinates": [ [ -147.0, -18.7 ], [ -145.2, -21.7 ] ] } }
]
}
