{
"type": "FeatureCollection",
"crs": { "type": "name", "properties": { "name": "urn:ogc:def:crs:OGC:1.3:CRS84" } },
"features": [
{ "type": "Feature", "properties": { "ID": 261238, "LAT": 37.3, "LON": -58.5, "VMAX": 50.0, "MSLP": 996.0, "RMAX": 50.0, "FSPD": 4.62341, "FDIR": 102.85822, "RENV": 240.0, "PENV": 1008.0, "VALIDT": 0, "DTG": "2024-09-25 06:00", "LATNOW": 44.6, "LONNOW": -30.0, "WINDNOW": 50.0, "DIRNOW": 7.0, "SPDNOW": 0.0, "TECH": "TRAK", "ADVNR": 19, "ATCFID": "AL102024", "NAME": "ISAAC", "FTECH": "OFCL", "FCST_DTG": "2024-09-30 12:00:00", "RUN_DTG": "2024-10-01 02:52:18", "BASIN": "AL", "STMNR": 10, "CAT_ID": null, "CAT_DESC": null, "MSGID": "WTNT25 KNHC 301452", "VALIDTIME": "2024-09-25 06:00:00" }, "geometry": { "type": "Point", "coordinates": [ -58.5, 37.299999 ] } },
{ "type": "Feature", "properties": { "ID": 261239, "LAT": 37.1, "LON": -57.4, "VMAX": 50.0, "MSLP": 996.0, "RMAX": 50.0, "FSPD": 5.77115, "FDIR": 95.11404, "RENV": 240.0, "PENV": 1008.0, "VALIDT": 0, "DTG": "2024-09-25 12:00", "LATNOW": 44.6, "LONNOW": -30.0, "WINDNOW": 50.0, "DIRNOW": 7.0, "SPDNOW": 0.0, "TECH": "TRAK", "ADVNR": 19, "ATCFID": "AL102024", "NAME": "ISAAC", "FTECH": "OFCL", "FCST_DTG": "2024-09-30 12:00:00", "RUN_DTG": "2024-10-01 02:52:18", "BASIN": "AL", "STMNR": 10, "CAT_ID": null, "CAT_DESC": null, "MSGID": "WTNT25 KNHC 301452", "VALIDTIME": "2024-09-25 12:00:00" }, "geometry": { "type": "Point", "coordinates": [ -57.400002, 37.099998 ] } },
{ "type": "Feature", "properties": { "ID": 261240, "LAT": 37.0, "LON": -56.0, "VMAX": 45.0, "MSLP": 998.0, "RMAX": 60.0, "FSPD": 5.34109, "FDIR": 90.0, "RENV": 240.0, "PENV": 1011.0, "VALIDT": 0, "DTG": "2024-09-25 18:00", "LATNOW": 44.6, "LONNOW": -30.0, "WINDNOW": 50.0, "DIRNOW": 7.0, "SPDNOW": 0.0, "TECH": "TRAK", "ADVNR": 19, "ATCFID": "AL102024", "NAME": "ISAAC", "FTECH": "OFCL", "FCST_DTG": "2024-09-30 12:00:00", "RUN_DTG": "2024-10-01 02:52:18", "BASIN": "AL", "STMNR": 10, "CAT_ID": null, "CAT_DESC": null, "MSGID": "WTNT25 KNHC 301452", "VALIDTIME": "2024-09-25 18:00:00" }, "geometry": { "type": "Point", "coordinates": [ -56.0, 37.0 ] } },
{ "type": "Feature", "properties": { "ID": 261241, "LAT": 37.0, "LON": -54.7, "VMAX": 45.0, "MSLP": 997.0, "RMAX": 40.0, "FSPD": 5.36231, "FDIR": 84.49484, "RENV": 240.0, "PENV": 1011.0, "VALIDT": 0, "DTG": "2024-09-26 00:00", "LATNOW": 44.6, "LONNOW": -30.0, "WINDNOW": 50.0, "DIRNOW": 7.0, "SPDNOW": 0.0, "TECH": "TRAK", "ADVNR": 19, "ATCFID": "AL102024", "NAME": "ISAAC", "FTECH": "OFCL", "FCST_DTG": "2024-09-30 12:00:00", "RUN_DTG": "2024-10-01 02:52:18", "BASIN": "AL", "STMNR": 10, "CAT_ID": null, "CAT_DESC": null, "MSGID": "WTNT25 KNHC 301452", "VALIDTIME": "2024-09-26 00:00:00" }, "geometry": { "type": "Point", "coordinates": [ -54.700001, 37.0 ] } },
{ "type": "Feature", "properties": { "ID": 261242, "LAT": 37.1, "LON": -53.4, "VMAX": 45.0, "MSLP": 997.0, "RMAX": 40.0, "FSPD": 4.53971, "FDIR": 83.49307, "RENV": 320.0, "PENV": 1012.0, "VALIDT": 0, "DTG": "2024-09-26 06:00", "LATNOW": 44.6, "LONNOW": -30.0, "WINDNOW": 50.0, "DIRNOW": 7.0, "SPDNOW": 0.0, "TECH": "TRAK", "ADVNR": 19, "ATCFID": "AL102024", "NAME": "ISAAC", "FTECH": "OFCL", "FCST_DTG": "2024-09-30 12:00:00", "RUN_DTG": "2024-10-01 02:52:18", "BASIN": "AL", "STMNR": 10, "CAT_ID": null, "CAT_DESC": null, "MSGID": "WTNT25 KNHC 301452", "VALIDTIME": "2024-09-26 06:00:00" }, "geometry": { "type": "Point", "coordinates": [ -53.400002, 37.099998 ] } },
{ "type": "Feature", "properties": { "ID": 261243, "LAT": 37.2, "LON": -52.3, "VMAX": 45.0, "MSLP": 997.0, "RMAX": 40.0, "FSPD": 4.61758, "FDIR": 77.12524, "RENV": 350.0, "PENV": 1014.0, "VALIDT": 0, "DTG": "2024-09-26 12:00", "LATNOW": 44.6, "LONNOW": -30.0, "WINDNOW": 50.0, "DIRNOW": 7.0, "SPDNOW": 0.0, "TECH": "TRAK", "ADVNR": 19, "ATCFID": "AL102024", "NAME": "ISAAC", "FTECH": "OFCL", "FCST_DTG": "2024-09-30 12:00:00", "RUN_DTG": "2024-10-01 02:52:18", "BASIN": "AL", "STMNR": 10, "CAT_ID": null, "CAT_DESC": null, "MSGID": "WTNT25 KNHC 301452", "VALIDTIME": "2024-09-26 12:00:00" }, "geometry": { "type": "Point", "coordinates": [ -52.299999, 37.200001 ] } },
{ "type": "Feature", "properties": { "ID": 261244, "LAT": 37.4, "LON": -51.2, "VMAX": 45.0, "MSLP": 995.0, "RMAX": 40.0, "FSPD": 3.9956, "FDIR": 112.72208, "RENV": 200.0, "PENV": 1010.0, "VALIDT": 0, "DTG": "2024-09-26 18:00", "LATNOW": 44.6, "LONNOW": -30.0, "WINDNOW": 50.0, "DIRNOW": 7.0, "SPDNOW": 0.0, "TECH": "TRAK", "ADVNR": 19, "ATCFID": "AL102024", "NAME": "ISAAC", "FTECH": "OFCL", "FCST_DTG": "2024-09-30 12:00:00", "RUN_DTG": "2024-10-01 02:52:18", "BASIN": "AL", "STMNR": 10, "CAT_ID": null, "CAT_DESC": null, "MSGID": "WTNT25 KNHC 301452", "VALIDTIME": "2024-09-26 18:00:00" }, "geometry": { "type": "Point", "coordinates": [ -51.200001, 37.400002 ] } },
{ "type": "Feature", "properties": { "ID": 261245, "LAT": 37.1, "LON": -50.3, "VMAX": 50.0, "MSLP": 992.0, "RMAX": 30.0, "FSPD": 4.54561, "FDIR": 96.49817, "RENV": 200.0, "PENV": 1010.0, "VALIDT": 0, "DTG": "2024-09-27 00:00", "LATNOW": 44.6, "LONNOW": -30.0, "WINDNOW": 50.0, "DIRNOW": 7.0, "SPDNOW": 0.0, "TECH": "TRAK", "ADVNR": 19, "ATCFID": "AL102024", "NAME": "ISAAC", "FTECH": "OFCL", "FCST_DTG": "2024-09-30 12:00:00", "RUN_DTG": "2024-10-01 02:52:18", "BASIN": "AL", "STMNR": 10, "CAT_ID": null, "CAT_DESC": null, "MSGID": "WTNT25 KNHC 301452", "VALIDTIME": "2024-09-27 00:00:00" }, "geometry": { "type": "Point", "coordinates": [ -50.299999, 37.099998 ] } },
{ "type": "Feature", "properties": { "ID": 261246, "LAT": 37.0, "LON": -49.2, "VMAX": 60.0, "MSLP": 985.0, "RMAX": 20.0, "FSPD": 6.1802, "FDIR": 85.22519, "RENV": 200.0, "PENV": 1010.0, "VALIDT": 0, "DTG": "2024-09-27 06:00", "LATNOW": 44.6, "LONNOW": -30.0, "WINDNOW": 50.0, "DIRNOW": 7.0, "SPDNOW": 0.0, "TECH": "TRAK", "ADVNR": 19, "ATCFID": "AL102024", "NAME": "ISAAC", "FTECH": "OFCL", "FCST_DTG": "2024-09-30 12:00:00", "RUN_DTG": "2024-10-01 02:52:18", "BASIN": "AL", "STMNR": 10, "CAT_ID": null, "CAT_DESC": null, "MSGID": "WTNT25 KNHC 301452", "VALIDTIME": "2024-09-27 06:00:00" }, "geometry": { "type": "Point", "coordinates": [ -49.200001, 37.0 ] } },
{ "type": "Feature", "properties": { "ID": 261247, "LAT": 37.1, "LON": -47.7, "VMAX": 65.0, "MSLP": 981.0, "RMAX": 15.0, "FSPD": 6.47414, "FDIR": 71.46722, "RENV": 200.0, "PENV": 1010.0, "VALIDT": 0, "DTG": "2024-09-27 12:00", "LATNOW": 44.6, "LONNOW": -30.0, "WINDNOW": 50.0, "DIRNOW": 7.0, "SPDNOW": 0.0, "TECH": "TRAK", "ADVNR": 19, "ATCFID": "AL102024", "NAME": "ISAAC", "FTECH": "OFCL", "FCST_DTG": "2024-09-30 12:00:00", "RUN_DTG": "2024-10-01 02:52:18", "BASIN": "AL", "STMNR": 10, "CAT_ID": null, "CAT_DESC": null, "MSGID": "WTNT25 KNHC 301452", "VALIDTIME": "2024-09-27 12:00:00" }, "geometry": { "type": "Point", "coordinates": [ -47.700001, 37.099998 ] } },
{ "type": "Feature", "properties": { "ID": 261248, "LAT": 37.5, "LON": -46.2, "VMAX": 75.0, "MSLP": 976.0, "RMAX": 10.0, "FSPD": 8.00286, "FDIR": 75.1001, "RENV": 220.0, "PENV": 1011.0, "VALIDT": 0, "DTG": "2024-09-27 18:00", "LATNOW": 44.6, "LONNOW": -30.0, "WINDNOW": 50.0, "DIRNOW": 7.0, "SPDNOW": 0.0, "TECH": "TRAK", "ADVNR": 19, "ATCFID": "AL102024", "NAME": "ISAAC", "FTECH": "OFCL", "FCST_DTG": "2024-09-30 12:00:00", "RUN_DTG": "2024-10-01 02:52:18", "BASIN": "AL", "STMNR": 10, "CAT_ID": null, "CAT_DESC": null, "MSGID": "WTNT25 KNHC 301452", "VALIDTIME": "2024-09-27 18:00:00" }, "geometry": { "type": "Point", "coordinates": [ -46.200001, 37.5 ] } },
{ "type": "Feature", "properties": { "ID": 261249, "LAT": 37.9, "LON": -44.3, "VMAX": 80.0, "MSLP": 973.0, "RMAX": 15.0, "FSPD": 9.65492, "FDIR": 61.34418, "RENV": 240.0, "PENV": 1012.0, "VALIDT": 0, "DTG": "2024-09-28 00:00", "LATNOW": 44.6, "LONNOW": -30.0, "WINDNOW": 50.0, "DIRNOW": 7.0, "SPDNOW": 0.0, "TECH": "TRAK", "ADVNR": 19, "ATCFID": "AL102024", "NAME": "ISAAC", "FTECH": "OFCL", "FCST_DTG": "2024-09-30 12:00:00", "RUN_DTG": "2024-10-01 02:52:18", "BASIN": "AL", "STMNR": 10, "CAT_ID": null, "CAT_DESC": null, "MSGID": "WTNT25 KNHC 301452", "VALIDTIME": "2024-09-28 00:00:00" }, "geometry": { "type": "Point", "coordinates": [ -44.299999, 37.900002 ] } },
{ "type": "Feature", "properties": { "ID": 261250, "LAT": 38.8, "LON": -42.2, "VMAX": 90.0, "MSLP": 968.0, "RMAX": 15.0, "FSPD": 8.53571, "FDIR": 57.15094, "RENV": 240.0, "PENV": 1012.0, "VALIDT": 0, "DTG": "2024-09-28 06:00", "LATNOW": 44.6, "LONNOW": -30.0, "WINDNOW": 50.0, "DIRNOW": 7.0, "SPDNOW": 0.0, "TECH": "TRAK", "ADVNR": 19, "ATCFID": "AL102024", "NAME": "ISAAC", "FTECH": "OFCL", "FCST_DTG": "2024-09-30 12:00:00", "RUN_DTG": "2024-10-01 02:52:18", "BASIN": "AL", "STMNR": 10, "CAT_ID": null, "CAT_DESC": null, "MSGID": "WTNT25 KNHC 301452", "VALIDTIME": "2024-09-28 06:00:00" }, "geometry": { "type": "Point", "coordinates": [ -42.200001, 38.799999 ] } },
{ "type": "Feature", "properties": { "ID": 261251, "LAT": 39.7, "LON": -40.4, "VMAX": 90.0, "MSLP": 968.0, "RMAX": 15.0, "FSPD": 7.88921, "FDIR": 44.16852, "RENV": 400.0, "PENV": 1011.0, "VALIDT": 0, "DTG": "2024-09-28 12:00", "LATNOW": 44.6, "LONNOW": -30.0, "WINDNOW": 50.0, "DIRNOW": 7.0, "SPDNOW": 0.0, "TECH": "TRAK", "ADVNR": 19, "ATCFID": "AL102024", "NAME": "ISAAC", "FTECH": "OFCL", "FCST_DTG": "2024-09-30 12:00:00", "RUN_DTG": "2024-10-01 02:52:18", "BASIN": "AL", "STMNR": 10, "CAT_ID": null, "CAT_DESC": null, "MSGID": "WTNT25 KNHC 301452", "VALIDTIME": "2024-09-28 12:00:00" }, "geometry": { "type": "Point", "coordinates": [ -40.400002, 39.700001 ] } },
{ "type": "Feature", "properties": { "ID": 261252, "LAT": 40.8, "LON": -39.0, "VMAX": 85.0, "MSLP": 968.0, "RMAX": 20.0, "FSPD": 6.03298, "FDIR": 39.87457, "RENV": 240.0, "PENV": 1007.0, "VALIDT": 0, "DTG": "2024-09-28 18:00", "LATNOW": 44.6, "LONNOW": -30.0, "WINDNOW": 50.0, "DIRNOW": 7.0, "SPDNOW": 0.0, "TECH": "TRAK", "ADVNR": 19, "ATCFID": "AL102024", "NAME": "ISAAC", "FTECH": "OFCL", "FCST_DTG": "2024-09-30 12:00:00", "RUN_DTG": "2024-10-01 02:52:18", "BASIN": "AL", "STMNR": 10, "CAT_ID": null, "CAT_DESC": null, "MSGID": "WTNT25 KNHC 301452", "VALIDTIME": "2024-09-28 18:00:00" }, "geometry": { "type": "Point", "coordinates": [ -39.0, 40.799999 ] } },
{ "type": "Feature", "properties": { "ID": 261253, "LAT": 41.7, "LON": -38.0, "VMAX": 75.0, "MSLP": 971.0, "RMAX": 20.0, "FSPD": 4.91358, "FDIR": 51.08337, "RENV": 240.0, "PENV": 1007.0, "VALIDT": 0, "DTG": "2024-09-29 00:00", "LATNOW": 44.6, "LONNOW": -30.0, "WINDNOW": 50.0, "DIRNOW": 7.0, "SPDNOW": 0.0, "TECH": "TRAK", "ADVNR": 19, "ATCFID": "AL102024", "NAME": "ISAAC", "FTECH": "OFCL", "FCST_DTG": "2024-09-30 12:00:00", "RUN_DTG": "2024-10-01 02:52:18", "BASIN": "AL", "STMNR": 10, "CAT_ID": null, "CAT_DESC": null, "MSGID": "WTNT25 KNHC 301452", "VALIDTIME": "2024-09-29 00:00:00" }, "geometry": { "type": "Point", "coordinates": [ -38.0, 41.700001 ] } },
{ "type": "Feature", "properties": { "ID": 261254, "LAT": 42.3, "LON": -37.0, "VMAX": 70.0, "MSLP": 969.0, "RMAX": 20.0, "FSPD": 4.32494, "FDIR": 44.46387, "RENV": 240.0, "PENV": 1007.0, "VALIDT": 0, "DTG": "2024-09-29 06:00", "LATNOW": 44.6, "LONNOW": -30.0, "WINDNOW": 50.0, "DIRNOW": 7.0, "SPDNOW": 0.0, "TECH": "TRAK", "ADVNR": 19, "ATCFID": "AL102024", "NAME": "ISAAC", "FTECH": "OFCL", "FCST_DTG": "2024-09-30 12:00:00", "RUN_DTG": "2024-10-01 02:52:18", "BASIN": "AL", "STMNR": 10, "CAT_ID": null, "CAT_DESC": null, "MSGID": "WTNT25 KNHC 301452", "VALIDTIME": "2024-09-29 06:00:00" }, "geometry": { "type": "Point", "coordinates": [ -37.0, 42.299999 ] } },
{ "type": "Feature", "properties": { "ID": 261255, "LAT": 42.9, "LON": -36.2, "VMAX": 65.0, "MSLP": 971.0, "RMAX": 35.0, "FSPD": 4.05199, "FDIR": 40.38007, "RENV": 240.0, "PENV": 1006.0, "VALIDT": 0, "DTG": "2024-09-29 12:00", "LATNOW": 44.6, "LONNOW": -30.0, "WINDNOW": 50.0, "DIRNOW": 7.0, "SPDNOW": 0.0, "TECH": "TRAK", "ADVNR": 19, "ATCFID": "AL102024", "NAME": "ISAAC", "FTECH": "OFCL", "FCST_DTG": "2024-09-30 12:00:00", "RUN_DTG": "2024-10-01 02:52:18", "BASIN": "AL", "STMNR": 10, "CAT_ID": null, "CAT_DESC": null, "MSGID": "WTNT25 KNHC 301452", "VALIDTIME": "2024-09-29 12:00:00" }, "geometry": { "type": "Point", "coordinates": [ -36.200001, 42.900002 ] } },
{ "type": "Feature", "properties": { "ID": 261256, "LAT": 43.5, "LON": -35.5, "VMAX": 60.0, "MSLP": 973.0, "RMAX": 35.0, "FSPD": 7.36183, "FDIR": 65.21094, "RENV": 240.0, "PENV": 1006.0, "VALIDT": 0, "DTG": "2024-09-29 18:00", "LATNOW": 44.6, "LONNOW": -30.0, "WINDNOW": 50.0, "DIRNOW": 7.0, "SPDNOW": 0.0, "TECH": "TRAK", "ADVNR": 19, "ATCFID": "AL102024", "NAME": "ISAAC", "FTECH": "OFCL", "FCST_DTG": "2024-09-30 12:00:00", "RUN_DTG": "2024-10-01 02:52:18", "BASIN": "AL", "STMNR": 10, "CAT_ID": null, "CAT_DESC": null, "MSGID": "WTNT25 KNHC 301452", "VALIDTIME": "2024-09-29 18:00:00" }, "geometry": { "type": "Point", "coordinates": [ -35.5, 43.5 ] } },
{ "type": "Feature", "properties": { "ID": 261257, "LAT": 44.1, "LON": -33.7, "VMAX": 55.0, "MSLP": 975.0, "RMAX": 35.0, "FSPD": 6.58872, "FDIR": 71.80093, "RENV": 200.0, "PENV": 1006.0, "VALIDT": 0, "DTG": "2024-09-30 00:00", "LATNOW": 44.6, "LONNOW": -30.0, "WINDNOW": 50.0, "DIRNOW": 7.0, "SPDNOW": 0.0, "TECH": "TRAK", "ADVNR": 19, "ATCFID": "AL102024", "NAME": "ISAAC", "FTECH": "OFCL", "FCST_DTG": "2024-09-30 12:00:00", "RUN_DTG": "2024-10-01 02:52:18", "BASIN": "AL", "STMNR": 10, "CAT_ID": null, "CAT_DESC": null, "MSGID": "WTNT25 KNHC 301452", "VALIDTIME": "2024-09-30 00:00:00" }, "geometry": { "type": "Point", "coordinates": [ -33.700001, 44.099998 ] } },
{ "type": "Feature", "properties": { "ID": 261258, "LAT": 44.5, "LON": -32.0, "VMAX": 55.0, "MSLP": 975.0, "RMAX": 50.0, "FSPD": 7.35028, "FDIR": 85.98666, "RENV": 200.0, "PENV": 1006.0, "VALIDT": 0, "DTG": "2024-09-30 06:00", "LATNOW": 44.6, "LONNOW": -30.0, "WINDNOW": 50.0, "DIRNOW": 7.0, "SPDNOW": 0.0, "TECH": "TRAK", "ADVNR": 19, "ATCFID": "AL102024", "NAME": "ISAAC", "FTECH": "OFCL", "FCST_DTG": "2024-09-30 12:00:00", "RUN_DTG": "2024-10-01 02:52:18", "BASIN": "AL", "STMNR": 10, "CAT_ID": null, "CAT_DESC": null, "MSGID": "WTNT25 KNHC 301452", "VALIDTIME": "2024-09-30 06:00:00" }, "geometry": { "type": "Point", "coordinates": [ -32.0, 44.5 ] } },
{ "type": "Feature", "properties": { "ID": 261259, "LAT": 44.6, "LON": -30.0, "VMAX": 50.0, "MSLP": 983.0, "RMAX": 70.0, "FSPD": 6.89617, "FDIR": 72.63876, "RENV": 200.0, "PENV": 1008.0, "VALIDT": 0, "DTG": "2024-09-30 12:00", "LATNOW": 44.6, "LONNOW": -30.0, "WINDNOW": 50.0, "DIRNOW": 7.0, "SPDNOW": 0.0, "TECH": "TRAK", "ADVNR": 19, "ATCFID": "AL102024", "NAME": "ISAAC", "FTECH": "OFCL", "FCST_DTG": "2024-09-30 12:00:00", "RUN_DTG": "2024-10-01 02:52:18", "BASIN": "AL", "STMNR": 10, "CAT_ID": null, "CAT_DESC": null, "MSGID": "WTNT25 KNHC 301452", "VALIDTIME": "2024-09-30 12:00:00" }, "geometry": { "type": "Point", "coordinates": [ -30.0, 44.599998 ] } },
{ "type": "Feature", "properties": { "ID": 261260, "LAT": 44.8, "LON": -29.1, "VMAX": 50.0, "MSLP": 983.0, "RMAX": 70.55504, "FSPD": 8.10604, "FDIR": 59.48828, "RENV": 180.0, "PENV": 1012.0, "VALIDT": 3, "DTG": "2024-09-30 15:00", "LATNOW": 44.6, "LONNOW": -30.0, "WINDNOW": 50.0, "DIRNOW": 7.0, "SPDNOW": 0.0, "TECH": "FCST", "ADVNR": 19, "ATCFID": "AL102024", "NAME": "ISAAC", "FTECH": "OFCL", "FCST_DTG": "2024-09-30 12:00:00", "RUN_DTG": "2024-10-01 02:52:18", "BASIN": "AL", "STMNR": 10, "CAT_ID": null, "CAT_DESC": null, "MSGID": "WTNT25 KNHC 301452", "VALIDTIME": "2024-09-30 15:00:00" }, "geometry": { "type": "Point", "coordinates": [ -29.1, 44.799999 ] } },
{ "type": "Feature", "properties": { "ID": 261261, "LAT": 46.0, "LON": -26.2, "VMAX": 45.0, "MSLP": 1004.66364, "RMAX": 77.17077, "FSPD": 6.15603, "FDIR": 48.04556, "RENV": 300.0, "PENV": 1012.0, "VALIDT": 12, "DTG": "2024-10-01 00:00", "LATNOW": 44.6, "LONNOW": -30.0, "WINDNOW": 50.0, "DIRNOW": 7.0, "SPDNOW": 0.0, "TECH": "FCST", "ADVNR": 19, "ATCFID": "AL102024", "NAME": "ISAAC", "FTECH": "OFCL", "FCST_DTG": "2024-09-30 12:00:00", "RUN_DTG": "2024-10-01 02:52:18", "BASIN": "AL", "STMNR": 10, "CAT_ID": null, "CAT_DESC": null, "MSGID": "WTNT25 KNHC 301452", "VALIDTIME": "2024-10-01 00:00:00" }, "geometry": { "type": "Point", "coordinates": [ -26.200001, 46.0 ] } },
{ "type": "Feature", "properties": { "ID": 261262, "LAT": 47.6, "LON": -23.6, "VMAX": 40.0, "MSLP": 1006.833, "RMAX": 78.75726, "FSPD": 5.15487, "FDIR": 31.97476, "RENV": 300.0, "PENV": 1012.0, "VALIDT": 24, "DTG": "2024-10-01 12:00", "LATNOW": 44.6, "LONNOW": -30.0, "WINDNOW": 50.0, "DIRNOW": 7.0, "SPDNOW": 0.0, "TECH": "FCST", "ADVNR": 19, "ATCFID": "AL102024", "NAME": "ISAAC", "FTECH": "OFCL", "FCST_DTG": "2024-09-30 12:00:00", "RUN_DTG": "2024-10-01 02:52:18", "BASIN": "AL", "STMNR": 10, "CAT_ID": null, "CAT_DESC": null, "MSGID": "WTNT25 KNHC 301452", "VALIDTIME": "2024-10-01 12:00:00" }, "geometry": { "type": "Point", "coordinates": [ -23.6, 47.599998 ] } },
{ "type": "Feature", "properties": { "ID": 261263, "LAT": 49.3, "LON": -22.0, "VMAX": 35.0, "MSLP": 1008.74713, "RMAX": 78.75726, "FSPD": 3.97632, "FDIR": 32.75949, "RENV": 180.0, "PENV": 1012.0, "VALIDT": 36, "DTG": "2024-10-02 00:00", "LATNOW": 44.6, "LONNOW": -30.0, "WINDNOW": 50.0, "DIRNOW": 7.0, "SPDNOW": 0.0, "TECH": "FCST", "ADVNR": 19, "ATCFID": "AL102024", "NAME": "ISAAC", "FTECH": "OFCL", "FCST_DTG": "2024-09-30 12:00:00", "RUN_DTG": "2024-10-01 02:52:18", "BASIN": "AL", "STMNR": 10, "CAT_ID": null, "CAT_DESC": null, "MSGID": "WTNT25 KNHC 301452", "VALIDTIME": "2024-10-02 00:00:00" }, "geometry": { "type": "Point", "coordinates": [ -22.0, 49.299999 ] } },
{ "type": "Feature", "properties": { "ID": 261264, "LAT": 50.6, "LON": -20.7, "VMAX": 35.0, "MSLP": 1008.74713, "RMAX": 78.75726, "FSPD": 4.24707, "FDIR": 32.01538, "RENV": 300.0, "PENV": 1012.0, "VALIDT": 48, "DTG": "2024-10-02 12:00", "LATNOW": 44.6, "LONNOW": -30.0, "WINDNOW": 50.0, "DIRNOW": 7.0, "SPDNOW": 0.0, "TECH": "FCST", "ADVNR": 19, "ATCFID": "AL102024", "NAME": "ISAAC", "FTECH": "OFCL", "FCST_DTG": "2024-09-30 12:00:00", "RUN_DTG": "2024-10-01 02:52:18", "BASIN": "AL", "STMNR": 10, "CAT_ID": null, "CAT_DESC": null, "MSGID": "WTNT25 KNHC 301452", "VALIDTIME": "2024-10-02 12:00:00" }, "geometry": { "type": "Point", "coordinates": [ -20.700001, 50.599998 ] } },
{ "type": "Feature", "properties": { "ID": 261265, "LAT": 52.0, "LON": -19.3, "VMAX": 35.0, "MSLP": 1008.74713, "RMAX": 78.75726, "FSPD": 5.85059, "FDIR": 28.44144, "RENV": 180.0, "PENV": 1012.0, "VALIDT": 60, "DTG": "2024-10-03 00:00", "LATNOW": 44.6, "LONNOW": -30.0, "WINDNOW": 50.0, "DIRNOW": 7.0, "SPDNOW": 0.0, "TECH": "FCST", "ADVNR": 19, "ATCFID": "AL102024", "NAME": "ISAAC", "FTECH": "OFCL", "FCST_DTG": "2024-09-30 12:00:00", "RUN_DTG": "2024-10-01 02:52:18", "BASIN": "AL", "STMNR": 10, "CAT_ID": null, "CAT_DESC": null, "MSGID": "WTNT25 KNHC 301452", "VALIDTIME": "2024-10-03 00:00:00" }, "geometry": { "type": "Point", "coordinates": [ -19.299999, 52.0 ] } },
{ "type": "Feature", "properties": { "ID": 261266, "LAT": 54.0, "LON": -17.5, "VMAX": 30.0, "MSLP": 1010.40607, "RMAX": 78.75726, "FSPD": 5.85059, "FDIR": 28.44144, "RENV": 250.0, "PENV": 1012.0, "VALIDT": 72, "DTG": "2024-10-03 12:00", "LATNOW": 44.6, "LONNOW": -30.0, "WINDNOW": 50.0, "DIRNOW": 7.0, "SPDNOW": 0.0, "TECH": "FCST", "ADVNR": 19, "ATCFID": "AL102024", "NAME": "ISAAC", "FTECH": "OFCL", "FCST_DTG": "2024-09-30 12:00:00", "RUN_DTG": "2024-10-01 02:52:18", "BASIN": "AL", "STMNR": 10, "CAT_ID": null, "CAT_DESC": null, "MSGID": "WTNT25 KNHC 301452", "VALIDTIME": "2024-10-03 12:00:00" }, "geometry": { "type": "Point", "coordinates": [ -17.5, 54.0 ] } },
{ "type": "Feature", "properties": { "ID": 261259, "LAT": 44.6, "LON": -30.0, "VMAX": 50.0, "MSLP": 983.0, "RMAX": 70.0, "FSPD": 6.89617, "FDIR": 72.63876, "RENV": 200.0, "PENV": 1008.0, "VALIDT": 0, "DTG": "2024-09-30 12:00", "LATNOW": 44.6, "LONNOW": -30.0, "WINDNOW": 50.0, "DIRNOW": 7.0, "SPDNOW": 0.0, "TECH": "TRAK", "ADVNR": 19, "ATCFID": "AL102024", "NAME": "ISAAC", "FTECH": "OFCL", "FCST_DTG": "2024-09-30 12:00:00", "RUN_DTG": "2024-10-01 02:52:18", "BASIN": "AL", "STMNR": 10, "CAT_ID": null, "CAT_DESC": null, "MSGID": "WTNT25 KNHC 301452", "VALIDTIME": "2024-09-30 12:00:00" }, "geometry": { "type": "LineString", "coordinates": [ [ -58.5, 37.3 ], [ -57.4, 37.1 ], [ -56.0, 37.0 ], [ -54.7, 37.0 ], [ -53.4, 37.1 ], [ -52.3, 37.2 ], [ -51.2, 37.4 ], [ -50.3, 37.1 ], [ -49.2, 37.0 ], [ -47.7, 37.1 ], [ -46.2, 37.5 ], [ -44.3, 37.9 ], [ -42.2, 38.8 ], [ -40.4, 39.7 ], [ -39.0, 40.8 ], [ -38.0, 41.7 ], [ -37.0, 42.3 ], [ -36.2, 42.9 ], [ -35.5, 43.5 ], [ -33.7, 44.1 ], [ -32.0, 44.5 ], [ -30.0, 44.6 ] ] } },
{ "type": "Feature", "properties": { "ID": 261266, "LAT": 54.0, "LON": -17.5, "VMAX": 30.0, "MSLP": 1010.40607, "RMAX": 78.75726, "FSPD": 5.85059, "FDIR": 28.44144, "RENV": 250.0, "PENV": 1012.0, "VALIDT": 72, "DTG": "2024-10-03 12:00", "LATNOW": 44.6, "LONNOW": -30.0, "WINDNOW": 50.0, "DIRNOW": 7.0, "SPDNOW": 0.0, "TECH": "FCST", "ADVNR": 19, "ATCFID": "AL102024", "NAME": "ISAAC", "FTECH": "OFCL", "FCST_DTG": "2024-09-30 12:00:00", "RUN_DTG": "2024-10-01 02:52:18", "BASIN": "AL", "STMNR": 10, "CAT_ID": null, "CAT_DESC": null, "MSGID": "WTNT25 KNHC 301452", "VALIDTIME": "2024-10-03 12:00:00" }, "geometry": { "type": "LineString", "coordinates": [ [ -30.0, 44.6 ], [ -29.1, 44.8 ], [ -26.2, 46.0 ], [ -23.6, 47.6 ], [ -22.0, 49.3 ], [ -20.7, 50.6 ], [ -19.3, 52.0 ], [ -17.5, 54.0 ] ] } }
]
}
