{
"type": "FeatureCollection",
"crs": { "type": "name", "properties": { "name": "urn:ogc:def:crs:OGC:1.3:CRS84" } },
"features": [
{ "type": "Feature", "properties": { "ID": 332336, "LAT": 9.0, "LON": -89.7, "VMAX": 30.0, "MSLP": 1009.0, "RMAX": 120.0, "FSPD": 2.09682, "FDIR": 255.79767, "RENV": 200.0, "PENV": 1011.0, "VALIDT": 0, "DTG": "2025-06-24 06:00", "LATNOW": 20.9, "LONNOW": -112.0, "WINDNOW": 35.0, "DIRNOW": 5.0, "SPDNOW": 2.0, "TECH": "TRAK", "ADVNR": 19, "ATCFID": "EP062025", "NAME": "FLOSSIE", "FTECH": "OFCL", "FCST_DTG": "2025-07-03 18:00:00", "RUN_DTG": "2025-07-04 08:18:12", "BASIN": "EP", "STMNR": 6, "CAT_ID": null, "CAT_DESC": null, "MSGID": "WTPZ21 KNHC 032029", "VALIDTIME": "2025-06-24 06:00:00" }, "geometry": { "type": "Point", "coordinates": [ -89.699997, 9.0 ] } },
{ "type": "Feature", "properties": { "ID": 332337, "LAT": 8.9, "LON": -90.1, "VMAX": 30.0, "MSLP": 1008.0, "RMAX": 120.0, "FSPD": 3.09217, "FDIR": 279.57684, "RENV": 190.0, "PENV": 1011.0, "VALIDT": 0, "DTG": "2025-06-24 12:00", "LATNOW": 20.9, "LONNOW": -112.0, "WINDNOW": 35.0, "DIRNOW": 5.0, "SPDNOW": 2.0, "TECH": "TRAK", "ADVNR": 19, "ATCFID": "EP062025", "NAME": "FLOSSIE", "FTECH": "OFCL", "FCST_DTG": "2025-07-03 18:00:00", "RUN_DTG": "2025-07-04 08:18:12", "BASIN": "EP", "STMNR": 6, "CAT_ID": null, "CAT_DESC": null, "MSGID": "WTPZ21 KNHC 032029", "VALIDTIME": "2025-06-24 12:00:00" }, "geometry": { "type": "Point", "coordinates": [ -90.099998, 8.9 ] } },
{ "type": "Feature", "properties": { "ID": 332338, "LAT": 9.0, "LON": -90.7, "VMAX": 30.0, "MSLP": 1008.0, "RMAX": 75.0, "FSPD": 2.16877, "FDIR": 315.36658, "RENV": 180.0, "PENV": 1011.0, "VALIDT": 0, "DTG": "2025-06-24 18:00", "LATNOW": 20.9, "LONNOW": -112.0, "WINDNOW": 35.0, "DIRNOW": 5.0, "SPDNOW": 2.0, "TECH": "TRAK", "ADVNR": 19, "ATCFID": "EP062025", "NAME": "FLOSSIE", "FTECH": "OFCL", "FCST_DTG": "2025-07-03 18:00:00", "RUN_DTG": "2025-07-04 08:18:12", "BASIN": "EP", "STMNR": 6, "CAT_ID": null, "CAT_DESC": null, "MSGID": "WTPZ21 KNHC 032029", "VALIDTIME": "2025-06-24 18:00:00" }, "geometry": { "type": "Point", "coordinates": [ -90.699997, 9.0 ] } },
{ "type": "Feature", "properties": { "ID": 332339, "LAT": 9.3, "LON": -91.0, "VMAX": 30.0, "MSLP": 1006.0, "RMAX": 70.0, "FSPD": 4.389, "FDIR": 234.12202, "RENV": 180.0, "PENV": 1010.0, "VALIDT": 0, "DTG": "2025-06-25 00:00", "LATNOW": 20.9, "LONNOW": -112.0, "WINDNOW": 35.0, "DIRNOW": 5.0, "SPDNOW": 2.0, "TECH": "TRAK", "ADVNR": 19, "ATCFID": "EP062025", "NAME": "FLOSSIE", "FTECH": "OFCL", "FCST_DTG": "2025-07-03 18:00:00", "RUN_DTG": "2025-07-04 08:18:12", "BASIN": "EP", "STMNR": 6, "CAT_ID": null, "CAT_DESC": null, "MSGID": "WTPZ21 KNHC 032029", "VALIDTIME": "2025-06-25 00:00:00" }, "geometry": { "type": "Point", "coordinates": [ -91.0, 9.3 ] } },
{ "type": "Feature", "properties": { "ID": 332340, "LAT": 8.8, "LON": -91.7, "VMAX": 30.0, "MSLP": 1007.0, "RMAX": 70.0, "FSPD": 2.54194, "FDIR": 269.99997, "RENV": 180.0, "PENV": 1010.0, "VALIDT": 0, "DTG": "2025-06-25 06:00", "LATNOW": 20.9, "LONNOW": -112.0, "WINDNOW": 35.0, "DIRNOW": 5.0, "SPDNOW": 2.0, "TECH": "TRAK", "ADVNR": 19, "ATCFID": "EP062025", "NAME": "FLOSSIE", "FTECH": "OFCL", "FCST_DTG": "2025-07-03 18:00:00", "RUN_DTG": "2025-07-04 08:18:12", "BASIN": "EP", "STMNR": 6, "CAT_ID": null, "CAT_DESC": null, "MSGID": "WTPZ21 KNHC 032029", "VALIDTIME": "2025-06-25 06:00:00" }, "geometry": { "type": "Point", "coordinates": [ -91.699997, 8.8 ] } },
{ "type": "Feature", "properties": { "ID": 332341, "LAT": 8.8, "LON": -92.2, "VMAX": 30.0, "MSLP": 1007.0, "RMAX": 80.0, "FSPD": 2.05778, "FDIR": 360.0, "RENV": 200.0, "PENV": 1010.0, "VALIDT": 0, "DTG": "2025-06-25 12:00", "LATNOW": 20.9, "LONNOW": -112.0, "WINDNOW": 35.0, "DIRNOW": 5.0, "SPDNOW": 2.0, "TECH": "TRAK", "ADVNR": 19, "ATCFID": "EP062025", "NAME": "FLOSSIE", "FTECH": "OFCL", "FCST_DTG": "2025-07-03 18:00:00", "RUN_DTG": "2025-07-04 08:18:12", "BASIN": "EP", "STMNR": 6, "CAT_ID": null, "CAT_DESC": null, "MSGID": "WTPZ21 KNHC 032029", "VALIDTIME": "2025-06-25 12:00:00" }, "geometry": { "type": "Point", "coordinates": [ -92.199997, 8.8 ] } },
{ "type": "Feature", "properties": { "ID": 332342, "LAT": 9.2, "LON": -92.2, "VMAX": 25.0, "MSLP": 1007.0, "RMAX": 100.0, "FSPD": 3.87398, "FDIR": 293.47717, "RENV": 200.0, "PENV": 1010.0, "VALIDT": 0, "DTG": "2025-06-25 18:00", "LATNOW": 20.9, "LONNOW": -112.0, "WINDNOW": 35.0, "DIRNOW": 5.0, "SPDNOW": 2.0, "TECH": "TRAK", "ADVNR": 19, "ATCFID": "EP062025", "NAME": "FLOSSIE", "FTECH": "OFCL", "FCST_DTG": "2025-07-03 18:00:00", "RUN_DTG": "2025-07-04 08:18:12", "BASIN": "EP", "STMNR": 6, "CAT_ID": null, "CAT_DESC": null, "MSGID": "WTPZ21 KNHC 032029", "VALIDTIME": "2025-06-25 18:00:00" }, "geometry": { "type": "Point", "coordinates": [ -92.199997, 9.2 ] } },
{ "type": "Feature", "properties": { "ID": 332343, "LAT": 9.5, "LON": -92.9, "VMAX": 25.0, "MSLP": 1007.0, "RMAX": 100.0, "FSPD": 1.4449, "FDIR": 315.40442, "RENV": 200.0, "PENV": 1010.0, "VALIDT": 0, "DTG": "2025-06-26 00:00", "LATNOW": 20.9, "LONNOW": -112.0, "WINDNOW": 35.0, "DIRNOW": 5.0, "SPDNOW": 2.0, "TECH": "TRAK", "ADVNR": 19, "ATCFID": "EP062025", "NAME": "FLOSSIE", "FTECH": "OFCL", "FCST_DTG": "2025-07-03 18:00:00", "RUN_DTG": "2025-07-04 08:18:12", "BASIN": "EP", "STMNR": 6, "CAT_ID": null, "CAT_DESC": null, "MSGID": "WTPZ21 KNHC 032029", "VALIDTIME": "2025-06-26 00:00:00" }, "geometry": { "type": "Point", "coordinates": [ -92.900002, 9.5 ] } },
{ "type": "Feature", "properties": { "ID": 332344, "LAT": 9.7, "LON": -93.1, "VMAX": 25.0, "MSLP": 1007.0, "RMAX": 100.0, "FSPD": 6.76754, "FDIR": 283.18225, "RENV": 200.0, "PENV": 1010.0, "VALIDT": 0, "DTG": "2025-06-26 06:00", "LATNOW": 20.9, "LONNOW": -112.0, "WINDNOW": 35.0, "DIRNOW": 5.0, "SPDNOW": 2.0, "TECH": "TRAK", "ADVNR": 19, "ATCFID": "EP062025", "NAME": "FLOSSIE", "FTECH": "OFCL", "FCST_DTG": "2025-07-03 18:00:00", "RUN_DTG": "2025-07-04 08:18:12", "BASIN": "EP", "STMNR": 6, "CAT_ID": null, "CAT_DESC": null, "MSGID": "WTPZ21 KNHC 032029", "VALIDTIME": "2025-06-26 06:00:00" }, "geometry": { "type": "Point", "coordinates": [ -93.099998, 9.7 ] } },
{ "type": "Feature", "properties": { "ID": 332345, "LAT": 10.0, "LON": -94.4, "VMAX": 25.0, "MSLP": 1007.0, "RMAX": 100.0, "FSPD": 2.02652, "FDIR": 269.99997, "RENV": 225.0, "PENV": 1010.0, "VALIDT": 0, "DTG": "2025-06-26 12:00", "LATNOW": 20.9, "LONNOW": -112.0, "WINDNOW": 35.0, "DIRNOW": 5.0, "SPDNOW": 2.0, "TECH": "TRAK", "ADVNR": 19, "ATCFID": "EP062025", "NAME": "FLOSSIE", "FTECH": "OFCL", "FCST_DTG": "2025-07-03 18:00:00", "RUN_DTG": "2025-07-04 08:18:12", "BASIN": "EP", "STMNR": 6, "CAT_ID": null, "CAT_DESC": null, "MSGID": "WTPZ21 KNHC 032029", "VALIDTIME": "2025-06-26 12:00:00" }, "geometry": { "type": "Point", "coordinates": [ -94.400002, 10.0 ] } },
{ "type": "Feature", "properties": { "ID": 332346, "LAT": 10.0, "LON": -94.8, "VMAX": 25.0, "MSLP": 1007.0, "RMAX": 100.0, "FSPD": 2.58524, "FDIR": 258.52185, "RENV": 225.0, "PENV": 1010.0, "VALIDT": 0, "DTG": "2025-06-26 18:00", "LATNOW": 20.9, "LONNOW": -112.0, "WINDNOW": 35.0, "DIRNOW": 5.0, "SPDNOW": 2.0, "TECH": "TRAK", "ADVNR": 19, "ATCFID": "EP062025", "NAME": "FLOSSIE", "FTECH": "OFCL", "FCST_DTG": "2025-07-03 18:00:00", "RUN_DTG": "2025-07-04 08:18:12", "BASIN": "EP", "STMNR": 6, "CAT_ID": null, "CAT_DESC": null, "MSGID": "WTPZ21 KNHC 032029", "VALIDTIME": "2025-06-26 18:00:00" }, "geometry": { "type": "Point", "coordinates": [ -94.800003, 10.0 ] } },
{ "type": "Feature", "properties": { "ID": 332347, "LAT": 9.9, "LON": -95.3, "VMAX": 25.0, "MSLP": 1007.0, "RMAX": 100.0, "FSPD": 1.13677, "FDIR": 243.09282, "RENV": 225.0, "PENV": 1010.0, "VALIDT": 0, "DTG": "2025-06-27 00:00", "LATNOW": 20.9, "LONNOW": -112.0, "WINDNOW": 35.0, "DIRNOW": 5.0, "SPDNOW": 2.0, "TECH": "TRAK", "ADVNR": 19, "ATCFID": "EP062025", "NAME": "FLOSSIE", "FTECH": "OFCL", "FCST_DTG": "2025-07-03 18:00:00", "RUN_DTG": "2025-07-04 08:18:12", "BASIN": "EP", "STMNR": 6, "CAT_ID": null, "CAT_DESC": null, "MSGID": "WTPZ21 KNHC 032029", "VALIDTIME": "2025-06-27 00:00:00" }, "geometry": { "type": "Point", "coordinates": [ -95.300003, 9.9 ] } },
{ "type": "Feature", "properties": { "ID": 332348, "LAT": 9.8, "LON": -95.5, "VMAX": 25.0, "MSLP": 1007.0, "RMAX": 140.0, "FSPD": 2.29371, "FDIR": 26.21548, "RENV": 230.0, "PENV": 1010.0, "VALIDT": 0, "DTG": "2025-06-27 06:00", "LATNOW": 20.9, "LONNOW": -112.0, "WINDNOW": 35.0, "DIRNOW": 5.0, "SPDNOW": 2.0, "TECH": "TRAK", "ADVNR": 19, "ATCFID": "EP062025", "NAME": "FLOSSIE", "FTECH": "OFCL", "FCST_DTG": "2025-07-03 18:00:00", "RUN_DTG": "2025-07-04 08:18:12", "BASIN": "EP", "STMNR": 6, "CAT_ID": null, "CAT_DESC": null, "MSGID": "WTPZ21 KNHC 032029", "VALIDTIME": "2025-06-27 06:00:00" }, "geometry": { "type": "Point", "coordinates": [ -95.5, 9.8 ] } },
{ "type": "Feature", "properties": { "ID": 332349, "LAT": 10.2, "LON": -95.3, "VMAX": 25.0, "MSLP": 1008.0, "RMAX": 140.0, "FSPD": 5.77084, "FDIR": 44.50702, "RENV": 230.0, "PENV": 1010.0, "VALIDT": 0, "DTG": "2025-06-27 12:00", "LATNOW": 20.9, "LONNOW": -112.0, "WINDNOW": 35.0, "DIRNOW": 5.0, "SPDNOW": 2.0, "TECH": "TRAK", "ADVNR": 19, "ATCFID": "EP062025", "NAME": "FLOSSIE", "FTECH": "OFCL", "FCST_DTG": "2025-07-03 18:00:00", "RUN_DTG": "2025-07-04 08:18:12", "BASIN": "EP", "STMNR": 6, "CAT_ID": null, "CAT_DESC": null, "MSGID": "WTPZ21 KNHC 032029", "VALIDTIME": "2025-06-27 12:00:00" }, "geometry": { "type": "Point", "coordinates": [ -95.300003, 10.2 ] } },
{ "type": "Feature", "properties": { "ID": 332350, "LAT": 11.0, "LON": -94.5, "VMAX": 25.0, "MSLP": 1009.0, "RMAX": 120.0, "FSPD": 4.63, "FDIR": 360.0, "RENV": 230.0, "PENV": 1011.0, "VALIDT": 0, "DTG": "2025-06-27 18:00", "LATNOW": 20.9, "LONNOW": -112.0, "WINDNOW": 35.0, "DIRNOW": 5.0, "SPDNOW": 2.0, "TECH": "TRAK", "ADVNR": 19, "ATCFID": "EP062025", "NAME": "FLOSSIE", "FTECH": "OFCL", "FCST_DTG": "2025-07-03 18:00:00", "RUN_DTG": "2025-07-04 08:18:12", "BASIN": "EP", "STMNR": 6, "CAT_ID": null, "CAT_DESC": null, "MSGID": "WTPZ21 KNHC 032029", "VALIDTIME": "2025-06-27 18:00:00" }, "geometry": { "type": "Point", "coordinates": [ -94.5, 11.0 ] } },
{ "type": "Feature", "properties": { "ID": 332351, "LAT": 11.9, "LON": -94.5, "VMAX": 25.0, "MSLP": 1008.0, "RMAX": 120.0, "FSPD": 3.981, "FDIR": 320.83673, "RENV": 230.0, "PENV": 1011.0, "VALIDT": 0, "DTG": "2025-06-28 00:00", "LATNOW": 20.9, "LONNOW": -112.0, "WINDNOW": 35.0, "DIRNOW": 5.0, "SPDNOW": 2.0, "TECH": "TRAK", "ADVNR": 19, "ATCFID": "EP062025", "NAME": "FLOSSIE", "FTECH": "OFCL", "FCST_DTG": "2025-07-03 18:00:00", "RUN_DTG": "2025-07-04 08:18:12", "BASIN": "EP", "STMNR": 6, "CAT_ID": null, "CAT_DESC": null, "MSGID": "WTPZ21 KNHC 032029", "VALIDTIME": "2025-06-28 00:00:00" }, "geometry": { "type": "Point", "coordinates": [ -94.5, 11.9 ] } },
{ "type": "Feature", "properties": { "ID": 332352, "LAT": 12.5, "LON": -95.0, "VMAX": 25.0, "MSLP": 1008.0, "RMAX": 120.0, "FSPD": 5.63849, "FDIR": 297.14148, "RENV": 230.0, "PENV": 1011.0, "VALIDT": 0, "DTG": "2025-06-28 06:00", "LATNOW": 20.9, "LONNOW": -112.0, "WINDNOW": 35.0, "DIRNOW": 5.0, "SPDNOW": 2.0, "TECH": "TRAK", "ADVNR": 19, "ATCFID": "EP062025", "NAME": "FLOSSIE", "FTECH": "OFCL", "FCST_DTG": "2025-07-03 18:00:00", "RUN_DTG": "2025-07-04 08:18:12", "BASIN": "EP", "STMNR": 6, "CAT_ID": null, "CAT_DESC": null, "MSGID": "WTPZ21 KNHC 032029", "VALIDTIME": "2025-06-28 06:00:00" }, "geometry": { "type": "Point", "coordinates": [ -95.0, 12.5 ] } },
{ "type": "Feature", "properties": { "ID": 332353, "LAT": 13.0, "LON": -96.0, "VMAX": 25.0, "MSLP": 1008.0, "RMAX": 120.0, "FSPD": 6.35272, "FDIR": 288.90015, "RENV": 230.0, "PENV": 1011.0, "VALIDT": 0, "DTG": "2025-06-28 12:00", "LATNOW": 20.9, "LONNOW": -112.0, "WINDNOW": 35.0, "DIRNOW": 5.0, "SPDNOW": 2.0, "TECH": "TRAK", "ADVNR": 19, "ATCFID": "EP062025", "NAME": "FLOSSIE", "FTECH": "OFCL", "FCST_DTG": "2025-07-03 18:00:00", "RUN_DTG": "2025-07-04 08:18:12", "BASIN": "EP", "STMNR": 6, "CAT_ID": null, "CAT_DESC": null, "MSGID": "WTPZ21 KNHC 032029", "VALIDTIME": "2025-06-28 12:00:00" }, "geometry": { "type": "Point", "coordinates": [ -96.0, 13.0 ] } },
{ "type": "Feature", "properties": { "ID": 332354, "LAT": 13.4, "LON": -97.2, "VMAX": 25.0, "MSLP": 1009.0, "RMAX": 120.0, "FSPD": 4.50396, "FDIR": 269.99997, "RENV": 200.0, "PENV": 1011.0, "VALIDT": 0, "DTG": "2025-06-28 18:00", "LATNOW": 20.9, "LONNOW": -112.0, "WINDNOW": 35.0, "DIRNOW": 5.0, "SPDNOW": 2.0, "TECH": "TRAK", "ADVNR": 19, "ATCFID": "EP062025", "NAME": "FLOSSIE", "FTECH": "OFCL", "FCST_DTG": "2025-07-03 18:00:00", "RUN_DTG": "2025-07-04 08:18:12", "BASIN": "EP", "STMNR": 6, "CAT_ID": null, "CAT_DESC": null, "MSGID": "WTPZ21 KNHC 032029", "VALIDTIME": "2025-06-28 18:00:00" }, "geometry": { "type": "Point", "coordinates": [ -97.199997, 13.4 ] } },
{ "type": "Feature", "properties": { "ID": 332355, "LAT": 13.4, "LON": -98.1, "VMAX": 25.0, "MSLP": 1008.0, "RMAX": 120.0, "FSPD": 6.08127, "FDIR": 244.97745, "RENV": 200.0, "PENV": 1011.0, "VALIDT": 0, "DTG": "2025-06-29 00:00", "LATNOW": 20.9, "LONNOW": -112.0, "WINDNOW": 35.0, "DIRNOW": 5.0, "SPDNOW": 2.0, "TECH": "TRAK", "ADVNR": 19, "ATCFID": "EP062025", "NAME": "FLOSSIE", "FTECH": "OFCL", "FCST_DTG": "2025-07-03 18:00:00", "RUN_DTG": "2025-07-04 08:18:12", "BASIN": "EP", "STMNR": 6, "CAT_ID": null, "CAT_DESC": null, "MSGID": "WTPZ21 KNHC 032029", "VALIDTIME": "2025-06-29 00:00:00" }, "geometry": { "type": "Point", "coordinates": [ -98.099998, 13.4 ] } },
{ "type": "Feature", "properties": { "ID": 332356, "LAT": 12.9, "LON": -99.2, "VMAX": 25.0, "MSLP": 1008.0, "RMAX": 100.0, "FSPD": 2.94293, "FDIR": 301.6292, "RENV": 190.0, "PENV": 1011.0, "VALIDT": 0, "DTG": "2025-06-29 06:00", "LATNOW": 20.9, "LONNOW": -112.0, "WINDNOW": 35.0, "DIRNOW": 5.0, "SPDNOW": 2.0, "TECH": "TRAK", "ADVNR": 19, "ATCFID": "EP062025", "NAME": "FLOSSIE", "FTECH": "OFCL", "FCST_DTG": "2025-07-03 18:00:00", "RUN_DTG": "2025-07-04 08:18:12", "BASIN": "EP", "STMNR": 6, "CAT_ID": null, "CAT_DESC": null, "MSGID": "WTPZ21 KNHC 032029", "VALIDTIME": "2025-06-29 06:00:00" }, "geometry": { "type": "Point", "coordinates": [ -99.199997, 12.9 ] } },
{ "type": "Feature", "properties": { "ID": 332357, "LAT": 13.2, "LON": -99.7, "VMAX": 35.0, "MSLP": 1005.0, "RMAX": 90.0, "FSPD": 2.25144, "FDIR": 297.19305, "RENV": 190.0, "PENV": 1011.0, "VALIDT": 0, "DTG": "2025-06-29 12:00", "LATNOW": 20.9, "LONNOW": -112.0, "WINDNOW": 35.0, "DIRNOW": 5.0, "SPDNOW": 2.0, "TECH": "TRAK", "ADVNR": 19, "ATCFID": "EP062025", "NAME": "FLOSSIE", "FTECH": "OFCL", "FCST_DTG": "2025-07-03 18:00:00", "RUN_DTG": "2025-07-04 08:18:12", "BASIN": "EP", "STMNR": 6, "CAT_ID": null, "CAT_DESC": null, "MSGID": "WTPZ21 KNHC 032029", "VALIDTIME": "2025-06-29 12:00:00" }, "geometry": { "type": "Point", "coordinates": [ -99.699997, 13.2 ] } },
{ "type": "Feature", "properties": { "ID": 332358, "LAT": 13.4, "LON": -100.1, "VMAX": 35.0, "MSLP": 1005.0, "RMAX": 90.0, "FSPD": 3.37437, "FDIR": 297.21753, "RENV": 190.0, "PENV": 1011.0, "VALIDT": 0, "DTG": "2025-06-29 18:00", "LATNOW": 20.9, "LONNOW": -112.0, "WINDNOW": 35.0, "DIRNOW": 5.0, "SPDNOW": 2.0, "TECH": "TRAK", "ADVNR": 19, "ATCFID": "EP062025", "NAME": "FLOSSIE", "FTECH": "OFCL", "FCST_DTG": "2025-07-03 18:00:00", "RUN_DTG": "2025-07-04 08:18:12", "BASIN": "EP", "STMNR": 6, "CAT_ID": null, "CAT_DESC": null, "MSGID": "WTPZ21 KNHC 032029", "VALIDTIME": "2025-06-29 18:00:00" }, "geometry": { "type": "Point", "coordinates": [ -100.099998, 13.4 ] } },
{ "type": "Feature", "properties": { "ID": 332359, "LAT": 13.7, "LON": -100.7, "VMAX": 35.0, "MSLP": 1005.0, "RMAX": 90.0, "FSPD": 5.08921, "FDIR": 323.9674, "RENV": 190.0, "PENV": 1011.0, "VALIDT": 0, "DTG": "2025-06-30 00:00", "LATNOW": 20.9, "LONNOW": -112.0, "WINDNOW": 35.0, "DIRNOW": 5.0, "SPDNOW": 2.0, "TECH": "TRAK", "ADVNR": 19, "ATCFID": "EP062025", "NAME": "FLOSSIE", "FTECH": "OFCL", "FCST_DTG": "2025-07-03 18:00:00", "RUN_DTG": "2025-07-04 08:18:12", "BASIN": "EP", "STMNR": 6, "CAT_ID": null, "CAT_DESC": null, "MSGID": "WTPZ21 KNHC 032029", "VALIDTIME": "2025-06-30 00:00:00" }, "geometry": { "type": "Point", "coordinates": [ -100.699997, 13.7 ] } },
{ "type": "Feature", "properties": { "ID": 332360, "LAT": 14.5, "LON": -101.3, "VMAX": 40.0, "MSLP": 1004.0, "RMAX": 40.0, "FSPD": 5.72325, "FDIR": 315.9798, "RENV": 180.0, "PENV": 1010.0, "VALIDT": 0, "DTG": "2025-06-30 06:00", "LATNOW": 20.9, "LONNOW": -112.0, "WINDNOW": 35.0, "DIRNOW": 5.0, "SPDNOW": 2.0, "TECH": "TRAK", "ADVNR": 19, "ATCFID": "EP062025", "NAME": "FLOSSIE", "FTECH": "OFCL", "FCST_DTG": "2025-07-03 18:00:00", "RUN_DTG": "2025-07-04 08:18:12", "BASIN": "EP", "STMNR": 6, "CAT_ID": null, "CAT_DESC": null, "MSGID": "WTPZ21 KNHC 032029", "VALIDTIME": "2025-06-30 06:00:00" }, "geometry": { "type": "Point", "coordinates": [ -101.300003, 14.5 ] } },
{ "type": "Feature", "properties": { "ID": 332361, "LAT": 15.3, "LON": -102.1, "VMAX": 45.0, "MSLP": 999.0, "RMAX": 40.0, "FSPD": 6.26375, "FDIR": 299.52356, "RENV": 150.0, "PENV": 1009.0, "VALIDT": 0, "DTG": "2025-06-30 12:00", "LATNOW": 20.9, "LONNOW": -112.0, "WINDNOW": 35.0, "DIRNOW": 5.0, "SPDNOW": 2.0, "TECH": "TRAK", "ADVNR": 19, "ATCFID": "EP062025", "NAME": "FLOSSIE", "FTECH": "OFCL", "FCST_DTG": "2025-07-03 18:00:00", "RUN_DTG": "2025-07-04 08:18:12", "BASIN": "EP", "STMNR": 6, "CAT_ID": null, "CAT_DESC": null, "MSGID": "WTPZ21 KNHC 032029", "VALIDTIME": "2025-06-30 12:00:00" }, "geometry": { "type": "Point", "coordinates": [ -102.099998, 15.3 ] } },
{ "type": "Feature", "properties": { "ID": 332362, "LAT": 15.9, "LON": -103.2, "VMAX": 55.0, "MSLP": 996.0, "RMAX": 40.0, "FSPD": 4.31059, "FDIR": 306.63547, "RENV": 130.0, "PENV": 1009.0, "VALIDT": 0, "DTG": "2025-06-30 18:00", "LATNOW": 20.9, "LONNOW": -112.0, "WINDNOW": 35.0, "DIRNOW": 5.0, "SPDNOW": 2.0, "TECH": "TRAK", "ADVNR": 19, "ATCFID": "EP062025", "NAME": "FLOSSIE", "FTECH": "OFCL", "FCST_DTG": "2025-07-03 18:00:00", "RUN_DTG": "2025-07-04 08:18:12", "BASIN": "EP", "STMNR": 6, "CAT_ID": null, "CAT_DESC": null, "MSGID": "WTPZ21 KNHC 032029", "VALIDTIME": "2025-06-30 18:00:00" }, "geometry": { "type": "Point", "coordinates": [ -103.199997, 15.9 ] } },
{ "type": "Feature", "properties": { "ID": 332363, "LAT": 16.4, "LON": -103.9, "VMAX": 65.0, "MSLP": 988.0, "RMAX": 10.0, "FSPD": 4.23617, "FDIR": 291.36597, "RENV": 130.0, "PENV": 1008.0, "VALIDT": 0, "DTG": "2025-07-01 00:00", "LATNOW": 20.9, "LONNOW": -112.0, "WINDNOW": 35.0, "DIRNOW": 5.0, "SPDNOW": 2.0, "TECH": "TRAK", "ADVNR": 19, "ATCFID": "EP062025", "NAME": "FLOSSIE", "FTECH": "OFCL", "FCST_DTG": "2025-07-03 18:00:00", "RUN_DTG": "2025-07-04 08:18:12", "BASIN": "EP", "STMNR": 6, "CAT_ID": null, "CAT_DESC": null, "MSGID": "WTPZ21 KNHC 032029", "VALIDTIME": "2025-07-01 00:00:00" }, "geometry": { "type": "Point", "coordinates": [ -103.900002, 16.4 ] } },
{ "type": "Feature", "properties": { "ID": 332364, "LAT": 16.7, "LON": -104.7, "VMAX": 70.0, "MSLP": 984.0, "RMAX": 15.0, "FSPD": 4.44308, "FDIR": 297.59, "RENV": 140.0, "PENV": 1009.0, "VALIDT": 0, "DTG": "2025-07-01 06:00", "LATNOW": 20.9, "LONNOW": -112.0, "WINDNOW": 35.0, "DIRNOW": 5.0, "SPDNOW": 2.0, "TECH": "TRAK", "ADVNR": 19, "ATCFID": "EP062025", "NAME": "FLOSSIE", "FTECH": "OFCL", "FCST_DTG": "2025-07-03 18:00:00", "RUN_DTG": "2025-07-04 08:18:12", "BASIN": "EP", "STMNR": 6, "CAT_ID": null, "CAT_DESC": null, "MSGID": "WTPZ21 KNHC 032029", "VALIDTIME": "2025-07-01 06:00:00" }, "geometry": { "type": "Point", "coordinates": [ -104.699997, 16.700001 ] } },
{ "type": "Feature", "properties": { "ID": 332365, "LAT": 17.1, "LON": -105.5, "VMAX": 80.0, "MSLP": 978.0, "RMAX": 15.0, "FSPD": 5.32535, "FDIR": 292.73138, "RENV": 140.0, "PENV": 1009.0, "VALIDT": 0, "DTG": "2025-07-01 12:00", "LATNOW": 20.9, "LONNOW": -112.0, "WINDNOW": 35.0, "DIRNOW": 5.0, "SPDNOW": 2.0, "TECH": "TRAK", "ADVNR": 19, "ATCFID": "EP062025", "NAME": "FLOSSIE", "FTECH": "OFCL", "FCST_DTG": "2025-07-03 18:00:00", "RUN_DTG": "2025-07-04 08:18:12", "BASIN": "EP", "STMNR": 6, "CAT_ID": null, "CAT_DESC": null, "MSGID": "WTPZ21 KNHC 032029", "VALIDTIME": "2025-07-01 12:00:00" }, "geometry": { "type": "Point", "coordinates": [ -105.5, 17.1 ] } },
{ "type": "Feature", "properties": { "ID": 332366, "LAT": 17.5, "LON": -106.5, "VMAX": 95.0, "MSLP": 966.0, "RMAX": 15.0, "FSPD": 3.58904, "FDIR": 304.98413, "RENV": 130.0, "PENV": 1009.0, "VALIDT": 0, "DTG": "2025-07-01 18:00", "LATNOW": 20.9, "LONNOW": -112.0, "WINDNOW": 35.0, "DIRNOW": 5.0, "SPDNOW": 2.0, "TECH": "TRAK", "ADVNR": 19, "ATCFID": "EP062025", "NAME": "FLOSSIE", "FTECH": "OFCL", "FCST_DTG": "2025-07-03 18:00:00", "RUN_DTG": "2025-07-04 08:18:12", "BASIN": "EP", "STMNR": 6, "CAT_ID": null, "CAT_DESC": null, "MSGID": "WTPZ21 KNHC 032029", "VALIDTIME": "2025-07-01 18:00:00" }, "geometry": { "type": "Point", "coordinates": [ -106.5, 17.5 ] } },
{ "type": "Feature", "properties": { "ID": 332367, "LAT": 17.9, "LON": -107.1, "VMAX": 100.0, "MSLP": 962.0, "RMAX": 15.0, "FSPD": 4.68088, "FDIR": 303.33383, "RENV": 130.0, "PENV": 1009.0, "VALIDT": 0, "DTG": "2025-07-02 00:00", "LATNOW": 20.9, "LONNOW": -112.0, "WINDNOW": 35.0, "DIRNOW": 5.0, "SPDNOW": 2.0, "TECH": "TRAK", "ADVNR": 19, "ATCFID": "EP062025", "NAME": "FLOSSIE", "FTECH": "OFCL", "FCST_DTG": "2025-07-03 18:00:00", "RUN_DTG": "2025-07-04 08:18:12", "BASIN": "EP", "STMNR": 6, "CAT_ID": null, "CAT_DESC": null, "MSGID": "WTPZ21 KNHC 032029", "VALIDTIME": "2025-07-02 00:00:00" }, "geometry": { "type": "Point", "coordinates": [ -107.099998, 17.9 ] } },
{ "type": "Feature", "properties": { "ID": 332368, "LAT": 18.4, "LON": -107.9, "VMAX": 100.0, "MSLP": 962.0, "RMAX": 20.0, "FSPD": 4.41009, "FDIR": 297.8142, "RENV": 150.0, "PENV": 1010.0, "VALIDT": 0, "DTG": "2025-07-02 06:00", "LATNOW": 20.9, "LONNOW": -112.0, "WINDNOW": 35.0, "DIRNOW": 5.0, "SPDNOW": 2.0, "TECH": "TRAK", "ADVNR": 19, "ATCFID": "EP062025", "NAME": "FLOSSIE", "FTECH": "OFCL", "FCST_DTG": "2025-07-03 18:00:00", "RUN_DTG": "2025-07-04 08:18:12", "BASIN": "EP", "STMNR": 6, "CAT_ID": null, "CAT_DESC": null, "MSGID": "WTPZ21 KNHC 032029", "VALIDTIME": "2025-07-02 06:00:00" }, "geometry": { "type": "Point", "coordinates": [ -107.900002, 18.4 ] } },
{ "type": "Feature", "properties": { "ID": 332369, "LAT": 18.8, "LON": -108.7, "VMAX": 95.0, "MSLP": 967.0, "RMAX": 20.0, "FSPD": 4.26649, "FDIR": 307.0771, "RENV": 150.0, "PENV": 1010.0, "VALIDT": 0, "DTG": "2025-07-02 12:00", "LATNOW": 20.9, "LONNOW": -112.0, "WINDNOW": 35.0, "DIRNOW": 5.0, "SPDNOW": 2.0, "TECH": "TRAK", "ADVNR": 19, "ATCFID": "EP062025", "NAME": "FLOSSIE", "FTECH": "OFCL", "FCST_DTG": "2025-07-03 18:00:00", "RUN_DTG": "2025-07-04 08:18:12", "BASIN": "EP", "STMNR": 6, "CAT_ID": null, "CAT_DESC": null, "MSGID": "WTPZ21 KNHC 032029", "VALIDTIME": "2025-07-02 12:00:00" }, "geometry": { "type": "Point", "coordinates": [ -108.699997, 18.799999 ] } },
{ "type": "Feature", "properties": { "ID": 332370, "LAT": 19.3, "LON": -109.4, "VMAX": 85.0, "MSLP": 974.0, "RMAX": 20.0, "FSPD": 2.87482, "FDIR": 302.4692, "RENV": 170.0, "PENV": 1011.0, "VALIDT": 0, "DTG": "2025-07-02 18:00", "LATNOW": 20.9, "LONNOW": -112.0, "WINDNOW": 35.0, "DIRNOW": 5.0, "SPDNOW": 2.0, "TECH": "TRAK", "ADVNR": 19, "ATCFID": "EP062025", "NAME": "FLOSSIE", "FTECH": "OFCL", "FCST_DTG": "2025-07-03 18:00:00", "RUN_DTG": "2025-07-04 08:18:12", "BASIN": "EP", "STMNR": 6, "CAT_ID": null, "CAT_DESC": null, "MSGID": "WTPZ21 KNHC 032029", "VALIDTIME": "2025-07-02 18:00:00" }, "geometry": { "type": "Point", "coordinates": [ -109.400002, 19.299999 ] } },
{ "type": "Feature", "properties": { "ID": 332371, "LAT": 19.6, "LON": -109.9, "VMAX": 70.0, "MSLP": 983.0, "RMAX": 20.0, "FSPD": 3.28959, "FDIR": 297.97946, "RENV": 200.0, "PENV": 1009.0, "VALIDT": 0, "DTG": "2025-07-03 00:00", "LATNOW": 20.9, "LONNOW": -112.0, "WINDNOW": 35.0, "DIRNOW": 5.0, "SPDNOW": 2.0, "TECH": "TRAK", "ADVNR": 19, "ATCFID": "EP062025", "NAME": "FLOSSIE", "FTECH": "OFCL", "FCST_DTG": "2025-07-03 18:00:00", "RUN_DTG": "2025-07-04 08:18:12", "BASIN": "EP", "STMNR": 6, "CAT_ID": null, "CAT_DESC": null, "MSGID": "WTPZ21 KNHC 032029", "VALIDTIME": "2025-07-03 00:00:00" }, "geometry": { "type": "Point", "coordinates": [ -109.900002, 19.6 ] } },
{ "type": "Feature", "properties": { "ID": 332372, "LAT": 19.9, "LON": -110.5, "VMAX": 55.0, "MSLP": 994.0, "RMAX": 20.0, "FSPD": 4.37858, "FDIR": 298.03195, "RENV": 220.0, "PENV": 1012.0, "VALIDT": 0, "DTG": "2025-07-03 06:00", "LATNOW": 20.9, "LONNOW": -112.0, "WINDNOW": 35.0, "DIRNOW": 5.0, "SPDNOW": 2.0, "TECH": "TRAK", "ADVNR": 19, "ATCFID": "EP062025", "NAME": "FLOSSIE", "FTECH": "OFCL", "FCST_DTG": "2025-07-03 18:00:00", "RUN_DTG": "2025-07-04 08:18:12", "BASIN": "EP", "STMNR": 6, "CAT_ID": null, "CAT_DESC": null, "MSGID": "WTPZ21 KNHC 032029", "VALIDTIME": "2025-07-03 06:00:00" }, "geometry": { "type": "Point", "coordinates": [ -110.5, 19.9 ] } },
{ "type": "Feature", "properties": { "ID": 332373, "LAT": 20.3, "LON": -111.3, "VMAX": 45.0, "MSLP": 999.0, "RMAX": 20.0, "FSPD": 4.57057, "FDIR": 312.48022, "RENV": 190.0, "PENV": 1010.0, "VALIDT": 0, "DTG": "2025-07-03 12:00", "LATNOW": 20.9, "LONNOW": -112.0, "WINDNOW": 35.0, "DIRNOW": 5.0, "SPDNOW": 2.0, "TECH": "TRAK", "ADVNR": 19, "ATCFID": "EP062025", "NAME": "FLOSSIE", "FTECH": "OFCL", "FCST_DTG": "2025-07-03 18:00:00", "RUN_DTG": "2025-07-04 08:18:12", "BASIN": "EP", "STMNR": 6, "CAT_ID": null, "CAT_DESC": null, "MSGID": "WTPZ21 KNHC 032029", "VALIDTIME": "2025-07-03 12:00:00" }, "geometry": { "type": "Point", "coordinates": [ -111.300003, 20.299999 ] } },
{ "type": "Feature", "properties": { "ID": 332374, "LAT": 20.9, "LON": -112.0, "VMAX": 35.0, "MSLP": 1003.0, "RMAX": 25.0, "FSPD": 4.92751, "FDIR": 308.78632, "RENV": 190.0, "PENV": 1010.0, "VALIDT": 0, "DTG": "2025-07-03 18:00", "LATNOW": 20.9, "LONNOW": -112.0, "WINDNOW": 35.0, "DIRNOW": 5.0, "SPDNOW": 2.0, "TECH": "TRAK", "ADVNR": 19, "ATCFID": "EP062025", "NAME": "FLOSSIE", "FTECH": "OFCL", "FCST_DTG": "2025-07-03 18:00:00", "RUN_DTG": "2025-07-04 08:18:12", "BASIN": "EP", "STMNR": 6, "CAT_ID": null, "CAT_DESC": null, "MSGID": "WTPZ21 KNHC 032029", "VALIDTIME": "2025-07-03 18:00:00" }, "geometry": { "type": "Point", "coordinates": [ -112.0, 20.9 ] } },
{ "type": "Feature", "properties": { "ID": 332375, "LAT": 21.2, "LON": -112.4, "VMAX": 35.0, "MSLP": 1003.0, "RMAX": 25.0, "FSPD": 4.67148, "FDIR": 311.35687, "RENV": 250.0, "PENV": 1012.0, "VALIDT": 3, "DTG": "2025-07-03 21:00", "LATNOW": 20.9, "LONNOW": -112.0, "WINDNOW": 35.0, "DIRNOW": 5.0, "SPDNOW": 2.0, "TECH": "FCST", "ADVNR": 19, "ATCFID": "EP062025", "NAME": "FLOSSIE", "FTECH": "OFCL", "FCST_DTG": "2025-07-03 18:00:00", "RUN_DTG": "2025-07-04 08:18:12", "BASIN": "EP", "STMNR": 6, "CAT_ID": null, "CAT_DESC": null, "MSGID": "WTPZ21 KNHC 032029", "VALIDTIME": "2025-07-03 21:00:00" }, "geometry": { "type": "Point", "coordinates": [ -112.400002, 21.200001 ] } },
{ "type": "Feature", "properties": { "ID": 332376, "LAT": 22.1, "LON": -113.5, "VMAX": 30.0, "MSLP": 1010.40607, "RMAX": 28.36871, "FSPD": 4.7362, "FDIR": 306.68448, "RENV": 250.0, "PENV": 1012.0, "VALIDT": 12, "DTG": "2025-07-04 06:00", "LATNOW": 20.9, "LONNOW": -112.0, "WINDNOW": 35.0, "DIRNOW": 5.0, "SPDNOW": 2.0, "TECH": "FCST", "ADVNR": 19, "ATCFID": "EP062025", "NAME": "FLOSSIE", "FTECH": "OFCL", "FCST_DTG": "2025-07-03 18:00:00", "RUN_DTG": "2025-07-04 08:18:12", "BASIN": "EP", "STMNR": 6, "CAT_ID": null, "CAT_DESC": null, "MSGID": "WTPZ21 KNHC 032029", "VALIDTIME": "2025-07-04 06:00:00" }, "geometry": { "type": "Point", "coordinates": [ -113.5, 22.1 ] } },
{ "type": "Feature", "properties": { "ID": 332377, "LAT": 23.2, "LON": -115.1, "VMAX": 25.0, "MSLP": 1011.80975, "RMAX": 28.86921, "FSPD": 4.22497, "FDIR": 303.22528, "RENV": 250.0, "PENV": 1012.0, "VALIDT": 24, "DTG": "2025-07-04 18:00", "LATNOW": 20.9, "LONNOW": -112.0, "WINDNOW": 35.0, "DIRNOW": 5.0, "SPDNOW": 2.0, "TECH": "FCST", "ADVNR": 19, "ATCFID": "EP062025", "NAME": "FLOSSIE", "FTECH": "OFCL", "FCST_DTG": "2025-07-03 18:00:00", "RUN_DTG": "2025-07-04 08:18:12", "BASIN": "EP", "STMNR": 6, "CAT_ID": null, "CAT_DESC": null, "MSGID": "WTPZ21 KNHC 032029", "VALIDTIME": "2025-07-04 18:00:00" }, "geometry": { "type": "Point", "coordinates": [ -115.099998, 23.200001 ] } },
{ "type": "Feature", "properties": { "ID": 332378, "LAT": 24.1, "LON": -116.6, "VMAX": 20.0, "MSLP": 1012.95825, "RMAX": 28.86921, "FSPD": 3.83772, "FDIR": 293.71252, "RENV": 250.0, "PENV": 1012.0, "VALIDT": 36, "DTG": "2025-07-05 06:00", "LATNOW": 20.9, "LONNOW": -112.0, "WINDNOW": 35.0, "DIRNOW": 5.0, "SPDNOW": 2.0, "TECH": "FCST", "ADVNR": 19, "ATCFID": "EP062025", "NAME": "FLOSSIE", "FTECH": "OFCL", "FCST_DTG": "2025-07-03 18:00:00", "RUN_DTG": "2025-07-04 08:18:12", "BASIN": "EP", "STMNR": 6, "CAT_ID": null, "CAT_DESC": null, "MSGID": "WTPZ21 KNHC 032029", "VALIDTIME": "2025-07-05 06:00:00" }, "geometry": { "type": "Point", "coordinates": [ -116.599998, 24.1 ] } },
{ "type": "Feature", "properties": { "ID": 332379, "LAT": 24.7, "LON": -118.1, "VMAX": 20.0, "MSLP": 1012.95825, "RMAX": 28.86921, "FSPD": 3.83772, "FDIR": 293.71252, "RENV": 250.0, "PENV": 1012.0, "VALIDT": 48, "DTG": "2025-07-05 18:00", "LATNOW": 20.9, "LONNOW": -112.0, "WINDNOW": 35.0, "DIRNOW": 5.0, "SPDNOW": 2.0, "TECH": "FCST", "ADVNR": 19, "ATCFID": "EP062025", "NAME": "FLOSSIE", "FTECH": "OFCL", "FCST_DTG": "2025-07-03 18:00:00", "RUN_DTG": "2025-07-04 08:18:12", "BASIN": "EP", "STMNR": 6, "CAT_ID": null, "CAT_DESC": null, "MSGID": "WTPZ21 KNHC 032029", "VALIDTIME": "2025-07-05 18:00:00" }, "geometry": { "type": "Point", "coordinates": [ -118.099998, 24.700001 ] } },
{ "type": "Feature", "properties": { "ID": 332374, "LAT": 20.9, "LON": -112.0, "VMAX": 35.0, "MSLP": 1003.0, "RMAX": 25.0, "FSPD": 4.92751, "FDIR": 308.78632, "RENV": 190.0, "PENV": 1010.0, "VALIDT": 0, "DTG": "2025-07-03 18:00", "LATNOW": 20.9, "LONNOW": -112.0, "WINDNOW": 35.0, "DIRNOW": 5.0, "SPDNOW": 2.0, "TECH": "TRAK", "ADVNR": 19, "ATCFID": "EP062025", "NAME": "FLOSSIE", "FTECH": "OFCL", "FCST_DTG": "2025-07-03 18:00:00", "RUN_DTG": "2025-07-04 08:18:12", "BASIN": "EP", "STMNR": 6, "CAT_ID": null, "CAT_DESC": null, "MSGID": "WTPZ21 KNHC 032029", "VALIDTIME": "2025-07-03 18:00:00" }, "geometry": { "type": "LineString", "coordinates": [ [ -89.7, 9.0 ], [ -90.1, 8.9 ], [ -90.7, 9.0 ], [ -91.0, 9.3 ], [ -91.7, 8.8 ], [ -92.2, 8.8 ], [ -92.2, 9.2 ], [ -92.9, 9.5 ], [ -93.1, 9.7 ], [ -94.4, 10.0 ], [ -94.8, 10.0 ], [ -95.3, 9.9 ], [ -95.5, 9.8 ], [ -95.3, 10.2 ], [ -94.5, 11.0 ], [ -94.5, 11.9 ], [ -95.0, 12.5 ], [ -96.0, 13.0 ], [ -97.2, 13.4 ], [ -98.1, 13.4 ], [ -99.2, 12.9 ], [ -99.7, 13.2 ], [ -100.1, 13.4 ], [ -100.7, 13.7 ], [ -101.3, 14.5 ], [ -102.1, 15.3 ], [ -103.2, 15.9 ], [ -103.9, 16.4 ], [ -104.7, 16.7 ], [ -105.5, 17.1 ], [ -106.5, 17.5 ], [ -107.1, 17.9 ], [ -107.9, 18.4 ], [ -108.7, 18.8 ], [ -109.4, 19.3 ], [ -109.9, 19.6 ], [ -110.5, 19.9 ], [ -111.3, 20.3 ], [ -112.0, 20.9 ] ] } },
{ "type": "Feature", "properties": { "ID": 332379, "LAT": 24.7, "LON": -118.1, "VMAX": 20.0, "MSLP": 1012.95825, "RMAX": 28.86921, "FSPD": 3.83772, "FDIR": 293.71252, "RENV": 250.0, "PENV": 1012.0, "VALIDT": 48, "DTG": "2025-07-05 18:00", "LATNOW": 20.9, "LONNOW": -112.0, "WINDNOW": 35.0, "DIRNOW": 5.0, "SPDNOW": 2.0, "TECH": "FCST", "ADVNR": 19, "ATCFID": "EP062025", "NAME": "FLOSSIE", "FTECH": "OFCL", "FCST_DTG": "2025-07-03 18:00:00", "RUN_DTG": "2025-07-04 08:18:12", "BASIN": "EP", "STMNR": 6, "CAT_ID": null, "CAT_DESC": null, "MSGID": "WTPZ21 KNHC 032029", "VALIDTIME": "2025-07-05 18:00:00" }, "geometry": { "type": "LineString", "coordinates": [ [ -112.0, 20.9 ], [ -112.4, 21.2 ], [ -113.5, 22.1 ], [ -115.1, 23.2 ], [ -116.6, 24.1 ], [ -118.1, 24.7 ] ] } }
]
}
