{
"type": "FeatureCollection",
"crs": { "type": "name", "properties": { "name": "urn:ogc:def:crs:OGC:1.3:CRS84" } },
"features": [
{ "type": "Feature", "properties": { "ID": 15275, "LAT": 32.8, "LON": -74.6, "VMAX": 30.0, "MSLP": 1012.0, "RMAX": 50.0, "FSPD": 5.17285, "FDIR": 66.55899, "RENV": 170.0, "PENV": 1016.0, "VALIDT": 0, "DTG": "2025-08-03 00:00", "LATNOW": 41.0, "LONNOW": -51.4, "WINDNOW": 50.0, "DIRNOW": 9.0, "SPDNOW": 0.0, "TECH": "TRAK", "ADVNR": 15, "ATCFID": "AL042025", "NAME": "DEXTER", "FTECH": "OFCL", "FCST_DTG": "2025-08-07 12:00:00", "RUN_DTG": "2025-08-08 06:27:07", "BASIN": "AL", "STMNR": 4, "CAT_ID": null, "CAT_DESC": null, "MSGID": "WTNT24 KNHC 071446", "VALIDTIME": "2025-08-03 00:00:00" }, "geometry": { "type": "Point", "coordinates": [ -74.599998, 32.799999 ] } },
{ "type": "Feature", "properties": { "ID": 15276, "LAT": 33.2, "LON": -73.5, "VMAX": 30.0, "MSLP": 1010.0, "RMAX": 50.0, "FSPD": 5.79576, "FDIR": 74.55664, "RENV": 170.0, "PENV": 1015.0, "VALIDT": 0, "DTG": "2025-08-03 06:00", "LATNOW": 41.0, "LONNOW": -51.4, "WINDNOW": 50.0, "DIRNOW": 9.0, "SPDNOW": 0.0, "TECH": "TRAK", "ADVNR": 15, "ATCFID": "AL042025", "NAME": "DEXTER", "FTECH": "OFCL", "FCST_DTG": "2025-08-07 12:00:00", "RUN_DTG": "2025-08-08 06:27:07", "BASIN": "AL", "STMNR": 4, "CAT_ID": null, "CAT_DESC": null, "MSGID": "WTNT24 KNHC 071446", "VALIDTIME": "2025-08-03 06:00:00" }, "geometry": { "type": "Point", "coordinates": [ -73.5, 33.200001 ] } },
{ "type": "Feature", "properties": { "ID": 15277, "LAT": 33.5, "LON": -72.2, "VMAX": 30.0, "MSLP": 1010.0, "RMAX": 50.0, "FSPD": 5.24382, "FDIR": 78.68454, "RENV": 170.0, "PENV": 1015.0, "VALIDT": 0, "DTG": "2025-08-03 12:00", "LATNOW": 41.0, "LONNOW": -51.4, "WINDNOW": 50.0, "DIRNOW": 9.0, "SPDNOW": 0.0, "TECH": "TRAK", "ADVNR": 15, "ATCFID": "AL042025", "NAME": "DEXTER", "FTECH": "OFCL", "FCST_DTG": "2025-08-07 12:00:00", "RUN_DTG": "2025-08-08 06:27:07", "BASIN": "AL", "STMNR": 4, "CAT_ID": null, "CAT_DESC": null, "MSGID": "WTNT24 KNHC 071446", "VALIDTIME": "2025-08-03 12:00:00" }, "geometry": { "type": "Point", "coordinates": [ -72.199997, 33.5 ] } },
{ "type": "Feature", "properties": { "ID": 15278, "LAT": 33.7, "LON": -71.0, "VMAX": 35.0, "MSLP": 1009.0, "RMAX": 40.0, "FSPD": 4.94661, "FDIR": 71.82037, "RENV": 170.0, "PENV": 1014.0, "VALIDT": 0, "DTG": "2025-08-03 18:00", "LATNOW": 41.0, "LONNOW": -51.4, "WINDNOW": 50.0, "DIRNOW": 9.0, "SPDNOW": 0.0, "TECH": "TRAK", "ADVNR": 15, "ATCFID": "AL042025", "NAME": "DEXTER", "FTECH": "OFCL", "FCST_DTG": "2025-08-07 12:00:00", "RUN_DTG": "2025-08-08 06:27:07", "BASIN": "AL", "STMNR": 4, "CAT_ID": null, "CAT_DESC": null, "MSGID": "WTNT24 KNHC 071446", "VALIDTIME": "2025-08-03 18:00:00" }, "geometry": { "type": "Point", "coordinates": [ -71.0, 33.700001 ] } },
{ "type": "Feature", "properties": { "ID": 15279, "LAT": 34.0, "LON": -69.9, "VMAX": 40.0, "MSLP": 1002.0, "RMAX": 100.0, "FSPD": 4.93087, "FDIR": 71.76031, "RENV": 150.0, "PENV": 1014.0, "VALIDT": 0, "DTG": "2025-08-04 00:00", "LATNOW": 41.0, "LONNOW": -51.4, "WINDNOW": 50.0, "DIRNOW": 9.0, "SPDNOW": 0.0, "TECH": "TRAK", "ADVNR": 15, "ATCFID": "AL042025", "NAME": "DEXTER", "FTECH": "OFCL", "FCST_DTG": "2025-08-07 12:00:00", "RUN_DTG": "2025-08-08 06:27:07", "BASIN": "AL", "STMNR": 4, "CAT_ID": null, "CAT_DESC": null, "MSGID": "WTNT24 KNHC 071446", "VALIDTIME": "2025-08-04 00:00:00" }, "geometry": { "type": "Point", "coordinates": [ -69.900002, 34.0 ] } },
{ "type": "Feature", "properties": { "ID": 15280, "LAT": 34.3, "LON": -68.8, "VMAX": 40.0, "MSLP": 1002.0, "RMAX": 90.0, "FSPD": 4.94273, "FDIR": 43.23349, "RENV": 150.0, "PENV": 1014.0, "VALIDT": 0, "DTG": "2025-08-04 06:00", "LATNOW": 41.0, "LONNOW": -51.4, "WINDNOW": 50.0, "DIRNOW": 9.0, "SPDNOW": 0.0, "TECH": "TRAK", "ADVNR": 15, "ATCFID": "AL042025", "NAME": "DEXTER", "FTECH": "OFCL", "FCST_DTG": "2025-08-07 12:00:00", "RUN_DTG": "2025-08-08 06:27:07", "BASIN": "AL", "STMNR": 4, "CAT_ID": null, "CAT_DESC": null, "MSGID": "WTNT24 KNHC 071446", "VALIDTIME": "2025-08-04 06:00:00" }, "geometry": { "type": "Point", "coordinates": [ -68.800003, 34.299999 ] } },
{ "type": "Feature", "properties": { "ID": 15281, "LAT": 35.0, "LON": -68.0, "VMAX": 40.0, "MSLP": 1002.0, "RMAX": 60.0, "FSPD": 6.19039, "FDIR": 54.42789, "RENV": 160.0, "PENV": 1014.0, "VALIDT": 0, "DTG": "2025-08-04 12:00", "LATNOW": 41.0, "LONNOW": -51.4, "WINDNOW": 50.0, "DIRNOW": 9.0, "SPDNOW": 0.0, "TECH": "TRAK", "ADVNR": 15, "ATCFID": "AL042025", "NAME": "DEXTER", "FTECH": "OFCL", "FCST_DTG": "2025-08-07 12:00:00", "RUN_DTG": "2025-08-08 06:27:07", "BASIN": "AL", "STMNR": 4, "CAT_ID": null, "CAT_DESC": null, "MSGID": "WTNT24 KNHC 071446", "VALIDTIME": "2025-08-04 12:00:00" }, "geometry": { "type": "Point", "coordinates": [ -68.0, 35.0 ] } },
{ "type": "Feature", "properties": { "ID": 15282, "LAT": 35.7, "LON": -66.8, "VMAX": 40.0, "MSLP": 1002.0, "RMAX": 50.0, "FSPD": 5.69918, "FDIR": 35.66928, "RENV": 180.0, "PENV": 1016.0, "VALIDT": 0, "DTG": "2025-08-04 18:00", "LATNOW": 41.0, "LONNOW": -51.4, "WINDNOW": 50.0, "DIRNOW": 9.0, "SPDNOW": 0.0, "TECH": "TRAK", "ADVNR": 15, "ATCFID": "AL042025", "NAME": "DEXTER", "FTECH": "OFCL", "FCST_DTG": "2025-08-07 12:00:00", "RUN_DTG": "2025-08-08 06:27:07", "BASIN": "AL", "STMNR": 4, "CAT_ID": null, "CAT_DESC": null, "MSGID": "WTNT24 KNHC 071446", "VALIDTIME": "2025-08-04 18:00:00" }, "geometry": { "type": "Point", "coordinates": [ -66.800003, 35.700001 ] } },
{ "type": "Feature", "properties": { "ID": 15283, "LAT": 36.6, "LON": -66.0, "VMAX": 40.0, "MSLP": 1002.0, "RMAX": 50.0, "FSPD": 4.97661, "FDIR": 65.57565, "RENV": 160.0, "PENV": 1017.0, "VALIDT": 0, "DTG": "2025-08-05 00:00", "LATNOW": 41.0, "LONNOW": -51.4, "WINDNOW": 50.0, "DIRNOW": 9.0, "SPDNOW": 0.0, "TECH": "TRAK", "ADVNR": 15, "ATCFID": "AL042025", "NAME": "DEXTER", "FTECH": "OFCL", "FCST_DTG": "2025-08-07 12:00:00", "RUN_DTG": "2025-08-08 06:27:07", "BASIN": "AL", "STMNR": 4, "CAT_ID": null, "CAT_DESC": null, "MSGID": "WTNT24 KNHC 071446", "VALIDTIME": "2025-08-05 00:00:00" }, "geometry": { "type": "Point", "coordinates": [ -66.0, 36.599998 ] } },
{ "type": "Feature", "properties": { "ID": 15284, "LAT": 37.0, "LON": -64.9, "VMAX": 35.0, "MSLP": 1005.0, "RMAX": 70.0, "FSPD": 5.44908, "FDIR": 48.63397, "RENV": 160.0, "PENV": 1017.0, "VALIDT": 0, "DTG": "2025-08-05 06:00", "LATNOW": 41.0, "LONNOW": -51.4, "WINDNOW": 50.0, "DIRNOW": 9.0, "SPDNOW": 0.0, "TECH": "TRAK", "ADVNR": 15, "ATCFID": "AL042025", "NAME": "DEXTER", "FTECH": "OFCL", "FCST_DTG": "2025-08-07 12:00:00", "RUN_DTG": "2025-08-08 06:27:07", "BASIN": "AL", "STMNR": 4, "CAT_ID": null, "CAT_DESC": null, "MSGID": "WTNT24 KNHC 071446", "VALIDTIME": "2025-08-05 06:00:00" }, "geometry": { "type": "Point", "coordinates": [ -64.900002, 37.0 ] } },
{ "type": "Feature", "properties": { "ID": 15285, "LAT": 37.7, "LON": -63.9, "VMAX": 35.0, "MSLP": 1005.0, "RMAX": 70.0, "FSPD": 5.15059, "FDIR": 60.03946, "RENV": 200.0, "PENV": 1019.0, "VALIDT": 0, "DTG": "2025-08-05 12:00", "LATNOW": 41.0, "LONNOW": -51.4, "WINDNOW": 50.0, "DIRNOW": 9.0, "SPDNOW": 0.0, "TECH": "TRAK", "ADVNR": 15, "ATCFID": "AL042025", "NAME": "DEXTER", "FTECH": "OFCL", "FCST_DTG": "2025-08-07 12:00:00", "RUN_DTG": "2025-08-08 06:27:07", "BASIN": "AL", "STMNR": 4, "CAT_ID": null, "CAT_DESC": null, "MSGID": "WTNT24 KNHC 071446", "VALIDTIME": "2025-08-05 12:00:00" }, "geometry": { "type": "Point", "coordinates": [ -63.900002, 37.700001 ] } },
{ "type": "Feature", "properties": { "ID": 15286, "LAT": 38.2, "LON": -62.8, "VMAX": 35.0, "MSLP": 1005.0, "RMAX": 30.0, "FSPD": 4.44568, "FDIR": 54.64862, "RENV": 170.0, "PENV": 1020.0, "VALIDT": 0, "DTG": "2025-08-05 18:00", "LATNOW": 41.0, "LONNOW": -51.4, "WINDNOW": 50.0, "DIRNOW": 9.0, "SPDNOW": 0.0, "TECH": "TRAK", "ADVNR": 15, "ATCFID": "AL042025", "NAME": "DEXTER", "FTECH": "OFCL", "FCST_DTG": "2025-08-07 12:00:00", "RUN_DTG": "2025-08-08 06:27:07", "BASIN": "AL", "STMNR": 4, "CAT_ID": null, "CAT_DESC": null, "MSGID": "WTNT24 KNHC 071446", "VALIDTIME": "2025-08-05 18:00:00" }, "geometry": { "type": "Point", "coordinates": [ -62.799999, 38.200001 ] } },
{ "type": "Feature", "properties": { "ID": 15287, "LAT": 38.7, "LON": -61.9, "VMAX": 35.0, "MSLP": 1005.0, "RMAX": 30.0, "FSPD": 5.80236, "FDIR": 63.68497, "RENV": 150.0, "PENV": 1020.0, "VALIDT": 0, "DTG": "2025-08-06 00:00", "LATNOW": 41.0, "LONNOW": -51.4, "WINDNOW": 50.0, "DIRNOW": 9.0, "SPDNOW": 0.0, "TECH": "TRAK", "ADVNR": 15, "ATCFID": "AL042025", "NAME": "DEXTER", "FTECH": "OFCL", "FCST_DTG": "2025-08-07 12:00:00", "RUN_DTG": "2025-08-08 06:27:07", "BASIN": "AL", "STMNR": 4, "CAT_ID": null, "CAT_DESC": null, "MSGID": "WTNT24 KNHC 071446", "VALIDTIME": "2025-08-06 00:00:00" }, "geometry": { "type": "Point", "coordinates": [ -61.900002, 38.700001 ] } },
{ "type": "Feature", "properties": { "ID": 15288, "LAT": 39.2, "LON": -60.6, "VMAX": 40.0, "MSLP": 1003.0, "RMAX": 30.0, "FSPD": 6.85665, "FDIR": 67.96686, "RENV": 150.0, "PENV": 1020.0, "VALIDT": 0, "DTG": "2025-08-06 06:00", "LATNOW": 41.0, "LONNOW": -51.4, "WINDNOW": 50.0, "DIRNOW": 9.0, "SPDNOW": 0.0, "TECH": "TRAK", "ADVNR": 15, "ATCFID": "AL042025", "NAME": "DEXTER", "FTECH": "OFCL", "FCST_DTG": "2025-08-07 12:00:00", "RUN_DTG": "2025-08-08 06:27:07", "BASIN": "AL", "STMNR": 4, "CAT_ID": null, "CAT_DESC": null, "MSGID": "WTNT24 KNHC 071446", "VALIDTIME": "2025-08-06 06:00:00" }, "geometry": { "type": "Point", "coordinates": [ -60.599998, 39.200001 ] } },
{ "type": "Feature", "properties": { "ID": 15289, "LAT": 39.7, "LON": -59.0, "VMAX": 45.0, "MSLP": 999.0, "RMAX": 30.0, "FSPD": 7.18832, "FDIR": 81.77075, "RENV": 150.0, "PENV": 1020.0, "VALIDT": 0, "DTG": "2025-08-06 12:00", "LATNOW": 41.0, "LONNOW": -51.4, "WINDNOW": 50.0, "DIRNOW": 9.0, "SPDNOW": 0.0, "TECH": "TRAK", "ADVNR": 15, "ATCFID": "AL042025", "NAME": "DEXTER", "FTECH": "OFCL", "FCST_DTG": "2025-08-07 12:00:00", "RUN_DTG": "2025-08-08 06:27:07", "BASIN": "AL", "STMNR": 4, "CAT_ID": null, "CAT_DESC": null, "MSGID": "WTNT24 KNHC 071446", "VALIDTIME": "2025-08-06 12:00:00" }, "geometry": { "type": "Point", "coordinates": [ -59.0, 39.700001 ] } },
{ "type": "Feature", "properties": { "ID": 15290, "LAT": 39.9, "LON": -57.2, "VMAX": 45.0, "MSLP": 999.0, "RMAX": 40.0, "FSPD": 7.89328, "FDIR": 90.0, "RENV": 150.0, "PENV": 1020.0, "VALIDT": 0, "DTG": "2025-08-06 18:00", "LATNOW": 41.0, "LONNOW": -51.4, "WINDNOW": 50.0, "DIRNOW": 9.0, "SPDNOW": 0.0, "TECH": "TRAK", "ADVNR": 15, "ATCFID": "AL042025", "NAME": "DEXTER", "FTECH": "OFCL", "FCST_DTG": "2025-08-07 12:00:00", "RUN_DTG": "2025-08-08 06:27:07", "BASIN": "AL", "STMNR": 4, "CAT_ID": null, "CAT_DESC": null, "MSGID": "WTNT24 KNHC 071446", "VALIDTIME": "2025-08-06 18:00:00" }, "geometry": { "type": "Point", "coordinates": [ -57.200001, 39.900002 ] } },
{ "type": "Feature", "properties": { "ID": 15291, "LAT": 39.9, "LON": -55.2, "VMAX": 45.0, "MSLP": 999.0, "RMAX": 40.0, "FSPD": 8.27437, "FDIR": 71.88855, "RENV": 200.0, "PENV": 1020.0, "VALIDT": 0, "DTG": "2025-08-07 00:00", "LATNOW": 41.0, "LONNOW": -51.4, "WINDNOW": 50.0, "DIRNOW": 9.0, "SPDNOW": 0.0, "TECH": "TRAK", "ADVNR": 15, "ATCFID": "AL042025", "NAME": "DEXTER", "FTECH": "OFCL", "FCST_DTG": "2025-08-07 12:00:00", "RUN_DTG": "2025-08-08 06:27:07", "BASIN": "AL", "STMNR": 4, "CAT_ID": null, "CAT_DESC": null, "MSGID": "WTNT24 KNHC 071446", "VALIDTIME": "2025-08-07 00:00:00" }, "geometry": { "type": "Point", "coordinates": [ -55.200001, 39.900002 ] } },
{ "type": "Feature", "properties": { "ID": 15292, "LAT": 40.4, "LON": -53.2, "VMAX": 45.0, "MSLP": 999.0, "RMAX": 75.0, "FSPD": 7.66892, "FDIR": 66.26611, "RENV": 200.0, "PENV": 1020.0, "VALIDT": 0, "DTG": "2025-08-07 06:00", "LATNOW": 41.0, "LONNOW": -51.4, "WINDNOW": 50.0, "DIRNOW": 9.0, "SPDNOW": 0.0, "TECH": "TRAK", "ADVNR": 15, "ATCFID": "AL042025", "NAME": "DEXTER", "FTECH": "OFCL", "FCST_DTG": "2025-08-07 12:00:00", "RUN_DTG": "2025-08-08 06:27:07", "BASIN": "AL", "STMNR": 4, "CAT_ID": null, "CAT_DESC": null, "MSGID": "WTNT24 KNHC 071446", "VALIDTIME": "2025-08-07 06:00:00" }, "geometry": { "type": "Point", "coordinates": [ -53.200001, 40.400002 ] } },
{ "type": "Feature", "properties": { "ID": 15293, "LAT": 41.0, "LON": -51.4, "VMAX": 50.0, "MSLP": 998.0, "RMAX": 70.0, "FSPD": 8.7675, "FDIR": 62.00385, "RENV": 240.0, "PENV": 1019.0, "VALIDT": 0, "DTG": "2025-08-07 12:00", "LATNOW": 41.0, "LONNOW": -51.4, "WINDNOW": 50.0, "DIRNOW": 9.0, "SPDNOW": 0.0, "TECH": "TRAK", "ADVNR": 15, "ATCFID": "AL042025", "NAME": "DEXTER", "FTECH": "OFCL", "FCST_DTG": "2025-08-07 12:00:00", "RUN_DTG": "2025-08-08 06:27:07", "BASIN": "AL", "STMNR": 4, "CAT_ID": null, "CAT_DESC": null, "MSGID": "WTNT24 KNHC 071446", "VALIDTIME": "2025-08-07 12:00:00" }, "geometry": { "type": "Point", "coordinates": [ -51.400002, 41.0 ] } },
{ "type": "Feature", "properties": { "ID": 15294, "LAT": 41.4, "LON": -50.4, "VMAX": 50.0, "MSLP": 998.0, "RMAX": 71.11448, "FSPD": 8.90863, "FDIR": 62.4855, "RENV": 300.0, "PENV": 1012.0, "VALIDT": 3, "DTG": "2025-08-07 15:00", "LATNOW": 41.0, "LONNOW": -51.4, "WINDNOW": 50.0, "DIRNOW": 9.0, "SPDNOW": 0.0, "TECH": "FCST", "ADVNR": 15, "ATCFID": "AL042025", "NAME": "DEXTER", "FTECH": "OFCL", "FCST_DTG": "2025-08-07 12:00:00", "RUN_DTG": "2025-08-08 06:27:07", "BASIN": "AL", "STMNR": 4, "CAT_ID": null, "CAT_DESC": null, "MSGID": "WTNT24 KNHC 071446", "VALIDTIME": "2025-08-07 15:00:00" }, "geometry": { "type": "Point", "coordinates": [ -50.400002, 41.400002 ] } },
{ "type": "Feature", "properties": { "ID": 15295, "LAT": 42.6, "LON": -47.3, "VMAX": 60.0, "MSLP": 996.62427, "RMAX": 74.40207, "FSPD": 7.7282, "FDIR": 57.82288, "RENV": 300.0, "PENV": 1012.0, "VALIDT": 12, "DTG": "2025-08-08 00:00", "LATNOW": 41.0, "LONNOW": -51.4, "WINDNOW": 50.0, "DIRNOW": 9.0, "SPDNOW": 0.0, "TECH": "FCST", "ADVNR": 15, "ATCFID": "AL042025", "NAME": "DEXTER", "FTECH": "OFCL", "FCST_DTG": "2025-08-07 12:00:00", "RUN_DTG": "2025-08-08 06:27:07", "BASIN": "AL", "STMNR": 4, "CAT_ID": null, "CAT_DESC": null, "MSGID": "WTNT24 KNHC 071446", "VALIDTIME": "2025-08-08 00:00:00" }, "geometry": { "type": "Point", "coordinates": [ -47.299999, 42.599998 ] } },
{ "type": "Feature", "properties": { "ID": 15296, "LAT": 44.2, "LON": -43.8, "VMAX": 60.0, "MSLP": 996.62427, "RMAX": 79.25479, "FSPD": 7.58026, "FDIR": 70.16385, "RENV": 300.0, "PENV": 1012.0, "VALIDT": 24, "DTG": "2025-08-08 12:00", "LATNOW": 41.0, "LONNOW": -51.4, "WINDNOW": 50.0, "DIRNOW": 9.0, "SPDNOW": 0.0, "TECH": "FCST", "ADVNR": 15, "ATCFID": "AL042025", "NAME": "DEXTER", "FTECH": "OFCL", "FCST_DTG": "2025-08-07 12:00:00", "RUN_DTG": "2025-08-08 06:27:07", "BASIN": "AL", "STMNR": 4, "CAT_ID": null, "CAT_DESC": null, "MSGID": "WTNT24 KNHC 071446", "VALIDTIME": "2025-08-08 12:00:00" }, "geometry": { "type": "Point", "coordinates": [ -43.799999, 44.200001 ] } },
{ "type": "Feature", "properties": { "ID": 15297, "LAT": 45.2, "LON": -39.9, "VMAX": 50.0, "MSLP": 1002.2391, "RMAX": 83.08854, "FSPD": 8.30339, "FDIR": 77.47614, "RENV": 300.0, "PENV": 1012.0, "VALIDT": 36, "DTG": "2025-08-09 00:00", "LATNOW": 41.0, "LONNOW": -51.4, "WINDNOW": 50.0, "DIRNOW": 9.0, "SPDNOW": 0.0, "TECH": "FCST", "ADVNR": 15, "ATCFID": "AL042025", "NAME": "DEXTER", "FTECH": "OFCL", "FCST_DTG": "2025-08-07 12:00:00", "RUN_DTG": "2025-08-08 06:27:07", "BASIN": "AL", "STMNR": 4, "CAT_ID": null, "CAT_DESC": null, "MSGID": "WTNT24 KNHC 071446", "VALIDTIME": "2025-08-09 00:00:00" }, "geometry": { "type": "Point", "coordinates": [ -39.900002, 45.200001 ] } },
{ "type": "Feature", "properties": { "ID": 15298, "LAT": 45.9, "LON": -35.4, "VMAX": 45.0, "MSLP": 1004.66364, "RMAX": 85.61877, "FSPD": 8.15886, "FDIR": 79.09622, "RENV": 300.0, "PENV": 1012.0, "VALIDT": 48, "DTG": "2025-08-09 12:00", "LATNOW": 41.0, "LONNOW": -51.4, "WINDNOW": 50.0, "DIRNOW": 9.0, "SPDNOW": 0.0, "TECH": "FCST", "ADVNR": 15, "ATCFID": "AL042025", "NAME": "DEXTER", "FTECH": "OFCL", "FCST_DTG": "2025-08-07 12:00:00", "RUN_DTG": "2025-08-08 06:27:07", "BASIN": "AL", "STMNR": 4, "CAT_ID": null, "CAT_DESC": null, "MSGID": "WTNT24 KNHC 071446", "VALIDTIME": "2025-08-09 12:00:00" }, "geometry": { "type": "Point", "coordinates": [ -35.400002, 45.900002 ] } },
{ "type": "Feature", "properties": { "ID": 15299, "LAT": 46.5, "LON": -30.9, "VMAX": 35.0, "MSLP": 1008.74713, "RMAX": 87.72469, "FSPD": 7.38243, "FDIR": 77.93307, "RENV": 300.0, "PENV": 1012.0, "VALIDT": 60, "DTG": "2025-08-10 00:00", "LATNOW": 41.0, "LONNOW": -51.4, "WINDNOW": 50.0, "DIRNOW": 9.0, "SPDNOW": 0.0, "TECH": "FCST", "ADVNR": 15, "ATCFID": "AL042025", "NAME": "DEXTER", "FTECH": "OFCL", "FCST_DTG": "2025-08-07 12:00:00", "RUN_DTG": "2025-08-08 06:27:07", "BASIN": "AL", "STMNR": 4, "CAT_ID": null, "CAT_DESC": null, "MSGID": "WTNT24 KNHC 071446", "VALIDTIME": "2025-08-10 00:00:00" }, "geometry": { "type": "Point", "coordinates": [ -30.9, 46.5 ] } },
{ "type": "Feature", "properties": { "ID": 15300, "LAT": 47.1, "LON": -26.8, "VMAX": 30.0, "MSLP": 1010.40607, "RMAX": 87.72469, "FSPD": 6.67178, "FDIR": 78.3222, "RENV": 250.0, "PENV": 1012.0, "VALIDT": 72, "DTG": "2025-08-10 12:00", "LATNOW": 41.0, "LONNOW": -51.4, "WINDNOW": 50.0, "DIRNOW": 9.0, "SPDNOW": 0.0, "TECH": "FCST", "ADVNR": 15, "ATCFID": "AL042025", "NAME": "DEXTER", "FTECH": "OFCL", "FCST_DTG": "2025-08-07 12:00:00", "RUN_DTG": "2025-08-08 06:27:07", "BASIN": "AL", "STMNR": 4, "CAT_ID": null, "CAT_DESC": null, "MSGID": "WTNT24 KNHC 071446", "VALIDTIME": "2025-08-10 12:00:00" }, "geometry": { "type": "Point", "coordinates": [ -26.799999, 47.099998 ] } },
{ "type": "Feature", "properties": { "ID": 15301, "LAT": 47.625, "LON": -23.05, "VMAX": 30.0, "MSLP": 1010.40607, "RMAX": 87.72469, "FSPD": 5.35614, "FDIR": 79.62503, "RENV": 250.0, "PENV": 1012.0, "VALIDT": 84, "DTG": "2025-08-11 00:00", "LATNOW": 41.0, "LONNOW": -51.4, "WINDNOW": 50.0, "DIRNOW": 9.0, "SPDNOW": 0.0, "TECH": "FCST", "ADVNR": 15, "ATCFID": "AL042025", "NAME": "DEXTER", "FTECH": "OFCL", "FCST_DTG": "2025-08-07 12:00:00", "RUN_DTG": "2025-08-08 06:27:07", "BASIN": "AL", "STMNR": 4, "CAT_ID": null, "CAT_DESC": null, "MSGID": "WTNT24 KNHC 071446", "VALIDTIME": "2025-08-11 00:00:00" }, "geometry": { "type": "Point", "coordinates": [ -23.049999, 47.625 ] } },
{ "type": "Feature", "properties": { "ID": 15302, "LAT": 48.0, "LON": -20.0, "VMAX": 30.0, "MSLP": 1010.40607, "RMAX": 87.72469, "FSPD": 5.35614, "FDIR": 79.62503, "RENV": 250.0, "PENV": 1012.0, "VALIDT": 96, "DTG": "2025-08-11 12:00", "LATNOW": 41.0, "LONNOW": -51.4, "WINDNOW": 50.0, "DIRNOW": 9.0, "SPDNOW": 0.0, "TECH": "FCST", "ADVNR": 15, "ATCFID": "AL042025", "NAME": "DEXTER", "FTECH": "OFCL", "FCST_DTG": "2025-08-07 12:00:00", "RUN_DTG": "2025-08-08 06:27:07", "BASIN": "AL", "STMNR": 4, "CAT_ID": null, "CAT_DESC": null, "MSGID": "WTNT24 KNHC 071446", "VALIDTIME": "2025-08-11 12:00:00" }, "geometry": { "type": "Point", "coordinates": [ -20.0, 48.0 ] } },
{ "type": "Feature", "properties": { "ID": 15293, "LAT": 41.0, "LON": -51.4, "VMAX": 50.0, "MSLP": 998.0, "RMAX": 70.0, "FSPD": 8.7675, "FDIR": 62.00385, "RENV": 240.0, "PENV": 1019.0, "VALIDT": 0, "DTG": "2025-08-07 12:00", "LATNOW": 41.0, "LONNOW": -51.4, "WINDNOW": 50.0, "DIRNOW": 9.0, "SPDNOW": 0.0, "TECH": "TRAK", "ADVNR": 15, "ATCFID": "AL042025", "NAME": "DEXTER", "FTECH": "OFCL", "FCST_DTG": "2025-08-07 12:00:00", "RUN_DTG": "2025-08-08 06:27:07", "BASIN": "AL", "STMNR": 4, "CAT_ID": null, "CAT_DESC": null, "MSGID": "WTNT24 KNHC 071446", "VALIDTIME": "2025-08-07 12:00:00" }, "geometry": { "type": "LineString", "coordinates": [ [ -74.6, 32.8 ], [ -73.5, 33.2 ], [ -72.2, 33.5 ], [ -71.0, 33.7 ], [ -69.9, 34.0 ], [ -68.8, 34.3 ], [ -68.0, 35.0 ], [ -66.8, 35.7 ], [ -66.0, 36.6 ], [ -64.9, 37.0 ], [ -63.9, 37.7 ], [ -62.8, 38.2 ], [ -61.9, 38.7 ], [ -60.6, 39.2 ], [ -59.0, 39.7 ], [ -57.2, 39.9 ], [ -55.2, 39.9 ], [ -53.2, 40.4 ], [ -51.4, 41.0 ] ] } },
{ "type": "Feature", "properties": { "ID": 15302, "LAT": 48.0, "LON": -20.0, "VMAX": 30.0, "MSLP": 1010.40607, "RMAX": 87.72469, "FSPD": 5.35614, "FDIR": 79.62503, "RENV": 250.0, "PENV": 1012.0, "VALIDT": 96, "DTG": "2025-08-11 12:00", "LATNOW": 41.0, "LONNOW": -51.4, "WINDNOW": 50.0, "DIRNOW": 9.0, "SPDNOW": 0.0, "TECH": "FCST", "ADVNR": 15, "ATCFID": "AL042025", "NAME": "DEXTER", "FTECH": "OFCL", "FCST_DTG": "2025-08-07 12:00:00", "RUN_DTG": "2025-08-08 06:27:07", "BASIN": "AL", "STMNR": 4, "CAT_ID": null, "CAT_DESC": null, "MSGID": "WTNT24 KNHC 071446", "VALIDTIME": "2025-08-11 12:00:00" }, "geometry": { "type": "LineString", "coordinates": [ [ -51.4, 41.0 ], [ -50.4, 41.4 ], [ -47.3, 42.6 ], [ -43.8, 44.2 ], [ -39.9, 45.2 ], [ -35.4, 45.9 ], [ -30.9, 46.5 ], [ -26.8, 47.1 ], [ -23.05, 47.625 ], [ -20.0, 48.0 ] ] } }
]
}
