{
"type": "FeatureCollection",
"crs": { "type": "name", "properties": { "name": "urn:ogc:def:crs:OGC:1.3:CRS84" } },
"features": [
{ "type": "Feature", "properties": { "ID": 12242, "LAT": 9.9, "LON": -100.2, "VMAX": 25.0, "MSLP": 1009.0, "RMAX": 90.0, "FSPD": 4.58929, "FDIR": 276.43622, "RENV": 180.0, "PENV": 1011.0, "VALIDT": 0, "DTG": "2025-07-28 18:00", "LATNOW": 20.4, "LONNOW": -134.9, "WINDNOW": 45.0, "DIRNOW": 8.0, "SPDNOW": 3.0, "TECH": "TRAK", "ADVNR": 14, "ATCFID": "EP072025", "NAME": "GIL", "FTECH": "OFCL", "FCST_DTG": "2025-08-03 12:00:00", "RUN_DTG": "2025-08-04 06:27:00", "BASIN": "EP", "STMNR": 7, "CAT_ID": null, "CAT_DESC": null, "MSGID": "WTPZ22 KNHC 031431", "VALIDTIME": "2025-07-28 18:00:00" }, "geometry": { "type": "Point", "coordinates": [ -100.199997, 9.9 ] } },
{ "type": "Feature", "properties": { "ID": 12243, "LAT": 10.0, "LON": -101.1, "VMAX": 25.0, "MSLP": 1009.0, "RMAX": 90.0, "FSPD": 2.7334, "FDIR": 292.1117, "RENV": 180.0, "PENV": 1011.0, "VALIDT": 0, "DTG": "2025-07-29 00:00", "LATNOW": 20.4, "LONNOW": -134.9, "WINDNOW": 45.0, "DIRNOW": 8.0, "SPDNOW": 3.0, "TECH": "TRAK", "ADVNR": 14, "ATCFID": "EP072025", "NAME": "GIL", "FTECH": "OFCL", "FCST_DTG": "2025-08-03 12:00:00", "RUN_DTG": "2025-08-04 06:27:00", "BASIN": "EP", "STMNR": 7, "CAT_ID": null, "CAT_DESC": null, "MSGID": "WTPZ22 KNHC 031431", "VALIDTIME": "2025-07-29 00:00:00" }, "geometry": { "type": "Point", "coordinates": [ -101.099998, 10.0 ] } },
{ "type": "Feature", "properties": { "ID": 12244, "LAT": 10.2, "LON": -101.6, "VMAX": 25.0, "MSLP": 1009.0, "RMAX": 90.0, "FSPD": 5.93413, "FDIR": 290.28992, "RENV": 180.0, "PENV": 1011.0, "VALIDT": 0, "DTG": "2025-07-29 06:00", "LATNOW": 20.4, "LONNOW": -134.9, "WINDNOW": 45.0, "DIRNOW": 8.0, "SPDNOW": 3.0, "TECH": "TRAK", "ADVNR": 14, "ATCFID": "EP072025", "NAME": "GIL", "FTECH": "OFCL", "FCST_DTG": "2025-08-03 12:00:00", "RUN_DTG": "2025-08-04 06:27:00", "BASIN": "EP", "STMNR": 7, "CAT_ID": null, "CAT_DESC": null, "MSGID": "WTPZ22 KNHC 031431", "VALIDTIME": "2025-07-29 06:00:00" }, "geometry": { "type": "Point", "coordinates": [ -101.599998, 10.2 ] } },
{ "type": "Feature", "properties": { "ID": 12245, "LAT": 10.6, "LON": -102.7, "VMAX": 25.0, "MSLP": 1009.0, "RMAX": 90.0, "FSPD": 5.28454, "FDIR": 286.98047, "RENV": 180.0, "PENV": 1011.0, "VALIDT": 0, "DTG": "2025-07-29 12:00", "LATNOW": 20.4, "LONNOW": -134.9, "WINDNOW": 45.0, "DIRNOW": 8.0, "SPDNOW": 3.0, "TECH": "TRAK", "ADVNR": 14, "ATCFID": "EP072025", "NAME": "GIL", "FTECH": "OFCL", "FCST_DTG": "2025-08-03 12:00:00", "RUN_DTG": "2025-08-04 06:27:00", "BASIN": "EP", "STMNR": 7, "CAT_ID": null, "CAT_DESC": null, "MSGID": "WTPZ22 KNHC 031431", "VALIDTIME": "2025-07-29 12:00:00" }, "geometry": { "type": "Point", "coordinates": [ -102.699997, 10.6 ] } },
{ "type": "Feature", "properties": { "ID": 12246, "LAT": 10.9, "LON": -103.7, "VMAX": 25.0, "MSLP": 1009.0, "RMAX": 90.0, "FSPD": 6.87774, "FDIR": 287.4092, "RENV": 180.0, "PENV": 1011.0, "VALIDT": 0, "DTG": "2025-07-29 18:00", "LATNOW": 20.4, "LONNOW": -134.9, "WINDNOW": 45.0, "DIRNOW": 8.0, "SPDNOW": 3.0, "TECH": "TRAK", "ADVNR": 14, "ATCFID": "EP072025", "NAME": "GIL", "FTECH": "OFCL", "FCST_DTG": "2025-08-03 12:00:00", "RUN_DTG": "2025-08-04 06:27:00", "BASIN": "EP", "STMNR": 7, "CAT_ID": null, "CAT_DESC": null, "MSGID": "WTPZ22 KNHC 031431", "VALIDTIME": "2025-07-29 18:00:00" }, "geometry": { "type": "Point", "coordinates": [ -103.699997, 10.9 ] } },
{ "type": "Feature", "properties": { "ID": 12247, "LAT": 11.3, "LON": -105.0, "VMAX": 25.0, "MSLP": 1008.0, "RMAX": 90.0, "FSPD": 16.14846, "FDIR": 271.82556, "RENV": 240.0, "PENV": 1010.0, "VALIDT": 0, "DTG": "2025-07-30 00:00", "LATNOW": 20.4, "LONNOW": -134.9, "WINDNOW": 45.0, "DIRNOW": 8.0, "SPDNOW": 3.0, "TECH": "TRAK", "ADVNR": 14, "ATCFID": "EP072025", "NAME": "GIL", "FTECH": "OFCL", "FCST_DTG": "2025-08-03 12:00:00", "RUN_DTG": "2025-08-04 06:27:00", "BASIN": "EP", "STMNR": 7, "CAT_ID": null, "CAT_DESC": null, "MSGID": "WTPZ22 KNHC 031431", "VALIDTIME": "2025-07-30 00:00:00" }, "geometry": { "type": "Point", "coordinates": [ -105.0, 11.3 ] } },
{ "type": "Feature", "properties": { "ID": 12248, "LAT": 11.4, "LON": -108.2, "VMAX": 25.0, "MSLP": 1008.0, "RMAX": 90.0, "FSPD": 5.27126, "FDIR": 287.0246, "RENV": 240.0, "PENV": 1010.0, "VALIDT": 0, "DTG": "2025-07-30 06:00", "LATNOW": 20.4, "LONNOW": -134.9, "WINDNOW": 45.0, "DIRNOW": 8.0, "SPDNOW": 3.0, "TECH": "TRAK", "ADVNR": 14, "ATCFID": "EP072025", "NAME": "GIL", "FTECH": "OFCL", "FCST_DTG": "2025-08-03 12:00:00", "RUN_DTG": "2025-08-04 06:27:00", "BASIN": "EP", "STMNR": 7, "CAT_ID": null, "CAT_DESC": null, "MSGID": "WTPZ22 KNHC 031431", "VALIDTIME": "2025-07-30 06:00:00" }, "geometry": { "type": "Point", "coordinates": [ -108.199997, 11.4 ] } },
{ "type": "Feature", "properties": { "ID": 12249, "LAT": 11.7, "LON": -109.2, "VMAX": 25.0, "MSLP": 1008.0, "RMAX": 90.0, "FSPD": 13.60143, "FDIR": 269.99997, "RENV": 240.0, "PENV": 1010.0, "VALIDT": 0, "DTG": "2025-07-30 12:00", "LATNOW": 20.4, "LONNOW": -134.9, "WINDNOW": 45.0, "DIRNOW": 8.0, "SPDNOW": 3.0, "TECH": "TRAK", "ADVNR": 14, "ATCFID": "EP072025", "NAME": "GIL", "FTECH": "OFCL", "FCST_DTG": "2025-08-03 12:00:00", "RUN_DTG": "2025-08-04 06:27:00", "BASIN": "EP", "STMNR": 7, "CAT_ID": null, "CAT_DESC": null, "MSGID": "WTPZ22 KNHC 031431", "VALIDTIME": "2025-07-30 12:00:00" }, "geometry": { "type": "Point", "coordinates": [ -109.199997, 11.7 ] } },
{ "type": "Feature", "properties": { "ID": 12250, "LAT": 11.7, "LON": -111.9, "VMAX": 25.0, "MSLP": 1008.0, "RMAX": 90.0, "FSPD": 8.59467, "FDIR": 298.61032, "RENV": 240.0, "PENV": 1010.0, "VALIDT": 0, "DTG": "2025-07-30 18:00", "LATNOW": 20.4, "LONNOW": -134.9, "WINDNOW": 45.0, "DIRNOW": 8.0, "SPDNOW": 3.0, "TECH": "TRAK", "ADVNR": 14, "ATCFID": "EP072025", "NAME": "GIL", "FTECH": "OFCL", "FCST_DTG": "2025-08-03 12:00:00", "RUN_DTG": "2025-08-04 06:27:00", "BASIN": "EP", "STMNR": 7, "CAT_ID": null, "CAT_DESC": null, "MSGID": "WTPZ22 KNHC 031431", "VALIDTIME": "2025-07-30 18:00:00" }, "geometry": { "type": "Point", "coordinates": [ -111.900002, 11.7 ] } },
{ "type": "Feature", "properties": { "ID": 12251, "LAT": 12.5, "LON": -113.4, "VMAX": 25.0, "MSLP": 1007.0, "RMAX": 90.0, "FSPD": 5.54758, "FDIR": 275.32086, "RENV": 200.0, "PENV": 1010.0, "VALIDT": 0, "DTG": "2025-07-31 00:00", "LATNOW": 20.4, "LONNOW": -134.9, "WINDNOW": 45.0, "DIRNOW": 8.0, "SPDNOW": 3.0, "TECH": "TRAK", "ADVNR": 14, "ATCFID": "EP072025", "NAME": "GIL", "FTECH": "OFCL", "FCST_DTG": "2025-08-03 12:00:00", "RUN_DTG": "2025-08-04 06:27:00", "BASIN": "EP", "STMNR": 7, "CAT_ID": null, "CAT_DESC": null, "MSGID": "WTPZ22 KNHC 031431", "VALIDTIME": "2025-07-31 00:00:00" }, "geometry": { "type": "Point", "coordinates": [ -113.400002, 12.5 ] } },
{ "type": "Feature", "properties": { "ID": 12252, "LAT": 12.6, "LON": -114.5, "VMAX": 35.0, "MSLP": 1005.0, "RMAX": 90.0, "FSPD": 5.73106, "FDIR": 285.62213, "RENV": 210.0, "PENV": 1010.0, "VALIDT": 0, "DTG": "2025-07-31 06:00", "LATNOW": 20.4, "LONNOW": -134.9, "WINDNOW": 45.0, "DIRNOW": 8.0, "SPDNOW": 3.0, "TECH": "TRAK", "ADVNR": 14, "ATCFID": "EP072025", "NAME": "GIL", "FTECH": "OFCL", "FCST_DTG": "2025-08-03 12:00:00", "RUN_DTG": "2025-08-04 06:27:00", "BASIN": "EP", "STMNR": 7, "CAT_ID": null, "CAT_DESC": null, "MSGID": "WTPZ22 KNHC 031431", "VALIDTIME": "2025-07-31 06:00:00" }, "geometry": { "type": "Point", "coordinates": [ -114.5, 12.6 ] } },
{ "type": "Feature", "properties": { "ID": 12253, "LAT": 12.9, "LON": -115.6, "VMAX": 45.0, "MSLP": 1000.0, "RMAX": 50.0, "FSPD": 5.24384, "FDIR": 287.1164, "RENV": 200.0, "PENV": 1009.0, "VALIDT": 0, "DTG": "2025-07-31 12:00", "LATNOW": 20.4, "LONNOW": -134.9, "WINDNOW": 45.0, "DIRNOW": 8.0, "SPDNOW": 3.0, "TECH": "TRAK", "ADVNR": 14, "ATCFID": "EP072025", "NAME": "GIL", "FTECH": "OFCL", "FCST_DTG": "2025-08-03 12:00:00", "RUN_DTG": "2025-08-04 06:27:00", "BASIN": "EP", "STMNR": 7, "CAT_ID": null, "CAT_DESC": null, "MSGID": "WTPZ22 KNHC 031431", "VALIDTIME": "2025-07-31 12:00:00" }, "geometry": { "type": "Point", "coordinates": [ -115.599998, 12.9 ] } },
{ "type": "Feature", "properties": { "ID": 12254, "LAT": 13.2, "LON": -116.6, "VMAX": 45.0, "MSLP": 1000.0, "RMAX": 50.0, "FSPD": 7.43232, "FDIR": 298.98102, "RENV": 200.0, "PENV": 1009.0, "VALIDT": 0, "DTG": "2025-07-31 18:00", "LATNOW": 20.4, "LONNOW": -134.9, "WINDNOW": 45.0, "DIRNOW": 8.0, "SPDNOW": 3.0, "TECH": "TRAK", "ADVNR": 14, "ATCFID": "EP072025", "NAME": "GIL", "FTECH": "OFCL", "FCST_DTG": "2025-08-03 12:00:00", "RUN_DTG": "2025-08-04 06:27:00", "BASIN": "EP", "STMNR": 7, "CAT_ID": null, "CAT_DESC": null, "MSGID": "WTPZ22 KNHC 031431", "VALIDTIME": "2025-07-31 18:00:00" }, "geometry": { "type": "Point", "coordinates": [ -116.599998, 13.2 ] } },
{ "type": "Feature", "properties": { "ID": 12255, "LAT": 13.9, "LON": -117.9, "VMAX": 50.0, "MSLP": 998.0, "RMAX": 50.0, "FSPD": 7.85475, "FDIR": 297.28796, "RENV": 200.0, "PENV": 1009.0, "VALIDT": 0, "DTG": "2025-08-01 00:00", "LATNOW": 20.4, "LONNOW": -134.9, "WINDNOW": 45.0, "DIRNOW": 8.0, "SPDNOW": 3.0, "TECH": "TRAK", "ADVNR": 14, "ATCFID": "EP072025", "NAME": "GIL", "FTECH": "OFCL", "FCST_DTG": "2025-08-03 12:00:00", "RUN_DTG": "2025-08-04 06:27:00", "BASIN": "EP", "STMNR": 7, "CAT_ID": null, "CAT_DESC": null, "MSGID": "WTPZ22 KNHC 031431", "VALIDTIME": "2025-08-01 00:00:00" }, "geometry": { "type": "Point", "coordinates": [ -117.900002, 13.9 ] } },
{ "type": "Feature", "properties": { "ID": 12256, "LAT": 14.6, "LON": -119.3, "VMAX": 55.0, "MSLP": 997.0, "RMAX": 50.0, "FSPD": 7.13379, "FDIR": 282.49417, "RENV": 190.0, "PENV": 1010.0, "VALIDT": 0, "DTG": "2025-08-01 06:00", "LATNOW": 20.4, "LONNOW": -134.9, "WINDNOW": 45.0, "DIRNOW": 8.0, "SPDNOW": 3.0, "TECH": "TRAK", "ADVNR": 14, "ATCFID": "EP072025", "NAME": "GIL", "FTECH": "OFCL", "FCST_DTG": "2025-08-03 12:00:00", "RUN_DTG": "2025-08-04 06:27:00", "BASIN": "EP", "STMNR": 7, "CAT_ID": null, "CAT_DESC": null, "MSGID": "WTPZ22 KNHC 031431", "VALIDTIME": "2025-08-01 06:00:00" }, "geometry": { "type": "Point", "coordinates": [ -119.300003, 14.6 ] } },
{ "type": "Feature", "properties": { "ID": 12257, "LAT": 14.9, "LON": -120.7, "VMAX": 55.0, "MSLP": 996.0, "RMAX": 50.0, "FSPD": 9.63241, "FDIR": 291.9535, "RENV": 190.0, "PENV": 1010.0, "VALIDT": 0, "DTG": "2025-08-01 12:00", "LATNOW": 20.4, "LONNOW": -134.9, "WINDNOW": 45.0, "DIRNOW": 8.0, "SPDNOW": 3.0, "TECH": "TRAK", "ADVNR": 14, "ATCFID": "EP072025", "NAME": "GIL", "FTECH": "OFCL", "FCST_DTG": "2025-08-03 12:00:00", "RUN_DTG": "2025-08-04 06:27:00", "BASIN": "EP", "STMNR": 7, "CAT_ID": null, "CAT_DESC": null, "MSGID": "WTPZ22 KNHC 031431", "VALIDTIME": "2025-08-01 12:00:00" }, "geometry": { "type": "Point", "coordinates": [ -120.699997, 14.9 ] } },
{ "type": "Feature", "properties": { "ID": 12258, "LAT": 15.6, "LON": -122.5, "VMAX": 60.0, "MSLP": 993.0, "RMAX": 30.0, "FSPD": 9.42548, "FDIR": 289.11594, "RENV": 190.0, "PENV": 1010.0, "VALIDT": 0, "DTG": "2025-08-01 18:00", "LATNOW": 20.4, "LONNOW": -134.9, "WINDNOW": 45.0, "DIRNOW": 8.0, "SPDNOW": 3.0, "TECH": "TRAK", "ADVNR": 14, "ATCFID": "EP072025", "NAME": "GIL", "FTECH": "OFCL", "FCST_DTG": "2025-08-03 12:00:00", "RUN_DTG": "2025-08-04 06:27:00", "BASIN": "EP", "STMNR": 7, "CAT_ID": null, "CAT_DESC": null, "MSGID": "WTPZ22 KNHC 031431", "VALIDTIME": "2025-08-01 18:00:00" }, "geometry": { "type": "Point", "coordinates": [ -122.5, 15.6 ] } },
{ "type": "Feature", "properties": { "ID": 12259, "LAT": 16.2, "LON": -124.3, "VMAX": 65.0, "MSLP": 991.0, "RMAX": 25.0, "FSPD": 9.33701, "FDIR": 296.15353, "RENV": 210.0, "PENV": 1010.0, "VALIDT": 0, "DTG": "2025-08-02 00:00", "LATNOW": 20.4, "LONNOW": -134.9, "WINDNOW": 45.0, "DIRNOW": 8.0, "SPDNOW": 3.0, "TECH": "TRAK", "ADVNR": 14, "ATCFID": "EP072025", "NAME": "GIL", "FTECH": "OFCL", "FCST_DTG": "2025-08-03 12:00:00", "RUN_DTG": "2025-08-04 06:27:00", "BASIN": "EP", "STMNR": 7, "CAT_ID": null, "CAT_DESC": null, "MSGID": "WTPZ22 KNHC 031431", "VALIDTIME": "2025-08-02 00:00:00" }, "geometry": { "type": "Point", "coordinates": [ -124.300003, 16.200001 ] } },
{ "type": "Feature", "properties": { "ID": 12260, "LAT": 17.0, "LON": -126.0, "VMAX": 65.0, "MSLP": 991.0, "RMAX": 25.0, "FSPD": 9.7477, "FDIR": 294.974, "RENV": 210.0, "PENV": 1010.0, "VALIDT": 0, "DTG": "2025-08-02 06:00", "LATNOW": 20.4, "LONNOW": -134.9, "WINDNOW": 45.0, "DIRNOW": 8.0, "SPDNOW": 3.0, "TECH": "TRAK", "ADVNR": 14, "ATCFID": "EP072025", "NAME": "GIL", "FTECH": "OFCL", "FCST_DTG": "2025-08-03 12:00:00", "RUN_DTG": "2025-08-04 06:27:00", "BASIN": "EP", "STMNR": 7, "CAT_ID": null, "CAT_DESC": null, "MSGID": "WTPZ22 KNHC 031431", "VALIDTIME": "2025-08-02 06:00:00" }, "geometry": { "type": "Point", "coordinates": [ -126.0, 17.0 ] } },
{ "type": "Feature", "properties": { "ID": 12261, "LAT": 17.8, "LON": -127.8, "VMAX": 65.0, "MSLP": 991.0, "RMAX": 25.0, "FSPD": 10.15662, "FDIR": 293.90427, "RENV": 210.0, "PENV": 1011.0, "VALIDT": 0, "DTG": "2025-08-02 12:00", "LATNOW": 20.4, "LONNOW": -134.9, "WINDNOW": 45.0, "DIRNOW": 8.0, "SPDNOW": 3.0, "TECH": "TRAK", "ADVNR": 14, "ATCFID": "EP072025", "NAME": "GIL", "FTECH": "OFCL", "FCST_DTG": "2025-08-03 12:00:00", "RUN_DTG": "2025-08-04 06:27:00", "BASIN": "EP", "STMNR": 7, "CAT_ID": null, "CAT_DESC": null, "MSGID": "WTPZ22 KNHC 031431", "VALIDTIME": "2025-08-02 12:00:00" }, "geometry": { "type": "Point", "coordinates": [ -127.800003, 17.799999 ] } },
{ "type": "Feature", "properties": { "ID": 12262, "LAT": 18.6, "LON": -129.7, "VMAX": 60.0, "MSLP": 993.0, "RMAX": 25.0, "FSPD": 7.92633, "FDIR": 292.9184, "RENV": 210.0, "PENV": 1012.0, "VALIDT": 0, "DTG": "2025-08-02 18:00", "LATNOW": 20.4, "LONNOW": -134.9, "WINDNOW": 45.0, "DIRNOW": 8.0, "SPDNOW": 3.0, "TECH": "TRAK", "ADVNR": 14, "ATCFID": "EP072025", "NAME": "GIL", "FTECH": "OFCL", "FCST_DTG": "2025-08-03 12:00:00", "RUN_DTG": "2025-08-04 06:27:00", "BASIN": "EP", "STMNR": 7, "CAT_ID": null, "CAT_DESC": null, "MSGID": "WTPZ22 KNHC 031431", "VALIDTIME": "2025-08-02 18:00:00" }, "geometry": { "type": "Point", "coordinates": [ -129.699997, 18.6 ] } },
{ "type": "Feature", "properties": { "ID": 12263, "LAT": 19.2, "LON": -131.2, "VMAX": 55.0, "MSLP": 997.0, "RMAX": 25.0, "FSPD": 8.80281, "FDIR": 290.52673, "RENV": 210.0, "PENV": 1012.0, "VALIDT": 0, "DTG": "2025-08-03 00:00", "LATNOW": 20.4, "LONNOW": -134.9, "WINDNOW": 45.0, "DIRNOW": 8.0, "SPDNOW": 3.0, "TECH": "TRAK", "ADVNR": 14, "ATCFID": "EP072025", "NAME": "GIL", "FTECH": "OFCL", "FCST_DTG": "2025-08-03 12:00:00", "RUN_DTG": "2025-08-04 06:27:00", "BASIN": "EP", "STMNR": 7, "CAT_ID": null, "CAT_DESC": null, "MSGID": "WTPZ22 KNHC 031431", "VALIDTIME": "2025-08-03 00:00:00" }, "geometry": { "type": "Point", "coordinates": [ -131.199997, 19.200001 ] } },
{ "type": "Feature", "properties": { "ID": 12264, "LAT": 19.8, "LON": -132.9, "VMAX": 50.0, "MSLP": 1000.0, "RMAX": 25.0, "FSPD": 10.14329, "FDIR": 287.71643, "RENV": 190.0, "PENV": 1014.0, "VALIDT": 0, "DTG": "2025-08-03 06:00", "LATNOW": 20.4, "LONNOW": -134.9, "WINDNOW": 45.0, "DIRNOW": 8.0, "SPDNOW": 3.0, "TECH": "TRAK", "ADVNR": 14, "ATCFID": "EP072025", "NAME": "GIL", "FTECH": "OFCL", "FCST_DTG": "2025-08-03 12:00:00", "RUN_DTG": "2025-08-04 06:27:00", "BASIN": "EP", "STMNR": 7, "CAT_ID": null, "CAT_DESC": null, "MSGID": "WTPZ22 KNHC 031431", "VALIDTIME": "2025-08-03 06:00:00" }, "geometry": { "type": "Point", "coordinates": [ -132.899994, 19.799999 ] } },
{ "type": "Feature", "properties": { "ID": 12265, "LAT": 20.4, "LON": -134.9, "VMAX": 45.0, "MSLP": 1003.0, "RMAX": 30.0, "FSPD": 7.97977, "FDIR": 284.944, "RENV": 190.0, "PENV": 1014.0, "VALIDT": 0, "DTG": "2025-08-03 12:00", "LATNOW": 20.4, "LONNOW": -134.9, "WINDNOW": 45.0, "DIRNOW": 8.0, "SPDNOW": 3.0, "TECH": "TRAK", "ADVNR": 14, "ATCFID": "EP072025", "NAME": "GIL", "FTECH": "OFCL", "FCST_DTG": "2025-08-03 12:00:00", "RUN_DTG": "2025-08-04 06:27:00", "BASIN": "EP", "STMNR": 7, "CAT_ID": null, "CAT_DESC": null, "MSGID": "WTPZ22 KNHC 031431", "VALIDTIME": "2025-08-03 12:00:00" }, "geometry": { "type": "Point", "coordinates": [ -134.899994, 20.4 ] } },
{ "type": "Feature", "properties": { "ID": 12266, "LAT": 20.6, "LON": -135.7, "VMAX": 45.0, "MSLP": 1003.0, "RMAX": 30.0, "FSPD": 7.65107, "FDIR": 285.60196, "RENV": 180.0, "PENV": 1012.0, "VALIDT": 3, "DTG": "2025-08-03 15:00", "LATNOW": 20.4, "LONNOW": -134.9, "WINDNOW": 45.0, "DIRNOW": 8.0, "SPDNOW": 3.0, "TECH": "FCST", "ADVNR": 14, "ATCFID": "EP072025", "NAME": "GIL", "FTECH": "OFCL", "FCST_DTG": "2025-08-03 12:00:00", "RUN_DTG": "2025-08-04 06:27:00", "BASIN": "EP", "STMNR": 7, "CAT_ID": null, "CAT_DESC": null, "MSGID": "WTPZ22 KNHC 031431", "VALIDTIME": "2025-08-03 15:00:00" }, "geometry": { "type": "Point", "coordinates": [ -135.699997, 20.6 ] } },
{ "type": "Feature", "properties": { "ID": 12267, "LAT": 21.2, "LON": -138.0, "VMAX": 35.0, "MSLP": 1008.74713, "RMAX": 32.86575, "FSPD": 7.29643, "FDIR": 280.1523, "RENV": 180.0, "PENV": 1012.0, "VALIDT": 12, "DTG": "2025-08-04 00:00", "LATNOW": 20.4, "LONNOW": -134.9, "WINDNOW": 45.0, "DIRNOW": 8.0, "SPDNOW": 3.0, "TECH": "FCST", "ADVNR": 14, "ATCFID": "EP072025", "NAME": "GIL", "FTECH": "OFCL", "FCST_DTG": "2025-08-03 12:00:00", "RUN_DTG": "2025-08-04 06:27:00", "BASIN": "EP", "STMNR": 7, "CAT_ID": null, "CAT_DESC": null, "MSGID": "WTPZ22 KNHC 031431", "VALIDTIME": "2025-08-04 00:00:00" }, "geometry": { "type": "Point", "coordinates": [ -138.0, 21.200001 ] } },
{ "type": "Feature", "properties": { "ID": 12268, "LAT": 21.7, "LON": -141.0, "VMAX": 30.0, "MSLP": 1010.40607, "RMAX": 34.04245, "FSPD": 6.2308, "FDIR": 274.73596, "RENV": 250.0, "PENV": 1012.0, "VALIDT": 24, "DTG": "2025-08-04 12:00", "LATNOW": 20.4, "LONNOW": -134.9, "WINDNOW": 45.0, "DIRNOW": 8.0, "SPDNOW": 3.0, "TECH": "FCST", "ADVNR": 14, "ATCFID": "EP072025", "NAME": "GIL", "FTECH": "OFCL", "FCST_DTG": "2025-08-03 12:00:00", "RUN_DTG": "2025-08-04 06:27:00", "BASIN": "EP", "STMNR": 7, "CAT_ID": null, "CAT_DESC": null, "MSGID": "WTPZ22 KNHC 031431", "VALIDTIME": "2025-08-04 12:00:00" }, "geometry": { "type": "Point", "coordinates": [ -141.0, 21.700001 ] } },
{ "type": "Feature", "properties": { "ID": 12269, "LAT": 21.9, "LON": -143.6, "VMAX": 30.0, "MSLP": 1010.40607, "RMAX": 34.04245, "FSPD": 6.20829, "FDIR": 272.37454, "RENV": 250.0, "PENV": 1012.0, "VALIDT": 36, "DTG": "2025-08-05 00:00", "LATNOW": 20.4, "LONNOW": -134.9, "WINDNOW": 45.0, "DIRNOW": 8.0, "SPDNOW": 3.0, "TECH": "FCST", "ADVNR": 14, "ATCFID": "EP072025", "NAME": "GIL", "FTECH": "OFCL", "FCST_DTG": "2025-08-03 12:00:00", "RUN_DTG": "2025-08-04 06:27:00", "BASIN": "EP", "STMNR": 7, "CAT_ID": null, "CAT_DESC": null, "MSGID": "WTPZ22 KNHC 031431", "VALIDTIME": "2025-08-05 00:00:00" }, "geometry": { "type": "Point", "coordinates": [ -143.600006, 21.9 ] } },
{ "type": "Feature", "properties": { "ID": 12270, "LAT": 22.0, "LON": -146.2, "VMAX": 30.0, "MSLP": 1010.40607, "RMAX": 34.04245, "FSPD": 6.71519, "FDIR": 276.5986, "RENV": 250.0, "PENV": 1012.0, "VALIDT": 48, "DTG": "2025-08-05 12:00", "LATNOW": 20.4, "LONNOW": -134.9, "WINDNOW": 45.0, "DIRNOW": 8.0, "SPDNOW": 3.0, "TECH": "FCST", "ADVNR": 14, "ATCFID": "EP072025", "NAME": "GIL", "FTECH": "OFCL", "FCST_DTG": "2025-08-03 12:00:00", "RUN_DTG": "2025-08-04 06:27:00", "BASIN": "EP", "STMNR": 7, "CAT_ID": null, "CAT_DESC": null, "MSGID": "WTPZ22 KNHC 031431", "VALIDTIME": "2025-08-05 12:00:00" }, "geometry": { "type": "Point", "coordinates": [ -146.199997, 22.0 ] } },
{ "type": "Feature", "properties": { "ID": 12271, "LAT": 22.3, "LON": -149.0, "VMAX": 30.0, "MSLP": 1010.40607, "RMAX": 34.04245, "FSPD": 6.77478, "FDIR": 280.9433, "RENV": 250.0, "PENV": 1012.0, "VALIDT": 60, "DTG": "2025-08-06 00:00", "LATNOW": 20.4, "LONNOW": -134.9, "WINDNOW": 45.0, "DIRNOW": 8.0, "SPDNOW": 3.0, "TECH": "FCST", "ADVNR": 14, "ATCFID": "EP072025", "NAME": "GIL", "FTECH": "OFCL", "FCST_DTG": "2025-08-03 12:00:00", "RUN_DTG": "2025-08-04 06:27:00", "BASIN": "EP", "STMNR": 7, "CAT_ID": null, "CAT_DESC": null, "MSGID": "WTPZ22 KNHC 031431", "VALIDTIME": "2025-08-06 00:00:00" }, "geometry": { "type": "Point", "coordinates": [ -149.0, 22.299999 ] } },
{ "type": "Feature", "properties": { "ID": 12272, "LAT": 22.8, "LON": -151.8, "VMAX": 30.0, "MSLP": 1010.40607, "RMAX": 34.04245, "FSPD": 6.77478, "FDIR": 280.9433, "RENV": 250.0, "PENV": 1012.0, "VALIDT": 72, "DTG": "2025-08-06 12:00", "LATNOW": 20.4, "LONNOW": -134.9, "WINDNOW": 45.0, "DIRNOW": 8.0, "SPDNOW": 3.0, "TECH": "FCST", "ADVNR": 14, "ATCFID": "EP072025", "NAME": "GIL", "FTECH": "OFCL", "FCST_DTG": "2025-08-03 12:00:00", "RUN_DTG": "2025-08-04 06:27:00", "BASIN": "EP", "STMNR": 7, "CAT_ID": null, "CAT_DESC": null, "MSGID": "WTPZ22 KNHC 031431", "VALIDTIME": "2025-08-06 12:00:00" }, "geometry": { "type": "Point", "coordinates": [ -151.800003, 22.799999 ] } },
{ "type": "Feature", "properties": { "ID": 12265, "LAT": 20.4, "LON": -134.9, "VMAX": 45.0, "MSLP": 1003.0, "RMAX": 30.0, "FSPD": 7.97977, "FDIR": 284.944, "RENV": 190.0, "PENV": 1014.0, "VALIDT": 0, "DTG": "2025-08-03 12:00", "LATNOW": 20.4, "LONNOW": -134.9, "WINDNOW": 45.0, "DIRNOW": 8.0, "SPDNOW": 3.0, "TECH": "TRAK", "ADVNR": 14, "ATCFID": "EP072025", "NAME": "GIL", "FTECH": "OFCL", "FCST_DTG": "2025-08-03 12:00:00", "RUN_DTG": "2025-08-04 06:27:00", "BASIN": "EP", "STMNR": 7, "CAT_ID": null, "CAT_DESC": null, "MSGID": "WTPZ22 KNHC 031431", "VALIDTIME": "2025-08-03 12:00:00" }, "geometry": { "type": "LineString", "coordinates": [ [ -100.2, 9.9 ], [ -101.1, 10.0 ], [ -101.6, 10.2 ], [ -102.7, 10.6 ], [ -103.7, 10.9 ], [ -105.0, 11.3 ], [ -108.2, 11.4 ], [ -109.2, 11.7 ], [ -111.9, 11.7 ], [ -113.4, 12.5 ], [ -114.5, 12.6 ], [ -115.6, 12.9 ], [ -116.6, 13.2 ], [ -117.9, 13.9 ], [ -119.3, 14.6 ], [ -120.7, 14.9 ], [ -122.5, 15.6 ], [ -124.3, 16.2 ], [ -126.0, 17.0 ], [ -127.8, 17.8 ], [ -129.7, 18.6 ], [ -131.2, 19.2 ], [ -132.9, 19.8 ], [ -134.9, 20.4 ] ] } },
{ "type": "Feature", "properties": { "ID": 12272, "LAT": 22.8, "LON": -151.8, "VMAX": 30.0, "MSLP": 1010.40607, "RMAX": 34.04245, "FSPD": 6.77478, "FDIR": 280.9433, "RENV": 250.0, "PENV": 1012.0, "VALIDT": 72, "DTG": "2025-08-06 12:00", "LATNOW": 20.4, "LONNOW": -134.9, "WINDNOW": 45.0, "DIRNOW": 8.0, "SPDNOW": 3.0, "TECH": "FCST", "ADVNR": 14, "ATCFID": "EP072025", "NAME": "GIL", "FTECH": "OFCL", "FCST_DTG": "2025-08-03 12:00:00", "RUN_DTG": "2025-08-04 06:27:00", "BASIN": "EP", "STMNR": 7, "CAT_ID": null, "CAT_DESC": null, "MSGID": "WTPZ22 KNHC 031431", "VALIDTIME": "2025-08-06 12:00:00" }, "geometry": { "type": "LineString", "coordinates": [ [ -134.9, 20.4 ], [ -135.7, 20.6 ], [ -138.0, 21.2 ], [ -141.0, 21.7 ], [ -143.6, 21.9 ], [ -146.2, 22.0 ], [ -149.0, 22.3 ], [ -151.8, 22.8 ] ] } }
]
}
