{
"type": "FeatureCollection",
"crs": { "type": "name", "properties": { "name": "urn:ogc:def:crs:OGC:1.3:CRS84" } },
"features": [
{ "type": "Feature", "properties": { "ID": 51265, "LAT": 17.2, "LON": -60.7, "VMAX": 25.0, "MSLP": 1010.0, "RMAX": 150.0, "FSPD": 6.40764, "FDIR": 274.60492, "RENV": 180.0, "PENV": 1012.0, "VALIDT": 0, "DTG": "2025-09-23 06:00", "LATNOW": 32.9, "LONNOW": -60.9, "WINDNOW": 70.0, "DIRNOW": 12.0, "SPDNOW": 0.0, "TECH": "TRAK", "ADVNR": 24, "ATCFID": "AL092025", "NAME": "IMELDA", "FTECH": "OFCL", "FCST_DTG": "2025-10-02 12:00:00", "RUN_DTG": "2025-10-03 07:06:43", "BASIN": "AL", "STMNR": 9, "CAT_ID": null, "CAT_DESC": null, "MSGID": "WTNT24 KNHC 021446", "VALIDTIME": "2025-09-23 06:00:00" }, "geometry": { "type": "Point", "coordinates": [ -60.700001, 17.200001 ] } },
{ "type": "Feature", "properties": { "ID": 51266, "LAT": 17.3, "LON": -62.0, "VMAX": 25.0, "MSLP": 1010.0, "RMAX": 150.0, "FSPD": 2.7539, "FDIR": 200.92789, "RENV": 180.0, "PENV": 1012.0, "VALIDT": 0, "DTG": "2025-09-23 12:00", "LATNOW": 32.9, "LONNOW": -60.9, "WINDNOW": 70.0, "DIRNOW": 12.0, "SPDNOW": 0.0, "TECH": "TRAK", "ADVNR": 24, "ATCFID": "AL092025", "NAME": "IMELDA", "FTECH": "OFCL", "FCST_DTG": "2025-10-02 12:00:00", "RUN_DTG": "2025-10-03 07:06:43", "BASIN": "AL", "STMNR": 9, "CAT_ID": null, "CAT_DESC": null, "MSGID": "WTNT24 KNHC 021446", "VALIDTIME": "2025-09-23 12:00:00" }, "geometry": { "type": "Point", "coordinates": [ -62.0, 17.299999 ] } },
{ "type": "Feature", "properties": { "ID": 51267, "LAT": 16.8, "LON": -62.2, "VMAX": 25.0, "MSLP": 1010.0, "RMAX": 150.0, "FSPD": 5.11959, "FDIR": 300.1607, "RENV": 180.0, "PENV": 1012.0, "VALIDT": 0, "DTG": "2025-09-23 18:00", "LATNOW": 32.9, "LONNOW": -60.9, "WINDNOW": 70.0, "DIRNOW": 12.0, "SPDNOW": 0.0, "TECH": "TRAK", "ADVNR": 24, "ATCFID": "AL092025", "NAME": "IMELDA", "FTECH": "OFCL", "FCST_DTG": "2025-10-02 12:00:00", "RUN_DTG": "2025-10-03 07:06:43", "BASIN": "AL", "STMNR": 9, "CAT_ID": null, "CAT_DESC": null, "MSGID": "WTNT24 KNHC 021446", "VALIDTIME": "2025-09-23 18:00:00" }, "geometry": { "type": "Point", "coordinates": [ -62.200001, 16.799999 ] } },
{ "type": "Feature", "properties": { "ID": 51268, "LAT": 17.3, "LON": -63.1, "VMAX": 25.0, "MSLP": 1012.0, "RMAX": 150.0, "FSPD": 5.69511, "FDIR": 309.22125, "RENV": 180.0, "PENV": 1014.0, "VALIDT": 0, "DTG": "2025-09-24 00:00", "LATNOW": 32.9, "LONNOW": -60.9, "WINDNOW": 70.0, "DIRNOW": 12.0, "SPDNOW": 0.0, "TECH": "TRAK", "ADVNR": 24, "ATCFID": "AL092025", "NAME": "IMELDA", "FTECH": "OFCL", "FCST_DTG": "2025-10-02 12:00:00", "RUN_DTG": "2025-10-03 07:06:43", "BASIN": "AL", "STMNR": 9, "CAT_ID": null, "CAT_DESC": null, "MSGID": "WTNT24 KNHC 021446", "VALIDTIME": "2025-09-24 00:00:00" }, "geometry": { "type": "Point", "coordinates": [ -63.099998, 17.299999 ] } },
{ "type": "Feature", "properties": { "ID": 51269, "LAT": 18.0, "LON": -64.0, "VMAX": 25.0, "MSLP": 1012.0, "RMAX": 150.0, "FSPD": 5.31287, "FDIR": 247.21217, "RENV": 180.0, "PENV": 1014.0, "VALIDT": 0, "DTG": "2025-09-24 06:00", "LATNOW": 32.9, "LONNOW": -60.9, "WINDNOW": 70.0, "DIRNOW": 12.0, "SPDNOW": 0.0, "TECH": "TRAK", "ADVNR": 24, "ATCFID": "AL092025", "NAME": "IMELDA", "FTECH": "OFCL", "FCST_DTG": "2025-10-02 12:00:00", "RUN_DTG": "2025-10-03 07:06:43", "BASIN": "AL", "STMNR": 9, "CAT_ID": null, "CAT_DESC": null, "MSGID": "WTNT24 KNHC 021446", "VALIDTIME": "2025-09-24 06:00:00" }, "geometry": { "type": "Point", "coordinates": [ -64.0, 18.0 ] } },
{ "type": "Feature", "properties": { "ID": 51270, "LAT": 17.6, "LON": -65.0, "VMAX": 25.0, "MSLP": 1012.0, "RMAX": 150.0, "FSPD": 8.8391, "FDIR": 273.33655, "RENV": 180.0, "PENV": 1014.0, "VALIDT": 0, "DTG": "2025-09-24 12:00", "LATNOW": 32.9, "LONNOW": -60.9, "WINDNOW": 70.0, "DIRNOW": 12.0, "SPDNOW": 0.0, "TECH": "TRAK", "ADVNR": 24, "ATCFID": "AL092025", "NAME": "IMELDA", "FTECH": "OFCL", "FCST_DTG": "2025-10-02 12:00:00", "RUN_DTG": "2025-10-03 07:06:43", "BASIN": "AL", "STMNR": 9, "CAT_ID": null, "CAT_DESC": null, "MSGID": "WTNT24 KNHC 021446", "VALIDTIME": "2025-09-24 12:00:00" }, "geometry": { "type": "Point", "coordinates": [ -65.0, 17.6 ] } },
{ "type": "Feature", "properties": { "ID": 51271, "LAT": 17.7, "LON": -66.8, "VMAX": 25.0, "MSLP": 1012.0, "RMAX": 150.0, "FSPD": 4.43947, "FDIR": 276.65424, "RENV": 180.0, "PENV": 1014.0, "VALIDT": 0, "DTG": "2025-09-24 18:00", "LATNOW": 32.9, "LONNOW": -60.9, "WINDNOW": 70.0, "DIRNOW": 12.0, "SPDNOW": 0.0, "TECH": "TRAK", "ADVNR": 24, "ATCFID": "AL092025", "NAME": "IMELDA", "FTECH": "OFCL", "FCST_DTG": "2025-10-02 12:00:00", "RUN_DTG": "2025-10-03 07:06:43", "BASIN": "AL", "STMNR": 9, "CAT_ID": null, "CAT_DESC": null, "MSGID": "WTNT24 KNHC 021446", "VALIDTIME": "2025-09-24 18:00:00" }, "geometry": { "type": "Point", "coordinates": [ -66.800003, 17.700001 ] } },
{ "type": "Feature", "properties": { "ID": 51272, "LAT": 17.8, "LON": -67.7, "VMAX": 25.0, "MSLP": 1011.0, "RMAX": 150.0, "FSPD": 7.98703, "FDIR": 301.01617, "RENV": 180.0, "PENV": 1014.0, "VALIDT": 0, "DTG": "2025-09-25 00:00", "LATNOW": 32.9, "LONNOW": -60.9, "WINDNOW": 70.0, "DIRNOW": 12.0, "SPDNOW": 0.0, "TECH": "TRAK", "ADVNR": 24, "ATCFID": "AL092025", "NAME": "IMELDA", "FTECH": "OFCL", "FCST_DTG": "2025-10-02 12:00:00", "RUN_DTG": "2025-10-03 07:06:43", "BASIN": "AL", "STMNR": 9, "CAT_ID": null, "CAT_DESC": null, "MSGID": "WTNT24 KNHC 021446", "VALIDTIME": "2025-09-25 00:00:00" }, "geometry": { "type": "Point", "coordinates": [ -67.699997, 17.799999 ] } },
{ "type": "Feature", "properties": { "ID": 51273, "LAT": 18.44, "LON": -68.82, "VMAX": 25.0, "MSLP": 1011.0, "RMAX": 150.0, "FSPD": 7.97345, "FDIR": 301.07483, "RENV": 180.0, "PENV": 1014.0, "VALIDT": 0, "DTG": "2025-09-25 04:00", "LATNOW": 32.9, "LONNOW": -60.9, "WINDNOW": 70.0, "DIRNOW": 12.0, "SPDNOW": 0.0, "TECH": "TRAK", "ADVNR": 24, "ATCFID": "AL092025", "NAME": "IMELDA", "FTECH": "OFCL", "FCST_DTG": "2025-10-02 12:00:00", "RUN_DTG": "2025-10-03 07:06:43", "BASIN": "AL", "STMNR": 9, "CAT_ID": null, "CAT_DESC": null, "MSGID": "WTNT24 KNHC 021446", "VALIDTIME": "2025-09-25 04:00:00" }, "geometry": { "type": "Point", "coordinates": [ -68.82, 18.440001 ] } },
{ "type": "Feature", "properties": { "ID": 51274, "LAT": 18.6, "LON": -69.1, "VMAX": 25.0, "MSLP": 1011.0, "RMAX": 150.0, "FSPD": 10.59349, "FDIR": 312.83368, "RENV": 180.0, "PENV": 1014.0, "VALIDT": 0, "DTG": "2025-09-25 06:00", "LATNOW": 32.9, "LONNOW": -60.9, "WINDNOW": 70.0, "DIRNOW": 12.0, "SPDNOW": 0.0, "TECH": "TRAK", "ADVNR": 24, "ATCFID": "AL092025", "NAME": "IMELDA", "FTECH": "OFCL", "FCST_DTG": "2025-10-02 12:00:00", "RUN_DTG": "2025-10-03 07:06:43", "BASIN": "AL", "STMNR": 9, "CAT_ID": null, "CAT_DESC": null, "MSGID": "WTNT24 KNHC 021446", "VALIDTIME": "2025-09-25 06:00:00" }, "geometry": { "type": "Point", "coordinates": [ -69.099998, 18.6 ] } },
{ "type": "Feature", "properties": { "ID": 51275, "LAT": 20.0, "LON": -70.7, "VMAX": 25.0, "MSLP": 1011.0, "RMAX": 150.0, "FSPD": 5.46911, "FDIR": 298.05493, "RENV": 180.0, "PENV": 1014.0, "VALIDT": 0, "DTG": "2025-09-25 12:00", "LATNOW": 32.9, "LONNOW": -60.9, "WINDNOW": 70.0, "DIRNOW": 12.0, "SPDNOW": 0.0, "TECH": "TRAK", "ADVNR": 24, "ATCFID": "AL092025", "NAME": "IMELDA", "FTECH": "OFCL", "FCST_DTG": "2025-10-02 12:00:00", "RUN_DTG": "2025-10-03 07:06:43", "BASIN": "AL", "STMNR": 9, "CAT_ID": null, "CAT_DESC": null, "MSGID": "WTNT24 KNHC 021446", "VALIDTIME": "2025-09-25 12:00:00" }, "geometry": { "type": "Point", "coordinates": [ -70.699997, 20.0 ] } },
{ "type": "Feature", "properties": { "ID": 51276, "LAT": 20.5, "LON": -71.7, "VMAX": 25.0, "MSLP": 1011.0, "RMAX": 80.0, "FSPD": 1.77361, "FDIR": 305.4585, "RENV": 180.0, "PENV": 1014.0, "VALIDT": 0, "DTG": "2025-09-25 18:00", "LATNOW": 32.9, "LONNOW": -60.9, "WINDNOW": 70.0, "DIRNOW": 12.0, "SPDNOW": 0.0, "TECH": "TRAK", "ADVNR": 24, "ATCFID": "AL092025", "NAME": "IMELDA", "FTECH": "OFCL", "FCST_DTG": "2025-10-02 12:00:00", "RUN_DTG": "2025-10-03 07:06:43", "BASIN": "AL", "STMNR": 9, "CAT_ID": null, "CAT_DESC": null, "MSGID": "WTNT24 KNHC 021446", "VALIDTIME": "2025-09-25 18:00:00" }, "geometry": { "type": "Point", "coordinates": [ -71.699997, 20.5 ] } },
{ "type": "Feature", "properties": { "ID": 51277, "LAT": 20.7, "LON": -72.0, "VMAX": 25.0, "MSLP": 1009.0, "RMAX": 80.0, "FSPD": 6.34869, "FDIR": 223.17343, "RENV": 180.0, "PENV": 1013.0, "VALIDT": 0, "DTG": "2025-09-26 00:00", "LATNOW": 32.9, "LONNOW": -60.9, "WINDNOW": 70.0, "DIRNOW": 12.0, "SPDNOW": 0.0, "TECH": "TRAK", "ADVNR": 24, "ATCFID": "AL092025", "NAME": "IMELDA", "FTECH": "OFCL", "FCST_DTG": "2025-10-02 12:00:00", "RUN_DTG": "2025-10-03 07:06:43", "BASIN": "AL", "STMNR": 9, "CAT_ID": null, "CAT_DESC": null, "MSGID": "WTNT24 KNHC 021446", "VALIDTIME": "2025-09-26 00:00:00" }, "geometry": { "type": "Point", "coordinates": [ -72.0, 20.700001 ] } },
{ "type": "Feature", "properties": { "ID": 51278, "LAT": 19.8, "LON": -72.9, "VMAX": 25.0, "MSLP": 1009.0, "RMAX": 80.0, "FSPD": 5.90553, "FDIR": 295.821, "RENV": 180.0, "PENV": 1013.0, "VALIDT": 0, "DTG": "2025-09-26 06:00", "LATNOW": 32.9, "LONNOW": -60.9, "WINDNOW": 70.0, "DIRNOW": 12.0, "SPDNOW": 0.0, "TECH": "TRAK", "ADVNR": 24, "ATCFID": "AL092025", "NAME": "IMELDA", "FTECH": "OFCL", "FCST_DTG": "2025-10-02 12:00:00", "RUN_DTG": "2025-10-03 07:06:43", "BASIN": "AL", "STMNR": 9, "CAT_ID": null, "CAT_DESC": null, "MSGID": "WTNT24 KNHC 021446", "VALIDTIME": "2025-09-26 06:00:00" }, "geometry": { "type": "Point", "coordinates": [ -72.900002, 19.799999 ] } },
{ "type": "Feature", "properties": { "ID": 51279, "LAT": 20.3, "LON": -74.0, "VMAX": 25.0, "MSLP": 1009.0, "RMAX": 80.0, "FSPD": 2.81951, "FDIR": 316.87286, "RENV": 180.0, "PENV": 1013.0, "VALIDT": 0, "DTG": "2025-09-26 12:00", "LATNOW": 32.9, "LONNOW": -60.9, "WINDNOW": 70.0, "DIRNOW": 12.0, "SPDNOW": 0.0, "TECH": "TRAK", "ADVNR": 24, "ATCFID": "AL092025", "NAME": "IMELDA", "FTECH": "OFCL", "FCST_DTG": "2025-10-02 12:00:00", "RUN_DTG": "2025-10-03 07:06:43", "BASIN": "AL", "STMNR": 9, "CAT_ID": null, "CAT_DESC": null, "MSGID": "WTNT24 KNHC 021446", "VALIDTIME": "2025-09-26 12:00:00" }, "geometry": { "type": "Point", "coordinates": [ -74.0, 20.299999 ] } },
{ "type": "Feature", "properties": { "ID": 51280, "LAT": 20.7, "LON": -74.4, "VMAX": 30.0, "MSLP": 1008.0, "RMAX": 70.0, "FSPD": 6.53781, "FDIR": 298.17224, "RENV": 150.0, "PENV": 1011.0, "VALIDT": 0, "DTG": "2025-09-26 18:00", "LATNOW": 32.9, "LONNOW": -60.9, "WINDNOW": 70.0, "DIRNOW": 12.0, "SPDNOW": 0.0, "TECH": "TRAK", "ADVNR": 24, "ATCFID": "AL092025", "NAME": "IMELDA", "FTECH": "OFCL", "FCST_DTG": "2025-10-02 12:00:00", "RUN_DTG": "2025-10-03 07:06:43", "BASIN": "AL", "STMNR": 9, "CAT_ID": null, "CAT_DESC": null, "MSGID": "WTNT24 KNHC 021446", "VALIDTIME": "2025-09-26 18:00:00" }, "geometry": { "type": "Point", "coordinates": [ -74.400002, 20.700001 ] } },
{ "type": "Feature", "properties": { "ID": 51281, "LAT": 21.3, "LON": -75.6, "VMAX": 30.0, "MSLP": 1007.0, "RMAX": 90.0, "FSPD": 1.54334, "FDIR": 360.0, "RENV": 150.0, "PENV": 1010.0, "VALIDT": 0, "DTG": "2025-09-27 00:00", "LATNOW": 32.9, "LONNOW": -60.9, "WINDNOW": 70.0, "DIRNOW": 12.0, "SPDNOW": 0.0, "TECH": "TRAK", "ADVNR": 24, "ATCFID": "AL092025", "NAME": "IMELDA", "FTECH": "OFCL", "FCST_DTG": "2025-10-02 12:00:00", "RUN_DTG": "2025-10-03 07:06:43", "BASIN": "AL", "STMNR": 9, "CAT_ID": null, "CAT_DESC": null, "MSGID": "WTNT24 KNHC 021446", "VALIDTIME": "2025-09-27 00:00:00" }, "geometry": { "type": "Point", "coordinates": [ -75.599998, 21.299999 ] } },
{ "type": "Feature", "properties": { "ID": 51282, "LAT": 21.6, "LON": -75.6, "VMAX": 30.0, "MSLP": 1007.0, "RMAX": 90.0, "FSPD": 2.80801, "FDIR": 317.12357, "RENV": 150.0, "PENV": 1010.0, "VALIDT": 0, "DTG": "2025-09-27 06:00", "LATNOW": 32.9, "LONNOW": -60.9, "WINDNOW": 70.0, "DIRNOW": 12.0, "SPDNOW": 0.0, "TECH": "TRAK", "ADVNR": 24, "ATCFID": "AL092025", "NAME": "IMELDA", "FTECH": "OFCL", "FCST_DTG": "2025-10-02 12:00:00", "RUN_DTG": "2025-10-03 07:06:43", "BASIN": "AL", "STMNR": 9, "CAT_ID": null, "CAT_DESC": null, "MSGID": "WTNT24 KNHC 021446", "VALIDTIME": "2025-09-27 06:00:00" }, "geometry": { "type": "Point", "coordinates": [ -75.599998, 21.6 ] } },
{ "type": "Feature", "properties": { "ID": 51283, "LAT": 22.0, "LON": -76.0, "VMAX": 30.0, "MSLP": 1005.0, "RMAX": 90.0, "FSPD": 2.43895, "FDIR": 282.1768, "RENV": 150.0, "PENV": 1010.0, "VALIDT": 0, "DTG": "2025-09-27 12:00", "LATNOW": 32.9, "LONNOW": -60.9, "WINDNOW": 70.0, "DIRNOW": 12.0, "SPDNOW": 0.0, "TECH": "TRAK", "ADVNR": 24, "ATCFID": "AL092025", "NAME": "IMELDA", "FTECH": "OFCL", "FCST_DTG": "2025-10-02 12:00:00", "RUN_DTG": "2025-10-03 07:06:43", "BASIN": "AL", "STMNR": 9, "CAT_ID": null, "CAT_DESC": null, "MSGID": "WTNT24 KNHC 021446", "VALIDTIME": "2025-09-27 12:00:00" }, "geometry": { "type": "Point", "coordinates": [ -76.0, 22.0 ] } },
{ "type": "Feature", "properties": { "ID": 51284, "LAT": 22.1, "LON": -76.5, "VMAX": 30.0, "MSLP": 1005.0, "RMAX": 90.0, "FSPD": 1.61511, "FDIR": 342.8545, "RENV": 150.0, "PENV": 1010.0, "VALIDT": 0, "DTG": "2025-09-27 18:00", "LATNOW": 32.9, "LONNOW": -60.9, "WINDNOW": 70.0, "DIRNOW": 12.0, "SPDNOW": 0.0, "TECH": "TRAK", "ADVNR": 24, "ATCFID": "AL092025", "NAME": "IMELDA", "FTECH": "OFCL", "FCST_DTG": "2025-10-02 12:00:00", "RUN_DTG": "2025-10-03 07:06:43", "BASIN": "AL", "STMNR": 9, "CAT_ID": null, "CAT_DESC": null, "MSGID": "WTNT24 KNHC 021446", "VALIDTIME": "2025-09-27 18:00:00" }, "geometry": { "type": "Point", "coordinates": [ -76.5, 22.1 ] } },
{ "type": "Feature", "properties": { "ID": 51285, "LAT": 22.4, "LON": -76.6, "VMAX": 30.0, "MSLP": 1004.0, "RMAX": 60.0, "FSPD": 2.44819, "FDIR": 309.07962, "RENV": 170.0, "PENV": 1009.0, "VALIDT": 0, "DTG": "2025-09-28 00:00", "LATNOW": 32.9, "LONNOW": -60.9, "WINDNOW": 70.0, "DIRNOW": 12.0, "SPDNOW": 0.0, "TECH": "TRAK", "ADVNR": 24, "ATCFID": "AL092025", "NAME": "IMELDA", "FTECH": "OFCL", "FCST_DTG": "2025-10-02 12:00:00", "RUN_DTG": "2025-10-03 07:06:43", "BASIN": "AL", "STMNR": 9, "CAT_ID": null, "CAT_DESC": null, "MSGID": "WTNT24 KNHC 021446", "VALIDTIME": "2025-09-28 00:00:00" }, "geometry": { "type": "Point", "coordinates": [ -76.599998, 22.4 ] } },
{ "type": "Feature", "properties": { "ID": 51286, "LAT": 22.7, "LON": -77.0, "VMAX": 30.0, "MSLP": 1003.0, "RMAX": 60.0, "FSPD": 2.50114, "FDIR": 325.3595, "RENV": 170.0, "PENV": 1009.0, "VALIDT": 0, "DTG": "2025-09-28 06:00", "LATNOW": 32.9, "LONNOW": -60.9, "WINDNOW": 70.0, "DIRNOW": 12.0, "SPDNOW": 0.0, "TECH": "TRAK", "ADVNR": 24, "ATCFID": "AL092025", "NAME": "IMELDA", "FTECH": "OFCL", "FCST_DTG": "2025-10-02 12:00:00", "RUN_DTG": "2025-10-03 07:06:43", "BASIN": "AL", "STMNR": 9, "CAT_ID": null, "CAT_DESC": null, "MSGID": "WTNT24 KNHC 021446", "VALIDTIME": "2025-09-28 06:00:00" }, "geometry": { "type": "Point", "coordinates": [ -77.0, 22.700001 ] } },
{ "type": "Feature", "properties": { "ID": 51287, "LAT": 23.1, "LON": -77.3, "VMAX": 30.0, "MSLP": 1002.0, "RMAX": 60.0, "FSPD": 3.60111, "FDIR": 360.0, "RENV": 180.0, "PENV": 1009.0, "VALIDT": 0, "DTG": "2025-09-28 12:00", "LATNOW": 32.9, "LONNOW": -60.9, "WINDNOW": 70.0, "DIRNOW": 12.0, "SPDNOW": 0.0, "TECH": "TRAK", "ADVNR": 24, "ATCFID": "AL092025", "NAME": "IMELDA", "FTECH": "OFCL", "FCST_DTG": "2025-10-02 12:00:00", "RUN_DTG": "2025-10-03 07:06:43", "BASIN": "AL", "STMNR": 9, "CAT_ID": null, "CAT_DESC": null, "MSGID": "WTNT24 KNHC 021446", "VALIDTIME": "2025-09-28 12:00:00" }, "geometry": { "type": "Point", "coordinates": [ -77.300003, 23.1 ] } },
{ "type": "Feature", "properties": { "ID": 51288, "LAT": 23.8, "LON": -77.3, "VMAX": 35.0, "MSLP": 998.0, "RMAX": 40.0, "FSPD": 4.22121, "FDIR": 12.84576, "RENV": 190.0, "PENV": 1009.0, "VALIDT": 0, "DTG": "2025-09-28 18:00", "LATNOW": 32.9, "LONNOW": -60.9, "WINDNOW": 70.0, "DIRNOW": 12.0, "SPDNOW": 0.0, "TECH": "TRAK", "ADVNR": 24, "ATCFID": "AL092025", "NAME": "IMELDA", "FTECH": "OFCL", "FCST_DTG": "2025-10-02 12:00:00", "RUN_DTG": "2025-10-03 07:06:43", "BASIN": "AL", "STMNR": 9, "CAT_ID": null, "CAT_DESC": null, "MSGID": "WTNT24 KNHC 021446", "VALIDTIME": "2025-09-28 18:00:00" }, "geometry": { "type": "Point", "coordinates": [ -77.300003, 23.799999 ] } },
{ "type": "Feature", "properties": { "ID": 51289, "LAT": 24.6, "LON": -77.1, "VMAX": 35.0, "MSLP": 998.0, "RMAX": 40.0, "FSPD": 2.57222, "FDIR": 360.0, "RENV": 190.0, "PENV": 1009.0, "VALIDT": 0, "DTG": "2025-09-29 00:00", "LATNOW": 32.9, "LONNOW": -60.9, "WINDNOW": 70.0, "DIRNOW": 12.0, "SPDNOW": 0.0, "TECH": "TRAK", "ADVNR": 24, "ATCFID": "AL092025", "NAME": "IMELDA", "FTECH": "OFCL", "FCST_DTG": "2025-10-02 12:00:00", "RUN_DTG": "2025-10-03 07:06:43", "BASIN": "AL", "STMNR": 9, "CAT_ID": null, "CAT_DESC": null, "MSGID": "WTNT24 KNHC 021446", "VALIDTIME": "2025-09-29 00:00:00" }, "geometry": { "type": "Point", "coordinates": [ -77.099998, 24.6 ] } },
{ "type": "Feature", "properties": { "ID": 51290, "LAT": 25.1, "LON": -77.1, "VMAX": 40.0, "MSLP": 996.0, "RMAX": 30.0, "FSPD": 6.68777, "FDIR": 360.0, "RENV": 190.0, "PENV": 1009.0, "VALIDT": 0, "DTG": "2025-09-29 06:00", "LATNOW": 32.9, "LONNOW": -60.9, "WINDNOW": 70.0, "DIRNOW": 12.0, "SPDNOW": 0.0, "TECH": "TRAK", "ADVNR": 24, "ATCFID": "AL092025", "NAME": "IMELDA", "FTECH": "OFCL", "FCST_DTG": "2025-10-02 12:00:00", "RUN_DTG": "2025-10-03 07:06:43", "BASIN": "AL", "STMNR": 9, "CAT_ID": null, "CAT_DESC": null, "MSGID": "WTNT24 KNHC 021446", "VALIDTIME": "2025-09-29 06:00:00" }, "geometry": { "type": "Point", "coordinates": [ -77.099998, 25.1 ] } },
{ "type": "Feature", "properties": { "ID": 51291, "LAT": 26.4, "LON": -77.1, "VMAX": 50.0, "MSLP": 992.0, "RMAX": 30.0, "FSPD": 4.21679, "FDIR": 347.42047, "RENV": 190.0, "PENV": 1009.0, "VALIDT": 0, "DTG": "2025-09-29 12:00", "LATNOW": 32.9, "LONNOW": -60.9, "WINDNOW": 70.0, "DIRNOW": 12.0, "SPDNOW": 0.0, "TECH": "TRAK", "ADVNR": 24, "ATCFID": "AL092025", "NAME": "IMELDA", "FTECH": "OFCL", "FCST_DTG": "2025-10-02 12:00:00", "RUN_DTG": "2025-10-03 07:06:43", "BASIN": "AL", "STMNR": 9, "CAT_ID": null, "CAT_DESC": null, "MSGID": "WTNT24 KNHC 021446", "VALIDTIME": "2025-09-29 12:00:00" }, "geometry": { "type": "Point", "coordinates": [ -77.099998, 26.4 ] } },
{ "type": "Feature", "properties": { "ID": 51292, "LAT": 27.2, "LON": -77.3, "VMAX": 55.0, "MSLP": 986.0, "RMAX": 30.0, "FSPD": 4.63, "FDIR": 360.0, "RENV": 200.0, "PENV": 1009.0, "VALIDT": 0, "DTG": "2025-09-29 18:00", "LATNOW": 32.9, "LONNOW": -60.9, "WINDNOW": 70.0, "DIRNOW": 12.0, "SPDNOW": 0.0, "TECH": "TRAK", "ADVNR": 24, "ATCFID": "AL092025", "NAME": "IMELDA", "FTECH": "OFCL", "FCST_DTG": "2025-10-02 12:00:00", "RUN_DTG": "2025-10-03 07:06:43", "BASIN": "AL", "STMNR": 9, "CAT_ID": null, "CAT_DESC": null, "MSGID": "WTNT24 KNHC 021446", "VALIDTIME": "2025-09-29 18:00:00" }, "geometry": { "type": "Point", "coordinates": [ -77.300003, 27.200001 ] } },
{ "type": "Feature", "properties": { "ID": 51293, "LAT": 28.1, "LON": -77.3, "VMAX": 55.0, "MSLP": 985.0, "RMAX": 35.0, "FSPD": 2.61177, "FDIR": 9.98312, "RENV": 200.0, "PENV": 1009.0, "VALIDT": 0, "DTG": "2025-09-30 00:00", "LATNOW": 32.9, "LONNOW": -60.9, "WINDNOW": 70.0, "DIRNOW": 12.0, "SPDNOW": 0.0, "TECH": "TRAK", "ADVNR": 24, "ATCFID": "AL092025", "NAME": "IMELDA", "FTECH": "OFCL", "FCST_DTG": "2025-10-02 12:00:00", "RUN_DTG": "2025-10-03 07:06:43", "BASIN": "AL", "STMNR": 9, "CAT_ID": null, "CAT_DESC": null, "MSGID": "WTNT24 KNHC 021446", "VALIDTIME": "2025-09-30 00:00:00" }, "geometry": { "type": "Point", "coordinates": [ -77.300003, 28.1 ] } },
{ "type": "Feature", "properties": { "ID": 51294, "LAT": 28.6, "LON": -77.2, "VMAX": 55.0, "MSLP": 983.0, "RMAX": 50.0, "FSPD": 2.46241, "FDIR": 33.31372, "RENV": 200.0, "PENV": 1007.0, "VALIDT": 0, "DTG": "2025-09-30 06:00", "LATNOW": 32.9, "LONNOW": -60.9, "WINDNOW": 70.0, "DIRNOW": 12.0, "SPDNOW": 0.0, "TECH": "TRAK", "ADVNR": 24, "ATCFID": "AL092025", "NAME": "IMELDA", "FTECH": "OFCL", "FCST_DTG": "2025-10-02 12:00:00", "RUN_DTG": "2025-10-03 07:06:43", "BASIN": "AL", "STMNR": 9, "CAT_ID": null, "CAT_DESC": null, "MSGID": "WTNT24 KNHC 021446", "VALIDTIME": "2025-09-30 06:00:00" }, "geometry": { "type": "Point", "coordinates": [ -77.199997, 28.6 ] } },
{ "type": "Feature", "properties": { "ID": 51295, "LAT": 29.0, "LON": -76.9, "VMAX": 65.0, "MSLP": 980.0, "RMAX": 50.0, "FSPD": 4.17436, "FDIR": 75.73074, "RENV": 180.0, "PENV": 1005.0, "VALIDT": 0, "DTG": "2025-09-30 12:00", "LATNOW": 32.9, "LONNOW": -60.9, "WINDNOW": 70.0, "DIRNOW": 12.0, "SPDNOW": 0.0, "TECH": "TRAK", "ADVNR": 24, "ATCFID": "AL092025", "NAME": "IMELDA", "FTECH": "OFCL", "FCST_DTG": "2025-10-02 12:00:00", "RUN_DTG": "2025-10-03 07:06:43", "BASIN": "AL", "STMNR": 9, "CAT_ID": null, "CAT_DESC": null, "MSGID": "WTNT24 KNHC 021446", "VALIDTIME": "2025-09-30 12:00:00" }, "geometry": { "type": "Point", "coordinates": [ -76.900002, 29.0 ] } },
{ "type": "Feature", "properties": { "ID": 51296, "LAT": 29.2, "LON": -76.0, "VMAX": 75.0, "MSLP": 978.0, "RMAX": 40.0, "FSPD": 6.46469, "FDIR": 76.18826, "RENV": 180.0, "PENV": 1004.0, "VALIDT": 0, "DTG": "2025-09-30 18:00", "LATNOW": 32.9, "LONNOW": -60.9, "WINDNOW": 70.0, "DIRNOW": 12.0, "SPDNOW": 0.0, "TECH": "TRAK", "ADVNR": 24, "ATCFID": "AL092025", "NAME": "IMELDA", "FTECH": "OFCL", "FCST_DTG": "2025-10-02 12:00:00", "RUN_DTG": "2025-10-03 07:06:43", "BASIN": "AL", "STMNR": 9, "CAT_ID": null, "CAT_DESC": null, "MSGID": "WTNT24 KNHC 021446", "VALIDTIME": "2025-09-30 18:00:00" }, "geometry": { "type": "Point", "coordinates": [ -76.0, 29.200001 ] } },
{ "type": "Feature", "properties": { "ID": 51297, "LAT": 29.5, "LON": -74.6, "VMAX": 75.0, "MSLP": 978.0, "RMAX": 25.0, "FSPD": 7.01169, "FDIR": 72.93372, "RENV": 180.0, "PENV": 1004.0, "VALIDT": 0, "DTG": "2025-10-01 00:00", "LATNOW": 32.9, "LONNOW": -60.9, "WINDNOW": 70.0, "DIRNOW": 12.0, "SPDNOW": 0.0, "TECH": "TRAK", "ADVNR": 24, "ATCFID": "AL092025", "NAME": "IMELDA", "FTECH": "OFCL", "FCST_DTG": "2025-10-02 12:00:00", "RUN_DTG": "2025-10-03 07:06:43", "BASIN": "AL", "STMNR": 9, "CAT_ID": null, "CAT_DESC": null, "MSGID": "WTNT24 KNHC 021446", "VALIDTIME": "2025-10-01 00:00:00" }, "geometry": { "type": "Point", "coordinates": [ -74.599998, 29.5 ] } },
{ "type": "Feature", "properties": { "ID": 51298, "LAT": 29.9, "LON": -73.1, "VMAX": 75.0, "MSLP": 976.0, "RMAX": 25.0, "FSPD": 8.99212, "FDIR": 62.76215, "RENV": 180.0, "PENV": 1004.0, "VALIDT": 0, "DTG": "2025-10-01 06:00", "LATNOW": 32.9, "LONNOW": -60.9, "WINDNOW": 70.0, "DIRNOW": 12.0, "SPDNOW": 0.0, "TECH": "TRAK", "ADVNR": 24, "ATCFID": "AL092025", "NAME": "IMELDA", "FTECH": "OFCL", "FCST_DTG": "2025-10-02 12:00:00", "RUN_DTG": "2025-10-03 07:06:43", "BASIN": "AL", "STMNR": 9, "CAT_ID": null, "CAT_DESC": null, "MSGID": "WTNT24 KNHC 021446", "VALIDTIME": "2025-10-01 06:00:00" }, "geometry": { "type": "Point", "coordinates": [ -73.099998, 29.9 ] } },
{ "type": "Feature", "properties": { "ID": 51299, "LAT": 30.7, "LON": -71.3, "VMAX": 80.0, "MSLP": 968.0, "RMAX": 20.0, "FSPD": 9.76117, "FDIR": 71.56564, "RENV": 180.0, "PENV": 1004.0, "VALIDT": 0, "DTG": "2025-10-01 12:00", "LATNOW": 32.9, "LONNOW": -60.9, "WINDNOW": 70.0, "DIRNOW": 12.0, "SPDNOW": 0.0, "TECH": "TRAK", "ADVNR": 24, "ATCFID": "AL092025", "NAME": "IMELDA", "FTECH": "OFCL", "FCST_DTG": "2025-10-02 12:00:00", "RUN_DTG": "2025-10-03 07:06:43", "BASIN": "AL", "STMNR": 9, "CAT_ID": null, "CAT_DESC": null, "MSGID": "WTNT24 KNHC 021446", "VALIDTIME": "2025-10-01 12:00:00" }, "geometry": { "type": "Point", "coordinates": [ -71.300003, 30.700001 ] } },
{ "type": "Feature", "properties": { "ID": 51300, "LAT": 31.3, "LON": -69.2, "VMAX": 85.0, "MSLP": 966.0, "RMAX": 35.0, "FSPD": 12.54182, "FDIR": 78.16513, "RENV": 180.0, "PENV": 1004.0, "VALIDT": 0, "DTG": "2025-10-01 18:00", "LATNOW": 32.9, "LONNOW": -60.9, "WINDNOW": 70.0, "DIRNOW": 12.0, "SPDNOW": 0.0, "TECH": "TRAK", "ADVNR": 24, "ATCFID": "AL092025", "NAME": "IMELDA", "FTECH": "OFCL", "FCST_DTG": "2025-10-02 12:00:00", "RUN_DTG": "2025-10-03 07:06:43", "BASIN": "AL", "STMNR": 9, "CAT_ID": null, "CAT_DESC": null, "MSGID": "WTNT24 KNHC 021446", "VALIDTIME": "2025-10-01 18:00:00" }, "geometry": { "type": "Point", "coordinates": [ -69.199997, 31.299999 ] } },
{ "type": "Feature", "properties": { "ID": 51301, "LAT": 31.8, "LON": -66.4, "VMAX": 85.0, "MSLP": 971.0, "RMAX": 35.0, "FSPD": 13.97429, "FDIR": 75.06662, "RENV": 150.0, "PENV": 1000.0, "VALIDT": 0, "DTG": "2025-10-02 00:00", "LATNOW": 32.9, "LONNOW": -60.9, "WINDNOW": 70.0, "DIRNOW": 12.0, "SPDNOW": 0.0, "TECH": "TRAK", "ADVNR": 24, "ATCFID": "AL092025", "NAME": "IMELDA", "FTECH": "OFCL", "FCST_DTG": "2025-10-02 12:00:00", "RUN_DTG": "2025-10-03 07:06:43", "BASIN": "AL", "STMNR": 9, "CAT_ID": null, "CAT_DESC": null, "MSGID": "WTNT24 KNHC 021446", "VALIDTIME": "2025-10-02 00:00:00" }, "geometry": { "type": "Point", "coordinates": [ -66.400002, 31.799999 ] } },
{ "type": "Feature", "properties": { "ID": 51302, "LAT": 32.5, "LON": -63.3, "VMAX": 80.0, "MSLP": 973.0, "RMAX": 35.0, "FSPD": 10.59166, "FDIR": 78.79712, "RENV": 150.0, "PENV": 1000.0, "VALIDT": 0, "DTG": "2025-10-02 06:00", "LATNOW": 32.9, "LONNOW": -60.9, "WINDNOW": 70.0, "DIRNOW": 12.0, "SPDNOW": 0.0, "TECH": "TRAK", "ADVNR": 24, "ATCFID": "AL092025", "NAME": "IMELDA", "FTECH": "OFCL", "FCST_DTG": "2025-10-02 12:00:00", "RUN_DTG": "2025-10-03 07:06:43", "BASIN": "AL", "STMNR": 9, "CAT_ID": null, "CAT_DESC": null, "MSGID": "WTNT24 KNHC 021446", "VALIDTIME": "2025-10-02 06:00:00" }, "geometry": { "type": "Point", "coordinates": [ -63.299999, 32.5 ] } },
{ "type": "Feature", "properties": { "ID": 51303, "LAT": 32.9, "LON": -60.9, "VMAX": 70.0, "MSLP": 977.0, "RMAX": 35.0, "FSPD": 12.46206, "FDIR": 75.65945, "RENV": 150.0, "PENV": 1000.0, "VALIDT": 0, "DTG": "2025-10-02 12:00", "LATNOW": 32.9, "LONNOW": -60.9, "WINDNOW": 70.0, "DIRNOW": 12.0, "SPDNOW": 0.0, "TECH": "TRAK", "ADVNR": 24, "ATCFID": "AL092025", "NAME": "IMELDA", "FTECH": "OFCL", "FCST_DTG": "2025-10-02 12:00:00", "RUN_DTG": "2025-10-03 07:06:43", "BASIN": "AL", "STMNR": 9, "CAT_ID": null, "CAT_DESC": null, "MSGID": "WTNT24 KNHC 021446", "VALIDTIME": "2025-10-02 12:00:00" }, "geometry": { "type": "Point", "coordinates": [ -60.900002, 32.900002 ] } },
{ "type": "Feature", "properties": { "ID": 51304, "LAT": 33.2, "LON": -59.5, "VMAX": 65.0, "MSLP": 980.0, "RMAX": 30.0, "FSPD": 13.37541, "FDIR": 73.61716, "RENV": 253.0, "PENV": 1012.0, "VALIDT": 3, "DTG": "2025-10-02 15:00", "LATNOW": 32.9, "LONNOW": -60.9, "WINDNOW": 70.0, "DIRNOW": 12.0, "SPDNOW": 0.0, "TECH": "FCST", "ADVNR": 24, "ATCFID": "AL092025", "NAME": "IMELDA", "FTECH": "OFCL", "FCST_DTG": "2025-10-02 12:00:00", "RUN_DTG": "2025-10-03 07:06:43", "BASIN": "AL", "STMNR": 9, "CAT_ID": null, "CAT_DESC": null, "MSGID": "WTNT24 KNHC 021446", "VALIDTIME": "2025-10-02 15:00:00" }, "geometry": { "type": "Point", "coordinates": [ -59.5, 33.200001 ] } },
{ "type": "Feature", "properties": { "ID": 51305, "LAT": 34.3, "LON": -55.0, "VMAX": 65.0, "MSLP": 993.434, "RMAX": 30.0, "FSPD": 9.14221, "FDIR": 55.75635, "RENV": 268.0, "PENV": 1012.0, "VALIDT": 12, "DTG": "2025-10-03 00:00", "LATNOW": 32.9, "LONNOW": -60.9, "WINDNOW": 70.0, "DIRNOW": 12.0, "SPDNOW": 0.0, "TECH": "FCST", "ADVNR": 24, "ATCFID": "AL092025", "NAME": "IMELDA", "FTECH": "OFCL", "FCST_DTG": "2025-10-02 12:00:00", "RUN_DTG": "2025-10-03 07:06:43", "BASIN": "AL", "STMNR": 9, "CAT_ID": null, "CAT_DESC": null, "MSGID": "WTNT24 KNHC 021446", "VALIDTIME": "2025-10-03 00:00:00" }, "geometry": { "type": "Point", "coordinates": [ -55.0, 34.299999 ] } },
{ "type": "Feature", "properties": { "ID": 51306, "LAT": 36.3, "LON": -51.4, "VMAX": 60.0, "MSLP": 996.62427, "RMAX": 42.1776, "FSPD": 8.16683, "FDIR": 35.02554, "RENV": 290.0, "PENV": 1012.0, "VALIDT": 24, "DTG": "2025-10-03 12:00", "LATNOW": 32.9, "LONNOW": -60.9, "WINDNOW": 70.0, "DIRNOW": 12.0, "SPDNOW": 0.0, "TECH": "FCST", "ADVNR": 24, "ATCFID": "AL092025", "NAME": "IMELDA", "FTECH": "OFCL", "FCST_DTG": "2025-10-02 12:00:00", "RUN_DTG": "2025-10-03 07:06:43", "BASIN": "AL", "STMNR": 9, "CAT_ID": null, "CAT_DESC": null, "MSGID": "WTNT24 KNHC 021446", "VALIDTIME": "2025-10-03 12:00:00" }, "geometry": { "type": "Point", "coordinates": [ -51.400002, 36.299999 ] } },
{ "type": "Feature", "properties": { "ID": 51307, "LAT": 38.9, "LON": -49.1, "VMAX": 60.0, "MSLP": 996.62427, "RMAX": 46.73827, "FSPD": 7.78017, "FDIR": 22.22357, "RENV": 287.0, "PENV": 1012.0, "VALIDT": 36, "DTG": "2025-10-04 00:00", "LATNOW": 32.9, "LONNOW": -60.9, "WINDNOW": 70.0, "DIRNOW": 12.0, "SPDNOW": 0.0, "TECH": "FCST", "ADVNR": 24, "ATCFID": "AL092025", "NAME": "IMELDA", "FTECH": "OFCL", "FCST_DTG": "2025-10-02 12:00:00", "RUN_DTG": "2025-10-03 07:06:43", "BASIN": "AL", "STMNR": 9, "CAT_ID": null, "CAT_DESC": null, "MSGID": "WTNT24 KNHC 021446", "VALIDTIME": "2025-10-04 00:00:00" }, "geometry": { "type": "Point", "coordinates": [ -49.099998, 38.900002 ] } },
{ "type": "Feature", "properties": { "ID": 51308, "LAT": 41.7, "LON": -47.6, "VMAX": 55.0, "MSLP": 999.55927, "RMAX": 52.43559, "FSPD": 9.34548, "FDIR": 37.04272, "RENV": 256.0, "PENV": 1012.0, "VALIDT": 48, "DTG": "2025-10-04 12:00", "LATNOW": 32.9, "LONNOW": -60.9, "WINDNOW": 70.0, "DIRNOW": 12.0, "SPDNOW": 0.0, "TECH": "FCST", "ADVNR": 24, "ATCFID": "AL092025", "NAME": "IMELDA", "FTECH": "OFCL", "FCST_DTG": "2025-10-02 12:00:00", "RUN_DTG": "2025-10-03 07:06:43", "BASIN": "AL", "STMNR": 9, "CAT_ID": null, "CAT_DESC": null, "MSGID": "WTNT24 KNHC 021446", "VALIDTIME": "2025-10-04 12:00:00" }, "geometry": { "type": "Point", "coordinates": [ -47.599998, 41.700001 ] } },
{ "type": "Feature", "properties": { "ID": 51309, "LAT": 44.6, "LON": -44.6, "VMAX": 50.0, "MSLP": 1002.2391, "RMAX": 58.99218, "FSPD": 10.31286, "FDIR": 51.42435, "RENV": 180.0, "PENV": 1012.0, "VALIDT": 60, "DTG": "2025-10-05 00:00", "LATNOW": 32.9, "LONNOW": -60.9, "WINDNOW": 70.0, "DIRNOW": 12.0, "SPDNOW": 0.0, "TECH": "FCST", "ADVNR": 24, "ATCFID": "AL092025", "NAME": "IMELDA", "FTECH": "OFCL", "FCST_DTG": "2025-10-02 12:00:00", "RUN_DTG": "2025-10-03 07:06:43", "BASIN": "AL", "STMNR": 9, "CAT_ID": null, "CAT_DESC": null, "MSGID": "WTNT24 KNHC 021446", "VALIDTIME": "2025-10-05 00:00:00" }, "geometry": { "type": "Point", "coordinates": [ -44.599998, 44.599998 ] } },
{ "type": "Feature", "properties": { "ID": 51310, "LAT": 47.1, "LON": -40.1, "VMAX": 50.0, "MSLP": 1002.2391, "RMAX": 63.77718, "FSPD": 9.46807, "FDIR": 57.5506, "RENV": 180.0, "PENV": 1012.0, "VALIDT": 72, "DTG": "2025-10-05 12:00", "LATNOW": 32.9, "LONNOW": -60.9, "WINDNOW": 70.0, "DIRNOW": 12.0, "SPDNOW": 0.0, "TECH": "FCST", "ADVNR": 24, "ATCFID": "AL092025", "NAME": "IMELDA", "FTECH": "OFCL", "FCST_DTG": "2025-10-02 12:00:00", "RUN_DTG": "2025-10-03 07:06:43", "BASIN": "AL", "STMNR": 9, "CAT_ID": null, "CAT_DESC": null, "MSGID": "WTNT24 KNHC 021446", "VALIDTIME": "2025-10-05 12:00:00" }, "geometry": { "type": "Point", "coordinates": [ -40.099998, 47.099998 ] } },
{ "type": "Feature", "properties": { "ID": 51311, "LAT": 49.075, "LON": -35.45, "VMAX": 47.5, "MSLP": 1003.45135, "RMAX": 63.77718, "FSPD": 8.5985, "FDIR": 73.93591, "RENV": 180.0, "PENV": 1012.0, "VALIDT": 84, "DTG": "2025-10-06 00:00", "LATNOW": 32.9, "LONNOW": -60.9, "WINDNOW": 70.0, "DIRNOW": 12.0, "SPDNOW": 0.0, "TECH": "FCST", "ADVNR": 24, "ATCFID": "AL092025", "NAME": "IMELDA", "FTECH": "OFCL", "FCST_DTG": "2025-10-02 12:00:00", "RUN_DTG": "2025-10-03 07:06:43", "BASIN": "AL", "STMNR": 9, "CAT_ID": null, "CAT_DESC": null, "MSGID": "WTNT24 KNHC 021446", "VALIDTIME": "2025-10-06 00:00:00" }, "geometry": { "type": "Point", "coordinates": [ -35.449997, 49.074997 ] } },
{ "type": "Feature", "properties": { "ID": 51312, "LAT": 50.0, "LON": -30.5, "VMAX": 45.0, "MSLP": 1004.66364, "RMAX": 63.77718, "FSPD": 8.5985, "FDIR": 73.93591, "RENV": 300.0, "PENV": 1012.0, "VALIDT": 96, "DTG": "2025-10-06 12:00", "LATNOW": 32.9, "LONNOW": -60.9, "WINDNOW": 70.0, "DIRNOW": 12.0, "SPDNOW": 0.0, "TECH": "FCST", "ADVNR": 24, "ATCFID": "AL092025", "NAME": "IMELDA", "FTECH": "OFCL", "FCST_DTG": "2025-10-02 12:00:00", "RUN_DTG": "2025-10-03 07:06:43", "BASIN": "AL", "STMNR": 9, "CAT_ID": null, "CAT_DESC": null, "MSGID": "WTNT24 KNHC 021446", "VALIDTIME": "2025-10-06 12:00:00" }, "geometry": { "type": "Point", "coordinates": [ -30.5, 50.0 ] } },
{ "type": "Feature", "properties": { "ID": 51303, "LAT": 32.9, "LON": -60.9, "VMAX": 70.0, "MSLP": 977.0, "RMAX": 35.0, "FSPD": 12.46206, "FDIR": 75.65945, "RENV": 150.0, "PENV": 1000.0, "VALIDT": 0, "DTG": "2025-10-02 12:00", "LATNOW": 32.9, "LONNOW": -60.9, "WINDNOW": 70.0, "DIRNOW": 12.0, "SPDNOW": 0.0, "TECH": "TRAK", "ADVNR": 24, "ATCFID": "AL092025", "NAME": "IMELDA", "FTECH": "OFCL", "FCST_DTG": "2025-10-02 12:00:00", "RUN_DTG": "2025-10-03 07:06:43", "BASIN": "AL", "STMNR": 9, "CAT_ID": null, "CAT_DESC": null, "MSGID": "WTNT24 KNHC 021446", "VALIDTIME": "2025-10-02 12:00:00" }, "geometry": { "type": "LineString", "coordinates": [ [ -60.7, 17.2 ], [ -62.0, 17.3 ], [ -62.2, 16.8 ], [ -63.1, 17.3 ], [ -64.0, 18.0 ], [ -65.0, 17.6 ], [ -66.8, 17.7 ], [ -67.7, 17.8 ], [ -68.82, 18.44 ], [ -69.1, 18.6 ], [ -70.7, 20.0 ], [ -71.7, 20.5 ], [ -72.0, 20.7 ], [ -72.9, 19.8 ], [ -74.0, 20.3 ], [ -74.4, 20.7 ], [ -75.6, 21.3 ], [ -75.6, 21.6 ], [ -76.0, 22.0 ], [ -76.5, 22.1 ], [ -76.6, 22.4 ], [ -77.0, 22.7 ], [ -77.3, 23.1 ], [ -77.3, 23.8 ], [ -77.1, 24.6 ], [ -77.1, 25.1 ], [ -77.1, 26.4 ], [ -77.3, 27.2 ], [ -77.3, 28.1 ], [ -77.2, 28.6 ], [ -76.9, 29.0 ], [ -76.0, 29.2 ], [ -74.6, 29.5 ], [ -73.1, 29.9 ], [ -71.3, 30.7 ], [ -69.2, 31.3 ], [ -66.4, 31.8 ], [ -63.3, 32.5 ], [ -60.9, 32.9 ] ] } },
{ "type": "Feature", "properties": { "ID": 51312, "LAT": 50.0, "LON": -30.5, "VMAX": 45.0, "MSLP": 1004.66364, "RMAX": 63.77718, "FSPD": 8.5985, "FDIR": 73.93591, "RENV": 300.0, "PENV": 1012.0, "VALIDT": 96, "DTG": "2025-10-06 12:00", "LATNOW": 32.9, "LONNOW": -60.9, "WINDNOW": 70.0, "DIRNOW": 12.0, "SPDNOW": 0.0, "TECH": "FCST", "ADVNR": 24, "ATCFID": "AL092025", "NAME": "IMELDA", "FTECH": "OFCL", "FCST_DTG": "2025-10-02 12:00:00", "RUN_DTG": "2025-10-03 07:06:43", "BASIN": "AL", "STMNR": 9, "CAT_ID": null, "CAT_DESC": null, "MSGID": "WTNT24 KNHC 021446", "VALIDTIME": "2025-10-06 12:00:00" }, "geometry": { "type": "LineString", "coordinates": [ [ -60.9, 32.9 ], [ -59.5, 33.2 ], [ -55.0, 34.3 ], [ -51.4, 36.3 ], [ -49.1, 38.9 ], [ -47.6, 41.7 ], [ -44.6, 44.6 ], [ -40.1, 47.1 ], [ -35.45, 49.075 ], [ -30.5, 50.0 ] ] } }
]
}
