{
"type": "FeatureCollection",
"crs": { "type": "name", "properties": { "name": "urn:ogc:def:crs:OGC:1.3:CRS84" } },
"features": [
{ "type": "Feature", "properties": { "ID": 70406, "LAT": 12.0, "LON": -108.6, "VMAX": 20.0, "MSLP": 1009.0, "RMAX": 90.0, "FSPD": 6.55827, "FDIR": 293.0921, "RENV": 140.0, "PENV": 1011.0, "VALIDT": 0, "DTG": "2026-08-22 06:00", "LATNOW": 22.8, "LONNOW": -125.5, "WINDNOW": 30.0, "DIRNOW": 4.0, "SPDNOW": 3.0, "TECH": "TRAK", "ADVNR": 15, "ATCFID": "EP092026", "NAME": "ISELLE", "FTECH": "OFCL", "FCST_DTG": "2026-08-27 00:00:00", "RUN_DTG": "2026-08-27 19:03:25", "BASIN": "EP", "STMNR": 9, "CAT_ID": null, "CAT_DESC": null, "MSGID": "WTPZ24 KNHC 270232", "VALIDTIME": "2026-08-22 06:00:00" }, "geometry": { "type": "Point", "coordinates": [ -108.599998, 12.0 ] } },
{ "type": "Feature", "properties": { "ID": 70407, "LAT": 12.5, "LON": -109.8, "VMAX": 25.0, "MSLP": 1009.0, "RMAX": 80.0, "FSPD": 10.18733, "FDIR": 290.70087, "RENV": 140.0, "PENV": 1011.0, "VALIDT": 0, "DTG": "2026-08-22 12:00", "LATNOW": 22.8, "LONNOW": -125.5, "WINDNOW": 30.0, "DIRNOW": 4.0, "SPDNOW": 3.0, "TECH": "TRAK", "ADVNR": 15, "ATCFID": "EP092026", "NAME": "ISELLE", "FTECH": "OFCL", "FCST_DTG": "2026-08-27 00:00:00", "RUN_DTG": "2026-08-27 19:03:25", "BASIN": "EP", "STMNR": 9, "CAT_ID": null, "CAT_DESC": null, "MSGID": "WTPZ24 KNHC 270232", "VALIDTIME": "2026-08-22 12:00:00" }, "geometry": { "type": "Point", "coordinates": [ -109.800003, 12.5 ] } },
{ "type": "Feature", "properties": { "ID": 70408, "LAT": 13.2, "LON": -111.7, "VMAX": 30.0, "MSLP": 1008.0, "RMAX": 80.0, "FSPD": 4.73673, "FDIR": 347.81406, "RENV": 140.0, "PENV": 1011.0, "VALIDT": 0, "DTG": "2026-08-22 18:00", "LATNOW": 22.8, "LONNOW": -125.5, "WINDNOW": 30.0, "DIRNOW": 4.0, "SPDNOW": 3.0, "TECH": "TRAK", "ADVNR": 15, "ATCFID": "EP092026", "NAME": "ISELLE", "FTECH": "OFCL", "FCST_DTG": "2026-08-27 00:00:00", "RUN_DTG": "2026-08-27 19:03:25", "BASIN": "EP", "STMNR": 9, "CAT_ID": null, "CAT_DESC": null, "MSGID": "WTPZ24 KNHC 270232", "VALIDTIME": "2026-08-22 18:00:00" }, "geometry": { "type": "Point", "coordinates": [ -111.699997, 13.2 ] } },
{ "type": "Feature", "properties": { "ID": 70409, "LAT": 14.1, "LON": -111.9, "VMAX": 30.0, "MSLP": 1007.0, "RMAX": 80.0, "FSPD": 3.63953, "FDIR": 286.4213, "RENV": 180.0, "PENV": 1008.0, "VALIDT": 0, "DTG": "2026-08-23 00:00", "LATNOW": 22.8, "LONNOW": -125.5, "WINDNOW": 30.0, "DIRNOW": 4.0, "SPDNOW": 3.0, "TECH": "TRAK", "ADVNR": 15, "ATCFID": "EP092026", "NAME": "ISELLE", "FTECH": "OFCL", "FCST_DTG": "2026-08-27 00:00:00", "RUN_DTG": "2026-08-27 19:03:25", "BASIN": "EP", "STMNR": 9, "CAT_ID": null, "CAT_DESC": null, "MSGID": "WTPZ24 KNHC 270232", "VALIDTIME": "2026-08-23 00:00:00" }, "geometry": { "type": "Point", "coordinates": [ -111.900002, 14.1 ] } },
{ "type": "Feature", "properties": { "ID": 70410, "LAT": 14.3, "LON": -112.6, "VMAX": 40.0, "MSLP": 1005.0, "RMAX": 80.0, "FSPD": 6.28615, "FDIR": 299.40802, "RENV": 160.0, "PENV": 1010.0, "VALIDT": 0, "DTG": "2026-08-23 06:00", "LATNOW": 22.8, "LONNOW": -125.5, "WINDNOW": 30.0, "DIRNOW": 4.0, "SPDNOW": 3.0, "TECH": "TRAK", "ADVNR": 15, "ATCFID": "EP092026", "NAME": "ISELLE", "FTECH": "OFCL", "FCST_DTG": "2026-08-27 00:00:00", "RUN_DTG": "2026-08-27 19:03:25", "BASIN": "EP", "STMNR": 9, "CAT_ID": null, "CAT_DESC": null, "MSGID": "WTPZ24 KNHC 270232", "VALIDTIME": "2026-08-23 06:00:00" }, "geometry": { "type": "Point", "coordinates": [ -112.599998, 14.3 ] } },
{ "type": "Feature", "properties": { "ID": 70411, "LAT": 14.9, "LON": -113.7, "VMAX": 40.0, "MSLP": 1003.0, "RMAX": 70.0, "FSPD": 9.81541, "FDIR": 332.9995, "RENV": 160.0, "PENV": 1009.0, "VALIDT": 0, "DTG": "2026-08-23 12:00", "LATNOW": 22.8, "LONNOW": -125.5, "WINDNOW": 30.0, "DIRNOW": 4.0, "SPDNOW": 3.0, "TECH": "TRAK", "ADVNR": 15, "ATCFID": "EP092026", "NAME": "ISELLE", "FTECH": "OFCL", "FCST_DTG": "2026-08-27 00:00:00", "RUN_DTG": "2026-08-27 19:03:25", "BASIN": "EP", "STMNR": 9, "CAT_ID": null, "CAT_DESC": null, "MSGID": "WTPZ24 KNHC 270232", "VALIDTIME": "2026-08-23 12:00:00" }, "geometry": { "type": "Point", "coordinates": [ -113.699997, 14.9 ] } },
{ "type": "Feature", "properties": { "ID": 70412, "LAT": 16.6, "LON": -114.6, "VMAX": 45.0, "MSLP": 1001.0, "RMAX": 70.0, "FSPD": 1.80107, "FDIR": 304.83838, "RENV": 160.0, "PENV": 1009.0, "VALIDT": 0, "DTG": "2026-08-23 18:00", "LATNOW": 22.8, "LONNOW": -125.5, "WINDNOW": 30.0, "DIRNOW": 4.0, "SPDNOW": 3.0, "TECH": "TRAK", "ADVNR": 15, "ATCFID": "EP092026", "NAME": "ISELLE", "FTECH": "OFCL", "FCST_DTG": "2026-08-27 00:00:00", "RUN_DTG": "2026-08-27 19:03:25", "BASIN": "EP", "STMNR": 9, "CAT_ID": null, "CAT_DESC": null, "MSGID": "WTPZ24 KNHC 270232", "VALIDTIME": "2026-08-23 18:00:00" }, "geometry": { "type": "Point", "coordinates": [ -114.599998, 16.6 ] } },
{ "type": "Feature", "properties": { "ID": 70413, "LAT": 16.8, "LON": -114.9, "VMAX": 45.0, "MSLP": 999.0, "RMAX": 50.0, "FSPD": 6.04155, "FDIR": 312.93823, "RENV": 150.0, "PENV": 1007.0, "VALIDT": 0, "DTG": "2026-08-24 00:00", "LATNOW": 22.8, "LONNOW": -125.5, "WINDNOW": 30.0, "DIRNOW": 4.0, "SPDNOW": 3.0, "TECH": "TRAK", "ADVNR": 15, "ATCFID": "EP092026", "NAME": "ISELLE", "FTECH": "OFCL", "FCST_DTG": "2026-08-27 00:00:00", "RUN_DTG": "2026-08-27 19:03:25", "BASIN": "EP", "STMNR": 9, "CAT_ID": null, "CAT_DESC": null, "MSGID": "WTPZ24 KNHC 270232", "VALIDTIME": "2026-08-24 00:00:00" }, "geometry": { "type": "Point", "coordinates": [ -114.900002, 16.799999 ] } },
{ "type": "Feature", "properties": { "ID": 70414, "LAT": 17.6, "LON": -115.8, "VMAX": 50.0, "MSLP": 996.0, "RMAX": 40.0, "FSPD": 5.3795, "FDIR": 305.01447, "RENV": 150.0, "PENV": 1007.0, "VALIDT": 0, "DTG": "2026-08-24 06:00", "LATNOW": 22.8, "LONNOW": -125.5, "WINDNOW": 30.0, "DIRNOW": 4.0, "SPDNOW": 3.0, "TECH": "TRAK", "ADVNR": 15, "ATCFID": "EP092026", "NAME": "ISELLE", "FTECH": "OFCL", "FCST_DTG": "2026-08-27 00:00:00", "RUN_DTG": "2026-08-27 19:03:25", "BASIN": "EP", "STMNR": 9, "CAT_ID": null, "CAT_DESC": null, "MSGID": "WTPZ24 KNHC 270232", "VALIDTIME": "2026-08-24 06:00:00" }, "geometry": { "type": "Point", "coordinates": [ -115.800003, 17.6 ] } },
{ "type": "Feature", "properties": { "ID": 70415, "LAT": 18.2, "LON": -116.7, "VMAX": 55.0, "MSLP": 992.0, "RMAX": 40.0, "FSPD": 5.67762, "FDIR": 309.36536, "RENV": 150.0, "PENV": 1007.0, "VALIDT": 0, "DTG": "2026-08-24 12:00", "LATNOW": 22.8, "LONNOW": -125.5, "WINDNOW": 30.0, "DIRNOW": 4.0, "SPDNOW": 3.0, "TECH": "TRAK", "ADVNR": 15, "ATCFID": "EP092026", "NAME": "ISELLE", "FTECH": "OFCL", "FCST_DTG": "2026-08-27 00:00:00", "RUN_DTG": "2026-08-27 19:03:25", "BASIN": "EP", "STMNR": 9, "CAT_ID": null, "CAT_DESC": null, "MSGID": "WTPZ24 KNHC 270232", "VALIDTIME": "2026-08-24 12:00:00" }, "geometry": { "type": "Point", "coordinates": [ -116.699997, 18.200001 ] } },
{ "type": "Feature", "properties": { "ID": 70416, "LAT": 18.9, "LON": -117.6, "VMAX": 60.0, "MSLP": 988.0, "RMAX": 40.0, "FSPD": 4.63248, "FDIR": 321.01965, "RENV": 150.0, "PENV": 1007.0, "VALIDT": 0, "DTG": "2026-08-24 18:00", "LATNOW": 22.8, "LONNOW": -125.5, "WINDNOW": 30.0, "DIRNOW": 4.0, "SPDNOW": 3.0, "TECH": "TRAK", "ADVNR": 15, "ATCFID": "EP092026", "NAME": "ISELLE", "FTECH": "OFCL", "FCST_DTG": "2026-08-27 00:00:00", "RUN_DTG": "2026-08-27 19:03:25", "BASIN": "EP", "STMNR": 9, "CAT_ID": null, "CAT_DESC": null, "MSGID": "WTPZ24 KNHC 270232", "VALIDTIME": "2026-08-24 18:00:00" }, "geometry": { "type": "Point", "coordinates": [ -117.599998, 18.9 ] } },
{ "type": "Feature", "properties": { "ID": 70417, "LAT": 19.6, "LON": -118.2, "VMAX": 60.0, "MSLP": 988.0, "RMAX": 40.0, "FSPD": 7.92098, "FDIR": 301.30377, "RENV": 160.0, "PENV": 1005.0, "VALIDT": 0, "DTG": "2026-08-25 00:00", "LATNOW": 22.8, "LONNOW": -125.5, "WINDNOW": 30.0, "DIRNOW": 4.0, "SPDNOW": 3.0, "TECH": "TRAK", "ADVNR": 15, "ATCFID": "EP092026", "NAME": "ISELLE", "FTECH": "OFCL", "FCST_DTG": "2026-08-27 00:00:00", "RUN_DTG": "2026-08-27 19:03:25", "BASIN": "EP", "STMNR": 9, "CAT_ID": null, "CAT_DESC": null, "MSGID": "WTPZ24 KNHC 270232", "VALIDTIME": "2026-08-25 00:00:00" }, "geometry": { "type": "Point", "coordinates": [ -118.199997, 19.6 ] } },
{ "type": "Feature", "properties": { "ID": 70418, "LAT": 20.4, "LON": -119.6, "VMAX": 60.0, "MSLP": 988.0, "RMAX": 50.0, "FSPD": 5.68271, "FDIR": 291.22992, "RENV": 200.0, "PENV": 1010.0, "VALIDT": 0, "DTG": "2026-08-25 06:00", "LATNOW": 22.8, "LONNOW": -125.5, "WINDNOW": 30.0, "DIRNOW": 4.0, "SPDNOW": 3.0, "TECH": "TRAK", "ADVNR": 15, "ATCFID": "EP092026", "NAME": "ISELLE", "FTECH": "OFCL", "FCST_DTG": "2026-08-27 00:00:00", "RUN_DTG": "2026-08-27 19:03:25", "BASIN": "EP", "STMNR": 9, "CAT_ID": null, "CAT_DESC": null, "MSGID": "WTPZ24 KNHC 270232", "VALIDTIME": "2026-08-25 06:00:00" }, "geometry": { "type": "Point", "coordinates": [ -119.599998, 20.4 ] } },
{ "type": "Feature", "properties": { "ID": 70419, "LAT": 20.8, "LON": -120.7, "VMAX": 60.0, "MSLP": 988.0, "RMAX": 50.0, "FSPD": 3.40441, "FDIR": 278.69135, "RENV": 200.0, "PENV": 1010.0, "VALIDT": 0, "DTG": "2026-08-25 12:00", "LATNOW": 22.8, "LONNOW": -125.5, "WINDNOW": 30.0, "DIRNOW": 4.0, "SPDNOW": 3.0, "TECH": "TRAK", "ADVNR": 15, "ATCFID": "EP092026", "NAME": "ISELLE", "FTECH": "OFCL", "FCST_DTG": "2026-08-27 00:00:00", "RUN_DTG": "2026-08-27 19:03:25", "BASIN": "EP", "STMNR": 9, "CAT_ID": null, "CAT_DESC": null, "MSGID": "WTPZ24 KNHC 270232", "VALIDTIME": "2026-08-25 12:00:00" }, "geometry": { "type": "Point", "coordinates": [ -120.699997, 20.799999 ] } },
{ "type": "Feature", "properties": { "ID": 70420, "LAT": 20.9, "LON": -121.4, "VMAX": 50.0, "MSLP": 994.0, "RMAX": 60.0, "FSPD": 3.51583, "FDIR": 287.0164, "RENV": 200.0, "PENV": 1010.0, "VALIDT": 0, "DTG": "2026-08-25 18:00", "LATNOW": 22.8, "LONNOW": -125.5, "WINDNOW": 30.0, "DIRNOW": 4.0, "SPDNOW": 3.0, "TECH": "TRAK", "ADVNR": 15, "ATCFID": "EP092026", "NAME": "ISELLE", "FTECH": "OFCL", "FCST_DTG": "2026-08-27 00:00:00", "RUN_DTG": "2026-08-27 19:03:25", "BASIN": "EP", "STMNR": 9, "CAT_ID": null, "CAT_DESC": null, "MSGID": "WTPZ24 KNHC 270232", "VALIDTIME": "2026-08-25 18:00:00" }, "geometry": { "type": "Point", "coordinates": [ -121.400002, 20.9 ] } },
{ "type": "Feature", "properties": { "ID": 70421, "LAT": 21.1, "LON": -122.1, "VMAX": 45.0, "MSLP": 996.0, "RMAX": 60.0, "FSPD": 4.35171, "FDIR": 298.22046, "RENV": 180.0, "PENV": 1007.0, "VALIDT": 0, "DTG": "2026-08-26 00:00", "LATNOW": 22.8, "LONNOW": -125.5, "WINDNOW": 30.0, "DIRNOW": 4.0, "SPDNOW": 3.0, "TECH": "TRAK", "ADVNR": 15, "ATCFID": "EP092026", "NAME": "ISELLE", "FTECH": "OFCL", "FCST_DTG": "2026-08-27 00:00:00", "RUN_DTG": "2026-08-27 19:03:25", "BASIN": "EP", "STMNR": 9, "CAT_ID": null, "CAT_DESC": null, "MSGID": "WTPZ24 KNHC 270232", "VALIDTIME": "2026-08-26 00:00:00" }, "geometry": { "type": "Point", "coordinates": [ -122.099998, 21.1 ] } },
{ "type": "Feature", "properties": { "ID": 70422, "LAT": 21.5, "LON": -122.9, "VMAX": 45.0, "MSLP": 996.0, "RMAX": 60.0, "FSPD": 3.92803, "FDIR": 301.5921, "RENV": 210.0, "PENV": 1010.0, "VALIDT": 0, "DTG": "2026-08-26 06:00", "LATNOW": 22.8, "LONNOW": -125.5, "WINDNOW": 30.0, "DIRNOW": 4.0, "SPDNOW": 3.0, "TECH": "TRAK", "ADVNR": 15, "ATCFID": "EP092026", "NAME": "ISELLE", "FTECH": "OFCL", "FCST_DTG": "2026-08-27 00:00:00", "RUN_DTG": "2026-08-27 19:03:25", "BASIN": "EP", "STMNR": 9, "CAT_ID": null, "CAT_DESC": null, "MSGID": "WTPZ24 KNHC 270232", "VALIDTIME": "2026-08-26 06:00:00" }, "geometry": { "type": "Point", "coordinates": [ -122.900002, 21.5 ] } },
{ "type": "Feature", "properties": { "ID": 70423, "LAT": 21.9, "LON": -123.6, "VMAX": 40.0, "MSLP": 999.0, "RMAX": 60.0, "FSPD": 5.28243, "FDIR": 305.75546, "RENV": 210.0, "PENV": 1010.0, "VALIDT": 0, "DTG": "2026-08-26 12:00", "LATNOW": 22.8, "LONNOW": -125.5, "WINDNOW": 30.0, "DIRNOW": 4.0, "SPDNOW": 3.0, "TECH": "TRAK", "ADVNR": 15, "ATCFID": "EP092026", "NAME": "ISELLE", "FTECH": "OFCL", "FCST_DTG": "2026-08-27 00:00:00", "RUN_DTG": "2026-08-27 19:03:25", "BASIN": "EP", "STMNR": 9, "CAT_ID": null, "CAT_DESC": null, "MSGID": "WTPZ24 KNHC 270232", "VALIDTIME": "2026-08-26 12:00:00" }, "geometry": { "type": "Point", "coordinates": [ -123.599998, 21.9 ] } },
{ "type": "Feature", "properties": { "ID": 70424, "LAT": 22.5, "LON": -124.5, "VMAX": 40.0, "MSLP": 1000.0, "RMAX": 60.0, "FSPD": 4.99222, "FDIR": 288.0078, "RENV": 210.0, "PENV": 1010.0, "VALIDT": 0, "DTG": "2026-08-26 18:00", "LATNOW": 22.8, "LONNOW": -125.5, "WINDNOW": 30.0, "DIRNOW": 4.0, "SPDNOW": 3.0, "TECH": "TRAK", "ADVNR": 15, "ATCFID": "EP092026", "NAME": "ISELLE", "FTECH": "OFCL", "FCST_DTG": "2026-08-27 00:00:00", "RUN_DTG": "2026-08-27 19:03:25", "BASIN": "EP", "STMNR": 9, "CAT_ID": null, "CAT_DESC": null, "MSGID": "WTPZ24 KNHC 270232", "VALIDTIME": "2026-08-26 18:00:00" }, "geometry": { "type": "Point", "coordinates": [ -124.5, 22.5 ] } },
{ "type": "Feature", "properties": { "ID": 70425, "LAT": 22.8, "LON": -125.5, "VMAX": 30.0, "MSLP": 1002.0, "RMAX": 40.0, "FSPD": 4.31367, "FDIR": 298.49216, "RENV": 220.0, "PENV": 1010.0, "VALIDT": 0, "DTG": "2026-08-27 00:00", "LATNOW": 22.8, "LONNOW": -125.5, "WINDNOW": 30.0, "DIRNOW": 4.0, "SPDNOW": 3.0, "TECH": "TRAK", "ADVNR": 15, "ATCFID": "EP092026", "NAME": "ISELLE", "FTECH": "OFCL", "FCST_DTG": "2026-08-27 00:00:00", "RUN_DTG": "2026-08-27 19:03:25", "BASIN": "EP", "STMNR": 9, "CAT_ID": null, "CAT_DESC": null, "MSGID": "WTPZ24 KNHC 270232", "VALIDTIME": "2026-08-27 00:00:00" }, "geometry": { "type": "Point", "coordinates": [ -125.5, 22.799999 ] } },
{ "type": "Feature", "properties": { "ID": 70426, "LAT": 23.0, "LON": -125.9, "VMAX": 30.0, "MSLP": 1002.0, "RMAX": 40.0, "FSPD": 4.58286, "FDIR": 296.68054, "RENV": 250.0, "PENV": 1012.0, "VALIDT": 3, "DTG": "2026-08-27 03:00", "LATNOW": 22.8, "LONNOW": -125.5, "WINDNOW": 30.0, "DIRNOW": 4.0, "SPDNOW": 3.0, "TECH": "FCST", "ADVNR": 15, "ATCFID": "EP092026", "NAME": "ISELLE", "FTECH": "OFCL", "FCST_DTG": "2026-08-27 00:00:00", "RUN_DTG": "2026-08-27 19:03:25", "BASIN": "EP", "STMNR": 9, "CAT_ID": null, "CAT_DESC": null, "MSGID": "WTPZ24 KNHC 270232", "VALIDTIME": "2026-08-27 03:00:00" }, "geometry": { "type": "Point", "coordinates": [ -125.900002, 23.0 ] } },
{ "type": "Feature", "properties": { "ID": 70427, "LAT": 23.6, "LON": -127.2, "VMAX": 25.0, "MSLP": 1011.80975, "RMAX": 46.81826, "FSPD": 4.16998, "FDIR": 295.58112, "RENV": 250.0, "PENV": 1012.0, "VALIDT": 12, "DTG": "2026-08-27 12:00", "LATNOW": 22.8, "LONNOW": -125.5, "WINDNOW": 30.0, "DIRNOW": 4.0, "SPDNOW": 3.0, "TECH": "FCST", "ADVNR": 15, "ATCFID": "EP092026", "NAME": "ISELLE", "FTECH": "OFCL", "FCST_DTG": "2026-08-27 00:00:00", "RUN_DTG": "2026-08-27 19:03:25", "BASIN": "EP", "STMNR": 9, "CAT_ID": null, "CAT_DESC": null, "MSGID": "WTPZ24 KNHC 270232", "VALIDTIME": "2026-08-27 12:00:00" }, "geometry": { "type": "Point", "coordinates": [ -127.199997, 23.6 ] } },
{ "type": "Feature", "properties": { "ID": 70428, "LAT": 24.3, "LON": -128.8, "VMAX": 20.0, "MSLP": 1012.95825, "RMAX": 46.81826, "FSPD": 3.519, "FDIR": 291.4369, "RENV": 250.0, "PENV": 1012.0, "VALIDT": 24, "DTG": "2026-08-28 00:00", "LATNOW": 22.8, "LONNOW": -125.5, "WINDNOW": 30.0, "DIRNOW": 4.0, "SPDNOW": 3.0, "TECH": "FCST", "ADVNR": 15, "ATCFID": "EP092026", "NAME": "ISELLE", "FTECH": "OFCL", "FCST_DTG": "2026-08-27 00:00:00", "RUN_DTG": "2026-08-27 19:03:25", "BASIN": "EP", "STMNR": 9, "CAT_ID": null, "CAT_DESC": null, "MSGID": "WTPZ24 KNHC 270232", "VALIDTIME": "2026-08-28 00:00:00" }, "geometry": { "type": "Point", "coordinates": [ -128.800003, 24.299999 ] } },
{ "type": "Feature", "properties": { "ID": 70429, "LAT": 24.8, "LON": -130.2, "VMAX": 20.0, "MSLP": 1012.95825, "RMAX": 46.81826, "FSPD": 3.50676, "FDIR": 291.5154, "RENV": 250.0, "PENV": 1012.0, "VALIDT": 36, "DTG": "2026-08-28 12:00", "LATNOW": 22.8, "LONNOW": -125.5, "WINDNOW": 30.0, "DIRNOW": 4.0, "SPDNOW": 3.0, "TECH": "FCST", "ADVNR": 15, "ATCFID": "EP092026", "NAME": "ISELLE", "FTECH": "OFCL", "FCST_DTG": "2026-08-27 00:00:00", "RUN_DTG": "2026-08-27 19:03:25", "BASIN": "EP", "STMNR": 9, "CAT_ID": null, "CAT_DESC": null, "MSGID": "WTPZ24 KNHC 270232", "VALIDTIME": "2026-08-28 12:00:00" }, "geometry": { "type": "Point", "coordinates": [ -130.199997, 24.799999 ] } },
{ "type": "Feature", "properties": { "ID": 70430, "LAT": 25.3, "LON": -131.6, "VMAX": 20.0, "MSLP": 1012.95825, "RMAX": 46.81826, "FSPD": 3.50676, "FDIR": 291.5154, "RENV": 250.0, "PENV": 1012.0, "VALIDT": 48, "DTG": "2026-08-29 00:00", "LATNOW": 22.8, "LONNOW": -125.5, "WINDNOW": 30.0, "DIRNOW": 4.0, "SPDNOW": 3.0, "TECH": "FCST", "ADVNR": 15, "ATCFID": "EP092026", "NAME": "ISELLE", "FTECH": "OFCL", "FCST_DTG": "2026-08-27 00:00:00", "RUN_DTG": "2026-08-27 19:03:25", "BASIN": "EP", "STMNR": 9, "CAT_ID": null, "CAT_DESC": null, "MSGID": "WTPZ24 KNHC 270232", "VALIDTIME": "2026-08-29 00:00:00" }, "geometry": { "type": "Point", "coordinates": [ -131.600006, 25.299999 ] } },
{ "type": "Feature", "properties": { "ID": 70425, "LAT": 22.8, "LON": -125.5, "VMAX": 30.0, "MSLP": 1002.0, "RMAX": 40.0, "FSPD": 4.31367, "FDIR": 298.49216, "RENV": 220.0, "PENV": 1010.0, "VALIDT": 0, "DTG": "2026-08-27 00:00", "LATNOW": 22.8, "LONNOW": -125.5, "WINDNOW": 30.0, "DIRNOW": 4.0, "SPDNOW": 3.0, "TECH": "TRAK", "ADVNR": 15, "ATCFID": "EP092026", "NAME": "ISELLE", "FTECH": "OFCL", "FCST_DTG": "2026-08-27 00:00:00", "RUN_DTG": "2026-08-27 19:03:25", "BASIN": "EP", "STMNR": 9, "CAT_ID": null, "CAT_DESC": null, "MSGID": "WTPZ24 KNHC 270232", "VALIDTIME": "2026-08-27 00:00:00" }, "geometry": { "type": "LineString", "coordinates": [ [ -108.6, 12.0 ], [ -109.8, 12.5 ], [ -111.7, 13.2 ], [ -111.9, 14.1 ], [ -112.6, 14.3 ], [ -113.7, 14.9 ], [ -114.6, 16.6 ], [ -114.9, 16.8 ], [ -115.8, 17.6 ], [ -116.7, 18.2 ], [ -117.6, 18.9 ], [ -118.2, 19.6 ], [ -119.6, 20.4 ], [ -120.7, 20.8 ], [ -121.4, 20.9 ], [ -122.1, 21.1 ], [ -122.9, 21.5 ], [ -123.6, 21.9 ], [ -124.5, 22.5 ], [ -125.5, 22.8 ] ] } },
{ "type": "Feature", "properties": { "ID": 70430, "LAT": 25.3, "LON": -131.6, "VMAX": 20.0, "MSLP": 1012.95825, "RMAX": 46.81826, "FSPD": 3.50676, "FDIR": 291.5154, "RENV": 250.0, "PENV": 1012.0, "VALIDT": 48, "DTG": "2026-08-29 00:00", "LATNOW": 22.8, "LONNOW": -125.5, "WINDNOW": 30.0, "DIRNOW": 4.0, "SPDNOW": 3.0, "TECH": "FCST", "ADVNR": 15, "ATCFID": "EP092026", "NAME": "ISELLE", "FTECH": "OFCL", "FCST_DTG": "2026-08-27 00:00:00", "RUN_DTG": "2026-08-27 19:03:25", "BASIN": "EP", "STMNR": 9, "CAT_ID": null, "CAT_DESC": null, "MSGID": "WTPZ24 KNHC 270232", "VALIDTIME": "2026-08-29 00:00:00" }, "geometry": { "type": "LineString", "coordinates": [ [ -125.5, 22.8 ], [ -125.9, 23.0 ], [ -127.2, 23.6 ], [ -128.8, 24.3 ], [ -130.2, 24.8 ], [ -131.6, 25.3 ] ] } }
]
}
