{
"type": "FeatureCollection",
"crs": { "type": "name", "properties": { "name": "urn:ogc:def:crs:OGC:1.3:CRS84" } },
"features": [
{ "type": "Feature", "properties": { "ID": 316942, "LAT": -9.6, "LON": 133.5, "VMAX": 25.0, "MSLP": 1011.80975, "RMAX": 45.0, "FSPD": 2.98921, "FDIR": 329.373, "RENV": 500.0, "PENV": 1012.0, "VALIDT": 0, "DTG": "2025-04-09 00:00", "LATNOW": -16.0, "LONNOW": 124.5, "WINDNOW": 30.0, "DIRNOW": 3.0, "SPDNOW": 6.0, "TECH": "TRAK", "ADVNR": 28, "ATCFID": "SH292025", "NAME": "ERROL", "FTECH": "JTWC", "FCST_DTG": "2025-04-18 12:00:00", "RUN_DTG": "2025-04-19 08:05:59", "BASIN": "SH", "STMNR": 29, "CAT_ID": null, "CAT_DESC": null, "MSGID": "WTXS51 PGTW 181500", "VALIDTIME": "2025-04-09 00:00:00" }, "geometry": { "type": "Point", "coordinates": [ 133.5, -9.6 ] } },
{ "type": "Feature", "properties": { "ID": 316943, "LAT": -9.1, "LON": 133.2, "VMAX": 25.0, "MSLP": 1011.80975, "RMAX": 45.0, "FSPD": 3.27878, "FDIR": 321.6749, "RENV": 500.0, "PENV": 1012.0, "VALIDT": 0, "DTG": "2025-04-09 06:00", "LATNOW": -16.0, "LONNOW": 124.5, "WINDNOW": 30.0, "DIRNOW": 3.0, "SPDNOW": 6.0, "TECH": "TRAK", "ADVNR": 28, "ATCFID": "SH292025", "NAME": "ERROL", "FTECH": "JTWC", "FCST_DTG": "2025-04-18 12:00:00", "RUN_DTG": "2025-04-19 08:05:59", "BASIN": "SH", "STMNR": 29, "CAT_ID": null, "CAT_DESC": null, "MSGID": "WTXS51 PGTW 181500", "VALIDTIME": "2025-04-09 06:00:00" }, "geometry": { "type": "Point", "coordinates": [ 133.199997, -9.1 ] } },
{ "type": "Feature", "properties": { "ID": 316944, "LAT": -8.6, "LON": 132.8, "VMAX": 25.0, "MSLP": 1011.80975, "RMAX": 45.0, "FSPD": 4.5619, "FDIR": 296.81296, "RENV": 500.0, "PENV": 1012.0, "VALIDT": 0, "DTG": "2025-04-09 12:00", "LATNOW": -16.0, "LONNOW": 124.5, "WINDNOW": 30.0, "DIRNOW": 3.0, "SPDNOW": 6.0, "TECH": "TRAK", "ADVNR": 28, "ATCFID": "SH292025", "NAME": "ERROL", "FTECH": "JTWC", "FCST_DTG": "2025-04-18 12:00:00", "RUN_DTG": "2025-04-19 08:05:59", "BASIN": "SH", "STMNR": 29, "CAT_ID": null, "CAT_DESC": null, "MSGID": "WTXS51 PGTW 181500", "VALIDTIME": "2025-04-09 12:00:00" }, "geometry": { "type": "Point", "coordinates": [ 132.800003, -8.6 ] } },
{ "type": "Feature", "properties": { "ID": 316945, "LAT": -8.2, "LON": 132.0, "VMAX": 25.0, "MSLP": 1011.80975, "RMAX": 45.0, "FSPD": 3.88529, "FDIR": 293.4048, "RENV": 500.0, "PENV": 1012.0, "VALIDT": 0, "DTG": "2025-04-09 18:00", "LATNOW": -16.0, "LONNOW": 124.5, "WINDNOW": 30.0, "DIRNOW": 3.0, "SPDNOW": 6.0, "TECH": "TRAK", "ADVNR": 28, "ATCFID": "SH292025", "NAME": "ERROL", "FTECH": "JTWC", "FCST_DTG": "2025-04-18 12:00:00", "RUN_DTG": "2025-04-19 08:05:59", "BASIN": "SH", "STMNR": 29, "CAT_ID": null, "CAT_DESC": null, "MSGID": "WTXS51 PGTW 181500", "VALIDTIME": "2025-04-09 18:00:00" }, "geometry": { "type": "Point", "coordinates": [ 132.0, -8.2 ] } },
{ "type": "Feature", "properties": { "ID": 316946, "LAT": -7.9, "LON": 131.3, "VMAX": 25.0, "MSLP": 1011.80975, "RMAX": 45.0, "FSPD": 3.42385, "FDIR": 243.20755, "RENV": 500.0, "PENV": 1012.0, "VALIDT": 0, "DTG": "2025-04-10 00:00", "LATNOW": -16.0, "LONNOW": 124.5, "WINDNOW": 30.0, "DIRNOW": 3.0, "SPDNOW": 6.0, "TECH": "TRAK", "ADVNR": 28, "ATCFID": "SH292025", "NAME": "ERROL", "FTECH": "JTWC", "FCST_DTG": "2025-04-18 12:00:00", "RUN_DTG": "2025-04-19 08:05:59", "BASIN": "SH", "STMNR": 29, "CAT_ID": null, "CAT_DESC": null, "MSGID": "WTXS51 PGTW 181500", "VALIDTIME": "2025-04-10 00:00:00" }, "geometry": { "type": "Point", "coordinates": [ 131.300003, -7.9 ] } },
{ "type": "Feature", "properties": { "ID": 316947, "LAT": -8.2, "LON": 130.7, "VMAX": 25.0, "MSLP": 1011.80975, "RMAX": 45.0, "FSPD": 2.28138, "FDIR": 243.1925, "RENV": 500.0, "PENV": 1012.0, "VALIDT": 0, "DTG": "2025-04-10 06:00", "LATNOW": -16.0, "LONNOW": 124.5, "WINDNOW": 30.0, "DIRNOW": 3.0, "SPDNOW": 6.0, "TECH": "TRAK", "ADVNR": 28, "ATCFID": "SH292025", "NAME": "ERROL", "FTECH": "JTWC", "FCST_DTG": "2025-04-18 12:00:00", "RUN_DTG": "2025-04-19 08:05:59", "BASIN": "SH", "STMNR": 29, "CAT_ID": null, "CAT_DESC": null, "MSGID": "WTXS51 PGTW 181500", "VALIDTIME": "2025-04-10 06:00:00" }, "geometry": { "type": "Point", "coordinates": [ 130.699997, -8.2 ] } },
{ "type": "Feature", "properties": { "ID": 316948, "LAT": -8.4, "LON": 130.3, "VMAX": 25.0, "MSLP": 1011.80975, "RMAX": 45.0, "FSPD": 2.09949, "FDIR": 255.81613, "RENV": 500.0, "PENV": 1012.0, "VALIDT": 0, "DTG": "2025-04-10 12:00", "LATNOW": -16.0, "LONNOW": 124.5, "WINDNOW": 30.0, "DIRNOW": 3.0, "SPDNOW": 6.0, "TECH": "TRAK", "ADVNR": 28, "ATCFID": "SH292025", "NAME": "ERROL", "FTECH": "JTWC", "FCST_DTG": "2025-04-18 12:00:00", "RUN_DTG": "2025-04-19 08:05:59", "BASIN": "SH", "STMNR": 29, "CAT_ID": null, "CAT_DESC": null, "MSGID": "WTXS51 PGTW 181500", "VALIDTIME": "2025-04-10 12:00:00" }, "geometry": { "type": "Point", "coordinates": [ 130.300003, -8.4 ] } },
{ "type": "Feature", "properties": { "ID": 316949, "LAT": -8.5, "LON": 129.9, "VMAX": 30.0, "MSLP": 1010.40607, "RMAX": 44.21983, "FSPD": 2.17018, "FDIR": 224.67107, "RENV": 500.0, "PENV": 1012.0, "VALIDT": 0, "DTG": "2025-04-10 18:00", "LATNOW": -16.0, "LONNOW": 124.5, "WINDNOW": 30.0, "DIRNOW": 3.0, "SPDNOW": 6.0, "TECH": "TRAK", "ADVNR": 28, "ATCFID": "SH292025", "NAME": "ERROL", "FTECH": "JTWC", "FCST_DTG": "2025-04-18 12:00:00", "RUN_DTG": "2025-04-19 08:05:59", "BASIN": "SH", "STMNR": 29, "CAT_ID": null, "CAT_DESC": null, "MSGID": "WTXS51 PGTW 181500", "VALIDTIME": "2025-04-10 18:00:00" }, "geometry": { "type": "Point", "coordinates": [ 129.899994, -8.5 ] } },
{ "type": "Feature", "properties": { "ID": 316950, "LAT": -8.8, "LON": 129.6, "VMAX": 25.0, "MSLP": 1011.80975, "RMAX": 45.0, "FSPD": 1.84797, "FDIR": 213.36845, "RENV": 500.0, "PENV": 1012.0, "VALIDT": 0, "DTG": "2025-04-11 00:00", "LATNOW": -16.0, "LONNOW": 124.5, "WINDNOW": 30.0, "DIRNOW": 3.0, "SPDNOW": 6.0, "TECH": "TRAK", "ADVNR": 28, "ATCFID": "SH292025", "NAME": "ERROL", "FTECH": "JTWC", "FCST_DTG": "2025-04-18 12:00:00", "RUN_DTG": "2025-04-19 08:05:59", "BASIN": "SH", "STMNR": 29, "CAT_ID": null, "CAT_DESC": null, "MSGID": "WTXS51 PGTW 181500", "VALIDTIME": "2025-04-11 00:00:00" }, "geometry": { "type": "Point", "coordinates": [ 129.600006, -8.8 ] } },
{ "type": "Feature", "properties": { "ID": 316951, "LAT": -9.1, "LON": 129.4, "VMAX": 30.0, "MSLP": 1010.40607, "RMAX": 44.21983, "FSPD": 5.11913, "FDIR": 216.49045, "RENV": 500.0, "PENV": 1012.0, "VALIDT": 0, "DTG": "2025-04-11 06:00", "LATNOW": -16.0, "LONNOW": 124.5, "WINDNOW": 30.0, "DIRNOW": 3.0, "SPDNOW": 6.0, "TECH": "TRAK", "ADVNR": 28, "ATCFID": "SH292025", "NAME": "ERROL", "FTECH": "JTWC", "FCST_DTG": "2025-04-18 12:00:00", "RUN_DTG": "2025-04-19 08:05:59", "BASIN": "SH", "STMNR": 29, "CAT_ID": null, "CAT_DESC": null, "MSGID": "WTXS51 PGTW 181500", "VALIDTIME": "2025-04-11 06:00:00" }, "geometry": { "type": "Point", "coordinates": [ 129.399994, -9.1 ] } },
{ "type": "Feature", "properties": { "ID": 316952, "LAT": -9.9, "LON": 128.8, "VMAX": 30.0, "MSLP": 1010.40607, "RMAX": 44.21983, "FSPD": 5.05226, "FDIR": 224.53894, "RENV": 500.0, "PENV": 1012.0, "VALIDT": 0, "DTG": "2025-04-11 12:00", "LATNOW": -16.0, "LONNOW": 124.5, "WINDNOW": 30.0, "DIRNOW": 3.0, "SPDNOW": 6.0, "TECH": "TRAK", "ADVNR": 28, "ATCFID": "SH292025", "NAME": "ERROL", "FTECH": "JTWC", "FCST_DTG": "2025-04-18 12:00:00", "RUN_DTG": "2025-04-19 08:05:59", "BASIN": "SH", "STMNR": 29, "CAT_ID": null, "CAT_DESC": null, "MSGID": "WTXS51 PGTW 181500", "VALIDTIME": "2025-04-11 12:00:00" }, "geometry": { "type": "Point", "coordinates": [ 128.800003, -9.9 ] } },
{ "type": "Feature", "properties": { "ID": 316953, "LAT": -10.6, "LON": 128.1, "VMAX": 35.0, "MSLP": 1000.0, "RMAX": 45.0, "FSPD": 4.32603, "FDIR": 224.47876, "RENV": 65.0, "PENV": 1006.0, "VALIDT": 0, "DTG": "2025-04-11 18:00", "LATNOW": -16.0, "LONNOW": 124.5, "WINDNOW": 30.0, "DIRNOW": 3.0, "SPDNOW": 6.0, "TECH": "TRAK", "ADVNR": 28, "ATCFID": "SH292025", "NAME": "ERROL", "FTECH": "JTWC", "FCST_DTG": "2025-04-18 12:00:00", "RUN_DTG": "2025-04-19 08:05:59", "BASIN": "SH", "STMNR": 29, "CAT_ID": null, "CAT_DESC": null, "MSGID": "WTXS51 PGTW 181500", "VALIDTIME": "2025-04-11 18:00:00" }, "geometry": { "type": "Point", "coordinates": [ 128.100006, -10.6 ] } },
{ "type": "Feature", "properties": { "ID": 316954, "LAT": -11.2, "LON": 127.5, "VMAX": 40.0, "MSLP": 1000.0, "RMAX": 45.0, "FSPD": 4.79464, "FDIR": 251.22287, "RENV": 65.0, "PENV": 1006.0, "VALIDT": 0, "DTG": "2025-04-12 00:00", "LATNOW": -16.0, "LONNOW": 124.5, "WINDNOW": 30.0, "DIRNOW": 3.0, "SPDNOW": 6.0, "TECH": "TRAK", "ADVNR": 28, "ATCFID": "SH292025", "NAME": "ERROL", "FTECH": "JTWC", "FCST_DTG": "2025-04-18 12:00:00", "RUN_DTG": "2025-04-19 08:05:59", "BASIN": "SH", "STMNR": 29, "CAT_ID": null, "CAT_DESC": null, "MSGID": "WTXS51 PGTW 181500", "VALIDTIME": "2025-04-12 00:00:00" }, "geometry": { "type": "Point", "coordinates": [ 127.5, -11.2 ] } },
{ "type": "Feature", "properties": { "ID": 316955, "LAT": -11.5, "LON": 126.6, "VMAX": 35.0, "MSLP": 1000.0, "RMAX": 45.0, "FSPD": 1.44027, "FDIR": 224.40842, "RENV": 100.0, "PENV": 1007.0, "VALIDT": 0, "DTG": "2025-04-12 06:00", "LATNOW": -16.0, "LONNOW": 124.5, "WINDNOW": 30.0, "DIRNOW": 3.0, "SPDNOW": 6.0, "TECH": "TRAK", "ADVNR": 28, "ATCFID": "SH292025", "NAME": "ERROL", "FTECH": "JTWC", "FCST_DTG": "2025-04-18 12:00:00", "RUN_DTG": "2025-04-19 08:05:59", "BASIN": "SH", "STMNR": 29, "CAT_ID": null, "CAT_DESC": null, "MSGID": "WTXS51 PGTW 181500", "VALIDTIME": "2025-04-12 06:00:00" }, "geometry": { "type": "Point", "coordinates": [ 126.599998, -11.5 ] } },
{ "type": "Feature", "properties": { "ID": 316956, "LAT": -11.7, "LON": 126.4, "VMAX": 35.0, "MSLP": 999.0, "RMAX": 40.0, "FSPD": 2.15948, "FDIR": 224.38316, "RENV": 160.0, "PENV": 1007.0, "VALIDT": 0, "DTG": "2025-04-12 12:00", "LATNOW": -16.0, "LONNOW": 124.5, "WINDNOW": 30.0, "DIRNOW": 3.0, "SPDNOW": 6.0, "TECH": "TRAK", "ADVNR": 28, "ATCFID": "SH292025", "NAME": "ERROL", "FTECH": "JTWC", "FCST_DTG": "2025-04-18 12:00:00", "RUN_DTG": "2025-04-19 08:05:59", "BASIN": "SH", "STMNR": 29, "CAT_ID": null, "CAT_DESC": null, "MSGID": "WTXS51 PGTW 181500", "VALIDTIME": "2025-04-12 12:00:00" }, "geometry": { "type": "Point", "coordinates": [ 126.400002, -11.7 ] } },
{ "type": "Feature", "properties": { "ID": 316957, "LAT": -12.0, "LON": 126.1, "VMAX": 35.0, "MSLP": 1000.0, "RMAX": 40.0, "FSPD": 1.82641, "FDIR": 235.71286, "RENV": 160.0, "PENV": 1010.0, "VALIDT": 0, "DTG": "2025-04-12 18:00", "LATNOW": -16.0, "LONNOW": 124.5, "WINDNOW": 30.0, "DIRNOW": 3.0, "SPDNOW": 6.0, "TECH": "TRAK", "ADVNR": 28, "ATCFID": "SH292025", "NAME": "ERROL", "FTECH": "JTWC", "FCST_DTG": "2025-04-18 12:00:00", "RUN_DTG": "2025-04-19 08:05:59", "BASIN": "SH", "STMNR": 29, "CAT_ID": null, "CAT_DESC": null, "MSGID": "WTXS51 PGTW 181500", "VALIDTIME": "2025-04-12 18:00:00" }, "geometry": { "type": "Point", "coordinates": [ 126.099998, -12.0 ] } },
{ "type": "Feature", "properties": { "ID": 316958, "LAT": -12.2, "LON": 125.8, "VMAX": 35.0, "MSLP": 1003.0, "RMAX": 70.0, "FSPD": 6.77145, "FDIR": 242.88126, "RENV": 120.0, "PENV": 1007.0, "VALIDT": 0, "DTG": "2025-04-13 00:00", "LATNOW": -16.0, "LONNOW": 124.5, "WINDNOW": 30.0, "DIRNOW": 3.0, "SPDNOW": 6.0, "TECH": "TRAK", "ADVNR": 28, "ATCFID": "SH292025", "NAME": "ERROL", "FTECH": "JTWC", "FCST_DTG": "2025-04-18 12:00:00", "RUN_DTG": "2025-04-19 08:05:59", "BASIN": "SH", "STMNR": 29, "CAT_ID": null, "CAT_DESC": null, "MSGID": "WTXS51 PGTW 181500", "VALIDTIME": "2025-04-13 00:00:00" }, "geometry": { "type": "Point", "coordinates": [ 125.800003, -12.2 ] } },
{ "type": "Feature", "properties": { "ID": 316959, "LAT": -12.8, "LON": 124.6, "VMAX": 35.0, "MSLP": 1000.0, "RMAX": 70.0, "FSPD": 3.64414, "FDIR": 235.61989, "RENV": 120.0, "PENV": 1007.0, "VALIDT": 0, "DTG": "2025-04-13 06:00", "LATNOW": -16.0, "LONNOW": 124.5, "WINDNOW": 30.0, "DIRNOW": 3.0, "SPDNOW": 6.0, "TECH": "TRAK", "ADVNR": 28, "ATCFID": "SH292025", "NAME": "ERROL", "FTECH": "JTWC", "FCST_DTG": "2025-04-18 12:00:00", "RUN_DTG": "2025-04-19 08:05:59", "BASIN": "SH", "STMNR": 29, "CAT_ID": null, "CAT_DESC": null, "MSGID": "WTXS51 PGTW 181500", "VALIDTIME": "2025-04-13 06:00:00" }, "geometry": { "type": "Point", "coordinates": [ 124.599998, -12.8 ] } },
{ "type": "Feature", "properties": { "ID": 316960, "LAT": -13.2, "LON": 124.0, "VMAX": 35.0, "MSLP": 1000.0, "RMAX": 50.0, "FSPD": 4.53602, "FDIR": 263.48785, "RENV": 160.0, "PENV": 1007.0, "VALIDT": 0, "DTG": "2025-04-13 12:00", "LATNOW": -16.0, "LONNOW": 124.5, "WINDNOW": 30.0, "DIRNOW": 3.0, "SPDNOW": 6.0, "TECH": "TRAK", "ADVNR": 28, "ATCFID": "SH292025", "NAME": "ERROL", "FTECH": "JTWC", "FCST_DTG": "2025-04-18 12:00:00", "RUN_DTG": "2025-04-19 08:05:59", "BASIN": "SH", "STMNR": 29, "CAT_ID": null, "CAT_DESC": null, "MSGID": "WTXS51 PGTW 181500", "VALIDTIME": "2025-04-13 12:00:00" }, "geometry": { "type": "Point", "coordinates": [ 124.0, -13.2 ] } },
{ "type": "Feature", "properties": { "ID": 316961, "LAT": -13.3, "LON": 123.1, "VMAX": 40.0, "MSLP": 1000.0, "RMAX": 50.0, "FSPD": 3.17402, "FDIR": 251.0853, "RENV": 140.0, "PENV": 1009.0, "VALIDT": 0, "DTG": "2025-04-13 18:00", "LATNOW": -16.0, "LONNOW": 124.5, "WINDNOW": 30.0, "DIRNOW": 3.0, "SPDNOW": 6.0, "TECH": "TRAK", "ADVNR": 28, "ATCFID": "SH292025", "NAME": "ERROL", "FTECH": "JTWC", "FCST_DTG": "2025-04-18 12:00:00", "RUN_DTG": "2025-04-19 08:05:59", "BASIN": "SH", "STMNR": 29, "CAT_ID": null, "CAT_DESC": null, "MSGID": "WTXS51 PGTW 181500", "VALIDTIME": "2025-04-13 18:00:00" }, "geometry": { "type": "Point", "coordinates": [ 123.099998, -13.3 ] } },
{ "type": "Feature", "properties": { "ID": 316962, "LAT": -13.5, "LON": 122.5, "VMAX": 40.0, "MSLP": 1000.0, "RMAX": 50.0, "FSPD": 3.63696, "FDIR": 124.45749, "RENV": 140.0, "PENV": 1008.0, "VALIDT": 0, "DTG": "2025-04-14 00:00", "LATNOW": -16.0, "LONNOW": 124.5, "WINDNOW": 30.0, "DIRNOW": 3.0, "SPDNOW": 6.0, "TECH": "TRAK", "ADVNR": 28, "ATCFID": "SH292025", "NAME": "ERROL", "FTECH": "JTWC", "FCST_DTG": "2025-04-18 12:00:00", "RUN_DTG": "2025-04-19 08:05:59", "BASIN": "SH", "STMNR": 29, "CAT_ID": null, "CAT_DESC": null, "MSGID": "WTXS51 PGTW 181500", "VALIDTIME": "2025-04-14 00:00:00" }, "geometry": { "type": "Point", "coordinates": [ 122.5, -13.5 ] } },
{ "type": "Feature", "properties": { "ID": 316963, "LAT": -13.9, "LON": 123.1, "VMAX": 35.0, "MSLP": 1001.0, "RMAX": 50.0, "FSPD": 1.12326, "FDIR": 242.74223, "RENV": 130.0, "PENV": 1009.0, "VALIDT": 0, "DTG": "2025-04-14 06:00", "LATNOW": -16.0, "LONNOW": 124.5, "WINDNOW": 30.0, "DIRNOW": 3.0, "SPDNOW": 6.0, "TECH": "TRAK", "ADVNR": 28, "ATCFID": "SH292025", "NAME": "ERROL", "FTECH": "JTWC", "FCST_DTG": "2025-04-18 12:00:00", "RUN_DTG": "2025-04-19 08:05:59", "BASIN": "SH", "STMNR": 29, "CAT_ID": null, "CAT_DESC": null, "MSGID": "WTXS51 PGTW 181500", "VALIDTIME": "2025-04-14 06:00:00" }, "geometry": { "type": "Point", "coordinates": [ 123.099998, -13.9 ] } },
{ "type": "Feature", "properties": { "ID": 316964, "LAT": -14.0, "LON": 122.9, "VMAX": 40.0, "MSLP": 1000.0, "RMAX": 30.0, "FSPD": 2.54575, "FDIR": 323.93195, "RENV": 110.0, "PENV": 1006.0, "VALIDT": 0, "DTG": "2025-04-14 12:00", "LATNOW": -16.0, "LONNOW": 124.5, "WINDNOW": 30.0, "DIRNOW": 3.0, "SPDNOW": 6.0, "TECH": "TRAK", "ADVNR": 28, "ATCFID": "SH292025", "NAME": "ERROL", "FTECH": "JTWC", "FCST_DTG": "2025-04-18 12:00:00", "RUN_DTG": "2025-04-19 08:05:59", "BASIN": "SH", "STMNR": 29, "CAT_ID": null, "CAT_DESC": null, "MSGID": "WTXS51 PGTW 181500", "VALIDTIME": "2025-04-14 12:00:00" }, "geometry": { "type": "Point", "coordinates": [ 122.900002, -14.0 ] } },
{ "type": "Feature", "properties": { "ID": 316965, "LAT": -13.6, "LON": 122.6, "VMAX": 45.0, "MSLP": 999.0, "RMAX": 30.0, "FSPD": 2.5001, "FDIR": 269.99997, "RENV": 100.0, "PENV": 1008.0, "VALIDT": 0, "DTG": "2025-04-14 18:00", "LATNOW": -16.0, "LONNOW": 124.5, "WINDNOW": 30.0, "DIRNOW": 3.0, "SPDNOW": 6.0, "TECH": "TRAK", "ADVNR": 28, "ATCFID": "SH292025", "NAME": "ERROL", "FTECH": "JTWC", "FCST_DTG": "2025-04-18 12:00:00", "RUN_DTG": "2025-04-19 08:05:59", "BASIN": "SH", "STMNR": 29, "CAT_ID": null, "CAT_DESC": null, "MSGID": "WTXS51 PGTW 181500", "VALIDTIME": "2025-04-14 18:00:00" }, "geometry": { "type": "Point", "coordinates": [ 122.599998, -13.6 ] } },
{ "type": "Feature", "properties": { "ID": 316966, "LAT": -13.6, "LON": 122.1, "VMAX": 45.0, "MSLP": 996.0, "RMAX": 30.0, "FSPD": 3.2364, "FDIR": 230.51901, "RENV": 110.0, "PENV": 1007.0, "VALIDT": 0, "DTG": "2025-04-15 00:00", "LATNOW": -16.0, "LONNOW": 124.5, "WINDNOW": 30.0, "DIRNOW": 3.0, "SPDNOW": 6.0, "TECH": "TRAK", "ADVNR": 28, "ATCFID": "SH292025", "NAME": "ERROL", "FTECH": "JTWC", "FCST_DTG": "2025-04-18 12:00:00", "RUN_DTG": "2025-04-19 08:05:59", "BASIN": "SH", "STMNR": 29, "CAT_ID": null, "CAT_DESC": null, "MSGID": "WTXS51 PGTW 181500", "VALIDTIME": "2025-04-15 00:00:00" }, "geometry": { "type": "Point", "coordinates": [ 122.099998, -13.6 ] } },
{ "type": "Feature", "properties": { "ID": 316967, "LAT": -14.0, "LON": 121.6, "VMAX": 45.0, "MSLP": 996.0, "RMAX": 25.0, "FSPD": 4.02714, "FDIR": 277.3393, "RENV": 110.0, "PENV": 1007.0, "VALIDT": 0, "DTG": "2025-04-15 06:00", "LATNOW": -16.0, "LONNOW": 124.5, "WINDNOW": 30.0, "DIRNOW": 3.0, "SPDNOW": 6.0, "TECH": "TRAK", "ADVNR": 28, "ATCFID": "SH292025", "NAME": "ERROL", "FTECH": "JTWC", "FCST_DTG": "2025-04-18 12:00:00", "RUN_DTG": "2025-04-19 08:05:59", "BASIN": "SH", "STMNR": 29, "CAT_ID": null, "CAT_DESC": null, "MSGID": "WTXS51 PGTW 181500", "VALIDTIME": "2025-04-15 06:00:00" }, "geometry": { "type": "Point", "coordinates": [ 121.599998, -14.0 ] } },
{ "type": "Feature", "properties": { "ID": 316968, "LAT": -13.9, "LON": 120.8, "VMAX": 55.0, "MSLP": 996.0, "RMAX": 25.0, "FSPD": 2.4969, "FDIR": 269.99997, "RENV": 125.0, "PENV": 1006.0, "VALIDT": 0, "DTG": "2025-04-15 12:00", "LATNOW": -16.0, "LONNOW": 124.5, "WINDNOW": 30.0, "DIRNOW": 3.0, "SPDNOW": 6.0, "TECH": "TRAK", "ADVNR": 28, "ATCFID": "SH292025", "NAME": "ERROL", "FTECH": "JTWC", "FCST_DTG": "2025-04-18 12:00:00", "RUN_DTG": "2025-04-19 08:05:59", "BASIN": "SH", "STMNR": 29, "CAT_ID": null, "CAT_DESC": null, "MSGID": "WTXS51 PGTW 181500", "VALIDTIME": "2025-04-15 12:00:00" }, "geometry": { "type": "Point", "coordinates": [ 120.800003, -13.9 ] } },
{ "type": "Feature", "properties": { "ID": 316969, "LAT": -13.9, "LON": 120.3, "VMAX": 60.0, "MSLP": 992.0, "RMAX": 20.0, "FSPD": 3.16681, "FDIR": 251.04054, "RENV": 120.0, "PENV": 1008.0, "VALIDT": 0, "DTG": "2025-04-15 18:00", "LATNOW": -16.0, "LONNOW": 124.5, "WINDNOW": 30.0, "DIRNOW": 3.0, "SPDNOW": 6.0, "TECH": "TRAK", "ADVNR": 28, "ATCFID": "SH292025", "NAME": "ERROL", "FTECH": "JTWC", "FCST_DTG": "2025-04-18 12:00:00", "RUN_DTG": "2025-04-19 08:05:59", "BASIN": "SH", "STMNR": 29, "CAT_ID": null, "CAT_DESC": null, "MSGID": "WTXS51 PGTW 181500", "VALIDTIME": "2025-04-15 18:00:00" }, "geometry": { "type": "Point", "coordinates": [ 120.300003, -13.9 ] } },
{ "type": "Feature", "properties": { "ID": 316970, "LAT": -14.1, "LON": 119.7, "VMAX": 80.0, "MSLP": 989.0, "RMAX": 15.0, "FSPD": 2.54668, "FDIR": 258.34576, "RENV": 120.0, "PENV": 1008.0, "VALIDT": 0, "DTG": "2025-04-16 00:00", "LATNOW": -16.0, "LONNOW": 124.5, "WINDNOW": 30.0, "DIRNOW": 3.0, "SPDNOW": 6.0, "TECH": "TRAK", "ADVNR": 28, "ATCFID": "SH292025", "NAME": "ERROL", "FTECH": "JTWC", "FCST_DTG": "2025-04-18 12:00:00", "RUN_DTG": "2025-04-19 08:05:59", "BASIN": "SH", "STMNR": 29, "CAT_ID": null, "CAT_DESC": null, "MSGID": "WTXS51 PGTW 181500", "VALIDTIME": "2025-04-16 00:00:00" }, "geometry": { "type": "Point", "coordinates": [ 119.699997, -14.1 ] } },
{ "type": "Feature", "properties": { "ID": 316971, "LAT": -14.2, "LON": 119.2, "VMAX": 120.0, "MSLP": 976.0, "RMAX": 6.0, "FSPD": 1.81524, "FDIR": 235.47226, "RENV": 105.0, "PENV": 1006.0, "VALIDT": 0, "DTG": "2025-04-16 06:00", "LATNOW": -16.0, "LONNOW": 124.5, "WINDNOW": 30.0, "DIRNOW": 3.0, "SPDNOW": 6.0, "TECH": "TRAK", "ADVNR": 28, "ATCFID": "SH292025", "NAME": "ERROL", "FTECH": "JTWC", "FCST_DTG": "2025-04-18 12:00:00", "RUN_DTG": "2025-04-19 08:05:59", "BASIN": "SH", "STMNR": 29, "CAT_ID": null, "CAT_DESC": null, "MSGID": "WTXS51 PGTW 181500", "VALIDTIME": "2025-04-16 06:00:00" }, "geometry": { "type": "Point", "coordinates": [ 119.199997, -14.2 ] } },
{ "type": "Feature", "properties": { "ID": 316972, "LAT": -14.4, "LON": 118.9, "VMAX": 140.0, "MSLP": 940.0, "RMAX": 5.0, "FSPD": 1.62167, "FDIR": 197.88162, "RENV": 135.0, "PENV": 1006.0, "VALIDT": 0, "DTG": "2025-04-16 12:00", "LATNOW": -16.0, "LONNOW": 124.5, "WINDNOW": 30.0, "DIRNOW": 3.0, "SPDNOW": 6.0, "TECH": "TRAK", "ADVNR": 28, "ATCFID": "SH292025", "NAME": "ERROL", "FTECH": "JTWC", "FCST_DTG": "2025-04-18 12:00:00", "RUN_DTG": "2025-04-19 08:05:59", "BASIN": "SH", "STMNR": 29, "CAT_ID": null, "CAT_DESC": null, "MSGID": "WTXS51 PGTW 181500", "VALIDTIME": "2025-04-16 12:00:00" }, "geometry": { "type": "Point", "coordinates": [ 118.900002, -14.4 ] } },
{ "type": "Feature", "properties": { "ID": 316973, "LAT": -14.7, "LON": 118.8, "VMAX": 125.0, "MSLP": 919.0, "RMAX": 5.0, "FSPD": 1.83601, "FDIR": 147.20264, "RENV": 135.0, "PENV": 1006.0, "VALIDT": 0, "DTG": "2025-04-16 18:00", "LATNOW": -16.0, "LONNOW": 124.5, "WINDNOW": 30.0, "DIRNOW": 3.0, "SPDNOW": 6.0, "TECH": "TRAK", "ADVNR": 28, "ATCFID": "SH292025", "NAME": "ERROL", "FTECH": "JTWC", "FCST_DTG": "2025-04-18 12:00:00", "RUN_DTG": "2025-04-19 08:05:59", "BASIN": "SH", "STMNR": 29, "CAT_ID": null, "CAT_DESC": null, "MSGID": "WTXS51 PGTW 181500", "VALIDTIME": "2025-04-16 18:00:00" }, "geometry": { "type": "Point", "coordinates": [ 118.800003, -14.7 ] } },
{ "type": "Feature", "properties": { "ID": 316974, "LAT": -15.0, "LON": 119.0, "VMAX": 120.0, "MSLP": 935.0, "RMAX": 5.0, "FSPD": 2.23735, "FDIR": 117.37863, "RENV": 165.0, "PENV": 1007.0, "VALIDT": 0, "DTG": "2025-04-17 00:00", "LATNOW": -16.0, "LONNOW": 124.5, "WINDNOW": 30.0, "DIRNOW": 3.0, "SPDNOW": 6.0, "TECH": "TRAK", "ADVNR": 28, "ATCFID": "SH292025", "NAME": "ERROL", "FTECH": "JTWC", "FCST_DTG": "2025-04-18 12:00:00", "RUN_DTG": "2025-04-19 08:05:59", "BASIN": "SH", "STMNR": 29, "CAT_ID": null, "CAT_DESC": null, "MSGID": "WTXS51 PGTW 181500", "VALIDTIME": "2025-04-17 00:00:00" }, "geometry": { "type": "Point", "coordinates": [ 119.0, -15.0 ] } },
{ "type": "Feature", "properties": { "ID": 316975, "LAT": -15.2, "LON": 119.4, "VMAX": 105.0, "MSLP": 940.0, "RMAX": 5.0, "FSPD": 4.4965, "FDIR": 96.56958, "RENV": 180.0, "PENV": 1008.0, "VALIDT": 0, "DTG": "2025-04-17 06:00", "LATNOW": -16.0, "LONNOW": 124.5, "WINDNOW": 30.0, "DIRNOW": 3.0, "SPDNOW": 6.0, "TECH": "TRAK", "ADVNR": 28, "ATCFID": "SH292025", "NAME": "ERROL", "FTECH": "JTWC", "FCST_DTG": "2025-04-18 12:00:00", "RUN_DTG": "2025-04-19 08:05:59", "BASIN": "SH", "STMNR": 29, "CAT_ID": null, "CAT_DESC": null, "MSGID": "WTXS51 PGTW 181500", "VALIDTIME": "2025-04-17 06:00:00" }, "geometry": { "type": "Point", "coordinates": [ 119.400002, -15.2 ] } },
{ "type": "Feature", "properties": { "ID": 316976, "LAT": -15.3, "LON": 120.3, "VMAX": 80.0, "MSLP": 951.0, "RMAX": 5.0, "FSPD": 7.3783, "FDIR": 119.21359, "RENV": 180.0, "PENV": 1005.0, "VALIDT": 0, "DTG": "2025-04-17 12:00", "LATNOW": -16.0, "LONNOW": 124.5, "WINDNOW": 30.0, "DIRNOW": 3.0, "SPDNOW": 6.0, "TECH": "TRAK", "ADVNR": 28, "ATCFID": "SH292025", "NAME": "ERROL", "FTECH": "JTWC", "FCST_DTG": "2025-04-18 12:00:00", "RUN_DTG": "2025-04-19 08:05:59", "BASIN": "SH", "STMNR": 29, "CAT_ID": null, "CAT_DESC": null, "MSGID": "WTXS51 PGTW 181500", "VALIDTIME": "2025-04-17 12:00:00" }, "geometry": { "type": "Point", "coordinates": [ 120.300003, -15.3 ] } },
{ "type": "Feature", "properties": { "ID": 316977, "LAT": -16.0, "LON": 121.6, "VMAX": 70.0, "MSLP": 974.0, "RMAX": 10.0, "FSPD": 8.40679, "FDIR": 90.0, "RENV": 190.0, "PENV": 1007.0, "VALIDT": 0, "DTG": "2025-04-17 18:00", "LATNOW": -16.0, "LONNOW": 124.5, "WINDNOW": 30.0, "DIRNOW": 3.0, "SPDNOW": 6.0, "TECH": "TRAK", "ADVNR": 28, "ATCFID": "SH292025", "NAME": "ERROL", "FTECH": "JTWC", "FCST_DTG": "2025-04-18 12:00:00", "RUN_DTG": "2025-04-19 08:05:59", "BASIN": "SH", "STMNR": 29, "CAT_ID": null, "CAT_DESC": null, "MSGID": "WTXS51 PGTW 181500", "VALIDTIME": "2025-04-17 18:00:00" }, "geometry": { "type": "Point", "coordinates": [ 121.599998, -16.0 ] } },
{ "type": "Feature", "properties": { "ID": 316978, "LAT": -16.0, "LON": 123.3, "VMAX": 55.0, "MSLP": 980.0, "RMAX": 10.0, "FSPD": 2.96709, "FDIR": 90.0, "RENV": 180.0, "PENV": 1005.0, "VALIDT": 0, "DTG": "2025-04-18 00:00", "LATNOW": -16.0, "LONNOW": 124.5, "WINDNOW": 30.0, "DIRNOW": 3.0, "SPDNOW": 6.0, "TECH": "TRAK", "ADVNR": 28, "ATCFID": "SH292025", "NAME": "ERROL", "FTECH": "JTWC", "FCST_DTG": "2025-04-18 12:00:00", "RUN_DTG": "2025-04-19 08:05:59", "BASIN": "SH", "STMNR": 29, "CAT_ID": null, "CAT_DESC": null, "MSGID": "WTXS51 PGTW 181500", "VALIDTIME": "2025-04-18 00:00:00" }, "geometry": { "type": "Point", "coordinates": [ 123.300003, -16.0 ] } },
{ "type": "Feature", "properties": { "ID": 316979, "LAT": -16.0, "LON": 123.9, "VMAX": 40.0, "MSLP": 991.0, "RMAX": 10.0, "FSPD": 2.96709, "FDIR": 90.0, "RENV": 130.0, "PENV": 1006.0, "VALIDT": 0, "DTG": "2025-04-18 06:00", "LATNOW": -16.0, "LONNOW": 124.5, "WINDNOW": 30.0, "DIRNOW": 3.0, "SPDNOW": 6.0, "TECH": "TRAK", "ADVNR": 28, "ATCFID": "SH292025", "NAME": "ERROL", "FTECH": "JTWC", "FCST_DTG": "2025-04-18 12:00:00", "RUN_DTG": "2025-04-19 08:05:59", "BASIN": "SH", "STMNR": 29, "CAT_ID": null, "CAT_DESC": null, "MSGID": "WTXS51 PGTW 181500", "VALIDTIME": "2025-04-18 06:00:00" }, "geometry": { "type": "Point", "coordinates": [ 123.900002, -16.0 ] } },
{ "type": "Feature", "properties": { "ID": 316980, "LAT": -16.0, "LON": 124.5, "VMAX": 30.0, "MSLP": 998.0, "RMAX": 20.0, "FSPD": 2.97822, "FDIR": 94.95477, "RENV": 100.0, "PENV": 1004.0, "VALIDT": 0, "DTG": "2025-04-18 12:00", "LATNOW": -16.0, "LONNOW": 124.5, "WINDNOW": 30.0, "DIRNOW": 3.0, "SPDNOW": 6.0, "TECH": "TRAK", "ADVNR": 28, "ATCFID": "SH292025", "NAME": "ERROL", "FTECH": "JTWC", "FCST_DTG": "2025-04-18 12:00:00", "RUN_DTG": "2025-04-19 08:05:59", "BASIN": "SH", "STMNR": 29, "CAT_ID": null, "CAT_DESC": null, "MSGID": "WTXS51 PGTW 181500", "VALIDTIME": "2025-04-18 12:00:00" }, "geometry": { "type": "Point", "coordinates": [ 124.5, -16.0 ] } },
{ "type": "Feature", "properties": { "ID": 316981, "LAT": -16.01, "LON": 124.62, "VMAX": 30.0, "MSLP": 998.0, "RMAX": 20.0, "FSPD": 2.97739, "FDIR": 94.95602, "RENV": 100.0, "PENV": 1004.0, "VALIDT": 1, "DTG": "2025-04-18 13:00", "LATNOW": -16.0, "LONNOW": 124.5, "WINDNOW": 30.0, "DIRNOW": 3.0, "SPDNOW": 6.0, "TECH": "FCST", "ADVNR": 28, "ATCFID": "SH292025", "NAME": "ERROL", "FTECH": "JTWC", "FCST_DTG": "2025-04-18 12:00:00", "RUN_DTG": "2025-04-19 08:05:59", "BASIN": "SH", "STMNR": 29, "CAT_ID": null, "CAT_DESC": null, "MSGID": "WTXS51 PGTW 181500", "VALIDTIME": "2025-04-18 13:00:00" }, "geometry": { "type": "Point", "coordinates": [ 124.620003, -16.01 ] } },
{ "type": "Feature", "properties": { "ID": 316982, "LAT": -16.1, "LON": 125.7, "VMAX": 20.0, "MSLP": 1012.95825, "RMAX": 24.6145, "FSPD": 2.97739, "FDIR": 94.95602, "RENV": 250.0, "PENV": 1012.0, "VALIDT": 12, "DTG": "2025-04-19 00:00", "LATNOW": -16.0, "LONNOW": 124.5, "WINDNOW": 30.0, "DIRNOW": 3.0, "SPDNOW": 6.0, "TECH": "FCST", "ADVNR": 28, "ATCFID": "SH292025", "NAME": "ERROL", "FTECH": "JTWC", "FCST_DTG": "2025-04-18 12:00:00", "RUN_DTG": "2025-04-19 08:05:59", "BASIN": "SH", "STMNR": 29, "CAT_ID": null, "CAT_DESC": null, "MSGID": "WTXS51 PGTW 181500", "VALIDTIME": "2025-04-19 00:00:00" }, "geometry": { "type": "Point", "coordinates": [ 125.699997, -16.1 ] } },
{ "type": "Feature", "properties": { "ID": 316980, "LAT": -16.0, "LON": 124.5, "VMAX": 30.0, "MSLP": 998.0, "RMAX": 20.0, "FSPD": 2.97822, "FDIR": 94.95477, "RENV": 100.0, "PENV": 1004.0, "VALIDT": 0, "DTG": "2025-04-18 12:00", "LATNOW": -16.0, "LONNOW": 124.5, "WINDNOW": 30.0, "DIRNOW": 3.0, "SPDNOW": 6.0, "TECH": "TRAK", "ADVNR": 28, "ATCFID": "SH292025", "NAME": "ERROL", "FTECH": "JTWC", "FCST_DTG": "2025-04-18 12:00:00", "RUN_DTG": "2025-04-19 08:05:59", "BASIN": "SH", "STMNR": 29, "CAT_ID": null, "CAT_DESC": null, "MSGID": "WTXS51 PGTW 181500", "VALIDTIME": "2025-04-18 12:00:00" }, "geometry": { "type": "LineString", "coordinates": [ [ 133.5, -9.6 ], [ 133.2, -9.1 ], [ 132.8, -8.6 ], [ 132.0, -8.2 ], [ 131.3, -7.9 ], [ 130.7, -8.2 ], [ 130.3, -8.4 ], [ 129.9, -8.5 ], [ 129.6, -8.8 ], [ 129.4, -9.1 ], [ 128.8, -9.9 ], [ 128.1, -10.6 ], [ 127.5, -11.2 ], [ 126.6, -11.5 ], [ 126.4, -11.7 ], [ 126.1, -12.0 ], [ 125.8, -12.2 ], [ 124.6, -12.8 ], [ 124.0, -13.2 ], [ 123.1, -13.3 ], [ 122.5, -13.5 ], [ 123.1, -13.9 ], [ 122.9, -14.0 ], [ 122.6, -13.6 ], [ 122.1, -13.6 ], [ 121.6, -14.0 ], [ 120.8, -13.9 ], [ 120.3, -13.9 ], [ 119.7, -14.1 ], [ 119.2, -14.2 ], [ 118.9, -14.4 ], [ 118.8, -14.7 ], [ 119.0, -15.0 ], [ 119.4, -15.2 ], [ 120.3, -15.3 ], [ 121.6, -16.0 ], [ 123.3, -16.0 ], [ 123.9, -16.0 ], [ 124.5, -16.0 ] ] } },
{ "type": "Feature", "properties": { "ID": 316982, "LAT": -16.1, "LON": 125.7, "VMAX": 20.0, "MSLP": 1012.95825, "RMAX": 24.6145, "FSPD": 2.97739, "FDIR": 94.95602, "RENV": 250.0, "PENV": 1012.0, "VALIDT": 12, "DTG": "2025-04-19 00:00", "LATNOW": -16.0, "LONNOW": 124.5, "WINDNOW": 30.0, "DIRNOW": 3.0, "SPDNOW": 6.0, "TECH": "FCST", "ADVNR": 28, "ATCFID": "SH292025", "NAME": "ERROL", "FTECH": "JTWC", "FCST_DTG": "2025-04-18 12:00:00", "RUN_DTG": "2025-04-19 08:05:59", "BASIN": "SH", "STMNR": 29, "CAT_ID": null, "CAT_DESC": null, "MSGID": "WTXS51 PGTW 181500", "VALIDTIME": "2025-04-19 00:00:00" }, "geometry": { "type": "LineString", "coordinates": [ [ 124.5, -16.0 ], [ 124.62, -16.01 ], [ 125.7, -16.1 ] ] } }
]
}
