{
"type": "FeatureCollection",
"crs": { "type": "name", "properties": { "name": "urn:ogc:def:crs:OGC:1.3:CRS84" } },
"features": [
{ "type": "Feature", "properties": { "ID": 249734, "LAT": 23.2, "LON": 146.5, "VMAX": 15.0, "MSLP": 1013.8515, "RMAX": 40.0, "FSPD": 1.54333, "FDIR": 360.0, "RENV": 500.0, "PENV": 1012.0, "VALIDT": 0, "DTG": "2024-09-02 00:00", "LATNOW": 39.2, "LONNOW": 153.4, "WINDNOW": 35.0, "DIRNOW": 12.0, "SPDNOW": 1.0, "TECH": "TRAK", "ADVNR": 12, "ATCFID": "WP132024", "NAME": "LEEPI", "FTECH": "JTWC", "FCST_DTG": "2024-09-06 18:00:00", "RUN_DTG": "2024-09-07 08:47:03", "BASIN": "WP", "STMNR": 13, "CAT_ID": null, "CAT_DESC": null, "MSGID": "WTPN52 PGTW 062100", "VALIDTIME": "2024-09-02 00:00:00" }, "geometry": { "type": "Point", "coordinates": [ 146.5, 23.200001 ] } },
{ "type": "Feature", "properties": { "ID": 249735, "LAT": 23.5, "LON": 146.5, "VMAX": 15.0, "MSLP": 1013.8515, "RMAX": 40.0, "FSPD": 1.61368, "FDIR": 16.98041, "RENV": 500.0, "PENV": 1012.0, "VALIDT": 0, "DTG": "2024-09-02 06:00", "LATNOW": 39.2, "LONNOW": 153.4, "WINDNOW": 35.0, "DIRNOW": 12.0, "SPDNOW": 1.0, "TECH": "TRAK", "ADVNR": 12, "ATCFID": "WP132024", "NAME": "LEEPI", "FTECH": "JTWC", "FCST_DTG": "2024-09-06 18:00:00", "RUN_DTG": "2024-09-07 08:47:03", "BASIN": "WP", "STMNR": 13, "CAT_ID": null, "CAT_DESC": null, "MSGID": "WTPN52 PGTW 062100", "VALIDTIME": "2024-09-02 06:00:00" }, "geometry": { "type": "Point", "coordinates": [ 146.5, 23.5 ] } },
{ "type": "Feature", "properties": { "ID": 249736, "LAT": 23.8, "LON": 146.6, "VMAX": 15.0, "MSLP": 1013.8515, "RMAX": 40.0, "FSPD": 2.93299, "FDIR": 28.71796, "RENV": 500.0, "PENV": 1012.0, "VALIDT": 0, "DTG": "2024-09-02 12:00", "LATNOW": 39.2, "LONNOW": 153.4, "WINDNOW": 35.0, "DIRNOW": 12.0, "SPDNOW": 1.0, "TECH": "TRAK", "ADVNR": 12, "ATCFID": "WP132024", "NAME": "LEEPI", "FTECH": "JTWC", "FCST_DTG": "2024-09-06 18:00:00", "RUN_DTG": "2024-09-07 08:47:03", "BASIN": "WP", "STMNR": 13, "CAT_ID": null, "CAT_DESC": null, "MSGID": "WTPN52 PGTW 062100", "VALIDTIME": "2024-09-02 12:00:00" }, "geometry": { "type": "Point", "coordinates": [ 146.600006, 23.799999 ] } },
{ "type": "Feature", "properties": { "ID": 249737, "LAT": 24.3, "LON": 146.9, "VMAX": 20.0, "MSLP": 1012.95825, "RMAX": 45.0, "FSPD": 2.49134, "FDIR": 34.31256, "RENV": 500.0, "PENV": 1012.0, "VALIDT": 0, "DTG": "2024-09-02 18:00", "LATNOW": 39.2, "LONNOW": 153.4, "WINDNOW": 35.0, "DIRNOW": 12.0, "SPDNOW": 1.0, "TECH": "TRAK", "ADVNR": 12, "ATCFID": "WP132024", "NAME": "LEEPI", "FTECH": "JTWC", "FCST_DTG": "2024-09-06 18:00:00", "RUN_DTG": "2024-09-07 08:47:03", "BASIN": "WP", "STMNR": 13, "CAT_ID": null, "CAT_DESC": null, "MSGID": "WTPN52 PGTW 062100", "VALIDTIME": "2024-09-02 18:00:00" }, "geometry": { "type": "Point", "coordinates": [ 146.899994, 24.299999 ] } },
{ "type": "Feature", "properties": { "ID": 249738, "LAT": 24.7, "LON": 147.2, "VMAX": 20.0, "MSLP": 1012.95825, "RMAX": 45.0, "FSPD": 1.54333, "FDIR": 360.0, "RENV": 500.0, "PENV": 1012.0, "VALIDT": 0, "DTG": "2024-09-03 00:00", "LATNOW": 39.2, "LONNOW": 153.4, "WINDNOW": 35.0, "DIRNOW": 12.0, "SPDNOW": 1.0, "TECH": "TRAK", "ADVNR": 12, "ATCFID": "WP132024", "NAME": "LEEPI", "FTECH": "JTWC", "FCST_DTG": "2024-09-06 18:00:00", "RUN_DTG": "2024-09-07 08:47:03", "BASIN": "WP", "STMNR": 13, "CAT_ID": null, "CAT_DESC": null, "MSGID": "WTPN52 PGTW 062100", "VALIDTIME": "2024-09-03 00:00:00" }, "geometry": { "type": "Point", "coordinates": [ 147.199997, 24.700001 ] } },
{ "type": "Feature", "properties": { "ID": 249739, "LAT": 25.0, "LON": 147.2, "VMAX": 20.0, "MSLP": 1012.95825, "RMAX": 45.0, "FSPD": 3.22378, "FDIR": 16.77051, "RENV": 500.0, "PENV": 1012.0, "VALIDT": 0, "DTG": "2024-09-03 06:00", "LATNOW": 39.2, "LONNOW": 153.4, "WINDNOW": 35.0, "DIRNOW": 12.0, "SPDNOW": 1.0, "TECH": "TRAK", "ADVNR": 12, "ATCFID": "WP132024", "NAME": "LEEPI", "FTECH": "JTWC", "FCST_DTG": "2024-09-06 18:00:00", "RUN_DTG": "2024-09-07 08:47:03", "BASIN": "WP", "STMNR": 13, "CAT_ID": null, "CAT_DESC": null, "MSGID": "WTPN52 PGTW 062100", "VALIDTIME": "2024-09-03 06:00:00" }, "geometry": { "type": "Point", "coordinates": [ 147.199997, 25.0 ] } },
{ "type": "Feature", "properties": { "ID": 249740, "LAT": 25.6, "LON": 147.4, "VMAX": 20.0, "MSLP": 1012.95825, "RMAX": 45.0, "FSPD": 4.14144, "FDIR": 353.5903, "RENV": 500.0, "PENV": 1012.0, "VALIDT": 0, "DTG": "2024-09-03 12:00", "LATNOW": 39.2, "LONNOW": 153.4, "WINDNOW": 35.0, "DIRNOW": 12.0, "SPDNOW": 1.0, "TECH": "TRAK", "ADVNR": 12, "ATCFID": "WP132024", "NAME": "LEEPI", "FTECH": "JTWC", "FCST_DTG": "2024-09-06 18:00:00", "RUN_DTG": "2024-09-07 08:47:03", "BASIN": "WP", "STMNR": 13, "CAT_ID": null, "CAT_DESC": null, "MSGID": "WTPN52 PGTW 062100", "VALIDTIME": "2024-09-03 12:00:00" }, "geometry": { "type": "Point", "coordinates": [ 147.399994, 25.6 ] } },
{ "type": "Feature", "properties": { "ID": 249741, "LAT": 26.4, "LON": 147.3, "VMAX": 20.0, "MSLP": 1012.95825, "RMAX": 45.0, "FSPD": 6.82757, "FDIR": 348.38586, "RENV": 500.0, "PENV": 1012.0, "VALIDT": 0, "DTG": "2024-09-03 18:00", "LATNOW": 39.2, "LONNOW": 153.4, "WINDNOW": 35.0, "DIRNOW": 12.0, "SPDNOW": 1.0, "TECH": "TRAK", "ADVNR": 12, "ATCFID": "WP132024", "NAME": "LEEPI", "FTECH": "JTWC", "FCST_DTG": "2024-09-06 18:00:00", "RUN_DTG": "2024-09-07 08:47:03", "BASIN": "WP", "STMNR": 13, "CAT_ID": null, "CAT_DESC": null, "MSGID": "WTPN52 PGTW 062100", "VALIDTIME": "2024-09-03 18:00:00" }, "geometry": { "type": "Point", "coordinates": [ 147.300003, 26.4 ] } },
{ "type": "Feature", "properties": { "ID": 249742, "LAT": 27.7, "LON": 147.0, "VMAX": 30.0, "MSLP": 1001.0, "RMAX": 50.0, "FSPD": 4.11555, "FDIR": 360.0, "RENV": 90.0, "PENV": 1007.0, "VALIDT": 0, "DTG": "2024-09-04 00:00", "LATNOW": 39.2, "LONNOW": 153.4, "WINDNOW": 35.0, "DIRNOW": 12.0, "SPDNOW": 1.0, "TECH": "TRAK", "ADVNR": 12, "ATCFID": "WP132024", "NAME": "LEEPI", "FTECH": "JTWC", "FCST_DTG": "2024-09-06 18:00:00", "RUN_DTG": "2024-09-07 08:47:03", "BASIN": "WP", "STMNR": 13, "CAT_ID": null, "CAT_DESC": null, "MSGID": "WTPN52 PGTW 062100", "VALIDTIME": "2024-09-04 00:00:00" }, "geometry": { "type": "Point", "coordinates": [ 147.0, 27.700001 ] } },
{ "type": "Feature", "properties": { "ID": 249743, "LAT": 28.5, "LON": 147.0, "VMAX": 30.0, "MSLP": 1001.0, "RMAX": 50.0, "FSPD": 6.31891, "FDIR": 347.67758, "RENV": 90.0, "PENV": 1007.0, "VALIDT": 0, "DTG": "2024-09-04 06:00", "LATNOW": 39.2, "LONNOW": 153.4, "WINDNOW": 35.0, "DIRNOW": 12.0, "SPDNOW": 1.0, "TECH": "TRAK", "ADVNR": 12, "ATCFID": "WP132024", "NAME": "LEEPI", "FTECH": "JTWC", "FCST_DTG": "2024-09-06 18:00:00", "RUN_DTG": "2024-09-07 08:47:03", "BASIN": "WP", "STMNR": 13, "CAT_ID": null, "CAT_DESC": null, "MSGID": "WTPN52 PGTW 062100", "VALIDTIME": "2024-09-04 06:00:00" }, "geometry": { "type": "Point", "coordinates": [ 147.0, 28.5 ] } },
{ "type": "Feature", "properties": { "ID": 249744, "LAT": 29.7, "LON": 146.7, "VMAX": 30.0, "MSLP": 1003.0, "RMAX": 50.0, "FSPD": 7.76747, "FDIR": 353.4431, "RENV": 70.0, "PENV": 1006.0, "VALIDT": 0, "DTG": "2024-09-04 12:00", "LATNOW": 39.2, "LONNOW": 153.4, "WINDNOW": 35.0, "DIRNOW": 12.0, "SPDNOW": 1.0, "TECH": "TRAK", "ADVNR": 12, "ATCFID": "WP132024", "NAME": "LEEPI", "FTECH": "JTWC", "FCST_DTG": "2024-09-06 18:00:00", "RUN_DTG": "2024-09-07 08:47:03", "BASIN": "WP", "STMNR": 13, "CAT_ID": null, "CAT_DESC": null, "MSGID": "WTPN52 PGTW 062100", "VALIDTIME": "2024-09-04 12:00:00" }, "geometry": { "type": "Point", "coordinates": [ 146.699997, 29.700001 ] } },
{ "type": "Feature", "properties": { "ID": 249745, "LAT": 31.2, "LON": 146.5, "VMAX": 25.0, "MSLP": 1003.0, "RMAX": 50.0, "FSPD": 6.54898, "FDIR": 340.49982, "RENV": 80.0, "PENV": 1005.0, "VALIDT": 0, "DTG": "2024-09-04 18:00", "LATNOW": 39.2, "LONNOW": 153.4, "WINDNOW": 35.0, "DIRNOW": 12.0, "SPDNOW": 1.0, "TECH": "TRAK", "ADVNR": 12, "ATCFID": "WP132024", "NAME": "LEEPI", "FTECH": "JTWC", "FCST_DTG": "2024-09-06 18:00:00", "RUN_DTG": "2024-09-07 08:47:03", "BASIN": "WP", "STMNR": 13, "CAT_ID": null, "CAT_DESC": null, "MSGID": "WTPN52 PGTW 062100", "VALIDTIME": "2024-09-04 18:00:00" }, "geometry": { "type": "Point", "coordinates": [ 146.5, 31.200001 ] } },
{ "type": "Feature", "properties": { "ID": 249746, "LAT": 32.4, "LON": 146.0, "VMAX": 25.0, "MSLP": 1004.0, "RMAX": 50.0, "FSPD": 3.7036, "FDIR": 346.4883, "RENV": 85.0, "PENV": 1006.0, "VALIDT": 0, "DTG": "2024-09-05 00:00", "LATNOW": 39.2, "LONNOW": 153.4, "WINDNOW": 35.0, "DIRNOW": 12.0, "SPDNOW": 1.0, "TECH": "TRAK", "ADVNR": 12, "ATCFID": "WP132024", "NAME": "LEEPI", "FTECH": "JTWC", "FCST_DTG": "2024-09-06 18:00:00", "RUN_DTG": "2024-09-07 08:47:03", "BASIN": "WP", "STMNR": 13, "CAT_ID": null, "CAT_DESC": null, "MSGID": "WTPN52 PGTW 062100", "VALIDTIME": "2024-09-05 00:00:00" }, "geometry": { "type": "Point", "coordinates": [ 146.0, 32.400002 ] } },
{ "type": "Feature", "properties": { "ID": 249747, "LAT": 33.1, "LON": 145.8, "VMAX": 30.0, "MSLP": 1004.0, "RMAX": 50.0, "FSPD": 4.20405, "FDIR": 11.77563, "RENV": 85.0, "PENV": 1006.0, "VALIDT": 0, "DTG": "2024-09-05 06:00", "LATNOW": 39.2, "LONNOW": 153.4, "WINDNOW": 35.0, "DIRNOW": 12.0, "SPDNOW": 1.0, "TECH": "TRAK", "ADVNR": 12, "ATCFID": "WP132024", "NAME": "LEEPI", "FTECH": "JTWC", "FCST_DTG": "2024-09-06 18:00:00", "RUN_DTG": "2024-09-07 08:47:03", "BASIN": "WP", "STMNR": 13, "CAT_ID": null, "CAT_DESC": null, "MSGID": "WTPN52 PGTW 062100", "VALIDTIME": "2024-09-05 06:00:00" }, "geometry": { "type": "Point", "coordinates": [ 145.800003, 33.099998 ] } },
{ "type": "Feature", "properties": { "ID": 249748, "LAT": 33.9, "LON": 146.0, "VMAX": 30.0, "MSLP": 1004.0, "RMAX": 50.0, "FSPD": 6.8264, "FDIR": 34.00696, "RENV": 85.0, "PENV": 1007.0, "VALIDT": 0, "DTG": "2024-09-05 12:00", "LATNOW": 39.2, "LONNOW": 153.4, "WINDNOW": 35.0, "DIRNOW": 12.0, "SPDNOW": 1.0, "TECH": "TRAK", "ADVNR": 12, "ATCFID": "WP132024", "NAME": "LEEPI", "FTECH": "JTWC", "FCST_DTG": "2024-09-06 18:00:00", "RUN_DTG": "2024-09-07 08:47:03", "BASIN": "WP", "STMNR": 13, "CAT_ID": null, "CAT_DESC": null, "MSGID": "WTPN52 PGTW 062100", "VALIDTIME": "2024-09-05 12:00:00" }, "geometry": { "type": "Point", "coordinates": [ 146.0, 33.900002 ] } },
{ "type": "Feature", "properties": { "ID": 249749, "LAT": 35.0, "LON": 146.9, "VMAX": 35.0, "MSLP": 1004.0, "RMAX": 45.0, "FSPD": 7.16964, "FDIR": 54.96863, "RENV": 85.0, "PENV": 1007.0, "VALIDT": 0, "DTG": "2024-09-05 18:00", "LATNOW": 39.2, "LONNOW": 153.4, "WINDNOW": 35.0, "DIRNOW": 12.0, "SPDNOW": 1.0, "TECH": "TRAK", "ADVNR": 12, "ATCFID": "WP132024", "NAME": "LEEPI", "FTECH": "JTWC", "FCST_DTG": "2024-09-06 18:00:00", "RUN_DTG": "2024-09-07 08:47:03", "BASIN": "WP", "STMNR": 13, "CAT_ID": null, "CAT_DESC": null, "MSGID": "WTPN52 PGTW 062100", "VALIDTIME": "2024-09-05 18:00:00" }, "geometry": { "type": "Point", "coordinates": [ 146.899994, 35.0 ] } },
{ "type": "Feature", "properties": { "ID": 249750, "LAT": 35.8, "LON": 148.3, "VMAX": 30.0, "MSLP": 1002.0, "RMAX": 50.0, "FSPD": 7.8126, "FDIR": 43.58685, "RENV": 80.0, "PENV": 1005.0, "VALIDT": 0, "DTG": "2024-09-06 00:00", "LATNOW": 39.2, "LONNOW": 153.4, "WINDNOW": 35.0, "DIRNOW": 12.0, "SPDNOW": 1.0, "TECH": "TRAK", "ADVNR": 12, "ATCFID": "WP132024", "NAME": "LEEPI", "FTECH": "JTWC", "FCST_DTG": "2024-09-06 18:00:00", "RUN_DTG": "2024-09-07 08:47:03", "BASIN": "WP", "STMNR": 13, "CAT_ID": null, "CAT_DESC": null, "MSGID": "WTPN52 PGTW 062100", "VALIDTIME": "2024-09-06 00:00:00" }, "geometry": { "type": "Point", "coordinates": [ 148.300003, 35.799999 ] } },
{ "type": "Feature", "properties": { "ID": 249751, "LAT": 36.9, "LON": 149.6, "VMAX": 35.0, "MSLP": 1004.0, "RMAX": 60.0, "FSPD": 8.33982, "FDIR": 47.27051, "RENV": 80.0, "PENV": 1005.0, "VALIDT": 0, "DTG": "2024-09-06 06:00", "LATNOW": 39.2, "LONNOW": 153.4, "WINDNOW": 35.0, "DIRNOW": 12.0, "SPDNOW": 1.0, "TECH": "TRAK", "ADVNR": 12, "ATCFID": "WP132024", "NAME": "LEEPI", "FTECH": "JTWC", "FCST_DTG": "2024-09-06 18:00:00", "RUN_DTG": "2024-09-07 08:47:03", "BASIN": "WP", "STMNR": 13, "CAT_ID": null, "CAT_DESC": null, "MSGID": "WTPN52 PGTW 062100", "VALIDTIME": "2024-09-06 06:00:00" }, "geometry": { "type": "Point", "coordinates": [ 149.600006, 36.900002 ] } },
{ "type": "Feature", "properties": { "ID": 249752, "LAT": 38.0, "LON": 151.1, "VMAX": 35.0, "MSLP": 1003.0, "RMAX": 25.0, "FSPD": 11.11839, "FDIR": 56.27298, "RENV": 75.0, "PENV": 1009.0, "VALIDT": 0, "DTG": "2024-09-06 12:00", "LATNOW": 39.2, "LONNOW": 153.4, "WINDNOW": 35.0, "DIRNOW": 12.0, "SPDNOW": 1.0, "TECH": "TRAK", "ADVNR": 12, "ATCFID": "WP132024", "NAME": "LEEPI", "FTECH": "JTWC", "FCST_DTG": "2024-09-06 18:00:00", "RUN_DTG": "2024-09-07 08:47:03", "BASIN": "WP", "STMNR": 13, "CAT_ID": null, "CAT_DESC": null, "MSGID": "WTPN52 PGTW 062100", "VALIDTIME": "2024-09-06 12:00:00" }, "geometry": { "type": "Point", "coordinates": [ 151.100006, 38.0 ] } },
{ "type": "Feature", "properties": { "ID": 249753, "LAT": 39.2, "LON": 153.4, "VMAX": 35.0, "MSLP": 1003.0, "RMAX": 25.0, "FSPD": 11.66746, "FDIR": 51.88141, "RENV": 75.0, "PENV": 1009.0, "VALIDT": 0, "DTG": "2024-09-06 18:00", "LATNOW": 39.2, "LONNOW": 153.4, "WINDNOW": 35.0, "DIRNOW": 12.0, "SPDNOW": 1.0, "TECH": "TRAK", "ADVNR": 12, "ATCFID": "WP132024", "NAME": "LEEPI", "FTECH": "JTWC", "FCST_DTG": "2024-09-06 18:00:00", "RUN_DTG": "2024-09-07 08:47:03", "BASIN": "WP", "STMNR": 13, "CAT_ID": null, "CAT_DESC": null, "MSGID": "WTPN52 PGTW 062100", "VALIDTIME": "2024-09-06 18:00:00" }, "geometry": { "type": "Point", "coordinates": [ 153.399994, 39.200001 ] } },
{ "type": "Feature", "properties": { "ID": 249754, "LAT": 42.0, "LON": 158.1, "VMAX": 35.0, "MSLP": 1008.74713, "RMAX": 27.38813, "FSPD": 15.2157, "FDIR": 51.28207, "RENV": 250.0, "PENV": 1012.0, "VALIDT": 12, "DTG": "2024-09-07 06:00", "LATNOW": 39.2, "LONNOW": 153.4, "WINDNOW": 35.0, "DIRNOW": 12.0, "SPDNOW": 1.0, "TECH": "FCST", "ADVNR": 12, "ATCFID": "WP132024", "NAME": "LEEPI", "FTECH": "JTWC", "FCST_DTG": "2024-09-06 18:00:00", "RUN_DTG": "2024-09-07 08:47:03", "BASIN": "WP", "STMNR": 13, "CAT_ID": null, "CAT_DESC": null, "MSGID": "WTPN52 PGTW 062100", "VALIDTIME": "2024-09-07 06:00:00" }, "geometry": { "type": "Point", "coordinates": [ 158.100006, 42.0 ] } },
{ "type": "Feature", "properties": { "ID": 249755, "LAT": 45.7, "LON": 164.5, "VMAX": 35.0, "MSLP": 1008.74713, "RMAX": 27.38813, "FSPD": 15.2157, "FDIR": 51.28207, "RENV": 250.0, "PENV": 1012.0, "VALIDT": 24, "DTG": "2024-09-07 18:00", "LATNOW": 39.2, "LONNOW": 153.4, "WINDNOW": 35.0, "DIRNOW": 12.0, "SPDNOW": 1.0, "TECH": "FCST", "ADVNR": 12, "ATCFID": "WP132024", "NAME": "LEEPI", "FTECH": "JTWC", "FCST_DTG": "2024-09-06 18:00:00", "RUN_DTG": "2024-09-07 08:47:03", "BASIN": "WP", "STMNR": 13, "CAT_ID": null, "CAT_DESC": null, "MSGID": "WTPN52 PGTW 062100", "VALIDTIME": "2024-09-07 18:00:00" }, "geometry": { "type": "Point", "coordinates": [ 164.5, 45.700001 ] } },
{ "type": "Feature", "properties": { "ID": 249753, "LAT": 39.2, "LON": 153.4, "VMAX": 35.0, "MSLP": 1003.0, "RMAX": 25.0, "FSPD": 11.66746, "FDIR": 51.88141, "RENV": 75.0, "PENV": 1009.0, "VALIDT": 0, "DTG": "2024-09-06 18:00", "LATNOW": 39.2, "LONNOW": 153.4, "WINDNOW": 35.0, "DIRNOW": 12.0, "SPDNOW": 1.0, "TECH": "TRAK", "ADVNR": 12, "ATCFID": "WP132024", "NAME": "LEEPI", "FTECH": "JTWC", "FCST_DTG": "2024-09-06 18:00:00", "RUN_DTG": "2024-09-07 08:47:03", "BASIN": "WP", "STMNR": 13, "CAT_ID": null, "CAT_DESC": null, "MSGID": "WTPN52 PGTW 062100", "VALIDTIME": "2024-09-06 18:00:00" }, "geometry": { "type": "LineString", "coordinates": [ [ 146.5, 23.2 ], [ 146.5, 23.5 ], [ 146.6, 23.8 ], [ 146.9, 24.3 ], [ 147.2, 24.7 ], [ 147.2, 25.0 ], [ 147.4, 25.6 ], [ 147.3, 26.4 ], [ 147.0, 27.7 ], [ 147.0, 28.5 ], [ 146.7, 29.7 ], [ 146.5, 31.2 ], [ 146.0, 32.4 ], [ 145.8, 33.1 ], [ 146.0, 33.9 ], [ 146.9, 35.0 ], [ 148.3, 35.8 ], [ 149.6, 36.9 ], [ 151.1, 38.0 ], [ 153.4, 39.2 ] ] } },
{ "type": "Feature", "properties": { "ID": 249755, "LAT": 45.7, "LON": 164.5, "VMAX": 35.0, "MSLP": 1008.74713, "RMAX": 27.38813, "FSPD": 15.2157, "FDIR": 51.28207, "RENV": 250.0, "PENV": 1012.0, "VALIDT": 24, "DTG": "2024-09-07 18:00", "LATNOW": 39.2, "LONNOW": 153.4, "WINDNOW": 35.0, "DIRNOW": 12.0, "SPDNOW": 1.0, "TECH": "FCST", "ADVNR": 12, "ATCFID": "WP132024", "NAME": "LEEPI", "FTECH": "JTWC", "FCST_DTG": "2024-09-06 18:00:00", "RUN_DTG": "2024-09-07 08:47:03", "BASIN": "WP", "STMNR": 13, "CAT_ID": null, "CAT_DESC": null, "MSGID": "WTPN52 PGTW 062100", "VALIDTIME": "2024-09-07 18:00:00" }, "geometry": { "type": "LineString", "coordinates": [ [ 153.4, 39.2 ], [ 158.1, 42.0 ], [ 164.5, 45.7 ] ] } }
]
}
