{
"type": "FeatureCollection",
"crs": { "type": "name", "properties": { "name": "urn:ogc:def:crs:OGC:1.3:CRS84" } },
"features": [
{ "type": "Feature", "properties": { "ID": 98127, "LAT": -14.0, "LON": 148.5, "VMAX": 25.0, "MSLP": 1011.80975, "RMAX": 45.0, "FSPD": 7.15217, "FDIR": 102.46158, "RENV": 500.0, "PENV": 1012.0, "VALIDT": 0, "DTG": "2026-01-19 12:00", "LATNOW": -25.9, "LONNOW": 177.0, "WINDNOW": 35.0, "DIRNOW": 9.0, "SPDNOW": 6.0, "TECH": "TRAK", "ADVNR": 9, "ATCFID": "SH162026", "NAME": "SIXTEEN", "FTECH": "JTWC", "FCST_DTG": "2026-01-23 00:00:00", "RUN_DTG": "2026-01-23 14:15:41", "BASIN": "SH", "STMNR": 16, "CAT_ID": null, "CAT_DESC": null, "MSGID": "WTPS51 PGTW 230300", "VALIDTIME": "2026-01-19 12:00:00" }, "geometry": { "type": "Point", "coordinates": [ 148.5, -14.0 ] } },
{ "type": "Feature", "properties": { "ID": 98128, "LAT": -14.3, "LON": 149.9, "VMAX": 15.0, "MSLP": 1013.8515, "RMAX": 40.0, "FSPD": 7.43069, "FDIR": 110.25269, "RENV": 500.0, "PENV": 1012.0, "VALIDT": 0, "DTG": "2026-01-19 18:00", "LATNOW": -25.9, "LONNOW": 177.0, "WINDNOW": 35.0, "DIRNOW": 9.0, "SPDNOW": 6.0, "TECH": "TRAK", "ADVNR": 9, "ATCFID": "SH162026", "NAME": "SIXTEEN", "FTECH": "JTWC", "FCST_DTG": "2026-01-23 00:00:00", "RUN_DTG": "2026-01-23 14:15:41", "BASIN": "SH", "STMNR": 16, "CAT_ID": null, "CAT_DESC": null, "MSGID": "WTPS51 PGTW 230300", "VALIDTIME": "2026-01-19 18:00:00" }, "geometry": { "type": "Point", "coordinates": [ 149.899994, -14.3 ] } },
{ "type": "Feature", "properties": { "ID": 98129, "LAT": -14.8, "LON": 151.3, "VMAX": 25.0, "MSLP": 1011.80975, "RMAX": 45.0, "FSPD": 10.63613, "FDIR": 101.1553, "RENV": 500.0, "PENV": 1012.0, "VALIDT": 0, "DTG": "2026-01-20 00:00", "LATNOW": -25.9, "LONNOW": 177.0, "WINDNOW": 35.0, "DIRNOW": 9.0, "SPDNOW": 6.0, "TECH": "TRAK", "ADVNR": 9, "ATCFID": "SH162026", "NAME": "SIXTEEN", "FTECH": "JTWC", "FCST_DTG": "2026-01-23 00:00:00", "RUN_DTG": "2026-01-23 14:15:41", "BASIN": "SH", "STMNR": 16, "CAT_ID": null, "CAT_DESC": null, "MSGID": "WTPS51 PGTW 230300", "VALIDTIME": "2026-01-20 00:00:00" }, "geometry": { "type": "Point", "coordinates": [ 151.300003, -14.8 ] } },
{ "type": "Feature", "properties": { "ID": 98130, "LAT": -15.2, "LON": 153.4, "VMAX": 25.0, "MSLP": 1011.80975, "RMAX": 45.0, "FSPD": 8.19807, "FDIR": 104.53714, "RENV": 500.0, "PENV": 1012.0, "VALIDT": 0, "DTG": "2026-01-20 06:00", "LATNOW": -25.9, "LONNOW": 177.0, "WINDNOW": 35.0, "DIRNOW": 9.0, "SPDNOW": 6.0, "TECH": "TRAK", "ADVNR": 9, "ATCFID": "SH162026", "NAME": "SIXTEEN", "FTECH": "JTWC", "FCST_DTG": "2026-01-23 00:00:00", "RUN_DTG": "2026-01-23 14:15:41", "BASIN": "SH", "STMNR": 16, "CAT_ID": null, "CAT_DESC": null, "MSGID": "WTPS51 PGTW 230300", "VALIDTIME": "2026-01-20 06:00:00" }, "geometry": { "type": "Point", "coordinates": [ 153.399994, -15.2 ] } },
{ "type": "Feature", "properties": { "ID": 98131, "LAT": -15.6, "LON": 155.0, "VMAX": 30.0, "MSLP": 1010.40607, "RMAX": 44.21983, "FSPD": 10.36549, "FDIR": 107.32446, "RENV": 500.0, "PENV": 1012.0, "VALIDT": 0, "DTG": "2026-01-20 12:00", "LATNOW": -25.9, "LONNOW": 177.0, "WINDNOW": 35.0, "DIRNOW": 9.0, "SPDNOW": 6.0, "TECH": "TRAK", "ADVNR": 9, "ATCFID": "SH162026", "NAME": "SIXTEEN", "FTECH": "JTWC", "FCST_DTG": "2026-01-23 00:00:00", "RUN_DTG": "2026-01-23 14:15:41", "BASIN": "SH", "STMNR": 16, "CAT_ID": null, "CAT_DESC": null, "MSGID": "WTPS51 PGTW 230300", "VALIDTIME": "2026-01-20 12:00:00" }, "geometry": { "type": "Point", "coordinates": [ 155.0, -15.6 ] } },
{ "type": "Feature", "properties": { "ID": 98132, "LAT": -16.2, "LON": 157.0, "VMAX": 30.0, "MSLP": 1010.40607, "RMAX": 44.21983, "FSPD": 12.31391, "FDIR": 122.89539, "RENV": 500.0, "PENV": 1012.0, "VALIDT": 0, "DTG": "2026-01-20 18:00", "LATNOW": -25.9, "LONNOW": 177.0, "WINDNOW": 35.0, "DIRNOW": 9.0, "SPDNOW": 6.0, "TECH": "TRAK", "ADVNR": 9, "ATCFID": "SH162026", "NAME": "SIXTEEN", "FTECH": "JTWC", "FCST_DTG": "2026-01-23 00:00:00", "RUN_DTG": "2026-01-23 14:15:41", "BASIN": "SH", "STMNR": 16, "CAT_ID": null, "CAT_DESC": null, "MSGID": "WTPS51 PGTW 230300", "VALIDTIME": "2026-01-20 18:00:00" }, "geometry": { "type": "Point", "coordinates": [ 157.0, -16.200001 ] } },
{ "type": "Feature", "properties": { "ID": 98133, "LAT": -17.5, "LON": 159.1, "VMAX": 35.0, "MSLP": 994.0, "RMAX": 25.0, "FSPD": 12.77402, "FDIR": 130.11795, "RENV": 80.0, "PENV": 998.0, "VALIDT": 0, "DTG": "2026-01-21 00:00", "LATNOW": -25.9, "LONNOW": 177.0, "WINDNOW": 35.0, "DIRNOW": 9.0, "SPDNOW": 6.0, "TECH": "TRAK", "ADVNR": 9, "ATCFID": "SH162026", "NAME": "SIXTEEN", "FTECH": "JTWC", "FCST_DTG": "2026-01-23 00:00:00", "RUN_DTG": "2026-01-23 14:15:41", "BASIN": "SH", "STMNR": 16, "CAT_ID": null, "CAT_DESC": null, "MSGID": "WTPS51 PGTW 230300", "VALIDTIME": "2026-01-21 00:00:00" }, "geometry": { "type": "Point", "coordinates": [ 159.100006, -17.5 ] } },
{ "type": "Feature", "properties": { "ID": 98134, "LAT": -19.1, "LON": 161.1, "VMAX": 40.0, "MSLP": 994.0, "RMAX": 25.0, "FSPD": 12.68469, "FDIR": 133.5871, "RENV": 80.0, "PENV": 998.0, "VALIDT": 0, "DTG": "2026-01-21 06:00", "LATNOW": -25.9, "LONNOW": 177.0, "WINDNOW": 35.0, "DIRNOW": 9.0, "SPDNOW": 6.0, "TECH": "TRAK", "ADVNR": 9, "ATCFID": "SH162026", "NAME": "SIXTEEN", "FTECH": "JTWC", "FCST_DTG": "2026-01-23 00:00:00", "RUN_DTG": "2026-01-23 14:15:41", "BASIN": "SH", "STMNR": 16, "CAT_ID": null, "CAT_DESC": null, "MSGID": "WTPS51 PGTW 230300", "VALIDTIME": "2026-01-21 06:00:00" }, "geometry": { "type": "Point", "coordinates": [ 161.100006, -19.1 ] } },
{ "type": "Feature", "properties": { "ID": 98135, "LAT": -20.8, "LON": 163.0, "VMAX": 40.0, "MSLP": 993.0, "RMAX": 25.0, "FSPD": 9.81378, "FDIR": 132.9585, "RENV": 100.0, "PENV": 1000.0, "VALIDT": 0, "DTG": "2026-01-21 12:00", "LATNOW": -25.9, "LONNOW": 177.0, "WINDNOW": 35.0, "DIRNOW": 9.0, "SPDNOW": 6.0, "TECH": "TRAK", "ADVNR": 9, "ATCFID": "SH162026", "NAME": "SIXTEEN", "FTECH": "JTWC", "FCST_DTG": "2026-01-23 00:00:00", "RUN_DTG": "2026-01-23 14:15:41", "BASIN": "SH", "STMNR": 16, "CAT_ID": null, "CAT_DESC": null, "MSGID": "WTPS51 PGTW 230300", "VALIDTIME": "2026-01-21 12:00:00" }, "geometry": { "type": "Point", "coordinates": [ 163.0, -20.799999 ] } },
{ "type": "Feature", "properties": { "ID": 98136, "LAT": -22.1, "LON": 164.5, "VMAX": 40.0, "MSLP": 994.0, "RMAX": 25.0, "FSPD": 13.20489, "FDIR": 120.42838, "RENV": 110.0, "PENV": 1004.0, "VALIDT": 0, "DTG": "2026-01-21 18:00", "LATNOW": -25.9, "LONNOW": 177.0, "WINDNOW": 35.0, "DIRNOW": 9.0, "SPDNOW": 6.0, "TECH": "TRAK", "ADVNR": 9, "ATCFID": "SH162026", "NAME": "SIXTEEN", "FTECH": "JTWC", "FCST_DTG": "2026-01-23 00:00:00", "RUN_DTG": "2026-01-23 14:15:41", "BASIN": "SH", "STMNR": 16, "CAT_ID": null, "CAT_DESC": null, "MSGID": "WTPS51 PGTW 230300", "VALIDTIME": "2026-01-21 18:00:00" }, "geometry": { "type": "Point", "coordinates": [ 164.5, -22.1 ] } },
{ "type": "Feature", "properties": { "ID": 98137, "LAT": -23.4, "LON": 166.9, "VMAX": 40.0, "MSLP": 996.0, "RMAX": 30.0, "FSPD": 13.04508, "FDIR": 115.70859, "RENV": 120.0, "PENV": 1004.0, "VALIDT": 0, "DTG": "2026-01-22 00:00", "LATNOW": -25.9, "LONNOW": 177.0, "WINDNOW": 35.0, "DIRNOW": 9.0, "SPDNOW": 6.0, "TECH": "TRAK", "ADVNR": 9, "ATCFID": "SH162026", "NAME": "SIXTEEN", "FTECH": "JTWC", "FCST_DTG": "2026-01-23 00:00:00", "RUN_DTG": "2026-01-23 14:15:41", "BASIN": "SH", "STMNR": 16, "CAT_ID": null, "CAT_DESC": null, "MSGID": "WTPS51 PGTW 230300", "VALIDTIME": "2026-01-22 00:00:00" }, "geometry": { "type": "Point", "coordinates": [ 166.899994, -23.4 ] } },
{ "type": "Feature", "properties": { "ID": 98138, "LAT": -24.5, "LON": 169.4, "VMAX": 35.0, "MSLP": 997.0, "RMAX": 30.0, "FSPD": 14.45997, "FDIR": 104.42068, "RENV": 120.0, "PENV": 1004.0, "VALIDT": 0, "DTG": "2026-01-22 06:00", "LATNOW": -25.9, "LONNOW": 177.0, "WINDNOW": 35.0, "DIRNOW": 9.0, "SPDNOW": 6.0, "TECH": "TRAK", "ADVNR": 9, "ATCFID": "SH162026", "NAME": "SIXTEEN", "FTECH": "JTWC", "FCST_DTG": "2026-01-23 00:00:00", "RUN_DTG": "2026-01-23 14:15:41", "BASIN": "SH", "STMNR": 16, "CAT_ID": null, "CAT_DESC": null, "MSGID": "WTPS51 PGTW 230300", "VALIDTIME": "2026-01-22 06:00:00" }, "geometry": { "type": "Point", "coordinates": [ 169.399994, -24.5 ] } },
{ "type": "Feature", "properties": { "ID": 98139, "LAT": -25.2, "LON": 172.4, "VMAX": 40.0, "MSLP": 999.0, "RMAX": 30.0, "FSPD": 11.56354, "FDIR": 105.48163, "RENV": 95.0, "PENV": 1002.0, "VALIDT": 0, "DTG": "2026-01-22 12:00", "LATNOW": -25.9, "LONNOW": 177.0, "WINDNOW": 35.0, "DIRNOW": 9.0, "SPDNOW": 6.0, "TECH": "TRAK", "ADVNR": 9, "ATCFID": "SH162026", "NAME": "SIXTEEN", "FTECH": "JTWC", "FCST_DTG": "2026-01-23 00:00:00", "RUN_DTG": "2026-01-23 14:15:41", "BASIN": "SH", "STMNR": 16, "CAT_ID": null, "CAT_DESC": null, "MSGID": "WTPS51 PGTW 230300", "VALIDTIME": "2026-01-22 12:00:00" }, "geometry": { "type": "Point", "coordinates": [ 172.399994, -25.200001 ] } },
{ "type": "Feature", "properties": { "ID": 98140, "LAT": -25.8, "LON": 174.8, "VMAX": 35.0, "MSLP": 1008.74713, "RMAX": 42.69135, "FSPD": 10.19828, "FDIR": 92.89145, "RENV": 500.0, "PENV": 1012.0, "VALIDT": 0, "DTG": "2026-01-22 18:00", "LATNOW": -25.9, "LONNOW": 177.0, "WINDNOW": 35.0, "DIRNOW": 9.0, "SPDNOW": 6.0, "TECH": "TRAK", "ADVNR": 9, "ATCFID": "SH162026", "NAME": "SIXTEEN", "FTECH": "JTWC", "FCST_DTG": "2026-01-23 00:00:00", "RUN_DTG": "2026-01-23 14:15:41", "BASIN": "SH", "STMNR": 16, "CAT_ID": null, "CAT_DESC": null, "MSGID": "WTPS51 PGTW 230300", "VALIDTIME": "2026-01-22 18:00:00" }, "geometry": { "type": "Point", "coordinates": [ 174.800003, -25.799999 ] } },
{ "type": "Feature", "properties": { "ID": 98141, "LAT": -25.9, "LON": 177.0, "VMAX": 35.0, "MSLP": 1008.74713, "RMAX": 42.69135, "FSPD": 9.49275, "FDIR": 93.10654, "RENV": 500.0, "PENV": 1012.0, "VALIDT": 0, "DTG": "2026-01-23 00:00", "LATNOW": -25.9, "LONNOW": 177.0, "WINDNOW": 35.0, "DIRNOW": 9.0, "SPDNOW": 6.0, "TECH": "TRAK", "ADVNR": 9, "ATCFID": "SH162026", "NAME": "SIXTEEN", "FTECH": "JTWC", "FCST_DTG": "2026-01-23 00:00:00", "RUN_DTG": "2026-01-23 14:15:41", "BASIN": "SH", "STMNR": 16, "CAT_ID": null, "CAT_DESC": null, "MSGID": "WTPS51 PGTW 230300", "VALIDTIME": "2026-01-23 00:00:00" }, "geometry": { "type": "Point", "coordinates": [ 177.0, -25.9 ] } },
{ "type": "Feature", "properties": { "ID": 98142, "LAT": -26.1, "LON": -178.9, "VMAX": 30.0, "MSLP": 1010.40607, "RMAX": 44.21983, "FSPD": 7.40332, "FDIR": 93.98453, "RENV": 250.0, "PENV": 1012.0, "VALIDT": 12, "DTG": "2026-01-23 12:00", "LATNOW": -25.9, "LONNOW": 177.0, "WINDNOW": 35.0, "DIRNOW": 9.0, "SPDNOW": 6.0, "TECH": "FCST", "ADVNR": 9, "ATCFID": "SH162026", "NAME": "SIXTEEN", "FTECH": "JTWC", "FCST_DTG": "2026-01-23 00:00:00", "RUN_DTG": "2026-01-23 14:15:41", "BASIN": "SH", "STMNR": 16, "CAT_ID": null, "CAT_DESC": null, "MSGID": "WTPS51 PGTW 230300", "VALIDTIME": "2026-01-23 12:00:00" }, "geometry": { "type": "Point", "coordinates": [ -178.899994, -26.1 ] } },
{ "type": "Feature", "properties": { "ID": 98143, "LAT": -26.3, "LON": -175.7, "VMAX": 30.0, "MSLP": 1010.40607, "RMAX": 44.21983, "FSPD": 7.40332, "FDIR": 93.98453, "RENV": 250.0, "PENV": 1012.0, "VALIDT": 24, "DTG": "2026-01-24 00:00", "LATNOW": -25.9, "LONNOW": 177.0, "WINDNOW": 35.0, "DIRNOW": 9.0, "SPDNOW": 6.0, "TECH": "FCST", "ADVNR": 9, "ATCFID": "SH162026", "NAME": "SIXTEEN", "FTECH": "JTWC", "FCST_DTG": "2026-01-23 00:00:00", "RUN_DTG": "2026-01-23 14:15:41", "BASIN": "SH", "STMNR": 16, "CAT_ID": null, "CAT_DESC": null, "MSGID": "WTPS51 PGTW 230300", "VALIDTIME": "2026-01-24 00:00:00" }, "geometry": { "type": "Point", "coordinates": [ -175.699997, -26.299999 ] } },
{ "type": "Feature", "properties": { "ID": 98141, "LAT": -25.9, "LON": 177.0, "VMAX": 35.0, "MSLP": 1008.74713, "RMAX": 42.69135, "FSPD": 9.49275, "FDIR": 93.10654, "RENV": 500.0, "PENV": 1012.0, "VALIDT": 0, "DTG": "2026-01-23 00:00", "LATNOW": -25.9, "LONNOW": 177.0, "WINDNOW": 35.0, "DIRNOW": 9.0, "SPDNOW": 6.0, "TECH": "TRAK", "ADVNR": 9, "ATCFID": "SH162026", "NAME": "SIXTEEN", "FTECH": "JTWC", "FCST_DTG": "2026-01-23 00:00:00", "RUN_DTG": "2026-01-23 14:15:41", "BASIN": "SH", "STMNR": 16, "CAT_ID": null, "CAT_DESC": null, "MSGID": "WTPS51 PGTW 230300", "VALIDTIME": "2026-01-23 00:00:00" }, "geometry": { "type": "LineString", "coordinates": [ [ 148.5, -14.0 ], [ 149.9, -14.3 ], [ 151.3, -14.8 ], [ 153.4, -15.2 ], [ 155.0, -15.6 ], [ 157.0, -16.2 ], [ 159.1, -17.5 ], [ 161.1, -19.1 ], [ 163.0, -20.8 ], [ 164.5, -22.1 ], [ 166.9, -23.4 ], [ 169.4, -24.5 ], [ 172.4, -25.2 ], [ 174.8, -25.8 ], [ 177.0, -25.9 ] ] } },
{ "type": "Feature", "properties": { "ID": 98143, "LAT": -26.3, "LON": -175.7, "VMAX": 30.0, "MSLP": 1010.40607, "RMAX": 44.21983, "FSPD": 7.40332, "FDIR": 93.98453, "RENV": 250.0, "PENV": 1012.0, "VALIDT": 24, "DTG": "2026-01-24 00:00", "LATNOW": -25.9, "LONNOW": 177.0, "WINDNOW": 35.0, "DIRNOW": 9.0, "SPDNOW": 6.0, "TECH": "FCST", "ADVNR": 9, "ATCFID": "SH162026", "NAME": "SIXTEEN", "FTECH": "JTWC", "FCST_DTG": "2026-01-23 00:00:00", "RUN_DTG": "2026-01-23 14:15:41", "BASIN": "SH", "STMNR": 16, "CAT_ID": null, "CAT_DESC": null, "MSGID": "WTPS51 PGTW 230300", "VALIDTIME": "2026-01-24 00:00:00" }, "geometry": { "type": "LineString", "coordinates": [ [ 177.0, -25.9 ], [ -178.9, -26.1 ], [ -175.7, -26.3 ] ] } }
]
}
