{
"type": "FeatureCollection",
"crs": { "type": "name", "properties": { "name": "urn:ogc:def:crs:OGC:1.3:CRS84" } },
"features": [
{ "type": "Feature", "properties": { "ID": 272095, "LAT": 14.0, "LON": -18.9, "VMAX": 25.0, "MSLP": 1008.0, "RMAX": 120.0, "FSPD": 8.72449, "FDIR": 283.64243, "RENV": 200.0, "PENV": 1012.0, "VALIDT": 0, "DTG": "2024-10-10 12:00", "LATNOW": 22.7, "LONNOW": -74.6, "WINDNOW": 35.0, "DIRNOW": 5.0, "SPDNOW": 0.0, "TECH": "TRAK", "ADVNR": 14, "ATCFID": "AL162024", "NAME": "OSCAR", "FTECH": "OFCL", "FCST_DTG": "2024-10-22 12:00:00", "RUN_DTG": "2024-10-23 02:51:35", "BASIN": "AL", "STMNR": 16, "CAT_ID": null, "CAT_DESC": null, "MSGID": "WTNT21 KNHC 221454", "VALIDTIME": "2024-10-10 12:00:00" }, "geometry": { "type": "Point", "coordinates": [ -18.9, 14.0 ] } },
{ "type": "Feature", "properties": { "ID": 272096, "LAT": 14.4, "LON": -20.6, "VMAX": 25.0, "MSLP": 1007.0, "RMAX": 120.0, "FSPD": 8.47079, "FDIR": 269.99997, "RENV": 190.0, "PENV": 1011.0, "VALIDT": 0, "DTG": "2024-10-10 18:00", "LATNOW": 22.7, "LONNOW": -74.6, "WINDNOW": 35.0, "DIRNOW": 5.0, "SPDNOW": 0.0, "TECH": "TRAK", "ADVNR": 14, "ATCFID": "AL162024", "NAME": "OSCAR", "FTECH": "OFCL", "FCST_DTG": "2024-10-22 12:00:00", "RUN_DTG": "2024-10-23 02:51:35", "BASIN": "AL", "STMNR": 16, "CAT_ID": null, "CAT_DESC": null, "MSGID": "WTNT21 KNHC 221454", "VALIDTIME": "2024-10-10 18:00:00" }, "geometry": { "type": "Point", "coordinates": [ -20.6, 14.4 ] } },
{ "type": "Feature", "properties": { "ID": 272097, "LAT": 14.4, "LON": -22.3, "VMAX": 30.0, "MSLP": 1006.0, "RMAX": 80.0, "FSPD": 4.93045, "FDIR": 294.6681, "RENV": 190.0, "PENV": 1011.0, "VALIDT": 0, "DTG": "2024-10-11 00:00", "LATNOW": 22.7, "LONNOW": -74.6, "WINDNOW": 35.0, "DIRNOW": 5.0, "SPDNOW": 0.0, "TECH": "TRAK", "ADVNR": 14, "ATCFID": "AL162024", "NAME": "OSCAR", "FTECH": "OFCL", "FCST_DTG": "2024-10-22 12:00:00", "RUN_DTG": "2024-10-23 02:51:35", "BASIN": "AL", "STMNR": 16, "CAT_ID": null, "CAT_DESC": null, "MSGID": "WTNT21 KNHC 221454", "VALIDTIME": "2024-10-11 00:00:00" }, "geometry": { "type": "Point", "coordinates": [ -22.299999, 14.4 ] } },
{ "type": "Feature", "properties": { "ID": 272098, "LAT": 14.8, "LON": -23.2, "VMAX": 30.0, "MSLP": 1006.0, "RMAX": 80.0, "FSPD": 9.45016, "FDIR": 269.99997, "RENV": 190.0, "PENV": 1011.0, "VALIDT": 0, "DTG": "2024-10-11 06:00", "LATNOW": 22.7, "LONNOW": -74.6, "WINDNOW": 35.0, "DIRNOW": 5.0, "SPDNOW": 0.0, "TECH": "TRAK", "ADVNR": 14, "ATCFID": "AL162024", "NAME": "OSCAR", "FTECH": "OFCL", "FCST_DTG": "2024-10-22 12:00:00", "RUN_DTG": "2024-10-23 02:51:35", "BASIN": "AL", "STMNR": 16, "CAT_ID": null, "CAT_DESC": null, "MSGID": "WTNT21 KNHC 221454", "VALIDTIME": "2024-10-11 06:00:00" }, "geometry": { "type": "Point", "coordinates": [ -23.200001, 14.8 ] } },
{ "type": "Feature", "properties": { "ID": 272099, "LAT": 14.8, "LON": -25.1, "VMAX": 35.0, "MSLP": 1006.0, "RMAX": 120.0, "FSPD": 6.9624, "FDIR": 301.14612, "RENV": 220.0, "PENV": 1012.0, "VALIDT": 0, "DTG": "2024-10-11 12:00", "LATNOW": 22.7, "LONNOW": -74.6, "WINDNOW": 35.0, "DIRNOW": 5.0, "SPDNOW": 0.0, "TECH": "TRAK", "ADVNR": 14, "ATCFID": "AL162024", "NAME": "OSCAR", "FTECH": "OFCL", "FCST_DTG": "2024-10-22 12:00:00", "RUN_DTG": "2024-10-23 02:51:35", "BASIN": "AL", "STMNR": 16, "CAT_ID": null, "CAT_DESC": null, "MSGID": "WTNT21 KNHC 221454", "VALIDTIME": "2024-10-11 12:00:00" }, "geometry": { "type": "Point", "coordinates": [ -25.1, 14.8 ] } },
{ "type": "Feature", "properties": { "ID": 272100, "LAT": 15.5, "LON": -26.3, "VMAX": 35.0, "MSLP": 1006.0, "RMAX": 120.0, "FSPD": 6.52705, "FDIR": 303.48523, "RENV": 210.0, "PENV": 1011.0, "VALIDT": 0, "DTG": "2024-10-11 18:00", "LATNOW": 22.7, "LONNOW": -74.6, "WINDNOW": 35.0, "DIRNOW": 5.0, "SPDNOW": 0.0, "TECH": "TRAK", "ADVNR": 14, "ATCFID": "AL162024", "NAME": "OSCAR", "FTECH": "OFCL", "FCST_DTG": "2024-10-22 12:00:00", "RUN_DTG": "2024-10-23 02:51:35", "BASIN": "AL", "STMNR": 16, "CAT_ID": null, "CAT_DESC": null, "MSGID": "WTNT21 KNHC 221454", "VALIDTIME": "2024-10-11 18:00:00" }, "geometry": { "type": "Point", "coordinates": [ -26.299999, 15.5 ] } },
{ "type": "Feature", "properties": { "ID": 272101, "LAT": 16.2, "LON": -27.4, "VMAX": 35.0, "MSLP": 1006.0, "RMAX": 120.0, "FSPD": 7.59974, "FDIR": 324.32202, "RENV": 210.0, "PENV": 1011.0, "VALIDT": 0, "DTG": "2024-10-12 00:00", "LATNOW": 22.7, "LONNOW": -74.6, "WINDNOW": 35.0, "DIRNOW": 5.0, "SPDNOW": 0.0, "TECH": "TRAK", "ADVNR": 14, "ATCFID": "AL162024", "NAME": "OSCAR", "FTECH": "OFCL", "FCST_DTG": "2024-10-22 12:00:00", "RUN_DTG": "2024-10-23 02:51:35", "BASIN": "AL", "STMNR": 16, "CAT_ID": null, "CAT_DESC": null, "MSGID": "WTNT21 KNHC 221454", "VALIDTIME": "2024-10-12 00:00:00" }, "geometry": { "type": "Point", "coordinates": [ -27.4, 16.200001 ] } },
{ "type": "Feature", "properties": { "ID": 272102, "LAT": 17.4, "LON": -28.3, "VMAX": 35.0, "MSLP": 1006.0, "RMAX": 120.0, "FSPD": 6.57078, "FDIR": 256.4156, "RENV": 210.0, "PENV": 1010.0, "VALIDT": 0, "DTG": "2024-10-12 06:00", "LATNOW": 22.7, "LONNOW": -74.6, "WINDNOW": 35.0, "DIRNOW": 5.0, "SPDNOW": 0.0, "TECH": "TRAK", "ADVNR": 14, "ATCFID": "AL162024", "NAME": "OSCAR", "FTECH": "OFCL", "FCST_DTG": "2024-10-22 12:00:00", "RUN_DTG": "2024-10-23 02:51:35", "BASIN": "AL", "STMNR": 16, "CAT_ID": null, "CAT_DESC": null, "MSGID": "WTNT21 KNHC 221454", "VALIDTIME": "2024-10-12 06:00:00" }, "geometry": { "type": "Point", "coordinates": [ -28.299999, 17.4 ] } },
{ "type": "Feature", "properties": { "ID": 272103, "LAT": 17.1, "LON": -29.6, "VMAX": 30.0, "MSLP": 1009.0, "RMAX": 100.0, "FSPD": 5.02093, "FDIR": 281.82474, "RENV": 210.0, "PENV": 1015.0, "VALIDT": 0, "DTG": "2024-10-12 12:00", "LATNOW": 22.7, "LONNOW": -74.6, "WINDNOW": 35.0, "DIRNOW": 5.0, "SPDNOW": 0.0, "TECH": "TRAK", "ADVNR": 14, "ATCFID": "AL162024", "NAME": "OSCAR", "FTECH": "OFCL", "FCST_DTG": "2024-10-22 12:00:00", "RUN_DTG": "2024-10-23 02:51:35", "BASIN": "AL", "STMNR": 16, "CAT_ID": null, "CAT_DESC": null, "MSGID": "WTNT21 KNHC 221454", "VALIDTIME": "2024-10-12 12:00:00" }, "geometry": { "type": "Point", "coordinates": [ -29.6, 17.1 ] } },
{ "type": "Feature", "properties": { "ID": 272104, "LAT": 17.3, "LON": -30.6, "VMAX": 25.0, "MSLP": 1009.0, "RMAX": 100.0, "FSPD": 4.26427, "FDIR": 316.37286, "RENV": 210.0, "PENV": 1013.0, "VALIDT": 0, "DTG": "2024-10-12 18:00", "LATNOW": 22.7, "LONNOW": -74.6, "WINDNOW": 35.0, "DIRNOW": 5.0, "SPDNOW": 0.0, "TECH": "TRAK", "ADVNR": 14, "ATCFID": "AL162024", "NAME": "OSCAR", "FTECH": "OFCL", "FCST_DTG": "2024-10-22 12:00:00", "RUN_DTG": "2024-10-23 02:51:35", "BASIN": "AL", "STMNR": 16, "CAT_ID": null, "CAT_DESC": null, "MSGID": "WTNT21 KNHC 221454", "VALIDTIME": "2024-10-12 18:00:00" }, "geometry": { "type": "Point", "coordinates": [ -30.6, 17.299999 ] } },
{ "type": "Feature", "properties": { "ID": 272105, "LAT": 17.9, "LON": -31.2, "VMAX": 25.0, "MSLP": 1009.0, "RMAX": 100.0, "FSPD": 5.75904, "FDIR": 290.9352, "RENV": 210.0, "PENV": 1013.0, "VALIDT": 0, "DTG": "2024-10-13 00:00", "LATNOW": 22.7, "LONNOW": -74.6, "WINDNOW": 35.0, "DIRNOW": 5.0, "SPDNOW": 0.0, "TECH": "TRAK", "ADVNR": 14, "ATCFID": "AL162024", "NAME": "OSCAR", "FTECH": "OFCL", "FCST_DTG": "2024-10-22 12:00:00", "RUN_DTG": "2024-10-23 02:51:35", "BASIN": "AL", "STMNR": 16, "CAT_ID": null, "CAT_DESC": null, "MSGID": "WTNT21 KNHC 221454", "VALIDTIME": "2024-10-13 00:00:00" }, "geometry": { "type": "Point", "coordinates": [ -31.200001, 17.9 ] } },
{ "type": "Feature", "properties": { "ID": 272106, "LAT": 18.3, "LON": -32.3, "VMAX": 25.0, "MSLP": 1009.0, "RMAX": 100.0, "FSPD": 7.34655, "FDIR": 265.9846, "RENV": 210.0, "PENV": 1013.0, "VALIDT": 0, "DTG": "2024-10-13 06:00", "LATNOW": 22.7, "LONNOW": -74.6, "WINDNOW": 35.0, "DIRNOW": 5.0, "SPDNOW": 0.0, "TECH": "TRAK", "ADVNR": 14, "ATCFID": "AL162024", "NAME": "OSCAR", "FTECH": "OFCL", "FCST_DTG": "2024-10-22 12:00:00", "RUN_DTG": "2024-10-23 02:51:35", "BASIN": "AL", "STMNR": 16, "CAT_ID": null, "CAT_DESC": null, "MSGID": "WTNT21 KNHC 221454", "VALIDTIME": "2024-10-13 06:00:00" }, "geometry": { "type": "Point", "coordinates": [ -32.299999, 18.299999 ] } },
{ "type": "Feature", "properties": { "ID": 272107, "LAT": 18.2, "LON": -33.8, "VMAX": 25.0, "MSLP": 1011.0, "RMAX": 100.0, "FSPD": 7.51661, "FDIR": 245.7545, "RENV": 140.0, "PENV": 1014.0, "VALIDT": 0, "DTG": "2024-10-13 12:00", "LATNOW": 22.7, "LONNOW": -74.6, "WINDNOW": 35.0, "DIRNOW": 5.0, "SPDNOW": 0.0, "TECH": "TRAK", "ADVNR": 14, "ATCFID": "AL162024", "NAME": "OSCAR", "FTECH": "OFCL", "FCST_DTG": "2024-10-22 12:00:00", "RUN_DTG": "2024-10-23 02:51:35", "BASIN": "AL", "STMNR": 16, "CAT_ID": null, "CAT_DESC": null, "MSGID": "WTNT21 KNHC 221454", "VALIDTIME": "2024-10-13 12:00:00" }, "geometry": { "type": "Point", "coordinates": [ -33.799999, 18.200001 ] } },
{ "type": "Feature", "properties": { "ID": 272108, "LAT": 17.6, "LON": -35.2, "VMAX": 25.0, "MSLP": 1011.0, "RMAX": 100.0, "FSPD": 5.90843, "FDIR": 265.0049, "RENV": 150.0, "PENV": 1014.0, "VALIDT": 0, "DTG": "2024-10-13 18:00", "LATNOW": 22.7, "LONNOW": -74.6, "WINDNOW": 35.0, "DIRNOW": 5.0, "SPDNOW": 0.0, "TECH": "TRAK", "ADVNR": 14, "ATCFID": "AL162024", "NAME": "OSCAR", "FTECH": "OFCL", "FCST_DTG": "2024-10-22 12:00:00", "RUN_DTG": "2024-10-23 02:51:35", "BASIN": "AL", "STMNR": 16, "CAT_ID": null, "CAT_DESC": null, "MSGID": "WTNT21 KNHC 221454", "VALIDTIME": "2024-10-13 18:00:00" }, "geometry": { "type": "Point", "coordinates": [ -35.200001, 17.6 ] } },
{ "type": "Feature", "properties": { "ID": 272109, "LAT": 17.5, "LON": -36.4, "VMAX": 25.0, "MSLP": 1011.0, "RMAX": 100.0, "FSPD": 4.90634, "FDIR": 269.99997, "RENV": 150.0, "PENV": 1014.0, "VALIDT": 0, "DTG": "2024-10-14 00:00", "LATNOW": 22.7, "LONNOW": -74.6, "WINDNOW": 35.0, "DIRNOW": 5.0, "SPDNOW": 0.0, "TECH": "TRAK", "ADVNR": 14, "ATCFID": "AL162024", "NAME": "OSCAR", "FTECH": "OFCL", "FCST_DTG": "2024-10-22 12:00:00", "RUN_DTG": "2024-10-23 02:51:35", "BASIN": "AL", "STMNR": 16, "CAT_ID": null, "CAT_DESC": null, "MSGID": "WTNT21 KNHC 221454", "VALIDTIME": "2024-10-14 00:00:00" }, "geometry": { "type": "Point", "coordinates": [ -36.400002, 17.5 ] } },
{ "type": "Feature", "properties": { "ID": 272110, "LAT": 17.5, "LON": -37.4, "VMAX": 25.0, "MSLP": 1011.0, "RMAX": 100.0, "FSPD": 5.42291, "FDIR": 264.5564, "RENV": 150.0, "PENV": 1014.0, "VALIDT": 0, "DTG": "2024-10-14 06:00", "LATNOW": 22.7, "LONNOW": -74.6, "WINDNOW": 35.0, "DIRNOW": 5.0, "SPDNOW": 0.0, "TECH": "TRAK", "ADVNR": 14, "ATCFID": "AL162024", "NAME": "OSCAR", "FTECH": "OFCL", "FCST_DTG": "2024-10-22 12:00:00", "RUN_DTG": "2024-10-23 02:51:35", "BASIN": "AL", "STMNR": 16, "CAT_ID": null, "CAT_DESC": null, "MSGID": "WTNT21 KNHC 221454", "VALIDTIME": "2024-10-14 06:00:00" }, "geometry": { "type": "Point", "coordinates": [ -37.400002, 17.5 ] } },
{ "type": "Feature", "properties": { "ID": 272111, "LAT": 17.4, "LON": -38.5, "VMAX": 25.0, "MSLP": 1011.0, "RMAX": 100.0, "FSPD": 6.24596, "FDIR": 250.76414, "RENV": 150.0, "PENV": 1014.0, "VALIDT": 0, "DTG": "2024-10-14 12:00", "LATNOW": 22.7, "LONNOW": -74.6, "WINDNOW": 35.0, "DIRNOW": 5.0, "SPDNOW": 0.0, "TECH": "TRAK", "ADVNR": 14, "ATCFID": "AL162024", "NAME": "OSCAR", "FTECH": "OFCL", "FCST_DTG": "2024-10-22 12:00:00", "RUN_DTG": "2024-10-23 02:51:35", "BASIN": "AL", "STMNR": 16, "CAT_ID": null, "CAT_DESC": null, "MSGID": "WTNT21 KNHC 221454", "VALIDTIME": "2024-10-14 12:00:00" }, "geometry": { "type": "Point", "coordinates": [ -38.5, 17.4 ] } },
{ "type": "Feature", "properties": { "ID": 272112, "LAT": 17.0, "LON": -39.7, "VMAX": 25.0, "MSLP": 1011.0, "RMAX": 40.0, "FSPD": 4.44491, "FDIR": 242.42227, "RENV": 140.0, "PENV": 1013.0, "VALIDT": 0, "DTG": "2024-10-14 18:00", "LATNOW": 22.7, "LONNOW": -74.6, "WINDNOW": 35.0, "DIRNOW": 5.0, "SPDNOW": 0.0, "TECH": "TRAK", "ADVNR": 14, "ATCFID": "AL162024", "NAME": "OSCAR", "FTECH": "OFCL", "FCST_DTG": "2024-10-22 12:00:00", "RUN_DTG": "2024-10-23 02:51:35", "BASIN": "AL", "STMNR": 16, "CAT_ID": null, "CAT_DESC": null, "MSGID": "WTNT21 KNHC 221454", "VALIDTIME": "2024-10-14 18:00:00" }, "geometry": { "type": "Point", "coordinates": [ -39.700001, 17.0 ] } },
{ "type": "Feature", "properties": { "ID": 272113, "LAT": 16.6, "LON": -40.5, "VMAX": 25.0, "MSLP": 1011.0, "RMAX": 40.0, "FSPD": 6.11849, "FDIR": 255.38976, "RENV": 140.0, "PENV": 1013.0, "VALIDT": 0, "DTG": "2024-10-15 00:00", "LATNOW": 22.7, "LONNOW": -74.6, "WINDNOW": 35.0, "DIRNOW": 5.0, "SPDNOW": 0.0, "TECH": "TRAK", "ADVNR": 14, "ATCFID": "AL162024", "NAME": "OSCAR", "FTECH": "OFCL", "FCST_DTG": "2024-10-22 12:00:00", "RUN_DTG": "2024-10-23 02:51:35", "BASIN": "AL", "STMNR": 16, "CAT_ID": null, "CAT_DESC": null, "MSGID": "WTNT21 KNHC 221454", "VALIDTIME": "2024-10-15 00:00:00" }, "geometry": { "type": "Point", "coordinates": [ -40.5, 16.6 ] } },
{ "type": "Feature", "properties": { "ID": 272114, "LAT": 16.3, "LON": -41.7, "VMAX": 30.0, "MSLP": 1010.0, "RMAX": 40.0, "FSPD": 4.56364, "FDIR": 256.97052, "RENV": 140.0, "PENV": 1013.0, "VALIDT": 0, "DTG": "2024-10-15 06:00", "LATNOW": 22.7, "LONNOW": -74.6, "WINDNOW": 35.0, "DIRNOW": 5.0, "SPDNOW": 0.0, "TECH": "TRAK", "ADVNR": 14, "ATCFID": "AL162024", "NAME": "OSCAR", "FTECH": "OFCL", "FCST_DTG": "2024-10-22 12:00:00", "RUN_DTG": "2024-10-23 02:51:35", "BASIN": "AL", "STMNR": 16, "CAT_ID": null, "CAT_DESC": null, "MSGID": "WTNT21 KNHC 221454", "VALIDTIME": "2024-10-15 06:00:00" }, "geometry": { "type": "Point", "coordinates": [ -41.700001, 16.299999 ] } },
{ "type": "Feature", "properties": { "ID": 272115, "LAT": 16.1, "LON": -42.6, "VMAX": 25.0, "MSLP": 1010.0, "RMAX": 40.0, "FSPD": 4.94267, "FDIR": 269.99997, "RENV": 140.0, "PENV": 1013.0, "VALIDT": 0, "DTG": "2024-10-15 12:00", "LATNOW": 22.7, "LONNOW": -74.6, "WINDNOW": 35.0, "DIRNOW": 5.0, "SPDNOW": 0.0, "TECH": "TRAK", "ADVNR": 14, "ATCFID": "AL162024", "NAME": "OSCAR", "FTECH": "OFCL", "FCST_DTG": "2024-10-22 12:00:00", "RUN_DTG": "2024-10-23 02:51:35", "BASIN": "AL", "STMNR": 16, "CAT_ID": null, "CAT_DESC": null, "MSGID": "WTNT21 KNHC 221454", "VALIDTIME": "2024-10-15 12:00:00" }, "geometry": { "type": "Point", "coordinates": [ -42.599998, 16.1 ] } },
{ "type": "Feature", "properties": { "ID": 272116, "LAT": 16.1, "LON": -43.6, "VMAX": 25.0, "MSLP": 1010.0, "RMAX": 40.0, "FSPD": 6.91975, "FDIR": 269.99997, "RENV": 140.0, "PENV": 1013.0, "VALIDT": 0, "DTG": "2024-10-15 18:00", "LATNOW": 22.7, "LONNOW": -74.6, "WINDNOW": 35.0, "DIRNOW": 5.0, "SPDNOW": 0.0, "TECH": "TRAK", "ADVNR": 14, "ATCFID": "AL162024", "NAME": "OSCAR", "FTECH": "OFCL", "FCST_DTG": "2024-10-22 12:00:00", "RUN_DTG": "2024-10-23 02:51:35", "BASIN": "AL", "STMNR": 16, "CAT_ID": null, "CAT_DESC": null, "MSGID": "WTNT21 KNHC 221454", "VALIDTIME": "2024-10-15 18:00:00" }, "geometry": { "type": "Point", "coordinates": [ -43.599998, 16.1 ] } },
{ "type": "Feature", "properties": { "ID": 272117, "LAT": 16.1, "LON": -45.0, "VMAX": 25.0, "MSLP": 1010.0, "RMAX": 40.0, "FSPD": 6.94059, "FDIR": 265.7492, "RENV": 140.0, "PENV": 1013.0, "VALIDT": 0, "DTG": "2024-10-16 00:00", "LATNOW": 22.7, "LONNOW": -74.6, "WINDNOW": 35.0, "DIRNOW": 5.0, "SPDNOW": 0.0, "TECH": "TRAK", "ADVNR": 14, "ATCFID": "AL162024", "NAME": "OSCAR", "FTECH": "OFCL", "FCST_DTG": "2024-10-22 12:00:00", "RUN_DTG": "2024-10-23 02:51:35", "BASIN": "AL", "STMNR": 16, "CAT_ID": null, "CAT_DESC": null, "MSGID": "WTNT21 KNHC 221454", "VALIDTIME": "2024-10-16 00:00:00" }, "geometry": { "type": "Point", "coordinates": [ -45.0, 16.1 ] } },
{ "type": "Feature", "properties": { "ID": 272118, "LAT": 16.0, "LON": -46.4, "VMAX": 25.0, "MSLP": 1010.0, "RMAX": 50.0, "FSPD": 11.42595, "FDIR": 264.83356, "RENV": 140.0, "PENV": 1013.0, "VALIDT": 0, "DTG": "2024-10-16 06:00", "LATNOW": 22.7, "LONNOW": -74.6, "WINDNOW": 35.0, "DIRNOW": 5.0, "SPDNOW": 0.0, "TECH": "TRAK", "ADVNR": 14, "ATCFID": "AL162024", "NAME": "OSCAR", "FTECH": "OFCL", "FCST_DTG": "2024-10-22 12:00:00", "RUN_DTG": "2024-10-23 02:51:35", "BASIN": "AL", "STMNR": 16, "CAT_ID": null, "CAT_DESC": null, "MSGID": "WTNT21 KNHC 221454", "VALIDTIME": "2024-10-16 06:00:00" }, "geometry": { "type": "Point", "coordinates": [ -46.400002, 16.0 ] } },
{ "type": "Feature", "properties": { "ID": 272119, "LAT": 15.8, "LON": -48.7, "VMAX": 25.0, "MSLP": 1011.0, "RMAX": 50.0, "FSPD": 7.00266, "FDIR": 278.4489, "RENV": 140.0, "PENV": 1013.0, "VALIDT": 0, "DTG": "2024-10-16 12:00", "LATNOW": 22.7, "LONNOW": -74.6, "WINDNOW": 35.0, "DIRNOW": 5.0, "SPDNOW": 0.0, "TECH": "TRAK", "ADVNR": 14, "ATCFID": "AL162024", "NAME": "OSCAR", "FTECH": "OFCL", "FCST_DTG": "2024-10-22 12:00:00", "RUN_DTG": "2024-10-23 02:51:35", "BASIN": "AL", "STMNR": 16, "CAT_ID": null, "CAT_DESC": null, "MSGID": "WTNT21 KNHC 221454", "VALIDTIME": "2024-10-16 12:00:00" }, "geometry": { "type": "Point", "coordinates": [ -48.700001, 15.8 ] } },
{ "type": "Feature", "properties": { "ID": 272120, "LAT": 16.0, "LON": -50.1, "VMAX": 30.0, "MSLP": 1011.0, "RMAX": 50.0, "FSPD": 9.12733, "FDIR": 283.02945, "RENV": 140.0, "PENV": 1013.0, "VALIDT": 0, "DTG": "2024-10-16 18:00", "LATNOW": 22.7, "LONNOW": -74.6, "WINDNOW": 35.0, "DIRNOW": 5.0, "SPDNOW": 0.0, "TECH": "TRAK", "ADVNR": 14, "ATCFID": "AL162024", "NAME": "OSCAR", "FTECH": "OFCL", "FCST_DTG": "2024-10-22 12:00:00", "RUN_DTG": "2024-10-23 02:51:35", "BASIN": "AL", "STMNR": 16, "CAT_ID": null, "CAT_DESC": null, "MSGID": "WTNT21 KNHC 221454", "VALIDTIME": "2024-10-16 18:00:00" }, "geometry": { "type": "Point", "coordinates": [ -50.099998, 16.0 ] } },
{ "type": "Feature", "properties": { "ID": 272121, "LAT": 16.4, "LON": -51.9, "VMAX": 30.0, "MSLP": 1011.0, "RMAX": 50.0, "FSPD": 8.62997, "FDIR": 283.79477, "RENV": 130.0, "PENV": 1013.0, "VALIDT": 0, "DTG": "2024-10-17 00:00", "LATNOW": 22.7, "LONNOW": -74.6, "WINDNOW": 35.0, "DIRNOW": 5.0, "SPDNOW": 0.0, "TECH": "TRAK", "ADVNR": 14, "ATCFID": "AL162024", "NAME": "OSCAR", "FTECH": "OFCL", "FCST_DTG": "2024-10-22 12:00:00", "RUN_DTG": "2024-10-23 02:51:35", "BASIN": "AL", "STMNR": 16, "CAT_ID": null, "CAT_DESC": null, "MSGID": "WTNT21 KNHC 221454", "VALIDTIME": "2024-10-17 00:00:00" }, "geometry": { "type": "Point", "coordinates": [ -51.900002, 16.4 ] } },
{ "type": "Feature", "properties": { "ID": 272122, "LAT": 16.8, "LON": -53.6, "VMAX": 30.0, "MSLP": 1011.0, "RMAX": 60.0, "FSPD": 12.08104, "FDIR": 282.29315, "RENV": 120.0, "PENV": 1012.0, "VALIDT": 0, "DTG": "2024-10-17 06:00", "LATNOW": 22.7, "LONNOW": -74.6, "WINDNOW": 35.0, "DIRNOW": 5.0, "SPDNOW": 0.0, "TECH": "TRAK", "ADVNR": 14, "ATCFID": "AL162024", "NAME": "OSCAR", "FTECH": "OFCL", "FCST_DTG": "2024-10-22 12:00:00", "RUN_DTG": "2024-10-23 02:51:35", "BASIN": "AL", "STMNR": 16, "CAT_ID": null, "CAT_DESC": null, "MSGID": "WTNT21 KNHC 221454", "VALIDTIME": "2024-10-17 06:00:00" }, "geometry": { "type": "Point", "coordinates": [ -53.599998, 16.799999 ] } },
{ "type": "Feature", "properties": { "ID": 272123, "LAT": 17.3, "LON": -56.0, "VMAX": 30.0, "MSLP": 1011.0, "RMAX": 60.0, "FSPD": 11.82654, "FDIR": 274.99097, "RENV": 120.0, "PENV": 1012.0, "VALIDT": 0, "DTG": "2024-10-17 12:00", "LATNOW": 22.7, "LONNOW": -74.6, "WINDNOW": 35.0, "DIRNOW": 5.0, "SPDNOW": 0.0, "TECH": "TRAK", "ADVNR": 14, "ATCFID": "AL162024", "NAME": "OSCAR", "FTECH": "OFCL", "FCST_DTG": "2024-10-22 12:00:00", "RUN_DTG": "2024-10-23 02:51:35", "BASIN": "AL", "STMNR": 16, "CAT_ID": null, "CAT_DESC": null, "MSGID": "WTNT21 KNHC 221454", "VALIDTIME": "2024-10-17 12:00:00" }, "geometry": { "type": "Point", "coordinates": [ -56.0, 17.299999 ] } },
{ "type": "Feature", "properties": { "ID": 272124, "LAT": 17.5, "LON": -58.4, "VMAX": 30.0, "MSLP": 1011.0, "RMAX": 60.0, "FSPD": 8.18047, "FDIR": 296.1172, "RENV": 120.0, "PENV": 1012.0, "VALIDT": 0, "DTG": "2024-10-17 18:00", "LATNOW": 22.7, "LONNOW": -74.6, "WINDNOW": 35.0, "DIRNOW": 5.0, "SPDNOW": 0.0, "TECH": "TRAK", "ADVNR": 14, "ATCFID": "AL162024", "NAME": "OSCAR", "FTECH": "OFCL", "FCST_DTG": "2024-10-22 12:00:00", "RUN_DTG": "2024-10-23 02:51:35", "BASIN": "AL", "STMNR": 16, "CAT_ID": null, "CAT_DESC": null, "MSGID": "WTNT21 KNHC 221454", "VALIDTIME": "2024-10-17 18:00:00" }, "geometry": { "type": "Point", "coordinates": [ -58.400002, 17.5 ] } },
{ "type": "Feature", "properties": { "ID": 272125, "LAT": 18.2, "LON": -59.9, "VMAX": 30.0, "MSLP": 1012.0, "RMAX": 60.0, "FSPD": 11.16793, "FDIR": 286.04462, "RENV": 120.0, "PENV": 1013.0, "VALIDT": 0, "DTG": "2024-10-18 00:00", "LATNOW": 22.7, "LONNOW": -74.6, "WINDNOW": 35.0, "DIRNOW": 5.0, "SPDNOW": 0.0, "TECH": "TRAK", "ADVNR": 14, "ATCFID": "AL162024", "NAME": "OSCAR", "FTECH": "OFCL", "FCST_DTG": "2024-10-22 12:00:00", "RUN_DTG": "2024-10-23 02:51:35", "BASIN": "AL", "STMNR": 16, "CAT_ID": null, "CAT_DESC": null, "MSGID": "WTNT21 KNHC 221454", "VALIDTIME": "2024-10-18 00:00:00" }, "geometry": { "type": "Point", "coordinates": [ -59.900002, 18.200001 ] } },
{ "type": "Feature", "properties": { "ID": 272126, "LAT": 18.8, "LON": -62.1, "VMAX": 30.0, "MSLP": 1012.0, "RMAX": 60.0, "FSPD": 10.20069, "FDIR": 287.61346, "RENV": 120.0, "PENV": 1013.0, "VALIDT": 0, "DTG": "2024-10-18 06:00", "LATNOW": 22.7, "LONNOW": -74.6, "WINDNOW": 35.0, "DIRNOW": 5.0, "SPDNOW": 0.0, "TECH": "TRAK", "ADVNR": 14, "ATCFID": "AL162024", "NAME": "OSCAR", "FTECH": "OFCL", "FCST_DTG": "2024-10-22 12:00:00", "RUN_DTG": "2024-10-23 02:51:35", "BASIN": "AL", "STMNR": 16, "CAT_ID": null, "CAT_DESC": null, "MSGID": "WTNT21 KNHC 221454", "VALIDTIME": "2024-10-18 06:00:00" }, "geometry": { "type": "Point", "coordinates": [ -62.099998, 18.799999 ] } },
{ "type": "Feature", "properties": { "ID": 272127, "LAT": 19.4, "LON": -64.1, "VMAX": 30.0, "MSLP": 1011.0, "RMAX": 60.0, "FSPD": 7.77841, "FDIR": 273.79218, "RENV": 120.0, "PENV": 1013.0, "VALIDT": 0, "DTG": "2024-10-18 12:00", "LATNOW": 22.7, "LONNOW": -74.6, "WINDNOW": 35.0, "DIRNOW": 5.0, "SPDNOW": 0.0, "TECH": "TRAK", "ADVNR": 14, "ATCFID": "AL162024", "NAME": "OSCAR", "FTECH": "OFCL", "FCST_DTG": "2024-10-22 12:00:00", "RUN_DTG": "2024-10-23 02:51:35", "BASIN": "AL", "STMNR": 16, "CAT_ID": null, "CAT_DESC": null, "MSGID": "WTNT21 KNHC 221454", "VALIDTIME": "2024-10-18 12:00:00" }, "geometry": { "type": "Point", "coordinates": [ -64.099998, 19.4 ] } },
{ "type": "Feature", "properties": { "ID": 272128, "LAT": 19.5, "LON": -65.7, "VMAX": 30.0, "MSLP": 1011.0, "RMAX": 60.0, "FSPD": 7.44632, "FDIR": 294.48926, "RENV": 120.0, "PENV": 1013.0, "VALIDT": 0, "DTG": "2024-10-18 18:00", "LATNOW": 22.7, "LONNOW": -74.6, "WINDNOW": 35.0, "DIRNOW": 5.0, "SPDNOW": 0.0, "TECH": "TRAK", "ADVNR": 14, "ATCFID": "AL162024", "NAME": "OSCAR", "FTECH": "OFCL", "FCST_DTG": "2024-10-22 12:00:00", "RUN_DTG": "2024-10-23 02:51:35", "BASIN": "AL", "STMNR": 16, "CAT_ID": null, "CAT_DESC": null, "MSGID": "WTNT21 KNHC 221454", "VALIDTIME": "2024-10-18 18:00:00" }, "geometry": { "type": "Point", "coordinates": [ -65.699997, 19.5 ] } },
{ "type": "Feature", "properties": { "ID": 272129, "LAT": 20.1, "LON": -67.1, "VMAX": 30.0, "MSLP": 1011.0, "RMAX": 60.0, "FSPD": 6.33387, "FDIR": 293.96045, "RENV": 120.0, "PENV": 1013.0, "VALIDT": 0, "DTG": "2024-10-19 00:00", "LATNOW": 22.7, "LONNOW": -74.6, "WINDNOW": 35.0, "DIRNOW": 5.0, "SPDNOW": 0.0, "TECH": "TRAK", "ADVNR": 14, "ATCFID": "AL162024", "NAME": "OSCAR", "FTECH": "OFCL", "FCST_DTG": "2024-10-22 12:00:00", "RUN_DTG": "2024-10-23 02:51:35", "BASIN": "AL", "STMNR": 16, "CAT_ID": null, "CAT_DESC": null, "MSGID": "WTNT21 KNHC 221454", "VALIDTIME": "2024-10-19 00:00:00" }, "geometry": { "type": "Point", "coordinates": [ -67.099998, 20.1 ] } },
{ "type": "Feature", "properties": { "ID": 272130, "LAT": 20.6, "LON": -68.3, "VMAX": 30.0, "MSLP": 1011.0, "RMAX": 60.0, "FSPD": 7.20944, "FDIR": 299.9668, "RENV": 120.0, "PENV": 1013.0, "VALIDT": 0, "DTG": "2024-10-19 06:00", "LATNOW": 22.7, "LONNOW": -74.6, "WINDNOW": 35.0, "DIRNOW": 5.0, "SPDNOW": 0.0, "TECH": "TRAK", "ADVNR": 14, "ATCFID": "AL162024", "NAME": "OSCAR", "FTECH": "OFCL", "FCST_DTG": "2024-10-22 12:00:00", "RUN_DTG": "2024-10-23 02:51:35", "BASIN": "AL", "STMNR": 16, "CAT_ID": null, "CAT_DESC": null, "MSGID": "WTNT21 KNHC 221454", "VALIDTIME": "2024-10-19 06:00:00" }, "geometry": { "type": "Point", "coordinates": [ -68.300003, 20.6 ] } },
{ "type": "Feature", "properties": { "ID": 272131, "LAT": 21.3, "LON": -69.6, "VMAX": 35.0, "MSLP": 1007.0, "RMAX": 20.0, "FSPD": 4.81894, "FDIR": 276.1283, "RENV": 120.0, "PENV": 1013.0, "VALIDT": 0, "DTG": "2024-10-19 12:00", "LATNOW": 22.7, "LONNOW": -74.6, "WINDNOW": 35.0, "DIRNOW": 5.0, "SPDNOW": 0.0, "TECH": "TRAK", "ADVNR": 14, "ATCFID": "AL162024", "NAME": "OSCAR", "FTECH": "OFCL", "FCST_DTG": "2024-10-22 12:00:00", "RUN_DTG": "2024-10-23 02:51:35", "BASIN": "AL", "STMNR": 16, "CAT_ID": null, "CAT_DESC": null, "MSGID": "WTNT21 KNHC 221454", "VALIDTIME": "2024-10-19 12:00:00" }, "geometry": { "type": "Point", "coordinates": [ -69.599998, 21.299999 ] } },
{ "type": "Feature", "properties": { "ID": 272132, "LAT": 21.4, "LON": -70.6, "VMAX": 70.0, "MSLP": 989.0, "RMAX": 5.0, "FSPD": 5.26873, "FDIR": 269.99997, "RENV": 80.0, "PENV": 1011.0, "VALIDT": 0, "DTG": "2024-10-19 18:00", "LATNOW": 22.7, "LONNOW": -74.6, "WINDNOW": 35.0, "DIRNOW": 5.0, "SPDNOW": 0.0, "TECH": "TRAK", "ADVNR": 14, "ATCFID": "AL162024", "NAME": "OSCAR", "FTECH": "OFCL", "FCST_DTG": "2024-10-22 12:00:00", "RUN_DTG": "2024-10-23 02:51:35", "BASIN": "AL", "STMNR": 16, "CAT_ID": null, "CAT_DESC": null, "MSGID": "WTNT21 KNHC 221454", "VALIDTIME": "2024-10-19 18:00:00" }, "geometry": { "type": "Point", "coordinates": [ -70.599998, 21.4 ] } },
{ "type": "Feature", "properties": { "ID": 272133, "LAT": 21.4, "LON": -71.7, "VMAX": 75.0, "MSLP": 987.0, "RMAX": 5.0, "FSPD": 4.81894, "FDIR": 263.87167, "RENV": 80.0, "PENV": 1011.0, "VALIDT": 0, "DTG": "2024-10-20 00:00", "LATNOW": 22.7, "LONNOW": -74.6, "WINDNOW": 35.0, "DIRNOW": 5.0, "SPDNOW": 0.0, "TECH": "TRAK", "ADVNR": 14, "ATCFID": "AL162024", "NAME": "OSCAR", "FTECH": "OFCL", "FCST_DTG": "2024-10-22 12:00:00", "RUN_DTG": "2024-10-23 02:51:35", "BASIN": "AL", "STMNR": 16, "CAT_ID": null, "CAT_DESC": null, "MSGID": "WTNT21 KNHC 221454", "VALIDTIME": "2024-10-20 00:00:00" }, "geometry": { "type": "Point", "coordinates": [ -71.699997, 21.4 ] } },
{ "type": "Feature", "properties": { "ID": 272134, "LAT": 21.3, "LON": -72.7, "VMAX": 70.0, "MSLP": 988.0, "RMAX": 5.0, "FSPD": 5.02869, "FDIR": 239.23552, "RENV": 80.0, "PENV": 1011.0, "VALIDT": 0, "DTG": "2024-10-20 06:00", "LATNOW": 22.7, "LONNOW": -74.6, "WINDNOW": 35.0, "DIRNOW": 5.0, "SPDNOW": 0.0, "TECH": "TRAK", "ADVNR": 14, "ATCFID": "AL162024", "NAME": "OSCAR", "FTECH": "OFCL", "FCST_DTG": "2024-10-22 12:00:00", "RUN_DTG": "2024-10-23 02:51:35", "BASIN": "AL", "STMNR": 16, "CAT_ID": null, "CAT_DESC": null, "MSGID": "WTNT21 KNHC 221454", "VALIDTIME": "2024-10-20 06:00:00" }, "geometry": { "type": "Point", "coordinates": [ -72.699997, 21.299999 ] } },
{ "type": "Feature", "properties": { "ID": 272135, "LAT": 20.8, "LON": -73.6, "VMAX": 70.0, "MSLP": 986.0, "RMAX": 5.0, "FSPD": 2.61692, "FDIR": 246.84833, "RENV": 80.0, "PENV": 1011.0, "VALIDT": 0, "DTG": "2024-10-20 12:00", "LATNOW": 22.7, "LONNOW": -74.6, "WINDNOW": 35.0, "DIRNOW": 5.0, "SPDNOW": 0.0, "TECH": "TRAK", "ADVNR": 14, "ATCFID": "AL162024", "NAME": "OSCAR", "FTECH": "OFCL", "FCST_DTG": "2024-10-22 12:00:00", "RUN_DTG": "2024-10-23 02:51:35", "BASIN": "AL", "STMNR": 16, "CAT_ID": null, "CAT_DESC": null, "MSGID": "WTNT21 KNHC 221454", "VALIDTIME": "2024-10-20 12:00:00" }, "geometry": { "type": "Point", "coordinates": [ -73.599998, 20.799999 ] } },
{ "type": "Feature", "properties": { "ID": 272136, "LAT": 20.6, "LON": -74.1, "VMAX": 70.0, "MSLP": 986.0, "RMAX": 5.0, "FSPD": 2.82001, "FDIR": 223.13828, "RENV": 60.0, "PENV": 1011.0, "VALIDT": 0, "DTG": "2024-10-20 18:00", "LATNOW": 22.7, "LONNOW": -74.6, "WINDNOW": 35.0, "DIRNOW": 5.0, "SPDNOW": 0.0, "TECH": "TRAK", "ADVNR": 14, "ATCFID": "AL162024", "NAME": "OSCAR", "FTECH": "OFCL", "FCST_DTG": "2024-10-22 12:00:00", "RUN_DTG": "2024-10-23 02:51:35", "BASIN": "AL", "STMNR": 16, "CAT_ID": null, "CAT_DESC": null, "MSGID": "WTNT21 KNHC 221454", "VALIDTIME": "2024-10-20 18:00:00" }, "geometry": { "type": "Point", "coordinates": [ -74.099998, 20.6 ] } },
{ "type": "Feature", "properties": { "ID": 272137, "LAT": 20.28, "LON": -74.42, "VMAX": 70.0, "MSLP": 986.0, "RMAX": 5.0, "FSPD": 2.82175, "FDIR": 223.17595, "RENV": 60.0, "PENV": 1011.0, "VALIDT": 0, "DTG": "2024-10-20 22:00", "LATNOW": 22.7, "LONNOW": -74.6, "WINDNOW": 35.0, "DIRNOW": 5.0, "SPDNOW": 0.0, "TECH": "TRAK", "ADVNR": 14, "ATCFID": "AL162024", "NAME": "OSCAR", "FTECH": "OFCL", "FCST_DTG": "2024-10-22 12:00:00", "RUN_DTG": "2024-10-23 02:51:35", "BASIN": "AL", "STMNR": 16, "CAT_ID": null, "CAT_DESC": null, "MSGID": "WTNT21 KNHC 221454", "VALIDTIME": "2024-10-20 22:00:00" }, "geometry": { "type": "Point", "coordinates": [ -74.419998, 20.280001 ] } },
{ "type": "Feature", "properties": { "ID": 272138, "LAT": 20.2, "LON": -74.5, "VMAX": 65.0, "MSLP": 988.0, "RMAX": 10.0, "FSPD": 1.99916, "FDIR": 255.08821, "RENV": 60.0, "PENV": 1011.0, "VALIDT": 0, "DTG": "2024-10-21 00:00", "LATNOW": 22.7, "LONNOW": -74.6, "WINDNOW": 35.0, "DIRNOW": 5.0, "SPDNOW": 0.0, "TECH": "TRAK", "ADVNR": 14, "ATCFID": "AL162024", "NAME": "OSCAR", "FTECH": "OFCL", "FCST_DTG": "2024-10-22 12:00:00", "RUN_DTG": "2024-10-23 02:51:35", "BASIN": "AL", "STMNR": 16, "CAT_ID": null, "CAT_DESC": null, "MSGID": "WTNT21 KNHC 221454", "VALIDTIME": "2024-10-21 00:00:00" }, "geometry": { "type": "Point", "coordinates": [ -74.5, 20.200001 ] } },
{ "type": "Feature", "properties": { "ID": 272139, "LAT": 20.1, "LON": -74.9, "VMAX": 50.0, "MSLP": 996.0, "RMAX": 10.0, "FSPD": 1.99916, "FDIR": 284.91174, "RENV": 100.0, "PENV": 1009.0, "VALIDT": 0, "DTG": "2024-10-21 06:00", "LATNOW": 22.7, "LONNOW": -74.6, "WINDNOW": 35.0, "DIRNOW": 5.0, "SPDNOW": 0.0, "TECH": "TRAK", "ADVNR": 14, "ATCFID": "AL162024", "NAME": "OSCAR", "FTECH": "OFCL", "FCST_DTG": "2024-10-22 12:00:00", "RUN_DTG": "2024-10-23 02:51:35", "BASIN": "AL", "STMNR": 16, "CAT_ID": null, "CAT_DESC": null, "MSGID": "WTNT21 KNHC 221454", "VALIDTIME": "2024-10-21 06:00:00" }, "geometry": { "type": "Point", "coordinates": [ -74.900002, 20.1 ] } },
{ "type": "Feature", "properties": { "ID": 272140, "LAT": 20.2, "LON": -75.3, "VMAX": 40.0, "MSLP": 1000.0, "RMAX": 20.0, "FSPD": 3.8705, "FDIR": 311.64948, "RENV": 100.0, "PENV": 1009.0, "VALIDT": 0, "DTG": "2024-10-21 12:00", "LATNOW": 22.7, "LONNOW": -74.6, "WINDNOW": 35.0, "DIRNOW": 5.0, "SPDNOW": 0.0, "TECH": "TRAK", "ADVNR": 14, "ATCFID": "AL162024", "NAME": "OSCAR", "FTECH": "OFCL", "FCST_DTG": "2024-10-22 12:00:00", "RUN_DTG": "2024-10-23 02:51:35", "BASIN": "AL", "STMNR": 16, "CAT_ID": null, "CAT_DESC": null, "MSGID": "WTNT21 KNHC 221454", "VALIDTIME": "2024-10-21 12:00:00" }, "geometry": { "type": "Point", "coordinates": [ -75.300003, 20.200001 ] } },
{ "type": "Feature", "properties": { "ID": 272141, "LAT": 20.7, "LON": -75.9, "VMAX": 35.0, "MSLP": 1003.0, "RMAX": 30.0, "FSPD": 4.36016, "FDIR": 19.28296, "RENV": 100.0, "PENV": 1009.0, "VALIDT": 0, "DTG": "2024-10-21 18:00", "LATNOW": 22.7, "LONNOW": -74.6, "WINDNOW": 35.0, "DIRNOW": 5.0, "SPDNOW": 0.0, "TECH": "TRAK", "ADVNR": 14, "ATCFID": "AL162024", "NAME": "OSCAR", "FTECH": "OFCL", "FCST_DTG": "2024-10-22 12:00:00", "RUN_DTG": "2024-10-23 02:51:35", "BASIN": "AL", "STMNR": 16, "CAT_ID": null, "CAT_DESC": null, "MSGID": "WTNT21 KNHC 221454", "VALIDTIME": "2024-10-21 18:00:00" }, "geometry": { "type": "Point", "coordinates": [ -75.900002, 20.700001 ] } },
{ "type": "Feature", "properties": { "ID": 272142, "LAT": 21.5, "LON": -75.6, "VMAX": 35.0, "MSLP": 1005.0, "RMAX": 30.0, "FSPD": 4.75748, "FDIR": 30.10938, "RENV": 100.0, "PENV": 1009.0, "VALIDT": 0, "DTG": "2024-10-22 00:00", "LATNOW": 22.7, "LONNOW": -74.6, "WINDNOW": 35.0, "DIRNOW": 5.0, "SPDNOW": 0.0, "TECH": "TRAK", "ADVNR": 14, "ATCFID": "AL162024", "NAME": "OSCAR", "FTECH": "OFCL", "FCST_DTG": "2024-10-22 12:00:00", "RUN_DTG": "2024-10-23 02:51:35", "BASIN": "AL", "STMNR": 16, "CAT_ID": null, "CAT_DESC": null, "MSGID": "WTNT21 KNHC 221454", "VALIDTIME": "2024-10-22 00:00:00" }, "geometry": { "type": "Point", "coordinates": [ -75.599998, 21.5 ] } },
{ "type": "Feature", "properties": { "ID": 272143, "LAT": 22.3, "LON": -75.1, "VMAX": 35.0, "MSLP": 1006.0, "RMAX": 60.0, "FSPD": 3.14354, "FDIR": 49.11014, "RENV": 130.0, "PENV": 1010.0, "VALIDT": 0, "DTG": "2024-10-22 06:00", "LATNOW": 22.7, "LONNOW": -74.6, "WINDNOW": 35.0, "DIRNOW": 5.0, "SPDNOW": 0.0, "TECH": "TRAK", "ADVNR": 14, "ATCFID": "AL162024", "NAME": "OSCAR", "FTECH": "OFCL", "FCST_DTG": "2024-10-22 12:00:00", "RUN_DTG": "2024-10-23 02:51:35", "BASIN": "AL", "STMNR": 16, "CAT_ID": null, "CAT_DESC": null, "MSGID": "WTNT21 KNHC 221454", "VALIDTIME": "2024-10-22 06:00:00" }, "geometry": { "type": "Point", "coordinates": [ -75.099998, 22.299999 ] } },
{ "type": "Feature", "properties": { "ID": 272144, "LAT": 22.7, "LON": -74.6, "VMAX": 35.0, "MSLP": 1007.0, "RMAX": 60.0, "FSPD": 5.16967, "FDIR": 66.54391, "RENV": 130.0, "PENV": 1011.0, "VALIDT": 0, "DTG": "2024-10-22 12:00", "LATNOW": 22.7, "LONNOW": -74.6, "WINDNOW": 35.0, "DIRNOW": 5.0, "SPDNOW": 0.0, "TECH": "TRAK", "ADVNR": 14, "ATCFID": "AL162024", "NAME": "OSCAR", "FTECH": "OFCL", "FCST_DTG": "2024-10-22 12:00:00", "RUN_DTG": "2024-10-23 02:51:35", "BASIN": "AL", "STMNR": 16, "CAT_ID": null, "CAT_DESC": null, "MSGID": "WTNT21 KNHC 221454", "VALIDTIME": "2024-10-22 12:00:00" }, "geometry": { "type": "Point", "coordinates": [ -74.599998, 22.700001 ] } },
{ "type": "Feature", "properties": { "ID": 272145, "LAT": 22.9, "LON": -74.1, "VMAX": 35.0, "MSLP": 1007.0, "RMAX": 60.47575, "FSPD": 7.95726, "FDIR": 39.12134, "RENV": 180.0, "PENV": 1012.0, "VALIDT": 3, "DTG": "2024-10-22 15:00", "LATNOW": 22.7, "LONNOW": -74.6, "WINDNOW": 35.0, "DIRNOW": 5.0, "SPDNOW": 0.0, "TECH": "FCST", "ADVNR": 14, "ATCFID": "AL162024", "NAME": "OSCAR", "FTECH": "OFCL", "FCST_DTG": "2024-10-22 12:00:00", "RUN_DTG": "2024-10-23 02:51:35", "BASIN": "AL", "STMNR": 16, "CAT_ID": null, "CAT_DESC": null, "MSGID": "WTNT21 KNHC 221454", "VALIDTIME": "2024-10-22 15:00:00" }, "geometry": { "type": "Point", "coordinates": [ -74.099998, 22.9 ] } },
{ "type": "Feature", "properties": { "ID": 272146, "LAT": 24.7, "LON": -72.5, "VMAX": 35.0, "MSLP": 1008.74713, "RMAX": 64.99014, "FSPD": 9.84102, "FDIR": 35.87762, "RENV": 180.0, "PENV": 1012.0, "VALIDT": 12, "DTG": "2024-10-23 00:00", "LATNOW": 22.7, "LONNOW": -74.6, "WINDNOW": 35.0, "DIRNOW": 5.0, "SPDNOW": 0.0, "TECH": "FCST", "ADVNR": 14, "ATCFID": "AL162024", "NAME": "OSCAR", "FTECH": "OFCL", "FCST_DTG": "2024-10-22 12:00:00", "RUN_DTG": "2024-10-23 02:51:35", "BASIN": "AL", "STMNR": 16, "CAT_ID": null, "CAT_DESC": null, "MSGID": "WTNT21 KNHC 221454", "VALIDTIME": "2024-10-23 00:00:00" }, "geometry": { "type": "Point", "coordinates": [ -72.5, 24.700001 ] } },
{ "type": "Feature", "properties": { "ID": 272147, "LAT": 27.8, "LON": -70.0, "VMAX": 35.0, "MSLP": 1008.74713, "RMAX": 73.45361, "FSPD": 10.51504, "FDIR": 25.16245, "RENV": 300.0, "PENV": 1012.0, "VALIDT": 24, "DTG": "2024-10-23 12:00", "LATNOW": 22.7, "LONNOW": -74.6, "WINDNOW": 35.0, "DIRNOW": 5.0, "SPDNOW": 0.0, "TECH": "FCST", "ADVNR": 14, "ATCFID": "AL162024", "NAME": "OSCAR", "FTECH": "OFCL", "FCST_DTG": "2024-10-22 12:00:00", "RUN_DTG": "2024-10-23 02:51:35", "BASIN": "AL", "STMNR": 16, "CAT_ID": null, "CAT_DESC": null, "MSGID": "WTNT21 KNHC 221454", "VALIDTIME": "2024-10-23 12:00:00" }, "geometry": { "type": "Point", "coordinates": [ -70.0, 27.799999 ] } },
{ "type": "Feature", "properties": { "ID": 272148, "LAT": 31.5, "LON": -68.0, "VMAX": 35.0, "MSLP": 1008.74713, "RMAX": 85.00982, "FSPD": 10.51504, "FDIR": 25.16245, "RENV": 300.0, "PENV": 1012.0, "VALIDT": 36, "DTG": "2024-10-24 00:00", "LATNOW": 22.7, "LONNOW": -74.6, "WINDNOW": 35.0, "DIRNOW": 5.0, "SPDNOW": 0.0, "TECH": "FCST", "ADVNR": 14, "ATCFID": "AL162024", "NAME": "OSCAR", "FTECH": "OFCL", "FCST_DTG": "2024-10-22 12:00:00", "RUN_DTG": "2024-10-23 02:51:35", "BASIN": "AL", "STMNR": 16, "CAT_ID": null, "CAT_DESC": null, "MSGID": "WTNT21 KNHC 221454", "VALIDTIME": "2024-10-24 00:00:00" }, "geometry": { "type": "Point", "coordinates": [ -68.0, 31.5 ] } },
{ "type": "Feature", "properties": { "ID": 272144, "LAT": 22.7, "LON": -74.6, "VMAX": 35.0, "MSLP": 1007.0, "RMAX": 60.0, "FSPD": 5.16967, "FDIR": 66.54391, "RENV": 130.0, "PENV": 1011.0, "VALIDT": 0, "DTG": "2024-10-22 12:00", "LATNOW": 22.7, "LONNOW": -74.6, "WINDNOW": 35.0, "DIRNOW": 5.0, "SPDNOW": 0.0, "TECH": "TRAK", "ADVNR": 14, "ATCFID": "AL162024", "NAME": "OSCAR", "FTECH": "OFCL", "FCST_DTG": "2024-10-22 12:00:00", "RUN_DTG": "2024-10-23 02:51:35", "BASIN": "AL", "STMNR": 16, "CAT_ID": null, "CAT_DESC": null, "MSGID": "WTNT21 KNHC 221454", "VALIDTIME": "2024-10-22 12:00:00" }, "geometry": { "type": "LineString", "coordinates": [ [ -18.9, 14.0 ], [ -20.6, 14.4 ], [ -22.3, 14.4 ], [ -23.2, 14.8 ], [ -25.1, 14.8 ], [ -26.3, 15.5 ], [ -27.4, 16.2 ], [ -28.3, 17.4 ], [ -29.6, 17.1 ], [ -30.6, 17.3 ], [ -31.2, 17.9 ], [ -32.3, 18.3 ], [ -33.8, 18.2 ], [ -35.2, 17.6 ], [ -36.4, 17.5 ], [ -37.4, 17.5 ], [ -38.5, 17.4 ], [ -39.7, 17.0 ], [ -40.5, 16.6 ], [ -41.7, 16.3 ], [ -42.6, 16.1 ], [ -43.6, 16.1 ], [ -45.0, 16.1 ], [ -46.4, 16.0 ], [ -48.7, 15.8 ], [ -50.1, 16.0 ], [ -51.9, 16.4 ], [ -53.6, 16.8 ], [ -56.0, 17.3 ], [ -58.4, 17.5 ], [ -59.9, 18.2 ], [ -62.1, 18.8 ], [ -64.1, 19.4 ], [ -65.7, 19.5 ], [ -67.1, 20.1 ], [ -68.3, 20.6 ], [ -69.6, 21.3 ], [ -70.6, 21.4 ], [ -71.7, 21.4 ], [ -72.7, 21.3 ], [ -73.6, 20.8 ], [ -74.1, 20.6 ], [ -74.42, 20.28 ], [ -74.5, 20.2 ], [ -74.9, 20.1 ], [ -75.3, 20.2 ], [ -75.9, 20.7 ], [ -75.6, 21.5 ], [ -75.1, 22.3 ], [ -74.6, 22.7 ] ] } },
{ "type": "Feature", "properties": { "ID": 272148, "LAT": 31.5, "LON": -68.0, "VMAX": 35.0, "MSLP": 1008.74713, "RMAX": 85.00982, "FSPD": 10.51504, "FDIR": 25.16245, "RENV": 300.0, "PENV": 1012.0, "VALIDT": 36, "DTG": "2024-10-24 00:00", "LATNOW": 22.7, "LONNOW": -74.6, "WINDNOW": 35.0, "DIRNOW": 5.0, "SPDNOW": 0.0, "TECH": "FCST", "ADVNR": 14, "ATCFID": "AL162024", "NAME": "OSCAR", "FTECH": "OFCL", "FCST_DTG": "2024-10-22 12:00:00", "RUN_DTG": "2024-10-23 02:51:35", "BASIN": "AL", "STMNR": 16, "CAT_ID": null, "CAT_DESC": null, "MSGID": "WTNT21 KNHC 221454", "VALIDTIME": "2024-10-24 00:00:00" }, "geometry": { "type": "LineString", "coordinates": [ [ -74.6, 22.7 ], [ -74.1, 22.9 ], [ -72.5, 24.7 ], [ -70.0, 27.8 ], [ -68.0, 31.5 ] ] } }
]
}
