{
"type": "FeatureCollection",
"crs": { "type": "name", "properties": { "name": "urn:ogc:def:crs:OGC:1.3:CRS84" } },
"features": [
{ "type": "Feature", "properties": { "ID": 229445, "LAT": 15.7, "LON": -112.9, "VMAX": 25.0, "MSLP": 1008.0, "RMAX": 80.0, "FSPD": 0.51445, "FDIR": 360.0, "RENV": 140.0, "PENV": 1010.0, "VALIDT": 0, "DTG": "2024-08-04 00:00", "LATNOW": 22.1, "LONNOW": -124.8, "WINDNOW": 30.0, "DIRNOW": 5.0, "SPDNOW": 3.0, "TECH": "TRAK", "ADVNR": 19, "ATCFID": "EP052024", "NAME": "EMILIA", "FTECH": "OFCL", "FCST_DTG": "2024-08-09 00:00:00", "RUN_DTG": "2024-08-09 15:44:32", "BASIN": "EP", "STMNR": 5, "CAT_ID": null, "CAT_DESC": null, "MSGID": "WTPZ25 KNHC 090240", "VALIDTIME": "2024-08-04 00:00:00" }, "geometry": { "type": "Point", "coordinates": [ -112.900002, 15.7 ] } },
{ "type": "Feature", "properties": { "ID": 229446, "LAT": 15.8, "LON": -112.9, "VMAX": 25.0, "MSLP": 1008.0, "RMAX": 100.0, "FSPD": 0.71383, "FDIR": 43.88956, "RENV": 140.0, "PENV": 1010.0, "VALIDT": 0, "DTG": "2024-08-04 06:00", "LATNOW": 22.1, "LONNOW": -124.8, "WINDNOW": 30.0, "DIRNOW": 5.0, "SPDNOW": 3.0, "TECH": "TRAK", "ADVNR": 19, "ATCFID": "EP052024", "NAME": "EMILIA", "FTECH": "OFCL", "FCST_DTG": "2024-08-09 00:00:00", "RUN_DTG": "2024-08-09 15:44:32", "BASIN": "EP", "STMNR": 5, "CAT_ID": null, "CAT_DESC": null, "MSGID": "WTPZ25 KNHC 090240", "VALIDTIME": "2024-08-04 06:00:00" }, "geometry": { "type": "Point", "coordinates": [ -112.900002, 15.8 ] } },
{ "type": "Feature", "properties": { "ID": 229447, "LAT": 15.9, "LON": -112.8, "VMAX": 30.0, "MSLP": 1007.0, "RMAX": 100.0, "FSPD": 1.80661, "FDIR": 235.28368, "RENV": 140.0, "PENV": 1010.0, "VALIDT": 0, "DTG": "2024-08-04 12:00", "LATNOW": 22.1, "LONNOW": -124.8, "WINDNOW": 30.0, "DIRNOW": 5.0, "SPDNOW": 3.0, "TECH": "TRAK", "ADVNR": 19, "ATCFID": "EP052024", "NAME": "EMILIA", "FTECH": "OFCL", "FCST_DTG": "2024-08-09 00:00:00", "RUN_DTG": "2024-08-09 15:44:32", "BASIN": "EP", "STMNR": 5, "CAT_ID": null, "CAT_DESC": null, "MSGID": "WTPZ25 KNHC 090240", "VALIDTIME": "2024-08-04 12:00:00" }, "geometry": { "type": "Point", "coordinates": [ -112.800003, 15.9 ] } },
{ "type": "Feature", "properties": { "ID": 229448, "LAT": 15.7, "LON": -113.1, "VMAX": 30.0, "MSLP": 1007.0, "RMAX": 70.0, "FSPD": 2.57222, "FDIR": 179.99997, "RENV": 140.0, "PENV": 1010.0, "VALIDT": 0, "DTG": "2024-08-04 18:00", "LATNOW": 22.1, "LONNOW": -124.8, "WINDNOW": 30.0, "DIRNOW": 5.0, "SPDNOW": 3.0, "TECH": "TRAK", "ADVNR": 19, "ATCFID": "EP052024", "NAME": "EMILIA", "FTECH": "OFCL", "FCST_DTG": "2024-08-09 00:00:00", "RUN_DTG": "2024-08-09 15:44:32", "BASIN": "EP", "STMNR": 5, "CAT_ID": null, "CAT_DESC": null, "MSGID": "WTPZ25 KNHC 090240", "VALIDTIME": "2024-08-04 18:00:00" }, "geometry": { "type": "Point", "coordinates": [ -113.099998, 15.7 ] } },
{ "type": "Feature", "properties": { "ID": 229449, "LAT": 15.2, "LON": -113.1, "VMAX": 35.0, "MSLP": 1003.0, "RMAX": 60.0, "FSPD": 4.58703, "FDIR": 257.03802, "RENV": 130.0, "PENV": 1009.0, "VALIDT": 0, "DTG": "2024-08-05 00:00", "LATNOW": 22.1, "LONNOW": -124.8, "WINDNOW": 30.0, "DIRNOW": 5.0, "SPDNOW": 3.0, "TECH": "TRAK", "ADVNR": 19, "ATCFID": "EP052024", "NAME": "EMILIA", "FTECH": "OFCL", "FCST_DTG": "2024-08-09 00:00:00", "RUN_DTG": "2024-08-09 15:44:32", "BASIN": "EP", "STMNR": 5, "CAT_ID": null, "CAT_DESC": null, "MSGID": "WTPZ25 KNHC 090240", "VALIDTIME": "2024-08-05 00:00:00" }, "geometry": { "type": "Point", "coordinates": [ -113.099998, 15.2 ] } },
{ "type": "Feature", "properties": { "ID": 229450, "LAT": 15.0, "LON": -114.0, "VMAX": 35.0, "MSLP": 1003.0, "RMAX": 60.0, "FSPD": 1.62146, "FDIR": 197.85864, "RENV": 130.0, "PENV": 1009.0, "VALIDT": 0, "DTG": "2024-08-05 06:00", "LATNOW": 22.1, "LONNOW": -124.8, "WINDNOW": 30.0, "DIRNOW": 5.0, "SPDNOW": 3.0, "TECH": "TRAK", "ADVNR": 19, "ATCFID": "EP052024", "NAME": "EMILIA", "FTECH": "OFCL", "FCST_DTG": "2024-08-09 00:00:00", "RUN_DTG": "2024-08-09 15:44:32", "BASIN": "EP", "STMNR": 5, "CAT_ID": null, "CAT_DESC": null, "MSGID": "WTPZ25 KNHC 090240", "VALIDTIME": "2024-08-05 06:00:00" }, "geometry": { "type": "Point", "coordinates": [ -114.0, 15.0 ] } },
{ "type": "Feature", "properties": { "ID": 229451, "LAT": 14.7, "LON": -114.1, "VMAX": 40.0, "MSLP": 1001.0, "RMAX": 60.0, "FSPD": 4.65677, "FDIR": 173.85342, "RENV": 130.0, "PENV": 1009.0, "VALIDT": 0, "DTG": "2024-08-05 12:00", "LATNOW": 22.1, "LONNOW": -124.8, "WINDNOW": 30.0, "DIRNOW": 5.0, "SPDNOW": 3.0, "TECH": "TRAK", "ADVNR": 19, "ATCFID": "EP052024", "NAME": "EMILIA", "FTECH": "OFCL", "FCST_DTG": "2024-08-09 00:00:00", "RUN_DTG": "2024-08-09 15:44:32", "BASIN": "EP", "STMNR": 5, "CAT_ID": null, "CAT_DESC": null, "MSGID": "WTPZ25 KNHC 090240", "VALIDTIME": "2024-08-05 12:00:00" }, "geometry": { "type": "Point", "coordinates": [ -114.099998, 14.7 ] } },
{ "type": "Feature", "properties": { "ID": 229452, "LAT": 13.8, "LON": -114.0, "VMAX": 40.0, "MSLP": 1001.0, "RMAX": 60.0, "FSPD": 1.12402, "FDIR": 242.7623, "RENV": 130.0, "PENV": 1009.0, "VALIDT": 0, "DTG": "2024-08-05 18:00", "LATNOW": 22.1, "LONNOW": -124.8, "WINDNOW": 30.0, "DIRNOW": 5.0, "SPDNOW": 3.0, "TECH": "TRAK", "ADVNR": 19, "ATCFID": "EP052024", "NAME": "EMILIA", "FTECH": "OFCL", "FCST_DTG": "2024-08-09 00:00:00", "RUN_DTG": "2024-08-09 15:44:32", "BASIN": "EP", "STMNR": 5, "CAT_ID": null, "CAT_DESC": null, "MSGID": "WTPZ25 KNHC 090240", "VALIDTIME": "2024-08-05 18:00:00" }, "geometry": { "type": "Point", "coordinates": [ -114.0, 13.8 ] } },
{ "type": "Feature", "properties": { "ID": 229453, "LAT": 13.7, "LON": -114.2, "VMAX": 45.0, "MSLP": 997.0, "RMAX": 50.0, "FSPD": 2.06478, "FDIR": 255.5727, "RENV": 140.0, "PENV": 1008.0, "VALIDT": 0, "DTG": "2024-08-06 00:00", "LATNOW": 22.1, "LONNOW": -124.8, "WINDNOW": 30.0, "DIRNOW": 5.0, "SPDNOW": 3.0, "TECH": "TRAK", "ADVNR": 19, "ATCFID": "EP052024", "NAME": "EMILIA", "FTECH": "OFCL", "FCST_DTG": "2024-08-09 00:00:00", "RUN_DTG": "2024-08-09 15:44:32", "BASIN": "EP", "STMNR": 5, "CAT_ID": null, "CAT_DESC": null, "MSGID": "WTPZ25 KNHC 090240", "VALIDTIME": "2024-08-06 00:00:00" }, "geometry": { "type": "Point", "coordinates": [ -114.199997, 13.7 ] } },
{ "type": "Feature", "properties": { "ID": 229454, "LAT": 13.6, "LON": -114.6, "VMAX": 55.0, "MSLP": 993.0, "RMAX": 50.0, "FSPD": 2.06478, "FDIR": 284.42725, "RENV": 140.0, "PENV": 1008.0, "VALIDT": 0, "DTG": "2024-08-06 06:00", "LATNOW": 22.1, "LONNOW": -124.8, "WINDNOW": 30.0, "DIRNOW": 5.0, "SPDNOW": 3.0, "TECH": "TRAK", "ADVNR": 19, "ATCFID": "EP052024", "NAME": "EMILIA", "FTECH": "OFCL", "FCST_DTG": "2024-08-09 00:00:00", "RUN_DTG": "2024-08-09 15:44:32", "BASIN": "EP", "STMNR": 5, "CAT_ID": null, "CAT_DESC": null, "MSGID": "WTPZ25 KNHC 090240", "VALIDTIME": "2024-08-06 06:00:00" }, "geometry": { "type": "Point", "coordinates": [ -114.599998, 13.6 ] } },
{ "type": "Feature", "properties": { "ID": 229455, "LAT": 13.7, "LON": -115.0, "VMAX": 55.0, "MSLP": 993.0, "RMAX": 50.0, "FSPD": 1.62215, "FDIR": 342.0665, "RENV": 140.0, "PENV": 1007.0, "VALIDT": 0, "DTG": "2024-08-06 12:00", "LATNOW": 22.1, "LONNOW": -124.8, "WINDNOW": 30.0, "DIRNOW": 5.0, "SPDNOW": 3.0, "TECH": "TRAK", "ADVNR": 19, "ATCFID": "EP052024", "NAME": "EMILIA", "FTECH": "OFCL", "FCST_DTG": "2024-08-09 00:00:00", "RUN_DTG": "2024-08-09 15:44:32", "BASIN": "EP", "STMNR": 5, "CAT_ID": null, "CAT_DESC": null, "MSGID": "WTPZ25 KNHC 090240", "VALIDTIME": "2024-08-06 12:00:00" }, "geometry": { "type": "Point", "coordinates": [ -115.0, 13.7 ] } },
{ "type": "Feature", "properties": { "ID": 229456, "LAT": 14.0, "LON": -115.1, "VMAX": 55.0, "MSLP": 992.0, "RMAX": 40.0, "FSPD": 5.68076, "FDIR": 354.97137, "RENV": 120.0, "PENV": 1007.0, "VALIDT": 0, "DTG": "2024-08-06 18:00", "LATNOW": 22.1, "LONNOW": -124.8, "WINDNOW": 30.0, "DIRNOW": 5.0, "SPDNOW": 3.0, "TECH": "TRAK", "ADVNR": 19, "ATCFID": "EP052024", "NAME": "EMILIA", "FTECH": "OFCL", "FCST_DTG": "2024-08-09 00:00:00", "RUN_DTG": "2024-08-09 15:44:32", "BASIN": "EP", "STMNR": 5, "CAT_ID": null, "CAT_DESC": null, "MSGID": "WTPZ25 KNHC 090240", "VALIDTIME": "2024-08-06 18:00:00" }, "geometry": { "type": "Point", "coordinates": [ -115.099998, 14.0 ] } },
{ "type": "Feature", "properties": { "ID": 229457, "LAT": 15.1, "LON": -115.2, "VMAX": 55.0, "MSLP": 990.0, "RMAX": 30.0, "FSPD": 8.21914, "FDIR": 331.19617, "RENV": 130.0, "PENV": 1006.0, "VALIDT": 0, "DTG": "2024-08-07 00:00", "LATNOW": 22.1, "LONNOW": -124.8, "WINDNOW": 30.0, "DIRNOW": 5.0, "SPDNOW": 3.0, "TECH": "TRAK", "ADVNR": 19, "ATCFID": "EP052024", "NAME": "EMILIA", "FTECH": "OFCL", "FCST_DTG": "2024-08-09 00:00:00", "RUN_DTG": "2024-08-09 15:44:32", "BASIN": "EP", "STMNR": 5, "CAT_ID": null, "CAT_DESC": null, "MSGID": "WTPZ25 KNHC 090240", "VALIDTIME": "2024-08-07 00:00:00" }, "geometry": { "type": "Point", "coordinates": [ -115.199997, 15.1 ] } },
{ "type": "Feature", "properties": { "ID": 229458, "LAT": 16.5, "LON": -116.0, "VMAX": 55.0, "MSLP": 993.0, "RMAX": 30.0, "FSPD": 3.24023, "FDIR": 322.54572, "RENV": 130.0, "PENV": 1007.0, "VALIDT": 0, "DTG": "2024-08-07 06:00", "LATNOW": 22.1, "LONNOW": -124.8, "WINDNOW": 30.0, "DIRNOW": 5.0, "SPDNOW": 3.0, "TECH": "TRAK", "ADVNR": 19, "ATCFID": "EP052024", "NAME": "EMILIA", "FTECH": "OFCL", "FCST_DTG": "2024-08-09 00:00:00", "RUN_DTG": "2024-08-09 15:44:32", "BASIN": "EP", "STMNR": 5, "CAT_ID": null, "CAT_DESC": null, "MSGID": "WTPZ25 KNHC 090240", "VALIDTIME": "2024-08-07 06:00:00" }, "geometry": { "type": "Point", "coordinates": [ -116.0, 16.5 ] } },
{ "type": "Feature", "properties": { "ID": 229459, "LAT": 17.0, "LON": -116.4, "VMAX": 60.0, "MSLP": 988.0, "RMAX": 30.0, "FSPD": 8.74004, "FDIR": 340.351, "RENV": 130.0, "PENV": 1007.0, "VALIDT": 0, "DTG": "2024-08-07 12:00", "LATNOW": 22.1, "LONNOW": -124.8, "WINDNOW": 30.0, "DIRNOW": 5.0, "SPDNOW": 3.0, "TECH": "TRAK", "ADVNR": 19, "ATCFID": "EP052024", "NAME": "EMILIA", "FTECH": "OFCL", "FCST_DTG": "2024-08-09 00:00:00", "RUN_DTG": "2024-08-09 15:44:32", "BASIN": "EP", "STMNR": 5, "CAT_ID": null, "CAT_DESC": null, "MSGID": "WTPZ25 KNHC 090240", "VALIDTIME": "2024-08-07 12:00:00" }, "geometry": { "type": "Point", "coordinates": [ -116.400002, 17.0 ] } },
{ "type": "Feature", "properties": { "ID": 229460, "LAT": 18.6, "LON": -117.0, "VMAX": 55.0, "MSLP": 990.0, "RMAX": 30.0, "FSPD": 13.09909, "FDIR": 308.93018, "RENV": 150.0, "PENV": 1012.0, "VALIDT": 0, "DTG": "2024-08-07 18:00", "LATNOW": 22.1, "LONNOW": -124.8, "WINDNOW": 30.0, "DIRNOW": 5.0, "SPDNOW": 3.0, "TECH": "TRAK", "ADVNR": 19, "ATCFID": "EP052024", "NAME": "EMILIA", "FTECH": "OFCL", "FCST_DTG": "2024-08-09 00:00:00", "RUN_DTG": "2024-08-09 15:44:32", "BASIN": "EP", "STMNR": 5, "CAT_ID": null, "CAT_DESC": null, "MSGID": "WTPZ25 KNHC 090240", "VALIDTIME": "2024-08-07 18:00:00" }, "geometry": { "type": "Point", "coordinates": [ -117.0, 18.6 ] } },
{ "type": "Feature", "properties": { "ID": 229461, "LAT": 20.2, "LON": -119.1, "VMAX": 50.0, "MSLP": 993.0, "RMAX": 40.0, "FSPD": 9.83543, "FDIR": 291.4775, "RENV": 150.0, "PENV": 1012.0, "VALIDT": 0, "DTG": "2024-08-08 00:00", "LATNOW": 22.1, "LONNOW": -124.8, "WINDNOW": 30.0, "DIRNOW": 5.0, "SPDNOW": 3.0, "TECH": "TRAK", "ADVNR": 19, "ATCFID": "EP052024", "NAME": "EMILIA", "FTECH": "OFCL", "FCST_DTG": "2024-08-09 00:00:00", "RUN_DTG": "2024-08-09 15:44:32", "BASIN": "EP", "STMNR": 5, "CAT_ID": null, "CAT_DESC": null, "MSGID": "WTPZ25 KNHC 090240", "VALIDTIME": "2024-08-08 00:00:00" }, "geometry": { "type": "Point", "coordinates": [ -119.099998, 20.200001 ] } },
{ "type": "Feature", "properties": { "ID": 229462, "LAT": 20.9, "LON": -121.0, "VMAX": 40.0, "MSLP": 1000.0, "RMAX": 40.0, "FSPD": 8.22924, "FDIR": 277.1824, "RENV": 150.0, "PENV": 1011.0, "VALIDT": 0, "DTG": "2024-08-08 06:00", "LATNOW": 22.1, "LONNOW": -124.8, "WINDNOW": 30.0, "DIRNOW": 5.0, "SPDNOW": 3.0, "TECH": "TRAK", "ADVNR": 19, "ATCFID": "EP052024", "NAME": "EMILIA", "FTECH": "OFCL", "FCST_DTG": "2024-08-09 00:00:00", "RUN_DTG": "2024-08-09 15:44:32", "BASIN": "EP", "STMNR": 5, "CAT_ID": null, "CAT_DESC": null, "MSGID": "WTPZ25 KNHC 090240", "VALIDTIME": "2024-08-08 06:00:00" }, "geometry": { "type": "Point", "coordinates": [ -121.0, 20.9 ] } },
{ "type": "Feature", "properties": { "ID": 229463, "LAT": 21.1, "LON": -122.7, "VMAX": 35.0, "MSLP": 1002.0, "RMAX": 50.0, "FSPD": 4.13459, "FDIR": 291.9176, "RENV": 150.0, "PENV": 1010.0, "VALIDT": 0, "DTG": "2024-08-08 12:00", "LATNOW": 22.1, "LONNOW": -124.8, "WINDNOW": 30.0, "DIRNOW": 5.0, "SPDNOW": 3.0, "TECH": "TRAK", "ADVNR": 19, "ATCFID": "EP052024", "NAME": "EMILIA", "FTECH": "OFCL", "FCST_DTG": "2024-08-09 00:00:00", "RUN_DTG": "2024-08-09 15:44:32", "BASIN": "EP", "STMNR": 5, "CAT_ID": null, "CAT_DESC": null, "MSGID": "WTPZ25 KNHC 090240", "VALIDTIME": "2024-08-08 12:00:00" }, "geometry": { "type": "Point", "coordinates": [ -122.699997, 21.1 ] } },
{ "type": "Feature", "properties": { "ID": 229464, "LAT": 21.4, "LON": -123.5, "VMAX": 35.0, "MSLP": 1002.0, "RMAX": 50.0, "FSPD": 7.18005, "FDIR": 300.10223, "RENV": 150.0, "PENV": 1010.0, "VALIDT": 0, "DTG": "2024-08-08 18:00", "LATNOW": 22.1, "LONNOW": -124.8, "WINDNOW": 30.0, "DIRNOW": 5.0, "SPDNOW": 3.0, "TECH": "TRAK", "ADVNR": 19, "ATCFID": "EP052024", "NAME": "EMILIA", "FTECH": "OFCL", "FCST_DTG": "2024-08-09 00:00:00", "RUN_DTG": "2024-08-09 15:44:32", "BASIN": "EP", "STMNR": 5, "CAT_ID": null, "CAT_DESC": null, "MSGID": "WTPZ25 KNHC 090240", "VALIDTIME": "2024-08-08 18:00:00" }, "geometry": { "type": "Point", "coordinates": [ -123.5, 21.4 ] } },
{ "type": "Feature", "properties": { "ID": 229465, "LAT": 22.1, "LON": -124.8, "VMAX": 30.0, "MSLP": 1004.0, "RMAX": 60.0, "FSPD": 5.18859, "FDIR": 293.36545, "RENV": 150.0, "PENV": 1010.0, "VALIDT": 0, "DTG": "2024-08-09 00:00", "LATNOW": 22.1, "LONNOW": -124.8, "WINDNOW": 30.0, "DIRNOW": 5.0, "SPDNOW": 3.0, "TECH": "TRAK", "ADVNR": 19, "ATCFID": "EP052024", "NAME": "EMILIA", "FTECH": "OFCL", "FCST_DTG": "2024-08-09 00:00:00", "RUN_DTG": "2024-08-09 15:44:32", "BASIN": "EP", "STMNR": 5, "CAT_ID": null, "CAT_DESC": null, "MSGID": "WTPZ25 KNHC 090240", "VALIDTIME": "2024-08-09 00:00:00" }, "geometry": { "type": "Point", "coordinates": [ -124.800003, 22.1 ] } },
{ "type": "Feature", "properties": { "ID": 229466, "LAT": 22.3, "LON": -125.3, "VMAX": 30.0, "MSLP": 1004.0, "RMAX": 60.0, "FSPD": 5.76258, "FDIR": 290.92175, "RENV": 250.0, "PENV": 1012.0, "VALIDT": 3, "DTG": "2024-08-09 03:00", "LATNOW": 22.1, "LONNOW": -124.8, "WINDNOW": 30.0, "DIRNOW": 5.0, "SPDNOW": 3.0, "TECH": "FCST", "ADVNR": 19, "ATCFID": "EP052024", "NAME": "EMILIA", "FTECH": "OFCL", "FCST_DTG": "2024-08-09 00:00:00", "RUN_DTG": "2024-08-09 15:44:32", "BASIN": "EP", "STMNR": 5, "CAT_ID": null, "CAT_DESC": null, "MSGID": "WTPZ25 KNHC 090240", "VALIDTIME": "2024-08-09 03:00:00" }, "geometry": { "type": "Point", "coordinates": [ -125.300003, 22.299999 ] } },
{ "type": "Feature", "properties": { "ID": 229467, "LAT": 22.9, "LON": -127.0, "VMAX": 30.0, "MSLP": 1010.40607, "RMAX": 67.13878, "FSPD": 4.97394, "FDIR": 288.07635, "RENV": 250.0, "PENV": 1012.0, "VALIDT": 12, "DTG": "2024-08-09 12:00", "LATNOW": 22.1, "LONNOW": -124.8, "WINDNOW": 30.0, "DIRNOW": 5.0, "SPDNOW": 3.0, "TECH": "FCST", "ADVNR": 19, "ATCFID": "EP052024", "NAME": "EMILIA", "FTECH": "OFCL", "FCST_DTG": "2024-08-09 00:00:00", "RUN_DTG": "2024-08-09 15:44:32", "BASIN": "EP", "STMNR": 5, "CAT_ID": null, "CAT_DESC": null, "MSGID": "WTPZ25 KNHC 090240", "VALIDTIME": "2024-08-09 12:00:00" }, "geometry": { "type": "Point", "coordinates": [ -127.0, 22.9 ] } },
{ "type": "Feature", "properties": { "ID": 229468, "LAT": 23.5, "LON": -129.0, "VMAX": 25.0, "MSLP": 1011.80975, "RMAX": 68.3233, "FSPD": 4.95352, "FDIR": 288.15344, "RENV": 250.0, "PENV": 1012.0, "VALIDT": 24, "DTG": "2024-08-10 00:00", "LATNOW": 22.1, "LONNOW": -124.8, "WINDNOW": 30.0, "DIRNOW": 5.0, "SPDNOW": 3.0, "TECH": "FCST", "ADVNR": 19, "ATCFID": "EP052024", "NAME": "EMILIA", "FTECH": "OFCL", "FCST_DTG": "2024-08-09 00:00:00", "RUN_DTG": "2024-08-09 15:44:32", "BASIN": "EP", "STMNR": 5, "CAT_ID": null, "CAT_DESC": null, "MSGID": "WTPZ25 KNHC 090240", "VALIDTIME": "2024-08-10 00:00:00" }, "geometry": { "type": "Point", "coordinates": [ -129.0, 23.5 ] } },
{ "type": "Feature", "properties": { "ID": 229469, "LAT": 24.1, "LON": -131.0, "VMAX": 25.0, "MSLP": 1011.80975, "RMAX": 68.3233, "FSPD": 4.18624, "FDIR": 287.89197, "RENV": 250.0, "PENV": 1012.0, "VALIDT": 36, "DTG": "2024-08-10 12:00", "LATNOW": 22.1, "LONNOW": -124.8, "WINDNOW": 30.0, "DIRNOW": 5.0, "SPDNOW": 3.0, "TECH": "FCST", "ADVNR": 19, "ATCFID": "EP052024", "NAME": "EMILIA", "FTECH": "OFCL", "FCST_DTG": "2024-08-09 00:00:00", "RUN_DTG": "2024-08-09 15:44:32", "BASIN": "EP", "STMNR": 5, "CAT_ID": null, "CAT_DESC": null, "MSGID": "WTPZ25 KNHC 090240", "VALIDTIME": "2024-08-10 12:00:00" }, "geometry": { "type": "Point", "coordinates": [ -131.0, 24.1 ] } },
{ "type": "Feature", "properties": { "ID": 229470, "LAT": 24.6, "LON": -132.7, "VMAX": 20.0, "MSLP": 1012.95825, "RMAX": 68.3233, "FSPD": 4.23774, "FDIR": 276.9726, "RENV": 250.0, "PENV": 1012.0, "VALIDT": 48, "DTG": "2024-08-11 00:00", "LATNOW": 22.1, "LONNOW": -124.8, "WINDNOW": 30.0, "DIRNOW": 5.0, "SPDNOW": 3.0, "TECH": "FCST", "ADVNR": 19, "ATCFID": "EP052024", "NAME": "EMILIA", "FTECH": "OFCL", "FCST_DTG": "2024-08-09 00:00:00", "RUN_DTG": "2024-08-09 15:44:32", "BASIN": "EP", "STMNR": 5, "CAT_ID": null, "CAT_DESC": null, "MSGID": "WTPZ25 KNHC 090240", "VALIDTIME": "2024-08-11 00:00:00" }, "geometry": { "type": "Point", "coordinates": [ -132.699997, 24.6 ] } },
{ "type": "Feature", "properties": { "ID": 229471, "LAT": 24.8, "LON": -134.5, "VMAX": 20.0, "MSLP": 1012.95825, "RMAX": 68.3233, "FSPD": 4.91224, "FDIR": 266.9984, "RENV": 250.0, "PENV": 1012.0, "VALIDT": 60, "DTG": "2024-08-11 12:00", "LATNOW": 22.1, "LONNOW": -124.8, "WINDNOW": 30.0, "DIRNOW": 5.0, "SPDNOW": 3.0, "TECH": "FCST", "ADVNR": 19, "ATCFID": "EP052024", "NAME": "EMILIA", "FTECH": "OFCL", "FCST_DTG": "2024-08-09 00:00:00", "RUN_DTG": "2024-08-09 15:44:32", "BASIN": "EP", "STMNR": 5, "CAT_ID": null, "CAT_DESC": null, "MSGID": "WTPZ25 KNHC 090240", "VALIDTIME": "2024-08-11 12:00:00" }, "geometry": { "type": "Point", "coordinates": [ -134.5, 24.799999 ] } },
{ "type": "Feature", "properties": { "ID": 229472, "LAT": 24.7, "LON": -136.6, "VMAX": 20.0, "MSLP": 1012.95825, "RMAX": 68.3233, "FSPD": 4.91224, "FDIR": 266.9984, "RENV": 250.0, "PENV": 1012.0, "VALIDT": 72, "DTG": "2024-08-12 00:00", "LATNOW": 22.1, "LONNOW": -124.8, "WINDNOW": 30.0, "DIRNOW": 5.0, "SPDNOW": 3.0, "TECH": "FCST", "ADVNR": 19, "ATCFID": "EP052024", "NAME": "EMILIA", "FTECH": "OFCL", "FCST_DTG": "2024-08-09 00:00:00", "RUN_DTG": "2024-08-09 15:44:32", "BASIN": "EP", "STMNR": 5, "CAT_ID": null, "CAT_DESC": null, "MSGID": "WTPZ25 KNHC 090240", "VALIDTIME": "2024-08-12 00:00:00" }, "geometry": { "type": "Point", "coordinates": [ -136.600006, 24.700001 ] } },
{ "type": "Feature", "properties": { "ID": 229465, "LAT": 22.1, "LON": -124.8, "VMAX": 30.0, "MSLP": 1004.0, "RMAX": 60.0, "FSPD": 5.18859, "FDIR": 293.36545, "RENV": 150.0, "PENV": 1010.0, "VALIDT": 0, "DTG": "2024-08-09 00:00", "LATNOW": 22.1, "LONNOW": -124.8, "WINDNOW": 30.0, "DIRNOW": 5.0, "SPDNOW": 3.0, "TECH": "TRAK", "ADVNR": 19, "ATCFID": "EP052024", "NAME": "EMILIA", "FTECH": "OFCL", "FCST_DTG": "2024-08-09 00:00:00", "RUN_DTG": "2024-08-09 15:44:32", "BASIN": "EP", "STMNR": 5, "CAT_ID": null, "CAT_DESC": null, "MSGID": "WTPZ25 KNHC 090240", "VALIDTIME": "2024-08-09 00:00:00" }, "geometry": { "type": "LineString", "coordinates": [ [ -112.9, 15.7 ], [ -112.9, 15.8 ], [ -112.8, 15.9 ], [ -113.1, 15.7 ], [ -113.1, 15.2 ], [ -114.0, 15.0 ], [ -114.1, 14.7 ], [ -114.0, 13.8 ], [ -114.2, 13.7 ], [ -114.6, 13.6 ], [ -115.0, 13.7 ], [ -115.1, 14.0 ], [ -115.2, 15.1 ], [ -116.0, 16.5 ], [ -116.4, 17.0 ], [ -117.0, 18.6 ], [ -119.1, 20.2 ], [ -121.0, 20.9 ], [ -122.7, 21.1 ], [ -123.5, 21.4 ], [ -124.8, 22.1 ] ] } },
{ "type": "Feature", "properties": { "ID": 229472, "LAT": 24.7, "LON": -136.6, "VMAX": 20.0, "MSLP": 1012.95825, "RMAX": 68.3233, "FSPD": 4.91224, "FDIR": 266.9984, "RENV": 250.0, "PENV": 1012.0, "VALIDT": 72, "DTG": "2024-08-12 00:00", "LATNOW": 22.1, "LONNOW": -124.8, "WINDNOW": 30.0, "DIRNOW": 5.0, "SPDNOW": 3.0, "TECH": "FCST", "ADVNR": 19, "ATCFID": "EP052024", "NAME": "EMILIA", "FTECH": "OFCL", "FCST_DTG": "2024-08-09 00:00:00", "RUN_DTG": "2024-08-09 15:44:32", "BASIN": "EP", "STMNR": 5, "CAT_ID": null, "CAT_DESC": null, "MSGID": "WTPZ25 KNHC 090240", "VALIDTIME": "2024-08-12 00:00:00" }, "geometry": { "type": "LineString", "coordinates": [ [ -124.8, 22.1 ], [ -125.3, 22.3 ], [ -127.0, 22.9 ], [ -129.0, 23.5 ], [ -131.0, 24.1 ], [ -132.7, 24.6 ], [ -134.5, 24.8 ], [ -136.6, 24.7 ] ] } }
]
}
