{
"type": "FeatureCollection",
"crs": { "type": "name", "properties": { "name": "urn:ogc:def:crs:OGC:1.3:CRS84" } },
"features": [
{ "type": "Feature", "properties": { "ID": 14734, "LAT": 24.5, "LON": 162.8, "VMAX": 15.0, "MSLP": 1013.8515, "RMAX": 40.0, "FSPD": 2.1379, "FDIR": 241.23196, "RENV": 500.0, "PENV": 1012.0, "VALIDT": 0, "DTG": "2025-08-04 00:00", "LATNOW": 33.0, "LONNOW": 156.6, "WINDNOW": 25.0, "DIRNOW": 9.0, "SPDNOW": 1.0, "TECH": "TRAK", "ADVNR": 5, "ATCFID": "WP152025", "NAME": "FIFTEEN", "FTECH": "JTWC", "FCST_DTG": "2025-08-07 00:00:00", "RUN_DTG": "2025-08-07 16:28:35", "BASIN": "WP", "STMNR": 15, "CAT_ID": null, "CAT_DESC": null, "MSGID": "WTPN51 PGTW 070300", "VALIDTIME": "2025-08-04 00:00:00" }, "geometry": { "type": "Point", "coordinates": [ 162.800003, 24.5 ] } },
{ "type": "Feature", "properties": { "ID": 14735, "LAT": 24.3, "LON": 162.4, "VMAX": 15.0, "MSLP": 1013.8515, "RMAX": 40.0, "FSPD": 2.43052, "FDIR": 230.58151, "RENV": 500.0, "PENV": 1012.0, "VALIDT": 0, "DTG": "2025-08-04 06:00", "LATNOW": 33.0, "LONNOW": 156.6, "WINDNOW": 25.0, "DIRNOW": 9.0, "SPDNOW": 1.0, "TECH": "TRAK", "ADVNR": 5, "ATCFID": "WP152025", "NAME": "FIFTEEN", "FTECH": "JTWC", "FCST_DTG": "2025-08-07 00:00:00", "RUN_DTG": "2025-08-07 16:28:35", "BASIN": "WP", "STMNR": 15, "CAT_ID": null, "CAT_DESC": null, "MSGID": "WTPN51 PGTW 070300", "VALIDTIME": "2025-08-04 06:00:00" }, "geometry": { "type": "Point", "coordinates": [ 162.399994, 24.299999 ] } },
{ "type": "Feature", "properties": { "ID": 14736, "LAT": 24.0, "LON": 162.0, "VMAX": 15.0, "MSLP": 1013.8515, "RMAX": 40.0, "FSPD": 5.73575, "FDIR": 350.60947, "RENV": 500.0, "PENV": 1012.0, "VALIDT": 0, "DTG": "2025-08-04 12:00", "LATNOW": 33.0, "LONNOW": 156.6, "WINDNOW": 25.0, "DIRNOW": 9.0, "SPDNOW": 1.0, "TECH": "TRAK", "ADVNR": 5, "ATCFID": "WP152025", "NAME": "FIFTEEN", "FTECH": "JTWC", "FCST_DTG": "2025-08-07 00:00:00", "RUN_DTG": "2025-08-07 16:28:35", "BASIN": "WP", "STMNR": 15, "CAT_ID": null, "CAT_DESC": null, "MSGID": "WTPN51 PGTW 070300", "VALIDTIME": "2025-08-04 12:00:00" }, "geometry": { "type": "Point", "coordinates": [ 162.0, 24.0 ] } },
{ "type": "Feature", "properties": { "ID": 14737, "LAT": 25.1, "LON": 161.8, "VMAX": 15.0, "MSLP": 1013.8515, "RMAX": 40.0, "FSPD": 6.56842, "FDIR": 293.05438, "RENV": 500.0, "PENV": 1012.0, "VALIDT": 0, "DTG": "2025-08-04 18:00", "LATNOW": 33.0, "LONNOW": 156.6, "WINDNOW": 25.0, "DIRNOW": 9.0, "SPDNOW": 1.0, "TECH": "TRAK", "ADVNR": 5, "ATCFID": "WP152025", "NAME": "FIFTEEN", "FTECH": "JTWC", "FCST_DTG": "2025-08-07 00:00:00", "RUN_DTG": "2025-08-07 16:28:35", "BASIN": "WP", "STMNR": 15, "CAT_ID": null, "CAT_DESC": null, "MSGID": "WTPN51 PGTW 070300", "VALIDTIME": "2025-08-04 18:00:00" }, "geometry": { "type": "Point", "coordinates": [ 161.800003, 25.1 ] } },
{ "type": "Feature", "properties": { "ID": 14738, "LAT": 25.6, "LON": 160.5, "VMAX": 20.0, "MSLP": 1012.95825, "RMAX": 45.0, "FSPD": 4.4745, "FDIR": 313.617, "RENV": 500.0, "PENV": 1012.0, "VALIDT": 0, "DTG": "2025-08-05 00:00", "LATNOW": 33.0, "LONNOW": 156.6, "WINDNOW": 25.0, "DIRNOW": 9.0, "SPDNOW": 1.0, "TECH": "TRAK", "ADVNR": 5, "ATCFID": "WP152025", "NAME": "FIFTEEN", "FTECH": "JTWC", "FCST_DTG": "2025-08-07 00:00:00", "RUN_DTG": "2025-08-07 16:28:35", "BASIN": "WP", "STMNR": 15, "CAT_ID": null, "CAT_DESC": null, "MSGID": "WTPN51 PGTW 070300", "VALIDTIME": "2025-08-05 00:00:00" }, "geometry": { "type": "Point", "coordinates": [ 160.5, 25.6 ] } },
{ "type": "Feature", "properties": { "ID": 14739, "LAT": 26.2, "LON": 159.8, "VMAX": 20.0, "MSLP": 1012.95825, "RMAX": 45.0, "FSPD": 6.08316, "FDIR": 279.73758, "RENV": 500.0, "PENV": 1012.0, "VALIDT": 0, "DTG": "2025-08-05 06:00", "LATNOW": 33.0, "LONNOW": 156.6, "WINDNOW": 25.0, "DIRNOW": 9.0, "SPDNOW": 1.0, "TECH": "TRAK", "ADVNR": 5, "ATCFID": "WP152025", "NAME": "FIFTEEN", "FTECH": "JTWC", "FCST_DTG": "2025-08-07 00:00:00", "RUN_DTG": "2025-08-07 16:28:35", "BASIN": "WP", "STMNR": 15, "CAT_ID": null, "CAT_DESC": null, "MSGID": "WTPN51 PGTW 070300", "VALIDTIME": "2025-08-05 06:00:00" }, "geometry": { "type": "Point", "coordinates": [ 159.800003, 26.200001 ] } },
{ "type": "Feature", "properties": { "ID": 14740, "LAT": 26.4, "LON": 158.5, "VMAX": 25.0, "MSLP": 1011.80975, "RMAX": 45.0, "FSPD": 8.28183, "FDIR": 353.65616, "RENV": 500.0, "PENV": 1012.0, "VALIDT": 0, "DTG": "2025-08-05 12:00", "LATNOW": 33.0, "LONNOW": 156.6, "WINDNOW": 25.0, "DIRNOW": 9.0, "SPDNOW": 1.0, "TECH": "TRAK", "ADVNR": 5, "ATCFID": "WP152025", "NAME": "FIFTEEN", "FTECH": "JTWC", "FCST_DTG": "2025-08-07 00:00:00", "RUN_DTG": "2025-08-07 16:28:35", "BASIN": "WP", "STMNR": 15, "CAT_ID": null, "CAT_DESC": null, "MSGID": "WTPN51 PGTW 070300", "VALIDTIME": "2025-08-05 12:00:00" }, "geometry": { "type": "Point", "coordinates": [ 158.5, 26.4 ] } },
{ "type": "Feature", "properties": { "ID": 14741, "LAT": 28.0, "LON": 158.3, "VMAX": 25.0, "MSLP": 1011.80975, "RMAX": 45.0, "FSPD": 3.7824, "FDIR": 302.95905, "RENV": 500.0, "PENV": 1012.0, "VALIDT": 0, "DTG": "2025-08-05 18:00", "LATNOW": 33.0, "LONNOW": 156.6, "WINDNOW": 25.0, "DIRNOW": 9.0, "SPDNOW": 1.0, "TECH": "TRAK", "ADVNR": 5, "ATCFID": "WP152025", "NAME": "FIFTEEN", "FTECH": "JTWC", "FCST_DTG": "2025-08-07 00:00:00", "RUN_DTG": "2025-08-07 16:28:35", "BASIN": "WP", "STMNR": 15, "CAT_ID": null, "CAT_DESC": null, "MSGID": "WTPN51 PGTW 070300", "VALIDTIME": "2025-08-05 18:00:00" }, "geometry": { "type": "Point", "coordinates": [ 158.300003, 28.0 ] } },
{ "type": "Feature", "properties": { "ID": 14742, "LAT": 28.4, "LON": 157.6, "VMAX": 25.0, "MSLP": 1011.80975, "RMAX": 45.0, "FSPD": 2.26265, "FDIR": 269.99997, "RENV": 500.0, "PENV": 1012.0, "VALIDT": 0, "DTG": "2025-08-06 00:00", "LATNOW": 33.0, "LONNOW": 156.6, "WINDNOW": 25.0, "DIRNOW": 9.0, "SPDNOW": 1.0, "TECH": "TRAK", "ADVNR": 5, "ATCFID": "WP152025", "NAME": "FIFTEEN", "FTECH": "JTWC", "FCST_DTG": "2025-08-07 00:00:00", "RUN_DTG": "2025-08-07 16:28:35", "BASIN": "WP", "STMNR": 15, "CAT_ID": null, "CAT_DESC": null, "MSGID": "WTPN51 PGTW 070300", "VALIDTIME": "2025-08-06 00:00:00" }, "geometry": { "type": "Point", "coordinates": [ 157.600006, 28.4 ] } },
{ "type": "Feature", "properties": { "ID": 14743, "LAT": 28.4, "LON": 157.1, "VMAX": 25.0, "MSLP": 990.0, "RMAX": 60.0, "FSPD": 6.18971, "FDIR": 4.16824, "RENV": 150.0, "PENV": 1009.0, "VALIDT": 0, "DTG": "2025-08-06 06:00", "LATNOW": 33.0, "LONNOW": 156.6, "WINDNOW": 25.0, "DIRNOW": 9.0, "SPDNOW": 1.0, "TECH": "TRAK", "ADVNR": 5, "ATCFID": "WP152025", "NAME": "FIFTEEN", "FTECH": "JTWC", "FCST_DTG": "2025-08-07 00:00:00", "RUN_DTG": "2025-08-07 16:28:35", "BASIN": "WP", "STMNR": 15, "CAT_ID": null, "CAT_DESC": null, "MSGID": "WTPN51 PGTW 070300", "VALIDTIME": "2025-08-06 06:00:00" }, "geometry": { "type": "Point", "coordinates": [ 157.100006, 28.4 ] } },
{ "type": "Feature", "properties": { "ID": 14744, "LAT": 29.6, "LON": 157.2, "VMAX": 25.0, "MSLP": 990.0, "RMAX": 60.0, "FSPD": 7.41812, "FDIR": 346.14288, "RENV": 150.0, "PENV": 1009.0, "VALIDT": 0, "DTG": "2025-08-06 12:00", "LATNOW": 33.0, "LONNOW": 156.6, "WINDNOW": 25.0, "DIRNOW": 9.0, "SPDNOW": 1.0, "TECH": "TRAK", "ADVNR": 5, "ATCFID": "WP152025", "NAME": "FIFTEEN", "FTECH": "JTWC", "FCST_DTG": "2025-08-07 00:00:00", "RUN_DTG": "2025-08-07 16:28:35", "BASIN": "WP", "STMNR": 15, "CAT_ID": null, "CAT_DESC": null, "MSGID": "WTPN51 PGTW 070300", "VALIDTIME": "2025-08-06 12:00:00" }, "geometry": { "type": "Point", "coordinates": [ 157.199997, 29.6 ] } },
{ "type": "Feature", "properties": { "ID": 14745, "LAT": 31.0, "LON": 156.8, "VMAX": 25.0, "MSLP": 991.0, "RMAX": 30.0, "FSPD": 10.32582, "FDIR": 355.1527, "RENV": 140.0, "PENV": 1008.0, "VALIDT": 0, "DTG": "2025-08-06 18:00", "LATNOW": 33.0, "LONNOW": 156.6, "WINDNOW": 25.0, "DIRNOW": 9.0, "SPDNOW": 1.0, "TECH": "TRAK", "ADVNR": 5, "ATCFID": "WP152025", "NAME": "FIFTEEN", "FTECH": "JTWC", "FCST_DTG": "2025-08-07 00:00:00", "RUN_DTG": "2025-08-07 16:28:35", "BASIN": "WP", "STMNR": 15, "CAT_ID": null, "CAT_DESC": null, "MSGID": "WTPN51 PGTW 070300", "VALIDTIME": "2025-08-06 18:00:00" }, "geometry": { "type": "Point", "coordinates": [ 156.800003, 31.0 ] } },
{ "type": "Feature", "properties": { "ID": 14746, "LAT": 33.0, "LON": 156.6, "VMAX": 25.0, "MSLP": 1011.80975, "RMAX": 45.0, "FSPD": 8.76854, "FDIR": 4.14893, "RENV": 500.0, "PENV": 1012.0, "VALIDT": 0, "DTG": "2025-08-07 00:00", "LATNOW": 33.0, "LONNOW": 156.6, "WINDNOW": 25.0, "DIRNOW": 9.0, "SPDNOW": 1.0, "TECH": "TRAK", "ADVNR": 5, "ATCFID": "WP152025", "NAME": "FIFTEEN", "FTECH": "JTWC", "FCST_DTG": "2025-08-07 00:00:00", "RUN_DTG": "2025-08-07 16:28:35", "BASIN": "WP", "STMNR": 15, "CAT_ID": null, "CAT_DESC": null, "MSGID": "WTPN51 PGTW 070300", "VALIDTIME": "2025-08-07 00:00:00" }, "geometry": { "type": "Point", "coordinates": [ 156.600006, 33.0 ] } },
{ "type": "Feature", "properties": { "ID": 14747, "LAT": 36.4, "LON": 156.9, "VMAX": 20.0, "MSLP": 1012.95825, "RMAX": 45.0, "FSPD": 10.44762, "FDIR": 10.00031, "RENV": 250.0, "PENV": 1012.0, "VALIDT": 12, "DTG": "2025-08-07 12:00", "LATNOW": 33.0, "LONNOW": 156.6, "WINDNOW": 25.0, "DIRNOW": 9.0, "SPDNOW": 1.0, "TECH": "FCST", "ADVNR": 5, "ATCFID": "WP152025", "NAME": "FIFTEEN", "FTECH": "JTWC", "FCST_DTG": "2025-08-07 00:00:00", "RUN_DTG": "2025-08-07 16:28:35", "BASIN": "WP", "STMNR": 15, "CAT_ID": null, "CAT_DESC": null, "MSGID": "WTPN51 PGTW 070300", "VALIDTIME": "2025-08-07 12:00:00" }, "geometry": { "type": "Point", "coordinates": [ 156.899994, 36.400002 ] } },
{ "type": "Feature", "properties": { "ID": 14748, "LAT": 40.4, "LON": 157.8, "VMAX": 20.0, "MSLP": 1012.95825, "RMAX": 45.0, "FSPD": 10.44762, "FDIR": 10.00031, "RENV": 250.0, "PENV": 1012.0, "VALIDT": 24, "DTG": "2025-08-08 00:00", "LATNOW": 33.0, "LONNOW": 156.6, "WINDNOW": 25.0, "DIRNOW": 9.0, "SPDNOW": 1.0, "TECH": "FCST", "ADVNR": 5, "ATCFID": "WP152025", "NAME": "FIFTEEN", "FTECH": "JTWC", "FCST_DTG": "2025-08-07 00:00:00", "RUN_DTG": "2025-08-07 16:28:35", "BASIN": "WP", "STMNR": 15, "CAT_ID": null, "CAT_DESC": null, "MSGID": "WTPN51 PGTW 070300", "VALIDTIME": "2025-08-08 00:00:00" }, "geometry": { "type": "Point", "coordinates": [ 157.800003, 40.400002 ] } },
{ "type": "Feature", "properties": { "ID": 14746, "LAT": 33.0, "LON": 156.6, "VMAX": 25.0, "MSLP": 1011.80975, "RMAX": 45.0, "FSPD": 8.76854, "FDIR": 4.14893, "RENV": 500.0, "PENV": 1012.0, "VALIDT": 0, "DTG": "2025-08-07 00:00", "LATNOW": 33.0, "LONNOW": 156.6, "WINDNOW": 25.0, "DIRNOW": 9.0, "SPDNOW": 1.0, "TECH": "TRAK", "ADVNR": 5, "ATCFID": "WP152025", "NAME": "FIFTEEN", "FTECH": "JTWC", "FCST_DTG": "2025-08-07 00:00:00", "RUN_DTG": "2025-08-07 16:28:35", "BASIN": "WP", "STMNR": 15, "CAT_ID": null, "CAT_DESC": null, "MSGID": "WTPN51 PGTW 070300", "VALIDTIME": "2025-08-07 00:00:00" }, "geometry": { "type": "LineString", "coordinates": [ [ 162.8, 24.5 ], [ 162.4, 24.3 ], [ 162.0, 24.0 ], [ 161.8, 25.1 ], [ 160.5, 25.6 ], [ 159.8, 26.2 ], [ 158.5, 26.4 ], [ 158.3, 28.0 ], [ 157.6, 28.4 ], [ 157.1, 28.4 ], [ 157.2, 29.6 ], [ 156.8, 31.0 ], [ 156.6, 33.0 ] ] } },
{ "type": "Feature", "properties": { "ID": 14748, "LAT": 40.4, "LON": 157.8, "VMAX": 20.0, "MSLP": 1012.95825, "RMAX": 45.0, "FSPD": 10.44762, "FDIR": 10.00031, "RENV": 250.0, "PENV": 1012.0, "VALIDT": 24, "DTG": "2025-08-08 00:00", "LATNOW": 33.0, "LONNOW": 156.6, "WINDNOW": 25.0, "DIRNOW": 9.0, "SPDNOW": 1.0, "TECH": "FCST", "ADVNR": 5, "ATCFID": "WP152025", "NAME": "FIFTEEN", "FTECH": "JTWC", "FCST_DTG": "2025-08-07 00:00:00", "RUN_DTG": "2025-08-07 16:28:35", "BASIN": "WP", "STMNR": 15, "CAT_ID": null, "CAT_DESC": null, "MSGID": "WTPN51 PGTW 070300", "VALIDTIME": "2025-08-08 00:00:00" }, "geometry": { "type": "LineString", "coordinates": [ [ 156.6, 33.0 ], [ 156.9, 36.4 ], [ 157.8, 40.4 ] ] } }
]
}
