{
"type": "FeatureCollection",
"crs": { "type": "name", "properties": { "name": "urn:ogc:def:crs:OGC:1.3:CRS84" } },
"features": [
{ "type": "Feature", "properties": { "ID": 54379, "LAT": 13.8, "LON": 134.2, "VMAX": 15.0, "MSLP": 1013.8515, "RMAX": 40.0, "FSPD": 5.52069, "FDIR": 264.65308, "RENV": 500.0, "PENV": 1012.0, "VALIDT": 0, "DTG": "2025-09-30 12:00", "LATNOW": 21.9, "LONNOW": 108.5, "WINDNOW": 65.0, "DIRNOW": 5.0, "SPDNOW": 3.0, "TECH": "TRAK", "ADVNR": 19, "ATCFID": "WP272025", "NAME": "MATMO", "FTECH": "JTWC", "FCST_DTG": "2025-10-05 18:00:00", "RUN_DTG": "2025-10-06 10:30:25", "BASIN": "WP", "STMNR": 27, "CAT_ID": null, "CAT_DESC": null, "MSGID": "WTPN51 PGTW 052100", "VALIDTIME": "2025-09-30 12:00:00" }, "geometry": { "type": "Point", "coordinates": [ 134.199997, 13.8 ] } },
{ "type": "Feature", "properties": { "ID": 54380, "LAT": 13.7, "LON": 133.1, "VMAX": 20.0, "MSLP": 1012.95825, "RMAX": 45.0, "FSPD": 5.70703, "FDIR": 285.68964, "RENV": 500.0, "PENV": 1012.0, "VALIDT": 0, "DTG": "2025-09-30 18:00", "LATNOW": 21.9, "LONNOW": 108.5, "WINDNOW": 65.0, "DIRNOW": 5.0, "SPDNOW": 3.0, "TECH": "TRAK", "ADVNR": 19, "ATCFID": "WP272025", "NAME": "MATMO", "FTECH": "JTWC", "FCST_DTG": "2025-10-05 18:00:00", "RUN_DTG": "2025-10-06 10:30:25", "BASIN": "WP", "STMNR": 27, "CAT_ID": null, "CAT_DESC": null, "MSGID": "WTPN51 PGTW 052100", "VALIDTIME": "2025-09-30 18:00:00" }, "geometry": { "type": "Point", "coordinates": [ 133.100006, 13.7 ] } },
{ "type": "Feature", "properties": { "ID": 54381, "LAT": 14.0, "LON": 132.0, "VMAX": 20.0, "MSLP": 1012.95825, "RMAX": 45.0, "FSPD": 6.98118, "FDIR": 301.053, "RENV": 500.0, "PENV": 1012.0, "VALIDT": 0, "DTG": "2025-10-01 00:00", "LATNOW": 21.9, "LONNOW": 108.5, "WINDNOW": 65.0, "DIRNOW": 5.0, "SPDNOW": 3.0, "TECH": "TRAK", "ADVNR": 19, "ATCFID": "WP272025", "NAME": "MATMO", "FTECH": "JTWC", "FCST_DTG": "2025-10-05 18:00:00", "RUN_DTG": "2025-10-06 10:30:25", "BASIN": "WP", "STMNR": 27, "CAT_ID": null, "CAT_DESC": null, "MSGID": "WTPN51 PGTW 052100", "VALIDTIME": "2025-10-01 00:00:00" }, "geometry": { "type": "Point", "coordinates": [ 132.0, 14.0 ] } },
{ "type": "Feature", "properties": { "ID": 54382, "LAT": 14.7, "LON": 130.8, "VMAX": 25.0, "MSLP": 1006.0, "RMAX": 50.0, "FSPD": 5.49906, "FDIR": 264.63205, "RENV": 120.0, "PENV": 1008.0, "VALIDT": 0, "DTG": "2025-10-01 06:00", "LATNOW": 21.9, "LONNOW": 108.5, "WINDNOW": 65.0, "DIRNOW": 5.0, "SPDNOW": 3.0, "TECH": "TRAK", "ADVNR": 19, "ATCFID": "WP272025", "NAME": "MATMO", "FTECH": "JTWC", "FCST_DTG": "2025-10-05 18:00:00", "RUN_DTG": "2025-10-06 10:30:25", "BASIN": "WP", "STMNR": 27, "CAT_ID": null, "CAT_DESC": null, "MSGID": "WTPN51 PGTW 052100", "VALIDTIME": "2025-10-01 06:00:00" }, "geometry": { "type": "Point", "coordinates": [ 130.800003, 14.7 ] } },
{ "type": "Feature", "properties": { "ID": 54383, "LAT": 14.6, "LON": 129.7, "VMAX": 25.0, "MSLP": 1006.0, "RMAX": 50.0, "FSPD": 6.99016, "FDIR": 265.77942, "RENV": 120.0, "PENV": 1008.0, "VALIDT": 0, "DTG": "2025-10-01 12:00", "LATNOW": 21.9, "LONNOW": 108.5, "WINDNOW": 65.0, "DIRNOW": 5.0, "SPDNOW": 3.0, "TECH": "TRAK", "ADVNR": 19, "ATCFID": "WP272025", "NAME": "MATMO", "FTECH": "JTWC", "FCST_DTG": "2025-10-05 18:00:00", "RUN_DTG": "2025-10-06 10:30:25", "BASIN": "WP", "STMNR": 27, "CAT_ID": null, "CAT_DESC": null, "MSGID": "WTPN51 PGTW 052100", "VALIDTIME": "2025-10-01 12:00:00" }, "geometry": { "type": "Point", "coordinates": [ 129.699997, 14.6 ] } },
{ "type": "Feature", "properties": { "ID": 54384, "LAT": 14.5, "LON": 128.3, "VMAX": 35.0, "MSLP": 1008.74713, "RMAX": 42.69135, "FSPD": 7.39978, "FDIR": 299.12067, "RENV": 500.0, "PENV": 1012.0, "VALIDT": 0, "DTG": "2025-10-01 18:00", "LATNOW": 21.9, "LONNOW": 108.5, "WINDNOW": 65.0, "DIRNOW": 5.0, "SPDNOW": 3.0, "TECH": "TRAK", "ADVNR": 19, "ATCFID": "WP272025", "NAME": "MATMO", "FTECH": "JTWC", "FCST_DTG": "2025-10-05 18:00:00", "RUN_DTG": "2025-10-06 10:30:25", "BASIN": "WP", "STMNR": 27, "CAT_ID": null, "CAT_DESC": null, "MSGID": "WTPN51 PGTW 052100", "VALIDTIME": "2025-10-01 18:00:00" }, "geometry": { "type": "Point", "coordinates": [ 128.300003, 14.5 ] } },
{ "type": "Feature", "properties": { "ID": 54385, "LAT": 15.2, "LON": 127.0, "VMAX": 45.0, "MSLP": 1006.0, "RMAX": 50.0, "FSPD": 2.48224, "FDIR": 269.99997, "RENV": 120.0, "PENV": 1008.0, "VALIDT": 0, "DTG": "2025-10-02 00:00", "LATNOW": 21.9, "LONNOW": 108.5, "WINDNOW": 65.0, "DIRNOW": 5.0, "SPDNOW": 3.0, "TECH": "TRAK", "ADVNR": 19, "ATCFID": "WP272025", "NAME": "MATMO", "FTECH": "JTWC", "FCST_DTG": "2025-10-05 18:00:00", "RUN_DTG": "2025-10-06 10:30:25", "BASIN": "WP", "STMNR": 27, "CAT_ID": null, "CAT_DESC": null, "MSGID": "WTPN51 PGTW 052100", "VALIDTIME": "2025-10-02 00:00:00" }, "geometry": { "type": "Point", "coordinates": [ 127.0, 15.2 ] } },
{ "type": "Feature", "properties": { "ID": 54386, "LAT": 15.2, "LON": 126.5, "VMAX": 45.0, "MSLP": 1002.0, "RMAX": 50.0, "FSPD": 7.71895, "FDIR": 285.4613, "RENV": 180.0, "PENV": 1009.0, "VALIDT": 0, "DTG": "2025-10-02 06:00", "LATNOW": 21.9, "LONNOW": 108.5, "WINDNOW": 65.0, "DIRNOW": 5.0, "SPDNOW": 3.0, "TECH": "TRAK", "ADVNR": 19, "ATCFID": "WP272025", "NAME": "MATMO", "FTECH": "JTWC", "FCST_DTG": "2025-10-05 18:00:00", "RUN_DTG": "2025-10-06 10:30:25", "BASIN": "WP", "STMNR": 27, "CAT_ID": null, "CAT_DESC": null, "MSGID": "WTPN51 PGTW 052100", "VALIDTIME": "2025-10-02 06:00:00" }, "geometry": { "type": "Point", "coordinates": [ 126.5, 15.2 ] } },
{ "type": "Feature", "properties": { "ID": 54387, "LAT": 15.6, "LON": 125.0, "VMAX": 50.0, "MSLP": 998.0, "RMAX": 50.0, "FSPD": 6.75612, "FDIR": 287.73285, "RENV": 180.0, "PENV": 1008.0, "VALIDT": 0, "DTG": "2025-10-02 12:00", "LATNOW": 21.9, "LONNOW": 108.5, "WINDNOW": 65.0, "DIRNOW": 5.0, "SPDNOW": 3.0, "TECH": "TRAK", "ADVNR": 19, "ATCFID": "WP272025", "NAME": "MATMO", "FTECH": "JTWC", "FCST_DTG": "2025-10-05 18:00:00", "RUN_DTG": "2025-10-06 10:30:25", "BASIN": "WP", "STMNR": 27, "CAT_ID": null, "CAT_DESC": null, "MSGID": "WTPN51 PGTW 052100", "VALIDTIME": "2025-10-02 12:00:00" }, "geometry": { "type": "Point", "coordinates": [ 125.0, 15.6 ] } },
{ "type": "Feature", "properties": { "ID": 54388, "LAT": 16.0, "LON": 123.7, "VMAX": 55.0, "MSLP": 995.0, "RMAX": 45.0, "FSPD": 5.81075, "FDIR": 290.74026, "RENV": 180.0, "PENV": 1008.0, "VALIDT": 0, "DTG": "2025-10-02 18:00", "LATNOW": 21.9, "LONNOW": 108.5, "WINDNOW": 65.0, "DIRNOW": 5.0, "SPDNOW": 3.0, "TECH": "TRAK", "ADVNR": 19, "ATCFID": "WP272025", "NAME": "MATMO", "FTECH": "JTWC", "FCST_DTG": "2025-10-05 18:00:00", "RUN_DTG": "2025-10-06 10:30:25", "BASIN": "WP", "STMNR": 27, "CAT_ID": null, "CAT_DESC": null, "MSGID": "WTPN51 PGTW 052100", "VALIDTIME": "2025-10-02 18:00:00" }, "geometry": { "type": "Point", "coordinates": [ 123.699997, 16.0 ] } },
{ "type": "Feature", "properties": { "ID": 54389, "LAT": 16.4, "LON": 122.6, "VMAX": 65.0, "MSLP": 993.0, "RMAX": 45.0, "FSPD": 8.93591, "FDIR": 290.20764, "RENV": 160.0, "PENV": 1010.0, "VALIDT": 0, "DTG": "2025-10-03 00:00", "LATNOW": 21.9, "LONNOW": 108.5, "WINDNOW": 65.0, "DIRNOW": 5.0, "SPDNOW": 3.0, "TECH": "TRAK", "ADVNR": 19, "ATCFID": "WP272025", "NAME": "MATMO", "FTECH": "JTWC", "FCST_DTG": "2025-10-05 18:00:00", "RUN_DTG": "2025-10-06 10:30:25", "BASIN": "WP", "STMNR": 27, "CAT_ID": null, "CAT_DESC": null, "MSGID": "WTPN51 PGTW 052100", "VALIDTIME": "2025-10-03 00:00:00" }, "geometry": { "type": "Point", "coordinates": [ 122.599998, 16.4 ] } },
{ "type": "Feature", "properties": { "ID": 54390, "LAT": 16.58, "LON": 122.09, "VMAX": 65.0, "MSLP": 993.0, "RMAX": 45.0, "FSPD": 8.92354, "FDIR": 290.23682, "RENV": 160.0, "PENV": 1010.0, "VALIDT": 0, "DTG": "2025-10-03 01:00", "LATNOW": 21.9, "LONNOW": 108.5, "WINDNOW": 65.0, "DIRNOW": 5.0, "SPDNOW": 3.0, "TECH": "TRAK", "ADVNR": 19, "ATCFID": "WP272025", "NAME": "MATMO", "FTECH": "JTWC", "FCST_DTG": "2025-10-05 18:00:00", "RUN_DTG": "2025-10-06 10:30:25", "BASIN": "WP", "STMNR": 27, "CAT_ID": null, "CAT_DESC": null, "MSGID": "WTPN51 PGTW 052100", "VALIDTIME": "2025-10-03 01:00:00" }, "geometry": { "type": "Point", "coordinates": [ 122.089996, 16.58 ] } },
{ "type": "Feature", "properties": { "ID": 54391, "LAT": 17.0, "LON": 120.9, "VMAX": 65.0, "MSLP": 989.0, "RMAX": 35.0, "FSPD": 7.80557, "FDIR": 289.24066, "RENV": 170.0, "PENV": 1010.0, "VALIDT": 0, "DTG": "2025-10-03 06:00", "LATNOW": 21.9, "LONNOW": 108.5, "WINDNOW": 65.0, "DIRNOW": 5.0, "SPDNOW": 3.0, "TECH": "TRAK", "ADVNR": 19, "ATCFID": "WP272025", "NAME": "MATMO", "FTECH": "JTWC", "FCST_DTG": "2025-10-05 18:00:00", "RUN_DTG": "2025-10-06 10:30:25", "BASIN": "WP", "STMNR": 27, "CAT_ID": null, "CAT_DESC": null, "MSGID": "WTPN51 PGTW 052100", "VALIDTIME": "2025-10-03 06:00:00" }, "geometry": { "type": "Point", "coordinates": [ 120.900002, 17.0 ] } },
{ "type": "Feature", "properties": { "ID": 54392, "LAT": 17.5, "LON": 119.4, "VMAX": 60.0, "MSLP": 990.0, "RMAX": 30.0, "FSPD": 5.97366, "FDIR": 279.91797, "RENV": 170.0, "PENV": 1010.0, "VALIDT": 0, "DTG": "2025-10-03 12:00", "LATNOW": 21.9, "LONNOW": 108.5, "WINDNOW": 65.0, "DIRNOW": 5.0, "SPDNOW": 3.0, "TECH": "TRAK", "ADVNR": 19, "ATCFID": "WP272025", "NAME": "MATMO", "FTECH": "JTWC", "FCST_DTG": "2025-10-05 18:00:00", "RUN_DTG": "2025-10-06 10:30:25", "BASIN": "WP", "STMNR": 27, "CAT_ID": null, "CAT_DESC": null, "MSGID": "WTPN51 PGTW 052100", "VALIDTIME": "2025-10-03 12:00:00" }, "geometry": { "type": "Point", "coordinates": [ 119.400002, 17.5 ] } },
{ "type": "Feature", "properties": { "ID": 54393, "LAT": 17.7, "LON": 118.2, "VMAX": 60.0, "MSLP": 993.0, "RMAX": 30.0, "FSPD": 7.77866, "FDIR": 289.3098, "RENV": 165.0, "PENV": 1010.0, "VALIDT": 0, "DTG": "2025-10-03 18:00", "LATNOW": 21.9, "LONNOW": 108.5, "WINDNOW": 65.0, "DIRNOW": 5.0, "SPDNOW": 3.0, "TECH": "TRAK", "ADVNR": 19, "ATCFID": "WP272025", "NAME": "MATMO", "FTECH": "JTWC", "FCST_DTG": "2025-10-05 18:00:00", "RUN_DTG": "2025-10-06 10:30:25", "BASIN": "WP", "STMNR": 27, "CAT_ID": null, "CAT_DESC": null, "MSGID": "WTPN51 PGTW 052100", "VALIDTIME": "2025-10-03 18:00:00" }, "geometry": { "type": "Point", "coordinates": [ 118.199997, 17.700001 ] } },
{ "type": "Feature", "properties": { "ID": 54394, "LAT": 18.2, "LON": 116.7, "VMAX": 60.0, "MSLP": 992.0, "RMAX": 50.0, "FSPD": 7.33062, "FDIR": 269.99997, "RENV": 190.0, "PENV": 1010.0, "VALIDT": 0, "DTG": "2025-10-04 00:00", "LATNOW": 21.9, "LONNOW": 108.5, "WINDNOW": 65.0, "DIRNOW": 5.0, "SPDNOW": 3.0, "TECH": "TRAK", "ADVNR": 19, "ATCFID": "WP272025", "NAME": "MATMO", "FTECH": "JTWC", "FCST_DTG": "2025-10-05 18:00:00", "RUN_DTG": "2025-10-06 10:30:25", "BASIN": "WP", "STMNR": 27, "CAT_ID": null, "CAT_DESC": null, "MSGID": "WTPN51 PGTW 052100", "VALIDTIME": "2025-10-04 00:00:00" }, "geometry": { "type": "Point", "coordinates": [ 116.699997, 18.200001 ] } },
{ "type": "Feature", "properties": { "ID": 54395, "LAT": 18.2, "LON": 115.2, "VMAX": 60.0, "MSLP": 992.0, "RMAX": 50.0, "FSPD": 7.15336, "FDIR": 305.12283, "RENV": 190.0, "PENV": 1010.0, "VALIDT": 0, "DTG": "2025-10-04 06:00", "LATNOW": 21.9, "LONNOW": 108.5, "WINDNOW": 65.0, "DIRNOW": 5.0, "SPDNOW": 3.0, "TECH": "TRAK", "ADVNR": 19, "ATCFID": "WP272025", "NAME": "MATMO", "FTECH": "JTWC", "FCST_DTG": "2025-10-05 18:00:00", "RUN_DTG": "2025-10-06 10:30:25", "BASIN": "WP", "STMNR": 27, "CAT_ID": null, "CAT_DESC": null, "MSGID": "WTPN51 PGTW 052100", "VALIDTIME": "2025-10-04 06:00:00" }, "geometry": { "type": "Point", "coordinates": [ 115.199997, 18.200001 ] } },
{ "type": "Feature", "properties": { "ID": 54396, "LAT": 19.0, "LON": 114.0, "VMAX": 70.0, "MSLP": 991.0, "RMAX": 30.0, "FSPD": 7.13042, "FDIR": 305.25256, "RENV": 220.0, "PENV": 1010.0, "VALIDT": 0, "DTG": "2025-10-04 12:00", "LATNOW": 21.9, "LONNOW": 108.5, "WINDNOW": 65.0, "DIRNOW": 5.0, "SPDNOW": 3.0, "TECH": "TRAK", "ADVNR": 19, "ATCFID": "WP272025", "NAME": "MATMO", "FTECH": "JTWC", "FCST_DTG": "2025-10-05 18:00:00", "RUN_DTG": "2025-10-06 10:30:25", "BASIN": "WP", "STMNR": 27, "CAT_ID": null, "CAT_DESC": null, "MSGID": "WTPN51 PGTW 052100", "VALIDTIME": "2025-10-04 12:00:00" }, "geometry": { "type": "Point", "coordinates": [ 114.0, 19.0 ] } },
{ "type": "Feature", "properties": { "ID": 54397, "LAT": 19.8, "LON": 112.8, "VMAX": 80.0, "MSLP": 984.0, "RMAX": 20.0, "FSPD": 6.15522, "FDIR": 289.53088, "RENV": 220.0, "PENV": 1009.0, "VALIDT": 0, "DTG": "2025-10-04 18:00", "LATNOW": 21.9, "LONNOW": 108.5, "WINDNOW": 65.0, "DIRNOW": 5.0, "SPDNOW": 3.0, "TECH": "TRAK", "ADVNR": 19, "ATCFID": "WP272025", "NAME": "MATMO", "FTECH": "JTWC", "FCST_DTG": "2025-10-05 18:00:00", "RUN_DTG": "2025-10-06 10:30:25", "BASIN": "WP", "STMNR": 27, "CAT_ID": null, "CAT_DESC": null, "MSGID": "WTPN51 PGTW 052100", "VALIDTIME": "2025-10-04 18:00:00" }, "geometry": { "type": "Point", "coordinates": [ 112.800003, 19.799999 ] } },
{ "type": "Feature", "properties": { "ID": 54398, "LAT": 20.2, "LON": 111.6, "VMAX": 90.0, "MSLP": 977.0, "RMAX": 30.0, "FSPD": 6.13375, "FDIR": 300.21356, "RENV": 220.0, "PENV": 1008.0, "VALIDT": 0, "DTG": "2025-10-05 00:00", "LATNOW": 21.9, "LONNOW": 108.5, "WINDNOW": 65.0, "DIRNOW": 5.0, "SPDNOW": 3.0, "TECH": "TRAK", "ADVNR": 19, "ATCFID": "WP272025", "NAME": "MATMO", "FTECH": "JTWC", "FCST_DTG": "2025-10-05 18:00:00", "RUN_DTG": "2025-10-06 10:30:25", "BASIN": "WP", "STMNR": 27, "CAT_ID": null, "CAT_DESC": null, "MSGID": "WTPN51 PGTW 052100", "VALIDTIME": "2025-10-05 00:00:00" }, "geometry": { "type": "Point", "coordinates": [ 111.599998, 20.200001 ] } },
{ "type": "Feature", "properties": { "ID": 54399, "LAT": 20.8, "LON": 110.5, "VMAX": 90.0, "MSLP": 968.0, "RMAX": 30.0, "FSPD": 5.7064, "FDIR": 302.74585, "RENV": 220.0, "PENV": 1008.0, "VALIDT": 0, "DTG": "2025-10-05 06:00", "LATNOW": 21.9, "LONNOW": 108.5, "WINDNOW": 65.0, "DIRNOW": 5.0, "SPDNOW": 3.0, "TECH": "TRAK", "ADVNR": 19, "ATCFID": "WP272025", "NAME": "MATMO", "FTECH": "JTWC", "FCST_DTG": "2025-10-05 18:00:00", "RUN_DTG": "2025-10-06 10:30:25", "BASIN": "WP", "STMNR": 27, "CAT_ID": null, "CAT_DESC": null, "MSGID": "WTPN51 PGTW 052100", "VALIDTIME": "2025-10-05 06:00:00" }, "geometry": { "type": "Point", "coordinates": [ 110.5, 20.799999 ] } },
{ "type": "Feature", "properties": { "ID": 54400, "LAT": 21.4, "LON": 109.5, "VMAX": 80.0, "MSLP": 966.0, "RMAX": 30.0, "FSPD": 5.43096, "FDIR": 298.2696, "RENV": 180.0, "PENV": 1006.0, "VALIDT": 0, "DTG": "2025-10-05 12:00", "LATNOW": 21.9, "LONNOW": 108.5, "WINDNOW": 65.0, "DIRNOW": 5.0, "SPDNOW": 3.0, "TECH": "TRAK", "ADVNR": 19, "ATCFID": "WP272025", "NAME": "MATMO", "FTECH": "JTWC", "FCST_DTG": "2025-10-05 18:00:00", "RUN_DTG": "2025-10-06 10:30:25", "BASIN": "WP", "STMNR": 27, "CAT_ID": null, "CAT_DESC": null, "MSGID": "WTPN51 PGTW 052100", "VALIDTIME": "2025-10-05 12:00:00" }, "geometry": { "type": "Point", "coordinates": [ 109.5, 21.4 ] } },
{ "type": "Feature", "properties": { "ID": 54401, "LAT": 21.8, "LON": 108.7, "VMAX": 80.0, "MSLP": 966.0, "RMAX": 30.0, "FSPD": 5.42357, "FDIR": 298.31177, "RENV": 180.0, "PENV": 1006.0, "VALIDT": 0, "DTG": "2025-10-05 16:00", "LATNOW": 21.9, "LONNOW": 108.5, "WINDNOW": 65.0, "DIRNOW": 5.0, "SPDNOW": 3.0, "TECH": "TRAK", "ADVNR": 19, "ATCFID": "WP272025", "NAME": "MATMO", "FTECH": "JTWC", "FCST_DTG": "2025-10-05 18:00:00", "RUN_DTG": "2025-10-06 10:30:25", "BASIN": "WP", "STMNR": 27, "CAT_ID": null, "CAT_DESC": null, "MSGID": "WTPN51 PGTW 052100", "VALIDTIME": "2025-10-05 16:00:00" }, "geometry": { "type": "Point", "coordinates": [ 108.699997, 21.799999 ] } },
{ "type": "Feature", "properties": { "ID": 54402, "LAT": 21.9, "LON": 108.5, "VMAX": 65.0, "MSLP": 972.0, "RMAX": 25.0, "FSPD": 4.96793, "FDIR": 294.46973, "RENV": 165.0, "PENV": 1006.0, "VALIDT": 0, "DTG": "2025-10-05 18:00", "LATNOW": 21.9, "LONNOW": 108.5, "WINDNOW": 65.0, "DIRNOW": 5.0, "SPDNOW": 3.0, "TECH": "TRAK", "ADVNR": 19, "ATCFID": "WP272025", "NAME": "MATMO", "FTECH": "JTWC", "FCST_DTG": "2025-10-05 18:00:00", "RUN_DTG": "2025-10-06 10:30:25", "BASIN": "WP", "STMNR": 27, "CAT_ID": null, "CAT_DESC": null, "MSGID": "WTPN51 PGTW 052100", "VALIDTIME": "2025-10-05 18:00:00" }, "geometry": { "type": "Point", "coordinates": [ 108.5, 21.9 ] } },
{ "type": "Feature", "properties": { "ID": 54403, "LAT": 22.7, "LON": 106.6, "VMAX": 45.0, "MSLP": 1004.66364, "RMAX": 35.62219, "FSPD": 5.0646, "FDIR": 290.82513, "RENV": 180.0, "PENV": 1012.0, "VALIDT": 12, "DTG": "2025-10-06 06:00", "LATNOW": 21.9, "LONNOW": 108.5, "WINDNOW": 65.0, "DIRNOW": 5.0, "SPDNOW": 3.0, "TECH": "FCST", "ADVNR": 19, "ATCFID": "WP272025", "NAME": "MATMO", "FTECH": "JTWC", "FCST_DTG": "2025-10-05 18:00:00", "RUN_DTG": "2025-10-06 10:30:25", "BASIN": "WP", "STMNR": 27, "CAT_ID": null, "CAT_DESC": null, "MSGID": "WTPN51 PGTW 052100", "VALIDTIME": "2025-10-06 06:00:00" }, "geometry": { "type": "Point", "coordinates": [ 106.599998, 22.700001 ] } },
{ "type": "Feature", "properties": { "ID": 54404, "LAT": 23.4, "LON": 104.6, "VMAX": 30.0, "MSLP": 1010.40607, "RMAX": 39.47942, "FSPD": 4.36572, "FDIR": 283.63135, "RENV": 250.0, "PENV": 1012.0, "VALIDT": 24, "DTG": "2025-10-06 18:00", "LATNOW": 21.9, "LONNOW": 108.5, "WINDNOW": 65.0, "DIRNOW": 5.0, "SPDNOW": 3.0, "TECH": "FCST", "ADVNR": 19, "ATCFID": "WP272025", "NAME": "MATMO", "FTECH": "JTWC", "FCST_DTG": "2025-10-05 18:00:00", "RUN_DTG": "2025-10-06 10:30:25", "BASIN": "WP", "STMNR": 27, "CAT_ID": null, "CAT_DESC": null, "MSGID": "WTPN51 PGTW 052100", "VALIDTIME": "2025-10-06 18:00:00" }, "geometry": { "type": "Point", "coordinates": [ 104.599998, 23.4 ] } },
{ "type": "Feature", "properties": { "ID": 54405, "LAT": 23.8, "LON": 102.8, "VMAX": 20.0, "MSLP": 1012.95825, "RMAX": 40.17595, "FSPD": 4.36572, "FDIR": 283.63135, "RENV": 250.0, "PENV": 1012.0, "VALIDT": 36, "DTG": "2025-10-07 06:00", "LATNOW": 21.9, "LONNOW": 108.5, "WINDNOW": 65.0, "DIRNOW": 5.0, "SPDNOW": 3.0, "TECH": "FCST", "ADVNR": 19, "ATCFID": "WP272025", "NAME": "MATMO", "FTECH": "JTWC", "FCST_DTG": "2025-10-05 18:00:00", "RUN_DTG": "2025-10-06 10:30:25", "BASIN": "WP", "STMNR": 27, "CAT_ID": null, "CAT_DESC": null, "MSGID": "WTPN51 PGTW 052100", "VALIDTIME": "2025-10-07 06:00:00" }, "geometry": { "type": "Point", "coordinates": [ 102.800003, 23.799999 ] } },
{ "type": "Feature", "properties": { "ID": 54402, "LAT": 21.9, "LON": 108.5, "VMAX": 65.0, "MSLP": 972.0, "RMAX": 25.0, "FSPD": 4.96793, "FDIR": 294.46973, "RENV": 165.0, "PENV": 1006.0, "VALIDT": 0, "DTG": "2025-10-05 18:00", "LATNOW": 21.9, "LONNOW": 108.5, "WINDNOW": 65.0, "DIRNOW": 5.0, "SPDNOW": 3.0, "TECH": "TRAK", "ADVNR": 19, "ATCFID": "WP272025", "NAME": "MATMO", "FTECH": "JTWC", "FCST_DTG": "2025-10-05 18:00:00", "RUN_DTG": "2025-10-06 10:30:25", "BASIN": "WP", "STMNR": 27, "CAT_ID": null, "CAT_DESC": null, "MSGID": "WTPN51 PGTW 052100", "VALIDTIME": "2025-10-05 18:00:00" }, "geometry": { "type": "LineString", "coordinates": [ [ 134.2, 13.8 ], [ 133.1, 13.7 ], [ 132.0, 14.0 ], [ 130.8, 14.7 ], [ 129.7, 14.6 ], [ 128.3, 14.5 ], [ 127.0, 15.2 ], [ 126.5, 15.2 ], [ 125.0, 15.6 ], [ 123.7, 16.0 ], [ 122.6, 16.4 ], [ 122.09, 16.58 ], [ 120.9, 17.0 ], [ 119.4, 17.5 ], [ 118.2, 17.7 ], [ 116.7, 18.2 ], [ 115.2, 18.2 ], [ 114.0, 19.0 ], [ 112.8, 19.8 ], [ 111.6, 20.2 ], [ 110.5, 20.8 ], [ 109.5, 21.4 ], [ 108.7, 21.8 ], [ 108.5, 21.9 ] ] } },
{ "type": "Feature", "properties": { "ID": 54405, "LAT": 23.8, "LON": 102.8, "VMAX": 20.0, "MSLP": 1012.95825, "RMAX": 40.17595, "FSPD": 4.36572, "FDIR": 283.63135, "RENV": 250.0, "PENV": 1012.0, "VALIDT": 36, "DTG": "2025-10-07 06:00", "LATNOW": 21.9, "LONNOW": 108.5, "WINDNOW": 65.0, "DIRNOW": 5.0, "SPDNOW": 3.0, "TECH": "FCST", "ADVNR": 19, "ATCFID": "WP272025", "NAME": "MATMO", "FTECH": "JTWC", "FCST_DTG": "2025-10-05 18:00:00", "RUN_DTG": "2025-10-06 10:30:25", "BASIN": "WP", "STMNR": 27, "CAT_ID": null, "CAT_DESC": null, "MSGID": "WTPN51 PGTW 052100", "VALIDTIME": "2025-10-07 06:00:00" }, "geometry": { "type": "LineString", "coordinates": [ [ 108.5, 21.9 ], [ 106.6, 22.7 ], [ 104.6, 23.4 ], [ 102.8, 23.8 ] ] } }
]
}
