{
"type": "FeatureCollection",
"crs": { "type": "name", "properties": { "name": "urn:ogc:def:crs:OGC:1.3:CRS84" } },
"features": [
{ "type": "Feature", "properties": { "ID": 108785, "LAT": 7.0, "LON": -105.0, "VMAX": 20.0, "MSLP": 1010.0, "RMAX": 100.0, "FSPD": 4.08489, "FDIR": 269.99997, "RENV": 220.0, "PENV": 1012.0, "VALIDT": 0, "DTG": "2026-09-18 12:00", "LATNOW": 30.0, "LONNOW": -108.5, "WINDNOW": 30.0, "DIRNOW": 7.0, "SPDNOW": 1.0, "TECH": "TRAK", "ADVNR": 38, "ATCFID": "EP172026", "NAME": "POLO", "FTECH": "OFCL", "FCST_DTG": "2026-09-30 00:00:00", "RUN_DTG": "2026-09-30 19:23:40", "BASIN": "EP", "STMNR": 17, "CAT_ID": null, "CAT_DESC": null, "MSGID": "WTPZ22 KNHC 300230", "VALIDTIME": "2026-09-18 12:00:00" }, "geometry": { "type": "Point", "coordinates": [ -105.0, 7.0 ] } },
{ "type": "Feature", "properties": { "ID": 108786, "LAT": 7.0, "LON": -105.8, "VMAX": 20.0, "MSLP": 1010.0, "RMAX": 100.0, "FSPD": 7.22024, "FDIR": 4.04913, "RENV": 220.0, "PENV": 1012.0, "VALIDT": 0, "DTG": "2026-09-18 18:00", "LATNOW": 30.0, "LONNOW": -108.5, "WINDNOW": 30.0, "DIRNOW": 7.0, "SPDNOW": 1.0, "TECH": "TRAK", "ADVNR": 38, "ATCFID": "EP172026", "NAME": "POLO", "FTECH": "OFCL", "FCST_DTG": "2026-09-30 00:00:00", "RUN_DTG": "2026-09-30 19:23:40", "BASIN": "EP", "STMNR": 17, "CAT_ID": null, "CAT_DESC": null, "MSGID": "WTPZ22 KNHC 300230", "VALIDTIME": "2026-09-18 18:00:00" }, "geometry": { "type": "Point", "coordinates": [ -105.800003, 7.0 ] } },
{ "type": "Feature", "properties": { "ID": 108787, "LAT": 8.4, "LON": -105.7, "VMAX": 20.0, "MSLP": 1009.0, "RMAX": 100.0, "FSPD": 5.24391, "FDIR": 348.82254, "RENV": 220.0, "PENV": 1012.0, "VALIDT": 0, "DTG": "2026-09-19 00:00", "LATNOW": 30.0, "LONNOW": -108.5, "WINDNOW": 30.0, "DIRNOW": 7.0, "SPDNOW": 1.0, "TECH": "TRAK", "ADVNR": 38, "ATCFID": "EP172026", "NAME": "POLO", "FTECH": "OFCL", "FCST_DTG": "2026-09-30 00:00:00", "RUN_DTG": "2026-09-30 19:23:40", "BASIN": "EP", "STMNR": 17, "CAT_ID": null, "CAT_DESC": null, "MSGID": "WTPZ22 KNHC 300230", "VALIDTIME": "2026-09-19 00:00:00" }, "geometry": { "type": "Point", "coordinates": [ -105.699997, 8.4 ] } },
{ "type": "Feature", "properties": { "ID": 108788, "LAT": 9.4, "LON": -105.9, "VMAX": 20.0, "MSLP": 1009.0, "RMAX": 100.0, "FSPD": 4.63, "FDIR": 360.0, "RENV": 220.0, "PENV": 1012.0, "VALIDT": 0, "DTG": "2026-09-19 06:00", "LATNOW": 30.0, "LONNOW": -108.5, "WINDNOW": 30.0, "DIRNOW": 7.0, "SPDNOW": 1.0, "TECH": "TRAK", "ADVNR": 38, "ATCFID": "EP172026", "NAME": "POLO", "FTECH": "OFCL", "FCST_DTG": "2026-09-30 00:00:00", "RUN_DTG": "2026-09-30 19:23:40", "BASIN": "EP", "STMNR": 17, "CAT_ID": null, "CAT_DESC": null, "MSGID": "WTPZ22 KNHC 300230", "VALIDTIME": "2026-09-19 06:00:00" }, "geometry": { "type": "Point", "coordinates": [ -105.900002, 9.4 ] } },
{ "type": "Feature", "properties": { "ID": 108789, "LAT": 10.3, "LON": -105.9, "VMAX": 25.0, "MSLP": 1008.0, "RMAX": 100.0, "FSPD": 4.6575, "FDIR": 353.77026, "RENV": 220.0, "PENV": 1012.0, "VALIDT": 0, "DTG": "2026-09-19 12:00", "LATNOW": 30.0, "LONNOW": -108.5, "WINDNOW": 30.0, "DIRNOW": 7.0, "SPDNOW": 1.0, "TECH": "TRAK", "ADVNR": 38, "ATCFID": "EP172026", "NAME": "POLO", "FTECH": "OFCL", "FCST_DTG": "2026-09-30 00:00:00", "RUN_DTG": "2026-09-30 19:23:40", "BASIN": "EP", "STMNR": 17, "CAT_ID": null, "CAT_DESC": null, "MSGID": "WTPZ22 KNHC 300230", "VALIDTIME": "2026-09-19 12:00:00" }, "geometry": { "type": "Point", "coordinates": [ -105.900002, 10.3 ] } },
{ "type": "Feature", "properties": { "ID": 108790, "LAT": 11.2, "LON": -106.0, "VMAX": 25.0, "MSLP": 1008.0, "RMAX": 100.0, "FSPD": 7.35885, "FDIR": 348.15762, "RENV": 240.0, "PENV": 1012.0, "VALIDT": 0, "DTG": "2026-09-19 18:00", "LATNOW": 30.0, "LONNOW": -108.5, "WINDNOW": 30.0, "DIRNOW": 7.0, "SPDNOW": 1.0, "TECH": "TRAK", "ADVNR": 38, "ATCFID": "EP172026", "NAME": "POLO", "FTECH": "OFCL", "FCST_DTG": "2026-09-30 00:00:00", "RUN_DTG": "2026-09-30 19:23:40", "BASIN": "EP", "STMNR": 17, "CAT_ID": null, "CAT_DESC": null, "MSGID": "WTPZ22 KNHC 300230", "VALIDTIME": "2026-09-19 18:00:00" }, "geometry": { "type": "Point", "coordinates": [ -106.0, 11.2 ] } },
{ "type": "Feature", "properties": { "ID": 108791, "LAT": 12.6, "LON": -106.3, "VMAX": 25.0, "MSLP": 1007.0, "RMAX": 100.0, "FSPD": 4.81864, "FDIR": 31.34064, "RENV": 240.0, "PENV": 1012.0, "VALIDT": 0, "DTG": "2026-09-20 00:00", "LATNOW": 30.0, "LONNOW": -108.5, "WINDNOW": 30.0, "DIRNOW": 7.0, "SPDNOW": 1.0, "TECH": "TRAK", "ADVNR": 38, "ATCFID": "EP172026", "NAME": "POLO", "FTECH": "OFCL", "FCST_DTG": "2026-09-30 00:00:00", "RUN_DTG": "2026-09-30 19:23:40", "BASIN": "EP", "STMNR": 17, "CAT_ID": null, "CAT_DESC": null, "MSGID": "WTPZ22 KNHC 300230", "VALIDTIME": "2026-09-20 00:00:00" }, "geometry": { "type": "Point", "coordinates": [ -106.300003, 12.6 ] } },
{ "type": "Feature", "properties": { "ID": 108792, "LAT": 13.4, "LON": -105.8, "VMAX": 30.0, "MSLP": 1007.0, "RMAX": 100.0, "FSPD": 3.12687, "FDIR": 350.80237, "RENV": 240.0, "PENV": 1012.0, "VALIDT": 0, "DTG": "2026-09-20 06:00", "LATNOW": 30.0, "LONNOW": -108.5, "WINDNOW": 30.0, "DIRNOW": 7.0, "SPDNOW": 1.0, "TECH": "TRAK", "ADVNR": 38, "ATCFID": "EP172026", "NAME": "POLO", "FTECH": "OFCL", "FCST_DTG": "2026-09-30 00:00:00", "RUN_DTG": "2026-09-30 19:23:40", "BASIN": "EP", "STMNR": 17, "CAT_ID": null, "CAT_DESC": null, "MSGID": "WTPZ22 KNHC 300230", "VALIDTIME": "2026-09-20 06:00:00" }, "geometry": { "type": "Point", "coordinates": [ -105.800003, 13.4 ] } },
{ "type": "Feature", "properties": { "ID": 108793, "LAT": 14.0, "LON": -105.9, "VMAX": 30.0, "MSLP": 1007.0, "RMAX": 90.0, "FSPD": 4.74636, "FDIR": 57.18451, "RENV": 180.0, "PENV": 1011.0, "VALIDT": 0, "DTG": "2026-09-20 12:00", "LATNOW": 30.0, "LONNOW": -108.5, "WINDNOW": 30.0, "DIRNOW": 7.0, "SPDNOW": 1.0, "TECH": "TRAK", "ADVNR": 38, "ATCFID": "EP172026", "NAME": "POLO", "FTECH": "OFCL", "FCST_DTG": "2026-09-30 00:00:00", "RUN_DTG": "2026-09-30 19:23:40", "BASIN": "EP", "STMNR": 17, "CAT_ID": null, "CAT_DESC": null, "MSGID": "WTPZ22 KNHC 300230", "VALIDTIME": "2026-09-20 12:00:00" }, "geometry": { "type": "Point", "coordinates": [ -105.900002, 14.0 ] } },
{ "type": "Feature", "properties": { "ID": 108794, "LAT": 14.5, "LON": -105.1, "VMAX": 30.0, "MSLP": 1007.0, "RMAX": 40.0, "FSPD": 3.4284, "FDIR": 25.79932, "RENV": 180.0, "PENV": 1012.0, "VALIDT": 0, "DTG": "2026-09-20 18:00", "LATNOW": 30.0, "LONNOW": -108.5, "WINDNOW": 30.0, "DIRNOW": 7.0, "SPDNOW": 1.0, "TECH": "TRAK", "ADVNR": 38, "ATCFID": "EP172026", "NAME": "POLO", "FTECH": "OFCL", "FCST_DTG": "2026-09-30 00:00:00", "RUN_DTG": "2026-09-30 19:23:40", "BASIN": "EP", "STMNR": 17, "CAT_ID": null, "CAT_DESC": null, "MSGID": "WTPZ22 KNHC 300230", "VALIDTIME": "2026-09-20 18:00:00" }, "geometry": { "type": "Point", "coordinates": [ -105.099998, 14.5 ] } },
{ "type": "Feature", "properties": { "ID": 108795, "LAT": 15.1, "LON": -104.8, "VMAX": 35.0, "MSLP": 1004.0, "RMAX": 40.0, "FSPD": 4.47135, "FDIR": 62.59912, "RENV": 150.0, "PENV": 1010.0, "VALIDT": 0, "DTG": "2026-09-21 00:00", "LATNOW": 30.0, "LONNOW": -108.5, "WINDNOW": 30.0, "DIRNOW": 7.0, "SPDNOW": 1.0, "TECH": "TRAK", "ADVNR": 38, "ATCFID": "EP172026", "NAME": "POLO", "FTECH": "OFCL", "FCST_DTG": "2026-09-30 00:00:00", "RUN_DTG": "2026-09-30 19:23:40", "BASIN": "EP", "STMNR": 17, "CAT_ID": null, "CAT_DESC": null, "MSGID": "WTPZ22 KNHC 300230", "VALIDTIME": "2026-09-21 00:00:00" }, "geometry": { "type": "Point", "coordinates": [ -104.800003, 15.1 ] } },
{ "type": "Feature", "properties": { "ID": 108796, "LAT": 15.5, "LON": -104.0, "VMAX": 40.0, "MSLP": 1003.0, "RMAX": 30.0, "FSPD": 1.98294, "FDIR": 90.0, "RENV": 150.0, "PENV": 1010.0, "VALIDT": 0, "DTG": "2026-09-21 06:00", "LATNOW": 30.0, "LONNOW": -108.5, "WINDNOW": 30.0, "DIRNOW": 7.0, "SPDNOW": 1.0, "TECH": "TRAK", "ADVNR": 38, "ATCFID": "EP172026", "NAME": "POLO", "FTECH": "OFCL", "FCST_DTG": "2026-09-30 00:00:00", "RUN_DTG": "2026-09-30 19:23:40", "BASIN": "EP", "STMNR": 17, "CAT_ID": null, "CAT_DESC": null, "MSGID": "WTPZ22 KNHC 300230", "VALIDTIME": "2026-09-21 06:00:00" }, "geometry": { "type": "Point", "coordinates": [ -104.0, 15.5 ] } },
{ "type": "Feature", "properties": { "ID": 108797, "LAT": 15.5, "LON": -103.6, "VMAX": 50.0, "MSLP": 1000.0, "RMAX": 20.0, "FSPD": 3.35287, "FDIR": 117.40662, "RENV": 150.0, "PENV": 1010.0, "VALIDT": 0, "DTG": "2026-09-21 12:00", "LATNOW": 30.0, "LONNOW": -108.5, "WINDNOW": 30.0, "DIRNOW": 7.0, "SPDNOW": 1.0, "TECH": "TRAK", "ADVNR": 38, "ATCFID": "EP172026", "NAME": "POLO", "FTECH": "OFCL", "FCST_DTG": "2026-09-30 00:00:00", "RUN_DTG": "2026-09-30 19:23:40", "BASIN": "EP", "STMNR": 17, "CAT_ID": null, "CAT_DESC": null, "MSGID": "WTPZ22 KNHC 300230", "VALIDTIME": "2026-09-21 12:00:00" }, "geometry": { "type": "Point", "coordinates": [ -103.599998, 15.5 ] } },
{ "type": "Feature", "properties": { "ID": 108798, "LAT": 15.2, "LON": -103.0, "VMAX": 70.0, "MSLP": 978.0, "RMAX": 20.0, "FSPD": 2.53556, "FDIR": 101.70599, "RENV": 150.0, "PENV": 1010.0, "VALIDT": 0, "DTG": "2026-09-21 18:00", "LATNOW": 30.0, "LONNOW": -108.5, "WINDNOW": 30.0, "DIRNOW": 7.0, "SPDNOW": 1.0, "TECH": "TRAK", "ADVNR": 38, "ATCFID": "EP172026", "NAME": "POLO", "FTECH": "OFCL", "FCST_DTG": "2026-09-30 00:00:00", "RUN_DTG": "2026-09-30 19:23:40", "BASIN": "EP", "STMNR": 17, "CAT_ID": null, "CAT_DESC": null, "MSGID": "WTPZ22 KNHC 300230", "VALIDTIME": "2026-09-21 18:00:00" }, "geometry": { "type": "Point", "coordinates": [ -103.0, 15.2 ] } },
{ "type": "Feature", "properties": { "ID": 108799, "LAT": 15.1, "LON": -102.5, "VMAX": 90.0, "MSLP": 967.0, "RMAX": 15.0, "FSPD": 3.22697, "FDIR": 129.61914, "RENV": 150.0, "PENV": 1010.0, "VALIDT": 0, "DTG": "2026-09-22 00:00", "LATNOW": 30.0, "LONNOW": -108.5, "WINDNOW": 30.0, "DIRNOW": 7.0, "SPDNOW": 1.0, "TECH": "TRAK", "ADVNR": 38, "ATCFID": "EP172026", "NAME": "POLO", "FTECH": "OFCL", "FCST_DTG": "2026-09-30 00:00:00", "RUN_DTG": "2026-09-30 19:23:40", "BASIN": "EP", "STMNR": 17, "CAT_ID": null, "CAT_DESC": null, "MSGID": "WTPZ22 KNHC 300230", "VALIDTIME": "2026-09-22 00:00:00" }, "geometry": { "type": "Point", "coordinates": [ -102.5, 15.1 ] } },
{ "type": "Feature", "properties": { "ID": 108800, "LAT": 14.7, "LON": -102.0, "VMAX": 120.0, "MSLP": 945.0, "RMAX": 15.0, "FSPD": 1.99043, "FDIR": 90.0, "RENV": 150.0, "PENV": 1009.0, "VALIDT": 0, "DTG": "2026-09-22 06:00", "LATNOW": 30.0, "LONNOW": -108.5, "WINDNOW": 30.0, "DIRNOW": 7.0, "SPDNOW": 1.0, "TECH": "TRAK", "ADVNR": 38, "ATCFID": "EP172026", "NAME": "POLO", "FTECH": "OFCL", "FCST_DTG": "2026-09-30 00:00:00", "RUN_DTG": "2026-09-30 19:23:40", "BASIN": "EP", "STMNR": 17, "CAT_ID": null, "CAT_DESC": null, "MSGID": "WTPZ22 KNHC 300230", "VALIDTIME": "2026-09-22 06:00:00" }, "geometry": { "type": "Point", "coordinates": [ -102.0, 14.7 ] } },
{ "type": "Feature", "properties": { "ID": 108801, "LAT": 14.7, "LON": -101.6, "VMAX": 140.0, "MSLP": 926.0, "RMAX": 15.0, "FSPD": 0.7158, "FDIR": 135.9469, "RENV": 150.0, "PENV": 1008.0, "VALIDT": 0, "DTG": "2026-09-22 12:00", "LATNOW": 30.0, "LONNOW": -108.5, "WINDNOW": 30.0, "DIRNOW": 7.0, "SPDNOW": 1.0, "TECH": "TRAK", "ADVNR": 38, "ATCFID": "EP172026", "NAME": "POLO", "FTECH": "OFCL", "FCST_DTG": "2026-09-30 00:00:00", "RUN_DTG": "2026-09-30 19:23:40", "BASIN": "EP", "STMNR": 17, "CAT_ID": null, "CAT_DESC": null, "MSGID": "WTPZ22 KNHC 300230", "VALIDTIME": "2026-09-22 12:00:00" }, "geometry": { "type": "Point", "coordinates": [ -101.599998, 14.7 ] } },
{ "type": "Feature", "properties": { "ID": 108802, "LAT": 14.6, "LON": -101.5, "VMAX": 155.0, "MSLP": 892.0, "RMAX": 10.0, "FSPD": 0.49782, "FDIR": 90.0, "RENV": 130.0, "PENV": 1008.0, "VALIDT": 0, "DTG": "2026-09-22 18:00", "LATNOW": 30.0, "LONNOW": -108.5, "WINDNOW": 30.0, "DIRNOW": 7.0, "SPDNOW": 1.0, "TECH": "TRAK", "ADVNR": 38, "ATCFID": "EP172026", "NAME": "POLO", "FTECH": "OFCL", "FCST_DTG": "2026-09-30 00:00:00", "RUN_DTG": "2026-09-30 19:23:40", "BASIN": "EP", "STMNR": 17, "CAT_ID": null, "CAT_DESC": null, "MSGID": "WTPZ22 KNHC 300230", "VALIDTIME": "2026-09-22 18:00:00" }, "geometry": { "type": "Point", "coordinates": [ -101.5, 14.6 ] } },
{ "type": "Feature", "properties": { "ID": 108803, "LAT": 14.6, "LON": -101.4, "VMAX": 145.0, "MSLP": 905.0, "RMAX": 10.0, "FSPD": 1.1429, "FDIR": 25.80966, "RENV": 180.0, "PENV": 1008.0, "VALIDT": 0, "DTG": "2026-09-23 00:00", "LATNOW": 30.0, "LONNOW": -108.5, "WINDNOW": 30.0, "DIRNOW": 7.0, "SPDNOW": 1.0, "TECH": "TRAK", "ADVNR": 38, "ATCFID": "EP172026", "NAME": "POLO", "FTECH": "OFCL", "FCST_DTG": "2026-09-30 00:00:00", "RUN_DTG": "2026-09-30 19:23:40", "BASIN": "EP", "STMNR": 17, "CAT_ID": null, "CAT_DESC": null, "MSGID": "WTPZ22 KNHC 300230", "VALIDTIME": "2026-09-23 00:00:00" }, "geometry": { "type": "Point", "coordinates": [ -101.400002, 14.6 ] } },
{ "type": "Feature", "properties": { "ID": 108804, "LAT": 14.8, "LON": -101.3, "VMAX": 140.0, "MSLP": 915.0, "RMAX": 10.0, "FSPD": 2.28519, "FDIR": 334.2215, "RENV": 180.0, "PENV": 1008.0, "VALIDT": 0, "DTG": "2026-09-23 06:00", "LATNOW": 30.0, "LONNOW": -108.5, "WINDNOW": 30.0, "DIRNOW": 7.0, "SPDNOW": 1.0, "TECH": "TRAK", "ADVNR": 38, "ATCFID": "EP172026", "NAME": "POLO", "FTECH": "OFCL", "FCST_DTG": "2026-09-30 00:00:00", "RUN_DTG": "2026-09-30 19:23:40", "BASIN": "EP", "STMNR": 17, "CAT_ID": null, "CAT_DESC": null, "MSGID": "WTPZ22 KNHC 300230", "VALIDTIME": "2026-09-23 06:00:00" }, "geometry": { "type": "Point", "coordinates": [ -101.300003, 14.8 ] } },
{ "type": "Feature", "properties": { "ID": 108805, "LAT": 15.2, "LON": -101.5, "VMAX": 130.0, "MSLP": 925.0, "RMAX": 10.0, "FSPD": 3.35287, "FDIR": 297.40662, "RENV": 180.0, "PENV": 1008.0, "VALIDT": 0, "DTG": "2026-09-23 12:00", "LATNOW": 30.0, "LONNOW": -108.5, "WINDNOW": 30.0, "DIRNOW": 7.0, "SPDNOW": 1.0, "TECH": "TRAK", "ADVNR": 38, "ATCFID": "EP172026", "NAME": "POLO", "FTECH": "OFCL", "FCST_DTG": "2026-09-30 00:00:00", "RUN_DTG": "2026-09-30 19:23:40", "BASIN": "EP", "STMNR": 17, "CAT_ID": null, "CAT_DESC": null, "MSGID": "WTPZ22 KNHC 300230", "VALIDTIME": "2026-09-23 12:00:00" }, "geometry": { "type": "Point", "coordinates": [ -101.5, 15.2 ] } },
{ "type": "Feature", "properties": { "ID": 108806, "LAT": 15.5, "LON": -102.1, "VMAX": 125.0, "MSLP": 931.0, "RMAX": 10.0, "FSPD": 1.83399, "FDIR": 327.3009, "RENV": 180.0, "PENV": 1008.0, "VALIDT": 0, "DTG": "2026-09-23 18:00", "LATNOW": 30.0, "LONNOW": -108.5, "WINDNOW": 30.0, "DIRNOW": 7.0, "SPDNOW": 1.0, "TECH": "TRAK", "ADVNR": 38, "ATCFID": "EP172026", "NAME": "POLO", "FTECH": "OFCL", "FCST_DTG": "2026-09-30 00:00:00", "RUN_DTG": "2026-09-30 19:23:40", "BASIN": "EP", "STMNR": 17, "CAT_ID": null, "CAT_DESC": null, "MSGID": "WTPZ22 KNHC 300230", "VALIDTIME": "2026-09-23 18:00:00" }, "geometry": { "type": "Point", "coordinates": [ -102.099998, 15.5 ] } },
{ "type": "Feature", "properties": { "ID": 108807, "LAT": 15.8, "LON": -102.3, "VMAX": 140.0, "MSLP": 923.0, "RMAX": 10.0, "FSPD": 4.63661, "FDIR": 311.7373, "RENV": 180.0, "PENV": 1008.0, "VALIDT": 0, "DTG": "2026-09-24 00:00", "LATNOW": 30.0, "LONNOW": -108.5, "WINDNOW": 30.0, "DIRNOW": 7.0, "SPDNOW": 1.0, "TECH": "TRAK", "ADVNR": 38, "ATCFID": "EP172026", "NAME": "POLO", "FTECH": "OFCL", "FCST_DTG": "2026-09-30 00:00:00", "RUN_DTG": "2026-09-30 19:23:40", "BASIN": "EP", "STMNR": 17, "CAT_ID": null, "CAT_DESC": null, "MSGID": "WTPZ22 KNHC 300230", "VALIDTIME": "2026-09-24 00:00:00" }, "geometry": { "type": "Point", "coordinates": [ -102.300003, 15.8 ] } },
{ "type": "Feature", "properties": { "ID": 108808, "LAT": 16.4, "LON": -103.0, "VMAX": 140.0, "MSLP": 923.0, "RMAX": 10.0, "FSPD": 4.69888, "FDIR": 289.17462, "RENV": 180.0, "PENV": 1008.0, "VALIDT": 0, "DTG": "2026-09-24 06:00", "LATNOW": 30.0, "LONNOW": -108.5, "WINDNOW": 30.0, "DIRNOW": 7.0, "SPDNOW": 1.0, "TECH": "TRAK", "ADVNR": 38, "ATCFID": "EP172026", "NAME": "POLO", "FTECH": "OFCL", "FCST_DTG": "2026-09-30 00:00:00", "RUN_DTG": "2026-09-30 19:23:40", "BASIN": "EP", "STMNR": 17, "CAT_ID": null, "CAT_DESC": null, "MSGID": "WTPZ22 KNHC 300230", "VALIDTIME": "2026-09-24 06:00:00" }, "geometry": { "type": "Point", "coordinates": [ -103.0, 16.4 ] } },
{ "type": "Feature", "properties": { "ID": 108809, "LAT": 16.7, "LON": -103.9, "VMAX": 135.0, "MSLP": 927.0, "RMAX": 10.0, "FSPD": 5.0312, "FDIR": 281.80023, "RENV": 180.0, "PENV": 1008.0, "VALIDT": 0, "DTG": "2026-09-24 12:00", "LATNOW": 30.0, "LONNOW": -108.5, "WINDNOW": 30.0, "DIRNOW": 7.0, "SPDNOW": 1.0, "TECH": "TRAK", "ADVNR": 38, "ATCFID": "EP172026", "NAME": "POLO", "FTECH": "OFCL", "FCST_DTG": "2026-09-30 00:00:00", "RUN_DTG": "2026-09-30 19:23:40", "BASIN": "EP", "STMNR": 17, "CAT_ID": null, "CAT_DESC": null, "MSGID": "WTPZ22 KNHC 300230", "VALIDTIME": "2026-09-24 12:00:00" }, "geometry": { "type": "Point", "coordinates": [ -103.900002, 16.700001 ] } },
{ "type": "Feature", "properties": { "ID": 108810, "LAT": 16.9, "LON": -104.9, "VMAX": 130.0, "MSLP": 938.0, "RMAX": 15.0, "FSPD": 5.99256, "FDIR": 279.88635, "RENV": 180.0, "PENV": 1008.0, "VALIDT": 0, "DTG": "2026-09-24 18:00", "LATNOW": 30.0, "LONNOW": -108.5, "WINDNOW": 30.0, "DIRNOW": 7.0, "SPDNOW": 1.0, "TECH": "TRAK", "ADVNR": 38, "ATCFID": "EP172026", "NAME": "POLO", "FTECH": "OFCL", "FCST_DTG": "2026-09-30 00:00:00", "RUN_DTG": "2026-09-30 19:23:40", "BASIN": "EP", "STMNR": 17, "CAT_ID": null, "CAT_DESC": null, "MSGID": "WTPZ22 KNHC 300230", "VALIDTIME": "2026-09-24 18:00:00" }, "geometry": { "type": "Point", "coordinates": [ -104.900002, 16.9 ] } },
{ "type": "Feature", "properties": { "ID": 108811, "LAT": 17.1, "LON": -106.1, "VMAX": 130.0, "MSLP": 938.0, "RMAX": 15.0, "FSPD": 4.42533, "FDIR": 269.99997, "RENV": 130.0, "PENV": 1006.0, "VALIDT": 0, "DTG": "2026-09-25 00:00", "LATNOW": 30.0, "LONNOW": -108.5, "WINDNOW": 30.0, "DIRNOW": 7.0, "SPDNOW": 1.0, "TECH": "TRAK", "ADVNR": 38, "ATCFID": "EP172026", "NAME": "POLO", "FTECH": "OFCL", "FCST_DTG": "2026-09-30 00:00:00", "RUN_DTG": "2026-09-30 19:23:40", "BASIN": "EP", "STMNR": 17, "CAT_ID": null, "CAT_DESC": null, "MSGID": "WTPZ22 KNHC 300230", "VALIDTIME": "2026-09-25 00:00:00" }, "geometry": { "type": "Point", "coordinates": [ -106.099998, 17.1 ] } },
{ "type": "Feature", "properties": { "ID": 108812, "LAT": 17.1, "LON": -107.0, "VMAX": 135.0, "MSLP": 929.0, "RMAX": 10.0, "FSPD": 4.91702, "FDIR": 269.99997, "RENV": 130.0, "PENV": 1008.0, "VALIDT": 0, "DTG": "2026-09-25 06:00", "LATNOW": 30.0, "LONNOW": -108.5, "WINDNOW": 30.0, "DIRNOW": 7.0, "SPDNOW": 1.0, "TECH": "TRAK", "ADVNR": 38, "ATCFID": "EP172026", "NAME": "POLO", "FTECH": "OFCL", "FCST_DTG": "2026-09-30 00:00:00", "RUN_DTG": "2026-09-30 19:23:40", "BASIN": "EP", "STMNR": 17, "CAT_ID": null, "CAT_DESC": null, "MSGID": "WTPZ22 KNHC 300230", "VALIDTIME": "2026-09-25 06:00:00" }, "geometry": { "type": "Point", "coordinates": [ -107.0, 17.1 ] } },
{ "type": "Feature", "properties": { "ID": 108813, "LAT": 17.1, "LON": -108.0, "VMAX": 155.0, "MSLP": 908.0, "RMAX": 10.0, "FSPD": 3.93363, "FDIR": 269.99997, "RENV": 130.0, "PENV": 1008.0, "VALIDT": 0, "DTG": "2026-09-25 12:00", "LATNOW": 30.0, "LONNOW": -108.5, "WINDNOW": 30.0, "DIRNOW": 7.0, "SPDNOW": 1.0, "TECH": "TRAK", "ADVNR": 38, "ATCFID": "EP172026", "NAME": "POLO", "FTECH": "OFCL", "FCST_DTG": "2026-09-30 00:00:00", "RUN_DTG": "2026-09-30 19:23:40", "BASIN": "EP", "STMNR": 17, "CAT_ID": null, "CAT_DESC": null, "MSGID": "WTPZ22 KNHC 300230", "VALIDTIME": "2026-09-25 12:00:00" }, "geometry": { "type": "Point", "coordinates": [ -108.0, 17.1 ] } },
{ "type": "Feature", "properties": { "ID": 108814, "LAT": 17.1, "LON": -108.8, "VMAX": 155.0, "MSLP": 914.0, "RMAX": 10.0, "FSPD": 4.45391, "FDIR": 276.6327, "RENV": 200.0, "PENV": 1009.0, "VALIDT": 0, "DTG": "2026-09-25 18:00", "LATNOW": 30.0, "LONNOW": -108.5, "WINDNOW": 30.0, "DIRNOW": 7.0, "SPDNOW": 1.0, "TECH": "TRAK", "ADVNR": 38, "ATCFID": "EP172026", "NAME": "POLO", "FTECH": "OFCL", "FCST_DTG": "2026-09-30 00:00:00", "RUN_DTG": "2026-09-30 19:23:40", "BASIN": "EP", "STMNR": 17, "CAT_ID": null, "CAT_DESC": null, "MSGID": "WTPZ22 KNHC 300230", "VALIDTIME": "2026-09-25 18:00:00" }, "geometry": { "type": "Point", "coordinates": [ -108.800003, 17.1 ] } },
{ "type": "Feature", "properties": { "ID": 108815, "LAT": 17.2, "LON": -109.7, "VMAX": 150.0, "MSLP": 911.0, "RMAX": 10.0, "FSPD": 4.22061, "FDIR": 291.4485, "RENV": 250.0, "PENV": 1009.0, "VALIDT": 0, "DTG": "2026-09-26 00:00", "LATNOW": 30.0, "LONNOW": -108.5, "WINDNOW": 30.0, "DIRNOW": 7.0, "SPDNOW": 1.0, "TECH": "TRAK", "ADVNR": 38, "ATCFID": "EP172026", "NAME": "POLO", "FTECH": "OFCL", "FCST_DTG": "2026-09-30 00:00:00", "RUN_DTG": "2026-09-30 19:23:40", "BASIN": "EP", "STMNR": 17, "CAT_ID": null, "CAT_DESC": null, "MSGID": "WTPZ22 KNHC 300230", "VALIDTIME": "2026-09-26 00:00:00" }, "geometry": { "type": "Point", "coordinates": [ -109.699997, 17.200001 ] } },
{ "type": "Feature", "properties": { "ID": 108816, "LAT": 17.5, "LON": -110.5, "VMAX": 150.0, "MSLP": 912.0, "RMAX": 10.0, "FSPD": 4.53163, "FDIR": 283.12326, "RENV": 240.0, "PENV": 1009.0, "VALIDT": 0, "DTG": "2026-09-26 06:00", "LATNOW": 30.0, "LONNOW": -108.5, "WINDNOW": 30.0, "DIRNOW": 7.0, "SPDNOW": 1.0, "TECH": "TRAK", "ADVNR": 38, "ATCFID": "EP172026", "NAME": "POLO", "FTECH": "OFCL", "FCST_DTG": "2026-09-30 00:00:00", "RUN_DTG": "2026-09-30 19:23:40", "BASIN": "EP", "STMNR": 17, "CAT_ID": null, "CAT_DESC": null, "MSGID": "WTPZ22 KNHC 300230", "VALIDTIME": "2026-09-26 06:00:00" }, "geometry": { "type": "Point", "coordinates": [ -110.5, 17.5 ] } },
{ "type": "Feature", "properties": { "ID": 108817, "LAT": 17.7, "LON": -111.4, "VMAX": 140.0, "MSLP": 922.0, "RMAX": 10.0, "FSPD": 4.98474, "FDIR": 308.25928, "RENV": 240.0, "PENV": 1008.0, "VALIDT": 0, "DTG": "2026-09-26 12:00", "LATNOW": 30.0, "LONNOW": -108.5, "WINDNOW": 30.0, "DIRNOW": 7.0, "SPDNOW": 1.0, "TECH": "TRAK", "ADVNR": 38, "ATCFID": "EP172026", "NAME": "POLO", "FTECH": "OFCL", "FCST_DTG": "2026-09-30 00:00:00", "RUN_DTG": "2026-09-30 19:23:40", "BASIN": "EP", "STMNR": 17, "CAT_ID": null, "CAT_DESC": null, "MSGID": "WTPZ22 KNHC 300230", "VALIDTIME": "2026-09-26 12:00:00" }, "geometry": { "type": "Point", "coordinates": [ -111.400002, 17.700001 ] } },
{ "type": "Feature", "properties": { "ID": 108818, "LAT": 18.3, "LON": -112.2, "VMAX": 125.0, "MSLP": 938.0, "RMAX": 15.0, "FSPD": 4.96085, "FDIR": 316.5443, "RENV": 155.0, "PENV": 1008.0, "VALIDT": 0, "DTG": "2026-09-26 18:00", "LATNOW": 30.0, "LONNOW": -108.5, "WINDNOW": 30.0, "DIRNOW": 7.0, "SPDNOW": 1.0, "TECH": "TRAK", "ADVNR": 38, "ATCFID": "EP172026", "NAME": "POLO", "FTECH": "OFCL", "FCST_DTG": "2026-09-30 00:00:00", "RUN_DTG": "2026-09-30 19:23:40", "BASIN": "EP", "STMNR": 17, "CAT_ID": null, "CAT_DESC": null, "MSGID": "WTPZ22 KNHC 300230", "VALIDTIME": "2026-09-26 18:00:00" }, "geometry": { "type": "Point", "coordinates": [ -112.199997, 18.299999 ] } },
{ "type": "Feature", "properties": { "ID": 108819, "LAT": 19.0, "LON": -112.9, "VMAX": 110.0, "MSLP": 946.0, "RMAX": 15.0, "FSPD": 4.77746, "FDIR": 329.48, "RENV": 150.0, "PENV": 1008.0, "VALIDT": 0, "DTG": "2026-09-27 00:00", "LATNOW": 30.0, "LONNOW": -108.5, "WINDNOW": 30.0, "DIRNOW": 7.0, "SPDNOW": 1.0, "TECH": "TRAK", "ADVNR": 38, "ATCFID": "EP172026", "NAME": "POLO", "FTECH": "OFCL", "FCST_DTG": "2026-09-30 00:00:00", "RUN_DTG": "2026-09-30 19:23:40", "BASIN": "EP", "STMNR": 17, "CAT_ID": null, "CAT_DESC": null, "MSGID": "WTPZ22 KNHC 300230", "VALIDTIME": "2026-09-27 00:00:00" }, "geometry": { "type": "Point", "coordinates": [ -112.900002, 19.0 ] } },
{ "type": "Feature", "properties": { "ID": 108820, "LAT": 19.8, "LON": -113.4, "VMAX": 105.0, "MSLP": 952.0, "RMAX": 15.0, "FSPD": 5.3442, "FDIR": 344.28537, "RENV": 160.0, "PENV": 1008.0, "VALIDT": 0, "DTG": "2026-09-27 06:00", "LATNOW": 30.0, "LONNOW": -108.5, "WINDNOW": 30.0, "DIRNOW": 7.0, "SPDNOW": 1.0, "TECH": "TRAK", "ADVNR": 38, "ATCFID": "EP172026", "NAME": "POLO", "FTECH": "OFCL", "FCST_DTG": "2026-09-30 00:00:00", "RUN_DTG": "2026-09-30 19:23:40", "BASIN": "EP", "STMNR": 17, "CAT_ID": null, "CAT_DESC": null, "MSGID": "WTPZ22 KNHC 300230", "VALIDTIME": "2026-09-27 06:00:00" }, "geometry": { "type": "Point", "coordinates": [ -113.400002, 19.799999 ] } },
{ "type": "Feature", "properties": { "ID": 108821, "LAT": 20.8, "LON": -113.7, "VMAX": 105.0, "MSLP": 952.0, "RMAX": 15.0, "FSPD": 3.40599, "FDIR": 334.99182, "RENV": 180.0, "PENV": 1008.0, "VALIDT": 0, "DTG": "2026-09-27 12:00", "LATNOW": 30.0, "LONNOW": -108.5, "WINDNOW": 30.0, "DIRNOW": 7.0, "SPDNOW": 1.0, "TECH": "TRAK", "ADVNR": 38, "ATCFID": "EP172026", "NAME": "POLO", "FTECH": "OFCL", "FCST_DTG": "2026-09-30 00:00:00", "RUN_DTG": "2026-09-30 19:23:40", "BASIN": "EP", "STMNR": 17, "CAT_ID": null, "CAT_DESC": null, "MSGID": "WTPZ22 KNHC 300230", "VALIDTIME": "2026-09-27 12:00:00" }, "geometry": { "type": "Point", "coordinates": [ -113.699997, 20.799999 ] } },
{ "type": "Feature", "properties": { "ID": 108822, "LAT": 21.4, "LON": -114.0, "VMAX": 110.0, "MSLP": 951.0, "RMAX": 15.0, "FSPD": 5.16654, "FDIR": 354.69913, "RENV": 200.0, "PENV": 1007.0, "VALIDT": 0, "DTG": "2026-09-27 18:00", "LATNOW": 30.0, "LONNOW": -108.5, "WINDNOW": 30.0, "DIRNOW": 7.0, "SPDNOW": 1.0, "TECH": "TRAK", "ADVNR": 38, "ATCFID": "EP172026", "NAME": "POLO", "FTECH": "OFCL", "FCST_DTG": "2026-09-30 00:00:00", "RUN_DTG": "2026-09-30 19:23:40", "BASIN": "EP", "STMNR": 17, "CAT_ID": null, "CAT_DESC": null, "MSGID": "WTPZ22 KNHC 300230", "VALIDTIME": "2026-09-27 18:00:00" }, "geometry": { "type": "Point", "coordinates": [ -114.0, 21.4 ] } },
{ "type": "Feature", "properties": { "ID": 108823, "LAT": 22.4, "LON": -114.1, "VMAX": 110.0, "MSLP": 951.0, "RMAX": 15.0, "FSPD": 4.14279, "FDIR": 6.57324, "RENV": 200.0, "PENV": 1007.0, "VALIDT": 0, "DTG": "2026-09-28 00:00", "LATNOW": 30.0, "LONNOW": -108.5, "WINDNOW": 30.0, "DIRNOW": 7.0, "SPDNOW": 1.0, "TECH": "TRAK", "ADVNR": 38, "ATCFID": "EP172026", "NAME": "POLO", "FTECH": "OFCL", "FCST_DTG": "2026-09-30 00:00:00", "RUN_DTG": "2026-09-30 19:23:40", "BASIN": "EP", "STMNR": 17, "CAT_ID": null, "CAT_DESC": null, "MSGID": "WTPZ22 KNHC 300230", "VALIDTIME": "2026-09-28 00:00:00" }, "geometry": { "type": "Point", "coordinates": [ -114.099998, 22.4 ] } },
{ "type": "Feature", "properties": { "ID": 108824, "LAT": 23.2, "LON": -114.0, "VMAX": 105.0, "MSLP": 955.0, "RMAX": 15.0, "FSPD": 3.86906, "FDIR": 21.44891, "RENV": 190.0, "PENV": 1007.0, "VALIDT": 0, "DTG": "2026-09-28 06:00", "LATNOW": 30.0, "LONNOW": -108.5, "WINDNOW": 30.0, "DIRNOW": 7.0, "SPDNOW": 1.0, "TECH": "TRAK", "ADVNR": 38, "ATCFID": "EP172026", "NAME": "POLO", "FTECH": "OFCL", "FCST_DTG": "2026-09-30 00:00:00", "RUN_DTG": "2026-09-30 19:23:40", "BASIN": "EP", "STMNR": 17, "CAT_ID": null, "CAT_DESC": null, "MSGID": "WTPZ22 KNHC 300230", "VALIDTIME": "2026-09-28 06:00:00" }, "geometry": { "type": "Point", "coordinates": [ -114.0, 23.200001 ] } },
{ "type": "Feature", "properties": { "ID": 108825, "LAT": 23.9, "LON": -113.7, "VMAX": 100.0, "MSLP": 958.0, "RMAX": 15.0, "FSPD": 3.86627, "FDIR": 21.34302, "RENV": 140.0, "PENV": 1005.0, "VALIDT": 0, "DTG": "2026-09-28 12:00", "LATNOW": 30.0, "LONNOW": -108.5, "WINDNOW": 30.0, "DIRNOW": 7.0, "SPDNOW": 1.0, "TECH": "TRAK", "ADVNR": 38, "ATCFID": "EP172026", "NAME": "POLO", "FTECH": "OFCL", "FCST_DTG": "2026-09-30 00:00:00", "RUN_DTG": "2026-09-30 19:23:40", "BASIN": "EP", "STMNR": 17, "CAT_ID": null, "CAT_DESC": null, "MSGID": "WTPZ22 KNHC 300230", "VALIDTIME": "2026-09-28 12:00:00" }, "geometry": { "type": "Point", "coordinates": [ -113.699997, 23.9 ] } },
{ "type": "Feature", "properties": { "ID": 108826, "LAT": 24.6, "LON": -113.4, "VMAX": 100.0, "MSLP": 963.0, "RMAX": 15.0, "FSPD": 5.40891, "FDIR": 31.13019, "RENV": 140.0, "PENV": 1005.0, "VALIDT": 0, "DTG": "2026-09-28 18:00", "LATNOW": 30.0, "LONNOW": -108.5, "WINDNOW": 30.0, "DIRNOW": 7.0, "SPDNOW": 1.0, "TECH": "TRAK", "ADVNR": 38, "ATCFID": "EP172026", "NAME": "POLO", "FTECH": "OFCL", "FCST_DTG": "2026-09-30 00:00:00", "RUN_DTG": "2026-09-30 19:23:40", "BASIN": "EP", "STMNR": 17, "CAT_ID": null, "CAT_DESC": null, "MSGID": "WTPZ22 KNHC 300230", "VALIDTIME": "2026-09-28 18:00:00" }, "geometry": { "type": "Point", "coordinates": [ -113.400002, 24.6 ] } },
{ "type": "Feature", "properties": { "ID": 108827, "LAT": 25.5, "LON": -112.8, "VMAX": 100.0, "MSLP": 963.0, "RMAX": 15.0, "FSPD": 3.18187, "FDIR": 60.98499, "RENV": 140.0, "PENV": 1005.0, "VALIDT": 0, "DTG": "2026-09-29 00:00", "LATNOW": 30.0, "LONNOW": -108.5, "WINDNOW": 30.0, "DIRNOW": 7.0, "SPDNOW": 1.0, "TECH": "TRAK", "ADVNR": 38, "ATCFID": "EP172026", "NAME": "POLO", "FTECH": "OFCL", "FCST_DTG": "2026-09-30 00:00:00", "RUN_DTG": "2026-09-30 19:23:40", "BASIN": "EP", "STMNR": 17, "CAT_ID": null, "CAT_DESC": null, "MSGID": "WTPZ22 KNHC 300230", "VALIDTIME": "2026-09-29 00:00:00" }, "geometry": { "type": "Point", "coordinates": [ -112.800003, 25.5 ] } },
{ "type": "Feature", "properties": { "ID": 108828, "LAT": 25.8, "LON": -112.2, "VMAX": 90.0, "MSLP": 967.0, "RMAX": 20.0, "FSPD": 6.51431, "FDIR": 29.6936, "RENV": 140.0, "PENV": 1005.0, "VALIDT": 0, "DTG": "2026-09-29 06:00", "LATNOW": 30.0, "LONNOW": -108.5, "WINDNOW": 30.0, "DIRNOW": 7.0, "SPDNOW": 1.0, "TECH": "TRAK", "ADVNR": 38, "ATCFID": "EP172026", "NAME": "POLO", "FTECH": "OFCL", "FCST_DTG": "2026-09-30 00:00:00", "RUN_DTG": "2026-09-30 19:23:40", "BASIN": "EP", "STMNR": 17, "CAT_ID": null, "CAT_DESC": null, "MSGID": "WTPZ22 KNHC 300230", "VALIDTIME": "2026-09-29 06:00:00" }, "geometry": { "type": "Point", "coordinates": [ -112.199997, 25.799999 ] } },
{ "type": "Feature", "properties": { "ID": 108829, "LAT": 26.9, "LON": -111.5, "VMAX": 65.0, "MSLP": 981.0, "RMAX": 20.0, "FSPD": 6.99319, "FDIR": 35.98215, "RENV": 140.0, "PENV": 1005.0, "VALIDT": 0, "DTG": "2026-09-29 12:00", "LATNOW": 30.0, "LONNOW": -108.5, "WINDNOW": 30.0, "DIRNOW": 7.0, "SPDNOW": 1.0, "TECH": "TRAK", "ADVNR": 38, "ATCFID": "EP172026", "NAME": "POLO", "FTECH": "OFCL", "FCST_DTG": "2026-09-30 00:00:00", "RUN_DTG": "2026-09-30 19:23:40", "BASIN": "EP", "STMNR": 17, "CAT_ID": null, "CAT_DESC": null, "MSGID": "WTPZ22 KNHC 300230", "VALIDTIME": "2026-09-29 12:00:00" }, "geometry": { "type": "Point", "coordinates": [ -111.5, 26.9 ] } },
{ "type": "Feature", "properties": { "ID": 108830, "LAT": 28.0, "LON": -110.6, "VMAX": 60.0, "MSLP": 987.0, "RMAX": 20.0, "FSPD": 13.96929, "FDIR": 42.56281, "RENV": 140.0, "PENV": 1005.0, "VALIDT": 0, "DTG": "2026-09-29 18:00", "LATNOW": 30.0, "LONNOW": -108.5, "WINDNOW": 30.0, "DIRNOW": 7.0, "SPDNOW": 1.0, "TECH": "TRAK", "ADVNR": 38, "ATCFID": "EP172026", "NAME": "POLO", "FTECH": "OFCL", "FCST_DTG": "2026-09-30 00:00:00", "RUN_DTG": "2026-09-30 19:23:40", "BASIN": "EP", "STMNR": 17, "CAT_ID": null, "CAT_DESC": null, "MSGID": "WTPZ22 KNHC 300230", "VALIDTIME": "2026-09-29 18:00:00" }, "geometry": { "type": "Point", "coordinates": [ -110.599998, 28.0 ] } },
{ "type": "Feature", "properties": { "ID": 108831, "LAT": 30.0, "LON": -108.5, "VMAX": 30.0, "MSLP": 996.0, "RMAX": 20.0, "FSPD": 6.79809, "FDIR": 40.82159, "RENV": 140.0, "PENV": 1005.0, "VALIDT": 0, "DTG": "2026-09-30 00:00", "LATNOW": 30.0, "LONNOW": -108.5, "WINDNOW": 30.0, "DIRNOW": 7.0, "SPDNOW": 1.0, "TECH": "TRAK", "ADVNR": 38, "ATCFID": "EP172026", "NAME": "POLO", "FTECH": "OFCL", "FCST_DTG": "2026-09-30 00:00:00", "RUN_DTG": "2026-09-30 19:23:40", "BASIN": "EP", "STMNR": 17, "CAT_ID": null, "CAT_DESC": null, "MSGID": "WTPZ22 KNHC 300230", "VALIDTIME": "2026-09-30 00:00:00" }, "geometry": { "type": "Point", "coordinates": [ -108.5, 30.0 ] } },
{ "type": "Feature", "properties": { "ID": 108832, "LAT": 30.5, "LON": -108.0, "VMAX": 30.0, "MSLP": 996.0, "RMAX": 20.0, "FSPD": 6.79809, "FDIR": 40.82159, "RENV": 250.0, "PENV": 1012.0, "VALIDT": 3, "DTG": "2026-09-30 03:00", "LATNOW": 30.0, "LONNOW": -108.5, "WINDNOW": 30.0, "DIRNOW": 7.0, "SPDNOW": 1.0, "TECH": "FCST", "ADVNR": 38, "ATCFID": "EP172026", "NAME": "POLO", "FTECH": "OFCL", "FCST_DTG": "2026-09-30 00:00:00", "RUN_DTG": "2026-09-30 19:23:40", "BASIN": "EP", "STMNR": 17, "CAT_ID": null, "CAT_DESC": null, "MSGID": "WTPZ22 KNHC 300230", "VALIDTIME": "2026-09-30 03:00:00" }, "geometry": { "type": "Point", "coordinates": [ -108.0, 30.5 ] } },
{ "type": "Feature", "properties": { "ID": 108831, "LAT": 30.0, "LON": -108.5, "VMAX": 30.0, "MSLP": 996.0, "RMAX": 20.0, "FSPD": 6.79809, "FDIR": 40.82159, "RENV": 140.0, "PENV": 1005.0, "VALIDT": 0, "DTG": "2026-09-30 00:00", "LATNOW": 30.0, "LONNOW": -108.5, "WINDNOW": 30.0, "DIRNOW": 7.0, "SPDNOW": 1.0, "TECH": "TRAK", "ADVNR": 38, "ATCFID": "EP172026", "NAME": "POLO", "FTECH": "OFCL", "FCST_DTG": "2026-09-30 00:00:00", "RUN_DTG": "2026-09-30 19:23:40", "BASIN": "EP", "STMNR": 17, "CAT_ID": null, "CAT_DESC": null, "MSGID": "WTPZ22 KNHC 300230", "VALIDTIME": "2026-09-30 00:00:00" }, "geometry": { "type": "LineString", "coordinates": [ [ -105.0, 7.0 ], [ -105.8, 7.0 ], [ -105.7, 8.4 ], [ -105.9, 9.4 ], [ -105.9, 10.3 ], [ -106.0, 11.2 ], [ -106.3, 12.6 ], [ -105.8, 13.4 ], [ -105.9, 14.0 ], [ -105.1, 14.5 ], [ -104.8, 15.1 ], [ -104.0, 15.5 ], [ -103.6, 15.5 ], [ -103.0, 15.2 ], [ -102.5, 15.1 ], [ -102.0, 14.7 ], [ -101.6, 14.7 ], [ -101.5, 14.6 ], [ -101.4, 14.6 ], [ -101.3, 14.8 ], [ -101.5, 15.2 ], [ -102.1, 15.5 ], [ -102.3, 15.8 ], [ -103.0, 16.4 ], [ -103.9, 16.7 ], [ -104.9, 16.9 ], [ -106.1, 17.1 ], [ -107.0, 17.1 ], [ -108.0, 17.1 ], [ -108.8, 17.1 ], [ -109.7, 17.2 ], [ -110.5, 17.5 ], [ -111.4, 17.7 ], [ -112.2, 18.3 ], [ -112.9, 19.0 ], [ -113.4, 19.8 ], [ -113.7, 20.8 ], [ -114.0, 21.4 ], [ -114.1, 22.4 ], [ -114.0, 23.2 ], [ -113.7, 23.9 ], [ -113.4, 24.6 ], [ -112.8, 25.5 ], [ -112.2, 25.8 ], [ -111.5, 26.9 ], [ -110.6, 28.0 ], [ -108.5, 30.0 ] ] } },
{ "type": "Feature", "properties": { "ID": 108832, "LAT": 30.5, "LON": -108.0, "VMAX": 30.0, "MSLP": 996.0, "RMAX": 20.0, "FSPD": 6.79809, "FDIR": 40.82159, "RENV": 250.0, "PENV": 1012.0, "VALIDT": 3, "DTG": "2026-09-30 03:00", "LATNOW": 30.0, "LONNOW": -108.5, "WINDNOW": 30.0, "DIRNOW": 7.0, "SPDNOW": 1.0, "TECH": "FCST", "ADVNR": 38, "ATCFID": "EP172026", "NAME": "POLO", "FTECH": "OFCL", "FCST_DTG": "2026-09-30 00:00:00", "RUN_DTG": "2026-09-30 19:23:40", "BASIN": "EP", "STMNR": 17, "CAT_ID": null, "CAT_DESC": null, "MSGID": "WTPZ22 KNHC 300230", "VALIDTIME": "2026-09-30 03:00:00" }, "geometry": { "type": "LineString", "coordinates": [ [ -108.5, 30.0 ], [ -108.0, 30.5 ] ] } }
]
}
