{
"type": "FeatureCollection",
"crs": { "type": "name", "properties": { "name": "urn:ogc:def:crs:OGC:1.3:CRS84" } },
"features": [
{ "type": "Feature", "properties": { "ID": 245618, "LAT": 12.0, "LON": -102.7, "VMAX": 20.0, "MSLP": 1009.0, "RMAX": 100.0, "FSPD": 3.52244, "FDIR": 269.99997, "RENV": 150.0, "PENV": 1010.0, "VALIDT": 0, "DTG": "2024-08-16 12:00", "LATNOW": 20.4, "LONNOW": -152.2, "WINDNOW": 25.0, "DIRNOW": 3.0, "SPDNOW": 2.0, "TECH": "TRAK", "ADVNR": 38, "ATCFID": "EP072024", "NAME": "GILMA", "FTECH": "OFCL", "FCST_DTG": "2024-08-30 00:00:00", "RUN_DTG": "2024-08-30 15:19:35", "BASIN": "EP", "STMNR": 7, "CAT_ID": null, "CAT_DESC": null, "MSGID": "WTPZ22 KNHC 271444", "VALIDTIME": "2024-08-16 12:00:00" }, "geometry": { "type": "Point", "coordinates": [ -102.699997, 12.0 ] } },
{ "type": "Feature", "properties": { "ID": 245619, "LAT": 12.0, "LON": -103.4, "VMAX": 20.0, "MSLP": 1009.0, "RMAX": 100.0, "FSPD": 3.5224, "FDIR": 269.99997, "RENV": 150.0, "PENV": 1010.0, "VALIDT": 0, "DTG": "2024-08-16 18:00", "LATNOW": 20.4, "LONNOW": -152.2, "WINDNOW": 25.0, "DIRNOW": 3.0, "SPDNOW": 2.0, "TECH": "TRAK", "ADVNR": 38, "ATCFID": "EP072024", "NAME": "GILMA", "FTECH": "OFCL", "FCST_DTG": "2024-08-30 00:00:00", "RUN_DTG": "2024-08-30 15:19:35", "BASIN": "EP", "STMNR": 7, "CAT_ID": null, "CAT_DESC": null, "MSGID": "WTPZ22 KNHC 271444", "VALIDTIME": "2024-08-16 18:00:00" }, "geometry": { "type": "Point", "coordinates": [ -103.400002, 12.0 ] } },
{ "type": "Feature", "properties": { "ID": 245620, "LAT": 12.0, "LON": -104.1, "VMAX": 25.0, "MSLP": 1009.0, "RMAX": 90.0, "FSPD": 5.55805, "FDIR": 275.3108, "RENV": 100.0, "PENV": 1010.0, "VALIDT": 0, "DTG": "2024-08-17 00:00", "LATNOW": 20.4, "LONNOW": -152.2, "WINDNOW": 25.0, "DIRNOW": 3.0, "SPDNOW": 2.0, "TECH": "TRAK", "ADVNR": 38, "ATCFID": "EP072024", "NAME": "GILMA", "FTECH": "OFCL", "FCST_DTG": "2024-08-30 00:00:00", "RUN_DTG": "2024-08-30 15:19:35", "BASIN": "EP", "STMNR": 7, "CAT_ID": null, "CAT_DESC": null, "MSGID": "WTPZ22 KNHC 271444", "VALIDTIME": "2024-08-17 00:00:00" }, "geometry": { "type": "Point", "coordinates": [ -104.099998, 12.0 ] } },
{ "type": "Feature", "properties": { "ID": 245621, "LAT": 12.1, "LON": -105.2, "VMAX": 25.0, "MSLP": 1009.0, "RMAX": 90.0, "FSPD": 6.88919, "FDIR": 306.68335, "RENV": 100.0, "PENV": 1010.0, "VALIDT": 0, "DTG": "2024-08-17 06:00", "LATNOW": 20.4, "LONNOW": -152.2, "WINDNOW": 25.0, "DIRNOW": 3.0, "SPDNOW": 2.0, "TECH": "TRAK", "ADVNR": 38, "ATCFID": "EP072024", "NAME": "GILMA", "FTECH": "OFCL", "FCST_DTG": "2024-08-30 00:00:00", "RUN_DTG": "2024-08-30 15:19:35", "BASIN": "EP", "STMNR": 7, "CAT_ID": null, "CAT_DESC": null, "MSGID": "WTPZ22 KNHC 271444", "VALIDTIME": "2024-08-17 06:00:00" }, "geometry": { "type": "Point", "coordinates": [ -105.199997, 12.1 ] } },
{ "type": "Feature", "properties": { "ID": 245622, "LAT": 12.9, "LON": -106.3, "VMAX": 25.0, "MSLP": 1008.0, "RMAX": 70.0, "FSPD": 4.76207, "FDIR": 302.69373, "RENV": 130.0, "PENV": 1010.0, "VALIDT": 0, "DTG": "2024-08-17 12:00", "LATNOW": 20.4, "LONNOW": -152.2, "WINDNOW": 25.0, "DIRNOW": 3.0, "SPDNOW": 2.0, "TECH": "TRAK", "ADVNR": 38, "ATCFID": "EP072024", "NAME": "GILMA", "FTECH": "OFCL", "FCST_DTG": "2024-08-30 00:00:00", "RUN_DTG": "2024-08-30 15:19:35", "BASIN": "EP", "STMNR": 7, "CAT_ID": null, "CAT_DESC": null, "MSGID": "WTPZ22 KNHC 271444", "VALIDTIME": "2024-08-17 12:00:00" }, "geometry": { "type": "Point", "coordinates": [ -106.300003, 12.9 ] } },
{ "type": "Feature", "properties": { "ID": 245623, "LAT": 13.4, "LON": -107.1, "VMAX": 25.0, "MSLP": 1008.0, "RMAX": 70.0, "FSPD": 7.29647, "FDIR": 286.38104, "RENV": 130.0, "PENV": 1010.0, "VALIDT": 0, "DTG": "2024-08-17 18:00", "LATNOW": 20.4, "LONNOW": -152.2, "WINDNOW": 25.0, "DIRNOW": 3.0, "SPDNOW": 2.0, "TECH": "TRAK", "ADVNR": 38, "ATCFID": "EP072024", "NAME": "GILMA", "FTECH": "OFCL", "FCST_DTG": "2024-08-30 00:00:00", "RUN_DTG": "2024-08-30 15:19:35", "BASIN": "EP", "STMNR": 7, "CAT_ID": null, "CAT_DESC": null, "MSGID": "WTPZ22 KNHC 271444", "VALIDTIME": "2024-08-17 18:00:00" }, "geometry": { "type": "Point", "coordinates": [ -107.099998, 13.4 ] } },
{ "type": "Feature", "properties": { "ID": 245624, "LAT": 13.8, "LON": -108.5, "VMAX": 25.0, "MSLP": 1008.0, "RMAX": 70.0, "FSPD": 4.02889, "FDIR": 277.336, "RENV": 130.0, "PENV": 1010.0, "VALIDT": 0, "DTG": "2024-08-18 00:00", "LATNOW": 20.4, "LONNOW": -152.2, "WINDNOW": 25.0, "DIRNOW": 3.0, "SPDNOW": 2.0, "TECH": "TRAK", "ADVNR": 38, "ATCFID": "EP072024", "NAME": "GILMA", "FTECH": "OFCL", "FCST_DTG": "2024-08-30 00:00:00", "RUN_DTG": "2024-08-30 15:19:35", "BASIN": "EP", "STMNR": 7, "CAT_ID": null, "CAT_DESC": null, "MSGID": "WTPZ22 KNHC 271444", "VALIDTIME": "2024-08-18 00:00:00" }, "geometry": { "type": "Point", "coordinates": [ -108.5, 13.8 ] } },
{ "type": "Feature", "properties": { "ID": 245625, "LAT": 13.9, "LON": -109.3, "VMAX": 25.0, "MSLP": 1008.0, "RMAX": 70.0, "FSPD": 5.4474, "FDIR": 304.51562, "RENV": 130.0, "PENV": 1010.0, "VALIDT": 0, "DTG": "2024-08-18 06:00", "LATNOW": 20.4, "LONNOW": -152.2, "WINDNOW": 25.0, "DIRNOW": 3.0, "SPDNOW": 2.0, "TECH": "TRAK", "ADVNR": 38, "ATCFID": "EP072024", "NAME": "GILMA", "FTECH": "OFCL", "FCST_DTG": "2024-08-30 00:00:00", "RUN_DTG": "2024-08-30 15:19:35", "BASIN": "EP", "STMNR": 7, "CAT_ID": null, "CAT_DESC": null, "MSGID": "WTPZ22 KNHC 271444", "VALIDTIME": "2024-08-18 06:00:00" }, "geometry": { "type": "Point", "coordinates": [ -109.300003, 13.9 ] } },
{ "type": "Feature", "properties": { "ID": 245626, "LAT": 14.5, "LON": -110.2, "VMAX": 30.0, "MSLP": 1007.0, "RMAX": 70.0, "FSPD": 8.03153, "FDIR": 277.36017, "RENV": 120.0, "PENV": 1009.0, "VALIDT": 0, "DTG": "2024-08-18 12:00", "LATNOW": 20.4, "LONNOW": -152.2, "WINDNOW": 25.0, "DIRNOW": 3.0, "SPDNOW": 2.0, "TECH": "TRAK", "ADVNR": 38, "ATCFID": "EP072024", "NAME": "GILMA", "FTECH": "OFCL", "FCST_DTG": "2024-08-30 00:00:00", "RUN_DTG": "2024-08-30 15:19:35", "BASIN": "EP", "STMNR": 7, "CAT_ID": null, "CAT_DESC": null, "MSGID": "WTPZ22 KNHC 271444", "VALIDTIME": "2024-08-18 12:00:00" }, "geometry": { "type": "Point", "coordinates": [ -110.199997, 14.5 ] } },
{ "type": "Feature", "properties": { "ID": 245627, "LAT": 14.7, "LON": -111.8, "VMAX": 35.0, "MSLP": 1006.0, "RMAX": 40.0, "FSPD": 5.97125, "FDIR": 269.99997, "RENV": 120.0, "PENV": 1009.0, "VALIDT": 0, "DTG": "2024-08-18 18:00", "LATNOW": 20.4, "LONNOW": -152.2, "WINDNOW": 25.0, "DIRNOW": 3.0, "SPDNOW": 2.0, "TECH": "TRAK", "ADVNR": 38, "ATCFID": "EP072024", "NAME": "GILMA", "FTECH": "OFCL", "FCST_DTG": "2024-08-30 00:00:00", "RUN_DTG": "2024-08-30 15:19:35", "BASIN": "EP", "STMNR": 7, "CAT_ID": null, "CAT_DESC": null, "MSGID": "WTPZ22 KNHC 271444", "VALIDTIME": "2024-08-18 18:00:00" }, "geometry": { "type": "Point", "coordinates": [ -111.800003, 14.7 ] } },
{ "type": "Feature", "properties": { "ID": 245628, "LAT": 14.7, "LON": -113.0, "VMAX": 35.0, "MSLP": 1005.0, "RMAX": 40.0, "FSPD": 5.56704, "FDIR": 280.65048, "RENV": 120.0, "PENV": 1009.0, "VALIDT": 0, "DTG": "2024-08-19 00:00", "LATNOW": 20.4, "LONNOW": -152.2, "WINDNOW": 25.0, "DIRNOW": 3.0, "SPDNOW": 2.0, "TECH": "TRAK", "ADVNR": 38, "ATCFID": "EP072024", "NAME": "GILMA", "FTECH": "OFCL", "FCST_DTG": "2024-08-30 00:00:00", "RUN_DTG": "2024-08-30 15:19:35", "BASIN": "EP", "STMNR": 7, "CAT_ID": null, "CAT_DESC": null, "MSGID": "WTPZ22 KNHC 271444", "VALIDTIME": "2024-08-19 00:00:00" }, "geometry": { "type": "Point", "coordinates": [ -113.0, 14.7 ] } },
{ "type": "Feature", "properties": { "ID": 245629, "LAT": 14.9, "LON": -114.1, "VMAX": 45.0, "MSLP": 1000.0, "RMAX": 30.0, "FSPD": 6.97744, "FDIR": 274.2282, "RENV": 120.0, "PENV": 1009.0, "VALIDT": 0, "DTG": "2024-08-19 06:00", "LATNOW": 20.4, "LONNOW": -152.2, "WINDNOW": 25.0, "DIRNOW": 3.0, "SPDNOW": 2.0, "TECH": "TRAK", "ADVNR": 38, "ATCFID": "EP072024", "NAME": "GILMA", "FTECH": "OFCL", "FCST_DTG": "2024-08-30 00:00:00", "RUN_DTG": "2024-08-30 15:19:35", "BASIN": "EP", "STMNR": 7, "CAT_ID": null, "CAT_DESC": null, "MSGID": "WTPZ22 KNHC 271444", "VALIDTIME": "2024-08-19 06:00:00" }, "geometry": { "type": "Point", "coordinates": [ -114.099998, 14.9 ] } },
{ "type": "Feature", "properties": { "ID": 245630, "LAT": 15.0, "LON": -115.5, "VMAX": 45.0, "MSLP": 1000.0, "RMAX": 30.0, "FSPD": 4.96915, "FDIR": 269.99997, "RENV": 150.0, "PENV": 1009.0, "VALIDT": 0, "DTG": "2024-08-19 12:00", "LATNOW": 20.4, "LONNOW": -152.2, "WINDNOW": 25.0, "DIRNOW": 3.0, "SPDNOW": 2.0, "TECH": "TRAK", "ADVNR": 38, "ATCFID": "EP072024", "NAME": "GILMA", "FTECH": "OFCL", "FCST_DTG": "2024-08-30 00:00:00", "RUN_DTG": "2024-08-30 15:19:35", "BASIN": "EP", "STMNR": 7, "CAT_ID": null, "CAT_DESC": null, "MSGID": "WTPZ22 KNHC 271444", "VALIDTIME": "2024-08-19 12:00:00" }, "geometry": { "type": "Point", "coordinates": [ -115.5, 15.0 ] } },
{ "type": "Feature", "properties": { "ID": 245631, "LAT": 15.0, "LON": -116.5, "VMAX": 50.0, "MSLP": 999.0, "RMAX": 40.0, "FSPD": 1.98767, "FDIR": 269.99997, "RENV": 170.0, "PENV": 1010.0, "VALIDT": 0, "DTG": "2024-08-19 18:00", "LATNOW": 20.4, "LONNOW": -152.2, "WINDNOW": 25.0, "DIRNOW": 3.0, "SPDNOW": 2.0, "TECH": "TRAK", "ADVNR": 38, "ATCFID": "EP072024", "NAME": "GILMA", "FTECH": "OFCL", "FCST_DTG": "2024-08-30 00:00:00", "RUN_DTG": "2024-08-30 15:19:35", "BASIN": "EP", "STMNR": 7, "CAT_ID": null, "CAT_DESC": null, "MSGID": "WTPZ22 KNHC 271444", "VALIDTIME": "2024-08-19 18:00:00" }, "geometry": { "type": "Point", "coordinates": [ -116.5, 15.0 ] } },
{ "type": "Feature", "properties": { "ID": 245632, "LAT": 15.0, "LON": -116.9, "VMAX": 50.0, "MSLP": 999.0, "RMAX": 40.0, "FSPD": 5.4288, "FDIR": 304.65076, "RENV": 170.0, "PENV": 1010.0, "VALIDT": 0, "DTG": "2024-08-20 00:00", "LATNOW": 20.4, "LONNOW": -152.2, "WINDNOW": 25.0, "DIRNOW": 3.0, "SPDNOW": 2.0, "TECH": "TRAK", "ADVNR": 38, "ATCFID": "EP072024", "NAME": "GILMA", "FTECH": "OFCL", "FCST_DTG": "2024-08-30 00:00:00", "RUN_DTG": "2024-08-30 15:19:35", "BASIN": "EP", "STMNR": 7, "CAT_ID": null, "CAT_DESC": null, "MSGID": "WTPZ22 KNHC 271444", "VALIDTIME": "2024-08-20 00:00:00" }, "geometry": { "type": "Point", "coordinates": [ -116.900002, 15.0 ] } },
{ "type": "Feature", "properties": { "ID": 245633, "LAT": 15.6, "LON": -117.8, "VMAX": 45.0, "MSLP": 1000.0, "RMAX": 40.0, "FSPD": 7.10152, "FDIR": 282.55188, "RENV": 170.0, "PENV": 1010.0, "VALIDT": 0, "DTG": "2024-08-20 06:00", "LATNOW": 20.4, "LONNOW": -152.2, "WINDNOW": 25.0, "DIRNOW": 3.0, "SPDNOW": 2.0, "TECH": "TRAK", "ADVNR": 38, "ATCFID": "EP072024", "NAME": "GILMA", "FTECH": "OFCL", "FCST_DTG": "2024-08-30 00:00:00", "RUN_DTG": "2024-08-30 15:19:35", "BASIN": "EP", "STMNR": 7, "CAT_ID": null, "CAT_DESC": null, "MSGID": "WTPZ22 KNHC 271444", "VALIDTIME": "2024-08-20 06:00:00" }, "geometry": { "type": "Point", "coordinates": [ -117.800003, 15.6 ] } },
{ "type": "Feature", "properties": { "ID": 245634, "LAT": 15.9, "LON": -119.2, "VMAX": 45.0, "MSLP": 1000.0, "RMAX": 40.0, "FSPD": 4.97307, "FDIR": 275.93762, "RENV": 200.0, "PENV": 1010.0, "VALIDT": 0, "DTG": "2024-08-20 12:00", "LATNOW": 20.4, "LONNOW": -152.2, "WINDNOW": 25.0, "DIRNOW": 3.0, "SPDNOW": 2.0, "TECH": "TRAK", "ADVNR": 38, "ATCFID": "EP072024", "NAME": "GILMA", "FTECH": "OFCL", "FCST_DTG": "2024-08-30 00:00:00", "RUN_DTG": "2024-08-30 15:19:35", "BASIN": "EP", "STMNR": 7, "CAT_ID": null, "CAT_DESC": null, "MSGID": "WTPZ22 KNHC 271444", "VALIDTIME": "2024-08-20 12:00:00" }, "geometry": { "type": "Point", "coordinates": [ -119.199997, 15.9 ] } },
{ "type": "Feature", "properties": { "ID": 245635, "LAT": 16.0, "LON": -120.2, "VMAX": 55.0, "MSLP": 995.0, "RMAX": 30.0, "FSPD": 4.45065, "FDIR": 269.99997, "RENV": 200.0, "PENV": 1010.0, "VALIDT": 0, "DTG": "2024-08-20 18:00", "LATNOW": 20.4, "LONNOW": -152.2, "WINDNOW": 25.0, "DIRNOW": 3.0, "SPDNOW": 2.0, "TECH": "TRAK", "ADVNR": 38, "ATCFID": "EP072024", "NAME": "GILMA", "FTECH": "OFCL", "FCST_DTG": "2024-08-30 00:00:00", "RUN_DTG": "2024-08-30 15:19:35", "BASIN": "EP", "STMNR": 7, "CAT_ID": null, "CAT_DESC": null, "MSGID": "WTPZ22 KNHC 271444", "VALIDTIME": "2024-08-20 18:00:00" }, "geometry": { "type": "Point", "coordinates": [ -120.199997, 16.0 ] } },
{ "type": "Feature", "properties": { "ID": 245636, "LAT": 16.0, "LON": -121.1, "VMAX": 60.0, "MSLP": 992.0, "RMAX": 30.0, "FSPD": 4.48139, "FDIR": 263.40808, "RENV": 200.0, "PENV": 1010.0, "VALIDT": 0, "DTG": "2024-08-21 00:00", "LATNOW": 20.4, "LONNOW": -152.2, "WINDNOW": 25.0, "DIRNOW": 3.0, "SPDNOW": 2.0, "TECH": "TRAK", "ADVNR": 38, "ATCFID": "EP072024", "NAME": "GILMA", "FTECH": "OFCL", "FCST_DTG": "2024-08-30 00:00:00", "RUN_DTG": "2024-08-30 15:19:35", "BASIN": "EP", "STMNR": 7, "CAT_ID": null, "CAT_DESC": null, "MSGID": "WTPZ22 KNHC 271444", "VALIDTIME": "2024-08-21 00:00:00" }, "geometry": { "type": "Point", "coordinates": [ -121.099998, 16.0 ] } },
{ "type": "Feature", "properties": { "ID": 245637, "LAT": 15.9, "LON": -122.0, "VMAX": 65.0, "MSLP": 990.0, "RMAX": 20.0, "FSPD": 2.47381, "FDIR": 269.99997, "RENV": 190.0, "PENV": 1011.0, "VALIDT": 0, "DTG": "2024-08-21 06:00", "LATNOW": 20.4, "LONNOW": -152.2, "WINDNOW": 25.0, "DIRNOW": 3.0, "SPDNOW": 2.0, "TECH": "TRAK", "ADVNR": 38, "ATCFID": "EP072024", "NAME": "GILMA", "FTECH": "OFCL", "FCST_DTG": "2024-08-30 00:00:00", "RUN_DTG": "2024-08-30 15:19:35", "BASIN": "EP", "STMNR": 7, "CAT_ID": null, "CAT_DESC": null, "MSGID": "WTPZ22 KNHC 271444", "VALIDTIME": "2024-08-21 06:00:00" }, "geometry": { "type": "Point", "coordinates": [ -122.0, 15.9 ] } },
{ "type": "Feature", "properties": { "ID": 245638, "LAT": 15.9, "LON": -122.5, "VMAX": 75.0, "MSLP": 983.0, "RMAX": 15.0, "FSPD": 2.50853, "FDIR": 307.96918, "RENV": 220.0, "PENV": 1011.0, "VALIDT": 0, "DTG": "2024-08-21 12:00", "LATNOW": 20.4, "LONNOW": -152.2, "WINDNOW": 25.0, "DIRNOW": 3.0, "SPDNOW": 2.0, "TECH": "TRAK", "ADVNR": 38, "ATCFID": "EP072024", "NAME": "GILMA", "FTECH": "OFCL", "FCST_DTG": "2024-08-30 00:00:00", "RUN_DTG": "2024-08-30 15:19:35", "BASIN": "EP", "STMNR": 7, "CAT_ID": null, "CAT_DESC": null, "MSGID": "WTPZ22 KNHC 271444", "VALIDTIME": "2024-08-21 12:00:00" }, "geometry": { "type": "Point", "coordinates": [ -122.5, 15.9 ] } },
{ "type": "Feature", "properties": { "ID": 245639, "LAT": 16.2, "LON": -122.9, "VMAX": 90.0, "MSLP": 972.0, "RMAX": 10.0, "FSPD": 3.13617, "FDIR": 289.15167, "RENV": 230.0, "PENV": 1012.0, "VALIDT": 0, "DTG": "2024-08-21 18:00", "LATNOW": 20.4, "LONNOW": -152.2, "WINDNOW": 25.0, "DIRNOW": 3.0, "SPDNOW": 2.0, "TECH": "TRAK", "ADVNR": 38, "ATCFID": "EP072024", "NAME": "GILMA", "FTECH": "OFCL", "FCST_DTG": "2024-08-30 00:00:00", "RUN_DTG": "2024-08-30 15:19:35", "BASIN": "EP", "STMNR": 7, "CAT_ID": null, "CAT_DESC": null, "MSGID": "WTPZ22 KNHC 271444", "VALIDTIME": "2024-08-21 18:00:00" }, "geometry": { "type": "Point", "coordinates": [ -122.900002, 16.200001 ] } },
{ "type": "Feature", "properties": { "ID": 245640, "LAT": 16.4, "LON": -123.5, "VMAX": 95.0, "MSLP": 968.0, "RMAX": 10.0, "FSPD": 2.0395, "FDIR": 284.61017, "RENV": 220.0, "PENV": 1011.0, "VALIDT": 0, "DTG": "2024-08-22 00:00", "LATNOW": 20.4, "LONNOW": -152.2, "WINDNOW": 25.0, "DIRNOW": 3.0, "SPDNOW": 2.0, "TECH": "TRAK", "ADVNR": 38, "ATCFID": "EP072024", "NAME": "GILMA", "FTECH": "OFCL", "FCST_DTG": "2024-08-30 00:00:00", "RUN_DTG": "2024-08-30 15:19:35", "BASIN": "EP", "STMNR": 7, "CAT_ID": null, "CAT_DESC": null, "MSGID": "WTPZ22 KNHC 271444", "VALIDTIME": "2024-08-22 00:00:00" }, "geometry": { "type": "Point", "coordinates": [ -123.5, 16.4 ] } },
{ "type": "Feature", "properties": { "ID": 245641, "LAT": 16.5, "LON": -123.9, "VMAX": 100.0, "MSLP": 963.0, "RMAX": 10.0, "FSPD": 1.80167, "FDIR": 304.8253, "RENV": 230.0, "PENV": 1013.0, "VALIDT": 0, "DTG": "2024-08-22 06:00", "LATNOW": 20.4, "LONNOW": -152.2, "WINDNOW": 25.0, "DIRNOW": 3.0, "SPDNOW": 2.0, "TECH": "TRAK", "ADVNR": 38, "ATCFID": "EP072024", "NAME": "GILMA", "FTECH": "OFCL", "FCST_DTG": "2024-08-30 00:00:00", "RUN_DTG": "2024-08-30 15:19:35", "BASIN": "EP", "STMNR": 7, "CAT_ID": null, "CAT_DESC": null, "MSGID": "WTPZ22 KNHC 271444", "VALIDTIME": "2024-08-22 06:00:00" }, "geometry": { "type": "Point", "coordinates": [ -123.900002, 16.5 ] } },
{ "type": "Feature", "properties": { "ID": 245642, "LAT": 16.7, "LON": -124.2, "VMAX": 110.0, "MSLP": 955.0, "RMAX": 30.0, "FSPD": 2.66875, "FDIR": 292.67667, "RENV": 260.0, "PENV": 1013.0, "VALIDT": 0, "DTG": "2024-08-22 12:00", "LATNOW": 20.4, "LONNOW": -152.2, "WINDNOW": 25.0, "DIRNOW": 3.0, "SPDNOW": 2.0, "TECH": "TRAK", "ADVNR": 38, "ATCFID": "EP072024", "NAME": "GILMA", "FTECH": "OFCL", "FCST_DTG": "2024-08-30 00:00:00", "RUN_DTG": "2024-08-30 15:19:35", "BASIN": "EP", "STMNR": 7, "CAT_ID": null, "CAT_DESC": null, "MSGID": "WTPZ22 KNHC 271444", "VALIDTIME": "2024-08-22 12:00:00" }, "geometry": { "type": "Point", "coordinates": [ -124.199997, 16.700001 ] } },
{ "type": "Feature", "properties": { "ID": 245643, "LAT": 16.9, "LON": -124.7, "VMAX": 110.0, "MSLP": 955.0, "RMAX": 10.0, "FSPD": 2.90335, "FDIR": 302.11176, "RENV": 260.0, "PENV": 1013.0, "VALIDT": 0, "DTG": "2024-08-22 18:00", "LATNOW": 20.4, "LONNOW": -152.2, "WINDNOW": 25.0, "DIRNOW": 3.0, "SPDNOW": 2.0, "TECH": "TRAK", "ADVNR": 38, "ATCFID": "EP072024", "NAME": "GILMA", "FTECH": "OFCL", "FCST_DTG": "2024-08-30 00:00:00", "RUN_DTG": "2024-08-30 15:19:35", "BASIN": "EP", "STMNR": 7, "CAT_ID": null, "CAT_DESC": null, "MSGID": "WTPZ22 KNHC 271444", "VALIDTIME": "2024-08-22 18:00:00" }, "geometry": { "type": "Point", "coordinates": [ -124.699997, 16.9 ] } },
{ "type": "Feature", "properties": { "ID": 245644, "LAT": 17.2, "LON": -125.2, "VMAX": 105.0, "MSLP": 959.0, "RMAX": 10.0, "FSPD": 2.99241, "FDIR": 279.8991, "RENV": 250.0, "PENV": 1012.0, "VALIDT": 0, "DTG": "2024-08-23 00:00", "LATNOW": 20.4, "LONNOW": -152.2, "WINDNOW": 25.0, "DIRNOW": 3.0, "SPDNOW": 2.0, "TECH": "TRAK", "ADVNR": 38, "ATCFID": "EP072024", "NAME": "GILMA", "FTECH": "OFCL", "FCST_DTG": "2024-08-30 00:00:00", "RUN_DTG": "2024-08-30 15:19:35", "BASIN": "EP", "STMNR": 7, "CAT_ID": null, "CAT_DESC": null, "MSGID": "WTPZ22 KNHC 271444", "VALIDTIME": "2024-08-23 00:00:00" }, "geometry": { "type": "Point", "coordinates": [ -125.199997, 17.200001 ] } },
{ "type": "Feature", "properties": { "ID": 245645, "LAT": 17.3, "LON": -125.8, "VMAX": 105.0, "MSLP": 959.0, "RMAX": 10.0, "FSPD": 2.94702, "FDIR": 269.99997, "RENV": 210.0, "PENV": 1012.0, "VALIDT": 0, "DTG": "2024-08-23 06:00", "LATNOW": 20.4, "LONNOW": -152.2, "WINDNOW": 25.0, "DIRNOW": 3.0, "SPDNOW": 2.0, "TECH": "TRAK", "ADVNR": 38, "ATCFID": "EP072024", "NAME": "GILMA", "FTECH": "OFCL", "FCST_DTG": "2024-08-30 00:00:00", "RUN_DTG": "2024-08-30 15:19:35", "BASIN": "EP", "STMNR": 7, "CAT_ID": null, "CAT_DESC": null, "MSGID": "WTPZ22 KNHC 271444", "VALIDTIME": "2024-08-23 06:00:00" }, "geometry": { "type": "Point", "coordinates": [ -125.800003, 17.299999 ] } },
{ "type": "Feature", "properties": { "ID": 245646, "LAT": 17.3, "LON": -126.4, "VMAX": 100.0, "MSLP": 962.0, "RMAX": 10.0, "FSPD": 3.96394, "FDIR": 262.54315, "RENV": 240.0, "PENV": 1010.0, "VALIDT": 0, "DTG": "2024-08-23 12:00", "LATNOW": 20.4, "LONNOW": -152.2, "WINDNOW": 25.0, "DIRNOW": 3.0, "SPDNOW": 2.0, "TECH": "TRAK", "ADVNR": 38, "ATCFID": "EP072024", "NAME": "GILMA", "FTECH": "OFCL", "FCST_DTG": "2024-08-30 00:00:00", "RUN_DTG": "2024-08-30 15:19:35", "BASIN": "EP", "STMNR": 7, "CAT_ID": null, "CAT_DESC": null, "MSGID": "WTPZ22 KNHC 271444", "VALIDTIME": "2024-08-23 12:00:00" }, "geometry": { "type": "Point", "coordinates": [ -126.400002, 17.299999 ] } },
{ "type": "Feature", "properties": { "ID": 245647, "LAT": 17.2, "LON": -127.2, "VMAX": 95.0, "MSLP": 965.0, "RMAX": 10.0, "FSPD": 4.06186, "FDIR": 284.6731, "RENV": 240.0, "PENV": 1011.0, "VALIDT": 0, "DTG": "2024-08-23 18:00", "LATNOW": 20.4, "LONNOW": -152.2, "WINDNOW": 25.0, "DIRNOW": 3.0, "SPDNOW": 2.0, "TECH": "TRAK", "ADVNR": 38, "ATCFID": "EP072024", "NAME": "GILMA", "FTECH": "OFCL", "FCST_DTG": "2024-08-30 00:00:00", "RUN_DTG": "2024-08-30 15:19:35", "BASIN": "EP", "STMNR": 7, "CAT_ID": null, "CAT_DESC": null, "MSGID": "WTPZ22 KNHC 271444", "VALIDTIME": "2024-08-23 18:00:00" }, "geometry": { "type": "Point", "coordinates": [ -127.199997, 17.200001 ] } },
{ "type": "Feature", "properties": { "ID": 245648, "LAT": 17.4, "LON": -128.0, "VMAX": 90.0, "MSLP": 970.0, "RMAX": 10.0, "FSPD": 4.44675, "FDIR": 276.64343, "RENV": 240.0, "PENV": 1011.0, "VALIDT": 0, "DTG": "2024-08-24 00:00", "LATNOW": 20.4, "LONNOW": -152.2, "WINDNOW": 25.0, "DIRNOW": 3.0, "SPDNOW": 2.0, "TECH": "TRAK", "ADVNR": 38, "ATCFID": "EP072024", "NAME": "GILMA", "FTECH": "OFCL", "FCST_DTG": "2024-08-30 00:00:00", "RUN_DTG": "2024-08-30 15:19:35", "BASIN": "EP", "STMNR": 7, "CAT_ID": null, "CAT_DESC": null, "MSGID": "WTPZ22 KNHC 271444", "VALIDTIME": "2024-08-24 00:00:00" }, "geometry": { "type": "Point", "coordinates": [ -128.0, 17.4 ] } },
{ "type": "Feature", "properties": { "ID": 245649, "LAT": 17.5, "LON": -128.9, "VMAX": 85.0, "MSLP": 974.0, "RMAX": 10.0, "FSPD": 3.4345, "FDIR": 269.99997, "RENV": 240.0, "PENV": 1011.0, "VALIDT": 0, "DTG": "2024-08-24 06:00", "LATNOW": 20.4, "LONNOW": -152.2, "WINDNOW": 25.0, "DIRNOW": 3.0, "SPDNOW": 2.0, "TECH": "TRAK", "ADVNR": 38, "ATCFID": "EP072024", "NAME": "GILMA", "FTECH": "OFCL", "FCST_DTG": "2024-08-30 00:00:00", "RUN_DTG": "2024-08-30 15:19:35", "BASIN": "EP", "STMNR": 7, "CAT_ID": null, "CAT_DESC": null, "MSGID": "WTPZ22 KNHC 271444", "VALIDTIME": "2024-08-24 06:00:00" }, "geometry": { "type": "Point", "coordinates": [ -128.899994, 17.5 ] } },
{ "type": "Feature", "properties": { "ID": 245650, "LAT": 17.5, "LON": -129.6, "VMAX": 80.0, "MSLP": 977.0, "RMAX": 10.0, "FSPD": 4.44434, "FDIR": 276.64703, "RENV": 240.0, "PENV": 1011.0, "VALIDT": 0, "DTG": "2024-08-24 12:00", "LATNOW": 20.4, "LONNOW": -152.2, "WINDNOW": 25.0, "DIRNOW": 3.0, "SPDNOW": 2.0, "TECH": "TRAK", "ADVNR": 38, "ATCFID": "EP072024", "NAME": "GILMA", "FTECH": "OFCL", "FCST_DTG": "2024-08-30 00:00:00", "RUN_DTG": "2024-08-30 15:19:35", "BASIN": "EP", "STMNR": 7, "CAT_ID": null, "CAT_DESC": null, "MSGID": "WTPZ22 KNHC 271444", "VALIDTIME": "2024-08-24 12:00:00" }, "geometry": { "type": "Point", "coordinates": [ -129.600006, 17.5 ] } },
{ "type": "Feature", "properties": { "ID": 245651, "LAT": 17.6, "LON": -130.5, "VMAX": 85.0, "MSLP": 974.0, "RMAX": 10.0, "FSPD": 4.44191, "FDIR": 276.6507, "RENV": 240.0, "PENV": 1011.0, "VALIDT": 0, "DTG": "2024-08-24 18:00", "LATNOW": 20.4, "LONNOW": -152.2, "WINDNOW": 25.0, "DIRNOW": 3.0, "SPDNOW": 2.0, "TECH": "TRAK", "ADVNR": 38, "ATCFID": "EP072024", "NAME": "GILMA", "FTECH": "OFCL", "FCST_DTG": "2024-08-30 00:00:00", "RUN_DTG": "2024-08-30 15:19:35", "BASIN": "EP", "STMNR": 7, "CAT_ID": null, "CAT_DESC": null, "MSGID": "WTPZ22 KNHC 271444", "VALIDTIME": "2024-08-24 18:00:00" }, "geometry": { "type": "Point", "coordinates": [ -130.5, 17.6 ] } },
{ "type": "Feature", "properties": { "ID": 245652, "LAT": 17.7, "LON": -131.4, "VMAX": 110.0, "MSLP": 955.0, "RMAX": 15.0, "FSPD": 3.57983, "FDIR": 286.70303, "RENV": 240.0, "PENV": 1011.0, "VALIDT": 0, "DTG": "2024-08-25 00:00", "LATNOW": 20.4, "LONNOW": -152.2, "WINDNOW": 25.0, "DIRNOW": 3.0, "SPDNOW": 2.0, "TECH": "TRAK", "ADVNR": 38, "ATCFID": "EP072024", "NAME": "GILMA", "FTECH": "OFCL", "FCST_DTG": "2024-08-30 00:00:00", "RUN_DTG": "2024-08-30 15:19:35", "BASIN": "EP", "STMNR": 7, "CAT_ID": null, "CAT_DESC": null, "MSGID": "WTPZ22 KNHC 271444", "VALIDTIME": "2024-08-25 00:00:00" }, "geometry": { "type": "Point", "coordinates": [ -131.399994, 17.700001 ] } },
{ "type": "Feature", "properties": { "ID": 245653, "LAT": 17.9, "LON": -132.1, "VMAX": 115.0, "MSLP": 949.0, "RMAX": 15.0, "FSPD": 4.89542, "FDIR": 269.99997, "RENV": 240.0, "PENV": 1011.0, "VALIDT": 0, "DTG": "2024-08-25 06:00", "LATNOW": 20.4, "LONNOW": -152.2, "WINDNOW": 25.0, "DIRNOW": 3.0, "SPDNOW": 2.0, "TECH": "TRAK", "ADVNR": 38, "ATCFID": "EP072024", "NAME": "GILMA", "FTECH": "OFCL", "FCST_DTG": "2024-08-30 00:00:00", "RUN_DTG": "2024-08-30 15:19:35", "BASIN": "EP", "STMNR": 7, "CAT_ID": null, "CAT_DESC": null, "MSGID": "WTPZ22 KNHC 271444", "VALIDTIME": "2024-08-25 06:00:00" }, "geometry": { "type": "Point", "coordinates": [ -132.100006, 17.9 ] } },
{ "type": "Feature", "properties": { "ID": 245654, "LAT": 17.9, "LON": -133.1, "VMAX": 110.0, "MSLP": 955.0, "RMAX": 10.0, "FSPD": 3.91628, "FDIR": 269.99997, "RENV": 230.0, "PENV": 1011.0, "VALIDT": 0, "DTG": "2024-08-25 12:00", "LATNOW": 20.4, "LONNOW": -152.2, "WINDNOW": 25.0, "DIRNOW": 3.0, "SPDNOW": 2.0, "TECH": "TRAK", "ADVNR": 38, "ATCFID": "EP072024", "NAME": "GILMA", "FTECH": "OFCL", "FCST_DTG": "2024-08-30 00:00:00", "RUN_DTG": "2024-08-30 15:19:35", "BASIN": "EP", "STMNR": 7, "CAT_ID": null, "CAT_DESC": null, "MSGID": "WTPZ22 KNHC 271444", "VALIDTIME": "2024-08-25 12:00:00" }, "geometry": { "type": "Point", "coordinates": [ -133.100006, 17.9 ] } },
{ "type": "Feature", "properties": { "ID": 245655, "LAT": 17.9, "LON": -133.9, "VMAX": 100.0, "MSLP": 965.0, "RMAX": 10.0, "FSPD": 3.9489, "FDIR": 277.4855, "RENV": 210.0, "PENV": 1012.0, "VALIDT": 0, "DTG": "2024-08-25 18:00", "LATNOW": 20.4, "LONNOW": -152.2, "WINDNOW": 25.0, "DIRNOW": 3.0, "SPDNOW": 2.0, "TECH": "TRAK", "ADVNR": 38, "ATCFID": "EP072024", "NAME": "GILMA", "FTECH": "OFCL", "FCST_DTG": "2024-08-30 00:00:00", "RUN_DTG": "2024-08-30 15:19:35", "BASIN": "EP", "STMNR": 7, "CAT_ID": null, "CAT_DESC": null, "MSGID": "WTPZ22 KNHC 271444", "VALIDTIME": "2024-08-25 18:00:00" }, "geometry": { "type": "Point", "coordinates": [ -133.899994, 17.9 ] } },
{ "type": "Feature", "properties": { "ID": 245656, "LAT": 18.0, "LON": -134.7, "VMAX": 90.0, "MSLP": 972.0, "RMAX": 10.0, "FSPD": 3.9467, "FDIR": 277.48972, "RENV": 220.0, "PENV": 1011.0, "VALIDT": 0, "DTG": "2024-08-26 00:00", "LATNOW": 20.4, "LONNOW": -152.2, "WINDNOW": 25.0, "DIRNOW": 3.0, "SPDNOW": 2.0, "TECH": "TRAK", "ADVNR": 38, "ATCFID": "EP072024", "NAME": "GILMA", "FTECH": "OFCL", "FCST_DTG": "2024-08-30 00:00:00", "RUN_DTG": "2024-08-30 15:19:35", "BASIN": "EP", "STMNR": 7, "CAT_ID": null, "CAT_DESC": null, "MSGID": "WTPZ22 KNHC 271444", "VALIDTIME": "2024-08-26 00:00:00" }, "geometry": { "type": "Point", "coordinates": [ -134.699997, 18.0 ] } },
{ "type": "Feature", "properties": { "ID": 245657, "LAT": 18.1, "LON": -135.5, "VMAX": 85.0, "MSLP": 977.0, "RMAX": 10.0, "FSPD": 2.93396, "FDIR": 269.99997, "RENV": 220.0, "PENV": 1011.0, "VALIDT": 0, "DTG": "2024-08-26 06:00", "LATNOW": 20.4, "LONNOW": -152.2, "WINDNOW": 25.0, "DIRNOW": 3.0, "SPDNOW": 2.0, "TECH": "TRAK", "ADVNR": 38, "ATCFID": "EP072024", "NAME": "GILMA", "FTECH": "OFCL", "FCST_DTG": "2024-08-30 00:00:00", "RUN_DTG": "2024-08-30 15:19:35", "BASIN": "EP", "STMNR": 7, "CAT_ID": null, "CAT_DESC": null, "MSGID": "WTPZ22 KNHC 271444", "VALIDTIME": "2024-08-26 06:00:00" }, "geometry": { "type": "Point", "coordinates": [ -135.5, 18.1 ] } },
{ "type": "Feature", "properties": { "ID": 245658, "LAT": 18.1, "LON": -136.1, "VMAX": 85.0, "MSLP": 977.0, "RMAX": 10.0, "FSPD": 4.04272, "FDIR": 284.74408, "RENV": 210.0, "PENV": 1012.0, "VALIDT": 0, "DTG": "2024-08-26 12:00", "LATNOW": 20.4, "LONNOW": -152.2, "WINDNOW": 25.0, "DIRNOW": 3.0, "SPDNOW": 2.0, "TECH": "TRAK", "ADVNR": 38, "ATCFID": "EP072024", "NAME": "GILMA", "FTECH": "OFCL", "FCST_DTG": "2024-08-30 00:00:00", "RUN_DTG": "2024-08-30 15:19:35", "BASIN": "EP", "STMNR": 7, "CAT_ID": null, "CAT_DESC": null, "MSGID": "WTPZ22 KNHC 271444", "VALIDTIME": "2024-08-26 12:00:00" }, "geometry": { "type": "Point", "coordinates": [ -136.100006, 18.1 ] } },
{ "type": "Feature", "properties": { "ID": 245659, "LAT": 18.3, "LON": -136.9, "VMAX": 95.0, "MSLP": 968.0, "RMAX": 10.0, "FSPD": 4.42462, "FDIR": 276.67682, "RENV": 210.0, "PENV": 1012.0, "VALIDT": 0, "DTG": "2024-08-26 18:00", "LATNOW": 20.4, "LONNOW": -152.2, "WINDNOW": 25.0, "DIRNOW": 3.0, "SPDNOW": 2.0, "TECH": "TRAK", "ADVNR": 38, "ATCFID": "EP072024", "NAME": "GILMA", "FTECH": "OFCL", "FCST_DTG": "2024-08-30 00:00:00", "RUN_DTG": "2024-08-30 15:19:35", "BASIN": "EP", "STMNR": 7, "CAT_ID": null, "CAT_DESC": null, "MSGID": "WTPZ22 KNHC 271444", "VALIDTIME": "2024-08-26 18:00:00" }, "geometry": { "type": "Point", "coordinates": [ -136.899994, 18.299999 ] } },
{ "type": "Feature", "properties": { "ID": 245660, "LAT": 18.4, "LON": -137.8, "VMAX": 95.0, "MSLP": 968.0, "RMAX": 10.0, "FSPD": 4.39327, "FDIR": 269.99997, "RENV": 170.0, "PENV": 1012.0, "VALIDT": 0, "DTG": "2024-08-27 00:00", "LATNOW": 20.4, "LONNOW": -152.2, "WINDNOW": 25.0, "DIRNOW": 3.0, "SPDNOW": 2.0, "TECH": "TRAK", "ADVNR": 38, "ATCFID": "EP072024", "NAME": "GILMA", "FTECH": "OFCL", "FCST_DTG": "2024-08-30 00:00:00", "RUN_DTG": "2024-08-30 15:19:35", "BASIN": "EP", "STMNR": 7, "CAT_ID": null, "CAT_DESC": null, "MSGID": "WTPZ22 KNHC 271444", "VALIDTIME": "2024-08-27 00:00:00" }, "geometry": { "type": "Point", "coordinates": [ -137.800003, 18.4 ] } },
{ "type": "Feature", "properties": { "ID": 245661, "LAT": 18.4, "LON": -138.7, "VMAX": 90.0, "MSLP": 973.0, "RMAX": 10.0, "FSPD": 6.83406, "FDIR": 269.99997, "RENV": 170.0, "PENV": 1012.0, "VALIDT": 0, "DTG": "2024-08-27 06:00", "LATNOW": 20.4, "LONNOW": -152.2, "WINDNOW": 25.0, "DIRNOW": 3.0, "SPDNOW": 2.0, "TECH": "TRAK", "ADVNR": 38, "ATCFID": "EP072024", "NAME": "GILMA", "FTECH": "OFCL", "FCST_DTG": "2024-08-30 00:00:00", "RUN_DTG": "2024-08-30 15:19:35", "BASIN": "EP", "STMNR": 7, "CAT_ID": null, "CAT_DESC": null, "MSGID": "WTPZ22 KNHC 271444", "VALIDTIME": "2024-08-27 06:00:00" }, "geometry": { "type": "Point", "coordinates": [ -138.699997, 18.4 ] } },
{ "type": "Feature", "properties": { "ID": 245662, "LAT": 18.4, "LON": -140.1, "VMAX": 75.0, "MSLP": 983.0, "RMAX": 15.0, "FSPD": 6.83399, "FDIR": 269.99997, "RENV": 160.0, "PENV": 1011.0, "VALIDT": 0, "DTG": "2024-08-27 12:00", "LATNOW": 20.4, "LONNOW": -152.2, "WINDNOW": 25.0, "DIRNOW": 3.0, "SPDNOW": 2.0, "TECH": "TRAK", "ADVNR": 38, "ATCFID": "EP072024", "NAME": "GILMA", "FTECH": "OFCL", "FCST_DTG": "2024-08-30 00:00:00", "RUN_DTG": "2024-08-30 15:19:35", "BASIN": "EP", "STMNR": 7, "CAT_ID": null, "CAT_DESC": null, "MSGID": "WTPZ22 KNHC 271444", "VALIDTIME": "2024-08-27 12:00:00" }, "geometry": { "type": "Point", "coordinates": [ -140.100006, 18.4 ] } },
{ "type": "Feature", "properties": { "ID": 245663, "LAT": 18.4, "LON": -141.5, "VMAX": 55.0, "MSLP": 996.0, "RMAX": 15.0, "FSPD": 5.85771, "FDIR": 269.99997, "RENV": 150.0, "PENV": 1011.0, "VALIDT": 0, "DTG": "2024-08-27 18:00", "LATNOW": 20.4, "LONNOW": -152.2, "WINDNOW": 25.0, "DIRNOW": 3.0, "SPDNOW": 2.0, "TECH": "TRAK", "ADVNR": 38, "ATCFID": "EP072024", "NAME": "GILMA", "FTECH": "OFCL", "FCST_DTG": "2024-08-30 00:00:00", "RUN_DTG": "2024-08-30 15:19:35", "BASIN": "EP", "STMNR": 7, "CAT_ID": null, "CAT_DESC": null, "MSGID": "WTPZ22 KNHC 271444", "VALIDTIME": "2024-08-27 18:00:00" }, "geometry": { "type": "Point", "coordinates": [ -141.5, 18.4 ] } },
{ "type": "Feature", "properties": { "ID": 245664, "LAT": 18.4, "LON": -142.7, "VMAX": 45.0, "MSLP": 1001.0, "RMAX": 20.0, "FSPD": 5.85771, "FDIR": 269.99997, "RENV": 150.0, "PENV": 1011.0, "VALIDT": 0, "DTG": "2024-08-28 00:00", "LATNOW": 20.4, "LONNOW": -152.2, "WINDNOW": 25.0, "DIRNOW": 3.0, "SPDNOW": 2.0, "TECH": "TRAK", "ADVNR": 38, "ATCFID": "EP072024", "NAME": "GILMA", "FTECH": "OFCL", "FCST_DTG": "2024-08-30 00:00:00", "RUN_DTG": "2024-08-30 15:19:35", "BASIN": "EP", "STMNR": 7, "CAT_ID": null, "CAT_DESC": null, "MSGID": "WTPZ22 KNHC 271444", "VALIDTIME": "2024-08-28 00:00:00" }, "geometry": { "type": "Point", "coordinates": [ -142.699997, 18.4 ] } },
{ "type": "Feature", "properties": { "ID": 245665, "LAT": 18.4, "LON": -143.9, "VMAX": 45.0, "MSLP": 1001.0, "RMAX": 20.0, "FSPD": 6.05273, "FDIR": 284.77252, "RENV": 120.0, "PENV": 1012.0, "VALIDT": 0, "DTG": "2024-08-28 06:00", "LATNOW": 20.4, "LONNOW": -152.2, "WINDNOW": 25.0, "DIRNOW": 3.0, "SPDNOW": 2.0, "TECH": "TRAK", "ADVNR": 38, "ATCFID": "EP072024", "NAME": "GILMA", "FTECH": "OFCL", "FCST_DTG": "2024-08-30 00:00:00", "RUN_DTG": "2024-08-30 15:19:35", "BASIN": "EP", "STMNR": 7, "CAT_ID": null, "CAT_DESC": null, "MSGID": "WTPZ22 KNHC 271444", "VALIDTIME": "2024-08-28 06:00:00" }, "geometry": { "type": "Point", "coordinates": [ -143.899994, 18.4 ] } },
{ "type": "Feature", "properties": { "ID": 245666, "LAT": 18.7, "LON": -145.1, "VMAX": 40.0, "MSLP": 1003.0, "RMAX": 25.0, "FSPD": 6.41398, "FDIR": 279.23083, "RENV": 100.0, "PENV": 1010.0, "VALIDT": 0, "DTG": "2024-08-28 12:00", "LATNOW": 20.4, "LONNOW": -152.2, "WINDNOW": 25.0, "DIRNOW": 3.0, "SPDNOW": 2.0, "TECH": "TRAK", "ADVNR": 38, "ATCFID": "EP072024", "NAME": "GILMA", "FTECH": "OFCL", "FCST_DTG": "2024-08-30 00:00:00", "RUN_DTG": "2024-08-30 15:19:35", "BASIN": "EP", "STMNR": 7, "CAT_ID": null, "CAT_DESC": null, "MSGID": "WTPZ22 KNHC 271444", "VALIDTIME": "2024-08-28 12:00:00" }, "geometry": { "type": "Point", "coordinates": [ -145.100006, 18.700001 ] } },
{ "type": "Feature", "properties": { "ID": 245667, "LAT": 18.9, "LON": -146.4, "VMAX": 40.0, "MSLP": 1003.0, "RMAX": 25.0, "FSPD": 6.18584, "FDIR": 289.4302, "RENV": 100.0, "PENV": 1012.0, "VALIDT": 0, "DTG": "2024-08-28 18:00", "LATNOW": 20.4, "LONNOW": -152.2, "WINDNOW": 25.0, "DIRNOW": 3.0, "SPDNOW": 2.0, "TECH": "TRAK", "ADVNR": 38, "ATCFID": "EP072024", "NAME": "GILMA", "FTECH": "OFCL", "FCST_DTG": "2024-08-30 00:00:00", "RUN_DTG": "2024-08-30 15:19:35", "BASIN": "EP", "STMNR": 7, "CAT_ID": null, "CAT_DESC": null, "MSGID": "WTPZ22 KNHC 271444", "VALIDTIME": "2024-08-28 18:00:00" }, "geometry": { "type": "Point", "coordinates": [ -146.399994, 18.9 ] } },
{ "type": "Feature", "properties": { "ID": 245668, "LAT": 19.3, "LON": -147.6, "VMAX": 35.0, "MSLP": 1006.0, "RMAX": 25.0, "FSPD": 6.33088, "FDIR": 274.66095, "RENV": 100.0, "PENV": 1011.0, "VALIDT": 0, "DTG": "2024-08-29 00:00", "LATNOW": 20.4, "LONNOW": -152.2, "WINDNOW": 25.0, "DIRNOW": 3.0, "SPDNOW": 2.0, "TECH": "TRAK", "ADVNR": 38, "ATCFID": "EP072024", "NAME": "GILMA", "FTECH": "OFCL", "FCST_DTG": "2024-08-30 00:00:00", "RUN_DTG": "2024-08-30 15:19:35", "BASIN": "EP", "STMNR": 7, "CAT_ID": null, "CAT_DESC": null, "MSGID": "WTPZ22 KNHC 271444", "VALIDTIME": "2024-08-29 00:00:00" }, "geometry": { "type": "Point", "coordinates": [ -147.600006, 19.299999 ] } },
{ "type": "Feature", "properties": { "ID": 245669, "LAT": 19.4, "LON": -148.9, "VMAX": 35.0, "MSLP": 1007.0, "RMAX": 40.0, "FSPD": 5.90956, "FDIR": 280.02667, "RENV": 90.0, "PENV": 1013.0, "VALIDT": 0, "DTG": "2024-08-29 06:00", "LATNOW": 20.4, "LONNOW": -152.2, "WINDNOW": 25.0, "DIRNOW": 3.0, "SPDNOW": 2.0, "TECH": "TRAK", "ADVNR": 38, "ATCFID": "EP072024", "NAME": "GILMA", "FTECH": "OFCL", "FCST_DTG": "2024-08-30 00:00:00", "RUN_DTG": "2024-08-30 15:19:35", "BASIN": "EP", "STMNR": 7, "CAT_ID": null, "CAT_DESC": null, "MSGID": "WTPZ22 KNHC 271444", "VALIDTIME": "2024-08-29 06:00:00" }, "geometry": { "type": "Point", "coordinates": [ -148.899994, 19.4 ] } },
{ "type": "Feature", "properties": { "ID": 245670, "LAT": 19.6, "LON": -150.1, "VMAX": 30.0, "MSLP": 1009.0, "RMAX": 40.0, "FSPD": 5.47998, "FDIR": 297.9944, "RENV": 90.0, "PENV": 1012.0, "VALIDT": 0, "DTG": "2024-08-29 12:00", "LATNOW": 20.4, "LONNOW": -152.2, "WINDNOW": 25.0, "DIRNOW": 3.0, "SPDNOW": 2.0, "TECH": "TRAK", "ADVNR": 38, "ATCFID": "EP072024", "NAME": "GILMA", "FTECH": "OFCL", "FCST_DTG": "2024-08-30 00:00:00", "RUN_DTG": "2024-08-30 15:19:35", "BASIN": "EP", "STMNR": 7, "CAT_ID": null, "CAT_DESC": null, "MSGID": "WTPZ22 KNHC 271444", "VALIDTIME": "2024-08-29 12:00:00" }, "geometry": { "type": "Point", "coordinates": [ -150.100006, 19.6 ] } },
{ "type": "Feature", "properties": { "ID": 245671, "LAT": 20.1, "LON": -151.1, "VMAX": 30.0, "MSLP": 1010.0, "RMAX": 50.0, "FSPD": 5.52885, "FDIR": 286.20892, "RENV": 90.0, "PENV": 1014.0, "VALIDT": 0, "DTG": "2024-08-29 18:00", "LATNOW": 20.4, "LONNOW": -152.2, "WINDNOW": 25.0, "DIRNOW": 3.0, "SPDNOW": 2.0, "TECH": "TRAK", "ADVNR": 38, "ATCFID": "EP072024", "NAME": "GILMA", "FTECH": "OFCL", "FCST_DTG": "2024-08-30 00:00:00", "RUN_DTG": "2024-08-30 15:19:35", "BASIN": "EP", "STMNR": 7, "CAT_ID": null, "CAT_DESC": null, "MSGID": "WTPZ22 KNHC 271444", "VALIDTIME": "2024-08-29 18:00:00" }, "geometry": { "type": "Point", "coordinates": [ -151.100006, 20.1 ] } },
{ "type": "Feature", "properties": { "ID": 245672, "LAT": 20.4, "LON": -152.2, "VMAX": 25.0, "MSLP": 1011.0, "RMAX": 30.0, "FSPD": 2.81948, "FDIR": 316.8734, "RENV": 90.0, "PENV": 1014.0, "VALIDT": 0, "DTG": "2024-08-30 00:00", "LATNOW": 20.4, "LONNOW": -152.2, "WINDNOW": 25.0, "DIRNOW": 3.0, "SPDNOW": 2.0, "TECH": "TRAK", "ADVNR": 38, "ATCFID": "EP072024", "NAME": "GILMA", "FTECH": "OFCL", "FCST_DTG": "2024-08-30 00:00:00", "RUN_DTG": "2024-08-30 15:19:35", "BASIN": "EP", "STMNR": 7, "CAT_ID": null, "CAT_DESC": null, "MSGID": "WTPZ22 KNHC 271444", "VALIDTIME": "2024-08-30 00:00:00" }, "geometry": { "type": "Point", "coordinates": [ -152.199997, 20.4 ] } },
{ "type": "Feature", "properties": { "ID": 245673, "LAT": 20.6, "LON": -152.4, "VMAX": 25.0, "MSLP": 1011.0, "RMAX": 30.0, "FSPD": 2.81948, "FDIR": 316.8734, "RENV": 250.0, "PENV": 1012.0, "VALIDT": 3, "DTG": "2024-08-30 03:00", "LATNOW": 20.4, "LONNOW": -152.2, "WINDNOW": 25.0, "DIRNOW": 3.0, "SPDNOW": 2.0, "TECH": "FCST", "ADVNR": 38, "ATCFID": "EP072024", "NAME": "GILMA", "FTECH": "OFCL", "FCST_DTG": "2024-08-30 00:00:00", "RUN_DTG": "2024-08-30 15:19:35", "BASIN": "EP", "STMNR": 7, "CAT_ID": null, "CAT_DESC": null, "MSGID": "WTPZ22 KNHC 271444", "VALIDTIME": "2024-08-30 03:00:00" }, "geometry": { "type": "Point", "coordinates": [ -152.399994, 20.6 ] } },
{ "type": "Feature", "properties": { "ID": 245672, "LAT": 20.4, "LON": -152.2, "VMAX": 25.0, "MSLP": 1011.0, "RMAX": 30.0, "FSPD": 2.81948, "FDIR": 316.8734, "RENV": 90.0, "PENV": 1014.0, "VALIDT": 0, "DTG": "2024-08-30 00:00", "LATNOW": 20.4, "LONNOW": -152.2, "WINDNOW": 25.0, "DIRNOW": 3.0, "SPDNOW": 2.0, "TECH": "TRAK", "ADVNR": 38, "ATCFID": "EP072024", "NAME": "GILMA", "FTECH": "OFCL", "FCST_DTG": "2024-08-30 00:00:00", "RUN_DTG": "2024-08-30 15:19:35", "BASIN": "EP", "STMNR": 7, "CAT_ID": null, "CAT_DESC": null, "MSGID": "WTPZ22 KNHC 271444", "VALIDTIME": "2024-08-30 00:00:00" }, "geometry": { "type": "LineString", "coordinates": [ [ -102.7, 12.0 ], [ -103.4, 12.0 ], [ -104.1, 12.0 ], [ -105.2, 12.1 ], [ -106.3, 12.9 ], [ -107.1, 13.4 ], [ -108.5, 13.8 ], [ -109.3, 13.9 ], [ -110.2, 14.5 ], [ -111.8, 14.7 ], [ -113.0, 14.7 ], [ -114.1, 14.9 ], [ -115.5, 15.0 ], [ -116.5, 15.0 ], [ -116.9, 15.0 ], [ -117.8, 15.6 ], [ -119.2, 15.9 ], [ -120.2, 16.0 ], [ -121.1, 16.0 ], [ -122.0, 15.9 ], [ -122.5, 15.9 ], [ -122.9, 16.2 ], [ -123.5, 16.4 ], [ -123.9, 16.5 ], [ -124.2, 16.7 ], [ -124.7, 16.9 ], [ -125.2, 17.2 ], [ -125.8, 17.3 ], [ -126.4, 17.3 ], [ -127.2, 17.2 ], [ -128.0, 17.4 ], [ -128.9, 17.5 ], [ -129.6, 17.5 ], [ -130.5, 17.6 ], [ -131.4, 17.7 ], [ -132.1, 17.9 ], [ -133.1, 17.9 ], [ -133.9, 17.9 ], [ -134.7, 18.0 ], [ -135.5, 18.1 ], [ -136.1, 18.1 ], [ -136.9, 18.3 ], [ -137.8, 18.4 ], [ -138.7, 18.4 ], [ -140.1, 18.4 ], [ -141.5, 18.4 ], [ -142.7, 18.4 ], [ -143.9, 18.4 ], [ -145.1, 18.7 ], [ -146.4, 18.9 ], [ -147.6, 19.3 ], [ -148.9, 19.4 ], [ -150.1, 19.6 ], [ -151.1, 20.1 ], [ -152.2, 20.4 ] ] } },
{ "type": "Feature", "properties": { "ID": 245673, "LAT": 20.6, "LON": -152.4, "VMAX": 25.0, "MSLP": 1011.0, "RMAX": 30.0, "FSPD": 2.81948, "FDIR": 316.8734, "RENV": 250.0, "PENV": 1012.0, "VALIDT": 3, "DTG": "2024-08-30 03:00", "LATNOW": 20.4, "LONNOW": -152.2, "WINDNOW": 25.0, "DIRNOW": 3.0, "SPDNOW": 2.0, "TECH": "FCST", "ADVNR": 38, "ATCFID": "EP072024", "NAME": "GILMA", "FTECH": "OFCL", "FCST_DTG": "2024-08-30 00:00:00", "RUN_DTG": "2024-08-30 15:19:35", "BASIN": "EP", "STMNR": 7, "CAT_ID": null, "CAT_DESC": null, "MSGID": "WTPZ22 KNHC 271444", "VALIDTIME": "2024-08-30 03:00:00" }, "geometry": { "type": "LineString", "coordinates": [ [ -152.2, 20.4 ], [ -152.4, 20.6 ] ] } }
]
}
