{
"type": "FeatureCollection",
"crs": { "type": "name", "properties": { "name": "urn:ogc:def:crs:OGC:1.3:CRS84" } },
"features": [
{ "type": "Feature", "properties": { "ID": 258191, "LAT": 12.7, "LON": -99.0, "VMAX": 25.0, "MSLP": 1008.0, "RMAX": 60.0, "FSPD": 1.43709, "FDIR": 44.27875, "RENV": 200.0, "PENV": 1010.0, "VALIDT": 0, "DTG": "2024-09-22 00:00", "LATNOW": 17.6, "LONNOW": -103.0, "WINDNOW": 55.0, "DIRNOW": 2.0, "SPDNOW": 1.0, "TECH": "TRAK", "ADVNR": 18, "ATCFID": "EP102024", "NAME": "JOHN", "FTECH": "OFCL", "FCST_DTG": "2024-09-27 06:00:00", "RUN_DTG": "2024-09-27 09:29:40", "BASIN": "EP", "STMNR": 10, "CAT_ID": null, "CAT_DESC": null, "MSGID": "WTPZ25 KNHC 270854", "VALIDTIME": "2024-09-22 00:00:00" }, "geometry": { "type": "Point", "coordinates": [ -99.0, 12.7 ] } },
{ "type": "Feature", "properties": { "ID": 258192, "LAT": 12.9, "LON": -98.8, "VMAX": 25.0, "MSLP": 1008.0, "RMAX": 60.0, "FSPD": 5.35904, "FDIR": 16.26913, "RENV": 200.0, "PENV": 1010.0, "VALIDT": 0, "DTG": "2024-09-22 06:00", "LATNOW": 17.6, "LONNOW": -103.0, "WINDNOW": 55.0, "DIRNOW": 2.0, "SPDNOW": 1.0, "TECH": "TRAK", "ADVNR": 18, "ATCFID": "EP102024", "NAME": "JOHN", "FTECH": "OFCL", "FCST_DTG": "2024-09-27 06:00:00", "RUN_DTG": "2024-09-27 09:29:40", "BASIN": "EP", "STMNR": 10, "CAT_ID": null, "CAT_DESC": null, "MSGID": "WTPZ25 KNHC 270854", "VALIDTIME": "2024-09-22 06:00:00" }, "geometry": { "type": "Point", "coordinates": [ -98.800003, 12.9 ] } },
{ "type": "Feature", "properties": { "ID": 258193, "LAT": 13.9, "LON": -98.5, "VMAX": 25.0, "MSLP": 1005.0, "RMAX": 40.0, "FSPD": 1.12364, "FDIR": 242.75253, "RENV": 180.0, "PENV": 1008.0, "VALIDT": 0, "DTG": "2024-09-22 12:00", "LATNOW": 17.6, "LONNOW": -103.0, "WINDNOW": 55.0, "DIRNOW": 2.0, "SPDNOW": 1.0, "TECH": "TRAK", "ADVNR": 18, "ATCFID": "EP102024", "NAME": "JOHN", "FTECH": "OFCL", "FCST_DTG": "2024-09-27 06:00:00", "RUN_DTG": "2024-09-27 09:29:40", "BASIN": "EP", "STMNR": 10, "CAT_ID": null, "CAT_DESC": null, "MSGID": "WTPZ25 KNHC 270854", "VALIDTIME": "2024-09-22 12:00:00" }, "geometry": { "type": "Point", "coordinates": [ -98.5, 13.9 ] } },
{ "type": "Feature", "properties": { "ID": 258194, "LAT": 13.8, "LON": -98.7, "VMAX": 30.0, "MSLP": 1005.0, "RMAX": 30.0, "FSPD": 0.71703, "FDIR": 44.15457, "RENV": 150.0, "PENV": 1008.0, "VALIDT": 0, "DTG": "2024-09-22 18:00", "LATNOW": 17.6, "LONNOW": -103.0, "WINDNOW": 55.0, "DIRNOW": 2.0, "SPDNOW": 1.0, "TECH": "TRAK", "ADVNR": 18, "ATCFID": "EP102024", "NAME": "JOHN", "FTECH": "OFCL", "FCST_DTG": "2024-09-27 06:00:00", "RUN_DTG": "2024-09-27 09:29:40", "BASIN": "EP", "STMNR": 10, "CAT_ID": null, "CAT_DESC": null, "MSGID": "WTPZ25 KNHC 270854", "VALIDTIME": "2024-09-22 18:00:00" }, "geometry": { "type": "Point", "coordinates": [ -98.699997, 13.8 ] } },
{ "type": "Feature", "properties": { "ID": 258195, "LAT": 13.9, "LON": -98.6, "VMAX": 30.0, "MSLP": 1003.0, "RMAX": 30.0, "FSPD": 1.62201, "FDIR": 17.91895, "RENV": 150.0, "PENV": 1006.0, "VALIDT": 0, "DTG": "2024-09-23 00:00", "LATNOW": 17.6, "LONNOW": -103.0, "WINDNOW": 55.0, "DIRNOW": 2.0, "SPDNOW": 1.0, "TECH": "TRAK", "ADVNR": 18, "ATCFID": "EP102024", "NAME": "JOHN", "FTECH": "OFCL", "FCST_DTG": "2024-09-27 06:00:00", "RUN_DTG": "2024-09-27 09:29:40", "BASIN": "EP", "STMNR": 10, "CAT_ID": null, "CAT_DESC": null, "MSGID": "WTPZ25 KNHC 270854", "VALIDTIME": "2024-09-23 00:00:00" }, "geometry": { "type": "Point", "coordinates": [ -98.599998, 13.9 ] } },
{ "type": "Feature", "properties": { "ID": 258196, "LAT": 14.2, "LON": -98.5, "VMAX": 40.0, "MSLP": 1000.0, "RMAX": 20.0, "FSPD": 2.11725, "FDIR": 346.38828, "RENV": 100.0, "PENV": 1006.0, "VALIDT": 0, "DTG": "2024-09-23 06:00", "LATNOW": 17.6, "LONNOW": -103.0, "WINDNOW": 55.0, "DIRNOW": 2.0, "SPDNOW": 1.0, "TECH": "TRAK", "ADVNR": 18, "ATCFID": "EP102024", "NAME": "JOHN", "FTECH": "OFCL", "FCST_DTG": "2024-09-27 06:00:00", "RUN_DTG": "2024-09-27 09:29:40", "BASIN": "EP", "STMNR": 10, "CAT_ID": null, "CAT_DESC": null, "MSGID": "WTPZ25 KNHC 270854", "VALIDTIME": "2024-09-23 06:00:00" }, "geometry": { "type": "Point", "coordinates": [ -98.5, 14.2 ] } },
{ "type": "Feature", "properties": { "ID": 258197, "LAT": 14.6, "LON": -98.6, "VMAX": 60.0, "MSLP": 992.0, "RMAX": 20.0, "FSPD": 3.24285, "FDIR": 17.85483, "RENV": 100.0, "PENV": 1006.0, "VALIDT": 0, "DTG": "2024-09-23 12:00", "LATNOW": 17.6, "LONNOW": -103.0, "WINDNOW": 55.0, "DIRNOW": 2.0, "SPDNOW": 1.0, "TECH": "TRAK", "ADVNR": 18, "ATCFID": "EP102024", "NAME": "JOHN", "FTECH": "OFCL", "FCST_DTG": "2024-09-27 06:00:00", "RUN_DTG": "2024-09-27 09:29:40", "BASIN": "EP", "STMNR": 10, "CAT_ID": null, "CAT_DESC": null, "MSGID": "WTPZ25 KNHC 270854", "VALIDTIME": "2024-09-23 12:00:00" }, "geometry": { "type": "Point", "coordinates": [ -98.599998, 14.6 ] } },
{ "type": "Feature", "properties": { "ID": 258198, "LAT": 15.2, "LON": -98.4, "VMAX": 80.0, "MSLP": 977.0, "RMAX": 10.0, "FSPD": 3.73504, "FDIR": 344.6103, "RENV": 100.0, "PENV": 1006.0, "VALIDT": 0, "DTG": "2024-09-23 18:00", "LATNOW": 17.6, "LONNOW": -103.0, "WINDNOW": 55.0, "DIRNOW": 2.0, "SPDNOW": 1.0, "TECH": "TRAK", "ADVNR": 18, "ATCFID": "EP102024", "NAME": "JOHN", "FTECH": "OFCL", "FCST_DTG": "2024-09-27 06:00:00", "RUN_DTG": "2024-09-27 09:29:40", "BASIN": "EP", "STMNR": 10, "CAT_ID": null, "CAT_DESC": null, "MSGID": "WTPZ25 KNHC 270854", "VALIDTIME": "2024-09-23 18:00:00" }, "geometry": { "type": "Point", "coordinates": [ -98.400002, 15.2 ] } },
{ "type": "Feature", "properties": { "ID": 258199, "LAT": 15.9, "LON": -98.6, "VMAX": 100.0, "MSLP": 962.0, "RMAX": 10.0, "FSPD": 6.19724, "FDIR": 326.11084, "RENV": 100.0, "PENV": 1004.0, "VALIDT": 0, "DTG": "2024-09-24 00:00", "LATNOW": 17.6, "LONNOW": -103.0, "WINDNOW": 55.0, "DIRNOW": 2.0, "SPDNOW": 1.0, "TECH": "TRAK", "ADVNR": 18, "ATCFID": "EP102024", "NAME": "JOHN", "FTECH": "OFCL", "FCST_DTG": "2024-09-27 06:00:00", "RUN_DTG": "2024-09-27 09:29:40", "BASIN": "EP", "STMNR": 10, "CAT_ID": null, "CAT_DESC": null, "MSGID": "WTPZ25 KNHC 270854", "VALIDTIME": "2024-09-24 00:00:00" }, "geometry": { "type": "Point", "coordinates": [ -98.599998, 15.9 ] } },
{ "type": "Feature", "properties": { "ID": 258200, "LAT": 16.8, "LON": -99.23, "VMAX": 100.0, "MSLP": 962.0, "RMAX": 10.0, "FSPD": 6.19224, "FDIR": 326.1802, "RENV": 100.0, "PENV": 1004.0, "VALIDT": 0, "DTG": "2024-09-24 05:00", "LATNOW": 17.6, "LONNOW": -103.0, "WINDNOW": 55.0, "DIRNOW": 2.0, "SPDNOW": 1.0, "TECH": "TRAK", "ADVNR": 18, "ATCFID": "EP102024", "NAME": "JOHN", "FTECH": "OFCL", "FCST_DTG": "2024-09-27 06:00:00", "RUN_DTG": "2024-09-27 09:29:40", "BASIN": "EP", "STMNR": 10, "CAT_ID": null, "CAT_DESC": null, "MSGID": "WTPZ25 KNHC 270854", "VALIDTIME": "2024-09-24 05:00:00" }, "geometry": { "type": "Point", "coordinates": [ -99.230003, 16.799999 ] } },
{ "type": "Feature", "properties": { "ID": 258201, "LAT": 16.9, "LON": -99.3, "VMAX": 85.0, "MSLP": 973.0, "RMAX": 10.0, "FSPD": 6.40802, "FDIR": 309.9599, "RENV": 80.0, "PENV": 1004.0, "VALIDT": 0, "DTG": "2024-09-24 06:00", "LATNOW": 17.6, "LONNOW": -103.0, "WINDNOW": 55.0, "DIRNOW": 2.0, "SPDNOW": 1.0, "TECH": "TRAK", "ADVNR": 18, "ATCFID": "EP102024", "NAME": "JOHN", "FTECH": "OFCL", "FCST_DTG": "2024-09-27 06:00:00", "RUN_DTG": "2024-09-27 09:29:40", "BASIN": "EP", "STMNR": 10, "CAT_ID": null, "CAT_DESC": null, "MSGID": "WTPZ25 KNHC 270854", "VALIDTIME": "2024-09-24 06:00:00" }, "geometry": { "type": "Point", "coordinates": [ -99.300003, 16.9 ] } },
{ "type": "Feature", "properties": { "ID": 258202, "LAT": 17.7, "LON": -100.3, "VMAX": 45.0, "MSLP": 999.0, "RMAX": 10.0, "FSPD": 2.49366, "FDIR": 308.23593, "RENV": 120.0, "PENV": 1006.0, "VALIDT": 0, "DTG": "2024-09-24 12:00", "LATNOW": 17.6, "LONNOW": -103.0, "WINDNOW": 55.0, "DIRNOW": 2.0, "SPDNOW": 1.0, "TECH": "TRAK", "ADVNR": 18, "ATCFID": "EP102024", "NAME": "JOHN", "FTECH": "OFCL", "FCST_DTG": "2024-09-27 06:00:00", "RUN_DTG": "2024-09-27 09:29:40", "BASIN": "EP", "STMNR": 10, "CAT_ID": null, "CAT_DESC": null, "MSGID": "WTPZ25 KNHC 270854", "VALIDTIME": "2024-09-24 12:00:00" }, "geometry": { "type": "Point", "coordinates": [ -100.300003, 17.700001 ] } },
{ "type": "Feature", "properties": { "ID": 258203, "LAT": 18.0, "LON": -100.7, "VMAX": 30.0, "MSLP": 1004.0, "RMAX": 10.0, "FSPD": 10.36306, "FDIR": 199.4038, "RENV": 120.0, "PENV": 1008.0, "VALIDT": 0, "DTG": "2024-09-24 18:00", "LATNOW": 17.6, "LONNOW": -103.0, "WINDNOW": 55.0, "DIRNOW": 2.0, "SPDNOW": 1.0, "TECH": "TRAK", "ADVNR": 18, "ATCFID": "EP102024", "NAME": "JOHN", "FTECH": "OFCL", "FCST_DTG": "2024-09-27 06:00:00", "RUN_DTG": "2024-09-27 09:29:40", "BASIN": "EP", "STMNR": 10, "CAT_ID": null, "CAT_DESC": null, "MSGID": "WTPZ25 KNHC 270854", "VALIDTIME": "2024-09-24 18:00:00" }, "geometry": { "type": "Point", "coordinates": [ -100.699997, 18.0 ] } },
{ "type": "Feature", "properties": { "ID": 258204, "LAT": 16.1, "LON": -101.4, "VMAX": 39.0, "MSLP": 1001.0, "RMAX": 37.94748, "FSPD": 3.63475, "FDIR": 7.80139, "RENV": 500.0, "PENV": 1012.0, "VALIDT": 0, "DTG": "2024-09-25 00:00", "LATNOW": 17.6, "LONNOW": -103.0, "WINDNOW": 55.0, "DIRNOW": 2.0, "SPDNOW": 1.0, "TECH": "TRAK", "ADVNR": 18, "ATCFID": "EP102024", "NAME": "JOHN", "FTECH": "OFCL", "FCST_DTG": "2024-09-27 06:00:00", "RUN_DTG": "2024-09-27 09:29:40", "BASIN": "EP", "STMNR": 10, "CAT_ID": null, "CAT_DESC": null, "MSGID": "WTPZ25 KNHC 270854", "VALIDTIME": "2024-09-25 00:00:00" }, "geometry": { "type": "Point", "coordinates": [ -101.400002, 16.1 ] } },
{ "type": "Feature", "properties": { "ID": 258205, "LAT": 16.8, "LON": -101.3, "VMAX": 30.0, "MSLP": 1000.0, "RMAX": 10.0, "FSPD": 3.24047, "FDIR": 197.72398, "RENV": 120.0, "PENV": 1005.0, "VALIDT": 0, "DTG": "2024-09-25 06:00", "LATNOW": 17.6, "LONNOW": -103.0, "WINDNOW": 55.0, "DIRNOW": 2.0, "SPDNOW": 1.0, "TECH": "TRAK", "ADVNR": 18, "ATCFID": "EP102024", "NAME": "JOHN", "FTECH": "OFCL", "FCST_DTG": "2024-09-27 06:00:00", "RUN_DTG": "2024-09-27 09:29:40", "BASIN": "EP", "STMNR": 10, "CAT_ID": null, "CAT_DESC": null, "MSGID": "WTPZ25 KNHC 270854", "VALIDTIME": "2024-09-25 06:00:00" }, "geometry": { "type": "Point", "coordinates": [ -101.300003, 16.799999 ] } },
{ "type": "Feature", "properties": { "ID": 258206, "LAT": 16.2, "LON": -101.5, "VMAX": 35.0, "MSLP": 1000.0, "RMAX": 70.0, "FSPD": 2.57222, "FDIR": 360.0, "RENV": 120.0, "PENV": 1005.0, "VALIDT": 0, "DTG": "2024-09-25 12:00", "LATNOW": 17.6, "LONNOW": -103.0, "WINDNOW": 55.0, "DIRNOW": 2.0, "SPDNOW": 1.0, "TECH": "TRAK", "ADVNR": 18, "ATCFID": "EP102024", "NAME": "JOHN", "FTECH": "OFCL", "FCST_DTG": "2024-09-27 06:00:00", "RUN_DTG": "2024-09-27 09:29:40", "BASIN": "EP", "STMNR": 10, "CAT_ID": null, "CAT_DESC": null, "MSGID": "WTPZ25 KNHC 270854", "VALIDTIME": "2024-09-25 12:00:00" }, "geometry": { "type": "Point", "coordinates": [ -101.5, 16.200001 ] } },
{ "type": "Feature", "properties": { "ID": 258207, "LAT": 16.7, "LON": -101.5, "VMAX": 45.0, "MSLP": 996.0, "RMAX": 40.0, "FSPD": 2.66875, "FDIR": 292.67667, "RENV": 120.0, "PENV": 1003.0, "VALIDT": 0, "DTG": "2024-09-25 18:00", "LATNOW": 17.6, "LONNOW": -103.0, "WINDNOW": 55.0, "DIRNOW": 2.0, "SPDNOW": 1.0, "TECH": "TRAK", "ADVNR": 18, "ATCFID": "EP102024", "NAME": "JOHN", "FTECH": "OFCL", "FCST_DTG": "2024-09-27 06:00:00", "RUN_DTG": "2024-09-27 09:29:40", "BASIN": "EP", "STMNR": 10, "CAT_ID": null, "CAT_DESC": null, "MSGID": "WTPZ25 KNHC 270854", "VALIDTIME": "2024-09-25 18:00:00" }, "geometry": { "type": "Point", "coordinates": [ -101.5, 16.700001 ] } },
{ "type": "Feature", "properties": { "ID": 258208, "LAT": 16.9, "LON": -102.0, "VMAX": 55.0, "MSLP": 984.0, "RMAX": 15.0, "FSPD": 1.56337, "FDIR": 289.21185, "RENV": 130.0, "PENV": 1003.0, "VALIDT": 0, "DTG": "2024-09-26 00:00", "LATNOW": 17.6, "LONNOW": -103.0, "WINDNOW": 55.0, "DIRNOW": 2.0, "SPDNOW": 1.0, "TECH": "TRAK", "ADVNR": 18, "ATCFID": "EP102024", "NAME": "JOHN", "FTECH": "OFCL", "FCST_DTG": "2024-09-27 06:00:00", "RUN_DTG": "2024-09-27 09:29:40", "BASIN": "EP", "STMNR": 10, "CAT_ID": null, "CAT_DESC": null, "MSGID": "WTPZ25 KNHC 270854", "VALIDTIME": "2024-09-26 00:00:00" }, "geometry": { "type": "Point", "coordinates": [ -102.0, 16.9 ] } },
{ "type": "Feature", "properties": { "ID": 258209, "LAT": 17.0, "LON": -102.3, "VMAX": 60.0, "MSLP": 982.0, "RMAX": 15.0, "FSPD": 2.5314, "FDIR": 324.38034, "RENV": 130.0, "PENV": 1003.0, "VALIDT": 0, "DTG": "2024-09-26 06:00", "LATNOW": 17.6, "LONNOW": -103.0, "WINDNOW": 55.0, "DIRNOW": 2.0, "SPDNOW": 1.0, "TECH": "TRAK", "ADVNR": 18, "ATCFID": "EP102024", "NAME": "JOHN", "FTECH": "OFCL", "FCST_DTG": "2024-09-27 06:00:00", "RUN_DTG": "2024-09-27 09:29:40", "BASIN": "EP", "STMNR": 10, "CAT_ID": null, "CAT_DESC": null, "MSGID": "WTPZ25 KNHC 270854", "VALIDTIME": "2024-09-26 06:00:00" }, "geometry": { "type": "Point", "coordinates": [ -102.300003, 17.0 ] } },
{ "type": "Feature", "properties": { "ID": 258210, "LAT": 17.4, "LON": -102.6, "VMAX": 65.0, "MSLP": 979.0, "RMAX": 10.0, "FSPD": 0.71099, "FDIR": 316.34973, "RENV": 130.0, "PENV": 1003.0, "VALIDT": 0, "DTG": "2024-09-26 12:00", "LATNOW": 17.6, "LONNOW": -103.0, "WINDNOW": 55.0, "DIRNOW": 2.0, "SPDNOW": 1.0, "TECH": "TRAK", "ADVNR": 18, "ATCFID": "EP102024", "NAME": "JOHN", "FTECH": "OFCL", "FCST_DTG": "2024-09-27 06:00:00", "RUN_DTG": "2024-09-27 09:29:40", "BASIN": "EP", "STMNR": 10, "CAT_ID": null, "CAT_DESC": null, "MSGID": "WTPZ25 KNHC 270854", "VALIDTIME": "2024-09-26 12:00:00" }, "geometry": { "type": "Point", "coordinates": [ -102.599998, 17.4 ] } },
{ "type": "Feature", "properties": { "ID": 258211, "LAT": 17.5, "LON": -102.7, "VMAX": 65.0, "MSLP": 979.0, "RMAX": 10.0, "FSPD": 2.49541, "FDIR": 308.20428, "RENV": 130.0, "PENV": 1003.0, "VALIDT": 0, "DTG": "2024-09-26 18:00", "LATNOW": 17.6, "LONNOW": -103.0, "WINDNOW": 55.0, "DIRNOW": 2.0, "SPDNOW": 1.0, "TECH": "TRAK", "ADVNR": 18, "ATCFID": "EP102024", "NAME": "JOHN", "FTECH": "OFCL", "FCST_DTG": "2024-09-27 06:00:00", "RUN_DTG": "2024-09-27 09:29:40", "BASIN": "EP", "STMNR": 10, "CAT_ID": null, "CAT_DESC": null, "MSGID": "WTPZ25 KNHC 270854", "VALIDTIME": "2024-09-26 18:00:00" }, "geometry": { "type": "Point", "coordinates": [ -102.699997, 17.5 ] } },
{ "type": "Feature", "properties": { "ID": 258212, "LAT": 17.8, "LON": -103.1, "VMAX": 60.0, "MSLP": 984.0, "RMAX": 10.0, "FSPD": 1.13964, "FDIR": 154.53027, "RENV": 130.0, "PENV": 1003.0, "VALIDT": 0, "DTG": "2024-09-27 00:00", "LATNOW": 17.6, "LONNOW": -103.0, "WINDNOW": 55.0, "DIRNOW": 2.0, "SPDNOW": 1.0, "TECH": "TRAK", "ADVNR": 18, "ATCFID": "EP102024", "NAME": "JOHN", "FTECH": "OFCL", "FCST_DTG": "2024-09-27 06:00:00", "RUN_DTG": "2024-09-27 09:29:40", "BASIN": "EP", "STMNR": 10, "CAT_ID": null, "CAT_DESC": null, "MSGID": "WTPZ25 KNHC 270854", "VALIDTIME": "2024-09-27 00:00:00" }, "geometry": { "type": "Point", "coordinates": [ -103.099998, 17.799999 ] } },
{ "type": "Feature", "properties": { "ID": 258213, "LAT": 17.6, "LON": -103.0, "VMAX": 55.0, "MSLP": 988.0, "RMAX": 10.0, "FSPD": 2.27928, "FDIR": 25.46967, "RENV": 130.0, "PENV": 1003.0, "VALIDT": 0, "DTG": "2024-09-27 06:00", "LATNOW": 17.6, "LONNOW": -103.0, "WINDNOW": 55.0, "DIRNOW": 2.0, "SPDNOW": 1.0, "TECH": "TRAK", "ADVNR": 18, "ATCFID": "EP102024", "NAME": "JOHN", "FTECH": "OFCL", "FCST_DTG": "2024-09-27 06:00:00", "RUN_DTG": "2024-09-27 09:29:40", "BASIN": "EP", "STMNR": 10, "CAT_ID": null, "CAT_DESC": null, "MSGID": "WTPZ25 KNHC 270854", "VALIDTIME": "2024-09-27 06:00:00" }, "geometry": { "type": "Point", "coordinates": [ -103.0, 17.6 ] } },
{ "type": "Feature", "properties": { "ID": 258214, "LAT": 17.8, "LON": -102.9, "VMAX": 55.0, "MSLP": 988.0, "RMAX": 10.0, "FSPD": 3.56847, "FDIR": 320.25305, "RENV": 180.0, "PENV": 1012.0, "VALIDT": 3, "DTG": "2024-09-27 09:00", "LATNOW": 17.6, "LONNOW": -103.0, "WINDNOW": 55.0, "DIRNOW": 2.0, "SPDNOW": 1.0, "TECH": "FCST", "ADVNR": 18, "ATCFID": "EP102024", "NAME": "JOHN", "FTECH": "OFCL", "FCST_DTG": "2024-09-27 06:00:00", "RUN_DTG": "2024-09-27 09:29:40", "BASIN": "EP", "STMNR": 10, "CAT_ID": null, "CAT_DESC": null, "MSGID": "WTPZ25 KNHC 270854", "VALIDTIME": "2024-09-27 09:00:00" }, "geometry": { "type": "Point", "coordinates": [ -102.900002, 17.799999 ] } },
{ "type": "Feature", "properties": { "ID": 258215, "LAT": 18.44, "LON": -103.46, "VMAX": 55.0, "MSLP": 988.0, "RMAX": 10.0, "FSPD": 3.5651, "FDIR": 320.31805, "RENV": 180.0, "PENV": 1012.0, "VALIDT": 10, "DTG": "2024-09-27 16:00", "LATNOW": 17.6, "LONNOW": -103.0, "WINDNOW": 55.0, "DIRNOW": 2.0, "SPDNOW": 1.0, "TECH": "FCST", "ADVNR": 18, "ATCFID": "EP102024", "NAME": "JOHN", "FTECH": "OFCL", "FCST_DTG": "2024-09-27 06:00:00", "RUN_DTG": "2024-09-27 09:29:40", "BASIN": "EP", "STMNR": 10, "CAT_ID": null, "CAT_DESC": null, "MSGID": "WTPZ25 KNHC 270854", "VALIDTIME": "2024-09-27 16:00:00" }, "geometry": { "type": "Point", "coordinates": [ -103.459999, 18.440001 ] } },
{ "type": "Feature", "properties": { "ID": 258216, "LAT": 18.6, "LON": -103.6, "VMAX": 40.0, "MSLP": 1006.833, "RMAX": 12.60042, "FSPD": 3.42999, "FDIR": 301.6645, "RENV": 180.0, "PENV": 1012.0, "VALIDT": 12, "DTG": "2024-09-27 18:00", "LATNOW": 17.6, "LONNOW": -103.0, "WINDNOW": 55.0, "DIRNOW": 2.0, "SPDNOW": 1.0, "TECH": "FCST", "ADVNR": 18, "ATCFID": "EP102024", "NAME": "JOHN", "FTECH": "OFCL", "FCST_DTG": "2024-09-27 06:00:00", "RUN_DTG": "2024-09-27 09:29:40", "BASIN": "EP", "STMNR": 10, "CAT_ID": null, "CAT_DESC": null, "MSGID": "WTPZ25 KNHC 270854", "VALIDTIME": "2024-09-27 18:00:00" }, "geometry": { "type": "Point", "coordinates": [ -103.599998, 18.6 ] } },
{ "type": "Feature", "properties": { "ID": 258217, "LAT": 19.3, "LON": -104.8, "VMAX": 30.0, "MSLP": 1010.40607, "RMAX": 13.50224, "FSPD": 3.48217, "FDIR": 282.80334, "RENV": 250.0, "PENV": 1012.0, "VALIDT": 24, "DTG": "2024-09-28 06:00", "LATNOW": 17.6, "LONNOW": -103.0, "WINDNOW": 55.0, "DIRNOW": 2.0, "SPDNOW": 1.0, "TECH": "FCST", "ADVNR": 18, "ATCFID": "EP102024", "NAME": "JOHN", "FTECH": "OFCL", "FCST_DTG": "2024-09-27 06:00:00", "RUN_DTG": "2024-09-27 09:29:40", "BASIN": "EP", "STMNR": 10, "CAT_ID": null, "CAT_DESC": null, "MSGID": "WTPZ25 KNHC 270854", "VALIDTIME": "2024-09-28 06:00:00" }, "geometry": { "type": "Point", "coordinates": [ -104.800003, 19.299999 ] } },
{ "type": "Feature", "properties": { "ID": 258218, "LAT": 19.6, "LON": -106.2, "VMAX": 25.0, "MSLP": 1011.80975, "RMAX": 13.74046, "FSPD": 3.8341, "FDIR": 298.00934, "RENV": 250.0, "PENV": 1012.0, "VALIDT": 36, "DTG": "2024-09-28 18:00", "LATNOW": 17.6, "LONNOW": -103.0, "WINDNOW": 55.0, "DIRNOW": 2.0, "SPDNOW": 1.0, "TECH": "FCST", "ADVNR": 18, "ATCFID": "EP102024", "NAME": "JOHN", "FTECH": "OFCL", "FCST_DTG": "2024-09-27 06:00:00", "RUN_DTG": "2024-09-27 09:29:40", "BASIN": "EP", "STMNR": 10, "CAT_ID": null, "CAT_DESC": null, "MSGID": "WTPZ25 KNHC 270854", "VALIDTIME": "2024-09-28 18:00:00" }, "geometry": { "type": "Point", "coordinates": [ -106.199997, 19.6 ] } },
{ "type": "Feature", "properties": { "ID": 258219, "LAT": 20.3, "LON": -107.6, "VMAX": 25.0, "MSLP": 1011.80975, "RMAX": 13.74046, "FSPD": 3.8341, "FDIR": 298.00934, "RENV": 250.0, "PENV": 1012.0, "VALIDT": 48, "DTG": "2024-09-29 06:00", "LATNOW": 17.6, "LONNOW": -103.0, "WINDNOW": 55.0, "DIRNOW": 2.0, "SPDNOW": 1.0, "TECH": "FCST", "ADVNR": 18, "ATCFID": "EP102024", "NAME": "JOHN", "FTECH": "OFCL", "FCST_DTG": "2024-09-27 06:00:00", "RUN_DTG": "2024-09-27 09:29:40", "BASIN": "EP", "STMNR": 10, "CAT_ID": null, "CAT_DESC": null, "MSGID": "WTPZ25 KNHC 270854", "VALIDTIME": "2024-09-29 06:00:00" }, "geometry": { "type": "Point", "coordinates": [ -107.599998, 20.299999 ] } },
{ "type": "Feature", "properties": { "ID": 258213, "LAT": 17.6, "LON": -103.0, "VMAX": 55.0, "MSLP": 988.0, "RMAX": 10.0, "FSPD": 2.27928, "FDIR": 25.46967, "RENV": 130.0, "PENV": 1003.0, "VALIDT": 0, "DTG": "2024-09-27 06:00", "LATNOW": 17.6, "LONNOW": -103.0, "WINDNOW": 55.0, "DIRNOW": 2.0, "SPDNOW": 1.0, "TECH": "TRAK", "ADVNR": 18, "ATCFID": "EP102024", "NAME": "JOHN", "FTECH": "OFCL", "FCST_DTG": "2024-09-27 06:00:00", "RUN_DTG": "2024-09-27 09:29:40", "BASIN": "EP", "STMNR": 10, "CAT_ID": null, "CAT_DESC": null, "MSGID": "WTPZ25 KNHC 270854", "VALIDTIME": "2024-09-27 06:00:00" }, "geometry": { "type": "LineString", "coordinates": [ [ -99.0, 12.7 ], [ -98.8, 12.9 ], [ -98.5, 13.9 ], [ -98.7, 13.8 ], [ -98.6, 13.9 ], [ -98.5, 14.2 ], [ -98.6, 14.6 ], [ -98.4, 15.2 ], [ -98.6, 15.9 ], [ -99.23, 16.8 ], [ -99.3, 16.9 ], [ -100.3, 17.7 ], [ -100.7, 18.0 ], [ -101.4, 16.1 ], [ -101.3, 16.8 ], [ -101.5, 16.2 ], [ -101.5, 16.7 ], [ -102.0, 16.9 ], [ -102.3, 17.0 ], [ -102.6, 17.4 ], [ -102.7, 17.5 ], [ -103.1, 17.8 ], [ -103.0, 17.6 ] ] } },
{ "type": "Feature", "properties": { "ID": 258219, "LAT": 20.3, "LON": -107.6, "VMAX": 25.0, "MSLP": 1011.80975, "RMAX": 13.74046, "FSPD": 3.8341, "FDIR": 298.00934, "RENV": 250.0, "PENV": 1012.0, "VALIDT": 48, "DTG": "2024-09-29 06:00", "LATNOW": 17.6, "LONNOW": -103.0, "WINDNOW": 55.0, "DIRNOW": 2.0, "SPDNOW": 1.0, "TECH": "FCST", "ADVNR": 18, "ATCFID": "EP102024", "NAME": "JOHN", "FTECH": "OFCL", "FCST_DTG": "2024-09-27 06:00:00", "RUN_DTG": "2024-09-27 09:29:40", "BASIN": "EP", "STMNR": 10, "CAT_ID": null, "CAT_DESC": null, "MSGID": "WTPZ25 KNHC 270854", "VALIDTIME": "2024-09-29 06:00:00" }, "geometry": { "type": "LineString", "coordinates": [ [ -103.0, 17.6 ], [ -102.9, 17.8 ], [ -103.46, 18.44 ], [ -103.6, 18.6 ], [ -104.8, 19.3 ], [ -106.2, 19.6 ], [ -107.6, 20.3 ] ] } }
]
}
