{
"type": "FeatureCollection",
"crs": { "type": "name", "properties": { "name": "urn:ogc:def:crs:OGC:1.3:CRS84" } },
"features": [
{ "type": "Feature", "properties": { "ID": 53166, "LAT": 10.4, "LON": -171.6, "VMAX": 20.0, "MSLP": 1012.95825, "RMAX": 45.0, "FSPD": 5.77329, "FDIR": 285.505, "RENV": 500.0, "PENV": 1012.0, "VALIDT": 0, "DTG": "2026-07-25 00:00", "LATNOW": 27.9, "LONNOW": 120.6, "WINDNOW": 65.0, "DIRNOW": 4.0, "SPDNOW": 3.0, "TECH": "TRAK", "ADVNR": 55, "ATCFID": "WP122026", "NAME": "DOLPHIN", "FTECH": "JTWC", "FCST_DTG": "2026-08-09 12:00:00", "RUN_DTG": "2026-08-10 06:26:38", "BASIN": "WP", "STMNR": 12, "CAT_ID": null, "CAT_DESC": null, "MSGID": "WTPN51 PGTW 091500", "VALIDTIME": "2026-07-25 00:00:00" }, "geometry": { "type": "Point", "coordinates": [ -171.600006, 10.4 ] } },
{ "type": "Feature", "properties": { "ID": 53167, "LAT": 10.7, "LON": -172.7, "VMAX": 20.0, "MSLP": 1012.95825, "RMAX": 45.0, "FSPD": 5.76806, "FDIR": 285.5194, "RENV": 500.0, "PENV": 1012.0, "VALIDT": 0, "DTG": "2026-07-25 06:00", "LATNOW": 27.9, "LONNOW": 120.6, "WINDNOW": 65.0, "DIRNOW": 4.0, "SPDNOW": 3.0, "TECH": "TRAK", "ADVNR": 55, "ATCFID": "WP122026", "NAME": "DOLPHIN", "FTECH": "JTWC", "FCST_DTG": "2026-08-09 12:00:00", "RUN_DTG": "2026-08-10 06:26:38", "BASIN": "WP", "STMNR": 12, "CAT_ID": null, "CAT_DESC": null, "MSGID": "WTPN51 PGTW 091500", "VALIDTIME": "2026-07-25 06:00:00" }, "geometry": { "type": "Point", "coordinates": [ -172.699997, 10.7 ] } },
{ "type": "Feature", "properties": { "ID": 53168, "LAT": 11.0, "LON": -173.8, "VMAX": 20.0, "MSLP": 1012.95825, "RMAX": 45.0, "FSPD": 5.9202, "FDIR": 290.33966, "RENV": 500.0, "PENV": 1012.0, "VALIDT": 0, "DTG": "2026-07-25 12:00", "LATNOW": 27.9, "LONNOW": 120.6, "WINDNOW": 65.0, "DIRNOW": 4.0, "SPDNOW": 3.0, "TECH": "TRAK", "ADVNR": 55, "ATCFID": "WP122026", "NAME": "DOLPHIN", "FTECH": "JTWC", "FCST_DTG": "2026-08-09 12:00:00", "RUN_DTG": "2026-08-10 06:26:38", "BASIN": "WP", "STMNR": 12, "CAT_ID": null, "CAT_DESC": null, "MSGID": "WTPN51 PGTW 091500", "VALIDTIME": "2026-07-25 12:00:00" }, "geometry": { "type": "Point", "coordinates": [ -173.800003, 11.0 ] } },
{ "type": "Feature", "properties": { "ID": 53169, "LAT": 11.4, "LON": -174.9, "VMAX": 20.0, "MSLP": 1012.95825, "RMAX": 45.0, "FSPD": 5.75513, "FDIR": 285.5552, "RENV": 500.0, "PENV": 1012.0, "VALIDT": 0, "DTG": "2026-07-25 18:00", "LATNOW": 27.9, "LONNOW": 120.6, "WINDNOW": 65.0, "DIRNOW": 4.0, "SPDNOW": 3.0, "TECH": "TRAK", "ADVNR": 55, "ATCFID": "WP122026", "NAME": "DOLPHIN", "FTECH": "JTWC", "FCST_DTG": "2026-08-09 12:00:00", "RUN_DTG": "2026-08-10 06:26:38", "BASIN": "WP", "STMNR": 12, "CAT_ID": null, "CAT_DESC": null, "MSGID": "WTPN51 PGTW 091500", "VALIDTIME": "2026-07-25 18:00:00" }, "geometry": { "type": "Point", "coordinates": [ -174.899994, 11.4 ] } },
{ "type": "Feature", "properties": { "ID": 53170, "LAT": 11.7, "LON": -176.0, "VMAX": 20.0, "MSLP": 1012.95825, "RMAX": 45.0, "FSPD": 7.21568, "FDIR": 282.35016, "RENV": 500.0, "PENV": 1012.0, "VALIDT": 0, "DTG": "2026-07-26 00:00", "LATNOW": 27.9, "LONNOW": 120.6, "WINDNOW": 65.0, "DIRNOW": 4.0, "SPDNOW": 3.0, "TECH": "TRAK", "ADVNR": 55, "ATCFID": "WP122026", "NAME": "DOLPHIN", "FTECH": "JTWC", "FCST_DTG": "2026-08-09 12:00:00", "RUN_DTG": "2026-08-10 06:26:38", "BASIN": "WP", "STMNR": 12, "CAT_ID": null, "CAT_DESC": null, "MSGID": "WTPN51 PGTW 091500", "VALIDTIME": "2026-07-26 00:00:00" }, "geometry": { "type": "Point", "coordinates": [ -176.0, 11.7 ] } },
{ "type": "Feature", "properties": { "ID": 53171, "LAT": 12.0, "LON": -177.4, "VMAX": 25.0, "MSLP": 1011.80975, "RMAX": 45.0, "FSPD": 7.96759, "FDIR": 288.83447, "RENV": 500.0, "PENV": 1012.0, "VALIDT": 0, "DTG": "2026-07-26 06:00", "LATNOW": 27.9, "LONNOW": 120.6, "WINDNOW": 65.0, "DIRNOW": 4.0, "SPDNOW": 3.0, "TECH": "TRAK", "ADVNR": 55, "ATCFID": "WP122026", "NAME": "DOLPHIN", "FTECH": "JTWC", "FCST_DTG": "2026-08-09 12:00:00", "RUN_DTG": "2026-08-10 06:26:38", "BASIN": "WP", "STMNR": 12, "CAT_ID": null, "CAT_DESC": null, "MSGID": "WTPN51 PGTW 091500", "VALIDTIME": "2026-07-26 06:00:00" }, "geometry": { "type": "Point", "coordinates": [ -177.399994, 12.0 ] } },
{ "type": "Feature", "properties": { "ID": 53172, "LAT": 12.5, "LON": -178.9, "VMAX": 25.0, "MSLP": 1011.80975, "RMAX": 45.0, "FSPD": 7.10372, "FDIR": 278.32788, "RENV": 500.0, "PENV": 1012.0, "VALIDT": 0, "DTG": "2026-07-26 12:00", "LATNOW": 27.9, "LONNOW": 120.6, "WINDNOW": 65.0, "DIRNOW": 4.0, "SPDNOW": 3.0, "TECH": "TRAK", "ADVNR": 55, "ATCFID": "WP122026", "NAME": "DOLPHIN", "FTECH": "JTWC", "FCST_DTG": "2026-08-09 12:00:00", "RUN_DTG": "2026-08-10 06:26:38", "BASIN": "WP", "STMNR": 12, "CAT_ID": null, "CAT_DESC": null, "MSGID": "WTPN51 PGTW 091500", "VALIDTIME": "2026-07-26 12:00:00" }, "geometry": { "type": "Point", "coordinates": [ -178.899994, 12.5 ] } },
{ "type": "Feature", "properties": { "ID": 53173, "LAT": 12.7, "LON": 179.7, "VMAX": 25.0, "MSLP": 1011.80975, "RMAX": 45.0, "FSPD": 7.04341, "FDIR": 274.18857, "RENV": 500.0, "PENV": 1012.0, "VALIDT": 0, "DTG": "2026-07-26 18:00", "LATNOW": 27.9, "LONNOW": 120.6, "WINDNOW": 65.0, "DIRNOW": 4.0, "SPDNOW": 3.0, "TECH": "TRAK", "ADVNR": 55, "ATCFID": "WP122026", "NAME": "DOLPHIN", "FTECH": "JTWC", "FCST_DTG": "2026-08-09 12:00:00", "RUN_DTG": "2026-08-10 06:26:38", "BASIN": "WP", "STMNR": 12, "CAT_ID": null, "CAT_DESC": null, "MSGID": "WTPN51 PGTW 091500", "VALIDTIME": "2026-07-26 18:00:00" }, "geometry": { "type": "Point", "coordinates": [ 179.699997, 12.7 ] } },
{ "type": "Feature", "properties": { "ID": 53174, "LAT": 12.8, "LON": 178.3, "VMAX": 30.0, "MSLP": 1002.0, "RMAX": 40.0, "FSPD": 8.59062, "FDIR": 291.0576, "RENV": 190.0, "PENV": 1008.0, "VALIDT": 0, "DTG": "2026-07-27 00:00", "LATNOW": 27.9, "LONNOW": 120.6, "WINDNOW": 65.0, "DIRNOW": 4.0, "SPDNOW": 3.0, "TECH": "TRAK", "ADVNR": 55, "ATCFID": "WP122026", "NAME": "DOLPHIN", "FTECH": "JTWC", "FCST_DTG": "2026-08-09 12:00:00", "RUN_DTG": "2026-08-10 06:26:38", "BASIN": "WP", "STMNR": 12, "CAT_ID": null, "CAT_DESC": null, "MSGID": "WTPN51 PGTW 091500", "VALIDTIME": "2026-07-27 00:00:00" }, "geometry": { "type": "Point", "coordinates": [ 178.300003, 12.8 ] } },
{ "type": "Feature", "properties": { "ID": 53175, "LAT": 13.4, "LON": 176.7, "VMAX": 35.0, "MSLP": 1002.0, "RMAX": 40.0, "FSPD": 7.57367, "FDIR": 277.80783, "RENV": 190.0, "PENV": 1008.0, "VALIDT": 0, "DTG": "2026-07-27 06:00", "LATNOW": 27.9, "LONNOW": 120.6, "WINDNOW": 65.0, "DIRNOW": 4.0, "SPDNOW": 3.0, "TECH": "TRAK", "ADVNR": 55, "ATCFID": "WP122026", "NAME": "DOLPHIN", "FTECH": "JTWC", "FCST_DTG": "2026-08-09 12:00:00", "RUN_DTG": "2026-08-10 06:26:38", "BASIN": "WP", "STMNR": 12, "CAT_ID": null, "CAT_DESC": null, "MSGID": "WTPN51 PGTW 091500", "VALIDTIME": "2026-07-27 06:00:00" }, "geometry": { "type": "Point", "coordinates": [ 176.699997, 13.4 ] } },
{ "type": "Feature", "properties": { "ID": 53176, "LAT": 13.6, "LON": 175.2, "VMAX": 45.0, "MSLP": 1001.0, "RMAX": 35.0, "FSPD": 7.78353, "FDIR": 254.67006, "RENV": 190.0, "PENV": 1007.0, "VALIDT": 0, "DTG": "2026-07-27 12:00", "LATNOW": 27.9, "LONNOW": 120.6, "WINDNOW": 65.0, "DIRNOW": 4.0, "SPDNOW": 3.0, "TECH": "TRAK", "ADVNR": 55, "ATCFID": "WP122026", "NAME": "DOLPHIN", "FTECH": "JTWC", "FCST_DTG": "2026-08-09 12:00:00", "RUN_DTG": "2026-08-10 06:26:38", "BASIN": "WP", "STMNR": 12, "CAT_ID": null, "CAT_DESC": null, "MSGID": "WTPN51 PGTW 091500", "VALIDTIME": "2026-07-27 12:00:00" }, "geometry": { "type": "Point", "coordinates": [ 175.199997, 13.6 ] } },
{ "type": "Feature", "properties": { "ID": 53177, "LAT": 13.2, "LON": 173.7, "VMAX": 45.0, "MSLP": 998.0, "RMAX": 25.0, "FSPD": 4.62537, "FDIR": 257.1473, "RENV": 235.0, "PENV": 1008.0, "VALIDT": 0, "DTG": "2026-07-27 18:00", "LATNOW": 27.9, "LONNOW": 120.6, "WINDNOW": 65.0, "DIRNOW": 4.0, "SPDNOW": 3.0, "TECH": "TRAK", "ADVNR": 55, "ATCFID": "WP122026", "NAME": "DOLPHIN", "FTECH": "JTWC", "FCST_DTG": "2026-08-09 12:00:00", "RUN_DTG": "2026-08-10 06:26:38", "BASIN": "WP", "STMNR": 12, "CAT_ID": null, "CAT_DESC": null, "MSGID": "WTPN51 PGTW 091500", "VALIDTIME": "2026-07-27 18:00:00" }, "geometry": { "type": "Point", "coordinates": [ 173.699997, 13.2 ] } },
{ "type": "Feature", "properties": { "ID": 53178, "LAT": 13.0, "LON": 172.8, "VMAX": 60.0, "MSLP": 997.0, "RMAX": 20.0, "FSPD": 5.72257, "FDIR": 285.64594, "RENV": 180.0, "PENV": 1006.0, "VALIDT": 0, "DTG": "2026-07-28 00:00", "LATNOW": 27.9, "LONNOW": 120.6, "WINDNOW": 65.0, "DIRNOW": 4.0, "SPDNOW": 3.0, "TECH": "TRAK", "ADVNR": 55, "ATCFID": "WP122026", "NAME": "DOLPHIN", "FTECH": "JTWC", "FCST_DTG": "2026-08-09 12:00:00", "RUN_DTG": "2026-08-10 06:26:38", "BASIN": "WP", "STMNR": 12, "CAT_ID": null, "CAT_DESC": null, "MSGID": "WTPN51 PGTW 091500", "VALIDTIME": "2026-07-28 00:00:00" }, "geometry": { "type": "Point", "coordinates": [ 172.800003, 13.0 ] } },
{ "type": "Feature", "properties": { "ID": 53179, "LAT": 13.3, "LON": 171.7, "VMAX": 75.0, "MSLP": 988.0, "RMAX": 15.0, "FSPD": 5.0318, "FDIR": 275.86804, "RENV": 180.0, "PENV": 1007.0, "VALIDT": 0, "DTG": "2026-07-28 06:00", "LATNOW": 27.9, "LONNOW": 120.6, "WINDNOW": 65.0, "DIRNOW": 4.0, "SPDNOW": 3.0, "TECH": "TRAK", "ADVNR": 55, "ATCFID": "WP122026", "NAME": "DOLPHIN", "FTECH": "JTWC", "FCST_DTG": "2026-08-09 12:00:00", "RUN_DTG": "2026-08-10 06:26:38", "BASIN": "WP", "STMNR": 12, "CAT_ID": null, "CAT_DESC": null, "MSGID": "WTPN51 PGTW 091500", "VALIDTIME": "2026-07-28 06:00:00" }, "geometry": { "type": "Point", "coordinates": [ 171.699997, 13.3 ] } },
{ "type": "Feature", "properties": { "ID": 53180, "LAT": 13.4, "LON": 170.7, "VMAX": 100.0, "MSLP": 980.0, "RMAX": 10.0, "FSPD": 4.28836, "FDIR": 291.09338, "RENV": 210.0, "PENV": 1007.0, "VALIDT": 0, "DTG": "2026-07-28 12:00", "LATNOW": 27.9, "LONNOW": 120.6, "WINDNOW": 65.0, "DIRNOW": 4.0, "SPDNOW": 3.0, "TECH": "TRAK", "ADVNR": 55, "ATCFID": "WP122026", "NAME": "DOLPHIN", "FTECH": "JTWC", "FCST_DTG": "2026-08-09 12:00:00", "RUN_DTG": "2026-08-10 06:26:38", "BASIN": "WP", "STMNR": 12, "CAT_ID": null, "CAT_DESC": null, "MSGID": "WTPN51 PGTW 091500", "VALIDTIME": "2026-07-28 12:00:00" }, "geometry": { "type": "Point", "coordinates": [ 170.699997, 13.4 ] } },
{ "type": "Feature", "properties": { "ID": 53181, "LAT": 13.7, "LON": 169.9, "VMAX": 125.0, "MSLP": 960.0, "RMAX": 6.0, "FSPD": 4.49381, "FDIR": 297.25262, "RENV": 210.0, "PENV": 1007.0, "VALIDT": 0, "DTG": "2026-07-28 18:00", "LATNOW": 27.9, "LONNOW": 120.6, "WINDNOW": 65.0, "DIRNOW": 4.0, "SPDNOW": 3.0, "TECH": "TRAK", "ADVNR": 55, "ATCFID": "WP122026", "NAME": "DOLPHIN", "FTECH": "JTWC", "FCST_DTG": "2026-08-09 12:00:00", "RUN_DTG": "2026-08-10 06:26:38", "BASIN": "WP", "STMNR": 12, "CAT_ID": null, "CAT_DESC": null, "MSGID": "WTPN51 PGTW 091500", "VALIDTIME": "2026-07-28 18:00:00" }, "geometry": { "type": "Point", "coordinates": [ 169.899994, 13.7 ] } },
{ "type": "Feature", "properties": { "ID": 53182, "LAT": 14.1, "LON": 169.1, "VMAX": 120.0, "MSLP": 937.0, "RMAX": 5.0, "FSPD": 4.05114, "FDIR": 300.52737, "RENV": 350.0, "PENV": 1006.0, "VALIDT": 0, "DTG": "2026-07-29 00:00", "LATNOW": 27.9, "LONNOW": 120.6, "WINDNOW": 65.0, "DIRNOW": 4.0, "SPDNOW": 3.0, "TECH": "TRAK", "ADVNR": 55, "ATCFID": "WP122026", "NAME": "DOLPHIN", "FTECH": "JTWC", "FCST_DTG": "2026-08-09 12:00:00", "RUN_DTG": "2026-08-10 06:26:38", "BASIN": "WP", "STMNR": 12, "CAT_ID": null, "CAT_DESC": null, "MSGID": "WTPN51 PGTW 091500", "VALIDTIME": "2026-07-29 00:00:00" }, "geometry": { "type": "Point", "coordinates": [ 169.100006, 14.1 ] } },
{ "type": "Feature", "properties": { "ID": 53183, "LAT": 14.5, "LON": 168.4, "VMAX": 120.0, "MSLP": 941.0, "RMAX": 5.0, "FSPD": 5.0084, "FDIR": 315.97308, "RENV": 250.0, "PENV": 1006.0, "VALIDT": 0, "DTG": "2026-07-29 06:00", "LATNOW": 27.9, "LONNOW": 120.6, "WINDNOW": 65.0, "DIRNOW": 4.0, "SPDNOW": 3.0, "TECH": "TRAK", "ADVNR": 55, "ATCFID": "WP122026", "NAME": "DOLPHIN", "FTECH": "JTWC", "FCST_DTG": "2026-08-09 12:00:00", "RUN_DTG": "2026-08-10 06:26:38", "BASIN": "WP", "STMNR": 12, "CAT_ID": null, "CAT_DESC": null, "MSGID": "WTPN51 PGTW 091500", "VALIDTIME": "2026-07-29 06:00:00" }, "geometry": { "type": "Point", "coordinates": [ 168.399994, 14.5 ] } },
{ "type": "Feature", "properties": { "ID": 53184, "LAT": 15.2, "LON": 167.7, "VMAX": 130.0, "MSLP": 941.0, "RMAX": 5.0, "FSPD": 5.42524, "FDIR": 304.67676, "RENV": 250.0, "PENV": 1006.0, "VALIDT": 0, "DTG": "2026-07-29 12:00", "LATNOW": 27.9, "LONNOW": 120.6, "WINDNOW": 65.0, "DIRNOW": 4.0, "SPDNOW": 3.0, "TECH": "TRAK", "ADVNR": 55, "ATCFID": "WP122026", "NAME": "DOLPHIN", "FTECH": "JTWC", "FCST_DTG": "2026-08-09 12:00:00", "RUN_DTG": "2026-08-10 06:26:38", "BASIN": "WP", "STMNR": 12, "CAT_ID": null, "CAT_DESC": null, "MSGID": "WTPN51 PGTW 091500", "VALIDTIME": "2026-07-29 12:00:00" }, "geometry": { "type": "Point", "coordinates": [ 167.699997, 15.2 ] } },
{ "type": "Feature", "properties": { "ID": 53185, "LAT": 15.8, "LON": 166.8, "VMAX": 145.0, "MSLP": 935.0, "RMAX": 5.0, "FSPD": 6.25205, "FDIR": 299.58432, "RENV": 350.0, "PENV": 1009.0, "VALIDT": 0, "DTG": "2026-07-29 18:00", "LATNOW": 27.9, "LONNOW": 120.6, "WINDNOW": 65.0, "DIRNOW": 4.0, "SPDNOW": 3.0, "TECH": "TRAK", "ADVNR": 55, "ATCFID": "WP122026", "NAME": "DOLPHIN", "FTECH": "JTWC", "FCST_DTG": "2026-08-09 12:00:00", "RUN_DTG": "2026-08-10 06:26:38", "BASIN": "WP", "STMNR": 12, "CAT_ID": null, "CAT_DESC": null, "MSGID": "WTPN51 PGTW 091500", "VALIDTIME": "2026-07-29 18:00:00" }, "geometry": { "type": "Point", "coordinates": [ 166.800003, 15.8 ] } },
{ "type": "Feature", "properties": { "ID": 53186, "LAT": 16.4, "LON": 165.7, "VMAX": 140.0, "MSLP": 915.0, "RMAX": 12.0, "FSPD": 4.70784, "FDIR": 303.11835, "RENV": 360.0, "PENV": 1006.0, "VALIDT": 0, "DTG": "2026-07-30 00:00", "LATNOW": 27.9, "LONNOW": 120.6, "WINDNOW": 65.0, "DIRNOW": 4.0, "SPDNOW": 3.0, "TECH": "TRAK", "ADVNR": 55, "ATCFID": "WP122026", "NAME": "DOLPHIN", "FTECH": "JTWC", "FCST_DTG": "2026-08-09 12:00:00", "RUN_DTG": "2026-08-10 06:26:38", "BASIN": "WP", "STMNR": 12, "CAT_ID": null, "CAT_DESC": null, "MSGID": "WTPN51 PGTW 091500", "VALIDTIME": "2026-07-30 00:00:00" }, "geometry": { "type": "Point", "coordinates": [ 165.699997, 16.4 ] } },
{ "type": "Feature", "properties": { "ID": 53187, "LAT": 16.9, "LON": 164.9, "VMAX": 140.0, "MSLP": 921.0, "RMAX": 12.0, "FSPD": 5.80333, "FDIR": 302.13248, "RENV": 360.0, "PENV": 1007.0, "VALIDT": 0, "DTG": "2026-07-30 06:00", "LATNOW": 27.9, "LONNOW": 120.6, "WINDNOW": 65.0, "DIRNOW": 4.0, "SPDNOW": 3.0, "TECH": "TRAK", "ADVNR": 55, "ATCFID": "WP122026", "NAME": "DOLPHIN", "FTECH": "JTWC", "FCST_DTG": "2026-08-09 12:00:00", "RUN_DTG": "2026-08-10 06:26:38", "BASIN": "WP", "STMNR": 12, "CAT_ID": null, "CAT_DESC": null, "MSGID": "WTPN51 PGTW 091500", "VALIDTIME": "2026-07-30 06:00:00" }, "geometry": { "type": "Point", "coordinates": [ 164.899994, 16.9 ] } },
{ "type": "Feature", "properties": { "ID": 53188, "LAT": 17.5, "LON": 163.9, "VMAX": 130.0, "MSLP": 919.0, "RMAX": 12.0, "FSPD": 5.31539, "FDIR": 292.77637, "RENV": 310.0, "PENV": 1004.0, "VALIDT": 0, "DTG": "2026-07-30 12:00", "LATNOW": 27.9, "LONNOW": 120.6, "WINDNOW": 65.0, "DIRNOW": 4.0, "SPDNOW": 3.0, "TECH": "TRAK", "ADVNR": 55, "ATCFID": "WP122026", "NAME": "DOLPHIN", "FTECH": "JTWC", "FCST_DTG": "2026-08-09 12:00:00", "RUN_DTG": "2026-08-10 06:26:38", "BASIN": "WP", "STMNR": 12, "CAT_ID": null, "CAT_DESC": null, "MSGID": "WTPN51 PGTW 091500", "VALIDTIME": "2026-07-30 12:00:00" }, "geometry": { "type": "Point", "coordinates": [ 163.899994, 17.5 ] } },
{ "type": "Feature", "properties": { "ID": 53189, "LAT": 17.9, "LON": 162.9, "VMAX": 135.0, "MSLP": 931.0, "RMAX": 5.0, "FSPD": 5.30522, "FDIR": 292.8225, "RENV": 300.0, "PENV": 1006.0, "VALIDT": 0, "DTG": "2026-07-30 18:00", "LATNOW": 27.9, "LONNOW": 120.6, "WINDNOW": 65.0, "DIRNOW": 4.0, "SPDNOW": 3.0, "TECH": "TRAK", "ADVNR": 55, "ATCFID": "WP122026", "NAME": "DOLPHIN", "FTECH": "JTWC", "FCST_DTG": "2026-08-09 12:00:00", "RUN_DTG": "2026-08-10 06:26:38", "BASIN": "WP", "STMNR": 12, "CAT_ID": null, "CAT_DESC": null, "MSGID": "WTPN51 PGTW 091500", "VALIDTIME": "2026-07-30 18:00:00" }, "geometry": { "type": "Point", "coordinates": [ 162.899994, 17.9 ] } },
{ "type": "Feature", "properties": { "ID": 53190, "LAT": 18.3, "LON": 161.9, "VMAX": 135.0, "MSLP": 924.0, "RMAX": 15.0, "FSPD": 4.65526, "FDIR": 289.3614, "RENV": 350.0, "PENV": 1005.0, "VALIDT": 0, "DTG": "2026-07-31 00:00", "LATNOW": 27.9, "LONNOW": 120.6, "WINDNOW": 65.0, "DIRNOW": 4.0, "SPDNOW": 3.0, "TECH": "TRAK", "ADVNR": 55, "ATCFID": "WP122026", "NAME": "DOLPHIN", "FTECH": "JTWC", "FCST_DTG": "2026-08-09 12:00:00", "RUN_DTG": "2026-08-10 06:26:38", "BASIN": "WP", "STMNR": 12, "CAT_ID": null, "CAT_DESC": null, "MSGID": "WTPN51 PGTW 091500", "VALIDTIME": "2026-07-31 00:00:00" }, "geometry": { "type": "Point", "coordinates": [ 161.899994, 18.299999 ] } },
{ "type": "Feature", "properties": { "ID": 53191, "LAT": 18.6, "LON": 161.0, "VMAX": 140.0, "MSLP": 924.0, "RMAX": 12.0, "FSPD": 5.08087, "FDIR": 300.4148, "RENV": 340.0, "PENV": 1005.0, "VALIDT": 0, "DTG": "2026-07-31 06:00", "LATNOW": 27.9, "LONNOW": 120.6, "WINDNOW": 65.0, "DIRNOW": 4.0, "SPDNOW": 3.0, "TECH": "TRAK", "ADVNR": 55, "ATCFID": "WP122026", "NAME": "DOLPHIN", "FTECH": "JTWC", "FCST_DTG": "2026-08-09 12:00:00", "RUN_DTG": "2026-08-10 06:26:38", "BASIN": "WP", "STMNR": 12, "CAT_ID": null, "CAT_DESC": null, "MSGID": "WTPN51 PGTW 091500", "VALIDTIME": "2026-07-31 06:00:00" }, "geometry": { "type": "Point", "coordinates": [ 161.0, 18.6 ] } },
{ "type": "Feature", "properties": { "ID": 53192, "LAT": 19.1, "LON": 160.1, "VMAX": 130.0, "MSLP": 915.0, "RMAX": 12.0, "FSPD": 6.04143, "FDIR": 306.58884, "RENV": 300.0, "PENV": 1002.0, "VALIDT": 0, "DTG": "2026-07-31 12:00", "LATNOW": 27.9, "LONNOW": 120.6, "WINDNOW": 65.0, "DIRNOW": 4.0, "SPDNOW": 3.0, "TECH": "TRAK", "ADVNR": 55, "ATCFID": "WP122026", "NAME": "DOLPHIN", "FTECH": "JTWC", "FCST_DTG": "2026-08-09 12:00:00", "RUN_DTG": "2026-08-10 06:26:38", "BASIN": "WP", "STMNR": 12, "CAT_ID": null, "CAT_DESC": null, "MSGID": "WTPN51 PGTW 091500", "VALIDTIME": "2026-07-31 12:00:00" }, "geometry": { "type": "Point", "coordinates": [ 160.100006, 19.1 ] } },
{ "type": "Feature", "properties": { "ID": 53193, "LAT": 19.8, "LON": 159.1, "VMAX": 125.0, "MSLP": 927.0, "RMAX": 15.0, "FSPD": 4.38076, "FDIR": 298.0169, "RENV": 315.0, "PENV": 1004.0, "VALIDT": 0, "DTG": "2026-07-31 18:00", "LATNOW": 27.9, "LONNOW": 120.6, "WINDNOW": 65.0, "DIRNOW": 4.0, "SPDNOW": 3.0, "TECH": "TRAK", "ADVNR": 55, "ATCFID": "WP122026", "NAME": "DOLPHIN", "FTECH": "JTWC", "FCST_DTG": "2026-08-09 12:00:00", "RUN_DTG": "2026-08-10 06:26:38", "BASIN": "WP", "STMNR": 12, "CAT_ID": null, "CAT_DESC": null, "MSGID": "WTPN51 PGTW 091500", "VALIDTIME": "2026-07-31 18:00:00" }, "geometry": { "type": "Point", "coordinates": [ 159.100006, 19.799999 ] } },
{ "type": "Feature", "properties": { "ID": 53194, "LAT": 20.2, "LON": 158.3, "VMAX": 125.0, "MSLP": 932.0, "RMAX": 15.0, "FSPD": 4.93842, "FDIR": 308.68433, "RENV": 430.0, "PENV": 1004.0, "VALIDT": 0, "DTG": "2026-08-01 00:00", "LATNOW": 27.9, "LONNOW": 120.6, "WINDNOW": 65.0, "DIRNOW": 4.0, "SPDNOW": 3.0, "TECH": "TRAK", "ADVNR": 55, "ATCFID": "WP122026", "NAME": "DOLPHIN", "FTECH": "JTWC", "FCST_DTG": "2026-08-09 12:00:00", "RUN_DTG": "2026-08-10 06:26:38", "BASIN": "WP", "STMNR": 12, "CAT_ID": null, "CAT_DESC": null, "MSGID": "WTPN51 PGTW 091500", "VALIDTIME": "2026-08-01 00:00:00" }, "geometry": { "type": "Point", "coordinates": [ 158.300003, 20.200001 ] } },
{ "type": "Feature", "properties": { "ID": 53195, "LAT": 20.8, "LON": 157.5, "VMAX": 120.0, "MSLP": 933.0, "RMAX": 5.0, "FSPD": 7.47097, "FDIR": 303.42694, "RENV": 499.0, "PENV": 1006.0, "VALIDT": 0, "DTG": "2026-08-01 06:00", "LATNOW": 27.9, "LONNOW": 120.6, "WINDNOW": 65.0, "DIRNOW": 4.0, "SPDNOW": 3.0, "TECH": "TRAK", "ADVNR": 55, "ATCFID": "WP122026", "NAME": "DOLPHIN", "FTECH": "JTWC", "FCST_DTG": "2026-08-09 12:00:00", "RUN_DTG": "2026-08-10 06:26:38", "BASIN": "WP", "STMNR": 12, "CAT_ID": null, "CAT_DESC": null, "MSGID": "WTPN51 PGTW 091500", "VALIDTIME": "2026-08-01 06:00:00" }, "geometry": { "type": "Point", "coordinates": [ 157.5, 20.799999 ] } },
{ "type": "Feature", "properties": { "ID": 53196, "LAT": 21.6, "LON": 156.2, "VMAX": 120.0, "MSLP": 937.0, "RMAX": 15.0, "FSPD": 6.71919, "FDIR": 292.5083, "RENV": 499.0, "PENV": 1006.0, "VALIDT": 0, "DTG": "2026-08-01 12:00", "LATNOW": 27.9, "LONNOW": 120.6, "WINDNOW": 65.0, "DIRNOW": 4.0, "SPDNOW": 3.0, "TECH": "TRAK", "ADVNR": 55, "ATCFID": "WP122026", "NAME": "DOLPHIN", "FTECH": "JTWC", "FCST_DTG": "2026-08-09 12:00:00", "RUN_DTG": "2026-08-10 06:26:38", "BASIN": "WP", "STMNR": 12, "CAT_ID": null, "CAT_DESC": null, "MSGID": "WTPN51 PGTW 091500", "VALIDTIME": "2026-08-01 12:00:00" }, "geometry": { "type": "Point", "coordinates": [ 156.199997, 21.6 ] } },
{ "type": "Feature", "properties": { "ID": 53197, "LAT": 22.1, "LON": 154.9, "VMAX": 125.0, "MSLP": 937.0, "RMAX": 30.0, "FSPD": 7.33939, "FDIR": 294.87006, "RENV": 499.0, "PENV": 1006.0, "VALIDT": 0, "DTG": "2026-08-01 18:00", "LATNOW": 27.9, "LONNOW": 120.6, "WINDNOW": 65.0, "DIRNOW": 4.0, "SPDNOW": 3.0, "TECH": "TRAK", "ADVNR": 55, "ATCFID": "WP122026", "NAME": "DOLPHIN", "FTECH": "JTWC", "FCST_DTG": "2026-08-09 12:00:00", "RUN_DTG": "2026-08-10 06:26:38", "BASIN": "WP", "STMNR": 12, "CAT_ID": null, "CAT_DESC": null, "MSGID": "WTPN51 PGTW 091500", "VALIDTIME": "2026-08-01 18:00:00" }, "geometry": { "type": "Point", "coordinates": [ 154.899994, 22.1 ] } },
{ "type": "Feature", "properties": { "ID": 53198, "LAT": 22.7, "LON": 153.5, "VMAX": 125.0, "MSLP": 930.0, "RMAX": 20.0, "FSPD": 6.67402, "FDIR": 292.66907, "RENV": 519.0, "PENV": 1004.0, "VALIDT": 0, "DTG": "2026-08-02 00:00", "LATNOW": 27.9, "LONNOW": 120.6, "WINDNOW": 65.0, "DIRNOW": 4.0, "SPDNOW": 3.0, "TECH": "TRAK", "ADVNR": 55, "ATCFID": "WP122026", "NAME": "DOLPHIN", "FTECH": "JTWC", "FCST_DTG": "2026-08-09 12:00:00", "RUN_DTG": "2026-08-10 06:26:38", "BASIN": "WP", "STMNR": 12, "CAT_ID": null, "CAT_DESC": null, "MSGID": "WTPN51 PGTW 091500", "VALIDTIME": "2026-08-02 00:00:00" }, "geometry": { "type": "Point", "coordinates": [ 153.5, 22.700001 ] } },
{ "type": "Feature", "properties": { "ID": 53199, "LAT": 23.2, "LON": 152.2, "VMAX": 120.0, "MSLP": 931.0, "RMAX": 20.0, "FSPD": 6.47352, "FDIR": 288.5345, "RENV": 575.0, "PENV": 1006.0, "VALIDT": 0, "DTG": "2026-08-02 06:00", "LATNOW": 27.9, "LONNOW": 120.6, "WINDNOW": 65.0, "DIRNOW": 4.0, "SPDNOW": 3.0, "TECH": "TRAK", "ADVNR": 55, "ATCFID": "WP122026", "NAME": "DOLPHIN", "FTECH": "JTWC", "FCST_DTG": "2026-08-09 12:00:00", "RUN_DTG": "2026-08-10 06:26:38", "BASIN": "WP", "STMNR": 12, "CAT_ID": null, "CAT_DESC": null, "MSGID": "WTPN51 PGTW 091500", "VALIDTIME": "2026-08-02 06:00:00" }, "geometry": { "type": "Point", "coordinates": [ 152.199997, 23.200001 ] } },
{ "type": "Feature", "properties": { "ID": 53200, "LAT": 23.6, "LON": 150.9, "VMAX": 110.0, "MSLP": 935.0, "RMAX": 20.0, "FSPD": 7.3542, "FDIR": 286.24884, "RENV": 575.0, "PENV": 1006.0, "VALIDT": 0, "DTG": "2026-08-02 12:00", "LATNOW": 27.9, "LONNOW": 120.6, "WINDNOW": 65.0, "DIRNOW": 4.0, "SPDNOW": 3.0, "TECH": "TRAK", "ADVNR": 55, "ATCFID": "WP122026", "NAME": "DOLPHIN", "FTECH": "JTWC", "FCST_DTG": "2026-08-09 12:00:00", "RUN_DTG": "2026-08-10 06:26:38", "BASIN": "WP", "STMNR": 12, "CAT_ID": null, "CAT_DESC": null, "MSGID": "WTPN51 PGTW 091500", "VALIDTIME": "2026-08-02 12:00:00" }, "geometry": { "type": "Point", "coordinates": [ 150.899994, 23.6 ] } },
{ "type": "Feature", "properties": { "ID": 53201, "LAT": 24.0, "LON": 149.4, "VMAX": 105.0, "MSLP": 943.0, "RMAX": 20.0, "FSPD": 5.12373, "FDIR": 293.67926, "RENV": 575.0, "PENV": 1006.0, "VALIDT": 0, "DTG": "2026-08-02 18:00", "LATNOW": 27.9, "LONNOW": 120.6, "WINDNOW": 65.0, "DIRNOW": 4.0, "SPDNOW": 3.0, "TECH": "TRAK", "ADVNR": 55, "ATCFID": "WP122026", "NAME": "DOLPHIN", "FTECH": "JTWC", "FCST_DTG": "2026-08-09 12:00:00", "RUN_DTG": "2026-08-10 06:26:38", "BASIN": "WP", "STMNR": 12, "CAT_ID": null, "CAT_DESC": null, "MSGID": "WTPN51 PGTW 091500", "VALIDTIME": "2026-08-02 18:00:00" }, "geometry": { "type": "Point", "coordinates": [ 149.399994, 24.0 ] } },
{ "type": "Feature", "properties": { "ID": 53202, "LAT": 24.4, "LON": 148.4, "VMAX": 100.0, "MSLP": 945.0, "RMAX": 20.0, "FSPD": 6.81494, "FDIR": 296.9316, "RENV": 559.0, "PENV": 1004.0, "VALIDT": 0, "DTG": "2026-08-03 00:00", "LATNOW": 27.9, "LONNOW": 120.6, "WINDNOW": 65.0, "DIRNOW": 4.0, "SPDNOW": 3.0, "TECH": "TRAK", "ADVNR": 55, "ATCFID": "WP122026", "NAME": "DOLPHIN", "FTECH": "JTWC", "FCST_DTG": "2026-08-09 12:00:00", "RUN_DTG": "2026-08-10 06:26:38", "BASIN": "WP", "STMNR": 12, "CAT_ID": null, "CAT_DESC": null, "MSGID": "WTPN51 PGTW 091500", "VALIDTIME": "2026-08-03 00:00:00" }, "geometry": { "type": "Point", "coordinates": [ 148.399994, 24.4 ] } },
{ "type": "Feature", "properties": { "ID": 53203, "LAT": 25.0, "LON": 147.1, "VMAX": 95.0, "MSLP": 949.0, "RMAX": 20.0, "FSPD": 6.52747, "FDIR": 269.99997, "RENV": 450.0, "PENV": 1004.0, "VALIDT": 0, "DTG": "2026-08-03 06:00", "LATNOW": 27.9, "LONNOW": 120.6, "WINDNOW": 65.0, "DIRNOW": 4.0, "SPDNOW": 3.0, "TECH": "TRAK", "ADVNR": 55, "ATCFID": "WP122026", "NAME": "DOLPHIN", "FTECH": "JTWC", "FCST_DTG": "2026-08-09 12:00:00", "RUN_DTG": "2026-08-10 06:26:38", "BASIN": "WP", "STMNR": 12, "CAT_ID": null, "CAT_DESC": null, "MSGID": "WTPN51 PGTW 091500", "VALIDTIME": "2026-08-03 06:00:00" }, "geometry": { "type": "Point", "coordinates": [ 147.100006, 25.0 ] } },
{ "type": "Feature", "properties": { "ID": 53204, "LAT": 25.0, "LON": 145.7, "VMAX": 90.0, "MSLP": 949.0, "RMAX": 20.0, "FSPD": 7.00973, "FDIR": 274.20874, "RENV": 450.0, "PENV": 1004.0, "VALIDT": 0, "DTG": "2026-08-03 12:00", "LATNOW": 27.9, "LONNOW": 120.6, "WINDNOW": 65.0, "DIRNOW": 4.0, "SPDNOW": 3.0, "TECH": "TRAK", "ADVNR": 55, "ATCFID": "WP122026", "NAME": "DOLPHIN", "FTECH": "JTWC", "FCST_DTG": "2026-08-09 12:00:00", "RUN_DTG": "2026-08-10 06:26:38", "BASIN": "WP", "STMNR": 12, "CAT_ID": null, "CAT_DESC": null, "MSGID": "WTPN51 PGTW 091500", "VALIDTIME": "2026-08-03 12:00:00" }, "geometry": { "type": "Point", "coordinates": [ 145.699997, 25.0 ] } },
{ "type": "Feature", "properties": { "ID": 53205, "LAT": 25.1, "LON": 144.2, "VMAX": 95.0, "MSLP": 955.0, "RMAX": 20.0, "FSPD": 4.65865, "FDIR": 269.99997, "RENV": 450.0, "PENV": 1004.0, "VALIDT": 0, "DTG": "2026-08-03 18:00", "LATNOW": 27.9, "LONNOW": 120.6, "WINDNOW": 65.0, "DIRNOW": 4.0, "SPDNOW": 3.0, "TECH": "TRAK", "ADVNR": 55, "ATCFID": "WP122026", "NAME": "DOLPHIN", "FTECH": "JTWC", "FCST_DTG": "2026-08-09 12:00:00", "RUN_DTG": "2026-08-10 06:26:38", "BASIN": "WP", "STMNR": 12, "CAT_ID": null, "CAT_DESC": null, "MSGID": "WTPN51 PGTW 091500", "VALIDTIME": "2026-08-03 18:00:00" }, "geometry": { "type": "Point", "coordinates": [ 144.199997, 25.1 ] } },
{ "type": "Feature", "properties": { "ID": 53206, "LAT": 25.1, "LON": 143.2, "VMAX": 100.0, "MSLP": 952.0, "RMAX": 20.0, "FSPD": 6.13814, "FDIR": 279.64954, "RENV": 450.0, "PENV": 1004.0, "VALIDT": 0, "DTG": "2026-08-04 00:00", "LATNOW": 27.9, "LONNOW": 120.6, "WINDNOW": 65.0, "DIRNOW": 4.0, "SPDNOW": 3.0, "TECH": "TRAK", "ADVNR": 55, "ATCFID": "WP122026", "NAME": "DOLPHIN", "FTECH": "JTWC", "FCST_DTG": "2026-08-09 12:00:00", "RUN_DTG": "2026-08-10 06:26:38", "BASIN": "WP", "STMNR": 12, "CAT_ID": null, "CAT_DESC": null, "MSGID": "WTPN51 PGTW 091500", "VALIDTIME": "2026-08-04 00:00:00" }, "geometry": { "type": "Point", "coordinates": [ 143.199997, 25.1 ] } },
{ "type": "Feature", "properties": { "ID": 53207, "LAT": 25.3, "LON": 141.9, "VMAX": 115.0, "MSLP": 947.0, "RMAX": 15.0, "FSPD": 6.07058, "FDIR": 265.13873, "RENV": 475.0, "PENV": 1004.0, "VALIDT": 0, "DTG": "2026-08-04 06:00", "LATNOW": 27.9, "LONNOW": 120.6, "WINDNOW": 65.0, "DIRNOW": 4.0, "SPDNOW": 3.0, "TECH": "TRAK", "ADVNR": 55, "ATCFID": "WP122026", "NAME": "DOLPHIN", "FTECH": "JTWC", "FCST_DTG": "2026-08-09 12:00:00", "RUN_DTG": "2026-08-10 06:26:38", "BASIN": "WP", "STMNR": 12, "CAT_ID": null, "CAT_DESC": null, "MSGID": "WTPN51 PGTW 091500", "VALIDTIME": "2026-08-04 06:00:00" }, "geometry": { "type": "Point", "coordinates": [ 141.899994, 25.299999 ] } },
{ "type": "Feature", "properties": { "ID": 53208, "LAT": 25.2, "LON": 140.6, "VMAX": 110.0, "MSLP": 933.0, "RMAX": 12.0, "FSPD": 6.07065, "FDIR": 274.86115, "RENV": 425.0, "PENV": 1002.0, "VALIDT": 0, "DTG": "2026-08-04 12:00", "LATNOW": 27.9, "LONNOW": 120.6, "WINDNOW": 65.0, "DIRNOW": 4.0, "SPDNOW": 3.0, "TECH": "TRAK", "ADVNR": 55, "ATCFID": "WP122026", "NAME": "DOLPHIN", "FTECH": "JTWC", "FCST_DTG": "2026-08-09 12:00:00", "RUN_DTG": "2026-08-10 06:26:38", "BASIN": "WP", "STMNR": 12, "CAT_ID": null, "CAT_DESC": null, "MSGID": "WTPN51 PGTW 091500", "VALIDTIME": "2026-08-04 12:00:00" }, "geometry": { "type": "Point", "coordinates": [ 140.600006, 25.200001 ] } },
{ "type": "Feature", "properties": { "ID": 53209, "LAT": 25.3, "LON": 139.3, "VMAX": 105.0, "MSLP": 935.0, "RMAX": 12.0, "FSPD": 4.67746, "FDIR": 276.3144, "RENV": 390.0, "PENV": 1002.0, "VALIDT": 0, "DTG": "2026-08-04 18:00", "LATNOW": 27.9, "LONNOW": 120.6, "WINDNOW": 65.0, "DIRNOW": 4.0, "SPDNOW": 3.0, "TECH": "TRAK", "ADVNR": 55, "ATCFID": "WP122026", "NAME": "DOLPHIN", "FTECH": "JTWC", "FCST_DTG": "2026-08-09 12:00:00", "RUN_DTG": "2026-08-10 06:26:38", "BASIN": "WP", "STMNR": 12, "CAT_ID": null, "CAT_DESC": null, "MSGID": "WTPN51 PGTW 091500", "VALIDTIME": "2026-08-04 18:00:00" }, "geometry": { "type": "Point", "coordinates": [ 139.300003, 25.299999 ] } },
{ "type": "Feature", "properties": { "ID": 53210, "LAT": 25.4, "LON": 138.3, "VMAX": 100.0, "MSLP": 935.0, "RMAX": 12.0, "FSPD": 5.21026, "FDIR": 281.38928, "RENV": 430.0, "PENV": 1002.0, "VALIDT": 0, "DTG": "2026-08-05 00:00", "LATNOW": 27.9, "LONNOW": 120.6, "WINDNOW": 65.0, "DIRNOW": 4.0, "SPDNOW": 3.0, "TECH": "TRAK", "ADVNR": 55, "ATCFID": "WP122026", "NAME": "DOLPHIN", "FTECH": "JTWC", "FCST_DTG": "2026-08-09 12:00:00", "RUN_DTG": "2026-08-10 06:26:38", "BASIN": "WP", "STMNR": 12, "CAT_ID": null, "CAT_DESC": null, "MSGID": "WTPN51 PGTW 091500", "VALIDTIME": "2026-08-05 00:00:00" }, "geometry": { "type": "Point", "coordinates": [ 138.300003, 25.4 ] } },
{ "type": "Feature", "properties": { "ID": 53211, "LAT": 25.6, "LON": 137.2, "VMAX": 100.0, "MSLP": 943.0, "RMAX": 12.0, "FSPD": 4.88385, "FDIR": 288.42157, "RENV": 430.0, "PENV": 1002.0, "VALIDT": 0, "DTG": "2026-08-05 06:00", "LATNOW": 27.9, "LONNOW": 120.6, "WINDNOW": 65.0, "DIRNOW": 4.0, "SPDNOW": 3.0, "TECH": "TRAK", "ADVNR": 55, "ATCFID": "WP122026", "NAME": "DOLPHIN", "FTECH": "JTWC", "FCST_DTG": "2026-08-09 12:00:00", "RUN_DTG": "2026-08-10 06:26:38", "BASIN": "WP", "STMNR": 12, "CAT_ID": null, "CAT_DESC": null, "MSGID": "WTPN51 PGTW 091500", "VALIDTIME": "2026-08-05 06:00:00" }, "geometry": { "type": "Point", "coordinates": [ 137.199997, 25.6 ] } },
{ "type": "Feature", "properties": { "ID": 53212, "LAT": 25.9, "LON": 136.2, "VMAX": 90.0, "MSLP": 941.0, "RMAX": 12.0, "FSPD": 5.9134, "FDIR": 290.36414, "RENV": 400.0, "PENV": 1000.0, "VALIDT": 0, "DTG": "2026-08-05 12:00", "LATNOW": 27.9, "LONNOW": 120.6, "WINDNOW": 65.0, "DIRNOW": 4.0, "SPDNOW": 3.0, "TECH": "TRAK", "ADVNR": 55, "ATCFID": "WP122026", "NAME": "DOLPHIN", "FTECH": "JTWC", "FCST_DTG": "2026-08-09 12:00:00", "RUN_DTG": "2026-08-10 06:26:38", "BASIN": "WP", "STMNR": 12, "CAT_ID": null, "CAT_DESC": null, "MSGID": "WTPN51 PGTW 091500", "VALIDTIME": "2026-08-05 12:00:00" }, "geometry": { "type": "Point", "coordinates": [ 136.199997, 25.9 ] } },
{ "type": "Feature", "properties": { "ID": 53213, "LAT": 26.3, "LON": 135.0, "VMAX": 80.0, "MSLP": 949.0, "RMAX": 12.0, "FSPD": 6.93996, "FDIR": 265.7489, "RENV": 365.0, "PENV": 1000.0, "VALIDT": 0, "DTG": "2026-08-05 18:00", "LATNOW": 27.9, "LONNOW": 120.6, "WINDNOW": 65.0, "DIRNOW": 4.0, "SPDNOW": 3.0, "TECH": "TRAK", "ADVNR": 55, "ATCFID": "WP122026", "NAME": "DOLPHIN", "FTECH": "JTWC", "FCST_DTG": "2026-08-09 12:00:00", "RUN_DTG": "2026-08-10 06:26:38", "BASIN": "WP", "STMNR": 12, "CAT_ID": null, "CAT_DESC": null, "MSGID": "WTPN51 PGTW 091500", "VALIDTIME": "2026-08-05 18:00:00" }, "geometry": { "type": "Point", "coordinates": [ 135.0, 26.299999 ] } },
{ "type": "Feature", "properties": { "ID": 53214, "LAT": 26.2, "LON": 133.5, "VMAX": 80.0, "MSLP": 956.0, "RMAX": 5.0, "FSPD": 4.62958, "FDIR": 296.39032, "RENV": 360.0, "PENV": 1000.0, "VALIDT": 0, "DTG": "2026-08-06 00:00", "LATNOW": 27.9, "LONNOW": 120.6, "WINDNOW": 65.0, "DIRNOW": 4.0, "SPDNOW": 3.0, "TECH": "TRAK", "ADVNR": 55, "ATCFID": "WP122026", "NAME": "DOLPHIN", "FTECH": "JTWC", "FCST_DTG": "2026-08-09 12:00:00", "RUN_DTG": "2026-08-10 06:26:38", "BASIN": "WP", "STMNR": 12, "CAT_ID": null, "CAT_DESC": null, "MSGID": "WTPN51 PGTW 091500", "VALIDTIME": "2026-08-06 00:00:00" }, "geometry": { "type": "Point", "coordinates": [ 133.5, 26.200001 ] } },
{ "type": "Feature", "properties": { "ID": 53215, "LAT": 26.6, "LON": 132.6, "VMAX": 80.0, "MSLP": 956.0, "RMAX": 5.0, "FSPD": 5.08823, "FDIR": 264.19714, "RENV": 395.0, "PENV": 1000.0, "VALIDT": 0, "DTG": "2026-08-06 06:00", "LATNOW": 27.9, "LONNOW": 120.6, "WINDNOW": 65.0, "DIRNOW": 4.0, "SPDNOW": 3.0, "TECH": "TRAK", "ADVNR": 55, "ATCFID": "WP122026", "NAME": "DOLPHIN", "FTECH": "JTWC", "FCST_DTG": "2026-08-09 12:00:00", "RUN_DTG": "2026-08-10 06:26:38", "BASIN": "WP", "STMNR": 12, "CAT_ID": null, "CAT_DESC": null, "MSGID": "WTPN51 PGTW 091500", "VALIDTIME": "2026-08-06 06:00:00" }, "geometry": { "type": "Point", "coordinates": [ 132.600006, 26.6 ] } },
{ "type": "Feature", "properties": { "ID": 53216, "LAT": 26.5, "LON": 131.5, "VMAX": 80.0, "MSLP": 956.0, "RMAX": 5.0, "FSPD": 5.45827, "FDIR": 292.14807, "RENV": 395.0, "PENV": 1000.0, "VALIDT": 0, "DTG": "2026-08-06 12:00", "LATNOW": 27.9, "LONNOW": 120.6, "WINDNOW": 65.0, "DIRNOW": 4.0, "SPDNOW": 3.0, "TECH": "TRAK", "ADVNR": 55, "ATCFID": "WP122026", "NAME": "DOLPHIN", "FTECH": "JTWC", "FCST_DTG": "2026-08-09 12:00:00", "RUN_DTG": "2026-08-10 06:26:38", "BASIN": "WP", "STMNR": 12, "CAT_ID": null, "CAT_DESC": null, "MSGID": "WTPN51 PGTW 091500", "VALIDTIME": "2026-08-06 12:00:00" }, "geometry": { "type": "Point", "coordinates": [ 131.5, 26.5 ] } },
{ "type": "Feature", "properties": { "ID": 53217, "LAT": 26.9, "LON": 130.4, "VMAX": 80.0, "MSLP": 957.0, "RMAX": 5.0, "FSPD": 7.49137, "FDIR": 281.88895, "RENV": 420.0, "PENV": 1001.0, "VALIDT": 0, "DTG": "2026-08-06 18:00", "LATNOW": 27.9, "LONNOW": 120.6, "WINDNOW": 65.0, "DIRNOW": 4.0, "SPDNOW": 3.0, "TECH": "TRAK", "ADVNR": 55, "ATCFID": "WP122026", "NAME": "DOLPHIN", "FTECH": "JTWC", "FCST_DTG": "2026-08-09 12:00:00", "RUN_DTG": "2026-08-10 06:26:38", "BASIN": "WP", "STMNR": 12, "CAT_ID": null, "CAT_DESC": null, "MSGID": "WTPN51 PGTW 091500", "VALIDTIME": "2026-08-06 18:00:00" }, "geometry": { "type": "Point", "coordinates": [ 130.399994, 26.9 ] } },
{ "type": "Feature", "properties": { "ID": 53218, "LAT": 27.2, "LON": 128.8, "VMAX": 85.0, "MSLP": 957.0, "RMAX": 5.0, "FSPD": 4.11346, "FDIR": 231.29445, "RENV": 410.0, "PENV": 1001.0, "VALIDT": 0, "DTG": "2026-08-07 00:00", "LATNOW": 27.9, "LONNOW": 120.6, "WINDNOW": 65.0, "DIRNOW": 4.0, "SPDNOW": 3.0, "TECH": "TRAK", "ADVNR": 55, "ATCFID": "WP122026", "NAME": "DOLPHIN", "FTECH": "JTWC", "FCST_DTG": "2026-08-09 12:00:00", "RUN_DTG": "2026-08-10 06:26:38", "BASIN": "WP", "STMNR": 12, "CAT_ID": null, "CAT_DESC": null, "MSGID": "WTPN51 PGTW 091500", "VALIDTIME": "2026-08-07 00:00:00" }, "geometry": { "type": "Point", "coordinates": [ 128.800003, 27.200001 ] } },
{ "type": "Feature", "properties": { "ID": 53219, "LAT": 26.7, "LON": 128.1, "VMAX": 90.0, "MSLP": 955.0, "RMAX": 5.0, "FSPD": 4.86317, "FDIR": 301.93243, "RENV": 550.0, "PENV": 1002.0, "VALIDT": 0, "DTG": "2026-08-07 06:00", "LATNOW": 27.9, "LONNOW": 120.6, "WINDNOW": 65.0, "DIRNOW": 4.0, "SPDNOW": 3.0, "TECH": "TRAK", "ADVNR": 55, "ATCFID": "WP122026", "NAME": "DOLPHIN", "FTECH": "JTWC", "FCST_DTG": "2026-08-09 12:00:00", "RUN_DTG": "2026-08-10 06:26:38", "BASIN": "WP", "STMNR": 12, "CAT_ID": null, "CAT_DESC": null, "MSGID": "WTPN51 PGTW 091500", "VALIDTIME": "2026-08-07 06:00:00" }, "geometry": { "type": "Point", "coordinates": [ 128.100006, 26.700001 ] } },
{ "type": "Feature", "properties": { "ID": 53220, "LAT": 27.2, "LON": 127.2, "VMAX": 90.0, "MSLP": 951.0, "RMAX": 5.0, "FSPD": 4.45432, "FDIR": 226.13498, "RENV": 550.0, "PENV": 1002.0, "VALIDT": 0, "DTG": "2026-08-07 12:00", "LATNOW": 27.9, "LONNOW": 120.6, "WINDNOW": 65.0, "DIRNOW": 4.0, "SPDNOW": 3.0, "TECH": "TRAK", "ADVNR": 55, "ATCFID": "WP122026", "NAME": "DOLPHIN", "FTECH": "JTWC", "FCST_DTG": "2026-08-09 12:00:00", "RUN_DTG": "2026-08-10 06:26:38", "BASIN": "WP", "STMNR": 12, "CAT_ID": null, "CAT_DESC": null, "MSGID": "WTPN51 PGTW 091500", "VALIDTIME": "2026-08-07 12:00:00" }, "geometry": { "type": "Point", "coordinates": [ 127.199997, 27.200001 ] } },
{ "type": "Feature", "properties": { "ID": 53221, "LAT": 26.6, "LON": 126.5, "VMAX": 90.0, "MSLP": 951.0, "RMAX": 5.0, "FSPD": 3.08314, "FDIR": 311.86896, "RENV": 550.0, "PENV": 1002.0, "VALIDT": 0, "DTG": "2026-08-07 18:00", "LATNOW": 27.9, "LONNOW": 120.6, "WINDNOW": 65.0, "DIRNOW": 4.0, "SPDNOW": 3.0, "TECH": "TRAK", "ADVNR": 55, "ATCFID": "WP122026", "NAME": "DOLPHIN", "FTECH": "JTWC", "FCST_DTG": "2026-08-09 12:00:00", "RUN_DTG": "2026-08-10 06:26:38", "BASIN": "WP", "STMNR": 12, "CAT_ID": null, "CAT_DESC": null, "MSGID": "WTPN51 PGTW 091500", "VALIDTIME": "2026-08-07 18:00:00" }, "geometry": { "type": "Point", "coordinates": [ 126.5, 26.6 ] } },
{ "type": "Feature", "properties": { "ID": 53222, "LAT": 27.0, "LON": 126.0, "VMAX": 80.0, "MSLP": 948.0, "RMAX": 5.0, "FSPD": 3.70452, "FDIR": 262.01752, "RENV": 530.0, "PENV": 1000.0, "VALIDT": 0, "DTG": "2026-08-08 00:00", "LATNOW": 27.9, "LONNOW": 120.6, "WINDNOW": 65.0, "DIRNOW": 4.0, "SPDNOW": 3.0, "TECH": "TRAK", "ADVNR": 55, "ATCFID": "WP122026", "NAME": "DOLPHIN", "FTECH": "JTWC", "FCST_DTG": "2026-08-09 12:00:00", "RUN_DTG": "2026-08-10 06:26:38", "BASIN": "WP", "STMNR": 12, "CAT_ID": null, "CAT_DESC": null, "MSGID": "WTPN51 PGTW 091500", "VALIDTIME": "2026-08-08 00:00:00" }, "geometry": { "type": "Point", "coordinates": [ 126.0, 27.0 ] } },
{ "type": "Feature", "properties": { "ID": 53223, "LAT": 26.9, "LON": 125.2, "VMAX": 75.0, "MSLP": 954.0, "RMAX": 5.0, "FSPD": 1.90506, "FDIR": 285.6668, "RENV": 450.0, "PENV": 1000.0, "VALIDT": 0, "DTG": "2026-08-08 06:00", "LATNOW": 27.9, "LONNOW": 120.6, "WINDNOW": 65.0, "DIRNOW": 4.0, "SPDNOW": 3.0, "TECH": "TRAK", "ADVNR": 55, "ATCFID": "WP122026", "NAME": "DOLPHIN", "FTECH": "JTWC", "FCST_DTG": "2026-08-09 12:00:00", "RUN_DTG": "2026-08-10 06:26:38", "BASIN": "WP", "STMNR": 12, "CAT_ID": null, "CAT_DESC": null, "MSGID": "WTPN51 PGTW 091500", "VALIDTIME": "2026-08-08 06:00:00" }, "geometry": { "type": "Point", "coordinates": [ 125.199997, 26.9 ] } },
{ "type": "Feature", "properties": { "ID": 53224, "LAT": 27.0, "LON": 124.8, "VMAX": 75.0, "MSLP": 956.0, "RMAX": 5.0, "FSPD": 3.80547, "FDIR": 285.6864, "RENV": 400.0, "PENV": 998.0, "VALIDT": 0, "DTG": "2026-08-08 12:00", "LATNOW": 27.9, "LONNOW": 120.6, "WINDNOW": 65.0, "DIRNOW": 4.0, "SPDNOW": 3.0, "TECH": "TRAK", "ADVNR": 55, "ATCFID": "WP122026", "NAME": "DOLPHIN", "FTECH": "JTWC", "FCST_DTG": "2026-08-09 12:00:00", "RUN_DTG": "2026-08-10 06:26:38", "BASIN": "WP", "STMNR": 12, "CAT_ID": null, "CAT_DESC": null, "MSGID": "WTPN51 PGTW 091500", "VALIDTIME": "2026-08-08 12:00:00" }, "geometry": { "type": "Point", "coordinates": [ 124.800003, 27.0 ] } },
{ "type": "Feature", "properties": { "ID": 53225, "LAT": 27.2, "LON": 124.0, "VMAX": 75.0, "MSLP": 950.0, "RMAX": 10.0, "FSPD": 4.78059, "FDIR": 310.21555, "RENV": 400.0, "PENV": 998.0, "VALIDT": 0, "DTG": "2026-08-08 18:00", "LATNOW": 27.9, "LONNOW": 120.6, "WINDNOW": 65.0, "DIRNOW": 4.0, "SPDNOW": 3.0, "TECH": "TRAK", "ADVNR": 55, "ATCFID": "WP122026", "NAME": "DOLPHIN", "FTECH": "JTWC", "FCST_DTG": "2026-08-09 12:00:00", "RUN_DTG": "2026-08-10 06:26:38", "BASIN": "WP", "STMNR": 12, "CAT_ID": null, "CAT_DESC": null, "MSGID": "WTPN51 PGTW 091500", "VALIDTIME": "2026-08-08 18:00:00" }, "geometry": { "type": "Point", "coordinates": [ 124.0, 27.200001 ] } },
{ "type": "Feature", "properties": { "ID": 53226, "LAT": 27.8, "LON": 123.2, "VMAX": 70.0, "MSLP": 955.0, "RMAX": 10.0, "FSPD": 6.10594, "FDIR": 284.6409, "RENV": 380.0, "PENV": 997.0, "VALIDT": 0, "DTG": "2026-08-09 00:00", "LATNOW": 27.9, "LONNOW": 120.6, "WINDNOW": 65.0, "DIRNOW": 4.0, "SPDNOW": 3.0, "TECH": "TRAK", "ADVNR": 55, "ATCFID": "WP122026", "NAME": "DOLPHIN", "FTECH": "JTWC", "FCST_DTG": "2026-08-09 12:00:00", "RUN_DTG": "2026-08-10 06:26:38", "BASIN": "WP", "STMNR": 12, "CAT_ID": null, "CAT_DESC": null, "MSGID": "WTPN51 PGTW 091500", "VALIDTIME": "2026-08-09 00:00:00" }, "geometry": { "type": "Point", "coordinates": [ 123.199997, 27.799999 ] } },
{ "type": "Feature", "properties": { "ID": 53227, "LAT": 28.1, "LON": 121.9, "VMAX": 75.0, "MSLP": 959.0, "RMAX": 10.0, "FSPD": 5.99341, "FDIR": 260.11502, "RENV": 370.0, "PENV": 997.0, "VALIDT": 0, "DTG": "2026-08-09 06:00", "LATNOW": 27.9, "LONNOW": 120.6, "WINDNOW": 65.0, "DIRNOW": 4.0, "SPDNOW": 3.0, "TECH": "TRAK", "ADVNR": 55, "ATCFID": "WP122026", "NAME": "DOLPHIN", "FTECH": "JTWC", "FCST_DTG": "2026-08-09 12:00:00", "RUN_DTG": "2026-08-10 06:26:38", "BASIN": "WP", "STMNR": 12, "CAT_ID": null, "CAT_DESC": null, "MSGID": "WTPN51 PGTW 091500", "VALIDTIME": "2026-08-09 06:00:00" }, "geometry": { "type": "Point", "coordinates": [ 121.900002, 28.1 ] } },
{ "type": "Feature", "properties": { "ID": 53228, "LAT": 27.92, "LON": 120.73, "VMAX": 75.0, "MSLP": 959.0, "RMAX": 10.0, "FSPD": 5.99866, "FDIR": 260.12354, "RENV": 370.0, "PENV": 997.0, "VALIDT": 0, "DTG": "2026-08-09 11:00", "LATNOW": 27.9, "LONNOW": 120.6, "WINDNOW": 65.0, "DIRNOW": 4.0, "SPDNOW": 3.0, "TECH": "TRAK", "ADVNR": 55, "ATCFID": "WP122026", "NAME": "DOLPHIN", "FTECH": "JTWC", "FCST_DTG": "2026-08-09 12:00:00", "RUN_DTG": "2026-08-10 06:26:38", "BASIN": "WP", "STMNR": 12, "CAT_ID": null, "CAT_DESC": null, "MSGID": "WTPN51 PGTW 091500", "VALIDTIME": "2026-08-09 11:00:00" }, "geometry": { "type": "Point", "coordinates": [ 120.729996, 27.92 ] } },
{ "type": "Feature", "properties": { "ID": 53229, "LAT": 27.9, "LON": 120.6, "VMAX": 65.0, "MSLP": 993.434, "RMAX": 34.7014, "FSPD": 3.87127, "FDIR": 273.80975, "RENV": 500.0, "PENV": 1012.0, "VALIDT": 0, "DTG": "2026-08-09 12:00", "LATNOW": 27.9, "LONNOW": 120.6, "WINDNOW": 65.0, "DIRNOW": 4.0, "SPDNOW": 3.0, "TECH": "TRAK", "ADVNR": 55, "ATCFID": "WP122026", "NAME": "DOLPHIN", "FTECH": "JTWC", "FCST_DTG": "2026-08-09 12:00:00", "RUN_DTG": "2026-08-10 06:26:38", "BASIN": "WP", "STMNR": 12, "CAT_ID": null, "CAT_DESC": null, "MSGID": "WTPN51 PGTW 091500", "VALIDTIME": "2026-08-09 12:00:00" }, "geometry": { "type": "Point", "coordinates": [ 120.599998, 27.9 ] } },
{ "type": "Feature", "properties": { "ID": 53230, "LAT": 28.0, "LON": 118.9, "VMAX": 45.0, "MSLP": 1004.66364, "RMAX": 39.89946, "FSPD": 5.26219, "FDIR": 309.45377, "RENV": 180.0, "PENV": 1012.0, "VALIDT": 12, "DTG": "2026-08-10 00:00", "LATNOW": 27.9, "LONNOW": 120.6, "WINDNOW": 65.0, "DIRNOW": 4.0, "SPDNOW": 3.0, "TECH": "FCST", "ADVNR": 55, "ATCFID": "WP122026", "NAME": "DOLPHIN", "FTECH": "JTWC", "FCST_DTG": "2026-08-09 12:00:00", "RUN_DTG": "2026-08-10 06:26:38", "BASIN": "WP", "STMNR": 12, "CAT_ID": null, "CAT_DESC": null, "MSGID": "WTPN51 PGTW 091500", "VALIDTIME": "2026-08-10 00:00:00" }, "geometry": { "type": "Point", "coordinates": [ 118.900002, 28.0 ] } },
{ "type": "Feature", "properties": { "ID": 53231, "LAT": 29.3, "LON": 117.1, "VMAX": 30.0, "MSLP": 1010.40607, "RMAX": 44.21983, "FSPD": 4.88848, "FDIR": 309.15472, "RENV": 250.0, "PENV": 1012.0, "VALIDT": 24, "DTG": "2026-08-10 12:00", "LATNOW": 27.9, "LONNOW": 120.6, "WINDNOW": 65.0, "DIRNOW": 4.0, "SPDNOW": 3.0, "TECH": "FCST", "ADVNR": 55, "ATCFID": "WP122026", "NAME": "DOLPHIN", "FTECH": "JTWC", "FCST_DTG": "2026-08-09 12:00:00", "RUN_DTG": "2026-08-10 06:26:38", "BASIN": "WP", "STMNR": 12, "CAT_ID": null, "CAT_DESC": null, "MSGID": "WTPN51 PGTW 091500", "VALIDTIME": "2026-08-10 12:00:00" }, "geometry": { "type": "Point", "coordinates": [ 117.099998, 29.299999 ] } },
{ "type": "Feature", "properties": { "ID": 53232, "LAT": 30.5, "LON": 115.4, "VMAX": 25.0, "MSLP": 1011.80975, "RMAX": 45.0, "FSPD": 5.02444, "FDIR": 307.90332, "RENV": 250.0, "PENV": 1012.0, "VALIDT": 36, "DTG": "2026-08-11 00:00", "LATNOW": 27.9, "LONNOW": 120.6, "WINDNOW": 65.0, "DIRNOW": 4.0, "SPDNOW": 3.0, "TECH": "FCST", "ADVNR": 55, "ATCFID": "WP122026", "NAME": "DOLPHIN", "FTECH": "JTWC", "FCST_DTG": "2026-08-09 12:00:00", "RUN_DTG": "2026-08-10 06:26:38", "BASIN": "WP", "STMNR": 12, "CAT_ID": null, "CAT_DESC": null, "MSGID": "WTPN51 PGTW 091500", "VALIDTIME": "2026-08-11 00:00:00" }, "geometry": { "type": "Point", "coordinates": [ 115.400002, 30.5 ] } },
{ "type": "Feature", "properties": { "ID": 53233, "LAT": 31.7, "LON": 113.6, "VMAX": 20.0, "MSLP": 1012.95825, "RMAX": 45.0, "FSPD": 5.02444, "FDIR": 307.90332, "RENV": 250.0, "PENV": 1012.0, "VALIDT": 48, "DTG": "2026-08-11 12:00", "LATNOW": 27.9, "LONNOW": 120.6, "WINDNOW": 65.0, "DIRNOW": 4.0, "SPDNOW": 3.0, "TECH": "FCST", "ADVNR": 55, "ATCFID": "WP122026", "NAME": "DOLPHIN", "FTECH": "JTWC", "FCST_DTG": "2026-08-09 12:00:00", "RUN_DTG": "2026-08-10 06:26:38", "BASIN": "WP", "STMNR": 12, "CAT_ID": null, "CAT_DESC": null, "MSGID": "WTPN51 PGTW 091500", "VALIDTIME": "2026-08-11 12:00:00" }, "geometry": { "type": "Point", "coordinates": [ 113.599998, 31.700001 ] } },
{ "type": "Feature", "properties": { "ID": 53229, "LAT": 27.9, "LON": 120.6, "VMAX": 65.0, "MSLP": 993.434, "RMAX": 34.7014, "FSPD": 3.87127, "FDIR": 273.80975, "RENV": 500.0, "PENV": 1012.0, "VALIDT": 0, "DTG": "2026-08-09 12:00", "LATNOW": 27.9, "LONNOW": 120.6, "WINDNOW": 65.0, "DIRNOW": 4.0, "SPDNOW": 3.0, "TECH": "TRAK", "ADVNR": 55, "ATCFID": "WP122026", "NAME": "DOLPHIN", "FTECH": "JTWC", "FCST_DTG": "2026-08-09 12:00:00", "RUN_DTG": "2026-08-10 06:26:38", "BASIN": "WP", "STMNR": 12, "CAT_ID": null, "CAT_DESC": null, "MSGID": "WTPN51 PGTW 091500", "VALIDTIME": "2026-08-09 12:00:00" }, "geometry": { "type": "LineString", "coordinates": [ [ -171.6, 10.4 ], [ -172.7, 10.7 ], [ -173.8, 11.0 ], [ -174.9, 11.4 ], [ -176.0, 11.7 ], [ -177.4, 12.0 ], [ -178.9, 12.5 ], [ 179.7, 12.7 ], [ 178.3, 12.8 ], [ 176.7, 13.4 ], [ 175.2, 13.6 ], [ 173.7, 13.2 ], [ 172.8, 13.0 ], [ 171.7, 13.3 ], [ 170.7, 13.4 ], [ 169.9, 13.7 ], [ 169.1, 14.1 ], [ 168.4, 14.5 ], [ 167.7, 15.2 ], [ 166.8, 15.8 ], [ 165.7, 16.4 ], [ 164.9, 16.9 ], [ 163.9, 17.5 ], [ 162.9, 17.9 ], [ 161.9, 18.3 ], [ 161.0, 18.6 ], [ 160.1, 19.1 ], [ 159.1, 19.8 ], [ 158.3, 20.2 ], [ 157.5, 20.8 ], [ 156.2, 21.6 ], [ 154.9, 22.1 ], [ 153.5, 22.7 ], [ 152.2, 23.2 ], [ 150.9, 23.6 ], [ 149.4, 24.0 ], [ 148.4, 24.4 ], [ 147.1, 25.0 ], [ 145.7, 25.0 ], [ 144.2, 25.1 ], [ 143.2, 25.1 ], [ 141.9, 25.3 ], [ 140.6, 25.2 ], [ 139.3, 25.3 ], [ 138.3, 25.4 ], [ 137.2, 25.6 ], [ 136.2, 25.9 ], [ 135.0, 26.3 ], [ 133.5, 26.2 ], [ 132.6, 26.6 ], [ 131.5, 26.5 ], [ 130.4, 26.9 ], [ 128.8, 27.2 ], [ 128.1, 26.7 ], [ 127.2, 27.2 ], [ 126.5, 26.6 ], [ 126.0, 27.0 ], [ 125.2, 26.9 ], [ 124.8, 27.0 ], [ 124.0, 27.2 ], [ 123.2, 27.8 ], [ 121.9, 28.1 ], [ 120.73, 27.92 ], [ 120.6, 27.9 ] ] } },
{ "type": "Feature", "properties": { "ID": 53233, "LAT": 31.7, "LON": 113.6, "VMAX": 20.0, "MSLP": 1012.95825, "RMAX": 45.0, "FSPD": 5.02444, "FDIR": 307.90332, "RENV": 250.0, "PENV": 1012.0, "VALIDT": 48, "DTG": "2026-08-11 12:00", "LATNOW": 27.9, "LONNOW": 120.6, "WINDNOW": 65.0, "DIRNOW": 4.0, "SPDNOW": 3.0, "TECH": "FCST", "ADVNR": 55, "ATCFID": "WP122026", "NAME": "DOLPHIN", "FTECH": "JTWC", "FCST_DTG": "2026-08-09 12:00:00", "RUN_DTG": "2026-08-10 06:26:38", "BASIN": "WP", "STMNR": 12, "CAT_ID": null, "CAT_DESC": null, "MSGID": "WTPN51 PGTW 091500", "VALIDTIME": "2026-08-11 12:00:00" }, "geometry": { "type": "LineString", "coordinates": [ [ 120.6, 27.9 ], [ 118.9, 28.0 ], [ 117.1, 29.3 ], [ 115.4, 30.5 ], [ 113.6, 31.7 ] ] } }
]
}
