{
"type": "FeatureCollection",
"crs": { "type": "name", "properties": { "name": "urn:ogc:def:crs:OGC:1.3:CRS84" } },
"features": [
{ "type": "Feature", "properties": { "ID": 2666, "LAT": -9.6, "LON": 161.8, "VMAX": 15.0, "MSLP": 1013.8515, "RMAX": 40.0, "FSPD": 1.62446, "FDIR": 161.81516, "RENV": 500.0, "PENV": 1012.0, "VALIDT": 0, "DTG": "2026-03-20 00:00", "LATNOW": -23.6, "LONNOW": 163.8, "WINDNOW": 45.0, "DIRNOW": 11.0, "SPDNOW": 5.0, "TECH": "TRAK", "ADVNR": 3, "ATCFID": "SH282026", "NAME": "TWENTY-EI", "FTECH": "JTWC", "FCST_DTG": "2026-03-24 00:00:00", "RUN_DTG": "2026-03-24 14:23:04", "BASIN": "SH", "STMNR": 28, "CAT_ID": null, "CAT_DESC": null, "MSGID": "WTPS51 PGTW 240300", "VALIDTIME": "2026-03-20 00:00:00" }, "geometry": { "type": "Point", "coordinates": [ 161.800003, -9.6 ] } },
{ "type": "Feature", "properties": { "ID": 2667, "LAT": -9.9, "LON": 161.9, "VMAX": 15.0, "MSLP": 1013.8515, "RMAX": 40.0, "FSPD": 1.62435, "FDIR": 161.82812, "RENV": 500.0, "PENV": 1012.0, "VALIDT": 0, "DTG": "2026-03-20 06:00", "LATNOW": -23.6, "LONNOW": 163.8, "WINDNOW": 45.0, "DIRNOW": 11.0, "SPDNOW": 5.0, "TECH": "TRAK", "ADVNR": 3, "ATCFID": "SH282026", "NAME": "TWENTY-EI", "FTECH": "JTWC", "FCST_DTG": "2026-03-24 00:00:00", "RUN_DTG": "2026-03-24 14:23:04", "BASIN": "SH", "STMNR": 28, "CAT_ID": null, "CAT_DESC": null, "MSGID": "WTPS51 PGTW 240300", "VALIDTIME": "2026-03-20 06:00:00" }, "geometry": { "type": "Point", "coordinates": [ 161.899994, -9.9 ] } },
{ "type": "Feature", "properties": { "ID": 2668, "LAT": -10.2, "LON": 162.0, "VMAX": 20.0, "MSLP": 1012.95825, "RMAX": 45.0, "FSPD": 5.27516, "FDIR": 208.63388, "RENV": 500.0, "PENV": 1012.0, "VALIDT": 0, "DTG": "2026-03-20 12:00", "LATNOW": -23.6, "LONNOW": 163.8, "WINDNOW": 45.0, "DIRNOW": 11.0, "SPDNOW": 5.0, "TECH": "TRAK", "ADVNR": 3, "ATCFID": "SH282026", "NAME": "TWENTY-EI", "FTECH": "JTWC", "FCST_DTG": "2026-03-24 00:00:00", "RUN_DTG": "2026-03-24 14:23:04", "BASIN": "SH", "STMNR": 28, "CAT_ID": null, "CAT_DESC": null, "MSGID": "WTPS51 PGTW 240300", "VALIDTIME": "2026-03-20 12:00:00" }, "geometry": { "type": "Point", "coordinates": [ 162.0, -10.2 ] } },
{ "type": "Feature", "properties": { "ID": 2669, "LAT": -11.1, "LON": 161.5, "VMAX": 20.0, "MSLP": 1012.95825, "RMAX": 45.0, "FSPD": 3.43749, "FDIR": 206.11134, "RENV": 500.0, "PENV": 1012.0, "VALIDT": 0, "DTG": "2026-03-20 18:00", "LATNOW": -23.6, "LONNOW": 163.8, "WINDNOW": 45.0, "DIRNOW": 11.0, "SPDNOW": 5.0, "TECH": "TRAK", "ADVNR": 3, "ATCFID": "SH282026", "NAME": "TWENTY-EI", "FTECH": "JTWC", "FCST_DTG": "2026-03-24 00:00:00", "RUN_DTG": "2026-03-24 14:23:04", "BASIN": "SH", "STMNR": 28, "CAT_ID": null, "CAT_DESC": null, "MSGID": "WTPS51 PGTW 240300", "VALIDTIME": "2026-03-20 18:00:00" }, "geometry": { "type": "Point", "coordinates": [ 161.5, -11.1 ] } },
{ "type": "Feature", "properties": { "ID": 2670, "LAT": -11.7, "LON": 161.2, "VMAX": 20.0, "MSLP": 1012.95825, "RMAX": 45.0, "FSPD": 3.60111, "FDIR": 179.99997, "RENV": 500.0, "PENV": 1012.0, "VALIDT": 0, "DTG": "2026-03-21 00:00", "LATNOW": -23.6, "LONNOW": 163.8, "WINDNOW": 45.0, "DIRNOW": 11.0, "SPDNOW": 5.0, "TECH": "TRAK", "ADVNR": 3, "ATCFID": "SH282026", "NAME": "TWENTY-EI", "FTECH": "JTWC", "FCST_DTG": "2026-03-24 00:00:00", "RUN_DTG": "2026-03-24 14:23:04", "BASIN": "SH", "STMNR": 28, "CAT_ID": null, "CAT_DESC": null, "MSGID": "WTPS51 PGTW 240300", "VALIDTIME": "2026-03-21 00:00:00" }, "geometry": { "type": "Point", "coordinates": [ 161.199997, -11.7 ] } },
{ "type": "Feature", "properties": { "ID": 2671, "LAT": -12.4, "LON": 161.2, "VMAX": 20.0, "MSLP": 1012.95825, "RMAX": 45.0, "FSPD": 2.28969, "FDIR": 206.01004, "RENV": 500.0, "PENV": 1012.0, "VALIDT": 0, "DTG": "2026-03-21 06:00", "LATNOW": -23.6, "LONNOW": 163.8, "WINDNOW": 45.0, "DIRNOW": 11.0, "SPDNOW": 5.0, "TECH": "TRAK", "ADVNR": 3, "ATCFID": "SH282026", "NAME": "TWENTY-EI", "FTECH": "JTWC", "FCST_DTG": "2026-03-24 00:00:00", "RUN_DTG": "2026-03-24 14:23:04", "BASIN": "SH", "STMNR": 28, "CAT_ID": null, "CAT_DESC": null, "MSGID": "WTPS51 PGTW 240300", "VALIDTIME": "2026-03-21 06:00:00" }, "geometry": { "type": "Point", "coordinates": [ 161.199997, -12.4 ] } },
{ "type": "Feature", "properties": { "ID": 2672, "LAT": -12.8, "LON": 161.0, "VMAX": 20.0, "MSLP": 1012.95825, "RMAX": 45.0, "FSPD": 1.59021, "FDIR": 251.1249, "RENV": 500.0, "PENV": 1012.0, "VALIDT": 0, "DTG": "2026-03-21 12:00", "LATNOW": -23.6, "LONNOW": 163.8, "WINDNOW": 45.0, "DIRNOW": 11.0, "SPDNOW": 5.0, "TECH": "TRAK", "ADVNR": 3, "ATCFID": "SH282026", "NAME": "TWENTY-EI", "FTECH": "JTWC", "FCST_DTG": "2026-03-24 00:00:00", "RUN_DTG": "2026-03-24 14:23:04", "BASIN": "SH", "STMNR": 28, "CAT_ID": null, "CAT_DESC": null, "MSGID": "WTPS51 PGTW 240300", "VALIDTIME": "2026-03-21 12:00:00" }, "geometry": { "type": "Point", "coordinates": [ 161.0, -12.8 ] } },
{ "type": "Feature", "properties": { "ID": 2673, "LAT": -12.9, "LON": 160.7, "VMAX": 20.0, "MSLP": 1012.95825, "RMAX": 45.0, "FSPD": 1.00291, "FDIR": 269.99997, "RENV": 500.0, "PENV": 1012.0, "VALIDT": 0, "DTG": "2026-03-21 18:00", "LATNOW": -23.6, "LONNOW": 163.8, "WINDNOW": 45.0, "DIRNOW": 11.0, "SPDNOW": 5.0, "TECH": "TRAK", "ADVNR": 3, "ATCFID": "SH282026", "NAME": "TWENTY-EI", "FTECH": "JTWC", "FCST_DTG": "2026-03-24 00:00:00", "RUN_DTG": "2026-03-24 14:23:04", "BASIN": "SH", "STMNR": 28, "CAT_ID": null, "CAT_DESC": null, "MSGID": "WTPS51 PGTW 240300", "VALIDTIME": "2026-03-21 18:00:00" }, "geometry": { "type": "Point", "coordinates": [ 160.699997, -12.9 ] } },
{ "type": "Feature", "properties": { "ID": 2674, "LAT": -12.9, "LON": 160.5, "VMAX": 25.0, "MSLP": 1011.80975, "RMAX": 45.0, "FSPD": 2.94293, "FDIR": 121.62915, "RENV": 500.0, "PENV": 1012.0, "VALIDT": 0, "DTG": "2026-03-22 00:00", "LATNOW": -23.6, "LONNOW": 163.8, "WINDNOW": 45.0, "DIRNOW": 11.0, "SPDNOW": 5.0, "TECH": "TRAK", "ADVNR": 3, "ATCFID": "SH282026", "NAME": "TWENTY-EI", "FTECH": "JTWC", "FCST_DTG": "2026-03-24 00:00:00", "RUN_DTG": "2026-03-24 14:23:04", "BASIN": "SH", "STMNR": 28, "CAT_ID": null, "CAT_DESC": null, "MSGID": "WTPS51 PGTW 240300", "VALIDTIME": "2026-03-22 00:00:00" }, "geometry": { "type": "Point", "coordinates": [ 160.5, -12.9 ] } },
{ "type": "Feature", "properties": { "ID": 2675, "LAT": -13.2, "LON": 161.0, "VMAX": 30.0, "MSLP": 1010.40607, "RMAX": 44.21983, "FSPD": 5.5167, "FDIR": 147.06305, "RENV": 500.0, "PENV": 1012.0, "VALIDT": 0, "DTG": "2026-03-22 06:00", "LATNOW": -23.6, "LONNOW": 163.8, "WINDNOW": 45.0, "DIRNOW": 11.0, "SPDNOW": 5.0, "TECH": "TRAK", "ADVNR": 3, "ATCFID": "SH282026", "NAME": "TWENTY-EI", "FTECH": "JTWC", "FCST_DTG": "2026-03-24 00:00:00", "RUN_DTG": "2026-03-24 14:23:04", "BASIN": "SH", "STMNR": 28, "CAT_ID": null, "CAT_DESC": null, "MSGID": "WTPS51 PGTW 240300", "VALIDTIME": "2026-03-22 06:00:00" }, "geometry": { "type": "Point", "coordinates": [ 161.0, -13.2 ] } },
{ "type": "Feature", "properties": { "ID": 2676, "LAT": -14.1, "LON": 161.6, "VMAX": 30.0, "MSLP": 1010.40607, "RMAX": 44.21983, "FSPD": 8.4654, "FDIR": 155.72086, "RENV": 500.0, "PENV": 1012.0, "VALIDT": 0, "DTG": "2026-03-22 12:00", "LATNOW": -23.6, "LONNOW": 163.8, "WINDNOW": 45.0, "DIRNOW": 11.0, "SPDNOW": 5.0, "TECH": "TRAK", "ADVNR": 3, "ATCFID": "SH282026", "NAME": "TWENTY-EI", "FTECH": "JTWC", "FCST_DTG": "2026-03-24 00:00:00", "RUN_DTG": "2026-03-24 14:23:04", "BASIN": "SH", "STMNR": 28, "CAT_ID": null, "CAT_DESC": null, "MSGID": "WTPS51 PGTW 240300", "VALIDTIME": "2026-03-22 12:00:00" }, "geometry": { "type": "Point", "coordinates": [ 161.600006, -14.1 ] } },
{ "type": "Feature", "properties": { "ID": 2677, "LAT": -15.6, "LON": 162.3, "VMAX": 30.0, "MSLP": 1010.40607, "RMAX": 44.21983, "FSPD": 8.29008, "FDIR": 173.16214, "RENV": 500.0, "PENV": 1012.0, "VALIDT": 0, "DTG": "2026-03-22 18:00", "LATNOW": -23.6, "LONNOW": 163.8, "WINDNOW": 45.0, "DIRNOW": 11.0, "SPDNOW": 5.0, "TECH": "TRAK", "ADVNR": 3, "ATCFID": "SH282026", "NAME": "TWENTY-EI", "FTECH": "JTWC", "FCST_DTG": "2026-03-24 00:00:00", "RUN_DTG": "2026-03-24 14:23:04", "BASIN": "SH", "STMNR": 28, "CAT_ID": null, "CAT_DESC": null, "MSGID": "WTPS51 PGTW 240300", "VALIDTIME": "2026-03-22 18:00:00" }, "geometry": { "type": "Point", "coordinates": [ 162.300003, -15.6 ] } },
{ "type": "Feature", "properties": { "ID": 2678, "LAT": -17.2, "LON": 162.5, "VMAX": 35.0, "MSLP": 996.0, "RMAX": 35.0, "FSPD": 6.9687, "FDIR": 163.6759, "RENV": 220.0, "PENV": 1005.0, "VALIDT": 0, "DTG": "2026-03-23 00:00", "LATNOW": -23.6, "LONNOW": 163.8, "WINDNOW": 45.0, "DIRNOW": 11.0, "SPDNOW": 5.0, "TECH": "TRAK", "ADVNR": 3, "ATCFID": "SH282026", "NAME": "TWENTY-EI", "FTECH": "JTWC", "FCST_DTG": "2026-03-24 00:00:00", "RUN_DTG": "2026-03-24 14:23:04", "BASIN": "SH", "STMNR": 28, "CAT_ID": null, "CAT_DESC": null, "MSGID": "WTPS51 PGTW 240300", "VALIDTIME": "2026-03-23 00:00:00" }, "geometry": { "type": "Point", "coordinates": [ 162.5, -17.200001 ] } },
{ "type": "Feature", "properties": { "ID": 2679, "LAT": -18.5, "LON": 162.9, "VMAX": 40.0, "MSLP": 996.0, "RMAX": 35.0, "FSPD": 8.23111, "FDIR": 179.99997, "RENV": 220.0, "PENV": 1005.0, "VALIDT": 0, "DTG": "2026-03-23 06:00", "LATNOW": -23.6, "LONNOW": 163.8, "WINDNOW": 45.0, "DIRNOW": 11.0, "SPDNOW": 5.0, "TECH": "TRAK", "ADVNR": 3, "ATCFID": "SH282026", "NAME": "TWENTY-EI", "FTECH": "JTWC", "FCST_DTG": "2026-03-24 00:00:00", "RUN_DTG": "2026-03-24 14:23:04", "BASIN": "SH", "STMNR": 28, "CAT_ID": null, "CAT_DESC": null, "MSGID": "WTPS51 PGTW 240300", "VALIDTIME": "2026-03-23 06:00:00" }, "geometry": { "type": "Point", "coordinates": [ 162.899994, -18.5 ] } },
{ "type": "Feature", "properties": { "ID": 2680, "LAT": -20.1, "LON": 162.9, "VMAX": 45.0, "MSLP": 991.0, "RMAX": 35.0, "FSPD": 7.2841, "FDIR": 156.65466, "RENV": 220.0, "PENV": 1003.0, "VALIDT": 0, "DTG": "2026-03-23 12:00", "LATNOW": -23.6, "LONNOW": 163.8, "WINDNOW": 45.0, "DIRNOW": 11.0, "SPDNOW": 5.0, "TECH": "TRAK", "ADVNR": 3, "ATCFID": "SH282026", "NAME": "TWENTY-EI", "FTECH": "JTWC", "FCST_DTG": "2026-03-24 00:00:00", "RUN_DTG": "2026-03-24 14:23:04", "BASIN": "SH", "STMNR": 28, "CAT_ID": null, "CAT_DESC": null, "MSGID": "WTPS51 PGTW 240300", "VALIDTIME": "2026-03-23 12:00:00" }, "geometry": { "type": "Point", "coordinates": [ 162.899994, -20.1 ] } },
{ "type": "Feature", "properties": { "ID": 2681, "LAT": -21.4, "LON": 163.5, "VMAX": 45.0, "MSLP": 990.0, "RMAX": 30.0, "FSPD": 11.40725, "FDIR": 172.8194, "RENV": 240.0, "PENV": 1005.0, "VALIDT": 0, "DTG": "2026-03-23 18:00", "LATNOW": -23.6, "LONNOW": 163.8, "WINDNOW": 45.0, "DIRNOW": 11.0, "SPDNOW": 5.0, "TECH": "TRAK", "ADVNR": 3, "ATCFID": "SH282026", "NAME": "TWENTY-EI", "FTECH": "JTWC", "FCST_DTG": "2026-03-24 00:00:00", "RUN_DTG": "2026-03-24 14:23:04", "BASIN": "SH", "STMNR": 28, "CAT_ID": null, "CAT_DESC": null, "MSGID": "WTPS51 PGTW 240300", "VALIDTIME": "2026-03-23 18:00:00" }, "geometry": { "type": "Point", "coordinates": [ 163.5, -21.4 ] } },
{ "type": "Feature", "properties": { "ID": 2682, "LAT": -23.6, "LON": 163.8, "VMAX": 45.0, "MSLP": 990.0, "RMAX": 30.0, "FSPD": 11.32725, "FDIR": 177.65656, "RENV": 240.0, "PENV": 1005.0, "VALIDT": 0, "DTG": "2026-03-24 00:00", "LATNOW": -23.6, "LONNOW": 163.8, "WINDNOW": 45.0, "DIRNOW": 11.0, "SPDNOW": 5.0, "TECH": "TRAK", "ADVNR": 3, "ATCFID": "SH282026", "NAME": "TWENTY-EI", "FTECH": "JTWC", "FCST_DTG": "2026-03-24 00:00:00", "RUN_DTG": "2026-03-24 14:23:04", "BASIN": "SH", "STMNR": 28, "CAT_ID": null, "CAT_DESC": null, "MSGID": "WTPS51 PGTW 240300", "VALIDTIME": "2026-03-24 00:00:00" }, "geometry": { "type": "Point", "coordinates": [ 163.800003, -23.6 ] } },
{ "type": "Feature", "properties": { "ID": 2683, "LAT": -28.0, "LON": 164.0, "VMAX": 45.0, "MSLP": 1004.66364, "RMAX": 35.794, "FSPD": 11.32725, "FDIR": 177.65656, "RENV": 300.0, "PENV": 1012.0, "VALIDT": 12, "DTG": "2026-03-24 12:00", "LATNOW": -23.6, "LONNOW": 163.8, "WINDNOW": 45.0, "DIRNOW": 11.0, "SPDNOW": 5.0, "TECH": "FCST", "ADVNR": 3, "ATCFID": "SH282026", "NAME": "TWENTY-EI", "FTECH": "JTWC", "FCST_DTG": "2026-03-24 00:00:00", "RUN_DTG": "2026-03-24 14:23:04", "BASIN": "SH", "STMNR": 28, "CAT_ID": null, "CAT_DESC": null, "MSGID": "WTPS51 PGTW 240300", "VALIDTIME": "2026-03-24 12:00:00" }, "geometry": { "type": "Point", "coordinates": [ 164.0, -28.0 ] } },
{ "type": "Feature", "properties": { "ID": 2682, "LAT": -23.6, "LON": 163.8, "VMAX": 45.0, "MSLP": 990.0, "RMAX": 30.0, "FSPD": 11.32725, "FDIR": 177.65656, "RENV": 240.0, "PENV": 1005.0, "VALIDT": 0, "DTG": "2026-03-24 00:00", "LATNOW": -23.6, "LONNOW": 163.8, "WINDNOW": 45.0, "DIRNOW": 11.0, "SPDNOW": 5.0, "TECH": "TRAK", "ADVNR": 3, "ATCFID": "SH282026", "NAME": "TWENTY-EI", "FTECH": "JTWC", "FCST_DTG": "2026-03-24 00:00:00", "RUN_DTG": "2026-03-24 14:23:04", "BASIN": "SH", "STMNR": 28, "CAT_ID": null, "CAT_DESC": null, "MSGID": "WTPS51 PGTW 240300", "VALIDTIME": "2026-03-24 00:00:00" }, "geometry": { "type": "LineString", "coordinates": [ [ 161.8, -9.6 ], [ 161.9, -9.9 ], [ 162.0, -10.2 ], [ 161.5, -11.1 ], [ 161.2, -11.7 ], [ 161.2, -12.4 ], [ 161.0, -12.8 ], [ 160.7, -12.9 ], [ 160.5, -12.9 ], [ 161.0, -13.2 ], [ 161.6, -14.1 ], [ 162.3, -15.6 ], [ 162.5, -17.2 ], [ 162.9, -18.5 ], [ 162.9, -20.1 ], [ 163.5, -21.4 ], [ 163.8, -23.6 ] ] } },
{ "type": "Feature", "properties": { "ID": 2683, "LAT": -28.0, "LON": 164.0, "VMAX": 45.0, "MSLP": 1004.66364, "RMAX": 35.794, "FSPD": 11.32725, "FDIR": 177.65656, "RENV": 300.0, "PENV": 1012.0, "VALIDT": 12, "DTG": "2026-03-24 12:00", "LATNOW": -23.6, "LONNOW": 163.8, "WINDNOW": 45.0, "DIRNOW": 11.0, "SPDNOW": 5.0, "TECH": "FCST", "ADVNR": 3, "ATCFID": "SH282026", "NAME": "TWENTY-EI", "FTECH": "JTWC", "FCST_DTG": "2026-03-24 00:00:00", "RUN_DTG": "2026-03-24 14:23:04", "BASIN": "SH", "STMNR": 28, "CAT_ID": null, "CAT_DESC": null, "MSGID": "WTPS51 PGTW 240300", "VALIDTIME": "2026-03-24 12:00:00" }, "geometry": { "type": "LineString", "coordinates": [ [ 163.8, -23.6 ], [ 164.0, -28.0 ] ] } }
]
}
