{
"type": "FeatureCollection",
"crs": { "type": "name", "properties": { "name": "urn:ogc:def:crs:OGC:1.3:CRS84" } },
"features": [
{ "type": "Feature", "properties": { "ID": 58383, "LAT": 10.4, "LON": -109.8, "VMAX": 15.0, "MSLP": 1009.0, "RMAX": 42.902, "FSPD": 5.56591, "FDIR": 269.99997, "RENV": 170.0, "PENV": 1012.0, "VALIDT": 0, "DTG": "2025-09-29 00:00", "LATNOW": 17.6, "LONNOW": -111.0, "WINDNOW": 30.0, "DIRNOW": 5.0, "SPDNOW": 0.0, "TECH": "TRAK", "ADVNR": 38, "ATCFID": "EP152025", "NAME": "OCTAVE", "FTECH": "OFCL", "FCST_DTG": "2025-10-09 12:00:00", "RUN_DTG": "2025-10-10 09:28:14", "BASIN": "EP", "STMNR": 15, "CAT_ID": null, "CAT_DESC": null, "MSGID": "WTPZ25 KNHC 091437", "VALIDTIME": "2025-09-29 00:00:00" }, "geometry": { "type": "Point", "coordinates": [ -109.800003, 10.4 ] } },
{ "type": "Feature", "properties": { "ID": 58384, "LAT": 10.4, "LON": -110.9, "VMAX": 25.0, "MSLP": 1009.0, "RMAX": 40.0, "FSPD": 5.59052, "FDIR": 264.72012, "RENV": 200.0, "PENV": 1012.0, "VALIDT": 0, "DTG": "2025-09-29 06:00", "LATNOW": 17.6, "LONNOW": -111.0, "WINDNOW": 30.0, "DIRNOW": 5.0, "SPDNOW": 0.0, "TECH": "TRAK", "ADVNR": 38, "ATCFID": "EP152025", "NAME": "OCTAVE", "FTECH": "OFCL", "FCST_DTG": "2025-10-09 12:00:00", "RUN_DTG": "2025-10-10 09:28:14", "BASIN": "EP", "STMNR": 15, "CAT_ID": null, "CAT_DESC": null, "MSGID": "WTPZ25 KNHC 091437", "VALIDTIME": "2025-09-29 06:00:00" }, "geometry": { "type": "Point", "coordinates": [ -110.900002, 10.4 ] } },
{ "type": "Feature", "properties": { "ID": 58385, "LAT": 10.3, "LON": -112.0, "VMAX": 30.0, "MSLP": 1008.0, "RMAX": 20.0, "FSPD": 5.36453, "FDIR": 196.46898, "RENV": 200.0, "PENV": 1011.0, "VALIDT": 0, "DTG": "2025-09-29 12:00", "LATNOW": 17.6, "LONNOW": -111.0, "WINDNOW": 30.0, "DIRNOW": 5.0, "SPDNOW": 0.0, "TECH": "TRAK", "ADVNR": 38, "ATCFID": "EP152025", "NAME": "OCTAVE", "FTECH": "OFCL", "FCST_DTG": "2025-10-09 12:00:00", "RUN_DTG": "2025-10-10 09:28:14", "BASIN": "EP", "STMNR": 15, "CAT_ID": null, "CAT_DESC": null, "MSGID": "WTPZ25 KNHC 091437", "VALIDTIME": "2025-09-29 12:00:00" }, "geometry": { "type": "Point", "coordinates": [ -112.0, 10.3 ] } },
{ "type": "Feature", "properties": { "ID": 58386, "LAT": 9.3, "LON": -112.3, "VMAX": 30.0, "MSLP": 1008.0, "RMAX": 20.0, "FSPD": 1.44573, "FDIR": 224.62866, "RENV": 150.0, "PENV": 1012.0, "VALIDT": 0, "DTG": "2025-09-29 18:00", "LATNOW": 17.6, "LONNOW": -111.0, "WINDNOW": 30.0, "DIRNOW": 5.0, "SPDNOW": 0.0, "TECH": "TRAK", "ADVNR": 38, "ATCFID": "EP152025", "NAME": "OCTAVE", "FTECH": "OFCL", "FCST_DTG": "2025-10-09 12:00:00", "RUN_DTG": "2025-10-10 09:28:14", "BASIN": "EP", "STMNR": 15, "CAT_ID": null, "CAT_DESC": null, "MSGID": "WTPZ25 KNHC 091437", "VALIDTIME": "2025-09-29 18:00:00" }, "geometry": { "type": "Point", "coordinates": [ -112.300003, 9.3 ] } },
{ "type": "Feature", "properties": { "ID": 58387, "LAT": 9.1, "LON": -112.5, "VMAX": 30.0, "MSLP": 1007.0, "RMAX": 20.0, "FSPD": 2.73967, "FDIR": 292.05838, "RENV": 100.0, "PENV": 1010.0, "VALIDT": 0, "DTG": "2025-09-30 00:00", "LATNOW": 17.6, "LONNOW": -111.0, "WINDNOW": 30.0, "DIRNOW": 5.0, "SPDNOW": 0.0, "TECH": "TRAK", "ADVNR": 38, "ATCFID": "EP152025", "NAME": "OCTAVE", "FTECH": "OFCL", "FCST_DTG": "2025-10-09 12:00:00", "RUN_DTG": "2025-10-10 09:28:14", "BASIN": "EP", "STMNR": 15, "CAT_ID": null, "CAT_DESC": null, "MSGID": "WTPZ25 KNHC 091437", "VALIDTIME": "2025-09-30 00:00:00" }, "geometry": { "type": "Point", "coordinates": [ -112.5, 9.1 ] } },
{ "type": "Feature", "properties": { "ID": 58388, "LAT": 9.3, "LON": -113.0, "VMAX": 30.0, "MSLP": 1005.0, "RMAX": 15.0, "FSPD": 1.83766, "FDIR": 304.04816, "RENV": 100.0, "PENV": 1010.0, "VALIDT": 0, "DTG": "2025-09-30 06:00", "LATNOW": 17.6, "LONNOW": -111.0, "WINDNOW": 30.0, "DIRNOW": 5.0, "SPDNOW": 0.0, "TECH": "TRAK", "ADVNR": 38, "ATCFID": "EP152025", "NAME": "OCTAVE", "FTECH": "OFCL", "FCST_DTG": "2025-10-09 12:00:00", "RUN_DTG": "2025-10-10 09:28:14", "BASIN": "EP", "STMNR": 15, "CAT_ID": null, "CAT_DESC": null, "MSGID": "WTPZ25 KNHC 091437", "VALIDTIME": "2025-09-30 06:00:00" }, "geometry": { "type": "Point", "coordinates": [ -113.0, 9.3 ] } },
{ "type": "Feature", "properties": { "ID": 58389, "LAT": 9.5, "LON": -113.3, "VMAX": 35.0, "MSLP": 1004.0, "RMAX": 15.0, "FSPD": 2.88939, "FDIR": 315.4129, "RENV": 100.0, "PENV": 1010.0, "VALIDT": 0, "DTG": "2025-09-30 12:00", "LATNOW": 17.6, "LONNOW": -111.0, "WINDNOW": 30.0, "DIRNOW": 5.0, "SPDNOW": 0.0, "TECH": "TRAK", "ADVNR": 38, "ATCFID": "EP152025", "NAME": "OCTAVE", "FTECH": "OFCL", "FCST_DTG": "2025-10-09 12:00:00", "RUN_DTG": "2025-10-10 09:28:14", "BASIN": "EP", "STMNR": 15, "CAT_ID": null, "CAT_DESC": null, "MSGID": "WTPZ25 KNHC 091437", "VALIDTIME": "2025-09-30 12:00:00" }, "geometry": { "type": "Point", "coordinates": [ -113.300003, 9.5 ] } },
{ "type": "Feature", "properties": { "ID": 58390, "LAT": 9.9, "LON": -113.7, "VMAX": 40.0, "MSLP": 1002.0, "RMAX": 10.0, "FSPD": 3.99204, "FDIR": 320.64267, "RENV": 90.0, "PENV": 1011.0, "VALIDT": 0, "DTG": "2025-09-30 18:00", "LATNOW": 17.6, "LONNOW": -111.0, "WINDNOW": 30.0, "DIRNOW": 5.0, "SPDNOW": 0.0, "TECH": "TRAK", "ADVNR": 38, "ATCFID": "EP152025", "NAME": "OCTAVE", "FTECH": "OFCL", "FCST_DTG": "2025-10-09 12:00:00", "RUN_DTG": "2025-10-10 09:28:14", "BASIN": "EP", "STMNR": 15, "CAT_ID": null, "CAT_DESC": null, "MSGID": "WTPZ25 KNHC 091437", "VALIDTIME": "2025-09-30 18:00:00" }, "geometry": { "type": "Point", "coordinates": [ -113.699997, 9.9 ] } },
{ "type": "Feature", "properties": { "ID": 58391, "LAT": 10.5, "LON": -114.2, "VMAX": 40.0, "MSLP": 1001.0, "RMAX": 20.0, "FSPD": 2.88495, "FDIR": 315.50232, "RENV": 120.0, "PENV": 1009.0, "VALIDT": 0, "DTG": "2025-10-01 00:00", "LATNOW": 17.6, "LONNOW": -111.0, "WINDNOW": 30.0, "DIRNOW": 5.0, "SPDNOW": 0.0, "TECH": "TRAK", "ADVNR": 38, "ATCFID": "EP152025", "NAME": "OCTAVE", "FTECH": "OFCL", "FCST_DTG": "2025-10-09 12:00:00", "RUN_DTG": "2025-10-10 09:28:14", "BASIN": "EP", "STMNR": 15, "CAT_ID": null, "CAT_DESC": null, "MSGID": "WTPZ25 KNHC 091437", "VALIDTIME": "2025-10-01 00:00:00" }, "geometry": { "type": "Point", "coordinates": [ -114.199997, 10.5 ] } },
{ "type": "Feature", "properties": { "ID": 58392, "LAT": 10.9, "LON": -114.6, "VMAX": 50.0, "MSLP": 996.0, "RMAX": 15.0, "FSPD": 4.78757, "FDIR": 302.49802, "RENV": 150.0, "PENV": 1009.0, "VALIDT": 0, "DTG": "2025-10-01 06:00", "LATNOW": 17.6, "LONNOW": -111.0, "WINDNOW": 30.0, "DIRNOW": 5.0, "SPDNOW": 0.0, "TECH": "TRAK", "ADVNR": 38, "ATCFID": "EP152025", "NAME": "OCTAVE", "FTECH": "OFCL", "FCST_DTG": "2025-10-09 12:00:00", "RUN_DTG": "2025-10-10 09:28:14", "BASIN": "EP", "STMNR": 15, "CAT_ID": null, "CAT_DESC": null, "MSGID": "WTPZ25 KNHC 091437", "VALIDTIME": "2025-10-01 06:00:00" }, "geometry": { "type": "Point", "coordinates": [ -114.599998, 10.9 ] } },
{ "type": "Feature", "properties": { "ID": 58393, "LAT": 11.4, "LON": -115.4, "VMAX": 55.0, "MSLP": 994.0, "RMAX": 15.0, "FSPD": 4.08387, "FDIR": 300.25696, "RENV": 140.0, "PENV": 1010.0, "VALIDT": 0, "DTG": "2025-10-01 12:00", "LATNOW": 17.6, "LONNOW": -111.0, "WINDNOW": 30.0, "DIRNOW": 5.0, "SPDNOW": 0.0, "TECH": "TRAK", "ADVNR": 38, "ATCFID": "EP152025", "NAME": "OCTAVE", "FTECH": "OFCL", "FCST_DTG": "2025-10-09 12:00:00", "RUN_DTG": "2025-10-10 09:28:14", "BASIN": "EP", "STMNR": 15, "CAT_ID": null, "CAT_DESC": null, "MSGID": "WTPZ25 KNHC 091437", "VALIDTIME": "2025-10-01 12:00:00" }, "geometry": { "type": "Point", "coordinates": [ -115.400002, 11.4 ] } },
{ "type": "Feature", "properties": { "ID": 58394, "LAT": 11.8, "LON": -116.1, "VMAX": 55.0, "MSLP": 994.0, "RMAX": 15.0, "FSPD": 3.39129, "FDIR": 297.07053, "RENV": 140.0, "PENV": 1010.0, "VALIDT": 0, "DTG": "2025-10-01 18:00", "LATNOW": 17.6, "LONNOW": -111.0, "WINDNOW": 30.0, "DIRNOW": 5.0, "SPDNOW": 0.0, "TECH": "TRAK", "ADVNR": 38, "ATCFID": "EP152025", "NAME": "OCTAVE", "FTECH": "OFCL", "FCST_DTG": "2025-10-09 12:00:00", "RUN_DTG": "2025-10-10 09:28:14", "BASIN": "EP", "STMNR": 15, "CAT_ID": null, "CAT_DESC": null, "MSGID": "WTPZ25 KNHC 091437", "VALIDTIME": "2025-10-01 18:00:00" }, "geometry": { "type": "Point", "coordinates": [ -116.099998, 11.8 ] } },
{ "type": "Feature", "properties": { "ID": 58395, "LAT": 12.1, "LON": -116.7, "VMAX": 55.0, "MSLP": 994.0, "RMAX": 15.0, "FSPD": 4.05763, "FDIR": 262.71613, "RENV": 180.0, "PENV": 1010.0, "VALIDT": 0, "DTG": "2025-10-02 00:00", "LATNOW": 17.6, "LONNOW": -111.0, "WINDNOW": 30.0, "DIRNOW": 5.0, "SPDNOW": 0.0, "TECH": "TRAK", "ADVNR": 38, "ATCFID": "EP152025", "NAME": "OCTAVE", "FTECH": "OFCL", "FCST_DTG": "2025-10-09 12:00:00", "RUN_DTG": "2025-10-10 09:28:14", "BASIN": "EP", "STMNR": 15, "CAT_ID": null, "CAT_DESC": null, "MSGID": "WTPZ25 KNHC 091437", "VALIDTIME": "2025-10-02 00:00:00" }, "geometry": { "type": "Point", "coordinates": [ -116.699997, 12.1 ] } },
{ "type": "Feature", "properties": { "ID": 58396, "LAT": 12.0, "LON": -117.5, "VMAX": 55.0, "MSLP": 996.0, "RMAX": 15.0, "FSPD": 4.07716, "FDIR": 300.31198, "RENV": 200.0, "PENV": 1012.0, "VALIDT": 0, "DTG": "2025-10-02 06:00", "LATNOW": 17.6, "LONNOW": -111.0, "WINDNOW": 30.0, "DIRNOW": 5.0, "SPDNOW": 0.0, "TECH": "TRAK", "ADVNR": 38, "ATCFID": "EP152025", "NAME": "OCTAVE", "FTECH": "OFCL", "FCST_DTG": "2025-10-09 12:00:00", "RUN_DTG": "2025-10-10 09:28:14", "BASIN": "EP", "STMNR": 15, "CAT_ID": null, "CAT_DESC": null, "MSGID": "WTPZ25 KNHC 091437", "VALIDTIME": "2025-10-02 06:00:00" }, "geometry": { "type": "Point", "coordinates": [ -117.5, 12.0 ] } },
{ "type": "Feature", "properties": { "ID": 58397, "LAT": 12.4, "LON": -118.2, "VMAX": 55.0, "MSLP": 996.0, "RMAX": 10.0, "FSPD": 2.71385, "FDIR": 292.27954, "RENV": 200.0, "PENV": 1010.0, "VALIDT": 0, "DTG": "2025-10-02 12:00", "LATNOW": 17.6, "LONNOW": -111.0, "WINDNOW": 30.0, "DIRNOW": 5.0, "SPDNOW": 0.0, "TECH": "TRAK", "ADVNR": 38, "ATCFID": "EP152025", "NAME": "OCTAVE", "FTECH": "OFCL", "FCST_DTG": "2025-10-09 12:00:00", "RUN_DTG": "2025-10-10 09:28:14", "BASIN": "EP", "STMNR": 15, "CAT_ID": null, "CAT_DESC": null, "MSGID": "WTPZ25 KNHC 091437", "VALIDTIME": "2025-10-02 12:00:00" }, "geometry": { "type": "Point", "coordinates": [ -118.199997, 12.4 ] } },
{ "type": "Feature", "properties": { "ID": 58398, "LAT": 12.6, "LON": -118.7, "VMAX": 50.0, "MSLP": 997.0, "RMAX": 10.0, "FSPD": 3.18211, "FDIR": 288.86475, "RENV": 200.0, "PENV": 1012.0, "VALIDT": 0, "DTG": "2025-10-02 18:00", "LATNOW": 17.6, "LONNOW": -111.0, "WINDNOW": 30.0, "DIRNOW": 5.0, "SPDNOW": 0.0, "TECH": "TRAK", "ADVNR": 38, "ATCFID": "EP152025", "NAME": "OCTAVE", "FTECH": "OFCL", "FCST_DTG": "2025-10-09 12:00:00", "RUN_DTG": "2025-10-10 09:28:14", "BASIN": "EP", "STMNR": 15, "CAT_ID": null, "CAT_DESC": null, "MSGID": "WTPZ25 KNHC 091437", "VALIDTIME": "2025-10-02 18:00:00" }, "geometry": { "type": "Point", "coordinates": [ -118.699997, 12.6 ] } },
{ "type": "Feature", "properties": { "ID": 58399, "LAT": 12.8, "LON": -119.3, "VMAX": 50.0, "MSLP": 997.0, "RMAX": 10.0, "FSPD": 3.83386, "FDIR": 293.73785, "RENV": 200.0, "PENV": 1012.0, "VALIDT": 0, "DTG": "2025-10-03 00:00", "LATNOW": 17.6, "LONNOW": -111.0, "WINDNOW": 30.0, "DIRNOW": 5.0, "SPDNOW": 0.0, "TECH": "TRAK", "ADVNR": 38, "ATCFID": "EP152025", "NAME": "OCTAVE", "FTECH": "OFCL", "FCST_DTG": "2025-10-09 12:00:00", "RUN_DTG": "2025-10-10 09:28:14", "BASIN": "EP", "STMNR": 15, "CAT_ID": null, "CAT_DESC": null, "MSGID": "WTPZ25 KNHC 091437", "VALIDTIME": "2025-10-03 00:00:00" }, "geometry": { "type": "Point", "coordinates": [ -119.300003, 12.8 ] } },
{ "type": "Feature", "properties": { "ID": 58400, "LAT": 13.1, "LON": -120.0, "VMAX": 45.0, "MSLP": 1001.0, "RMAX": 25.0, "FSPD": 3.65381, "FDIR": 286.35532, "RENV": 200.0, "PENV": 1012.0, "VALIDT": 0, "DTG": "2025-10-03 06:00", "LATNOW": 17.6, "LONNOW": -111.0, "WINDNOW": 30.0, "DIRNOW": 5.0, "SPDNOW": 0.0, "TECH": "TRAK", "ADVNR": 38, "ATCFID": "EP152025", "NAME": "OCTAVE", "FTECH": "OFCL", "FCST_DTG": "2025-10-09 12:00:00", "RUN_DTG": "2025-10-10 09:28:14", "BASIN": "EP", "STMNR": 15, "CAT_ID": null, "CAT_DESC": null, "MSGID": "WTPZ25 KNHC 091437", "VALIDTIME": "2025-10-03 06:00:00" }, "geometry": { "type": "Point", "coordinates": [ -120.0, 13.1 ] } },
{ "type": "Feature", "properties": { "ID": 58401, "LAT": 13.3, "LON": -120.7, "VMAX": 45.0, "MSLP": 1001.0, "RMAX": 40.0, "FSPD": 3.65107, "FDIR": 286.36792, "RENV": 250.0, "PENV": 1011.0, "VALIDT": 0, "DTG": "2025-10-03 12:00", "LATNOW": 17.6, "LONNOW": -111.0, "WINDNOW": 30.0, "DIRNOW": 5.0, "SPDNOW": 0.0, "TECH": "TRAK", "ADVNR": 38, "ATCFID": "EP152025", "NAME": "OCTAVE", "FTECH": "OFCL", "FCST_DTG": "2025-10-09 12:00:00", "RUN_DTG": "2025-10-10 09:28:14", "BASIN": "EP", "STMNR": 15, "CAT_ID": null, "CAT_DESC": null, "MSGID": "WTPZ25 KNHC 091437", "VALIDTIME": "2025-10-03 12:00:00" }, "geometry": { "type": "Point", "coordinates": [ -120.699997, 13.3 ] } },
{ "type": "Feature", "properties": { "ID": 58402, "LAT": 13.5, "LON": -121.4, "VMAX": 50.0, "MSLP": 1000.0, "RMAX": 30.0, "FSPD": 5.02764, "FDIR": 275.873, "RENV": 250.0, "PENV": 1011.0, "VALIDT": 0, "DTG": "2025-10-03 18:00", "LATNOW": 17.6, "LONNOW": -111.0, "WINDNOW": 30.0, "DIRNOW": 5.0, "SPDNOW": 0.0, "TECH": "TRAK", "ADVNR": 38, "ATCFID": "EP152025", "NAME": "OCTAVE", "FTECH": "OFCL", "FCST_DTG": "2025-10-09 12:00:00", "RUN_DTG": "2025-10-10 09:28:14", "BASIN": "EP", "STMNR": 15, "CAT_ID": null, "CAT_DESC": null, "MSGID": "WTPZ25 KNHC 091437", "VALIDTIME": "2025-10-03 18:00:00" }, "geometry": { "type": "Point", "coordinates": [ -121.400002, 13.5 ] } },
{ "type": "Feature", "properties": { "ID": 58403, "LAT": 13.6, "LON": -122.4, "VMAX": 50.0, "MSLP": 1000.0, "RMAX": 30.0, "FSPD": 3.63591, "FDIR": 304.46893, "RENV": 250.0, "PENV": 1011.0, "VALIDT": 0, "DTG": "2025-10-04 00:00", "LATNOW": 17.6, "LONNOW": -111.0, "WINDNOW": 30.0, "DIRNOW": 5.0, "SPDNOW": 0.0, "TECH": "TRAK", "ADVNR": 38, "ATCFID": "EP152025", "NAME": "OCTAVE", "FTECH": "OFCL", "FCST_DTG": "2025-10-09 12:00:00", "RUN_DTG": "2025-10-10 09:28:14", "BASIN": "EP", "STMNR": 15, "CAT_ID": null, "CAT_DESC": null, "MSGID": "WTPZ25 KNHC 091437", "VALIDTIME": "2025-10-04 00:00:00" }, "geometry": { "type": "Point", "coordinates": [ -122.400002, 13.6 ] } },
{ "type": "Feature", "properties": { "ID": 58404, "LAT": 14.0, "LON": -123.0, "VMAX": 45.0, "MSLP": 1002.0, "RMAX": 30.0, "FSPD": 3.23305, "FDIR": 309.5299, "RENV": 250.0, "PENV": 1012.0, "VALIDT": 0, "DTG": "2025-10-04 06:00", "LATNOW": 17.6, "LONNOW": -111.0, "WINDNOW": 30.0, "DIRNOW": 5.0, "SPDNOW": 0.0, "TECH": "TRAK", "ADVNR": 38, "ATCFID": "EP152025", "NAME": "OCTAVE", "FTECH": "OFCL", "FCST_DTG": "2025-10-09 12:00:00", "RUN_DTG": "2025-10-10 09:28:14", "BASIN": "EP", "STMNR": 15, "CAT_ID": null, "CAT_DESC": null, "MSGID": "WTPZ25 KNHC 091437", "VALIDTIME": "2025-10-04 06:00:00" }, "geometry": { "type": "Point", "coordinates": [ -123.0, 14.0 ] } },
{ "type": "Feature", "properties": { "ID": 58405, "LAT": 14.4, "LON": -123.5, "VMAX": 50.0, "MSLP": 1000.0, "RMAX": 30.0, "FSPD": 2.1479, "FDIR": 315.93335, "RENV": 250.0, "PENV": 1010.0, "VALIDT": 0, "DTG": "2025-10-04 12:00", "LATNOW": 17.6, "LONNOW": -111.0, "WINDNOW": 30.0, "DIRNOW": 5.0, "SPDNOW": 0.0, "TECH": "TRAK", "ADVNR": 38, "ATCFID": "EP152025", "NAME": "OCTAVE", "FTECH": "OFCL", "FCST_DTG": "2025-10-09 12:00:00", "RUN_DTG": "2025-10-10 09:28:14", "BASIN": "EP", "STMNR": 15, "CAT_ID": null, "CAT_DESC": null, "MSGID": "WTPZ25 KNHC 091437", "VALIDTIME": "2025-10-04 12:00:00" }, "geometry": { "type": "Point", "coordinates": [ -123.5, 14.4 ] } },
{ "type": "Feature", "properties": { "ID": 58406, "LAT": 14.7, "LON": -123.8, "VMAX": 55.0, "MSLP": 997.0, "RMAX": 30.0, "FSPD": 2.97315, "FDIR": 329.8999, "RENV": 250.0, "PENV": 1012.0, "VALIDT": 0, "DTG": "2025-10-04 18:00", "LATNOW": 17.6, "LONNOW": -111.0, "WINDNOW": 30.0, "DIRNOW": 5.0, "SPDNOW": 0.0, "TECH": "TRAK", "ADVNR": 38, "ATCFID": "EP152025", "NAME": "OCTAVE", "FTECH": "OFCL", "FCST_DTG": "2025-10-09 12:00:00", "RUN_DTG": "2025-10-10 09:28:14", "BASIN": "EP", "STMNR": 15, "CAT_ID": null, "CAT_DESC": null, "MSGID": "WTPZ25 KNHC 091437", "VALIDTIME": "2025-10-04 18:00:00" }, "geometry": { "type": "Point", "coordinates": [ -123.800003, 14.7 ] } },
{ "type": "Feature", "properties": { "ID": 58407, "LAT": 15.2, "LON": -124.1, "VMAX": 55.0, "MSLP": 997.0, "RMAX": 30.0, "FSPD": 1.6211, "FDIR": 342.18066, "RENV": 250.0, "PENV": 1012.0, "VALIDT": 0, "DTG": "2025-10-05 00:00", "LATNOW": 17.6, "LONNOW": -111.0, "WINDNOW": 30.0, "DIRNOW": 5.0, "SPDNOW": 0.0, "TECH": "TRAK", "ADVNR": 38, "ATCFID": "EP152025", "NAME": "OCTAVE", "FTECH": "OFCL", "FCST_DTG": "2025-10-09 12:00:00", "RUN_DTG": "2025-10-10 09:28:14", "BASIN": "EP", "STMNR": 15, "CAT_ID": null, "CAT_DESC": null, "MSGID": "WTPZ25 KNHC 091437", "VALIDTIME": "2025-10-05 00:00:00" }, "geometry": { "type": "Point", "coordinates": [ -124.099998, 15.2 ] } },
{ "type": "Feature", "properties": { "ID": 58408, "LAT": 15.5, "LON": -124.2, "VMAX": 60.0, "MSLP": 994.0, "RMAX": 15.0, "FSPD": 1.57331, "FDIR": 70.91415, "RENV": 175.0, "PENV": 1012.0, "VALIDT": 0, "DTG": "2025-10-05 06:00", "LATNOW": 17.6, "LONNOW": -111.0, "WINDNOW": 30.0, "DIRNOW": 5.0, "SPDNOW": 0.0, "TECH": "TRAK", "ADVNR": 38, "ATCFID": "EP152025", "NAME": "OCTAVE", "FTECH": "OFCL", "FCST_DTG": "2025-10-09 12:00:00", "RUN_DTG": "2025-10-10 09:28:14", "BASIN": "EP", "STMNR": 15, "CAT_ID": null, "CAT_DESC": null, "MSGID": "WTPZ25 KNHC 091437", "VALIDTIME": "2025-10-05 06:00:00" }, "geometry": { "type": "Point", "coordinates": [ -124.199997, 15.5 ] } },
{ "type": "Feature", "properties": { "ID": 58409, "LAT": 15.6, "LON": -123.9, "VMAX": 70.0, "MSLP": 987.0, "RMAX": 15.0, "FSPD": 2.51085, "FDIR": 52.07242, "RENV": 200.0, "PENV": 1011.0, "VALIDT": 0, "DTG": "2025-10-05 12:00", "LATNOW": 17.6, "LONNOW": -111.0, "WINDNOW": 30.0, "DIRNOW": 5.0, "SPDNOW": 0.0, "TECH": "TRAK", "ADVNR": 38, "ATCFID": "EP152025", "NAME": "OCTAVE", "FTECH": "OFCL", "FCST_DTG": "2025-10-09 12:00:00", "RUN_DTG": "2025-10-10 09:28:14", "BASIN": "EP", "STMNR": 15, "CAT_ID": null, "CAT_DESC": null, "MSGID": "WTPZ25 KNHC 091437", "VALIDTIME": "2025-10-05 12:00:00" }, "geometry": { "type": "Point", "coordinates": [ -123.900002, 15.6 ] } },
{ "type": "Feature", "properties": { "ID": 58410, "LAT": 15.9, "LON": -123.5, "VMAX": 70.0, "MSLP": 987.0, "RMAX": 15.0, "FSPD": 2.50853, "FDIR": 52.03079, "RENV": 200.0, "PENV": 1011.0, "VALIDT": 0, "DTG": "2025-10-05 18:00", "LATNOW": 17.6, "LONNOW": -111.0, "WINDNOW": 30.0, "DIRNOW": 5.0, "SPDNOW": 0.0, "TECH": "TRAK", "ADVNR": 38, "ATCFID": "EP152025", "NAME": "OCTAVE", "FTECH": "OFCL", "FCST_DTG": "2025-10-09 12:00:00", "RUN_DTG": "2025-10-10 09:28:14", "BASIN": "EP", "STMNR": 15, "CAT_ID": null, "CAT_DESC": null, "MSGID": "WTPZ25 KNHC 091437", "VALIDTIME": "2025-10-05 18:00:00" }, "geometry": { "type": "Point", "coordinates": [ -123.5, 15.9 ] } },
{ "type": "Feature", "properties": { "ID": 58411, "LAT": 16.2, "LON": -123.1, "VMAX": 70.0, "MSLP": 987.0, "RMAX": 15.0, "FSPD": 3.00767, "FDIR": 80.15161, "RENV": 200.0, "PENV": 1011.0, "VALIDT": 0, "DTG": "2025-10-06 00:00", "LATNOW": 17.6, "LONNOW": -111.0, "WINDNOW": 30.0, "DIRNOW": 5.0, "SPDNOW": 0.0, "TECH": "TRAK", "ADVNR": 38, "ATCFID": "EP152025", "NAME": "OCTAVE", "FTECH": "OFCL", "FCST_DTG": "2025-10-09 12:00:00", "RUN_DTG": "2025-10-10 09:28:14", "BASIN": "EP", "STMNR": 15, "CAT_ID": null, "CAT_DESC": null, "MSGID": "WTPZ25 KNHC 091437", "VALIDTIME": "2025-10-06 00:00:00" }, "geometry": { "type": "Point", "coordinates": [ -123.099998, 16.200001 ] } },
{ "type": "Feature", "properties": { "ID": 58412, "LAT": 16.3, "LON": -122.5, "VMAX": 65.0, "MSLP": 990.0, "RMAX": 10.0, "FSPD": 2.96259, "FDIR": 90.0, "RENV": 200.0, "PENV": 1011.0, "VALIDT": 0, "DTG": "2025-10-06 06:00", "LATNOW": 17.6, "LONNOW": -111.0, "WINDNOW": 30.0, "DIRNOW": 5.0, "SPDNOW": 0.0, "TECH": "TRAK", "ADVNR": 38, "ATCFID": "EP152025", "NAME": "OCTAVE", "FTECH": "OFCL", "FCST_DTG": "2025-10-09 12:00:00", "RUN_DTG": "2025-10-10 09:28:14", "BASIN": "EP", "STMNR": 15, "CAT_ID": null, "CAT_DESC": null, "MSGID": "WTPZ25 KNHC 091437", "VALIDTIME": "2025-10-06 06:00:00" }, "geometry": { "type": "Point", "coordinates": [ -122.5, 16.299999 ] } },
{ "type": "Feature", "properties": { "ID": 58413, "LAT": 16.3, "LON": -121.9, "VMAX": 55.0, "MSLP": 995.0, "RMAX": 10.0, "FSPD": 3.00767, "FDIR": 99.84836, "RENV": 150.0, "PENV": 1009.0, "VALIDT": 0, "DTG": "2025-10-06 12:00", "LATNOW": 17.6, "LONNOW": -111.0, "WINDNOW": 30.0, "DIRNOW": 5.0, "SPDNOW": 0.0, "TECH": "TRAK", "ADVNR": 38, "ATCFID": "EP152025", "NAME": "OCTAVE", "FTECH": "OFCL", "FCST_DTG": "2025-10-09 12:00:00", "RUN_DTG": "2025-10-10 09:28:14", "BASIN": "EP", "STMNR": 15, "CAT_ID": null, "CAT_DESC": null, "MSGID": "WTPZ25 KNHC 091437", "VALIDTIME": "2025-10-06 12:00:00" }, "geometry": { "type": "Point", "coordinates": [ -121.900002, 16.299999 ] } },
{ "type": "Feature", "properties": { "ID": 58414, "LAT": 16.2, "LON": -121.3, "VMAX": 45.0, "MSLP": 998.0, "RMAX": 15.0, "FSPD": 3.34385, "FDIR": 117.48688, "RENV": 150.0, "PENV": 1009.0, "VALIDT": 0, "DTG": "2025-10-06 18:00", "LATNOW": 17.6, "LONNOW": -111.0, "WINDNOW": 30.0, "DIRNOW": 5.0, "SPDNOW": 0.0, "TECH": "TRAK", "ADVNR": 38, "ATCFID": "EP152025", "NAME": "OCTAVE", "FTECH": "OFCL", "FCST_DTG": "2025-10-09 12:00:00", "RUN_DTG": "2025-10-10 09:28:14", "BASIN": "EP", "STMNR": 15, "CAT_ID": null, "CAT_DESC": null, "MSGID": "WTPZ25 KNHC 091437", "VALIDTIME": "2025-10-06 18:00:00" }, "geometry": { "type": "Point", "coordinates": [ -121.300003, 16.200001 ] } },
{ "type": "Feature", "properties": { "ID": 58415, "LAT": 15.9, "LON": -120.7, "VMAX": 45.0, "MSLP": 998.0, "RMAX": 20.0, "FSPD": 4.45283, "FDIR": 90.0, "RENV": 150.0, "PENV": 1009.0, "VALIDT": 0, "DTG": "2025-10-07 00:00", "LATNOW": 17.6, "LONNOW": -111.0, "WINDNOW": 30.0, "DIRNOW": 5.0, "SPDNOW": 0.0, "TECH": "TRAK", "ADVNR": 38, "ATCFID": "EP152025", "NAME": "OCTAVE", "FTECH": "OFCL", "FCST_DTG": "2025-10-09 12:00:00", "RUN_DTG": "2025-10-10 09:28:14", "BASIN": "EP", "STMNR": 15, "CAT_ID": null, "CAT_DESC": null, "MSGID": "WTPZ25 KNHC 091437", "VALIDTIME": "2025-10-07 00:00:00" }, "geometry": { "type": "Point", "coordinates": [ -120.699997, 15.9 ] } },
{ "type": "Feature", "properties": { "ID": 58416, "LAT": 15.9, "LON": -119.8, "VMAX": 45.0, "MSLP": 998.0, "RMAX": 20.0, "FSPD": 2.2314, "FDIR": 117.4577, "RENV": 150.0, "PENV": 1009.0, "VALIDT": 0, "DTG": "2025-10-07 06:00", "LATNOW": 17.6, "LONNOW": -111.0, "WINDNOW": 30.0, "DIRNOW": 5.0, "SPDNOW": 0.0, "TECH": "TRAK", "ADVNR": 38, "ATCFID": "EP152025", "NAME": "OCTAVE", "FTECH": "OFCL", "FCST_DTG": "2025-10-09 12:00:00", "RUN_DTG": "2025-10-10 09:28:14", "BASIN": "EP", "STMNR": 15, "CAT_ID": null, "CAT_DESC": null, "MSGID": "WTPZ25 KNHC 091437", "VALIDTIME": "2025-10-07 06:00:00" }, "geometry": { "type": "Point", "coordinates": [ -119.800003, 15.9 ] } },
{ "type": "Feature", "properties": { "ID": 58417, "LAT": 15.7, "LON": -119.4, "VMAX": 45.0, "MSLP": 998.0, "RMAX": 20.0, "FSPD": 1.42853, "FDIR": 136.07425, "RENV": 150.0, "PENV": 1008.0, "VALIDT": 0, "DTG": "2025-10-07 12:00", "LATNOW": 17.6, "LONNOW": -111.0, "WINDNOW": 30.0, "DIRNOW": 5.0, "SPDNOW": 0.0, "TECH": "TRAK", "ADVNR": 38, "ATCFID": "EP152025", "NAME": "OCTAVE", "FTECH": "OFCL", "FCST_DTG": "2025-10-09 12:00:00", "RUN_DTG": "2025-10-10 09:28:14", "BASIN": "EP", "STMNR": 15, "CAT_ID": null, "CAT_DESC": null, "MSGID": "WTPZ25 KNHC 091437", "VALIDTIME": "2025-10-07 12:00:00" }, "geometry": { "type": "Point", "coordinates": [ -119.400002, 15.7 ] } },
{ "type": "Feature", "properties": { "ID": 58418, "LAT": 15.5, "LON": -119.2, "VMAX": 40.0, "MSLP": 1000.0, "RMAX": 25.0, "FSPD": 3.62105, "FDIR": 106.50745, "RENV": 100.0, "PENV": 1008.0, "VALIDT": 0, "DTG": "2025-10-07 18:00", "LATNOW": 17.6, "LONNOW": -111.0, "WINDNOW": 30.0, "DIRNOW": 5.0, "SPDNOW": 0.0, "TECH": "TRAK", "ADVNR": 38, "ATCFID": "EP152025", "NAME": "OCTAVE", "FTECH": "OFCL", "FCST_DTG": "2025-10-09 12:00:00", "RUN_DTG": "2025-10-10 09:28:14", "BASIN": "EP", "STMNR": 15, "CAT_ID": null, "CAT_DESC": null, "MSGID": "WTPZ25 KNHC 091437", "VALIDTIME": "2025-10-07 18:00:00" }, "geometry": { "type": "Point", "coordinates": [ -119.199997, 15.5 ] } },
{ "type": "Feature", "properties": { "ID": 58419, "LAT": 15.3, "LON": -118.5, "VMAX": 40.0, "MSLP": 1000.0, "RMAX": 30.0, "FSPD": 3.62423, "FDIR": 106.49252, "RENV": 100.0, "PENV": 1008.0, "VALIDT": 0, "DTG": "2025-10-08 00:00", "LATNOW": 17.6, "LONNOW": -111.0, "WINDNOW": 30.0, "DIRNOW": 5.0, "SPDNOW": 0.0, "TECH": "TRAK", "ADVNR": 38, "ATCFID": "EP152025", "NAME": "OCTAVE", "FTECH": "OFCL", "FCST_DTG": "2025-10-09 12:00:00", "RUN_DTG": "2025-10-10 09:28:14", "BASIN": "EP", "STMNR": 15, "CAT_ID": null, "CAT_DESC": null, "MSGID": "WTPZ25 KNHC 091437", "VALIDTIME": "2025-10-08 00:00:00" }, "geometry": { "type": "Point", "coordinates": [ -118.5, 15.3 ] } },
{ "type": "Feature", "properties": { "ID": 58420, "LAT": 15.1, "LON": -117.8, "VMAX": 35.0, "MSLP": 1003.0, "RMAX": 30.0, "FSPD": 4.99223, "FDIR": 84.08527, "RENV": 100.0, "PENV": 1009.0, "VALIDT": 0, "DTG": "2025-10-08 06:00", "LATNOW": 17.6, "LONNOW": -111.0, "WINDNOW": 30.0, "DIRNOW": 5.0, "SPDNOW": 0.0, "TECH": "TRAK", "ADVNR": 38, "ATCFID": "EP152025", "NAME": "OCTAVE", "FTECH": "OFCL", "FCST_DTG": "2025-10-09 12:00:00", "RUN_DTG": "2025-10-10 09:28:14", "BASIN": "EP", "STMNR": 15, "CAT_ID": null, "CAT_DESC": null, "MSGID": "WTPZ25 KNHC 091437", "VALIDTIME": "2025-10-08 06:00:00" }, "geometry": { "type": "Point", "coordinates": [ -117.800003, 15.1 ] } },
{ "type": "Feature", "properties": { "ID": 58421, "LAT": 15.2, "LON": -116.8, "VMAX": 35.0, "MSLP": 1003.0, "RMAX": 30.0, "FSPD": 5.19545, "FDIR": 72.71918, "RENV": 100.0, "PENV": 1008.0, "VALIDT": 0, "DTG": "2025-10-08 12:00", "LATNOW": 17.6, "LONNOW": -111.0, "WINDNOW": 30.0, "DIRNOW": 5.0, "SPDNOW": 0.0, "TECH": "TRAK", "ADVNR": 38, "ATCFID": "EP152025", "NAME": "OCTAVE", "FTECH": "OFCL", "FCST_DTG": "2025-10-09 12:00:00", "RUN_DTG": "2025-10-10 09:28:14", "BASIN": "EP", "STMNR": 15, "CAT_ID": null, "CAT_DESC": null, "MSGID": "WTPZ25 KNHC 091437", "VALIDTIME": "2025-10-08 12:00:00" }, "geometry": { "type": "Point", "coordinates": [ -116.800003, 15.2 ] } },
{ "type": "Feature", "properties": { "ID": 58422, "LAT": 15.5, "LON": -115.8, "VMAX": 40.0, "MSLP": 1002.0, "RMAX": 20.0, "FSPD": 9.14896, "FDIR": 77.00189, "RENV": 100.0, "PENV": 1008.0, "VALIDT": 0, "DTG": "2025-10-08 18:00", "LATNOW": 17.6, "LONNOW": -111.0, "WINDNOW": 30.0, "DIRNOW": 5.0, "SPDNOW": 0.0, "TECH": "TRAK", "ADVNR": 38, "ATCFID": "EP152025", "NAME": "OCTAVE", "FTECH": "OFCL", "FCST_DTG": "2025-10-09 12:00:00", "RUN_DTG": "2025-10-10 09:28:14", "BASIN": "EP", "STMNR": 15, "CAT_ID": null, "CAT_DESC": null, "MSGID": "WTPZ25 KNHC 091437", "VALIDTIME": "2025-10-08 18:00:00" }, "geometry": { "type": "Point", "coordinates": [ -115.800003, 15.5 ] } },
{ "type": "Feature", "properties": { "ID": 58423, "LAT": 15.9, "LON": -114.0, "VMAX": 40.0, "MSLP": 1001.0, "RMAX": 20.0, "FSPD": 8.68412, "FDIR": 65.50095, "RENV": 70.0, "PENV": 1007.0, "VALIDT": 0, "DTG": "2025-10-09 00:00", "LATNOW": 17.6, "LONNOW": -111.0, "WINDNOW": 30.0, "DIRNOW": 5.0, "SPDNOW": 0.0, "TECH": "TRAK", "ADVNR": 38, "ATCFID": "EP152025", "NAME": "OCTAVE", "FTECH": "OFCL", "FCST_DTG": "2025-10-09 12:00:00", "RUN_DTG": "2025-10-10 09:28:14", "BASIN": "EP", "STMNR": 15, "CAT_ID": null, "CAT_DESC": null, "MSGID": "WTPZ25 KNHC 091437", "VALIDTIME": "2025-10-09 00:00:00" }, "geometry": { "type": "Point", "coordinates": [ -114.0, 15.9 ] } },
{ "type": "Feature", "properties": { "ID": 58424, "LAT": 16.6, "LON": -112.4, "VMAX": 35.0, "MSLP": 1004.0, "RMAX": 30.0, "FSPD": 8.59375, "FDIR": 53.22842, "RENV": 60.0, "PENV": 1009.0, "VALIDT": 0, "DTG": "2025-10-09 06:00", "LATNOW": 17.6, "LONNOW": -111.0, "WINDNOW": 30.0, "DIRNOW": 5.0, "SPDNOW": 0.0, "TECH": "TRAK", "ADVNR": 38, "ATCFID": "EP152025", "NAME": "OCTAVE", "FTECH": "OFCL", "FCST_DTG": "2025-10-09 12:00:00", "RUN_DTG": "2025-10-10 09:28:14", "BASIN": "EP", "STMNR": 15, "CAT_ID": null, "CAT_DESC": null, "MSGID": "WTPZ25 KNHC 091437", "VALIDTIME": "2025-10-09 06:00:00" }, "geometry": { "type": "Point", "coordinates": [ -112.400002, 16.6 ] } },
{ "type": "Feature", "properties": { "ID": 58425, "LAT": 17.6, "LON": -111.0, "VMAX": 30.0, "MSLP": 1006.0, "RMAX": 30.0, "FSPD": 5.00909, "FDIR": 78.14676, "RENV": 60.0, "PENV": 1009.0, "VALIDT": 0, "DTG": "2025-10-09 12:00", "LATNOW": 17.6, "LONNOW": -111.0, "WINDNOW": 30.0, "DIRNOW": 5.0, "SPDNOW": 0.0, "TECH": "TRAK", "ADVNR": 38, "ATCFID": "EP152025", "NAME": "OCTAVE", "FTECH": "OFCL", "FCST_DTG": "2025-10-09 12:00:00", "RUN_DTG": "2025-10-10 09:28:14", "BASIN": "EP", "STMNR": 15, "CAT_ID": null, "CAT_DESC": null, "MSGID": "WTPZ25 KNHC 091437", "VALIDTIME": "2025-10-09 12:00:00" }, "geometry": { "type": "Point", "coordinates": [ -111.0, 17.6 ] } },
{ "type": "Feature", "properties": { "ID": 58426, "LAT": 17.7, "LON": -110.5, "VMAX": 30.0, "MSLP": 1006.0, "RMAX": 30.0, "FSPD": 5.00909, "FDIR": 78.14676, "RENV": 250.0, "PENV": 1012.0, "VALIDT": 3, "DTG": "2025-10-09 15:00", "LATNOW": 17.6, "LONNOW": -111.0, "WINDNOW": 30.0, "DIRNOW": 5.0, "SPDNOW": 0.0, "TECH": "FCST", "ADVNR": 38, "ATCFID": "EP152025", "NAME": "OCTAVE", "FTECH": "OFCL", "FCST_DTG": "2025-10-09 12:00:00", "RUN_DTG": "2025-10-10 09:28:14", "BASIN": "EP", "STMNR": 15, "CAT_ID": null, "CAT_DESC": null, "MSGID": "WTPZ25 KNHC 091437", "VALIDTIME": "2025-10-09 15:00:00" }, "geometry": { "type": "Point", "coordinates": [ -110.5, 17.700001 ] } },
{ "type": "Feature", "properties": { "ID": 58425, "LAT": 17.6, "LON": -111.0, "VMAX": 30.0, "MSLP": 1006.0, "RMAX": 30.0, "FSPD": 5.00909, "FDIR": 78.14676, "RENV": 60.0, "PENV": 1009.0, "VALIDT": 0, "DTG": "2025-10-09 12:00", "LATNOW": 17.6, "LONNOW": -111.0, "WINDNOW": 30.0, "DIRNOW": 5.0, "SPDNOW": 0.0, "TECH": "TRAK", "ADVNR": 38, "ATCFID": "EP152025", "NAME": "OCTAVE", "FTECH": "OFCL", "FCST_DTG": "2025-10-09 12:00:00", "RUN_DTG": "2025-10-10 09:28:14", "BASIN": "EP", "STMNR": 15, "CAT_ID": null, "CAT_DESC": null, "MSGID": "WTPZ25 KNHC 091437", "VALIDTIME": "2025-10-09 12:00:00" }, "geometry": { "type": "LineString", "coordinates": [ [ -109.8, 10.4 ], [ -110.9, 10.4 ], [ -112.0, 10.3 ], [ -112.3, 9.3 ], [ -112.5, 9.1 ], [ -113.0, 9.3 ], [ -113.3, 9.5 ], [ -113.7, 9.9 ], [ -114.2, 10.5 ], [ -114.6, 10.9 ], [ -115.4, 11.4 ], [ -116.1, 11.8 ], [ -116.7, 12.1 ], [ -117.5, 12.0 ], [ -118.2, 12.4 ], [ -118.7, 12.6 ], [ -119.3, 12.8 ], [ -120.0, 13.1 ], [ -120.7, 13.3 ], [ -121.4, 13.5 ], [ -122.4, 13.6 ], [ -123.0, 14.0 ], [ -123.5, 14.4 ], [ -123.8, 14.7 ], [ -124.1, 15.2 ], [ -124.2, 15.5 ], [ -123.9, 15.6 ], [ -123.5, 15.9 ], [ -123.1, 16.2 ], [ -122.5, 16.3 ], [ -121.9, 16.3 ], [ -121.3, 16.2 ], [ -120.7, 15.9 ], [ -119.8, 15.9 ], [ -119.4, 15.7 ], [ -119.2, 15.5 ], [ -118.5, 15.3 ], [ -117.8, 15.1 ], [ -116.8, 15.2 ], [ -115.8, 15.5 ], [ -114.0, 15.9 ], [ -112.4, 16.6 ], [ -111.0, 17.6 ] ] } },
{ "type": "Feature", "properties": { "ID": 58426, "LAT": 17.7, "LON": -110.5, "VMAX": 30.0, "MSLP": 1006.0, "RMAX": 30.0, "FSPD": 5.00909, "FDIR": 78.14676, "RENV": 250.0, "PENV": 1012.0, "VALIDT": 3, "DTG": "2025-10-09 15:00", "LATNOW": 17.6, "LONNOW": -111.0, "WINDNOW": 30.0, "DIRNOW": 5.0, "SPDNOW": 0.0, "TECH": "FCST", "ADVNR": 38, "ATCFID": "EP152025", "NAME": "OCTAVE", "FTECH": "OFCL", "FCST_DTG": "2025-10-09 12:00:00", "RUN_DTG": "2025-10-10 09:28:14", "BASIN": "EP", "STMNR": 15, "CAT_ID": null, "CAT_DESC": null, "MSGID": "WTPZ25 KNHC 091437", "VALIDTIME": "2025-10-09 15:00:00" }, "geometry": { "type": "LineString", "coordinates": [ [ -111.0, 17.6 ], [ -110.5, 17.7 ] ] } }
]
}
