{
"type": "FeatureCollection",
"crs": { "type": "name", "properties": { "name": "urn:ogc:def:crs:OGC:1.3:CRS84" } },
"features": [
{ "type": "Feature", "properties": { "ID": 111837, "LAT": 12.2, "LON": -136.9, "VMAX": 30.0, "MSLP": 1004.0, "RMAX": 50.0, "FSPD": 2.98116, "FDIR": 30.36462, "RENV": 280.0, "PENV": 1008.0, "VALIDT": 0, "DTG": "2026-09-28 00:00", "LATNOW": 15.2, "LONNOW": -123.3, "WINDNOW": 25.0, "DIRNOW": 4.0, "SPDNOW": 6.0, "TECH": "TRAK", "ADVNR": 10, "ATCFID": "EP192026", "NAME": "NINETEEN", "FTECH": "OFCL", "FCST_DTG": "2026-10-01 18:00:00", "RUN_DTG": "2026-10-02 10:13:41", "BASIN": "EP", "STMNR": 19, "CAT_ID": null, "CAT_DESC": null, "MSGID": "WTPZ24 KNHC 012046", "VALIDTIME": "2026-09-28 00:00:00" }, "geometry": { "type": "Point", "coordinates": [ -136.899994, 12.2 ] } },
{ "type": "Feature", "properties": { "ID": 111838, "LAT": 12.7, "LON": -136.6, "VMAX": 30.0, "MSLP": 1005.0, "RMAX": 50.0, "FSPD": 9.31385, "FDIR": 6.16418, "RENV": 220.0, "PENV": 1009.0, "VALIDT": 0, "DTG": "2026-09-28 06:00", "LATNOW": 15.2, "LONNOW": -123.3, "WINDNOW": 25.0, "DIRNOW": 4.0, "SPDNOW": 6.0, "TECH": "TRAK", "ADVNR": 10, "ATCFID": "EP192026", "NAME": "NINETEEN", "FTECH": "OFCL", "FCST_DTG": "2026-10-01 18:00:00", "RUN_DTG": "2026-10-02 10:13:41", "BASIN": "EP", "STMNR": 19, "CAT_ID": null, "CAT_DESC": null, "MSGID": "WTPZ24 KNHC 012046", "VALIDTIME": "2026-09-28 06:00:00" }, "geometry": { "type": "Point", "coordinates": [ -136.600006, 12.7 ] } },
{ "type": "Feature", "properties": { "ID": 111839, "LAT": 14.5, "LON": -136.4, "VMAX": 30.0, "MSLP": 1005.0, "RMAX": 50.0, "FSPD": 8.304, "FDIR": 115.70001, "RENV": 230.0, "PENV": 1009.0, "VALIDT": 0, "DTG": "2026-09-28 12:00", "LATNOW": 15.2, "LONNOW": -123.3, "WINDNOW": 25.0, "DIRNOW": 4.0, "SPDNOW": 6.0, "TECH": "TRAK", "ADVNR": 10, "ATCFID": "EP192026", "NAME": "NINETEEN", "FTECH": "OFCL", "FCST_DTG": "2026-10-01 18:00:00", "RUN_DTG": "2026-10-02 10:13:41", "BASIN": "EP", "STMNR": 19, "CAT_ID": null, "CAT_DESC": null, "MSGID": "WTPZ24 KNHC 012046", "VALIDTIME": "2026-09-28 12:00:00" }, "geometry": { "type": "Point", "coordinates": [ -136.399994, 14.5 ] } },
{ "type": "Feature", "properties": { "ID": 111840, "LAT": 13.8, "LON": -134.9, "VMAX": 30.0, "MSLP": 1005.0, "RMAX": 50.0, "FSPD": 5.86704, "FDIR": 58.25751, "RENV": 230.0, "PENV": 1009.0, "VALIDT": 0, "DTG": "2026-09-28 18:00", "LATNOW": 15.2, "LONNOW": -123.3, "WINDNOW": 25.0, "DIRNOW": 4.0, "SPDNOW": 6.0, "TECH": "TRAK", "ADVNR": 10, "ATCFID": "EP192026", "NAME": "NINETEEN", "FTECH": "OFCL", "FCST_DTG": "2026-10-01 18:00:00", "RUN_DTG": "2026-10-02 10:13:41", "BASIN": "EP", "STMNR": 19, "CAT_ID": null, "CAT_DESC": null, "MSGID": "WTPZ24 KNHC 012046", "VALIDTIME": "2026-09-28 18:00:00" }, "geometry": { "type": "Point", "coordinates": [ -134.899994, 13.8 ] } },
{ "type": "Feature", "properties": { "ID": 111841, "LAT": 14.4, "LON": -133.9, "VMAX": 30.0, "MSLP": 1005.0, "RMAX": 60.0, "FSPD": 5.97937, "FDIR": 90.0, "RENV": 240.0, "PENV": 1008.0, "VALIDT": 0, "DTG": "2026-09-29 00:00", "LATNOW": 15.2, "LONNOW": -123.3, "WINDNOW": 25.0, "DIRNOW": 4.0, "SPDNOW": 6.0, "TECH": "TRAK", "ADVNR": 10, "ATCFID": "EP192026", "NAME": "NINETEEN", "FTECH": "OFCL", "FCST_DTG": "2026-10-01 18:00:00", "RUN_DTG": "2026-10-02 10:13:41", "BASIN": "EP", "STMNR": 19, "CAT_ID": null, "CAT_DESC": null, "MSGID": "WTPZ24 KNHC 012046", "VALIDTIME": "2026-09-29 00:00:00" }, "geometry": { "type": "Point", "coordinates": [ -133.899994, 14.4 ] } },
{ "type": "Feature", "properties": { "ID": 111842, "LAT": 14.4, "LON": -132.7, "VMAX": 30.0, "MSLP": 1005.0, "RMAX": 60.0, "FSPD": 3.03293, "FDIR": 80.23425, "RENV": 240.0, "PENV": 1008.0, "VALIDT": 0, "DTG": "2026-09-29 06:00", "LATNOW": 15.2, "LONNOW": -123.3, "WINDNOW": 25.0, "DIRNOW": 4.0, "SPDNOW": 6.0, "TECH": "TRAK", "ADVNR": 10, "ATCFID": "EP192026", "NAME": "NINETEEN", "FTECH": "OFCL", "FCST_DTG": "2026-10-01 18:00:00", "RUN_DTG": "2026-10-02 10:13:41", "BASIN": "EP", "STMNR": 19, "CAT_ID": null, "CAT_DESC": null, "MSGID": "WTPZ24 KNHC 012046", "VALIDTIME": "2026-09-29 06:00:00" }, "geometry": { "type": "Point", "coordinates": [ -132.699997, 14.4 ] } },
{ "type": "Feature", "properties": { "ID": 111843, "LAT": 14.5, "LON": -132.1, "VMAX": 30.0, "MSLP": 1004.0, "RMAX": 50.0, "FSPD": 4.6011, "FDIR": 102.92157, "RENV": 240.0, "PENV": 1008.0, "VALIDT": 0, "DTG": "2026-09-29 12:00", "LATNOW": 15.2, "LONNOW": -123.3, "WINDNOW": 25.0, "DIRNOW": 4.0, "SPDNOW": 6.0, "TECH": "TRAK", "ADVNR": 10, "ATCFID": "EP192026", "NAME": "NINETEEN", "FTECH": "OFCL", "FCST_DTG": "2026-10-01 18:00:00", "RUN_DTG": "2026-10-02 10:13:41", "BASIN": "EP", "STMNR": 19, "CAT_ID": null, "CAT_DESC": null, "MSGID": "WTPZ24 KNHC 012046", "VALIDTIME": "2026-09-29 12:00:00" }, "geometry": { "type": "Point", "coordinates": [ -132.100006, 14.5 ] } },
{ "type": "Feature", "properties": { "ID": 111844, "LAT": 14.3, "LON": -131.2, "VMAX": 30.0, "MSLP": 1005.0, "RMAX": 50.0, "FSPD": 3.63267, "FDIR": 124.50409, "RENV": 180.0, "PENV": 1010.0, "VALIDT": 0, "DTG": "2026-09-29 18:00", "LATNOW": 15.2, "LONNOW": -123.3, "WINDNOW": 25.0, "DIRNOW": 4.0, "SPDNOW": 6.0, "TECH": "TRAK", "ADVNR": 10, "ATCFID": "EP192026", "NAME": "NINETEEN", "FTECH": "OFCL", "FCST_DTG": "2026-10-01 18:00:00", "RUN_DTG": "2026-10-02 10:13:41", "BASIN": "EP", "STMNR": 19, "CAT_ID": null, "CAT_DESC": null, "MSGID": "WTPZ24 KNHC 012046", "VALIDTIME": "2026-09-29 18:00:00" }, "geometry": { "type": "Point", "coordinates": [ -131.199997, 14.3 ] } },
{ "type": "Feature", "properties": { "ID": 111845, "LAT": 13.9, "LON": -130.6, "VMAX": 25.0, "MSLP": 1006.0, "RMAX": 50.0, "FSPD": 4.02889, "FDIR": 97.33597, "RENV": 200.0, "PENV": 1008.0, "VALIDT": 0, "DTG": "2026-09-30 00:00", "LATNOW": 15.2, "LONNOW": -123.3, "WINDNOW": 25.0, "DIRNOW": 4.0, "SPDNOW": 6.0, "TECH": "TRAK", "ADVNR": 10, "ATCFID": "EP192026", "NAME": "NINETEEN", "FTECH": "OFCL", "FCST_DTG": "2026-10-01 18:00:00", "RUN_DTG": "2026-10-02 10:13:41", "BASIN": "EP", "STMNR": 19, "CAT_ID": null, "CAT_DESC": null, "MSGID": "WTPZ24 KNHC 012046", "VALIDTIME": "2026-09-30 00:00:00" }, "geometry": { "type": "Point", "coordinates": [ -130.600006, 13.9 ] } },
{ "type": "Feature", "properties": { "ID": 111846, "LAT": 13.8, "LON": -129.8, "VMAX": 25.0, "MSLP": 1006.0, "RMAX": 50.0, "FSPD": 5.39915, "FDIR": 67.59634, "RENV": 200.0, "PENV": 1008.0, "VALIDT": 0, "DTG": "2026-09-30 06:00", "LATNOW": 15.2, "LONNOW": -123.3, "WINDNOW": 25.0, "DIRNOW": 4.0, "SPDNOW": 6.0, "TECH": "TRAK", "ADVNR": 10, "ATCFID": "EP192026", "NAME": "NINETEEN", "FTECH": "OFCL", "FCST_DTG": "2026-10-01 18:00:00", "RUN_DTG": "2026-10-02 10:13:41", "BASIN": "EP", "STMNR": 19, "CAT_ID": null, "CAT_DESC": null, "MSGID": "WTPZ24 KNHC 012046", "VALIDTIME": "2026-09-30 06:00:00" }, "geometry": { "type": "Point", "coordinates": [ -129.800003, 13.8 ] } },
{ "type": "Feature", "properties": { "ID": 111847, "LAT": 14.2, "LON": -128.8, "VMAX": 30.0, "MSLP": 1002.0, "RMAX": 50.0, "FSPD": 6.72672, "FDIR": 62.68597, "RENV": 180.0, "PENV": 1007.0, "VALIDT": 0, "DTG": "2026-09-30 12:00", "LATNOW": 15.2, "LONNOW": -123.3, "WINDNOW": 25.0, "DIRNOW": 4.0, "SPDNOW": 6.0, "TECH": "TRAK", "ADVNR": 10, "ATCFID": "EP192026", "NAME": "NINETEEN", "FTECH": "OFCL", "FCST_DTG": "2026-10-01 18:00:00", "RUN_DTG": "2026-10-02 10:13:41", "BASIN": "EP", "STMNR": 19, "CAT_ID": null, "CAT_DESC": null, "MSGID": "WTPZ24 KNHC 012046", "VALIDTIME": "2026-09-30 12:00:00" }, "geometry": { "type": "Point", "coordinates": [ -128.800003, 14.2 ] } },
{ "type": "Feature", "properties": { "ID": 111848, "LAT": 14.8, "LON": -127.6, "VMAX": 25.0, "MSLP": 1005.0, "RMAX": 50.0, "FSPD": 5.68099, "FDIR": 74.23654, "RENV": 180.0, "PENV": 1007.0, "VALIDT": 0, "DTG": "2026-09-30 18:00", "LATNOW": 15.2, "LONNOW": -123.3, "WINDNOW": 25.0, "DIRNOW": 4.0, "SPDNOW": 6.0, "TECH": "TRAK", "ADVNR": 10, "ATCFID": "EP192026", "NAME": "NINETEEN", "FTECH": "OFCL", "FCST_DTG": "2026-10-01 18:00:00", "RUN_DTG": "2026-10-02 10:13:41", "BASIN": "EP", "STMNR": 19, "CAT_ID": null, "CAT_DESC": null, "MSGID": "WTPZ24 KNHC 012046", "VALIDTIME": "2026-09-30 18:00:00" }, "geometry": { "type": "Point", "coordinates": [ -127.599998, 14.8 ] } },
{ "type": "Feature", "properties": { "ID": 111849, "LAT": 15.1, "LON": -126.5, "VMAX": 25.0, "MSLP": 1006.0, "RMAX": 50.0, "FSPD": 6.53533, "FDIR": 80.94196, "RENV": 180.0, "PENV": 1008.0, "VALIDT": 0, "DTG": "2026-10-01 00:00", "LATNOW": 15.2, "LONNOW": -123.3, "WINDNOW": 25.0, "DIRNOW": 4.0, "SPDNOW": 6.0, "TECH": "TRAK", "ADVNR": 10, "ATCFID": "EP192026", "NAME": "NINETEEN", "FTECH": "OFCL", "FCST_DTG": "2026-10-01 18:00:00", "RUN_DTG": "2026-10-02 10:13:41", "BASIN": "EP", "STMNR": 19, "CAT_ID": null, "CAT_DESC": null, "MSGID": "WTPZ24 KNHC 012046", "VALIDTIME": "2026-10-01 00:00:00" }, "geometry": { "type": "Point", "coordinates": [ -126.5, 15.1 ] } },
{ "type": "Feature", "properties": { "ID": 111850, "LAT": 15.3, "LON": -125.2, "VMAX": 25.0, "MSLP": 1006.0, "RMAX": 60.0, "FSPD": 5.97811, "FDIR": 94.93665, "RENV": 180.0, "PENV": 1008.0, "VALIDT": 0, "DTG": "2026-10-01 06:00", "LATNOW": 15.2, "LONNOW": -123.3, "WINDNOW": 25.0, "DIRNOW": 4.0, "SPDNOW": 6.0, "TECH": "TRAK", "ADVNR": 10, "ATCFID": "EP192026", "NAME": "NINETEEN", "FTECH": "OFCL", "FCST_DTG": "2026-10-01 18:00:00", "RUN_DTG": "2026-10-02 10:13:41", "BASIN": "EP", "STMNR": 19, "CAT_ID": null, "CAT_DESC": null, "MSGID": "WTPZ24 KNHC 012046", "VALIDTIME": "2026-10-01 06:00:00" }, "geometry": { "type": "Point", "coordinates": [ -125.199997, 15.3 ] } },
{ "type": "Feature", "properties": { "ID": 111851, "LAT": 15.2, "LON": -124.0, "VMAX": 25.0, "MSLP": 1006.0, "RMAX": 60.0, "FSPD": 3.47512, "FDIR": 90.0, "RENV": 180.0, "PENV": 1008.0, "VALIDT": 0, "DTG": "2026-10-01 12:00", "LATNOW": 15.2, "LONNOW": -123.3, "WINDNOW": 25.0, "DIRNOW": 4.0, "SPDNOW": 6.0, "TECH": "TRAK", "ADVNR": 10, "ATCFID": "EP192026", "NAME": "NINETEEN", "FTECH": "OFCL", "FCST_DTG": "2026-10-01 18:00:00", "RUN_DTG": "2026-10-02 10:13:41", "BASIN": "EP", "STMNR": 19, "CAT_ID": null, "CAT_DESC": null, "MSGID": "WTPZ24 KNHC 012046", "VALIDTIME": "2026-10-01 12:00:00" }, "geometry": { "type": "Point", "coordinates": [ -124.0, 15.2 ] } },
{ "type": "Feature", "properties": { "ID": 111852, "LAT": 15.2, "LON": -123.3, "VMAX": 25.0, "MSLP": 1006.0, "RMAX": 60.0, "FSPD": 3.62154, "FDIR": 124.62506, "RENV": 120.0, "PENV": 1009.0, "VALIDT": 0, "DTG": "2026-10-01 18:00", "LATNOW": 15.2, "LONNOW": -123.3, "WINDNOW": 25.0, "DIRNOW": 4.0, "SPDNOW": 6.0, "TECH": "TRAK", "ADVNR": 10, "ATCFID": "EP192026", "NAME": "NINETEEN", "FTECH": "OFCL", "FCST_DTG": "2026-10-01 18:00:00", "RUN_DTG": "2026-10-02 10:13:41", "BASIN": "EP", "STMNR": 19, "CAT_ID": null, "CAT_DESC": null, "MSGID": "WTPZ24 KNHC 012046", "VALIDTIME": "2026-10-01 18:00:00" }, "geometry": { "type": "Point", "coordinates": [ -123.300003, 15.2 ] } },
{ "type": "Feature", "properties": { "ID": 111853, "LAT": 15.0, "LON": -123.0, "VMAX": 25.0, "MSLP": 1006.0, "RMAX": 60.0, "FSPD": 3.62154, "FDIR": 124.62506, "RENV": 250.0, "PENV": 1012.0, "VALIDT": 3, "DTG": "2026-10-01 21:00", "LATNOW": 15.2, "LONNOW": -123.3, "WINDNOW": 25.0, "DIRNOW": 4.0, "SPDNOW": 6.0, "TECH": "FCST", "ADVNR": 10, "ATCFID": "EP192026", "NAME": "NINETEEN", "FTECH": "OFCL", "FCST_DTG": "2026-10-01 18:00:00", "RUN_DTG": "2026-10-02 10:13:41", "BASIN": "EP", "STMNR": 19, "CAT_ID": null, "CAT_DESC": null, "MSGID": "WTPZ24 KNHC 012046", "VALIDTIME": "2026-10-01 21:00:00" }, "geometry": { "type": "Point", "coordinates": [ -123.0, 15.0 ] } },
{ "type": "Feature", "properties": { "ID": 111852, "LAT": 15.2, "LON": -123.3, "VMAX": 25.0, "MSLP": 1006.0, "RMAX": 60.0, "FSPD": 3.62154, "FDIR": 124.62506, "RENV": 120.0, "PENV": 1009.0, "VALIDT": 0, "DTG": "2026-10-01 18:00", "LATNOW": 15.2, "LONNOW": -123.3, "WINDNOW": 25.0, "DIRNOW": 4.0, "SPDNOW": 6.0, "TECH": "TRAK", "ADVNR": 10, "ATCFID": "EP192026", "NAME": "NINETEEN", "FTECH": "OFCL", "FCST_DTG": "2026-10-01 18:00:00", "RUN_DTG": "2026-10-02 10:13:41", "BASIN": "EP", "STMNR": 19, "CAT_ID": null, "CAT_DESC": null, "MSGID": "WTPZ24 KNHC 012046", "VALIDTIME": "2026-10-01 18:00:00" }, "geometry": { "type": "LineString", "coordinates": [ [ -136.9, 12.2 ], [ -136.6, 12.7 ], [ -136.4, 14.5 ], [ -134.9, 13.8 ], [ -133.9, 14.4 ], [ -132.7, 14.4 ], [ -132.1, 14.5 ], [ -131.2, 14.3 ], [ -130.6, 13.9 ], [ -129.8, 13.8 ], [ -128.8, 14.2 ], [ -127.6, 14.8 ], [ -126.5, 15.1 ], [ -125.2, 15.3 ], [ -124.0, 15.2 ], [ -123.3, 15.2 ] ] } },
{ "type": "Feature", "properties": { "ID": 111853, "LAT": 15.0, "LON": -123.0, "VMAX": 25.0, "MSLP": 1006.0, "RMAX": 60.0, "FSPD": 3.62154, "FDIR": 124.62506, "RENV": 250.0, "PENV": 1012.0, "VALIDT": 3, "DTG": "2026-10-01 21:00", "LATNOW": 15.2, "LONNOW": -123.3, "WINDNOW": 25.0, "DIRNOW": 4.0, "SPDNOW": 6.0, "TECH": "FCST", "ADVNR": 10, "ATCFID": "EP192026", "NAME": "NINETEEN", "FTECH": "OFCL", "FCST_DTG": "2026-10-01 18:00:00", "RUN_DTG": "2026-10-02 10:13:41", "BASIN": "EP", "STMNR": 19, "CAT_ID": null, "CAT_DESC": null, "MSGID": "WTPZ24 KNHC 012046", "VALIDTIME": "2026-10-01 21:00:00" }, "geometry": { "type": "LineString", "coordinates": [ [ -123.3, 15.2 ], [ -123.0, 15.0 ] ] } }
]
}
