{
"type": "FeatureCollection",
"crs": { "type": "name", "properties": { "name": "urn:ogc:def:crs:OGC:1.3:CRS84" } },
"features": [
{ "type": "Feature", "properties": { "ID": 263998, "LAT": 13.6, "LON": -95.6, "VMAX": 25.0, "MSLP": 1007.0, "RMAX": 30.0, "FSPD": 1.14386, "FDIR": 25.90897, "RENV": 100.0, "PENV": 1010.0, "VALIDT": 0, "DTG": "2024-09-30 18:00", "LATNOW": 15.4, "LONNOW": -94.6, "WINDNOW": 35.0, "DIRNOW": 3.0, "SPDNOW": 2.0, "TECH": "TRAK", "ADVNR": 9, "ATCFID": "EP112024", "NAME": "ELEVEN", "FTECH": "OFCL", "FCST_DTG": "2024-10-03 18:00:00", "RUN_DTG": "2024-10-04 09:35:10", "BASIN": "EP", "STMNR": 11, "CAT_ID": null, "CAT_DESC": null, "MSGID": "WTPZ21 KNHC 032039", "VALIDTIME": "2024-09-30 18:00:00" }, "geometry": { "type": "Point", "coordinates": [ -95.599998, 13.6 ] } },
{ "type": "Feature", "properties": { "ID": 263999, "LAT": 13.8, "LON": -95.5, "VMAX": 25.0, "MSLP": 1007.0, "RMAX": 30.0, "FSPD": 0.49959, "FDIR": 90.0, "RENV": 100.0, "PENV": 1010.0, "VALIDT": 0, "DTG": "2024-10-01 00:00", "LATNOW": 15.4, "LONNOW": -94.6, "WINDNOW": 35.0, "DIRNOW": 3.0, "SPDNOW": 2.0, "TECH": "TRAK", "ADVNR": 9, "ATCFID": "EP112024", "NAME": "ELEVEN", "FTECH": "OFCL", "FCST_DTG": "2024-10-03 18:00:00", "RUN_DTG": "2024-10-04 09:35:10", "BASIN": "EP", "STMNR": 11, "CAT_ID": null, "CAT_DESC": null, "MSGID": "WTPZ21 KNHC 032039", "VALIDTIME": "2024-10-01 00:00:00" }, "geometry": { "type": "Point", "coordinates": [ -95.5, 13.8 ] } },
{ "type": "Feature", "properties": { "ID": 264000, "LAT": 13.8, "LON": -95.4, "VMAX": 25.0, "MSLP": 1007.0, "RMAX": 30.0, "FSPD": 4.38052, "FDIR": 34.707, "RENV": 100.0, "PENV": 1009.0, "VALIDT": 0, "DTG": "2024-10-01 06:00", "LATNOW": 15.4, "LONNOW": -94.6, "WINDNOW": 35.0, "DIRNOW": 3.0, "SPDNOW": 2.0, "TECH": "TRAK", "ADVNR": 9, "ATCFID": "EP112024", "NAME": "ELEVEN", "FTECH": "OFCL", "FCST_DTG": "2024-10-03 18:00:00", "RUN_DTG": "2024-10-04 09:35:10", "BASIN": "EP", "STMNR": 11, "CAT_ID": null, "CAT_DESC": null, "MSGID": "WTPZ21 KNHC 032039", "VALIDTIME": "2024-10-01 06:00:00" }, "geometry": { "type": "Point", "coordinates": [ -95.400002, 13.8 ] } },
{ "type": "Feature", "properties": { "ID": 264001, "LAT": 14.5, "LON": -94.9, "VMAX": 25.0, "MSLP": 1007.0, "RMAX": 30.0, "FSPD": 2.54224, "FDIR": 35.95935, "RENV": 100.0, "PENV": 1009.0, "VALIDT": 0, "DTG": "2024-10-01 12:00", "LATNOW": 15.4, "LONNOW": -94.6, "WINDNOW": 35.0, "DIRNOW": 3.0, "SPDNOW": 2.0, "TECH": "TRAK", "ADVNR": 9, "ATCFID": "EP112024", "NAME": "ELEVEN", "FTECH": "OFCL", "FCST_DTG": "2024-10-03 18:00:00", "RUN_DTG": "2024-10-04 09:35:10", "BASIN": "EP", "STMNR": 11, "CAT_ID": null, "CAT_DESC": null, "MSGID": "WTPZ21 KNHC 032039", "VALIDTIME": "2024-10-01 12:00:00" }, "geometry": { "type": "Point", "coordinates": [ -94.900002, 14.5 ] } },
{ "type": "Feature", "properties": { "ID": 264002, "LAT": 14.9, "LON": -94.6, "VMAX": 30.0, "MSLP": 1006.0, "RMAX": 25.0, "FSPD": 2.57222, "FDIR": 360.0, "RENV": 100.0, "PENV": 1009.0, "VALIDT": 0, "DTG": "2024-10-01 18:00", "LATNOW": 15.4, "LONNOW": -94.6, "WINDNOW": 35.0, "DIRNOW": 3.0, "SPDNOW": 2.0, "TECH": "TRAK", "ADVNR": 9, "ATCFID": "EP112024", "NAME": "ELEVEN", "FTECH": "OFCL", "FCST_DTG": "2024-10-03 18:00:00", "RUN_DTG": "2024-10-04 09:35:10", "BASIN": "EP", "STMNR": 11, "CAT_ID": null, "CAT_DESC": null, "MSGID": "WTPZ21 KNHC 032039", "VALIDTIME": "2024-10-01 18:00:00" }, "geometry": { "type": "Point", "coordinates": [ -94.599998, 14.9 ] } },
{ "type": "Feature", "properties": { "ID": 264003, "LAT": 15.4, "LON": -94.6, "VMAX": 30.0, "MSLP": 1006.0, "RMAX": 25.0, "FSPD": 4.49438, "FDIR": 263.4273, "RENV": 100.0, "PENV": 1009.0, "VALIDT": 0, "DTG": "2024-10-02 00:00", "LATNOW": 15.4, "LONNOW": -94.6, "WINDNOW": 35.0, "DIRNOW": 3.0, "SPDNOW": 2.0, "TECH": "TRAK", "ADVNR": 9, "ATCFID": "EP112024", "NAME": "ELEVEN", "FTECH": "OFCL", "FCST_DTG": "2024-10-03 18:00:00", "RUN_DTG": "2024-10-04 09:35:10", "BASIN": "EP", "STMNR": 11, "CAT_ID": null, "CAT_DESC": null, "MSGID": "WTPZ21 KNHC 032039", "VALIDTIME": "2024-10-02 00:00:00" }, "geometry": { "type": "Point", "coordinates": [ -94.599998, 15.4 ] } },
{ "type": "Feature", "properties": { "ID": 264004, "LAT": 15.3, "LON": -95.5, "VMAX": 30.0, "MSLP": 1006.0, "RMAX": 25.0, "FSPD": 1.42983, "FDIR": 223.97961, "RENV": 100.0, "PENV": 1009.0, "VALIDT": 0, "DTG": "2024-10-02 06:00", "LATNOW": 15.4, "LONNOW": -94.6, "WINDNOW": 35.0, "DIRNOW": 3.0, "SPDNOW": 2.0, "TECH": "TRAK", "ADVNR": 9, "ATCFID": "EP112024", "NAME": "ELEVEN", "FTECH": "OFCL", "FCST_DTG": "2024-10-03 18:00:00", "RUN_DTG": "2024-10-04 09:35:10", "BASIN": "EP", "STMNR": 11, "CAT_ID": null, "CAT_DESC": null, "MSGID": "WTPZ21 KNHC 032039", "VALIDTIME": "2024-10-02 06:00:00" }, "geometry": { "type": "Point", "coordinates": [ -95.5, 15.3 ] } },
{ "type": "Feature", "properties": { "ID": 264005, "LAT": 15.1, "LON": -95.7, "VMAX": 30.0, "MSLP": 1005.0, "RMAX": 25.0, "FSPD": 5.39175, "FDIR": 220.24333, "RENV": 100.0, "PENV": 1009.0, "VALIDT": 0, "DTG": "2024-10-02 12:00", "LATNOW": 15.4, "LONNOW": -94.6, "WINDNOW": 35.0, "DIRNOW": 3.0, "SPDNOW": 2.0, "TECH": "TRAK", "ADVNR": 9, "ATCFID": "EP112024", "NAME": "ELEVEN", "FTECH": "OFCL", "FCST_DTG": "2024-10-03 18:00:00", "RUN_DTG": "2024-10-04 09:35:10", "BASIN": "EP", "STMNR": 11, "CAT_ID": null, "CAT_DESC": null, "MSGID": "WTPZ21 KNHC 032039", "VALIDTIME": "2024-10-02 12:00:00" }, "geometry": { "type": "Point", "coordinates": [ -95.699997, 15.1 ] } },
{ "type": "Feature", "properties": { "ID": 264006, "LAT": 14.3, "LON": -96.4, "VMAX": 30.0, "MSLP": 1004.0, "RMAX": 25.0, "FSPD": 1.81579, "FDIR": 235.48412, "RENV": 100.0, "PENV": 1008.0, "VALIDT": 0, "DTG": "2024-10-02 18:00", "LATNOW": 15.4, "LONNOW": -94.6, "WINDNOW": 35.0, "DIRNOW": 3.0, "SPDNOW": 2.0, "TECH": "TRAK", "ADVNR": 9, "ATCFID": "EP112024", "NAME": "ELEVEN", "FTECH": "OFCL", "FCST_DTG": "2024-10-03 18:00:00", "RUN_DTG": "2024-10-04 09:35:10", "BASIN": "EP", "STMNR": 11, "CAT_ID": null, "CAT_DESC": null, "MSGID": "WTPZ21 KNHC 032039", "VALIDTIME": "2024-10-02 18:00:00" }, "geometry": { "type": "Point", "coordinates": [ -96.400002, 14.3 ] } },
{ "type": "Feature", "properties": { "ID": 264007, "LAT": 14.1, "LON": -96.7, "VMAX": 30.0, "MSLP": 1004.0, "RMAX": 25.0, "FSPD": 2.93212, "FDIR": 58.2406, "RENV": 100.0, "PENV": 1008.0, "VALIDT": 0, "DTG": "2024-10-03 00:00", "LATNOW": 15.4, "LONNOW": -94.6, "WINDNOW": 35.0, "DIRNOW": 3.0, "SPDNOW": 2.0, "TECH": "TRAK", "ADVNR": 9, "ATCFID": "EP112024", "NAME": "ELEVEN", "FTECH": "OFCL", "FCST_DTG": "2024-10-03 18:00:00", "RUN_DTG": "2024-10-04 09:35:10", "BASIN": "EP", "STMNR": 11, "CAT_ID": null, "CAT_DESC": null, "MSGID": "WTPZ21 KNHC 032039", "VALIDTIME": "2024-10-03 00:00:00" }, "geometry": { "type": "Point", "coordinates": [ -96.699997, 14.1 ] } },
{ "type": "Feature", "properties": { "ID": 264008, "LAT": 14.4, "LON": -96.2, "VMAX": 30.0, "MSLP": 1004.0, "RMAX": 25.0, "FSPD": 3.96457, "FDIR": 38.87076, "RENV": 100.0, "PENV": 1008.0, "VALIDT": 0, "DTG": "2024-10-03 06:00", "LATNOW": 15.4, "LONNOW": -94.6, "WINDNOW": 35.0, "DIRNOW": 3.0, "SPDNOW": 2.0, "TECH": "TRAK", "ADVNR": 9, "ATCFID": "EP112024", "NAME": "ELEVEN", "FTECH": "OFCL", "FCST_DTG": "2024-10-03 18:00:00", "RUN_DTG": "2024-10-04 09:35:10", "BASIN": "EP", "STMNR": 11, "CAT_ID": null, "CAT_DESC": null, "MSGID": "WTPZ21 KNHC 032039", "VALIDTIME": "2024-10-03 06:00:00" }, "geometry": { "type": "Point", "coordinates": [ -96.199997, 14.4 ] } },
{ "type": "Feature", "properties": { "ID": 264009, "LAT": 15.0, "LON": -95.7, "VMAX": 30.0, "MSLP": 1004.0, "RMAX": 25.0, "FSPD": 5.83575, "FDIR": 69.35263, "RENV": 100.0, "PENV": 1008.0, "VALIDT": 0, "DTG": "2024-10-03 12:00", "LATNOW": 15.4, "LONNOW": -94.6, "WINDNOW": 35.0, "DIRNOW": 3.0, "SPDNOW": 2.0, "TECH": "TRAK", "ADVNR": 9, "ATCFID": "EP112024", "NAME": "ELEVEN", "FTECH": "OFCL", "FCST_DTG": "2024-10-03 18:00:00", "RUN_DTG": "2024-10-04 09:35:10", "BASIN": "EP", "STMNR": 11, "CAT_ID": null, "CAT_DESC": null, "MSGID": "WTPZ21 KNHC 032039", "VALIDTIME": "2024-10-03 12:00:00" }, "geometry": { "type": "Point", "coordinates": [ -95.699997, 15.0 ] } },
{ "type": "Feature", "properties": { "ID": 264010, "LAT": 15.4, "LON": -94.6, "VMAX": 35.0, "MSLP": 1006.0, "RMAX": 50.0, "FSPD": 3.08667, "FDIR": 360.0, "RENV": 100.0, "PENV": 1008.0, "VALIDT": 0, "DTG": "2024-10-03 18:00", "LATNOW": 15.4, "LONNOW": -94.6, "WINDNOW": 35.0, "DIRNOW": 3.0, "SPDNOW": 2.0, "TECH": "TRAK", "ADVNR": 9, "ATCFID": "EP112024", "NAME": "ELEVEN", "FTECH": "OFCL", "FCST_DTG": "2024-10-03 18:00:00", "RUN_DTG": "2024-10-04 09:35:10", "BASIN": "EP", "STMNR": 11, "CAT_ID": null, "CAT_DESC": null, "MSGID": "WTPZ21 KNHC 032039", "VALIDTIME": "2024-10-03 18:00:00" }, "geometry": { "type": "Point", "coordinates": [ -94.599998, 15.4 ] } },
{ "type": "Feature", "properties": { "ID": 264011, "LAT": 15.7, "LON": -94.6, "VMAX": 35.0, "MSLP": 1006.0, "RMAX": 50.0, "FSPD": 2.76344, "FDIR": 6.85114, "RENV": 300.0, "PENV": 1012.0, "VALIDT": 3, "DTG": "2024-10-03 21:00", "LATNOW": 15.4, "LONNOW": -94.6, "WINDNOW": 35.0, "DIRNOW": 3.0, "SPDNOW": 2.0, "TECH": "FCST", "ADVNR": 9, "ATCFID": "EP112024", "NAME": "ELEVEN", "FTECH": "OFCL", "FCST_DTG": "2024-10-03 18:00:00", "RUN_DTG": "2024-10-04 09:35:10", "BASIN": "EP", "STMNR": 11, "CAT_ID": null, "CAT_DESC": null, "MSGID": "WTPZ21 KNHC 032039", "VALIDTIME": "2024-10-03 21:00:00" }, "geometry": { "type": "Point", "coordinates": [ -94.599998, 15.7 ] } },
{ "type": "Feature", "properties": { "ID": 264012, "LAT": 16.34, "LON": -94.52, "VMAX": 35.0, "MSLP": 1006.0, "RMAX": 50.0, "FSPD": 2.76335, "FDIR": 6.83609, "RENV": 300.0, "PENV": 1012.0, "VALIDT": 10, "DTG": "2024-10-04 04:00", "LATNOW": 15.4, "LONNOW": -94.6, "WINDNOW": 35.0, "DIRNOW": 3.0, "SPDNOW": 2.0, "TECH": "FCST", "ADVNR": 9, "ATCFID": "EP112024", "NAME": "ELEVEN", "FTECH": "OFCL", "FCST_DTG": "2024-10-03 18:00:00", "RUN_DTG": "2024-10-04 09:35:10", "BASIN": "EP", "STMNR": 11, "CAT_ID": null, "CAT_DESC": null, "MSGID": "WTPZ21 KNHC 032039", "VALIDTIME": "2024-10-04 04:00:00" }, "geometry": { "type": "Point", "coordinates": [ -94.519997, 16.34 ] } },
{ "type": "Feature", "properties": { "ID": 264013, "LAT": 16.5, "LON": -94.5, "VMAX": 25.0, "MSLP": 1011.80975, "RMAX": 55.25978, "FSPD": 2.76335, "FDIR": 6.83609, "RENV": 250.0, "PENV": 1012.0, "VALIDT": 12, "DTG": "2024-10-04 06:00", "LATNOW": 15.4, "LONNOW": -94.6, "WINDNOW": 35.0, "DIRNOW": 3.0, "SPDNOW": 2.0, "TECH": "FCST", "ADVNR": 9, "ATCFID": "EP112024", "NAME": "ELEVEN", "FTECH": "OFCL", "FCST_DTG": "2024-10-03 18:00:00", "RUN_DTG": "2024-10-04 09:35:10", "BASIN": "EP", "STMNR": 11, "CAT_ID": null, "CAT_DESC": null, "MSGID": "WTPZ21 KNHC 032039", "VALIDTIME": "2024-10-04 06:00:00" }, "geometry": { "type": "Point", "coordinates": [ -94.5, 16.5 ] } },
{ "type": "Feature", "properties": { "ID": 264010, "LAT": 15.4, "LON": -94.6, "VMAX": 35.0, "MSLP": 1006.0, "RMAX": 50.0, "FSPD": 3.08667, "FDIR": 360.0, "RENV": 100.0, "PENV": 1008.0, "VALIDT": 0, "DTG": "2024-10-03 18:00", "LATNOW": 15.4, "LONNOW": -94.6, "WINDNOW": 35.0, "DIRNOW": 3.0, "SPDNOW": 2.0, "TECH": "TRAK", "ADVNR": 9, "ATCFID": "EP112024", "NAME": "ELEVEN", "FTECH": "OFCL", "FCST_DTG": "2024-10-03 18:00:00", "RUN_DTG": "2024-10-04 09:35:10", "BASIN": "EP", "STMNR": 11, "CAT_ID": null, "CAT_DESC": null, "MSGID": "WTPZ21 KNHC 032039", "VALIDTIME": "2024-10-03 18:00:00" }, "geometry": { "type": "LineString", "coordinates": [ [ -95.6, 13.6 ], [ -95.5, 13.8 ], [ -95.4, 13.8 ], [ -94.9, 14.5 ], [ -94.6, 14.9 ], [ -94.6, 15.4 ], [ -95.5, 15.3 ], [ -95.7, 15.1 ], [ -96.4, 14.3 ], [ -96.7, 14.1 ], [ -96.2, 14.4 ], [ -95.7, 15.0 ], [ -94.6, 15.4 ] ] } },
{ "type": "Feature", "properties": { "ID": 264013, "LAT": 16.5, "LON": -94.5, "VMAX": 25.0, "MSLP": 1011.80975, "RMAX": 55.25978, "FSPD": 2.76335, "FDIR": 6.83609, "RENV": 250.0, "PENV": 1012.0, "VALIDT": 12, "DTG": "2024-10-04 06:00", "LATNOW": 15.4, "LONNOW": -94.6, "WINDNOW": 35.0, "DIRNOW": 3.0, "SPDNOW": 2.0, "TECH": "FCST", "ADVNR": 9, "ATCFID": "EP112024", "NAME": "ELEVEN", "FTECH": "OFCL", "FCST_DTG": "2024-10-03 18:00:00", "RUN_DTG": "2024-10-04 09:35:10", "BASIN": "EP", "STMNR": 11, "CAT_ID": null, "CAT_DESC": null, "MSGID": "WTPZ21 KNHC 032039", "VALIDTIME": "2024-10-04 06:00:00" }, "geometry": { "type": "LineString", "coordinates": [ [ -94.6, 15.4 ], [ -94.6, 15.7 ], [ -94.52, 16.34 ], [ -94.5, 16.5 ] ] } }
]
}
