{
"type": "FeatureCollection",
"crs": { "type": "name", "properties": { "name": "urn:ogc:def:crs:OGC:1.3:CRS84" } },
"features": [
{ "type": "Feature", "properties": { "ID": 231097, "LAT": 36.0, "LON": 145.0, "VMAX": 45.0, "MSLP": 984.0, "RMAX": 25.0, "FSPD": 1.61668, "FDIR": 50.47437, "RENV": 230.0, "PENV": 1005.0, "VALIDT": 0, "DTG": "2024-08-10 06:00", "LATNOW": 40.8, "LONNOW": 138.8, "WINDNOW": 25.0, "DIRNOW": 2.0, "SPDNOW": 2.0, "TECH": "TRAK", "ADVNR": 24, "ATCFID": "WP062024", "NAME": "MARIA", "FTECH": "JTWC", "FCST_DTG": "2024-08-12 18:00:00", "RUN_DTG": "2024-08-13 09:15:05", "BASIN": "WP", "STMNR": 6, "CAT_ID": null, "CAT_DESC": null, "MSGID": "WTPN51 PGTW 122100", "VALIDTIME": "2024-08-10 06:00:00" }, "geometry": { "type": "Point", "coordinates": [ 145.0, 36.0 ] } },
{ "type": "Feature", "properties": { "ID": 231098, "LAT": 36.2, "LON": 145.3, "VMAX": 50.0, "MSLP": 983.0, "RMAX": 30.0, "FSPD": 3.11424, "FDIR": 352.36868, "RENV": 240.0, "PENV": 1002.0, "VALIDT": 0, "DTG": "2024-08-10 12:00", "LATNOW": 40.8, "LONNOW": 138.8, "WINDNOW": 25.0, "DIRNOW": 2.0, "SPDNOW": 2.0, "TECH": "TRAK", "ADVNR": 24, "ATCFID": "WP062024", "NAME": "MARIA", "FTECH": "JTWC", "FCST_DTG": "2024-08-12 18:00:00", "RUN_DTG": "2024-08-13 09:15:05", "BASIN": "WP", "STMNR": 6, "CAT_ID": null, "CAT_DESC": null, "MSGID": "WTPN51 PGTW 122100", "VALIDTIME": "2024-08-10 12:00:00" }, "geometry": { "type": "Point", "coordinates": [ 145.300003, 36.200001 ] } },
{ "type": "Feature", "properties": { "ID": 231099, "LAT": 36.8, "LON": 145.2, "VMAX": 45.0, "MSLP": 979.0, "RMAX": 35.0, "FSPD": 4.14384, "FDIR": 330.346, "RENV": 240.0, "PENV": 1002.0, "VALIDT": 0, "DTG": "2024-08-10 18:00", "LATNOW": 40.8, "LONNOW": 138.8, "WINDNOW": 25.0, "DIRNOW": 2.0, "SPDNOW": 2.0, "TECH": "TRAK", "ADVNR": 24, "ATCFID": "WP062024", "NAME": "MARIA", "FTECH": "JTWC", "FCST_DTG": "2024-08-12 18:00:00", "RUN_DTG": "2024-08-13 09:15:05", "BASIN": "WP", "STMNR": 6, "CAT_ID": null, "CAT_DESC": null, "MSGID": "WTPN51 PGTW 122100", "VALIDTIME": "2024-08-10 18:00:00" }, "geometry": { "type": "Point", "coordinates": [ 145.199997, 36.799999 ] } },
{ "type": "Feature", "properties": { "ID": 231100, "LAT": 37.5, "LON": 144.7, "VMAX": 45.0, "MSLP": 981.0, "RMAX": 35.0, "FSPD": 3.30322, "FDIR": 278.95956, "RENV": 300.0, "PENV": 1002.0, "VALIDT": 0, "DTG": "2024-08-11 00:00", "LATNOW": 40.8, "LONNOW": 138.8, "WINDNOW": 25.0, "DIRNOW": 2.0, "SPDNOW": 2.0, "TECH": "TRAK", "ADVNR": 24, "ATCFID": "WP062024", "NAME": "MARIA", "FTECH": "JTWC", "FCST_DTG": "2024-08-12 18:00:00", "RUN_DTG": "2024-08-13 09:15:05", "BASIN": "WP", "STMNR": 6, "CAT_ID": null, "CAT_DESC": null, "MSGID": "WTPN51 PGTW 122100", "VALIDTIME": "2024-08-11 00:00:00" }, "geometry": { "type": "Point", "coordinates": [ 144.699997, 37.5 ] } },
{ "type": "Feature", "properties": { "ID": 231101, "LAT": 37.6, "LON": 143.9, "VMAX": 45.0, "MSLP": 981.0, "RMAX": 35.0, "FSPD": 2.65009, "FDIR": 292.84552, "RENV": 300.0, "PENV": 1002.0, "VALIDT": 0, "DTG": "2024-08-11 06:00", "LATNOW": 40.8, "LONNOW": 138.8, "WINDNOW": 25.0, "DIRNOW": 2.0, "SPDNOW": 2.0, "TECH": "TRAK", "ADVNR": 24, "ATCFID": "WP062024", "NAME": "MARIA", "FTECH": "JTWC", "FCST_DTG": "2024-08-12 18:00:00", "RUN_DTG": "2024-08-13 09:15:05", "BASIN": "WP", "STMNR": 6, "CAT_ID": null, "CAT_DESC": null, "MSGID": "WTPN51 PGTW 122100", "VALIDTIME": "2024-08-11 06:00:00" }, "geometry": { "type": "Point", "coordinates": [ 143.899994, 37.599998 ] } },
{ "type": "Feature", "properties": { "ID": 231102, "LAT": 37.8, "LON": 143.3, "VMAX": 55.0, "MSLP": 981.0, "RMAX": 35.0, "FSPD": 3.04011, "FDIR": 327.78937, "RENV": 300.0, "PENV": 1002.0, "VALIDT": 0, "DTG": "2024-08-11 12:00", "LATNOW": 40.8, "LONNOW": 138.8, "WINDNOW": 25.0, "DIRNOW": 2.0, "SPDNOW": 2.0, "TECH": "TRAK", "ADVNR": 24, "ATCFID": "WP062024", "NAME": "MARIA", "FTECH": "JTWC", "FCST_DTG": "2024-08-12 18:00:00", "RUN_DTG": "2024-08-13 09:15:05", "BASIN": "WP", "STMNR": 6, "CAT_ID": null, "CAT_DESC": null, "MSGID": "WTPN51 PGTW 122100", "VALIDTIME": "2024-08-11 12:00:00" }, "geometry": { "type": "Point", "coordinates": [ 143.300003, 37.799999 ] } },
{ "type": "Feature", "properties": { "ID": 231103, "LAT": 38.3, "LON": 142.9, "VMAX": 50.0, "MSLP": 978.0, "RMAX": 35.0, "FSPD": 6.01765, "FDIR": 306.7572, "RENV": 190.0, "PENV": 1002.0, "VALIDT": 0, "DTG": "2024-08-11 18:00", "LATNOW": 40.8, "LONNOW": 138.8, "WINDNOW": 25.0, "DIRNOW": 2.0, "SPDNOW": 2.0, "TECH": "TRAK", "ADVNR": 24, "ATCFID": "WP062024", "NAME": "MARIA", "FTECH": "JTWC", "FCST_DTG": "2024-08-12 18:00:00", "RUN_DTG": "2024-08-13 09:15:05", "BASIN": "WP", "STMNR": 6, "CAT_ID": null, "CAT_DESC": null, "MSGID": "WTPN51 PGTW 122100", "VALIDTIME": "2024-08-11 18:00:00" }, "geometry": { "type": "Point", "coordinates": [ 142.899994, 38.299999 ] } },
{ "type": "Feature", "properties": { "ID": 231104, "LAT": 39.0, "LON": 141.7, "VMAX": 45.0, "MSLP": 984.0, "RMAX": 35.0, "FSPD": 4.97595, "FDIR": 325.80286, "RENV": 240.0, "PENV": 1002.0, "VALIDT": 0, "DTG": "2024-08-12 00:00", "LATNOW": 40.8, "LONNOW": 138.8, "WINDNOW": 25.0, "DIRNOW": 2.0, "SPDNOW": 2.0, "TECH": "TRAK", "ADVNR": 24, "ATCFID": "WP062024", "NAME": "MARIA", "FTECH": "JTWC", "FCST_DTG": "2024-08-12 18:00:00", "RUN_DTG": "2024-08-13 09:15:05", "BASIN": "WP", "STMNR": 6, "CAT_ID": null, "CAT_DESC": null, "MSGID": "WTPN51 PGTW 122100", "VALIDTIME": "2024-08-12 00:00:00" }, "geometry": { "type": "Point", "coordinates": [ 141.699997, 39.0 ] } },
{ "type": "Feature", "properties": { "ID": 231105, "LAT": 39.08, "LON": 141.63, "VMAX": 45.0, "MSLP": 984.0, "RMAX": 35.0, "FSPD": 4.96712, "FDIR": 325.95065, "RENV": 240.0, "PENV": 1002.0, "VALIDT": 0, "DTG": "2024-08-12 00:00", "LATNOW": 40.8, "LONNOW": 138.8, "WINDNOW": 25.0, "DIRNOW": 2.0, "SPDNOW": 2.0, "TECH": "TRAK", "ADVNR": 24, "ATCFID": "WP062024", "NAME": "MARIA", "FTECH": "JTWC", "FCST_DTG": "2024-08-12 18:00:00", "RUN_DTG": "2024-08-13 09:15:05", "BASIN": "WP", "STMNR": 6, "CAT_ID": null, "CAT_DESC": null, "MSGID": "WTPN51 PGTW 122100", "VALIDTIME": "2024-08-12 00:00:00" }, "geometry": { "type": "Point", "coordinates": [ 141.630005, 39.080002 ] } },
{ "type": "Feature", "properties": { "ID": 231106, "LAT": 39.8, "LON": 141.0, "VMAX": 45.0, "MSLP": 984.0, "RMAX": 35.0, "FSPD": 5.38027, "FDIR": 298.5603, "RENV": 285.0, "PENV": 1002.0, "VALIDT": 0, "DTG": "2024-08-12 06:00", "LATNOW": 40.8, "LONNOW": 138.8, "WINDNOW": 25.0, "DIRNOW": 2.0, "SPDNOW": 2.0, "TECH": "TRAK", "ADVNR": 24, "ATCFID": "WP062024", "NAME": "MARIA", "FTECH": "JTWC", "FCST_DTG": "2024-08-12 18:00:00", "RUN_DTG": "2024-08-13 09:15:05", "BASIN": "WP", "STMNR": 6, "CAT_ID": null, "CAT_DESC": null, "MSGID": "WTPN51 PGTW 122100", "VALIDTIME": "2024-08-12 06:00:00" }, "geometry": { "type": "Point", "coordinates": [ 141.0, 39.799999 ] } },
{ "type": "Feature", "properties": { "ID": 231107, "LAT": 40.3, "LON": 139.8, "VMAX": 35.0, "MSLP": 995.0, "RMAX": 35.0, "FSPD": 4.67934, "FDIR": 303.34625, "RENV": 140.0, "PENV": 1002.0, "VALIDT": 0, "DTG": "2024-08-12 12:00", "LATNOW": 40.8, "LONNOW": 138.8, "WINDNOW": 25.0, "DIRNOW": 2.0, "SPDNOW": 2.0, "TECH": "TRAK", "ADVNR": 24, "ATCFID": "WP062024", "NAME": "MARIA", "FTECH": "JTWC", "FCST_DTG": "2024-08-12 18:00:00", "RUN_DTG": "2024-08-13 09:15:05", "BASIN": "WP", "STMNR": 6, "CAT_ID": null, "CAT_DESC": null, "MSGID": "WTPN51 PGTW 122100", "VALIDTIME": "2024-08-12 12:00:00" }, "geometry": { "type": "Point", "coordinates": [ 139.800003, 40.299999 ] } },
{ "type": "Feature", "properties": { "ID": 231108, "LAT": 40.8, "LON": 138.8, "VMAX": 25.0, "MSLP": 999.0, "RMAX": 35.0, "FSPD": 1.72716, "FDIR": 333.3257, "RENV": 120.0, "PENV": 1005.0, "VALIDT": 0, "DTG": "2024-08-12 18:00", "LATNOW": 40.8, "LONNOW": 138.8, "WINDNOW": 25.0, "DIRNOW": 2.0, "SPDNOW": 2.0, "TECH": "TRAK", "ADVNR": 24, "ATCFID": "WP062024", "NAME": "MARIA", "FTECH": "JTWC", "FCST_DTG": "2024-08-12 18:00:00", "RUN_DTG": "2024-08-13 09:15:05", "BASIN": "WP", "STMNR": 6, "CAT_ID": null, "CAT_DESC": null, "MSGID": "WTPN51 PGTW 122100", "VALIDTIME": "2024-08-12 18:00:00" }, "geometry": { "type": "Point", "coordinates": [ 138.800003, 40.799999 ] } },
{ "type": "Feature", "properties": { "ID": 231109, "LAT": 41.4, "LON": 138.4, "VMAX": 20.0, "MSLP": 1012.95825, "RMAX": 42.5581, "FSPD": 0.54933, "FDIR": 20.53125, "RENV": 250.0, "PENV": 1012.0, "VALIDT": 12, "DTG": "2024-08-13 06:00", "LATNOW": 40.8, "LONNOW": 138.8, "WINDNOW": 25.0, "DIRNOW": 2.0, "SPDNOW": 2.0, "TECH": "FCST", "ADVNR": 24, "ATCFID": "WP062024", "NAME": "MARIA", "FTECH": "JTWC", "FCST_DTG": "2024-08-12 18:00:00", "RUN_DTG": "2024-08-13 09:15:05", "BASIN": "WP", "STMNR": 6, "CAT_ID": null, "CAT_DESC": null, "MSGID": "WTPN51 PGTW 122100", "VALIDTIME": "2024-08-13 06:00:00" }, "geometry": { "type": "Point", "coordinates": [ 138.399994, 41.400002 ] } },
{ "type": "Feature", "properties": { "ID": 231110, "LAT": 41.6, "LON": 138.5, "VMAX": 15.0, "MSLP": 1013.8515, "RMAX": 37.82943, "FSPD": 0.54933, "FDIR": 20.53125, "RENV": 250.0, "PENV": 1012.0, "VALIDT": 24, "DTG": "2024-08-13 18:00", "LATNOW": 40.8, "LONNOW": 138.8, "WINDNOW": 25.0, "DIRNOW": 2.0, "SPDNOW": 2.0, "TECH": "FCST", "ADVNR": 24, "ATCFID": "WP062024", "NAME": "MARIA", "FTECH": "JTWC", "FCST_DTG": "2024-08-12 18:00:00", "RUN_DTG": "2024-08-13 09:15:05", "BASIN": "WP", "STMNR": 6, "CAT_ID": null, "CAT_DESC": null, "MSGID": "WTPN51 PGTW 122100", "VALIDTIME": "2024-08-13 18:00:00" }, "geometry": { "type": "Point", "coordinates": [ 138.5, 41.599998 ] } },
{ "type": "Feature", "properties": { "ID": 231079, "LAT": 25.3, "LON": 141.4, "VMAX": 20.0, "MSLP": 1012.95825, "RMAX": 45.0, "FSPD": 1.12896, "FDIR": 335.6949, "RENV": 500.0, "PENV": 1012.0, "VALIDT": 0, "DTG": "2024-08-05 18:00", "LATNOW": 40.8, "LONNOW": 138.8, "WINDNOW": 25.0, "DIRNOW": 2.0, "SPDNOW": 2.0, "TECH": "TRAK", "ADVNR": 24, "ATCFID": "WP062024", "NAME": "MARIA", "FTECH": "JTWC", "FCST_DTG": "2024-08-12 18:00:00", "RUN_DTG": "2024-08-13 09:15:05", "BASIN": "WP", "STMNR": 6, "CAT_ID": null, "CAT_DESC": null, "MSGID": "WTPN51 PGTW 122100", "VALIDTIME": "2024-08-05 18:00:00" }, "geometry": { "type": "Point", "coordinates": [ 141.399994, 25.299999 ] } },
{ "type": "Feature", "properties": { "ID": 231080, "LAT": 25.5, "LON": 141.3, "VMAX": 20.0, "MSLP": 1012.95825, "RMAX": 45.0, "FSPD": 1.48442, "FDIR": 290.27728, "RENV": 500.0, "PENV": 1012.0, "VALIDT": 0, "DTG": "2024-08-06 00:00", "LATNOW": 40.8, "LONNOW": 138.8, "WINDNOW": 25.0, "DIRNOW": 2.0, "SPDNOW": 2.0, "TECH": "TRAK", "ADVNR": 24, "ATCFID": "WP062024", "NAME": "MARIA", "FTECH": "JTWC", "FCST_DTG": "2024-08-12 18:00:00", "RUN_DTG": "2024-08-13 09:15:05", "BASIN": "WP", "STMNR": 6, "CAT_ID": null, "CAT_DESC": null, "MSGID": "WTPN51 PGTW 122100", "VALIDTIME": "2024-08-06 00:00:00" }, "geometry": { "type": "Point", "coordinates": [ 141.300003, 25.5 ] } },
{ "type": "Feature", "properties": { "ID": 231081, "LAT": 25.6, "LON": 141.0, "VMAX": 20.0, "MSLP": 1012.95825, "RMAX": 45.0, "FSPD": 1.39184, "FDIR": 269.99997, "RENV": 500.0, "PENV": 1012.0, "VALIDT": 0, "DTG": "2024-08-06 06:00", "LATNOW": 40.8, "LONNOW": 138.8, "WINDNOW": 25.0, "DIRNOW": 2.0, "SPDNOW": 2.0, "TECH": "TRAK", "ADVNR": 24, "ATCFID": "WP062024", "NAME": "MARIA", "FTECH": "JTWC", "FCST_DTG": "2024-08-12 18:00:00", "RUN_DTG": "2024-08-13 09:15:05", "BASIN": "WP", "STMNR": 6, "CAT_ID": null, "CAT_DESC": null, "MSGID": "WTPN51 PGTW 122100", "VALIDTIME": "2024-08-06 06:00:00" }, "geometry": { "type": "Point", "coordinates": [ 141.0, 25.6 ] } },
{ "type": "Feature", "properties": { "ID": 231082, "LAT": 25.6, "LON": 140.7, "VMAX": 20.0, "MSLP": 1012.95825, "RMAX": 45.0, "FSPD": 1.02889, "FDIR": 179.99997, "RENV": 500.0, "PENV": 1012.0, "VALIDT": 0, "DTG": "2024-08-06 12:00", "LATNOW": 40.8, "LONNOW": 138.8, "WINDNOW": 25.0, "DIRNOW": 2.0, "SPDNOW": 2.0, "TECH": "TRAK", "ADVNR": 24, "ATCFID": "WP062024", "NAME": "MARIA", "FTECH": "JTWC", "FCST_DTG": "2024-08-12 18:00:00", "RUN_DTG": "2024-08-13 09:15:05", "BASIN": "WP", "STMNR": 6, "CAT_ID": null, "CAT_DESC": null, "MSGID": "WTPN51 PGTW 122100", "VALIDTIME": "2024-08-06 12:00:00" }, "geometry": { "type": "Point", "coordinates": [ 140.699997, 25.6 ] } },
{ "type": "Feature", "properties": { "ID": 231083, "LAT": 25.4, "LON": 140.7, "VMAX": 20.0, "MSLP": 1012.95825, "RMAX": 45.0, "FSPD": 2.08096, "FDIR": 137.87164, "RENV": 500.0, "PENV": 1012.0, "VALIDT": 0, "DTG": "2024-08-06 18:00", "LATNOW": 40.8, "LONNOW": 138.8, "WINDNOW": 25.0, "DIRNOW": 2.0, "SPDNOW": 2.0, "TECH": "TRAK", "ADVNR": 24, "ATCFID": "WP062024", "NAME": "MARIA", "FTECH": "JTWC", "FCST_DTG": "2024-08-12 18:00:00", "RUN_DTG": "2024-08-13 09:15:05", "BASIN": "WP", "STMNR": 6, "CAT_ID": null, "CAT_DESC": null, "MSGID": "WTPN51 PGTW 122100", "VALIDTIME": "2024-08-06 18:00:00" }, "geometry": { "type": "Point", "coordinates": [ 140.699997, 25.4 ] } },
{ "type": "Feature", "properties": { "ID": 231084, "LAT": 25.1, "LON": 141.0, "VMAX": 25.0, "MSLP": 1000.0, "RMAX": 35.0, "FSPD": 3.17403, "FDIR": 35.8653, "RENV": 240.0, "PENV": 1004.0, "VALIDT": 0, "DTG": "2024-08-07 00:00", "LATNOW": 40.8, "LONNOW": 138.8, "WINDNOW": 25.0, "DIRNOW": 2.0, "SPDNOW": 2.0, "TECH": "TRAK", "ADVNR": 24, "ATCFID": "WP062024", "NAME": "MARIA", "FTECH": "JTWC", "FCST_DTG": "2024-08-12 18:00:00", "RUN_DTG": "2024-08-13 09:15:05", "BASIN": "WP", "STMNR": 6, "CAT_ID": null, "CAT_DESC": null, "MSGID": "WTPN51 PGTW 122100", "VALIDTIME": "2024-08-07 00:00:00" }, "geometry": { "type": "Point", "coordinates": [ 141.0, 25.1 ] } },
{ "type": "Feature", "properties": { "ID": 231085, "LAT": 25.6, "LON": 141.4, "VMAX": 25.0, "MSLP": 1000.0, "RMAX": 35.0, "FSPD": 2.53942, "FDIR": 113.90161, "RENV": 240.0, "PENV": 1004.0, "VALIDT": 0, "DTG": "2024-08-07 06:00", "LATNOW": 40.8, "LONNOW": 138.8, "WINDNOW": 25.0, "DIRNOW": 2.0, "SPDNOW": 2.0, "TECH": "TRAK", "ADVNR": 24, "ATCFID": "WP062024", "NAME": "MARIA", "FTECH": "JTWC", "FCST_DTG": "2024-08-12 18:00:00", "RUN_DTG": "2024-08-13 09:15:05", "BASIN": "WP", "STMNR": 6, "CAT_ID": null, "CAT_DESC": null, "MSGID": "WTPN51 PGTW 122100", "VALIDTIME": "2024-08-07 06:00:00" }, "geometry": { "type": "Point", "coordinates": [ 141.399994, 25.6 ] } },
{ "type": "Feature", "properties": { "ID": 231086, "LAT": 25.4, "LON": 141.9, "VMAX": 30.0, "MSLP": 997.0, "RMAX": 35.0, "FSPD": 4.75593, "FDIR": 77.50589, "RENV": 240.0, "PENV": 1002.0, "VALIDT": 0, "DTG": "2024-08-07 12:00", "LATNOW": 40.8, "LONNOW": 138.8, "WINDNOW": 25.0, "DIRNOW": 2.0, "SPDNOW": 2.0, "TECH": "TRAK", "ADVNR": 24, "ATCFID": "WP062024", "NAME": "MARIA", "FTECH": "JTWC", "FCST_DTG": "2024-08-12 18:00:00", "RUN_DTG": "2024-08-13 09:15:05", "BASIN": "WP", "STMNR": 6, "CAT_ID": null, "CAT_DESC": null, "MSGID": "WTPN51 PGTW 122100", "VALIDTIME": "2024-08-07 12:00:00" }, "geometry": { "type": "Point", "coordinates": [ 141.899994, 25.4 ] } },
{ "type": "Feature", "properties": { "ID": 231087, "LAT": 25.6, "LON": 142.9, "VMAX": 35.0, "MSLP": 995.0, "RMAX": 35.0, "FSPD": 5.85282, "FDIR": 45.31778, "RENV": 240.0, "PENV": 1003.0, "VALIDT": 0, "DTG": "2024-08-07 18:00", "LATNOW": 40.8, "LONNOW": 138.8, "WINDNOW": 25.0, "DIRNOW": 2.0, "SPDNOW": 2.0, "TECH": "TRAK", "ADVNR": 24, "ATCFID": "WP062024", "NAME": "MARIA", "FTECH": "JTWC", "FCST_DTG": "2024-08-12 18:00:00", "RUN_DTG": "2024-08-13 09:15:05", "BASIN": "WP", "STMNR": 6, "CAT_ID": null, "CAT_DESC": null, "MSGID": "WTPN51 PGTW 122100", "VALIDTIME": "2024-08-07 18:00:00" }, "geometry": { "type": "Point", "coordinates": [ 142.899994, 25.6 ] } },
{ "type": "Feature", "properties": { "ID": 231088, "LAT": 26.4, "LON": 143.8, "VMAX": 40.0, "MSLP": 994.0, "RMAX": 35.0, "FSPD": 8.53494, "FDIR": 32.4509, "RENV": 240.0, "PENV": 1002.0, "VALIDT": 0, "DTG": "2024-08-08 00:00", "LATNOW": 40.8, "LONNOW": 138.8, "WINDNOW": 25.0, "DIRNOW": 2.0, "SPDNOW": 2.0, "TECH": "TRAK", "ADVNR": 24, "ATCFID": "WP062024", "NAME": "MARIA", "FTECH": "JTWC", "FCST_DTG": "2024-08-12 18:00:00", "RUN_DTG": "2024-08-13 09:15:05", "BASIN": "WP", "STMNR": 6, "CAT_ID": null, "CAT_DESC": null, "MSGID": "WTPN51 PGTW 122100", "VALIDTIME": "2024-08-08 00:00:00" }, "geometry": { "type": "Point", "coordinates": [ 143.800003, 26.4 ] } },
{ "type": "Feature", "properties": { "ID": 231089, "LAT": 27.8, "LON": 144.8, "VMAX": 50.0, "MSLP": 993.0, "RMAX": 30.0, "FSPD": 5.81818, "FDIR": 27.84653, "RENV": 240.0, "PENV": 1003.0, "VALIDT": 0, "DTG": "2024-08-08 06:00", "LATNOW": 40.8, "LONNOW": 138.8, "WINDNOW": 25.0, "DIRNOW": 2.0, "SPDNOW": 2.0, "TECH": "TRAK", "ADVNR": 24, "ATCFID": "WP062024", "NAME": "MARIA", "FTECH": "JTWC", "FCST_DTG": "2024-08-12 18:00:00", "RUN_DTG": "2024-08-13 09:15:05", "BASIN": "WP", "STMNR": 6, "CAT_ID": null, "CAT_DESC": null, "MSGID": "WTPN51 PGTW 122100", "VALIDTIME": "2024-08-08 06:00:00" }, "geometry": { "type": "Point", "coordinates": [ 144.800003, 27.799999 ] } },
{ "type": "Feature", "properties": { "ID": 231090, "LAT": 28.8, "LON": 145.4, "VMAX": 60.0, "MSLP": 985.0, "RMAX": 30.0, "FSPD": 6.31807, "FDIR": 12.28741, "RENV": 260.0, "PENV": 1002.0, "VALIDT": 0, "DTG": "2024-08-08 12:00", "LATNOW": 40.8, "LONNOW": 138.8, "WINDNOW": 25.0, "DIRNOW": 2.0, "SPDNOW": 2.0, "TECH": "TRAK", "ADVNR": 24, "ATCFID": "WP062024", "NAME": "MARIA", "FTECH": "JTWC", "FCST_DTG": "2024-08-12 18:00:00", "RUN_DTG": "2024-08-13 09:15:05", "BASIN": "WP", "STMNR": 6, "CAT_ID": null, "CAT_DESC": null, "MSGID": "WTPN51 PGTW 122100", "VALIDTIME": "2024-08-08 12:00:00" }, "geometry": { "type": "Point", "coordinates": [ 145.399994, 28.799999 ] } },
{ "type": "Feature", "properties": { "ID": 231091, "LAT": 30.0, "LON": 145.7, "VMAX": 70.0, "MSLP": 978.0, "RMAX": 15.0, "FSPD": 4.21014, "FDIR": 12.16812, "RENV": 310.0, "PENV": 1003.0, "VALIDT": 0, "DTG": "2024-08-08 18:00", "LATNOW": 40.8, "LONNOW": 138.8, "WINDNOW": 25.0, "DIRNOW": 2.0, "SPDNOW": 2.0, "TECH": "TRAK", "ADVNR": 24, "ATCFID": "WP062024", "NAME": "MARIA", "FTECH": "JTWC", "FCST_DTG": "2024-08-12 18:00:00", "RUN_DTG": "2024-08-13 09:15:05", "BASIN": "WP", "STMNR": 6, "CAT_ID": null, "CAT_DESC": null, "MSGID": "WTPN51 PGTW 122100", "VALIDTIME": "2024-08-08 18:00:00" }, "geometry": { "type": "Point", "coordinates": [ 145.699997, 30.0 ] } },
{ "type": "Feature", "properties": { "ID": 231092, "LAT": 30.8, "LON": 145.9, "VMAX": 65.0, "MSLP": 969.0, "RMAX": 15.0, "FSPD": 6.68777, "FDIR": 360.0, "RENV": 250.0, "PENV": 1001.0, "VALIDT": 0, "DTG": "2024-08-09 00:00", "LATNOW": 40.8, "LONNOW": 138.8, "WINDNOW": 25.0, "DIRNOW": 2.0, "SPDNOW": 2.0, "TECH": "TRAK", "ADVNR": 24, "ATCFID": "WP062024", "NAME": "MARIA", "FTECH": "JTWC", "FCST_DTG": "2024-08-12 18:00:00", "RUN_DTG": "2024-08-13 09:15:05", "BASIN": "WP", "STMNR": 6, "CAT_ID": null, "CAT_DESC": null, "MSGID": "WTPN51 PGTW 122100", "VALIDTIME": "2024-08-09 00:00:00" }, "geometry": { "type": "Point", "coordinates": [ 145.899994, 30.799999 ] } },
{ "type": "Feature", "properties": { "ID": 231093, "LAT": 32.1, "LON": 145.9, "VMAX": 60.0, "MSLP": 973.0, "RMAX": 10.0, "FSPD": 4.11557, "FDIR": 360.0, "RENV": 280.0, "PENV": 1002.0, "VALIDT": 0, "DTG": "2024-08-09 06:00", "LATNOW": 40.8, "LONNOW": 138.8, "WINDNOW": 25.0, "DIRNOW": 2.0, "SPDNOW": 2.0, "TECH": "TRAK", "ADVNR": 24, "ATCFID": "WP062024", "NAME": "MARIA", "FTECH": "JTWC", "FCST_DTG": "2024-08-12 18:00:00", "RUN_DTG": "2024-08-13 09:15:05", "BASIN": "WP", "STMNR": 6, "CAT_ID": null, "CAT_DESC": null, "MSGID": "WTPN51 PGTW 122100", "VALIDTIME": "2024-08-09 06:00:00" }, "geometry": { "type": "Point", "coordinates": [ 145.899994, 32.099998 ] } },
{ "type": "Feature", "properties": { "ID": 231094, "LAT": 32.9, "LON": 145.9, "VMAX": 55.0, "MSLP": 974.0, "RMAX": 10.0, "FSPD": 6.18821, "FDIR": 3.97537, "RENV": 250.0, "PENV": 1000.0, "VALIDT": 0, "DTG": "2024-08-09 12:00", "LATNOW": 40.8, "LONNOW": 138.8, "WINDNOW": 25.0, "DIRNOW": 2.0, "SPDNOW": 2.0, "TECH": "TRAK", "ADVNR": 24, "ATCFID": "WP062024", "NAME": "MARIA", "FTECH": "JTWC", "FCST_DTG": "2024-08-12 18:00:00", "RUN_DTG": "2024-08-13 09:15:05", "BASIN": "WP", "STMNR": 6, "CAT_ID": null, "CAT_DESC": null, "MSGID": "WTPN51 PGTW 122100", "VALIDTIME": "2024-08-09 12:00:00" }, "geometry": { "type": "Point", "coordinates": [ 145.899994, 32.900002 ] } },
{ "type": "Feature", "properties": { "ID": 231095, "LAT": 34.1, "LON": 146.0, "VMAX": 45.0, "MSLP": 976.0, "RMAX": 10.0, "FSPD": 4.63001, "FDIR": 360.0, "RENV": 270.0, "PENV": 1001.0, "VALIDT": 0, "DTG": "2024-08-09 18:00", "LATNOW": 40.8, "LONNOW": 138.8, "WINDNOW": 25.0, "DIRNOW": 2.0, "SPDNOW": 2.0, "TECH": "TRAK", "ADVNR": 24, "ATCFID": "WP062024", "NAME": "MARIA", "FTECH": "JTWC", "FCST_DTG": "2024-08-12 18:00:00", "RUN_DTG": "2024-08-13 09:15:05", "BASIN": "WP", "STMNR": 6, "CAT_ID": null, "CAT_DESC": null, "MSGID": "WTPN51 PGTW 122100", "VALIDTIME": "2024-08-09 18:00:00" }, "geometry": { "type": "Point", "coordinates": [ 146.0, 34.099998 ] } },
{ "type": "Feature", "properties": { "ID": 231096, "LAT": 35.0, "LON": 146.0, "VMAX": 50.0, "MSLP": 987.0, "RMAX": 10.0, "FSPD": 6.63371, "FDIR": 320.8504, "RENV": 200.0, "PENV": 1005.0, "VALIDT": 0, "DTG": "2024-08-10 00:00", "LATNOW": 40.8, "LONNOW": 138.8, "WINDNOW": 25.0, "DIRNOW": 2.0, "SPDNOW": 2.0, "TECH": "TRAK", "ADVNR": 24, "ATCFID": "WP062024", "NAME": "MARIA", "FTECH": "JTWC", "FCST_DTG": "2024-08-12 18:00:00", "RUN_DTG": "2024-08-13 09:15:05", "BASIN": "WP", "STMNR": 6, "CAT_ID": null, "CAT_DESC": null, "MSGID": "WTPN51 PGTW 122100", "VALIDTIME": "2024-08-10 00:00:00" }, "geometry": { "type": "Point", "coordinates": [ 146.0, 35.0 ] } },
{ "type": "Feature", "properties": { "ID": 231108, "LAT": 40.8, "LON": 138.8, "VMAX": 25.0, "MSLP": 999.0, "RMAX": 35.0, "FSPD": 1.72716, "FDIR": 333.3257, "RENV": 120.0, "PENV": 1005.0, "VALIDT": 0, "DTG": "2024-08-12 18:00", "LATNOW": 40.8, "LONNOW": 138.8, "WINDNOW": 25.0, "DIRNOW": 2.0, "SPDNOW": 2.0, "TECH": "TRAK", "ADVNR": 24, "ATCFID": "WP062024", "NAME": "MARIA", "FTECH": "JTWC", "FCST_DTG": "2024-08-12 18:00:00", "RUN_DTG": "2024-08-13 09:15:05", "BASIN": "WP", "STMNR": 6, "CAT_ID": null, "CAT_DESC": null, "MSGID": "WTPN51 PGTW 122100", "VALIDTIME": "2024-08-12 18:00:00" }, "geometry": { "type": "LineString", "coordinates": [ [ 141.4, 25.3 ], [ 141.3, 25.5 ], [ 141.0, 25.6 ], [ 140.7, 25.6 ], [ 140.7, 25.4 ], [ 141.0, 25.1 ], [ 141.4, 25.6 ], [ 141.9, 25.4 ], [ 142.9, 25.6 ], [ 143.8, 26.4 ], [ 144.8, 27.8 ], [ 145.4, 28.8 ], [ 145.7, 30.0 ], [ 145.9, 30.8 ], [ 145.9, 32.1 ], [ 145.9, 32.9 ], [ 146.0, 34.1 ], [ 146.0, 35.0 ], [ 145.0, 36.0 ], [ 145.3, 36.2 ], [ 145.2, 36.8 ], [ 144.7, 37.5 ], [ 143.9, 37.6 ], [ 143.3, 37.8 ], [ 142.9, 38.3 ], [ 141.63, 39.08 ], [ 141.7, 39.0 ], [ 141.0, 39.8 ], [ 139.8, 40.3 ], [ 138.8, 40.8 ] ] } },
{ "type": "Feature", "properties": { "ID": 231110, "LAT": 41.6, "LON": 138.5, "VMAX": 15.0, "MSLP": 1013.8515, "RMAX": 37.82943, "FSPD": 0.54933, "FDIR": 20.53125, "RENV": 250.0, "PENV": 1012.0, "VALIDT": 24, "DTG": "2024-08-13 18:00", "LATNOW": 40.8, "LONNOW": 138.8, "WINDNOW": 25.0, "DIRNOW": 2.0, "SPDNOW": 2.0, "TECH": "FCST", "ADVNR": 24, "ATCFID": "WP062024", "NAME": "MARIA", "FTECH": "JTWC", "FCST_DTG": "2024-08-12 18:00:00", "RUN_DTG": "2024-08-13 09:15:05", "BASIN": "WP", "STMNR": 6, "CAT_ID": null, "CAT_DESC": null, "MSGID": "WTPN51 PGTW 122100", "VALIDTIME": "2024-08-13 18:00:00" }, "geometry": { "type": "LineString", "coordinates": [ [ 138.8, 40.8 ], [ 138.4, 41.4 ], [ 138.5, 41.6 ] ] } }
]
}
