{
"type": "FeatureCollection",
"crs": { "type": "name", "properties": { "name": "urn:ogc:def:crs:OGC:1.3:CRS84" } },
"features": [
{ "type": "Feature", "properties": { "ID": 68153, "LAT": 8.4, "LON": 139.2, "VMAX": 15.0, "MSLP": 1013.8515, "RMAX": 40.0, "FSPD": 4.7403, "FDIR": 347.6159, "RENV": 500.0, "PENV": 1012.0, "VALIDT": 0, "DTG": "2026-08-20 12:00", "LATNOW": 20.6, "LONNOW": 137.3, "WINDNOW": 25.0, "DIRNOW": 6.0, "SPDNOW": 2.0, "TECH": "TRAK", "ADVNR": 12, "ATCFID": "WP192026", "NAME": "ATSANI", "FTECH": "JTWC", "FCST_DTG": "2026-08-25 06:00:00", "RUN_DTG": "2026-08-26 00:32:58", "BASIN": "WP", "STMNR": 19, "CAT_ID": null, "CAT_DESC": null, "MSGID": "WTPN53 PGTW 250900", "VALIDTIME": "2026-08-20 12:00:00" }, "geometry": { "type": "Point", "coordinates": [ 139.199997, 8.4 ] } },
{ "type": "Feature", "properties": { "ID": 68154, "LAT": 9.3, "LON": 139.0, "VMAX": 20.0, "MSLP": 1012.95825, "RMAX": 45.0, "FSPD": 4.40436, "FDIR": 324.8476, "RENV": 500.0, "PENV": 1012.0, "VALIDT": 0, "DTG": "2026-08-20 18:00", "LATNOW": 20.6, "LONNOW": 137.3, "WINDNOW": 25.0, "DIRNOW": 6.0, "SPDNOW": 2.0, "TECH": "TRAK", "ADVNR": 12, "ATCFID": "WP192026", "NAME": "ATSANI", "FTECH": "JTWC", "FCST_DTG": "2026-08-25 06:00:00", "RUN_DTG": "2026-08-26 00:32:58", "BASIN": "WP", "STMNR": 19, "CAT_ID": null, "CAT_DESC": null, "MSGID": "WTPN53 PGTW 250900", "VALIDTIME": "2026-08-20 18:00:00" }, "geometry": { "type": "Point", "coordinates": [ 139.0, 9.3 ] } },
{ "type": "Feature", "properties": { "ID": 68155, "LAT": 10.0, "LON": 138.5, "VMAX": 25.0, "MSLP": 1011.80975, "RMAX": 45.0, "FSPD": 2.09046, "FDIR": 284.24637, "RENV": 500.0, "PENV": 1012.0, "VALIDT": 0, "DTG": "2026-08-21 00:00", "LATNOW": 20.6, "LONNOW": 137.3, "WINDNOW": 25.0, "DIRNOW": 6.0, "SPDNOW": 2.0, "TECH": "TRAK", "ADVNR": 12, "ATCFID": "WP192026", "NAME": "ATSANI", "FTECH": "JTWC", "FCST_DTG": "2026-08-25 06:00:00", "RUN_DTG": "2026-08-26 00:32:58", "BASIN": "WP", "STMNR": 19, "CAT_ID": null, "CAT_DESC": null, "MSGID": "WTPN53 PGTW 250900", "VALIDTIME": "2026-08-21 00:00:00" }, "geometry": { "type": "Point", "coordinates": [ 138.5, 10.0 ] } },
{ "type": "Feature", "properties": { "ID": 68156, "LAT": 10.1, "LON": 138.1, "VMAX": 20.0, "MSLP": 1012.95825, "RMAX": 45.0, "FSPD": 3.6927, "FDIR": 253.82158, "RENV": 500.0, "PENV": 1012.0, "VALIDT": 0, "DTG": "2026-08-21 06:00", "LATNOW": 20.6, "LONNOW": 137.3, "WINDNOW": 25.0, "DIRNOW": 6.0, "SPDNOW": 2.0, "TECH": "TRAK", "ADVNR": 12, "ATCFID": "WP192026", "NAME": "ATSANI", "FTECH": "JTWC", "FCST_DTG": "2026-08-25 06:00:00", "RUN_DTG": "2026-08-26 00:32:58", "BASIN": "WP", "STMNR": 19, "CAT_ID": null, "CAT_DESC": null, "MSGID": "WTPN53 PGTW 250900", "VALIDTIME": "2026-08-21 06:00:00" }, "geometry": { "type": "Point", "coordinates": [ 138.100006, 10.1 ] } },
{ "type": "Feature", "properties": { "ID": 68157, "LAT": 9.9, "LON": 137.4, "VMAX": 20.0, "MSLP": 1012.95825, "RMAX": 45.0, "FSPD": 4.58925, "FDIR": 276.43625, "RENV": 500.0, "PENV": 1012.0, "VALIDT": 0, "DTG": "2026-08-21 12:00", "LATNOW": 20.6, "LONNOW": 137.3, "WINDNOW": 25.0, "DIRNOW": 6.0, "SPDNOW": 2.0, "TECH": "TRAK", "ADVNR": 12, "ATCFID": "WP192026", "NAME": "ATSANI", "FTECH": "JTWC", "FCST_DTG": "2026-08-25 06:00:00", "RUN_DTG": "2026-08-26 00:32:58", "BASIN": "WP", "STMNR": 19, "CAT_ID": null, "CAT_DESC": null, "MSGID": "WTPN53 PGTW 250900", "VALIDTIME": "2026-08-21 12:00:00" }, "geometry": { "type": "Point", "coordinates": [ 137.399994, 9.9 ] } },
{ "type": "Feature", "properties": { "ID": 68158, "LAT": 10.0, "LON": 136.5, "VMAX": 20.0, "MSLP": 1012.95825, "RMAX": 45.0, "FSPD": 3.27362, "FDIR": 321.78943, "RENV": 500.0, "PENV": 1012.0, "VALIDT": 0, "DTG": "2026-08-21 18:00", "LATNOW": 20.6, "LONNOW": 137.3, "WINDNOW": 25.0, "DIRNOW": 6.0, "SPDNOW": 2.0, "TECH": "TRAK", "ADVNR": 12, "ATCFID": "WP192026", "NAME": "ATSANI", "FTECH": "JTWC", "FCST_DTG": "2026-08-25 06:00:00", "RUN_DTG": "2026-08-26 00:32:58", "BASIN": "WP", "STMNR": 19, "CAT_ID": null, "CAT_DESC": null, "MSGID": "WTPN53 PGTW 250900", "VALIDTIME": "2026-08-21 18:00:00" }, "geometry": { "type": "Point", "coordinates": [ 136.5, 10.0 ] } },
{ "type": "Feature", "properties": { "ID": 68159, "LAT": 10.5, "LON": 136.1, "VMAX": 20.0, "MSLP": 1012.95825, "RMAX": 45.0, "FSPD": 4.73893, "FDIR": 347.69153, "RENV": 500.0, "PENV": 1012.0, "VALIDT": 0, "DTG": "2026-08-22 00:00", "LATNOW": 20.6, "LONNOW": 137.3, "WINDNOW": 25.0, "DIRNOW": 6.0, "SPDNOW": 2.0, "TECH": "TRAK", "ADVNR": 12, "ATCFID": "WP192026", "NAME": "ATSANI", "FTECH": "JTWC", "FCST_DTG": "2026-08-25 06:00:00", "RUN_DTG": "2026-08-26 00:32:58", "BASIN": "WP", "STMNR": 19, "CAT_ID": null, "CAT_DESC": null, "MSGID": "WTPN53 PGTW 250900", "VALIDTIME": "2026-08-22 00:00:00" }, "geometry": { "type": "Point", "coordinates": [ 136.100006, 10.5 ] } },
{ "type": "Feature", "properties": { "ID": 68160, "LAT": 11.4, "LON": 135.9, "VMAX": 25.0, "MSLP": 1011.80975, "RMAX": 45.0, "FSPD": 4.82467, "FDIR": 328.54202, "RENV": 500.0, "PENV": 1012.0, "VALIDT": 0, "DTG": "2026-08-22 06:00", "LATNOW": 20.6, "LONNOW": 137.3, "WINDNOW": 25.0, "DIRNOW": 6.0, "SPDNOW": 2.0, "TECH": "TRAK", "ADVNR": 12, "ATCFID": "WP192026", "NAME": "ATSANI", "FTECH": "JTWC", "FCST_DTG": "2026-08-25 06:00:00", "RUN_DTG": "2026-08-26 00:32:58", "BASIN": "WP", "STMNR": 19, "CAT_ID": null, "CAT_DESC": null, "MSGID": "WTPN53 PGTW 250900", "VALIDTIME": "2026-08-22 06:00:00" }, "geometry": { "type": "Point", "coordinates": [ 135.899994, 11.4 ] } },
{ "type": "Feature", "properties": { "ID": 68161, "LAT": 12.2, "LON": 135.4, "VMAX": 30.0, "MSLP": 1001.0, "RMAX": 50.0, "FSPD": 1.84179, "FDIR": 33.07535, "RENV": 180.0, "PENV": 1005.0, "VALIDT": 0, "DTG": "2026-08-22 12:00", "LATNOW": 20.6, "LONNOW": 137.3, "WINDNOW": 25.0, "DIRNOW": 6.0, "SPDNOW": 2.0, "TECH": "TRAK", "ADVNR": 12, "ATCFID": "WP192026", "NAME": "ATSANI", "FTECH": "JTWC", "FCST_DTG": "2026-08-25 06:00:00", "RUN_DTG": "2026-08-26 00:32:58", "BASIN": "WP", "STMNR": 19, "CAT_ID": null, "CAT_DESC": null, "MSGID": "WTPN53 PGTW 250900", "VALIDTIME": "2026-08-22 12:00:00" }, "geometry": { "type": "Point", "coordinates": [ 135.399994, 12.2 ] } },
{ "type": "Feature", "properties": { "ID": 68162, "LAT": 12.5, "LON": 135.6, "VMAX": 30.0, "MSLP": 1001.0, "RMAX": 50.0, "FSPD": 2.87479, "FDIR": 315.70883, "RENV": 180.0, "PENV": 1005.0, "VALIDT": 0, "DTG": "2026-08-22 18:00", "LATNOW": 20.6, "LONNOW": 137.3, "WINDNOW": 25.0, "DIRNOW": 6.0, "SPDNOW": 2.0, "TECH": "TRAK", "ADVNR": 12, "ATCFID": "WP192026", "NAME": "ATSANI", "FTECH": "JTWC", "FCST_DTG": "2026-08-25 06:00:00", "RUN_DTG": "2026-08-26 00:32:58", "BASIN": "WP", "STMNR": 19, "CAT_ID": null, "CAT_DESC": null, "MSGID": "WTPN53 PGTW 250900", "VALIDTIME": "2026-08-22 18:00:00" }, "geometry": { "type": "Point", "coordinates": [ 135.600006, 12.5 ] } },
{ "type": "Feature", "properties": { "ID": 68163, "LAT": 12.9, "LON": 135.2, "VMAX": 30.0, "MSLP": 1000.0, "RMAX": 40.0, "FSPD": 4.34891, "FDIR": 53.73907, "RENV": 145.0, "PENV": 1006.0, "VALIDT": 0, "DTG": "2026-08-23 00:00", "LATNOW": 20.6, "LONNOW": 137.3, "WINDNOW": 25.0, "DIRNOW": 6.0, "SPDNOW": 2.0, "TECH": "TRAK", "ADVNR": 12, "ATCFID": "WP192026", "NAME": "ATSANI", "FTECH": "JTWC", "FCST_DTG": "2026-08-25 06:00:00", "RUN_DTG": "2026-08-26 00:32:58", "BASIN": "WP", "STMNR": 19, "CAT_ID": null, "CAT_DESC": null, "MSGID": "WTPN53 PGTW 250900", "VALIDTIME": "2026-08-23 00:00:00" }, "geometry": { "type": "Point", "coordinates": [ 135.199997, 12.9 ] } },
{ "type": "Feature", "properties": { "ID": 68164, "LAT": 13.4, "LON": 135.9, "VMAX": 30.0, "MSLP": 1000.0, "RMAX": 30.0, "FSPD": 3.3744, "FDIR": 62.78275, "RENV": 110.0, "PENV": 1006.0, "VALIDT": 0, "DTG": "2026-08-23 06:00", "LATNOW": 20.6, "LONNOW": 137.3, "WINDNOW": 25.0, "DIRNOW": 6.0, "SPDNOW": 2.0, "TECH": "TRAK", "ADVNR": 12, "ATCFID": "WP192026", "NAME": "ATSANI", "FTECH": "JTWC", "FCST_DTG": "2026-08-25 06:00:00", "RUN_DTG": "2026-08-26 00:32:58", "BASIN": "WP", "STMNR": 19, "CAT_ID": null, "CAT_DESC": null, "MSGID": "WTPN53 PGTW 250900", "VALIDTIME": "2026-08-23 06:00:00" }, "geometry": { "type": "Point", "coordinates": [ 135.899994, 13.4 ] } },
{ "type": "Feature", "properties": { "ID": 68165, "LAT": 13.7, "LON": 136.5, "VMAX": 30.0, "MSLP": 1000.0, "RMAX": 30.0, "FSPD": 1.54333, "FDIR": 360.0, "RENV": 130.0, "PENV": 1005.0, "VALIDT": 0, "DTG": "2026-08-23 12:00", "LATNOW": 20.6, "LONNOW": 137.3, "WINDNOW": 25.0, "DIRNOW": 6.0, "SPDNOW": 2.0, "TECH": "TRAK", "ADVNR": 12, "ATCFID": "WP192026", "NAME": "ATSANI", "FTECH": "JTWC", "FCST_DTG": "2026-08-25 06:00:00", "RUN_DTG": "2026-08-26 00:32:58", "BASIN": "WP", "STMNR": 19, "CAT_ID": null, "CAT_DESC": null, "MSGID": "WTPN53 PGTW 250900", "VALIDTIME": "2026-08-23 12:00:00" }, "geometry": { "type": "Point", "coordinates": [ 136.5, 13.7 ] } },
{ "type": "Feature", "properties": { "ID": 68166, "LAT": 14.0, "LON": 136.5, "VMAX": 30.0, "MSLP": 1001.0, "RMAX": 30.0, "FSPD": 7.089, "FDIR": 29.44449, "RENV": 130.0, "PENV": 1006.0, "VALIDT": 0, "DTG": "2026-08-23 18:00", "LATNOW": 20.6, "LONNOW": 137.3, "WINDNOW": 25.0, "DIRNOW": 6.0, "SPDNOW": 2.0, "TECH": "TRAK", "ADVNR": 12, "ATCFID": "WP192026", "NAME": "ATSANI", "FTECH": "JTWC", "FCST_DTG": "2026-08-25 06:00:00", "RUN_DTG": "2026-08-26 00:32:58", "BASIN": "WP", "STMNR": 19, "CAT_ID": null, "CAT_DESC": null, "MSGID": "WTPN53 PGTW 250900", "VALIDTIME": "2026-08-23 18:00:00" }, "geometry": { "type": "Point", "coordinates": [ 136.5, 14.0 ] } },
{ "type": "Feature", "properties": { "ID": 68167, "LAT": 15.2, "LON": 137.2, "VMAX": 30.0, "MSLP": 1000.0, "RMAX": 30.0, "FSPD": 6.42762, "FDIR": 43.91827, "RENV": 120.0, "PENV": 1004.0, "VALIDT": 0, "DTG": "2026-08-24 00:00", "LATNOW": 20.6, "LONNOW": 137.3, "WINDNOW": 25.0, "DIRNOW": 6.0, "SPDNOW": 2.0, "TECH": "TRAK", "ADVNR": 12, "ATCFID": "WP192026", "NAME": "ATSANI", "FTECH": "JTWC", "FCST_DTG": "2026-08-25 06:00:00", "RUN_DTG": "2026-08-26 00:32:58", "BASIN": "WP", "STMNR": 19, "CAT_ID": null, "CAT_DESC": null, "MSGID": "WTPN53 PGTW 250900", "VALIDTIME": "2026-08-24 00:00:00" }, "geometry": { "type": "Point", "coordinates": [ 137.199997, 15.2 ] } },
{ "type": "Feature", "properties": { "ID": 68168, "LAT": 16.1, "LON": 138.1, "VMAX": 30.0, "MSLP": 1001.0, "RMAX": 35.0, "FSPD": 3.24064, "FDIR": 17.73251, "RENV": 105.0, "PENV": 1006.0, "VALIDT": 0, "DTG": "2026-08-24 06:00", "LATNOW": 20.6, "LONNOW": 137.3, "WINDNOW": 25.0, "DIRNOW": 6.0, "SPDNOW": 2.0, "TECH": "TRAK", "ADVNR": 12, "ATCFID": "WP192026", "NAME": "ATSANI", "FTECH": "JTWC", "FCST_DTG": "2026-08-25 06:00:00", "RUN_DTG": "2026-08-26 00:32:58", "BASIN": "WP", "STMNR": 19, "CAT_ID": null, "CAT_DESC": null, "MSGID": "WTPN53 PGTW 250900", "VALIDTIME": "2026-08-24 06:00:00" }, "geometry": { "type": "Point", "coordinates": [ 138.100006, 16.1 ] } },
{ "type": "Feature", "properties": { "ID": 68169, "LAT": 16.7, "LON": 138.3, "VMAX": 30.0, "MSLP": 1001.0, "RMAX": 45.0, "FSPD": 8.2311, "FDIR": 360.0, "RENV": 105.0, "PENV": 1005.0, "VALIDT": 0, "DTG": "2026-08-24 12:00", "LATNOW": 20.6, "LONNOW": 137.3, "WINDNOW": 25.0, "DIRNOW": 6.0, "SPDNOW": 2.0, "TECH": "TRAK", "ADVNR": 12, "ATCFID": "WP192026", "NAME": "ATSANI", "FTECH": "JTWC", "FCST_DTG": "2026-08-25 06:00:00", "RUN_DTG": "2026-08-26 00:32:58", "BASIN": "WP", "STMNR": 19, "CAT_ID": null, "CAT_DESC": null, "MSGID": "WTPN53 PGTW 250900", "VALIDTIME": "2026-08-24 12:00:00" }, "geometry": { "type": "Point", "coordinates": [ 138.300003, 16.700001 ] } },
{ "type": "Feature", "properties": { "ID": 68170, "LAT": 18.3, "LON": 138.3, "VMAX": 30.0, "MSLP": 1001.0, "RMAX": 45.0, "FSPD": 4.65557, "FDIR": 353.99338, "RENV": 105.0, "PENV": 1005.0, "VALIDT": 0, "DTG": "2026-08-24 18:00", "LATNOW": 20.6, "LONNOW": 137.3, "WINDNOW": 25.0, "DIRNOW": 6.0, "SPDNOW": 2.0, "TECH": "TRAK", "ADVNR": 12, "ATCFID": "WP192026", "NAME": "ATSANI", "FTECH": "JTWC", "FCST_DTG": "2026-08-25 06:00:00", "RUN_DTG": "2026-08-26 00:32:58", "BASIN": "WP", "STMNR": 19, "CAT_ID": null, "CAT_DESC": null, "MSGID": "WTPN53 PGTW 250900", "VALIDTIME": "2026-08-24 18:00:00" }, "geometry": { "type": "Point", "coordinates": [ 138.300003, 18.299999 ] } },
{ "type": "Feature", "properties": { "ID": 68171, "LAT": 19.2, "LON": 138.2, "VMAX": 30.0, "MSLP": 1004.0, "RMAX": 45.0, "FSPD": 8.41576, "FDIR": 328.84842, "RENV": 105.0, "PENV": 1006.0, "VALIDT": 0, "DTG": "2026-08-25 00:00", "LATNOW": 20.6, "LONNOW": 137.3, "WINDNOW": 25.0, "DIRNOW": 6.0, "SPDNOW": 2.0, "TECH": "TRAK", "ADVNR": 12, "ATCFID": "WP192026", "NAME": "ATSANI", "FTECH": "JTWC", "FCST_DTG": "2026-08-25 06:00:00", "RUN_DTG": "2026-08-26 00:32:58", "BASIN": "WP", "STMNR": 19, "CAT_ID": null, "CAT_DESC": null, "MSGID": "WTPN53 PGTW 250900", "VALIDTIME": "2026-08-25 00:00:00" }, "geometry": { "type": "Point", "coordinates": [ 138.199997, 19.200001 ] } },
{ "type": "Feature", "properties": { "ID": 68172, "LAT": 20.6, "LON": 137.3, "VMAX": 25.0, "MSLP": 1004.0, "RMAX": 45.0, "FSPD": 5.57822, "FDIR": 326.10007, "RENV": 105.0, "PENV": 1006.0, "VALIDT": 0, "DTG": "2026-08-25 06:00", "LATNOW": 20.6, "LONNOW": 137.3, "WINDNOW": 25.0, "DIRNOW": 6.0, "SPDNOW": 2.0, "TECH": "TRAK", "ADVNR": 12, "ATCFID": "WP192026", "NAME": "ATSANI", "FTECH": "JTWC", "FCST_DTG": "2026-08-25 06:00:00", "RUN_DTG": "2026-08-26 00:32:58", "BASIN": "WP", "STMNR": 19, "CAT_ID": null, "CAT_DESC": null, "MSGID": "WTPN53 PGTW 250900", "VALIDTIME": "2026-08-25 06:00:00" }, "geometry": { "type": "Point", "coordinates": [ 137.300003, 20.6 ] } },
{ "type": "Feature", "properties": { "ID": 68173, "LAT": 22.4, "LON": 136.0, "VMAX": 20.0, "MSLP": 1012.95825, "RMAX": 51.24248, "FSPD": 5.57822, "FDIR": 326.10007, "RENV": 250.0, "PENV": 1012.0, "VALIDT": 12, "DTG": "2026-08-25 18:00", "LATNOW": 20.6, "LONNOW": 137.3, "WINDNOW": 25.0, "DIRNOW": 6.0, "SPDNOW": 2.0, "TECH": "FCST", "ADVNR": 12, "ATCFID": "WP192026", "NAME": "ATSANI", "FTECH": "JTWC", "FCST_DTG": "2026-08-25 06:00:00", "RUN_DTG": "2026-08-26 00:32:58", "BASIN": "WP", "STMNR": 19, "CAT_ID": null, "CAT_DESC": null, "MSGID": "WTPN53 PGTW 250900", "VALIDTIME": "2026-08-25 18:00:00" }, "geometry": { "type": "Point", "coordinates": [ 136.0, 22.4 ] } },
{ "type": "Feature", "properties": { "ID": 68172, "LAT": 20.6, "LON": 137.3, "VMAX": 25.0, "MSLP": 1004.0, "RMAX": 45.0, "FSPD": 5.57822, "FDIR": 326.10007, "RENV": 105.0, "PENV": 1006.0, "VALIDT": 0, "DTG": "2026-08-25 06:00", "LATNOW": 20.6, "LONNOW": 137.3, "WINDNOW": 25.0, "DIRNOW": 6.0, "SPDNOW": 2.0, "TECH": "TRAK", "ADVNR": 12, "ATCFID": "WP192026", "NAME": "ATSANI", "FTECH": "JTWC", "FCST_DTG": "2026-08-25 06:00:00", "RUN_DTG": "2026-08-26 00:32:58", "BASIN": "WP", "STMNR": 19, "CAT_ID": null, "CAT_DESC": null, "MSGID": "WTPN53 PGTW 250900", "VALIDTIME": "2026-08-25 06:00:00" }, "geometry": { "type": "LineString", "coordinates": [ [ 139.2, 8.4 ], [ 139.0, 9.3 ], [ 138.5, 10.0 ], [ 138.1, 10.1 ], [ 137.4, 9.9 ], [ 136.5, 10.0 ], [ 136.1, 10.5 ], [ 135.9, 11.4 ], [ 135.4, 12.2 ], [ 135.6, 12.5 ], [ 135.2, 12.9 ], [ 135.9, 13.4 ], [ 136.5, 13.7 ], [ 136.5, 14.0 ], [ 137.2, 15.2 ], [ 138.1, 16.1 ], [ 138.3, 16.7 ], [ 138.3, 18.3 ], [ 138.2, 19.2 ], [ 137.3, 20.6 ] ] } },
{ "type": "Feature", "properties": { "ID": 68173, "LAT": 22.4, "LON": 136.0, "VMAX": 20.0, "MSLP": 1012.95825, "RMAX": 51.24248, "FSPD": 5.57822, "FDIR": 326.10007, "RENV": 250.0, "PENV": 1012.0, "VALIDT": 12, "DTG": "2026-08-25 18:00", "LATNOW": 20.6, "LONNOW": 137.3, "WINDNOW": 25.0, "DIRNOW": 6.0, "SPDNOW": 2.0, "TECH": "FCST", "ADVNR": 12, "ATCFID": "WP192026", "NAME": "ATSANI", "FTECH": "JTWC", "FCST_DTG": "2026-08-25 06:00:00", "RUN_DTG": "2026-08-26 00:32:58", "BASIN": "WP", "STMNR": 19, "CAT_ID": null, "CAT_DESC": null, "MSGID": "WTPN53 PGTW 250900", "VALIDTIME": "2026-08-25 18:00:00" }, "geometry": { "type": "LineString", "coordinates": [ [ 137.3, 20.6 ], [ 136.0, 22.4 ] ] } }
]
}
