{
"type": "FeatureCollection",
"crs": { "type": "name", "properties": { "name": "urn:ogc:def:crs:OGC:1.3:CRS84" } },
"features": [
{ "type": "Feature", "properties": { "ID": 79058, "LAT": 28.8, "LON": -87.2, "VMAX": 20.0, "MSLP": 1015.0, "RMAX": 60.0, "FSPD": 4.07706, "FDIR": 230.8833, "RENV": 150.0, "PENV": 1018.0, "VALIDT": 0, "DTG": "2026-08-29 18:00", "LATNOW": 32.4, "LONNOW": -96.3, "WINDNOW": 20.0, "DIRNOW": 2.0, "SPDNOW": 3.0, "TECH": "TRAK", "ADVNR": 7, "ATCFID": "AL052026", "NAME": "EDOUARD", "FTECH": "OFCL", "FCST_DTG": "2026-09-03 06:00:00", "RUN_DTG": "2026-09-04 00:16:57", "BASIN": "AL", "STMNR": 5, "CAT_ID": null, "CAT_DESC": null, "MSGID": "WTNT25 KNHC 020231", "VALIDTIME": "2026-08-29 18:00:00" }, "geometry": { "type": "Point", "coordinates": [ -87.199997, 28.799999 ] } },
{ "type": "Feature", "properties": { "ID": 79059, "LAT": 28.3, "LON": -87.9, "VMAX": 20.0, "MSLP": 1015.0, "RMAX": 60.0, "FSPD": 3.94329, "FDIR": 246.9595, "RENV": 150.0, "PENV": 1018.0, "VALIDT": 0, "DTG": "2026-08-30 00:00", "LATNOW": 32.4, "LONNOW": -96.3, "WINDNOW": 20.0, "DIRNOW": 2.0, "SPDNOW": 3.0, "TECH": "TRAK", "ADVNR": 7, "ATCFID": "AL052026", "NAME": "EDOUARD", "FTECH": "OFCL", "FCST_DTG": "2026-09-03 06:00:00", "RUN_DTG": "2026-09-04 00:16:57", "BASIN": "AL", "STMNR": 5, "CAT_ID": null, "CAT_DESC": null, "MSGID": "WTNT25 KNHC 020231", "VALIDTIME": "2026-08-30 00:00:00" }, "geometry": { "type": "Point", "coordinates": [ -87.900002, 28.299999 ] } },
{ "type": "Feature", "properties": { "ID": 79060, "LAT": 28.0, "LON": -88.7, "VMAX": 20.0, "MSLP": 1014.0, "RMAX": 60.0, "FSPD": 2.77476, "FDIR": 259.3154, "RENV": 100.0, "PENV": 1016.0, "VALIDT": 0, "DTG": "2026-08-30 06:00", "LATNOW": 32.4, "LONNOW": -96.3, "WINDNOW": 20.0, "DIRNOW": 2.0, "SPDNOW": 3.0, "TECH": "TRAK", "ADVNR": 7, "ATCFID": "AL052026", "NAME": "EDOUARD", "FTECH": "OFCL", "FCST_DTG": "2026-09-03 06:00:00", "RUN_DTG": "2026-09-04 00:16:57", "BASIN": "AL", "STMNR": 5, "CAT_ID": null, "CAT_DESC": null, "MSGID": "WTNT25 KNHC 020231", "VALIDTIME": "2026-08-30 06:00:00" }, "geometry": { "type": "Point", "coordinates": [ -88.699997, 28.0 ] } },
{ "type": "Feature", "properties": { "ID": 79061, "LAT": 27.9, "LON": -89.3, "VMAX": 20.0, "MSLP": 1013.0, "RMAX": 60.0, "FSPD": 1.37365, "FDIR": 221.49506, "RENV": 80.0, "PENV": 1015.0, "VALIDT": 0, "DTG": "2026-08-30 12:00", "LATNOW": 32.4, "LONNOW": -96.3, "WINDNOW": 20.0, "DIRNOW": 2.0, "SPDNOW": 3.0, "TECH": "TRAK", "ADVNR": 7, "ATCFID": "AL052026", "NAME": "EDOUARD", "FTECH": "OFCL", "FCST_DTG": "2026-09-03 06:00:00", "RUN_DTG": "2026-09-04 00:16:57", "BASIN": "AL", "STMNR": 5, "CAT_ID": null, "CAT_DESC": null, "MSGID": "WTNT25 KNHC 020231", "VALIDTIME": "2026-08-30 12:00:00" }, "geometry": { "type": "Point", "coordinates": [ -89.300003, 27.9 ] } },
{ "type": "Feature", "properties": { "ID": 79062, "LAT": 27.7, "LON": -89.5, "VMAX": 20.0, "MSLP": 1013.0, "RMAX": 75.0, "FSPD": 0.68725, "FDIR": 221.53392, "RENV": 100.0, "PENV": 1016.0, "VALIDT": 0, "DTG": "2026-08-30 18:00", "LATNOW": 32.4, "LONNOW": -96.3, "WINDNOW": 20.0, "DIRNOW": 2.0, "SPDNOW": 3.0, "TECH": "TRAK", "ADVNR": 7, "ATCFID": "AL052026", "NAME": "EDOUARD", "FTECH": "OFCL", "FCST_DTG": "2026-09-03 06:00:00", "RUN_DTG": "2026-09-04 00:16:57", "BASIN": "AL", "STMNR": 5, "CAT_ID": null, "CAT_DESC": null, "MSGID": "WTNT25 KNHC 020231", "VALIDTIME": "2026-08-30 18:00:00" }, "geometry": { "type": "Point", "coordinates": [ -89.5, 27.700001 ] } },
{ "type": "Feature", "properties": { "ID": 79063, "LAT": 27.6, "LON": -89.6, "VMAX": 25.0, "MSLP": 1012.0, "RMAX": 75.0, "FSPD": 5.12386, "FDIR": 258.41595, "RENV": 100.0, "PENV": 1016.0, "VALIDT": 0, "DTG": "2026-08-31 00:00", "LATNOW": 32.4, "LONNOW": -96.3, "WINDNOW": 20.0, "DIRNOW": 2.0, "SPDNOW": 3.0, "TECH": "TRAK", "ADVNR": 7, "ATCFID": "AL052026", "NAME": "EDOUARD", "FTECH": "OFCL", "FCST_DTG": "2026-09-03 06:00:00", "RUN_DTG": "2026-09-04 00:16:57", "BASIN": "AL", "STMNR": 5, "CAT_ID": null, "CAT_DESC": null, "MSGID": "WTNT25 KNHC 020231", "VALIDTIME": "2026-08-31 00:00:00" }, "geometry": { "type": "Point", "coordinates": [ -89.599998, 27.6 ] } },
{ "type": "Feature", "properties": { "ID": 79064, "LAT": 27.4, "LON": -90.7, "VMAX": 30.0, "MSLP": 1012.0, "RMAX": 60.0, "FSPD": 1.12555, "FDIR": 336.08124, "RENV": 80.0, "PENV": 1014.0, "VALIDT": 0, "DTG": "2026-08-31 06:00", "LATNOW": 32.4, "LONNOW": -96.3, "WINDNOW": 20.0, "DIRNOW": 2.0, "SPDNOW": 3.0, "TECH": "TRAK", "ADVNR": 7, "ATCFID": "AL052026", "NAME": "EDOUARD", "FTECH": "OFCL", "FCST_DTG": "2026-09-03 06:00:00", "RUN_DTG": "2026-09-04 00:16:57", "BASIN": "AL", "STMNR": 5, "CAT_ID": null, "CAT_DESC": null, "MSGID": "WTNT25 KNHC 020231", "VALIDTIME": "2026-08-31 06:00:00" }, "geometry": { "type": "Point", "coordinates": [ -90.699997, 27.4 ] } },
{ "type": "Feature", "properties": { "ID": 79065, "LAT": 27.6, "LON": -90.8, "VMAX": 30.0, "MSLP": 1013.0, "RMAX": 60.0, "FSPD": 2.72835, "FDIR": 340.52313, "RENV": 90.0, "PENV": 1015.0, "VALIDT": 0, "DTG": "2026-08-31 12:00", "LATNOW": 32.4, "LONNOW": -96.3, "WINDNOW": 20.0, "DIRNOW": 2.0, "SPDNOW": 3.0, "TECH": "TRAK", "ADVNR": 7, "ATCFID": "AL052026", "NAME": "EDOUARD", "FTECH": "OFCL", "FCST_DTG": "2026-09-03 06:00:00", "RUN_DTG": "2026-09-04 00:16:57", "BASIN": "AL", "STMNR": 5, "CAT_ID": null, "CAT_DESC": null, "MSGID": "WTNT25 KNHC 020231", "VALIDTIME": "2026-08-31 12:00:00" }, "geometry": { "type": "Point", "coordinates": [ -90.800003, 27.6 ] } },
{ "type": "Feature", "properties": { "ID": 79066, "LAT": 28.1, "LON": -91.0, "VMAX": 30.0, "MSLP": 1012.0, "RMAX": 25.0, "FSPD": 3.12648, "FDIR": 299.57953, "RENV": 90.0, "PENV": 1015.0, "VALIDT": 0, "DTG": "2026-08-31 18:00", "LATNOW": 32.4, "LONNOW": -96.3, "WINDNOW": 20.0, "DIRNOW": 2.0, "SPDNOW": 3.0, "TECH": "TRAK", "ADVNR": 7, "ATCFID": "AL052026", "NAME": "EDOUARD", "FTECH": "OFCL", "FCST_DTG": "2026-09-03 06:00:00", "RUN_DTG": "2026-09-04 00:16:57", "BASIN": "AL", "STMNR": 5, "CAT_ID": null, "CAT_DESC": null, "MSGID": "WTNT25 KNHC 020231", "VALIDTIME": "2026-08-31 18:00:00" }, "geometry": { "type": "Point", "coordinates": [ -91.0, 28.1 ] } },
{ "type": "Feature", "properties": { "ID": 79067, "LAT": 28.4, "LON": -91.6, "VMAX": 35.0, "MSLP": 1010.0, "RMAX": 20.0, "FSPD": 4.43402, "FDIR": 305.45828, "RENV": 90.0, "PENV": 1015.0, "VALIDT": 0, "DTG": "2026-09-01 00:00", "LATNOW": 32.4, "LONNOW": -96.3, "WINDNOW": 20.0, "DIRNOW": 2.0, "SPDNOW": 3.0, "TECH": "TRAK", "ADVNR": 7, "ATCFID": "AL052026", "NAME": "EDOUARD", "FTECH": "OFCL", "FCST_DTG": "2026-09-03 06:00:00", "RUN_DTG": "2026-09-04 00:16:57", "BASIN": "AL", "STMNR": 5, "CAT_ID": null, "CAT_DESC": null, "MSGID": "WTNT25 KNHC 020231", "VALIDTIME": "2026-09-01 00:00:00" }, "geometry": { "type": "Point", "coordinates": [ -91.599998, 28.4 ] } },
{ "type": "Feature", "properties": { "ID": 79068, "LAT": 28.9, "LON": -92.4, "VMAX": 35.0, "MSLP": 1005.0, "RMAX": 5.0, "FSPD": 3.39241, "FDIR": 307.34277, "RENV": 90.0, "PENV": 1014.0, "VALIDT": 0, "DTG": "2026-09-01 06:00", "LATNOW": 32.4, "LONNOW": -96.3, "WINDNOW": 20.0, "DIRNOW": 2.0, "SPDNOW": 3.0, "TECH": "TRAK", "ADVNR": 7, "ATCFID": "AL052026", "NAME": "EDOUARD", "FTECH": "OFCL", "FCST_DTG": "2026-09-03 06:00:00", "RUN_DTG": "2026-09-04 00:16:57", "BASIN": "AL", "STMNR": 5, "CAT_ID": null, "CAT_DESC": null, "MSGID": "WTNT25 KNHC 020231", "VALIDTIME": "2026-09-01 06:00:00" }, "geometry": { "type": "Point", "coordinates": [ -92.400002, 28.9 ] } },
{ "type": "Feature", "properties": { "ID": 79069, "LAT": 29.3, "LON": -93.0, "VMAX": 35.0, "MSLP": 1003.0, "RMAX": 5.0, "FSPD": 3.38404, "FDIR": 307.4512, "RENV": 90.0, "PENV": 1013.0, "VALIDT": 0, "DTG": "2026-09-01 12:00", "LATNOW": 32.4, "LONNOW": -96.3, "WINDNOW": 20.0, "DIRNOW": 2.0, "SPDNOW": 3.0, "TECH": "TRAK", "ADVNR": 7, "ATCFID": "AL052026", "NAME": "EDOUARD", "FTECH": "OFCL", "FCST_DTG": "2026-09-03 06:00:00", "RUN_DTG": "2026-09-04 00:16:57", "BASIN": "AL", "STMNR": 5, "CAT_ID": null, "CAT_DESC": null, "MSGID": "WTNT25 KNHC 020231", "VALIDTIME": "2026-09-01 12:00:00" }, "geometry": { "type": "Point", "coordinates": [ -93.0, 29.299999 ] } },
{ "type": "Feature", "properties": { "ID": 79070, "LAT": 29.7, "LON": -93.6, "VMAX": 45.0, "MSLP": 1000.0, "RMAX": 5.0, "FSPD": 3.71357, "FDIR": 313.84076, "RENV": 90.0, "PENV": 1013.0, "VALIDT": 0, "DTG": "2026-09-01 18:00", "LATNOW": 32.4, "LONNOW": -96.3, "WINDNOW": 20.0, "DIRNOW": 2.0, "SPDNOW": 3.0, "TECH": "TRAK", "ADVNR": 7, "ATCFID": "AL052026", "NAME": "EDOUARD", "FTECH": "OFCL", "FCST_DTG": "2026-09-03 06:00:00", "RUN_DTG": "2026-09-04 00:16:57", "BASIN": "AL", "STMNR": 5, "CAT_ID": null, "CAT_DESC": null, "MSGID": "WTNT25 KNHC 020231", "VALIDTIME": "2026-09-01 18:00:00" }, "geometry": { "type": "Point", "coordinates": [ -93.599998, 29.700001 ] } },
{ "type": "Feature", "properties": { "ID": 79071, "LAT": 29.9, "LON": -93.84, "VMAX": 45.0, "MSLP": 1000.0, "RMAX": 5.0, "FSPD": 3.70874, "FDIR": 313.91217, "RENV": 90.0, "PENV": 1013.0, "VALIDT": 0, "DTG": "2026-09-01 20:00", "LATNOW": 32.4, "LONNOW": -96.3, "WINDNOW": 20.0, "DIRNOW": 2.0, "SPDNOW": 3.0, "TECH": "TRAK", "ADVNR": 7, "ATCFID": "AL052026", "NAME": "EDOUARD", "FTECH": "OFCL", "FCST_DTG": "2026-09-03 06:00:00", "RUN_DTG": "2026-09-04 00:16:57", "BASIN": "AL", "STMNR": 5, "CAT_ID": null, "CAT_DESC": null, "MSGID": "WTNT25 KNHC 020231", "VALIDTIME": "2026-09-01 20:00:00" }, "geometry": { "type": "Point", "coordinates": [ -93.839996, 29.900002 ] } },
{ "type": "Feature", "properties": { "ID": 79072, "LAT": 30.2, "LON": -94.2, "VMAX": 40.0, "MSLP": 1000.0, "RMAX": 5.0, "FSPD": 3.72584, "FDIR": 303.52487, "RENV": 90.0, "PENV": 1013.0, "VALIDT": 0, "DTG": "2026-09-02 00:00", "LATNOW": 32.4, "LONNOW": -96.3, "WINDNOW": 20.0, "DIRNOW": 2.0, "SPDNOW": 3.0, "TECH": "TRAK", "ADVNR": 7, "ATCFID": "AL052026", "NAME": "EDOUARD", "FTECH": "OFCL", "FCST_DTG": "2026-09-03 06:00:00", "RUN_DTG": "2026-09-04 00:16:57", "BASIN": "AL", "STMNR": 5, "CAT_ID": null, "CAT_DESC": null, "MSGID": "WTNT25 KNHC 020231", "VALIDTIME": "2026-09-02 00:00:00" }, "geometry": { "type": "Point", "coordinates": [ -94.199997, 30.200001 ] } },
{ "type": "Feature", "properties": { "ID": 79073, "LAT": 30.6, "LON": -94.9, "VMAX": 30.0, "MSLP": 1004.0, "RMAX": 15.0, "FSPD": 4.01029, "FDIR": 333.89194, "RENV": 70.0, "PENV": 1014.0, "VALIDT": 0, "DTG": "2026-09-02 06:00", "LATNOW": 32.4, "LONNOW": -96.3, "WINDNOW": 20.0, "DIRNOW": 2.0, "SPDNOW": 3.0, "TECH": "TRAK", "ADVNR": 7, "ATCFID": "AL052026", "NAME": "EDOUARD", "FTECH": "OFCL", "FCST_DTG": "2026-09-03 06:00:00", "RUN_DTG": "2026-09-04 00:16:57", "BASIN": "AL", "STMNR": 5, "CAT_ID": null, "CAT_DESC": null, "MSGID": "WTNT25 KNHC 020231", "VALIDTIME": "2026-09-02 06:00:00" }, "geometry": { "type": "Point", "coordinates": [ -94.900002, 30.6 ] } },
{ "type": "Feature", "properties": { "ID": 79074, "LAT": 31.3, "LON": -95.3, "VMAX": 30.0, "MSLP": 1004.0, "RMAX": 15.0, "FSPD": 1.01822, "FDIR": 59.6525, "RENV": 70.0, "PENV": 1014.0, "VALIDT": 0, "DTG": "2026-09-02 12:00", "LATNOW": 32.4, "LONNOW": -96.3, "WINDNOW": 20.0, "DIRNOW": 2.0, "SPDNOW": 3.0, "TECH": "TRAK", "ADVNR": 7, "ATCFID": "AL052026", "NAME": "EDOUARD", "FTECH": "OFCL", "FCST_DTG": "2026-09-03 06:00:00", "RUN_DTG": "2026-09-04 00:16:57", "BASIN": "AL", "STMNR": 5, "CAT_ID": null, "CAT_DESC": null, "MSGID": "WTNT25 KNHC 020231", "VALIDTIME": "2026-09-02 12:00:00" }, "geometry": { "type": "Point", "coordinates": [ -95.300003, 31.299999 ] } },
{ "type": "Feature", "properties": { "ID": 79075, "LAT": 31.4, "LON": -95.1, "VMAX": 20.0, "MSLP": 1011.0, "RMAX": 25.0, "FSPD": 3.54863, "FDIR": 330.43768, "RENV": 80.0, "PENV": 1013.0, "VALIDT": 0, "DTG": "2026-09-02 18:00", "LATNOW": 32.4, "LONNOW": -96.3, "WINDNOW": 20.0, "DIRNOW": 2.0, "SPDNOW": 3.0, "TECH": "TRAK", "ADVNR": 7, "ATCFID": "AL052026", "NAME": "EDOUARD", "FTECH": "OFCL", "FCST_DTG": "2026-09-03 06:00:00", "RUN_DTG": "2026-09-04 00:16:57", "BASIN": "AL", "STMNR": 5, "CAT_ID": null, "CAT_DESC": null, "MSGID": "WTNT25 KNHC 020231", "VALIDTIME": "2026-09-02 18:00:00" }, "geometry": { "type": "Point", "coordinates": [ -95.099998, 31.4 ] } },
{ "type": "Feature", "properties": { "ID": 79076, "LAT": 32.0, "LON": -95.5, "VMAX": 20.0, "MSLP": 1011.0, "RMAX": 30.0, "FSPD": 4.04509, "FDIR": 300.57803, "RENV": 50.0, "PENV": 1012.0, "VALIDT": 0, "DTG": "2026-09-03 00:00", "LATNOW": 32.4, "LONNOW": -96.3, "WINDNOW": 20.0, "DIRNOW": 2.0, "SPDNOW": 3.0, "TECH": "TRAK", "ADVNR": 7, "ATCFID": "AL052026", "NAME": "EDOUARD", "FTECH": "OFCL", "FCST_DTG": "2026-09-03 06:00:00", "RUN_DTG": "2026-09-04 00:16:57", "BASIN": "AL", "STMNR": 5, "CAT_ID": null, "CAT_DESC": null, "MSGID": "WTNT25 KNHC 020231", "VALIDTIME": "2026-09-03 00:00:00" }, "geometry": { "type": "Point", "coordinates": [ -95.5, 32.0 ] } },
{ "type": "Feature", "properties": { "ID": 79077, "LAT": 32.4, "LON": -96.3, "VMAX": 20.0, "MSLP": 1012.0, "RMAX": 50.0, "FSPD": 2.01838, "FDIR": 300.6474, "RENV": 55.0, "PENV": 1012.0, "VALIDT": 0, "DTG": "2026-09-03 06:00", "LATNOW": 32.4, "LONNOW": -96.3, "WINDNOW": 20.0, "DIRNOW": 2.0, "SPDNOW": 3.0, "TECH": "TRAK", "ADVNR": 7, "ATCFID": "AL052026", "NAME": "EDOUARD", "FTECH": "OFCL", "FCST_DTG": "2026-09-03 06:00:00", "RUN_DTG": "2026-09-04 00:16:57", "BASIN": "AL", "STMNR": 5, "CAT_ID": null, "CAT_DESC": null, "MSGID": "WTNT25 KNHC 020231", "VALIDTIME": "2026-09-03 06:00:00" }, "geometry": { "type": "Point", "coordinates": [ -96.300003, 32.400002 ] } },
{ "type": "Feature", "properties": { "ID": 79078, "LAT": 32.5, "LON": -96.5, "VMAX": 20.0, "MSLP": 1012.0, "RMAX": 50.19784, "FSPD": 1.99107, "FDIR": 313.5515, "RENV": 250.0, "PENV": 1012.0, "VALIDT": 3, "DTG": "2026-09-03 09:00", "LATNOW": 32.4, "LONNOW": -96.3, "WINDNOW": 20.0, "DIRNOW": 2.0, "SPDNOW": 3.0, "TECH": "FCST", "ADVNR": 7, "ATCFID": "AL052026", "NAME": "EDOUARD", "FTECH": "OFCL", "FCST_DTG": "2026-09-03 06:00:00", "RUN_DTG": "2026-09-04 00:16:57", "BASIN": "AL", "STMNR": 5, "CAT_ID": null, "CAT_DESC": null, "MSGID": "WTNT25 KNHC 020231", "VALIDTIME": "2026-09-03 09:00:00" }, "geometry": { "type": "Point", "coordinates": [ -96.5, 32.5 ] } },
{ "type": "Feature", "properties": { "ID": 79079, "LAT": 32.9, "LON": -97.0, "VMAX": 15.0, "MSLP": 1013.8515, "RMAX": 50.99776, "FSPD": 1.99107, "FDIR": 313.5515, "RENV": 250.0, "PENV": 1012.0, "VALIDT": 12, "DTG": "2026-09-03 18:00", "LATNOW": 32.4, "LONNOW": -96.3, "WINDNOW": 20.0, "DIRNOW": 2.0, "SPDNOW": 3.0, "TECH": "FCST", "ADVNR": 7, "ATCFID": "AL052026", "NAME": "EDOUARD", "FTECH": "OFCL", "FCST_DTG": "2026-09-03 06:00:00", "RUN_DTG": "2026-09-04 00:16:57", "BASIN": "AL", "STMNR": 5, "CAT_ID": null, "CAT_DESC": null, "MSGID": "WTNT25 KNHC 020231", "VALIDTIME": "2026-09-03 18:00:00" }, "geometry": { "type": "Point", "coordinates": [ -97.0, 32.900002 ] } },
{ "type": "Feature", "properties": { "ID": 79077, "LAT": 32.4, "LON": -96.3, "VMAX": 20.0, "MSLP": 1012.0, "RMAX": 50.0, "FSPD": 2.01838, "FDIR": 300.6474, "RENV": 55.0, "PENV": 1012.0, "VALIDT": 0, "DTG": "2026-09-03 06:00", "LATNOW": 32.4, "LONNOW": -96.3, "WINDNOW": 20.0, "DIRNOW": 2.0, "SPDNOW": 3.0, "TECH": "TRAK", "ADVNR": 7, "ATCFID": "AL052026", "NAME": "EDOUARD", "FTECH": "OFCL", "FCST_DTG": "2026-09-03 06:00:00", "RUN_DTG": "2026-09-04 00:16:57", "BASIN": "AL", "STMNR": 5, "CAT_ID": null, "CAT_DESC": null, "MSGID": "WTNT25 KNHC 020231", "VALIDTIME": "2026-09-03 06:00:00" }, "geometry": { "type": "LineString", "coordinates": [ [ -87.2, 28.8 ], [ -87.9, 28.3 ], [ -88.7, 28.0 ], [ -89.3, 27.9 ], [ -89.5, 27.7 ], [ -89.6, 27.6 ], [ -90.7, 27.4 ], [ -90.8, 27.6 ], [ -91.0, 28.1 ], [ -91.6, 28.4 ], [ -92.4, 28.9 ], [ -93.0, 29.3 ], [ -93.6, 29.7 ], [ -93.84, 29.9 ], [ -94.2, 30.2 ], [ -94.9, 30.6 ], [ -95.3, 31.3 ], [ -95.1, 31.4 ], [ -95.5, 32.0 ], [ -96.3, 32.4 ] ] } },
{ "type": "Feature", "properties": { "ID": 79079, "LAT": 32.9, "LON": -97.0, "VMAX": 15.0, "MSLP": 1013.8515, "RMAX": 50.99776, "FSPD": 1.99107, "FDIR": 313.5515, "RENV": 250.0, "PENV": 1012.0, "VALIDT": 12, "DTG": "2026-09-03 18:00", "LATNOW": 32.4, "LONNOW": -96.3, "WINDNOW": 20.0, "DIRNOW": 2.0, "SPDNOW": 3.0, "TECH": "FCST", "ADVNR": 7, "ATCFID": "AL052026", "NAME": "EDOUARD", "FTECH": "OFCL", "FCST_DTG": "2026-09-03 06:00:00", "RUN_DTG": "2026-09-04 00:16:57", "BASIN": "AL", "STMNR": 5, "CAT_ID": null, "CAT_DESC": null, "MSGID": "WTNT25 KNHC 020231", "VALIDTIME": "2026-09-03 18:00:00" }, "geometry": { "type": "LineString", "coordinates": [ [ -96.3, 32.4 ], [ -96.5, 32.5 ], [ -97.0, 32.9 ] ] } }
]
}
