{
"type": "FeatureCollection",
"crs": { "type": "name", "properties": { "name": "urn:ogc:def:crs:OGC:1.3:CRS84" } },
"features": [
{ "type": "Feature", "properties": { "ID": 32955, "LAT": 16.9, "LON": 120.3, "VMAX": 15.0, "MSLP": 1013.8515, "RMAX": 40.0, "FSPD": 1.79915, "FDIR": 304.88123, "RENV": 500.0, "PENV": 1012.0, "VALIDT": 0, "DTG": "2025-09-04 06:00", "LATNOW": 21.8, "LONNOW": 112.6, "WINDNOW": 65.0, "DIRNOW": 5.0, "SPDNOW": 2.0, "TECH": "TRAK", "ADVNR": 8, "ATCFID": "WP222025", "NAME": "TAPAH", "FTECH": "JTWC", "FCST_DTG": "2025-09-08 00:00:00", "RUN_DTG": "2025-09-08 16:43:56", "BASIN": "WP", "STMNR": 22, "CAT_ID": null, "CAT_DESC": null, "MSGID": "WTPN52 PGTW 080300", "VALIDTIME": "2025-09-04 06:00:00" }, "geometry": { "type": "Point", "coordinates": [ 120.300003, 16.9 ] } },
{ "type": "Feature", "properties": { "ID": 32956, "LAT": 17.1, "LON": 120.0, "VMAX": 15.0, "MSLP": 1013.8515, "RMAX": 40.0, "FSPD": 3.20401, "FDIR": 309.9598, "RENV": 500.0, "PENV": 1012.0, "VALIDT": 0, "DTG": "2025-09-04 12:00", "LATNOW": 21.8, "LONNOW": 112.6, "WINDNOW": 65.0, "DIRNOW": 5.0, "SPDNOW": 2.0, "TECH": "TRAK", "ADVNR": 8, "ATCFID": "WP222025", "NAME": "TAPAH", "FTECH": "JTWC", "FCST_DTG": "2025-09-08 00:00:00", "RUN_DTG": "2025-09-08 16:43:56", "BASIN": "WP", "STMNR": 22, "CAT_ID": null, "CAT_DESC": null, "MSGID": "WTPN52 PGTW 080300", "VALIDTIME": "2025-09-04 12:00:00" }, "geometry": { "type": "Point", "coordinates": [ 120.0, 17.1 ] } },
{ "type": "Feature", "properties": { "ID": 32957, "LAT": 17.5, "LON": 119.5, "VMAX": 15.0, "MSLP": 1013.8515, "RMAX": 40.0, "FSPD": 2.02833, "FDIR": 284.69244, "RENV": 500.0, "PENV": 1012.0, "VALIDT": 0, "DTG": "2025-09-04 18:00", "LATNOW": 21.8, "LONNOW": 112.6, "WINDNOW": 65.0, "DIRNOW": 5.0, "SPDNOW": 2.0, "TECH": "TRAK", "ADVNR": 8, "ATCFID": "WP222025", "NAME": "TAPAH", "FTECH": "JTWC", "FCST_DTG": "2025-09-08 00:00:00", "RUN_DTG": "2025-09-08 16:43:56", "BASIN": "WP", "STMNR": 22, "CAT_ID": null, "CAT_DESC": null, "MSGID": "WTPN52 PGTW 080300", "VALIDTIME": "2025-09-04 18:00:00" }, "geometry": { "type": "Point", "coordinates": [ 119.5, 17.5 ] } },
{ "type": "Feature", "properties": { "ID": 32958, "LAT": 17.6, "LON": 119.1, "VMAX": 20.0, "MSLP": 1012.95825, "RMAX": 45.0, "FSPD": 0.98071, "FDIR": 269.99997, "RENV": 500.0, "PENV": 1012.0, "VALIDT": 0, "DTG": "2025-09-05 00:00", "LATNOW": 21.8, "LONNOW": 112.6, "WINDNOW": 65.0, "DIRNOW": 5.0, "SPDNOW": 2.0, "TECH": "TRAK", "ADVNR": 8, "ATCFID": "WP222025", "NAME": "TAPAH", "FTECH": "JTWC", "FCST_DTG": "2025-09-08 00:00:00", "RUN_DTG": "2025-09-08 16:43:56", "BASIN": "WP", "STMNR": 22, "CAT_ID": null, "CAT_DESC": null, "MSGID": "WTPN52 PGTW 080300", "VALIDTIME": "2025-09-05 00:00:00" }, "geometry": { "type": "Point", "coordinates": [ 119.099998, 17.6 ] } },
{ "type": "Feature", "properties": { "ID": 32959, "LAT": 17.6, "LON": 118.9, "VMAX": 20.0, "MSLP": 1012.95825, "RMAX": 45.0, "FSPD": 0.98075, "FDIR": 269.99997, "RENV": 500.0, "PENV": 1012.0, "VALIDT": 0, "DTG": "2025-09-05 06:00", "LATNOW": 21.8, "LONNOW": 112.6, "WINDNOW": 65.0, "DIRNOW": 5.0, "SPDNOW": 2.0, "TECH": "TRAK", "ADVNR": 8, "ATCFID": "WP222025", "NAME": "TAPAH", "FTECH": "JTWC", "FCST_DTG": "2025-09-08 00:00:00", "RUN_DTG": "2025-09-08 16:43:56", "BASIN": "WP", "STMNR": 22, "CAT_ID": null, "CAT_DESC": null, "MSGID": "WTPN52 PGTW 080300", "VALIDTIME": "2025-09-05 06:00:00" }, "geometry": { "type": "Point", "coordinates": [ 118.900002, 17.6 ] } },
{ "type": "Feature", "properties": { "ID": 32960, "LAT": 17.6, "LON": 118.7, "VMAX": 20.0, "MSLP": 1012.95825, "RMAX": 45.0, "FSPD": 3.46993, "FDIR": 278.526, "RENV": 500.0, "PENV": 1012.0, "VALIDT": 0, "DTG": "2025-09-05 12:00", "LATNOW": 21.8, "LONNOW": 112.6, "WINDNOW": 65.0, "DIRNOW": 5.0, "SPDNOW": 2.0, "TECH": "TRAK", "ADVNR": 8, "ATCFID": "WP222025", "NAME": "TAPAH", "FTECH": "JTWC", "FCST_DTG": "2025-09-08 00:00:00", "RUN_DTG": "2025-09-08 16:43:56", "BASIN": "WP", "STMNR": 22, "CAT_ID": null, "CAT_DESC": null, "MSGID": "WTPN52 PGTW 080300", "VALIDTIME": "2025-09-05 12:00:00" }, "geometry": { "type": "Point", "coordinates": [ 118.699997, 17.6 ] } },
{ "type": "Feature", "properties": { "ID": 32961, "LAT": 17.7, "LON": 118.0, "VMAX": 20.0, "MSLP": 1012.95825, "RMAX": 45.0, "FSPD": 4.05138, "FDIR": 284.71185, "RENV": 500.0, "PENV": 1012.0, "VALIDT": 0, "DTG": "2025-09-05 18:00", "LATNOW": 21.8, "LONNOW": 112.6, "WINDNOW": 65.0, "DIRNOW": 5.0, "SPDNOW": 2.0, "TECH": "TRAK", "ADVNR": 8, "ATCFID": "WP222025", "NAME": "TAPAH", "FTECH": "JTWC", "FCST_DTG": "2025-09-08 00:00:00", "RUN_DTG": "2025-09-08 16:43:56", "BASIN": "WP", "STMNR": 22, "CAT_ID": null, "CAT_DESC": null, "MSGID": "WTPN52 PGTW 080300", "VALIDTIME": "2025-09-05 18:00:00" }, "geometry": { "type": "Point", "coordinates": [ 118.0, 17.700001 ] } },
{ "type": "Feature", "properties": { "ID": 32962, "LAT": 17.9, "LON": 117.2, "VMAX": 25.0, "MSLP": 1011.80975, "RMAX": 45.0, "FSPD": 3.75564, "FDIR": 294.26385, "RENV": 500.0, "PENV": 1012.0, "VALIDT": 0, "DTG": "2025-09-06 00:00", "LATNOW": 21.8, "LONNOW": 112.6, "WINDNOW": 65.0, "DIRNOW": 5.0, "SPDNOW": 2.0, "TECH": "TRAK", "ADVNR": 8, "ATCFID": "WP222025", "NAME": "TAPAH", "FTECH": "JTWC", "FCST_DTG": "2025-09-08 00:00:00", "RUN_DTG": "2025-09-08 16:43:56", "BASIN": "WP", "STMNR": 22, "CAT_ID": null, "CAT_DESC": null, "MSGID": "WTPN52 PGTW 080300", "VALIDTIME": "2025-09-06 00:00:00" }, "geometry": { "type": "Point", "coordinates": [ 117.199997, 17.9 ] } },
{ "type": "Feature", "properties": { "ID": 32963, "LAT": 18.2, "LON": 116.5, "VMAX": 30.0, "MSLP": 1002.0, "RMAX": 45.0, "FSPD": 3.57948, "FDIR": 305.09137, "RENV": 115.0, "PENV": 1005.0, "VALIDT": 0, "DTG": "2025-09-06 06:00", "LATNOW": 21.8, "LONNOW": 112.6, "WINDNOW": 65.0, "DIRNOW": 5.0, "SPDNOW": 2.0, "TECH": "TRAK", "ADVNR": 8, "ATCFID": "WP222025", "NAME": "TAPAH", "FTECH": "JTWC", "FCST_DTG": "2025-09-08 00:00:00", "RUN_DTG": "2025-09-08 16:43:56", "BASIN": "WP", "STMNR": 22, "CAT_ID": null, "CAT_DESC": null, "MSGID": "WTPN52 PGTW 080300", "VALIDTIME": "2025-09-06 06:00:00" }, "geometry": { "type": "Point", "coordinates": [ 116.5, 18.200001 ] } },
{ "type": "Feature", "properties": { "ID": 32964, "LAT": 18.6, "LON": 115.9, "VMAX": 30.0, "MSLP": 1002.0, "RMAX": 45.0, "FSPD": 5.38949, "FDIR": 264.52252, "RENV": 115.0, "PENV": 1005.0, "VALIDT": 0, "DTG": "2025-09-06 12:00", "LATNOW": 21.8, "LONNOW": 112.6, "WINDNOW": 65.0, "DIRNOW": 5.0, "SPDNOW": 2.0, "TECH": "TRAK", "ADVNR": 8, "ATCFID": "WP222025", "NAME": "TAPAH", "FTECH": "JTWC", "FCST_DTG": "2025-09-08 00:00:00", "RUN_DTG": "2025-09-08 16:43:56", "BASIN": "WP", "STMNR": 22, "CAT_ID": null, "CAT_DESC": null, "MSGID": "WTPN52 PGTW 080300", "VALIDTIME": "2025-09-06 12:00:00" }, "geometry": { "type": "Point", "coordinates": [ 115.900002, 18.6 ] } },
{ "type": "Feature", "properties": { "ID": 32965, "LAT": 18.5, "LON": 114.8, "VMAX": 40.0, "MSLP": 1002.0, "RMAX": 45.0, "FSPD": 2.20708, "FDIR": 242.21347, "RENV": 115.0, "PENV": 1005.0, "VALIDT": 0, "DTG": "2025-09-06 18:00", "LATNOW": 21.8, "LONNOW": 112.6, "WINDNOW": 65.0, "DIRNOW": 5.0, "SPDNOW": 2.0, "TECH": "TRAK", "ADVNR": 8, "ATCFID": "WP222025", "NAME": "TAPAH", "FTECH": "JTWC", "FCST_DTG": "2025-09-08 00:00:00", "RUN_DTG": "2025-09-08 16:43:56", "BASIN": "WP", "STMNR": 22, "CAT_ID": null, "CAT_DESC": null, "MSGID": "WTPN52 PGTW 080300", "VALIDTIME": "2025-09-06 18:00:00" }, "geometry": { "type": "Point", "coordinates": [ 114.800003, 18.5 ] } },
{ "type": "Feature", "properties": { "ID": 32966, "LAT": 18.3, "LON": 114.4, "VMAX": 45.0, "MSLP": 997.0, "RMAX": 30.0, "FSPD": 5.91636, "FDIR": 330.40393, "RENV": 170.0, "PENV": 1005.0, "VALIDT": 0, "DTG": "2025-09-07 00:00", "LATNOW": 21.8, "LONNOW": 112.6, "WINDNOW": 65.0, "DIRNOW": 5.0, "SPDNOW": 2.0, "TECH": "TRAK", "ADVNR": 8, "ATCFID": "WP222025", "NAME": "TAPAH", "FTECH": "JTWC", "FCST_DTG": "2025-09-08 00:00:00", "RUN_DTG": "2025-09-08 16:43:56", "BASIN": "WP", "STMNR": 22, "CAT_ID": null, "CAT_DESC": null, "MSGID": "WTPN52 PGTW 080300", "VALIDTIME": "2025-09-07 00:00:00" }, "geometry": { "type": "Point", "coordinates": [ 114.400002, 18.299999 ] } },
{ "type": "Feature", "properties": { "ID": 32967, "LAT": 19.3, "LON": 113.8, "VMAX": 45.0, "MSLP": 994.0, "RMAX": 35.0, "FSPD": 4.36453, "FDIR": 340.55417, "RENV": 170.0, "PENV": 1005.0, "VALIDT": 0, "DTG": "2025-09-07 06:00", "LATNOW": 21.8, "LONNOW": 112.6, "WINDNOW": 65.0, "DIRNOW": 5.0, "SPDNOW": 2.0, "TECH": "TRAK", "ADVNR": 8, "ATCFID": "WP222025", "NAME": "TAPAH", "FTECH": "JTWC", "FCST_DTG": "2025-09-08 00:00:00", "RUN_DTG": "2025-09-08 16:43:56", "BASIN": "WP", "STMNR": 22, "CAT_ID": null, "CAT_DESC": null, "MSGID": "WTPN52 PGTW 080300", "VALIDTIME": "2025-09-07 06:00:00" }, "geometry": { "type": "Point", "coordinates": [ 113.800003, 19.299999 ] } },
{ "type": "Feature", "properties": { "ID": 32968, "LAT": 20.1, "LON": 113.5, "VMAX": 50.0, "MSLP": 994.0, "RMAX": 35.0, "FSPD": 3.88061, "FDIR": 338.12125, "RENV": 170.0, "PENV": 1005.0, "VALIDT": 0, "DTG": "2025-09-07 12:00", "LATNOW": 21.8, "LONNOW": 112.6, "WINDNOW": 65.0, "DIRNOW": 5.0, "SPDNOW": 2.0, "TECH": "TRAK", "ADVNR": 8, "ATCFID": "WP222025", "NAME": "TAPAH", "FTECH": "JTWC", "FCST_DTG": "2025-09-08 00:00:00", "RUN_DTG": "2025-09-08 16:43:56", "BASIN": "WP", "STMNR": 22, "CAT_ID": null, "CAT_DESC": null, "MSGID": "WTPN52 PGTW 080300", "VALIDTIME": "2025-09-07 12:00:00" }, "geometry": { "type": "Point", "coordinates": [ 113.5, 20.1 ] } },
{ "type": "Feature", "properties": { "ID": 32969, "LAT": 20.8, "LON": 113.2, "VMAX": 60.0, "MSLP": 991.0, "RMAX": 20.0, "FSPD": 5.89369, "FDIR": 330.79422, "RENV": 170.0, "PENV": 1005.0, "VALIDT": 0, "DTG": "2025-09-07 18:00", "LATNOW": 21.8, "LONNOW": 112.6, "WINDNOW": 65.0, "DIRNOW": 5.0, "SPDNOW": 2.0, "TECH": "TRAK", "ADVNR": 8, "ATCFID": "WP222025", "NAME": "TAPAH", "FTECH": "JTWC", "FCST_DTG": "2025-09-08 00:00:00", "RUN_DTG": "2025-09-08 16:43:56", "BASIN": "WP", "STMNR": 22, "CAT_ID": null, "CAT_DESC": null, "MSGID": "WTPN52 PGTW 080300", "VALIDTIME": "2025-09-07 18:00:00" }, "geometry": { "type": "Point", "coordinates": [ 113.199997, 20.799999 ] } },
{ "type": "Feature", "properties": { "ID": 32970, "LAT": 21.8, "LON": 112.6, "VMAX": 65.0, "MSLP": 984.0, "RMAX": 25.0, "FSPD": 5.26375, "FDIR": 317.13834, "RENV": 155.0, "PENV": 1004.0, "VALIDT": 0, "DTG": "2025-09-08 00:00", "LATNOW": 21.8, "LONNOW": 112.6, "WINDNOW": 65.0, "DIRNOW": 5.0, "SPDNOW": 2.0, "TECH": "TRAK", "ADVNR": 8, "ATCFID": "WP222025", "NAME": "TAPAH", "FTECH": "JTWC", "FCST_DTG": "2025-09-08 00:00:00", "RUN_DTG": "2025-09-08 16:43:56", "BASIN": "WP", "STMNR": 22, "CAT_ID": null, "CAT_DESC": null, "MSGID": "WTPN52 PGTW 080300", "VALIDTIME": "2025-09-08 00:00:00" }, "geometry": { "type": "Point", "coordinates": [ 112.599998, 21.799999 ] } },
{ "type": "Feature", "properties": { "ID": 32971, "LAT": 21.95, "LON": 112.45, "VMAX": 65.0, "MSLP": 984.0, "RMAX": 25.0, "FSPD": 5.25075, "FDIR": 317.2917, "RENV": 155.0, "PENV": 1004.0, "VALIDT": 1, "DTG": "2025-09-08 01:00", "LATNOW": 21.8, "LONNOW": 112.6, "WINDNOW": 65.0, "DIRNOW": 5.0, "SPDNOW": 2.0, "TECH": "FCST", "ADVNR": 8, "ATCFID": "WP222025", "NAME": "TAPAH", "FTECH": "JTWC", "FCST_DTG": "2025-09-08 00:00:00", "RUN_DTG": "2025-09-08 16:43:56", "BASIN": "WP", "STMNR": 22, "CAT_ID": null, "CAT_DESC": null, "MSGID": "WTPN52 PGTW 080300", "VALIDTIME": "2025-09-08 01:00:00" }, "geometry": { "type": "Point", "coordinates": [ 112.449997, 21.949999 ] } },
{ "type": "Feature", "properties": { "ID": 32972, "LAT": 23.3, "LON": 111.1, "VMAX": 45.0, "MSLP": 1004.66364, "RMAX": 31.72001, "FSPD": 4.18002, "FDIR": 307.9782, "RENV": 180.0, "PENV": 1012.0, "VALIDT": 12, "DTG": "2025-09-08 12:00", "LATNOW": 21.8, "LONNOW": 112.6, "WINDNOW": 65.0, "DIRNOW": 5.0, "SPDNOW": 2.0, "TECH": "FCST", "ADVNR": 8, "ATCFID": "WP222025", "NAME": "TAPAH", "FTECH": "JTWC", "FCST_DTG": "2025-09-08 00:00:00", "RUN_DTG": "2025-09-08 16:43:56", "BASIN": "WP", "STMNR": 22, "CAT_ID": null, "CAT_DESC": null, "MSGID": "WTPN52 PGTW 080300", "VALIDTIME": "2025-09-08 12:00:00" }, "geometry": { "type": "Point", "coordinates": [ 111.099998, 23.299999 ] } },
{ "type": "Feature", "properties": { "ID": 32973, "LAT": 24.3, "LON": 109.7, "VMAX": 30.0, "MSLP": 1010.40607, "RMAX": 35.1547, "FSPD": 3.40966, "FDIR": 296.91296, "RENV": 250.0, "PENV": 1012.0, "VALIDT": 24, "DTG": "2025-09-09 00:00", "LATNOW": 21.8, "LONNOW": 112.6, "WINDNOW": 65.0, "DIRNOW": 5.0, "SPDNOW": 2.0, "TECH": "FCST", "ADVNR": 8, "ATCFID": "WP222025", "NAME": "TAPAH", "FTECH": "JTWC", "FCST_DTG": "2025-09-08 00:00:00", "RUN_DTG": "2025-09-08 16:43:56", "BASIN": "WP", "STMNR": 22, "CAT_ID": null, "CAT_DESC": null, "MSGID": "WTPN52 PGTW 080300", "VALIDTIME": "2025-09-09 00:00:00" }, "geometry": { "type": "Point", "coordinates": [ 109.699997, 24.299999 ] } },
{ "type": "Feature", "properties": { "ID": 32974, "LAT": 24.9, "LON": 108.4, "VMAX": 20.0, "MSLP": 1012.95825, "RMAX": 35.77493, "FSPD": 3.40966, "FDIR": 296.91296, "RENV": 250.0, "PENV": 1012.0, "VALIDT": 36, "DTG": "2025-09-09 12:00", "LATNOW": 21.8, "LONNOW": 112.6, "WINDNOW": 65.0, "DIRNOW": 5.0, "SPDNOW": 2.0, "TECH": "FCST", "ADVNR": 8, "ATCFID": "WP222025", "NAME": "TAPAH", "FTECH": "JTWC", "FCST_DTG": "2025-09-08 00:00:00", "RUN_DTG": "2025-09-08 16:43:56", "BASIN": "WP", "STMNR": 22, "CAT_ID": null, "CAT_DESC": null, "MSGID": "WTPN52 PGTW 080300", "VALIDTIME": "2025-09-09 12:00:00" }, "geometry": { "type": "Point", "coordinates": [ 108.400002, 24.9 ] } },
{ "type": "Feature", "properties": { "ID": 32970, "LAT": 21.8, "LON": 112.6, "VMAX": 65.0, "MSLP": 984.0, "RMAX": 25.0, "FSPD": 5.26375, "FDIR": 317.13834, "RENV": 155.0, "PENV": 1004.0, "VALIDT": 0, "DTG": "2025-09-08 00:00", "LATNOW": 21.8, "LONNOW": 112.6, "WINDNOW": 65.0, "DIRNOW": 5.0, "SPDNOW": 2.0, "TECH": "TRAK", "ADVNR": 8, "ATCFID": "WP222025", "NAME": "TAPAH", "FTECH": "JTWC", "FCST_DTG": "2025-09-08 00:00:00", "RUN_DTG": "2025-09-08 16:43:56", "BASIN": "WP", "STMNR": 22, "CAT_ID": null, "CAT_DESC": null, "MSGID": "WTPN52 PGTW 080300", "VALIDTIME": "2025-09-08 00:00:00" }, "geometry": { "type": "LineString", "coordinates": [ [ 120.3, 16.9 ], [ 120.0, 17.1 ], [ 119.5, 17.5 ], [ 119.1, 17.6 ], [ 118.9, 17.6 ], [ 118.7, 17.6 ], [ 118.0, 17.7 ], [ 117.2, 17.9 ], [ 116.5, 18.2 ], [ 115.9, 18.6 ], [ 114.8, 18.5 ], [ 114.4, 18.3 ], [ 113.8, 19.3 ], [ 113.5, 20.1 ], [ 113.2, 20.8 ], [ 112.6, 21.8 ] ] } },
{ "type": "Feature", "properties": { "ID": 32974, "LAT": 24.9, "LON": 108.4, "VMAX": 20.0, "MSLP": 1012.95825, "RMAX": 35.77493, "FSPD": 3.40966, "FDIR": 296.91296, "RENV": 250.0, "PENV": 1012.0, "VALIDT": 36, "DTG": "2025-09-09 12:00", "LATNOW": 21.8, "LONNOW": 112.6, "WINDNOW": 65.0, "DIRNOW": 5.0, "SPDNOW": 2.0, "TECH": "FCST", "ADVNR": 8, "ATCFID": "WP222025", "NAME": "TAPAH", "FTECH": "JTWC", "FCST_DTG": "2025-09-08 00:00:00", "RUN_DTG": "2025-09-08 16:43:56", "BASIN": "WP", "STMNR": 22, "CAT_ID": null, "CAT_DESC": null, "MSGID": "WTPN52 PGTW 080300", "VALIDTIME": "2025-09-09 12:00:00" }, "geometry": { "type": "LineString", "coordinates": [ [ 112.6, 21.8 ], [ 112.45, 21.95 ], [ 111.1, 23.3 ], [ 109.7, 24.3 ], [ 108.4, 24.9 ] ] } }
]
}
