{
"type": "FeatureCollection",
"crs": { "type": "name", "properties": { "name": "urn:ogc:def:crs:OGC:1.3:CRS84" } },
"features": [
{ "type": "Feature", "properties": { "ID": 109057, "LAT": -18.0, "LON": 156.6, "VMAX": 15.0, "MSLP": 1013.8515, "RMAX": 40.0, "FSPD": 2.98118, "FDIR": 279.93695, "RENV": 500.0, "PENV": 1012.0, "VALIDT": 0, "DTG": "2026-02-27 12:00", "LATNOW": -15.7, "LONNOW": 148.9, "WINDNOW": 30.0, "DIRNOW": 4.0, "SPDNOW": 4.0, "TECH": "TRAK", "ADVNR": 5, "ATCFID": "SH242026", "NAME": "TWENTY-FO", "FTECH": "JTWC", "FCST_DTG": "2026-03-05 00:00:00", "RUN_DTG": "2026-03-05 15:10:02", "BASIN": "SH", "STMNR": 24, "CAT_ID": null, "CAT_DESC": null, "MSGID": "WTPS51 PGTW 050300", "VALIDTIME": "2026-02-27 12:00:00" }, "geometry": { "type": "Point", "coordinates": [ 156.600006, -18.0 ] } },
{ "type": "Feature", "properties": { "ID": 109058, "LAT": -17.9, "LON": 156.0, "VMAX": 15.0, "MSLP": 1013.8515, "RMAX": 40.0, "FSPD": 3.46614, "FDIR": 278.5354, "RENV": 500.0, "PENV": 1012.0, "VALIDT": 0, "DTG": "2026-02-27 18:00", "LATNOW": -15.7, "LONNOW": 148.9, "WINDNOW": 30.0, "DIRNOW": 4.0, "SPDNOW": 4.0, "TECH": "TRAK", "ADVNR": 5, "ATCFID": "SH242026", "NAME": "TWENTY-FO", "FTECH": "JTWC", "FCST_DTG": "2026-03-05 00:00:00", "RUN_DTG": "2026-03-05 15:10:02", "BASIN": "SH", "STMNR": 24, "CAT_ID": null, "CAT_DESC": null, "MSGID": "WTPS51 PGTW 050300", "VALIDTIME": "2026-02-27 18:00:00" }, "geometry": { "type": "Point", "coordinates": [ 156.0, -17.9 ] } },
{ "type": "Feature", "properties": { "ID": 109059, "LAT": -17.8, "LON": 155.3, "VMAX": 15.0, "MSLP": 1013.8515, "RMAX": 40.0, "FSPD": 1.61933, "FDIR": 342.3769, "RENV": 500.0, "PENV": 1012.0, "VALIDT": 0, "DTG": "2026-02-28 00:00", "LATNOW": -15.7, "LONNOW": 148.9, "WINDNOW": 30.0, "DIRNOW": 4.0, "SPDNOW": 4.0, "TECH": "TRAK", "ADVNR": 5, "ATCFID": "SH242026", "NAME": "TWENTY-FO", "FTECH": "JTWC", "FCST_DTG": "2026-03-05 00:00:00", "RUN_DTG": "2026-03-05 15:10:02", "BASIN": "SH", "STMNR": 24, "CAT_ID": null, "CAT_DESC": null, "MSGID": "WTPS51 PGTW 050300", "VALIDTIME": "2026-02-28 00:00:00" }, "geometry": { "type": "Point", "coordinates": [ 155.300003, -17.799999 ] } },
{ "type": "Feature", "properties": { "ID": 109060, "LAT": -17.5, "LON": 155.2, "VMAX": 15.0, "MSLP": 1013.8515, "RMAX": 40.0, "FSPD": 1.61957, "FDIR": 17.65039, "RENV": 500.0, "PENV": 1012.0, "VALIDT": 0, "DTG": "2026-02-28 06:00", "LATNOW": -15.7, "LONNOW": 148.9, "WINDNOW": 30.0, "DIRNOW": 4.0, "SPDNOW": 4.0, "TECH": "TRAK", "ADVNR": 5, "ATCFID": "SH242026", "NAME": "TWENTY-FO", "FTECH": "JTWC", "FCST_DTG": "2026-03-05 00:00:00", "RUN_DTG": "2026-03-05 15:10:02", "BASIN": "SH", "STMNR": 24, "CAT_ID": null, "CAT_DESC": null, "MSGID": "WTPS51 PGTW 050300", "VALIDTIME": "2026-02-28 06:00:00" }, "geometry": { "type": "Point", "coordinates": [ 155.199997, -17.5 ] } },
{ "type": "Feature", "properties": { "ID": 109061, "LAT": -17.2, "LON": 155.3, "VMAX": 20.0, "MSLP": 1012.95825, "RMAX": 45.0, "FSPD": 0.49139, "FDIR": 90.0, "RENV": 500.0, "PENV": 1012.0, "VALIDT": 0, "DTG": "2026-02-28 12:00", "LATNOW": -15.7, "LONNOW": 148.9, "WINDNOW": 30.0, "DIRNOW": 4.0, "SPDNOW": 4.0, "TECH": "TRAK", "ADVNR": 5, "ATCFID": "SH242026", "NAME": "TWENTY-FO", "FTECH": "JTWC", "FCST_DTG": "2026-03-05 00:00:00", "RUN_DTG": "2026-03-05 15:10:02", "BASIN": "SH", "STMNR": 24, "CAT_ID": null, "CAT_DESC": null, "MSGID": "WTPS51 PGTW 050300", "VALIDTIME": "2026-02-28 12:00:00" }, "geometry": { "type": "Point", "coordinates": [ 155.300003, -17.200001 ] } },
{ "type": "Feature", "properties": { "ID": 109062, "LAT": -17.2, "LON": 155.4, "VMAX": 20.0, "MSLP": 1012.95825, "RMAX": 45.0, "FSPD": 1.56181, "FDIR": 289.2318, "RENV": 500.0, "PENV": 1012.0, "VALIDT": 0, "DTG": "2026-02-28 18:00", "LATNOW": -15.7, "LONNOW": 148.9, "WINDNOW": 30.0, "DIRNOW": 4.0, "SPDNOW": 4.0, "TECH": "TRAK", "ADVNR": 5, "ATCFID": "SH242026", "NAME": "TWENTY-FO", "FTECH": "JTWC", "FCST_DTG": "2026-03-05 00:00:00", "RUN_DTG": "2026-03-05 15:10:02", "BASIN": "SH", "STMNR": 24, "CAT_ID": null, "CAT_DESC": null, "MSGID": "WTPS51 PGTW 050300", "VALIDTIME": "2026-02-28 18:00:00" }, "geometry": { "type": "Point", "coordinates": [ 155.399994, -17.200001 ] } },
{ "type": "Feature", "properties": { "ID": 109063, "LAT": -17.1, "LON": 155.1, "VMAX": 20.0, "MSLP": 1012.95825, "RMAX": 45.0, "FSPD": 2.03353, "FDIR": 284.654, "RENV": 500.0, "PENV": 1012.0, "VALIDT": 0, "DTG": "2026-03-01 00:00", "LATNOW": -15.7, "LONNOW": 148.9, "WINDNOW": 30.0, "DIRNOW": 4.0, "SPDNOW": 4.0, "TECH": "TRAK", "ADVNR": 5, "ATCFID": "SH242026", "NAME": "TWENTY-FO", "FTECH": "JTWC", "FCST_DTG": "2026-03-05 00:00:00", "RUN_DTG": "2026-03-05 15:10:02", "BASIN": "SH", "STMNR": 24, "CAT_ID": null, "CAT_DESC": null, "MSGID": "WTPS51 PGTW 050300", "VALIDTIME": "2026-03-01 00:00:00" }, "geometry": { "type": "Point", "coordinates": [ 155.100006, -17.1 ] } },
{ "type": "Feature", "properties": { "ID": 109064, "LAT": -17.0, "LON": 154.7, "VMAX": 20.0, "MSLP": 1012.95825, "RMAX": 45.0, "FSPD": 2.51369, "FDIR": 281.80945, "RENV": 500.0, "PENV": 1012.0, "VALIDT": 0, "DTG": "2026-03-01 06:00", "LATNOW": -15.7, "LONNOW": 148.9, "WINDNOW": 30.0, "DIRNOW": 4.0, "SPDNOW": 4.0, "TECH": "TRAK", "ADVNR": 5, "ATCFID": "SH242026", "NAME": "TWENTY-FO", "FTECH": "JTWC", "FCST_DTG": "2026-03-05 00:00:00", "RUN_DTG": "2026-03-05 15:10:02", "BASIN": "SH", "STMNR": 24, "CAT_ID": null, "CAT_DESC": null, "MSGID": "WTPS51 PGTW 050300", "VALIDTIME": "2026-03-01 06:00:00" }, "geometry": { "type": "Point", "coordinates": [ 154.699997, -17.0 ] } },
{ "type": "Feature", "properties": { "ID": 109065, "LAT": -16.9, "LON": 154.2, "VMAX": 20.0, "MSLP": 1012.95825, "RMAX": 45.0, "FSPD": 3.33433, "FDIR": 297.57178, "RENV": 500.0, "PENV": 1012.0, "VALIDT": 0, "DTG": "2026-03-01 12:00", "LATNOW": -15.7, "LONNOW": 148.9, "WINDNOW": 30.0, "DIRNOW": 4.0, "SPDNOW": 4.0, "TECH": "TRAK", "ADVNR": 5, "ATCFID": "SH242026", "NAME": "TWENTY-FO", "FTECH": "JTWC", "FCST_DTG": "2026-03-05 00:00:00", "RUN_DTG": "2026-03-05 15:10:02", "BASIN": "SH", "STMNR": 24, "CAT_ID": null, "CAT_DESC": null, "MSGID": "WTPS51 PGTW 050300", "VALIDTIME": "2026-03-01 12:00:00" }, "geometry": { "type": "Point", "coordinates": [ 154.199997, -16.9 ] } },
{ "type": "Feature", "properties": { "ID": 109066, "LAT": -16.6, "LON": 153.6, "VMAX": 20.0, "MSLP": 1012.95825, "RMAX": 45.0, "FSPD": 3.13333, "FDIR": 289.16986, "RENV": 500.0, "PENV": 1012.0, "VALIDT": 0, "DTG": "2026-03-01 18:00", "LATNOW": -15.7, "LONNOW": 148.9, "WINDNOW": 30.0, "DIRNOW": 4.0, "SPDNOW": 4.0, "TECH": "TRAK", "ADVNR": 5, "ATCFID": "SH242026", "NAME": "TWENTY-FO", "FTECH": "JTWC", "FCST_DTG": "2026-03-05 00:00:00", "RUN_DTG": "2026-03-05 15:10:02", "BASIN": "SH", "STMNR": 24, "CAT_ID": null, "CAT_DESC": null, "MSGID": "WTPS51 PGTW 050300", "VALIDTIME": "2026-03-01 18:00:00" }, "geometry": { "type": "Point", "coordinates": [ 153.600006, -16.6 ] } },
{ "type": "Feature", "properties": { "ID": 109067, "LAT": -16.4, "LON": 153.0, "VMAX": 25.0, "MSLP": 1011.80975, "RMAX": 45.0, "FSPD": 2.75554, "FDIR": 338.98276, "RENV": 500.0, "PENV": 1012.0, "VALIDT": 0, "DTG": "2026-03-02 00:00", "LATNOW": -15.7, "LONNOW": 148.9, "WINDNOW": 30.0, "DIRNOW": 4.0, "SPDNOW": 4.0, "TECH": "TRAK", "ADVNR": 5, "ATCFID": "SH242026", "NAME": "TWENTY-FO", "FTECH": "JTWC", "FCST_DTG": "2026-03-05 00:00:00", "RUN_DTG": "2026-03-05 15:10:02", "BASIN": "SH", "STMNR": 24, "CAT_ID": null, "CAT_DESC": null, "MSGID": "WTPS51 PGTW 050300", "VALIDTIME": "2026-03-02 00:00:00" }, "geometry": { "type": "Point", "coordinates": [ 153.0, -16.4 ] } },
{ "type": "Feature", "properties": { "ID": 109068, "LAT": -15.9, "LON": 152.8, "VMAX": 25.0, "MSLP": 1011.80975, "RMAX": 45.0, "FSPD": 3.63506, "FDIR": 352.16324, "RENV": 500.0, "PENV": 1012.0, "VALIDT": 0, "DTG": "2026-03-02 06:00", "LATNOW": -15.7, "LONNOW": 148.9, "WINDNOW": 30.0, "DIRNOW": 4.0, "SPDNOW": 4.0, "TECH": "TRAK", "ADVNR": 5, "ATCFID": "SH242026", "NAME": "TWENTY-FO", "FTECH": "JTWC", "FCST_DTG": "2026-03-05 00:00:00", "RUN_DTG": "2026-03-05 15:10:02", "BASIN": "SH", "STMNR": 24, "CAT_ID": null, "CAT_DESC": null, "MSGID": "WTPS51 PGTW 050300", "VALIDTIME": "2026-03-02 06:00:00" }, "geometry": { "type": "Point", "coordinates": [ 152.800003, -15.9 ] } },
{ "type": "Feature", "properties": { "ID": 109069, "LAT": -15.2, "LON": 152.7, "VMAX": 25.0, "MSLP": 1011.80975, "RMAX": 45.0, "FSPD": 1.14248, "FDIR": 334.23373, "RENV": 500.0, "PENV": 1012.0, "VALIDT": 0, "DTG": "2026-03-02 12:00", "LATNOW": -15.7, "LONNOW": 148.9, "WINDNOW": 30.0, "DIRNOW": 4.0, "SPDNOW": 4.0, "TECH": "TRAK", "ADVNR": 5, "ATCFID": "SH242026", "NAME": "TWENTY-FO", "FTECH": "JTWC", "FCST_DTG": "2026-03-05 00:00:00", "RUN_DTG": "2026-03-05 15:10:02", "BASIN": "SH", "STMNR": 24, "CAT_ID": null, "CAT_DESC": null, "MSGID": "WTPS51 PGTW 050300", "VALIDTIME": "2026-03-02 12:00:00" }, "geometry": { "type": "Point", "coordinates": [ 152.699997, -15.2 ] } },
{ "type": "Feature", "properties": { "ID": 109070, "LAT": -15.0, "LON": 152.6, "VMAX": 25.0, "MSLP": 1011.80975, "RMAX": 45.0, "FSPD": 0.71535, "FDIR": 315.98462, "RENV": 500.0, "PENV": 1012.0, "VALIDT": 0, "DTG": "2026-03-02 18:00", "LATNOW": -15.7, "LONNOW": 148.9, "WINDNOW": 30.0, "DIRNOW": 4.0, "SPDNOW": 4.0, "TECH": "TRAK", "ADVNR": 5, "ATCFID": "SH242026", "NAME": "TWENTY-FO", "FTECH": "JTWC", "FCST_DTG": "2026-03-05 00:00:00", "RUN_DTG": "2026-03-05 15:10:02", "BASIN": "SH", "STMNR": 24, "CAT_ID": null, "CAT_DESC": null, "MSGID": "WTPS51 PGTW 050300", "VALIDTIME": "2026-03-02 18:00:00" }, "geometry": { "type": "Point", "coordinates": [ 152.600006, -15.0 ] } },
{ "type": "Feature", "properties": { "ID": 109071, "LAT": -14.9, "LON": 152.5, "VMAX": 25.0, "MSLP": 1011.80975, "RMAX": 45.0, "FSPD": 1.81249, "FDIR": 304.58765, "RENV": 500.0, "PENV": 1012.0, "VALIDT": 0, "DTG": "2026-03-03 00:00", "LATNOW": -15.7, "LONNOW": 148.9, "WINDNOW": 30.0, "DIRNOW": 4.0, "SPDNOW": 4.0, "TECH": "TRAK", "ADVNR": 5, "ATCFID": "SH242026", "NAME": "TWENTY-FO", "FTECH": "JTWC", "FCST_DTG": "2026-03-05 00:00:00", "RUN_DTG": "2026-03-05 15:10:02", "BASIN": "SH", "STMNR": 24, "CAT_ID": null, "CAT_DESC": null, "MSGID": "WTPS51 PGTW 050300", "VALIDTIME": "2026-03-03 00:00:00" }, "geometry": { "type": "Point", "coordinates": [ 152.5, -14.9 ] } },
{ "type": "Feature", "properties": { "ID": 109072, "LAT": -14.7, "LON": 152.2, "VMAX": 30.0, "MSLP": 1010.40607, "RMAX": 44.21983, "FSPD": 2.92927, "FDIR": 301.79395, "RENV": 500.0, "PENV": 1012.0, "VALIDT": 0, "DTG": "2026-03-03 06:00", "LATNOW": -15.7, "LONNOW": 148.9, "WINDNOW": 30.0, "DIRNOW": 4.0, "SPDNOW": 4.0, "TECH": "TRAK", "ADVNR": 5, "ATCFID": "SH242026", "NAME": "TWENTY-FO", "FTECH": "JTWC", "FCST_DTG": "2026-03-05 00:00:00", "RUN_DTG": "2026-03-05 15:10:02", "BASIN": "SH", "STMNR": 24, "CAT_ID": null, "CAT_DESC": null, "MSGID": "WTPS51 PGTW 050300", "VALIDTIME": "2026-03-03 06:00:00" }, "geometry": { "type": "Point", "coordinates": [ 152.199997, -14.7 ] } },
{ "type": "Feature", "properties": { "ID": 109073, "LAT": -14.4, "LON": 151.7, "VMAX": 30.0, "MSLP": 1010.40607, "RMAX": 44.21983, "FSPD": 5.39511, "FDIR": 292.42136, "RENV": 500.0, "PENV": 1012.0, "VALIDT": 0, "DTG": "2026-03-03 12:00", "LATNOW": -15.7, "LONNOW": 148.9, "WINDNOW": 30.0, "DIRNOW": 4.0, "SPDNOW": 4.0, "TECH": "TRAK", "ADVNR": 5, "ATCFID": "SH242026", "NAME": "TWENTY-FO", "FTECH": "JTWC", "FCST_DTG": "2026-03-05 00:00:00", "RUN_DTG": "2026-03-05 15:10:02", "BASIN": "SH", "STMNR": 24, "CAT_ID": null, "CAT_DESC": null, "MSGID": "WTPS51 PGTW 050300", "VALIDTIME": "2026-03-03 12:00:00" }, "geometry": { "type": "Point", "coordinates": [ 151.699997, -14.4 ] } },
{ "type": "Feature", "properties": { "ID": 109074, "LAT": -14.0, "LON": 150.7, "VMAX": 30.0, "MSLP": 1010.40607, "RMAX": 44.21983, "FSPD": 1.1435, "FDIR": 154.12814, "RENV": 500.0, "PENV": 1012.0, "VALIDT": 0, "DTG": "2026-03-03 18:00", "LATNOW": -15.7, "LONNOW": 148.9, "WINDNOW": 30.0, "DIRNOW": 4.0, "SPDNOW": 4.0, "TECH": "TRAK", "ADVNR": 5, "ATCFID": "SH242026", "NAME": "TWENTY-FO", "FTECH": "JTWC", "FCST_DTG": "2026-03-05 00:00:00", "RUN_DTG": "2026-03-05 15:10:02", "BASIN": "SH", "STMNR": 24, "CAT_ID": null, "CAT_DESC": null, "MSGID": "WTPS51 PGTW 050300", "VALIDTIME": "2026-03-03 18:00:00" }, "geometry": { "type": "Point", "coordinates": [ 150.699997, -14.0 ] } },
{ "type": "Feature", "properties": { "ID": 109075, "LAT": -14.2, "LON": 150.8, "VMAX": 35.0, "MSLP": 996.0, "RMAX": 45.0, "FSPD": 1.14331, "FDIR": 205.85191, "RENV": 145.0, "PENV": 1003.0, "VALIDT": 0, "DTG": "2026-03-04 00:00", "LATNOW": -15.7, "LONNOW": 148.9, "WINDNOW": 30.0, "DIRNOW": 4.0, "SPDNOW": 4.0, "TECH": "TRAK", "ADVNR": 5, "ATCFID": "SH242026", "NAME": "TWENTY-FO", "FTECH": "JTWC", "FCST_DTG": "2026-03-05 00:00:00", "RUN_DTG": "2026-03-05 15:10:02", "BASIN": "SH", "STMNR": 24, "CAT_ID": null, "CAT_DESC": null, "MSGID": "WTPS51 PGTW 050300", "VALIDTIME": "2026-03-04 00:00:00" }, "geometry": { "type": "Point", "coordinates": [ 150.800003, -14.2 ] } },
{ "type": "Feature", "properties": { "ID": 109076, "LAT": -14.4, "LON": 150.7, "VMAX": 35.0, "MSLP": 996.0, "RMAX": 45.0, "FSPD": 3.25266, "FDIR": 217.73909, "RENV": 145.0, "PENV": 1003.0, "VALIDT": 0, "DTG": "2026-03-04 06:00", "LATNOW": -15.7, "LONNOW": 148.9, "WINDNOW": 30.0, "DIRNOW": 4.0, "SPDNOW": 4.0, "TECH": "TRAK", "ADVNR": 5, "ATCFID": "SH242026", "NAME": "TWENTY-FO", "FTECH": "JTWC", "FCST_DTG": "2026-03-05 00:00:00", "RUN_DTG": "2026-03-05 15:10:02", "BASIN": "SH", "STMNR": 24, "CAT_ID": null, "CAT_DESC": null, "MSGID": "WTPS51 PGTW 050300", "VALIDTIME": "2026-03-04 06:00:00" }, "geometry": { "type": "Point", "coordinates": [ 150.699997, -14.4 ] } },
{ "type": "Feature", "properties": { "ID": 109077, "LAT": -14.9, "LON": 150.3, "VMAX": 35.0, "MSLP": 996.0, "RMAX": 35.0, "FSPD": 2.23821, "FDIR": 242.6326, "RENV": 190.0, "PENV": 1002.0, "VALIDT": 0, "DTG": "2026-03-04 12:00", "LATNOW": -15.7, "LONNOW": 148.9, "WINDNOW": 30.0, "DIRNOW": 4.0, "SPDNOW": 4.0, "TECH": "TRAK", "ADVNR": 5, "ATCFID": "SH242026", "NAME": "TWENTY-FO", "FTECH": "JTWC", "FCST_DTG": "2026-03-05 00:00:00", "RUN_DTG": "2026-03-05 15:10:02", "BASIN": "SH", "STMNR": 24, "CAT_ID": null, "CAT_DESC": null, "MSGID": "WTPS51 PGTW 050300", "VALIDTIME": "2026-03-04 12:00:00" }, "geometry": { "type": "Point", "coordinates": [ 150.300003, -14.9 ] } },
{ "type": "Feature", "properties": { "ID": 109078, "LAT": -15.1, "LON": 149.9, "VMAX": 35.0, "MSLP": 997.0, "RMAX": 35.0, "FSPD": 5.84179, "FDIR": 238.10413, "RENV": 190.0, "PENV": 1004.0, "VALIDT": 0, "DTG": "2026-03-04 18:00", "LATNOW": -15.7, "LONNOW": 148.9, "WINDNOW": 30.0, "DIRNOW": 4.0, "SPDNOW": 4.0, "TECH": "TRAK", "ADVNR": 5, "ATCFID": "SH242026", "NAME": "TWENTY-FO", "FTECH": "JTWC", "FCST_DTG": "2026-03-05 00:00:00", "RUN_DTG": "2026-03-05 15:10:02", "BASIN": "SH", "STMNR": 24, "CAT_ID": null, "CAT_DESC": null, "MSGID": "WTPS51 PGTW 050300", "VALIDTIME": "2026-03-04 18:00:00" }, "geometry": { "type": "Point", "coordinates": [ 149.899994, -15.1 ] } },
{ "type": "Feature", "properties": { "ID": 109079, "LAT": -15.7, "LON": 148.9, "VMAX": 30.0, "MSLP": 997.0, "RMAX": 35.0, "FSPD": 3.6096, "FDIR": 235.24384, "RENV": 200.0, "PENV": 1002.0, "VALIDT": 0, "DTG": "2026-03-05 00:00", "LATNOW": -15.7, "LONNOW": 148.9, "WINDNOW": 30.0, "DIRNOW": 4.0, "SPDNOW": 4.0, "TECH": "TRAK", "ADVNR": 5, "ATCFID": "SH242026", "NAME": "TWENTY-FO", "FTECH": "JTWC", "FCST_DTG": "2026-03-05 00:00:00", "RUN_DTG": "2026-03-05 15:10:02", "BASIN": "SH", "STMNR": 24, "CAT_ID": null, "CAT_DESC": null, "MSGID": "WTPS51 PGTW 050300", "VALIDTIME": "2026-03-05 00:00:00" }, "geometry": { "type": "Point", "coordinates": [ 148.899994, -15.7 ] } },
{ "type": "Feature", "properties": { "ID": 109080, "LAT": -16.5, "LON": 147.7, "VMAX": 25.0, "MSLP": 1011.80975, "RMAX": 43.58776, "FSPD": 3.6096, "FDIR": 235.24384, "RENV": 250.0, "PENV": 1012.0, "VALIDT": 12, "DTG": "2026-03-05 12:00", "LATNOW": -15.7, "LONNOW": 148.9, "WINDNOW": 30.0, "DIRNOW": 4.0, "SPDNOW": 4.0, "TECH": "FCST", "ADVNR": 5, "ATCFID": "SH242026", "NAME": "TWENTY-FO", "FTECH": "JTWC", "FCST_DTG": "2026-03-05 00:00:00", "RUN_DTG": "2026-03-05 15:10:02", "BASIN": "SH", "STMNR": 24, "CAT_ID": null, "CAT_DESC": null, "MSGID": "WTPS51 PGTW 050300", "VALIDTIME": "2026-03-05 12:00:00" }, "geometry": { "type": "Point", "coordinates": [ 147.699997, -16.5 ] } },
{ "type": "Feature", "properties": { "ID": 109079, "LAT": -15.7, "LON": 148.9, "VMAX": 30.0, "MSLP": 997.0, "RMAX": 35.0, "FSPD": 3.6096, "FDIR": 235.24384, "RENV": 200.0, "PENV": 1002.0, "VALIDT": 0, "DTG": "2026-03-05 00:00", "LATNOW": -15.7, "LONNOW": 148.9, "WINDNOW": 30.0, "DIRNOW": 4.0, "SPDNOW": 4.0, "TECH": "TRAK", "ADVNR": 5, "ATCFID": "SH242026", "NAME": "TWENTY-FO", "FTECH": "JTWC", "FCST_DTG": "2026-03-05 00:00:00", "RUN_DTG": "2026-03-05 15:10:02", "BASIN": "SH", "STMNR": 24, "CAT_ID": null, "CAT_DESC": null, "MSGID": "WTPS51 PGTW 050300", "VALIDTIME": "2026-03-05 00:00:00" }, "geometry": { "type": "LineString", "coordinates": [ [ 156.6, -18.0 ], [ 156.0, -17.9 ], [ 155.3, -17.8 ], [ 155.2, -17.5 ], [ 155.3, -17.2 ], [ 155.4, -17.2 ], [ 155.1, -17.1 ], [ 154.7, -17.0 ], [ 154.2, -16.9 ], [ 153.6, -16.6 ], [ 153.0, -16.4 ], [ 152.8, -15.9 ], [ 152.7, -15.2 ], [ 152.6, -15.0 ], [ 152.5, -14.9 ], [ 152.2, -14.7 ], [ 151.7, -14.4 ], [ 150.7, -14.0 ], [ 150.8, -14.2 ], [ 150.7, -14.4 ], [ 150.3, -14.9 ], [ 149.9, -15.1 ], [ 148.9, -15.7 ] ] } },
{ "type": "Feature", "properties": { "ID": 109080, "LAT": -16.5, "LON": 147.7, "VMAX": 25.0, "MSLP": 1011.80975, "RMAX": 43.58776, "FSPD": 3.6096, "FDIR": 235.24384, "RENV": 250.0, "PENV": 1012.0, "VALIDT": 12, "DTG": "2026-03-05 12:00", "LATNOW": -15.7, "LONNOW": 148.9, "WINDNOW": 30.0, "DIRNOW": 4.0, "SPDNOW": 4.0, "TECH": "FCST", "ADVNR": 5, "ATCFID": "SH242026", "NAME": "TWENTY-FO", "FTECH": "JTWC", "FCST_DTG": "2026-03-05 00:00:00", "RUN_DTG": "2026-03-05 15:10:02", "BASIN": "SH", "STMNR": 24, "CAT_ID": null, "CAT_DESC": null, "MSGID": "WTPS51 PGTW 050300", "VALIDTIME": "2026-03-05 12:00:00" }, "geometry": { "type": "LineString", "coordinates": [ [ 148.9, -15.7 ], [ 147.7, -16.5 ] ] } }
]
}
