{
"type": "FeatureCollection",
"crs": { "type": "name", "properties": { "name": "urn:ogc:def:crs:OGC:1.3:CRS84" } },
"features": [
{ "type": "Feature", "properties": { "ID": 324227, "LAT": 11.0, "LON": -97.0, "VMAX": 30.0, "MSLP": 1008.0, "RMAX": 180.0, "FSPD": 6.68778, "FDIR": 360.0, "RENV": 200.0, "PENV": 1010.0, "VALIDT": 0, "DTG": "2025-06-06 18:00", "LATNOW": 21.0, "LONNOW": -108.0, "WINDNOW": 25.0, "DIRNOW": 2.0, "SPDNOW": 2.0, "TECH": "TRAK", "ADVNR": 12, "ATCFID": "EP022025", "NAME": "BARBARA", "FTECH": "OFCL", "FCST_DTG": "2025-06-11 00:00:00", "RUN_DTG": "2025-06-11 14:56:14", "BASIN": "EP", "STMNR": 2, "CAT_ID": null, "CAT_DESC": null, "MSGID": "WTPZ22 KNHC 110231", "VALIDTIME": "2025-06-06 18:00:00" }, "geometry": { "type": "Point", "coordinates": [ -97.0, 11.0 ] } },
{ "type": "Feature", "properties": { "ID": 324228, "LAT": 12.3, "LON": -97.0, "VMAX": 30.0, "MSLP": 1006.0, "RMAX": 120.0, "FSPD": 5.64199, "FDIR": 297.1233, "RENV": 200.0, "PENV": 1008.0, "VALIDT": 0, "DTG": "2025-06-07 00:00", "LATNOW": 21.0, "LONNOW": -108.0, "WINDNOW": 25.0, "DIRNOW": 2.0, "SPDNOW": 2.0, "TECH": "TRAK", "ADVNR": 12, "ATCFID": "EP022025", "NAME": "BARBARA", "FTECH": "OFCL", "FCST_DTG": "2025-06-11 00:00:00", "RUN_DTG": "2025-06-11 14:56:14", "BASIN": "EP", "STMNR": 2, "CAT_ID": null, "CAT_DESC": null, "MSGID": "WTPZ22 KNHC 110231", "VALIDTIME": "2025-06-07 00:00:00" }, "geometry": { "type": "Point", "coordinates": [ -97.0, 12.3 ] } },
{ "type": "Feature", "properties": { "ID": 324229, "LAT": 12.8, "LON": -98.0, "VMAX": 30.0, "MSLP": 1006.0, "RMAX": 120.0, "FSPD": 6.75867, "FDIR": 297.17416, "RENV": 200.0, "PENV": 1008.0, "VALIDT": 0, "DTG": "2025-06-07 06:00", "LATNOW": 21.0, "LONNOW": -108.0, "WINDNOW": 25.0, "DIRNOW": 2.0, "SPDNOW": 2.0, "TECH": "TRAK", "ADVNR": 12, "ATCFID": "EP022025", "NAME": "BARBARA", "FTECH": "OFCL", "FCST_DTG": "2025-06-11 00:00:00", "RUN_DTG": "2025-06-11 14:56:14", "BASIN": "EP", "STMNR": 2, "CAT_ID": null, "CAT_DESC": null, "MSGID": "WTPZ22 KNHC 110231", "VALIDTIME": "2025-06-07 06:00:00" }, "geometry": { "type": "Point", "coordinates": [ -98.0, 12.8 ] } },
{ "type": "Feature", "properties": { "ID": 324230, "LAT": 13.4, "LON": -99.2, "VMAX": 30.0, "MSLP": 1005.0, "RMAX": 80.0, "FSPD": 7.16961, "FDIR": 315.85132, "RENV": 120.0, "PENV": 1008.0, "VALIDT": 0, "DTG": "2025-06-07 12:00", "LATNOW": 21.0, "LONNOW": -108.0, "WINDNOW": 25.0, "DIRNOW": 2.0, "SPDNOW": 2.0, "TECH": "TRAK", "ADVNR": 12, "ATCFID": "EP022025", "NAME": "BARBARA", "FTECH": "OFCL", "FCST_DTG": "2025-06-11 00:00:00", "RUN_DTG": "2025-06-11 14:56:14", "BASIN": "EP", "STMNR": 2, "CAT_ID": null, "CAT_DESC": null, "MSGID": "WTPZ22 KNHC 110231", "VALIDTIME": "2025-06-07 12:00:00" }, "geometry": { "type": "Point", "coordinates": [ -99.199997, 13.4 ] } },
{ "type": "Feature", "properties": { "ID": 324231, "LAT": 14.4, "LON": -100.2, "VMAX": 30.0, "MSLP": 1004.0, "RMAX": 70.0, "FSPD": 4.27209, "FDIR": 291.17755, "RENV": 120.0, "PENV": 1008.0, "VALIDT": 0, "DTG": "2025-06-07 18:00", "LATNOW": 21.0, "LONNOW": -108.0, "WINDNOW": 25.0, "DIRNOW": 2.0, "SPDNOW": 2.0, "TECH": "TRAK", "ADVNR": 12, "ATCFID": "EP022025", "NAME": "BARBARA", "FTECH": "OFCL", "FCST_DTG": "2025-06-11 00:00:00", "RUN_DTG": "2025-06-11 14:56:14", "BASIN": "EP", "STMNR": 2, "CAT_ID": null, "CAT_DESC": null, "MSGID": "WTPZ22 KNHC 110231", "VALIDTIME": "2025-06-07 18:00:00" }, "geometry": { "type": "Point", "coordinates": [ -100.199997, 14.4 ] } },
{ "type": "Feature", "properties": { "ID": 324232, "LAT": 14.7, "LON": -101.0, "VMAX": 30.0, "MSLP": 1004.0, "RMAX": 70.0, "FSPD": 5.20661, "FDIR": 287.24255, "RENV": 120.0, "PENV": 1008.0, "VALIDT": 0, "DTG": "2025-06-08 00:00", "LATNOW": 21.0, "LONNOW": -108.0, "WINDNOW": 25.0, "DIRNOW": 2.0, "SPDNOW": 2.0, "TECH": "TRAK", "ADVNR": 12, "ATCFID": "EP022025", "NAME": "BARBARA", "FTECH": "OFCL", "FCST_DTG": "2025-06-11 00:00:00", "RUN_DTG": "2025-06-11 14:56:14", "BASIN": "EP", "STMNR": 2, "CAT_ID": null, "CAT_DESC": null, "MSGID": "WTPZ22 KNHC 110231", "VALIDTIME": "2025-06-08 00:00:00" }, "geometry": { "type": "Point", "coordinates": [ -101.0, 14.7 ] } },
{ "type": "Feature", "properties": { "ID": 324233, "LAT": 15.0, "LON": -102.0, "VMAX": 40.0, "MSLP": 1001.0, "RMAX": 30.0, "FSPD": 4.03867, "FDIR": 300.6317, "RENV": 120.0, "PENV": 1008.0, "VALIDT": 0, "DTG": "2025-06-08 06:00", "LATNOW": 21.0, "LONNOW": -108.0, "WINDNOW": 25.0, "DIRNOW": 2.0, "SPDNOW": 2.0, "TECH": "TRAK", "ADVNR": 12, "ATCFID": "EP022025", "NAME": "BARBARA", "FTECH": "OFCL", "FCST_DTG": "2025-06-11 00:00:00", "RUN_DTG": "2025-06-11 14:56:14", "BASIN": "EP", "STMNR": 2, "CAT_ID": null, "CAT_DESC": null, "MSGID": "WTPZ22 KNHC 110231", "VALIDTIME": "2025-06-08 06:00:00" }, "geometry": { "type": "Point", "coordinates": [ -102.0, 15.0 ] } },
{ "type": "Feature", "properties": { "ID": 324234, "LAT": 15.4, "LON": -102.7, "VMAX": 50.0, "MSLP": 996.0, "RMAX": 20.0, "FSPD": 5.19088, "FDIR": 287.2965, "RENV": 120.0, "PENV": 1009.0, "VALIDT": 0, "DTG": "2025-06-08 12:00", "LATNOW": 21.0, "LONNOW": -108.0, "WINDNOW": 25.0, "DIRNOW": 2.0, "SPDNOW": 2.0, "TECH": "TRAK", "ADVNR": 12, "ATCFID": "EP022025", "NAME": "BARBARA", "FTECH": "OFCL", "FCST_DTG": "2025-06-11 00:00:00", "RUN_DTG": "2025-06-11 14:56:14", "BASIN": "EP", "STMNR": 2, "CAT_ID": null, "CAT_DESC": null, "MSGID": "WTPZ22 KNHC 110231", "VALIDTIME": "2025-06-08 12:00:00" }, "geometry": { "type": "Point", "coordinates": [ -102.699997, 15.4 ] } },
{ "type": "Feature", "properties": { "ID": 324235, "LAT": 15.7, "LON": -103.7, "VMAX": 50.0, "MSLP": 996.0, "RMAX": 20.0, "FSPD": 4.71966, "FDIR": 303.0248, "RENV": 120.0, "PENV": 1009.0, "VALIDT": 0, "DTG": "2025-06-08 18:00", "LATNOW": 21.0, "LONNOW": -108.0, "WINDNOW": 25.0, "DIRNOW": 2.0, "SPDNOW": 2.0, "TECH": "TRAK", "ADVNR": 12, "ATCFID": "EP022025", "NAME": "BARBARA", "FTECH": "OFCL", "FCST_DTG": "2025-06-11 00:00:00", "RUN_DTG": "2025-06-11 14:56:14", "BASIN": "EP", "STMNR": 2, "CAT_ID": null, "CAT_DESC": null, "MSGID": "WTPZ22 KNHC 110231", "VALIDTIME": "2025-06-08 18:00:00" }, "geometry": { "type": "Point", "coordinates": [ -103.699997, 15.7 ] } },
{ "type": "Feature", "properties": { "ID": 324236, "LAT": 16.2, "LON": -104.5, "VMAX": 55.0, "MSLP": 996.0, "RMAX": 20.0, "FSPD": 5.80557, "FDIR": 290.75964, "RENV": 100.0, "PENV": 1008.0, "VALIDT": 0, "DTG": "2025-06-09 00:00", "LATNOW": 21.0, "LONNOW": -108.0, "WINDNOW": 25.0, "DIRNOW": 2.0, "SPDNOW": 2.0, "TECH": "TRAK", "ADVNR": 12, "ATCFID": "EP022025", "NAME": "BARBARA", "FTECH": "OFCL", "FCST_DTG": "2025-06-11 00:00:00", "RUN_DTG": "2025-06-11 14:56:14", "BASIN": "EP", "STMNR": 2, "CAT_ID": null, "CAT_DESC": null, "MSGID": "WTPZ22 KNHC 110231", "VALIDTIME": "2025-06-09 00:00:00" }, "geometry": { "type": "Point", "coordinates": [ -104.5, 16.200001 ] } },
{ "type": "Feature", "properties": { "ID": 324237, "LAT": 16.6, "LON": -105.6, "VMAX": 60.0, "MSLP": 994.0, "RMAX": 15.0, "FSPD": 3.73318, "FDIR": 344.71384, "RENV": 100.0, "PENV": 1009.0, "VALIDT": 0, "DTG": "2025-06-09 06:00", "LATNOW": 21.0, "LONNOW": -108.0, "WINDNOW": 25.0, "DIRNOW": 2.0, "SPDNOW": 2.0, "TECH": "TRAK", "ADVNR": 12, "ATCFID": "EP022025", "NAME": "BARBARA", "FTECH": "OFCL", "FCST_DTG": "2025-06-11 00:00:00", "RUN_DTG": "2025-06-11 14:56:14", "BASIN": "EP", "STMNR": 2, "CAT_ID": null, "CAT_DESC": null, "MSGID": "WTPZ22 KNHC 110231", "VALIDTIME": "2025-06-09 06:00:00" }, "geometry": { "type": "Point", "coordinates": [ -105.599998, 16.6 ] } },
{ "type": "Feature", "properties": { "ID": 324238, "LAT": 17.3, "LON": -105.8, "VMAX": 65.0, "MSLP": 991.0, "RMAX": 10.0, "FSPD": 4.61625, "FDIR": 311.96313, "RENV": 100.0, "PENV": 1010.0, "VALIDT": 0, "DTG": "2025-06-09 12:00", "LATNOW": 21.0, "LONNOW": -108.0, "WINDNOW": 25.0, "DIRNOW": 2.0, "SPDNOW": 2.0, "TECH": "TRAK", "ADVNR": 12, "ATCFID": "EP022025", "NAME": "BARBARA", "FTECH": "OFCL", "FCST_DTG": "2025-06-11 00:00:00", "RUN_DTG": "2025-06-11 14:56:14", "BASIN": "EP", "STMNR": 2, "CAT_ID": null, "CAT_DESC": null, "MSGID": "WTPZ22 KNHC 110231", "VALIDTIME": "2025-06-09 12:00:00" }, "geometry": { "type": "Point", "coordinates": [ -105.800003, 17.299999 ] } },
{ "type": "Feature", "properties": { "ID": 324239, "LAT": 17.9, "LON": -106.5, "VMAX": 65.0, "MSLP": 991.0, "RMAX": 10.0, "FSPD": 5.52391, "FDIR": 297.75244, "RENV": 100.0, "PENV": 1010.0, "VALIDT": 0, "DTG": "2025-06-09 18:00", "LATNOW": 21.0, "LONNOW": -108.0, "WINDNOW": 25.0, "DIRNOW": 2.0, "SPDNOW": 2.0, "TECH": "TRAK", "ADVNR": 12, "ATCFID": "EP022025", "NAME": "BARBARA", "FTECH": "OFCL", "FCST_DTG": "2025-06-11 00:00:00", "RUN_DTG": "2025-06-11 14:56:14", "BASIN": "EP", "STMNR": 2, "CAT_ID": null, "CAT_DESC": null, "MSGID": "WTPZ22 KNHC 110231", "VALIDTIME": "2025-06-09 18:00:00" }, "geometry": { "type": "Point", "coordinates": [ -106.5, 17.9 ] } },
{ "type": "Feature", "properties": { "ID": 324240, "LAT": 18.4, "LON": -107.5, "VMAX": 60.0, "MSLP": 993.0, "RMAX": 10.0, "FSPD": 2.52469, "FDIR": 324.59348, "RENV": 100.0, "PENV": 1010.0, "VALIDT": 0, "DTG": "2025-06-10 00:00", "LATNOW": 21.0, "LONNOW": -108.0, "WINDNOW": 25.0, "DIRNOW": 2.0, "SPDNOW": 2.0, "TECH": "TRAK", "ADVNR": 12, "ATCFID": "EP022025", "NAME": "BARBARA", "FTECH": "OFCL", "FCST_DTG": "2025-06-11 00:00:00", "RUN_DTG": "2025-06-11 14:56:14", "BASIN": "EP", "STMNR": 2, "CAT_ID": null, "CAT_DESC": null, "MSGID": "WTPZ22 KNHC 110231", "VALIDTIME": "2025-06-10 00:00:00" }, "geometry": { "type": "Point", "coordinates": [ -107.5, 18.4 ] } },
{ "type": "Feature", "properties": { "ID": 324241, "LAT": 18.8, "LON": -107.8, "VMAX": 50.0, "MSLP": 999.0, "RMAX": 15.0, "FSPD": 5.74415, "FDIR": 323.71063, "RENV": 100.0, "PENV": 1011.0, "VALIDT": 0, "DTG": "2025-06-10 06:00", "LATNOW": 21.0, "LONNOW": -108.0, "WINDNOW": 25.0, "DIRNOW": 2.0, "SPDNOW": 2.0, "TECH": "TRAK", "ADVNR": 12, "ATCFID": "EP022025", "NAME": "BARBARA", "FTECH": "OFCL", "FCST_DTG": "2025-06-11 00:00:00", "RUN_DTG": "2025-06-11 14:56:14", "BASIN": "EP", "STMNR": 2, "CAT_ID": null, "CAT_DESC": null, "MSGID": "WTPZ22 KNHC 110231", "VALIDTIME": "2025-06-10 06:00:00" }, "geometry": { "type": "Point", "coordinates": [ -107.800003, 18.799999 ] } },
{ "type": "Feature", "properties": { "ID": 324242, "LAT": 19.7, "LON": -108.5, "VMAX": 45.0, "MSLP": 1001.0, "RMAX": 15.0, "FSPD": 5.01686, "FDIR": 22.64801, "RENV": 100.0, "PENV": 1011.0, "VALIDT": 0, "DTG": "2025-06-10 12:00", "LATNOW": 21.0, "LONNOW": -108.0, "WINDNOW": 25.0, "DIRNOW": 2.0, "SPDNOW": 2.0, "TECH": "TRAK", "ADVNR": 12, "ATCFID": "EP022025", "NAME": "BARBARA", "FTECH": "OFCL", "FCST_DTG": "2025-06-11 00:00:00", "RUN_DTG": "2025-06-11 14:56:14", "BASIN": "EP", "STMNR": 2, "CAT_ID": null, "CAT_DESC": null, "MSGID": "WTPZ22 KNHC 110231", "VALIDTIME": "2025-06-10 12:00:00" }, "geometry": { "type": "Point", "coordinates": [ -108.5, 19.700001 ] } },
{ "type": "Feature", "properties": { "ID": 324243, "LAT": 20.6, "LON": -108.1, "VMAX": 35.0, "MSLP": 1004.0, "RMAX": 15.0, "FSPD": 2.11322, "FDIR": 13.15411, "RENV": 100.0, "PENV": 1011.0, "VALIDT": 0, "DTG": "2025-06-10 18:00", "LATNOW": 21.0, "LONNOW": -108.0, "WINDNOW": 25.0, "DIRNOW": 2.0, "SPDNOW": 2.0, "TECH": "TRAK", "ADVNR": 12, "ATCFID": "EP022025", "NAME": "BARBARA", "FTECH": "OFCL", "FCST_DTG": "2025-06-11 00:00:00", "RUN_DTG": "2025-06-11 14:56:14", "BASIN": "EP", "STMNR": 2, "CAT_ID": null, "CAT_DESC": null, "MSGID": "WTPZ22 KNHC 110231", "VALIDTIME": "2025-06-10 18:00:00" }, "geometry": { "type": "Point", "coordinates": [ -108.099998, 20.6 ] } },
{ "type": "Feature", "properties": { "ID": 324244, "LAT": 21.0, "LON": -108.0, "VMAX": 25.0, "MSLP": 1007.0, "RMAX": 15.0, "FSPD": 2.05779, "FDIR": 360.0, "RENV": 80.0, "PENV": 1010.0, "VALIDT": 0, "DTG": "2025-06-11 00:00", "LATNOW": 21.0, "LONNOW": -108.0, "WINDNOW": 25.0, "DIRNOW": 2.0, "SPDNOW": 2.0, "TECH": "TRAK", "ADVNR": 12, "ATCFID": "EP022025", "NAME": "BARBARA", "FTECH": "OFCL", "FCST_DTG": "2025-06-11 00:00:00", "RUN_DTG": "2025-06-11 14:56:14", "BASIN": "EP", "STMNR": 2, "CAT_ID": null, "CAT_DESC": null, "MSGID": "WTPZ22 KNHC 110231", "VALIDTIME": "2025-06-11 00:00:00" }, "geometry": { "type": "Point", "coordinates": [ -108.0, 21.0 ] } },
{ "type": "Feature", "properties": { "ID": 324245, "LAT": 21.2, "LON": -108.0, "VMAX": 25.0, "MSLP": 1007.0, "RMAX": 15.0, "FSPD": 2.81685, "FDIR": 13.08551, "RENV": 250.0, "PENV": 1012.0, "VALIDT": 3, "DTG": "2025-06-11 03:00", "LATNOW": 21.0, "LONNOW": -108.0, "WINDNOW": 25.0, "DIRNOW": 2.0, "SPDNOW": 2.0, "TECH": "FCST", "ADVNR": 12, "ATCFID": "EP022025", "NAME": "BARBARA", "FTECH": "OFCL", "FCST_DTG": "2025-06-11 00:00:00", "RUN_DTG": "2025-06-11 14:56:14", "BASIN": "EP", "STMNR": 2, "CAT_ID": null, "CAT_DESC": null, "MSGID": "WTPZ22 KNHC 110231", "VALIDTIME": "2025-06-11 03:00:00" }, "geometry": { "type": "Point", "coordinates": [ -108.0, 21.200001 ] } },
{ "type": "Feature", "properties": { "ID": 324246, "LAT": 22.0, "LON": -107.8, "VMAX": 20.0, "MSLP": 1012.95825, "RMAX": 16.31186, "FSPD": 2.81685, "FDIR": 13.08551, "RENV": 250.0, "PENV": 1012.0, "VALIDT": 12, "DTG": "2025-06-11 12:00", "LATNOW": 21.0, "LONNOW": -108.0, "WINDNOW": 25.0, "DIRNOW": 2.0, "SPDNOW": 2.0, "TECH": "FCST", "ADVNR": 12, "ATCFID": "EP022025", "NAME": "BARBARA", "FTECH": "OFCL", "FCST_DTG": "2025-06-11 00:00:00", "RUN_DTG": "2025-06-11 14:56:14", "BASIN": "EP", "STMNR": 2, "CAT_ID": null, "CAT_DESC": null, "MSGID": "WTPZ22 KNHC 110231", "VALIDTIME": "2025-06-11 12:00:00" }, "geometry": { "type": "Point", "coordinates": [ -107.800003, 22.0 ] } },
{ "type": "Feature", "properties": { "ID": 324244, "LAT": 21.0, "LON": -108.0, "VMAX": 25.0, "MSLP": 1007.0, "RMAX": 15.0, "FSPD": 2.05779, "FDIR": 360.0, "RENV": 80.0, "PENV": 1010.0, "VALIDT": 0, "DTG": "2025-06-11 00:00", "LATNOW": 21.0, "LONNOW": -108.0, "WINDNOW": 25.0, "DIRNOW": 2.0, "SPDNOW": 2.0, "TECH": "TRAK", "ADVNR": 12, "ATCFID": "EP022025", "NAME": "BARBARA", "FTECH": "OFCL", "FCST_DTG": "2025-06-11 00:00:00", "RUN_DTG": "2025-06-11 14:56:14", "BASIN": "EP", "STMNR": 2, "CAT_ID": null, "CAT_DESC": null, "MSGID": "WTPZ22 KNHC 110231", "VALIDTIME": "2025-06-11 00:00:00" }, "geometry": { "type": "LineString", "coordinates": [ [ -97.0, 11.0 ], [ -97.0, 12.3 ], [ -98.0, 12.8 ], [ -99.2, 13.4 ], [ -100.2, 14.4 ], [ -101.0, 14.7 ], [ -102.0, 15.0 ], [ -102.7, 15.4 ], [ -103.7, 15.7 ], [ -104.5, 16.2 ], [ -105.6, 16.6 ], [ -105.8, 17.3 ], [ -106.5, 17.9 ], [ -107.5, 18.4 ], [ -107.8, 18.8 ], [ -108.5, 19.7 ], [ -108.1, 20.6 ], [ -108.0, 21.0 ] ] } },
{ "type": "Feature", "properties": { "ID": 324246, "LAT": 22.0, "LON": -107.8, "VMAX": 20.0, "MSLP": 1012.95825, "RMAX": 16.31186, "FSPD": 2.81685, "FDIR": 13.08551, "RENV": 250.0, "PENV": 1012.0, "VALIDT": 12, "DTG": "2025-06-11 12:00", "LATNOW": 21.0, "LONNOW": -108.0, "WINDNOW": 25.0, "DIRNOW": 2.0, "SPDNOW": 2.0, "TECH": "FCST", "ADVNR": 12, "ATCFID": "EP022025", "NAME": "BARBARA", "FTECH": "OFCL", "FCST_DTG": "2025-06-11 00:00:00", "RUN_DTG": "2025-06-11 14:56:14", "BASIN": "EP", "STMNR": 2, "CAT_ID": null, "CAT_DESC": null, "MSGID": "WTPZ22 KNHC 110231", "VALIDTIME": "2025-06-11 12:00:00" }, "geometry": { "type": "LineString", "coordinates": [ [ -108.0, 21.0 ], [ -108.0, 21.2 ], [ -107.8, 22.0 ] ] } }
]
}
