{
"type": "FeatureCollection",
"crs": { "type": "name", "properties": { "name": "urn:ogc:def:crs:OGC:1.3:CRS84" } },
"features": [
{ "type": "Feature", "properties": { "ID": 276125, "LAT": 13.8, "LON": 139.3, "VMAX": 15.0, "MSLP": 1013.8515, "RMAX": 40.0, "FSPD": 0.99917, "FDIR": 269.99997, "RENV": 500.0, "PENV": 1012.0, "VALIDT": 0, "DTG": "2024-10-18 12:00", "LATNOW": 16.4, "LONNOW": 108.7, "WINDNOW": 25.0, "DIRNOW": 1.0, "SPDNOW": 0.0, "TECH": "TRAK", "ADVNR": 34, "ATCFID": "WP222024", "NAME": "TRAMI", "FTECH": "JTWC", "FCST_DTG": "2024-10-28 18:00:00", "RUN_DTG": "2024-10-29 08:15:52", "BASIN": "WP", "STMNR": 22, "CAT_ID": null, "CAT_DESC": null, "MSGID": "WTPN51 PGTW 282100", "VALIDTIME": "2024-10-18 12:00:00" }, "geometry": { "type": "Point", "coordinates": [ 139.300003, 13.8 ] } },
{ "type": "Feature", "properties": { "ID": 276126, "LAT": 13.8, "LON": 139.1, "VMAX": 15.0, "MSLP": 1013.8515, "RMAX": 40.0, "FSPD": 0.99925, "FDIR": 269.99997, "RENV": 500.0, "PENV": 1012.0, "VALIDT": 0, "DTG": "2024-10-18 18:00", "LATNOW": 16.4, "LONNOW": 108.7, "WINDNOW": 25.0, "DIRNOW": 1.0, "SPDNOW": 0.0, "TECH": "TRAK", "ADVNR": 34, "ATCFID": "WP222024", "NAME": "TRAMI", "FTECH": "JTWC", "FCST_DTG": "2024-10-28 18:00:00", "RUN_DTG": "2024-10-29 08:15:52", "BASIN": "WP", "STMNR": 22, "CAT_ID": null, "CAT_DESC": null, "MSGID": "WTPN51 PGTW 282100", "VALIDTIME": "2024-10-18 18:00:00" }, "geometry": { "type": "Point", "coordinates": [ 139.100006, 13.8 ] } },
{ "type": "Feature", "properties": { "ID": 276127, "LAT": 13.8, "LON": 138.9, "VMAX": 15.0, "MSLP": 1013.8515, "RMAX": 40.0, "FSPD": 2.06309, "FDIR": 284.43933, "RENV": 500.0, "PENV": 1012.0, "VALIDT": 0, "DTG": "2024-10-19 00:00", "LATNOW": 16.4, "LONNOW": 108.7, "WINDNOW": 25.0, "DIRNOW": 1.0, "SPDNOW": 0.0, "TECH": "TRAK", "ADVNR": 34, "ATCFID": "WP222024", "NAME": "TRAMI", "FTECH": "JTWC", "FCST_DTG": "2024-10-28 18:00:00", "RUN_DTG": "2024-10-29 08:15:52", "BASIN": "WP", "STMNR": 22, "CAT_ID": null, "CAT_DESC": null, "MSGID": "WTPN51 PGTW 282100", "VALIDTIME": "2024-10-19 00:00:00" }, "geometry": { "type": "Point", "coordinates": [ 138.899994, 13.8 ] } },
{ "type": "Feature", "properties": { "ID": 276128, "LAT": 13.9, "LON": 138.5, "VMAX": 20.0, "MSLP": 1012.95825, "RMAX": 45.0, "FSPD": 1.58371, "FDIR": 288.95557, "RENV": 500.0, "PENV": 1012.0, "VALIDT": 0, "DTG": "2024-10-19 06:00", "LATNOW": 16.4, "LONNOW": 108.7, "WINDNOW": 25.0, "DIRNOW": 1.0, "SPDNOW": 0.0, "TECH": "TRAK", "ADVNR": 34, "ATCFID": "WP222024", "NAME": "TRAMI", "FTECH": "JTWC", "FCST_DTG": "2024-10-28 18:00:00", "RUN_DTG": "2024-10-29 08:15:52", "BASIN": "WP", "STMNR": 22, "CAT_ID": null, "CAT_DESC": null, "MSGID": "WTPN51 PGTW 282100", "VALIDTIME": "2024-10-19 06:00:00" }, "geometry": { "type": "Point", "coordinates": [ 138.5, 13.9 ] } },
{ "type": "Feature", "properties": { "ID": 276129, "LAT": 14.0, "LON": 138.2, "VMAX": 20.0, "MSLP": 1012.95825, "RMAX": 45.0, "FSPD": 1.4975, "FDIR": 269.99997, "RENV": 500.0, "PENV": 1012.0, "VALIDT": 0, "DTG": "2024-10-19 12:00", "LATNOW": 16.4, "LONNOW": 108.7, "WINDNOW": 25.0, "DIRNOW": 1.0, "SPDNOW": 0.0, "TECH": "TRAK", "ADVNR": 34, "ATCFID": "WP222024", "NAME": "TRAMI", "FTECH": "JTWC", "FCST_DTG": "2024-10-28 18:00:00", "RUN_DTG": "2024-10-29 08:15:52", "BASIN": "WP", "STMNR": 22, "CAT_ID": null, "CAT_DESC": null, "MSGID": "WTPN51 PGTW 282100", "VALIDTIME": "2024-10-19 12:00:00" }, "geometry": { "type": "Point", "coordinates": [ 138.199997, 14.0 ] } },
{ "type": "Feature", "properties": { "ID": 276130, "LAT": 14.0, "LON": 137.9, "VMAX": 20.0, "MSLP": 1012.95825, "RMAX": 45.0, "FSPD": 1.99662, "FDIR": 269.99997, "RENV": 500.0, "PENV": 1012.0, "VALIDT": 0, "DTG": "2024-10-19 18:00", "LATNOW": 16.4, "LONNOW": 108.7, "WINDNOW": 25.0, "DIRNOW": 1.0, "SPDNOW": 0.0, "TECH": "TRAK", "ADVNR": 34, "ATCFID": "WP222024", "NAME": "TRAMI", "FTECH": "JTWC", "FCST_DTG": "2024-10-28 18:00:00", "RUN_DTG": "2024-10-29 08:15:52", "BASIN": "WP", "STMNR": 22, "CAT_ID": null, "CAT_DESC": null, "MSGID": "WTPN51 PGTW 282100", "VALIDTIME": "2024-10-19 18:00:00" }, "geometry": { "type": "Point", "coordinates": [ 137.899994, 14.0 ] } },
{ "type": "Feature", "properties": { "ID": 276131, "LAT": 14.0, "LON": 137.5, "VMAX": 20.0, "MSLP": 1012.95825, "RMAX": 45.0, "FSPD": 3.16557, "FDIR": 288.967, "RENV": 500.0, "PENV": 1012.0, "VALIDT": 0, "DTG": "2024-10-20 00:00", "LATNOW": 16.4, "LONNOW": 108.7, "WINDNOW": 25.0, "DIRNOW": 1.0, "SPDNOW": 0.0, "TECH": "TRAK", "ADVNR": 34, "ATCFID": "WP222024", "NAME": "TRAMI", "FTECH": "JTWC", "FCST_DTG": "2024-10-28 18:00:00", "RUN_DTG": "2024-10-29 08:15:52", "BASIN": "WP", "STMNR": 22, "CAT_ID": null, "CAT_DESC": null, "MSGID": "WTPN51 PGTW 282100", "VALIDTIME": "2024-10-20 00:00:00" }, "geometry": { "type": "Point", "coordinates": [ 137.5, 14.0 ] } },
{ "type": "Feature", "properties": { "ID": 276132, "LAT": 14.2, "LON": 136.9, "VMAX": 20.0, "MSLP": 1012.95825, "RMAX": 45.0, "FSPD": 5.74906, "FDIR": 308.78375, "RENV": 500.0, "PENV": 1012.0, "VALIDT": 0, "DTG": "2024-10-20 06:00", "LATNOW": 16.4, "LONNOW": 108.7, "WINDNOW": 25.0, "DIRNOW": 1.0, "SPDNOW": 0.0, "TECH": "TRAK", "ADVNR": 34, "ATCFID": "WP222024", "NAME": "TRAMI", "FTECH": "JTWC", "FCST_DTG": "2024-10-28 18:00:00", "RUN_DTG": "2024-10-29 08:15:52", "BASIN": "WP", "STMNR": 22, "CAT_ID": null, "CAT_DESC": null, "MSGID": "WTPN51 PGTW 282100", "VALIDTIME": "2024-10-20 06:00:00" }, "geometry": { "type": "Point", "coordinates": [ 136.899994, 14.2 ] } },
{ "type": "Feature", "properties": { "ID": 276133, "LAT": 14.9, "LON": 136.0, "VMAX": 25.0, "MSLP": 1001.0, "RMAX": 70.0, "FSPD": 9.80022, "FDIR": 254.78354, "RENV": 235.0, "PENV": 1004.0, "VALIDT": 0, "DTG": "2024-10-20 12:00", "LATNOW": 16.4, "LONNOW": 108.7, "WINDNOW": 25.0, "DIRNOW": 1.0, "SPDNOW": 0.0, "TECH": "TRAK", "ADVNR": 34, "ATCFID": "WP222024", "NAME": "TRAMI", "FTECH": "JTWC", "FCST_DTG": "2024-10-28 18:00:00", "RUN_DTG": "2024-10-29 08:15:52", "BASIN": "WP", "STMNR": 22, "CAT_ID": null, "CAT_DESC": null, "MSGID": "WTPN51 PGTW 282100", "VALIDTIME": "2024-10-20 12:00:00" }, "geometry": { "type": "Point", "coordinates": [ 136.0, 14.9 ] } },
{ "type": "Feature", "properties": { "ID": 276134, "LAT": 14.4, "LON": 134.1, "VMAX": 25.0, "MSLP": 1001.0, "RMAX": 70.0, "FSPD": 8.12579, "FDIR": 259.05127, "RENV": 235.0, "PENV": 1004.0, "VALIDT": 0, "DTG": "2024-10-20 18:00", "LATNOW": 16.4, "LONNOW": 108.7, "WINDNOW": 25.0, "DIRNOW": 1.0, "SPDNOW": 0.0, "TECH": "TRAK", "ADVNR": 34, "ATCFID": "WP222024", "NAME": "TRAMI", "FTECH": "JTWC", "FCST_DTG": "2024-10-28 18:00:00", "RUN_DTG": "2024-10-29 08:15:52", "BASIN": "WP", "STMNR": 22, "CAT_ID": null, "CAT_DESC": null, "MSGID": "WTPN51 PGTW 282100", "VALIDTIME": "2024-10-20 18:00:00" }, "geometry": { "type": "Point", "coordinates": [ 134.100006, 14.4 ] } },
{ "type": "Feature", "properties": { "ID": 276135, "LAT": 14.1, "LON": 132.5, "VMAX": 30.0, "MSLP": 1002.0, "RMAX": 90.0, "FSPD": 12.5218, "FDIR": 253.28638, "RENV": 235.0, "PENV": 1006.0, "VALIDT": 0, "DTG": "2024-10-21 00:00", "LATNOW": 16.4, "LONNOW": 108.7, "WINDNOW": 25.0, "DIRNOW": 1.0, "SPDNOW": 0.0, "TECH": "TRAK", "ADVNR": 34, "ATCFID": "WP222024", "NAME": "TRAMI", "FTECH": "JTWC", "FCST_DTG": "2024-10-28 18:00:00", "RUN_DTG": "2024-10-29 08:15:52", "BASIN": "WP", "STMNR": 22, "CAT_ID": null, "CAT_DESC": null, "MSGID": "WTPN51 PGTW 282100", "VALIDTIME": "2024-10-21 00:00:00" }, "geometry": { "type": "Point", "coordinates": [ 132.5, 14.1 ] } },
{ "type": "Feature", "properties": { "ID": 276136, "LAT": 13.4, "LON": 130.1, "VMAX": 30.0, "MSLP": 1000.0, "RMAX": 75.0, "FSPD": 5.7204, "FDIR": 254.34796, "RENV": 300.0, "PENV": 1006.0, "VALIDT": 0, "DTG": "2024-10-21 06:00", "LATNOW": 16.4, "LONNOW": 108.7, "WINDNOW": 25.0, "DIRNOW": 1.0, "SPDNOW": 0.0, "TECH": "TRAK", "ADVNR": 34, "ATCFID": "WP222024", "NAME": "TRAMI", "FTECH": "JTWC", "FCST_DTG": "2024-10-28 18:00:00", "RUN_DTG": "2024-10-29 08:15:52", "BASIN": "WP", "STMNR": 22, "CAT_ID": null, "CAT_DESC": null, "MSGID": "WTPN51 PGTW 282100", "VALIDTIME": "2024-10-21 06:00:00" }, "geometry": { "type": "Point", "coordinates": [ 130.100006, 13.4 ] } },
{ "type": "Feature", "properties": { "ID": 276137, "LAT": 13.1, "LON": 129.0, "VMAX": 30.0, "MSLP": 1000.0, "RMAX": 50.0, "FSPD": 4.00847, "FDIR": 269.99997, "RENV": 300.0, "PENV": 1006.0, "VALIDT": 0, "DTG": "2024-10-21 12:00", "LATNOW": 16.4, "LONNOW": 108.7, "WINDNOW": 25.0, "DIRNOW": 1.0, "SPDNOW": 0.0, "TECH": "TRAK", "ADVNR": 34, "ATCFID": "WP222024", "NAME": "TRAMI", "FTECH": "JTWC", "FCST_DTG": "2024-10-28 18:00:00", "RUN_DTG": "2024-10-29 08:15:52", "BASIN": "WP", "STMNR": 22, "CAT_ID": null, "CAT_DESC": null, "MSGID": "WTPN51 PGTW 282100", "VALIDTIME": "2024-10-21 12:00:00" }, "geometry": { "type": "Point", "coordinates": [ 129.0, 13.1 ] } },
{ "type": "Feature", "properties": { "ID": 276138, "LAT": 13.1, "LON": 128.2, "VMAX": 30.0, "MSLP": 992.0, "RMAX": 50.0, "FSPD": 4.7593, "FDIR": 302.71512, "RENV": 385.0, "PENV": 1006.0, "VALIDT": 0, "DTG": "2024-10-21 18:00", "LATNOW": 16.4, "LONNOW": 108.7, "WINDNOW": 25.0, "DIRNOW": 1.0, "SPDNOW": 0.0, "TECH": "TRAK", "ADVNR": 34, "ATCFID": "WP222024", "NAME": "TRAMI", "FTECH": "JTWC", "FCST_DTG": "2024-10-28 18:00:00", "RUN_DTG": "2024-10-29 08:15:52", "BASIN": "WP", "STMNR": 22, "CAT_ID": null, "CAT_DESC": null, "MSGID": "WTPN51 PGTW 282100", "VALIDTIME": "2024-10-21 18:00:00" }, "geometry": { "type": "Point", "coordinates": [ 128.199997, 13.1 ] } },
{ "type": "Feature", "properties": { "ID": 276139, "LAT": 13.6, "LON": 127.4, "VMAX": 35.0, "MSLP": 1003.0, "RMAX": 70.0, "FSPD": 4.4954, "FDIR": 297.24207, "RENV": 385.0, "PENV": 1006.0, "VALIDT": 0, "DTG": "2024-10-22 00:00", "LATNOW": 16.4, "LONNOW": 108.7, "WINDNOW": 25.0, "DIRNOW": 1.0, "SPDNOW": 0.0, "TECH": "TRAK", "ADVNR": 34, "ATCFID": "WP222024", "NAME": "TRAMI", "FTECH": "JTWC", "FCST_DTG": "2024-10-28 18:00:00", "RUN_DTG": "2024-10-29 08:15:52", "BASIN": "WP", "STMNR": 22, "CAT_ID": null, "CAT_DESC": null, "MSGID": "WTPN51 PGTW 282100", "VALIDTIME": "2024-10-22 00:00:00" }, "geometry": { "type": "Point", "coordinates": [ 127.400002, 13.6 ] } },
{ "type": "Feature", "properties": { "ID": 276140, "LAT": 14.0, "LON": 126.6, "VMAX": 35.0, "MSLP": 992.0, "RMAX": 70.0, "FSPD": 4.65878, "FDIR": 311.4945, "RENV": 385.0, "PENV": 1003.0, "VALIDT": 0, "DTG": "2024-10-22 06:00", "LATNOW": 16.4, "LONNOW": 108.7, "WINDNOW": 25.0, "DIRNOW": 1.0, "SPDNOW": 0.0, "TECH": "TRAK", "ADVNR": 34, "ATCFID": "WP222024", "NAME": "TRAMI", "FTECH": "JTWC", "FCST_DTG": "2024-10-28 18:00:00", "RUN_DTG": "2024-10-29 08:15:52", "BASIN": "WP", "STMNR": 22, "CAT_ID": null, "CAT_DESC": null, "MSGID": "WTPN51 PGTW 282100", "VALIDTIME": "2024-10-22 06:00:00" }, "geometry": { "type": "Point", "coordinates": [ 126.599998, 14.0 ] } },
{ "type": "Feature", "properties": { "ID": 276141, "LAT": 14.6, "LON": 125.9, "VMAX": 40.0, "MSLP": 990.0, "RMAX": 65.0, "FSPD": 4.73727, "FDIR": 302.88644, "RENV": 310.0, "PENV": 1001.0, "VALIDT": 0, "DTG": "2024-10-22 12:00", "LATNOW": 16.4, "LONNOW": 108.7, "WINDNOW": 25.0, "DIRNOW": 1.0, "SPDNOW": 0.0, "TECH": "TRAK", "ADVNR": 34, "ATCFID": "WP222024", "NAME": "TRAMI", "FTECH": "JTWC", "FCST_DTG": "2024-10-28 18:00:00", "RUN_DTG": "2024-10-29 08:15:52", "BASIN": "WP", "STMNR": 22, "CAT_ID": null, "CAT_DESC": null, "MSGID": "WTPN51 PGTW 282100", "VALIDTIME": "2024-10-22 12:00:00" }, "geometry": { "type": "Point", "coordinates": [ 125.900002, 14.6 ] } },
{ "type": "Feature", "properties": { "ID": 276142, "LAT": 15.1, "LON": 125.1, "VMAX": 40.0, "MSLP": 990.0, "RMAX": 60.0, "FSPD": 4.64552, "FDIR": 311.63922, "RENV": 280.0, "PENV": 1002.0, "VALIDT": 0, "DTG": "2024-10-22 18:00", "LATNOW": 16.4, "LONNOW": 108.7, "WINDNOW": 25.0, "DIRNOW": 1.0, "SPDNOW": 0.0, "TECH": "TRAK", "ADVNR": 34, "ATCFID": "WP222024", "NAME": "TRAMI", "FTECH": "JTWC", "FCST_DTG": "2024-10-28 18:00:00", "RUN_DTG": "2024-10-29 08:15:52", "BASIN": "WP", "STMNR": 22, "CAT_ID": null, "CAT_DESC": null, "MSGID": "WTPN51 PGTW 282100", "VALIDTIME": "2024-10-22 18:00:00" }, "geometry": { "type": "Point", "coordinates": [ 125.099998, 15.1 ] } },
{ "type": "Feature", "properties": { "ID": 276143, "LAT": 15.7, "LON": 124.4, "VMAX": 45.0, "MSLP": 992.0, "RMAX": 60.0, "FSPD": 6.0184, "FDIR": 295.30228, "RENV": 280.0, "PENV": 1002.0, "VALIDT": 0, "DTG": "2024-10-23 00:00", "LATNOW": 16.4, "LONNOW": 108.7, "WINDNOW": 25.0, "DIRNOW": 1.0, "SPDNOW": 0.0, "TECH": "TRAK", "ADVNR": 34, "ATCFID": "WP222024", "NAME": "TRAMI", "FTECH": "JTWC", "FCST_DTG": "2024-10-28 18:00:00", "RUN_DTG": "2024-10-29 08:15:52", "BASIN": "WP", "STMNR": 22, "CAT_ID": null, "CAT_DESC": null, "MSGID": "WTPN51 PGTW 282100", "VALIDTIME": "2024-10-23 00:00:00" }, "geometry": { "type": "Point", "coordinates": [ 124.400002, 15.7 ] } },
{ "type": "Feature", "properties": { "ID": 276144, "LAT": 16.2, "LON": 123.3, "VMAX": 45.0, "MSLP": 989.0, "RMAX": 70.0, "FSPD": 4.10595, "FDIR": 331.2879, "RENV": 539.0, "PENV": 1004.0, "VALIDT": 0, "DTG": "2024-10-23 06:00", "LATNOW": 16.4, "LONNOW": 108.7, "WINDNOW": 25.0, "DIRNOW": 1.0, "SPDNOW": 0.0, "TECH": "TRAK", "ADVNR": 34, "ATCFID": "WP222024", "NAME": "TRAMI", "FTECH": "JTWC", "FCST_DTG": "2024-10-28 18:00:00", "RUN_DTG": "2024-10-29 08:15:52", "BASIN": "WP", "STMNR": 22, "CAT_ID": null, "CAT_DESC": null, "MSGID": "WTPN51 PGTW 282100", "VALIDTIME": "2024-10-23 06:00:00" }, "geometry": { "type": "Point", "coordinates": [ 123.300003, 16.200001 ] } },
{ "type": "Feature", "properties": { "ID": 276145, "LAT": 16.9, "LON": 122.9, "VMAX": 45.0, "MSLP": 991.0, "RMAX": 60.0, "FSPD": 4.29653, "FDIR": 306.7751, "RENV": 280.0, "PENV": 1002.0, "VALIDT": 0, "DTG": "2024-10-23 12:00", "LATNOW": 16.4, "LONNOW": 108.7, "WINDNOW": 25.0, "DIRNOW": 1.0, "SPDNOW": 0.0, "TECH": "TRAK", "ADVNR": 34, "ATCFID": "WP222024", "NAME": "TRAMI", "FTECH": "JTWC", "FCST_DTG": "2024-10-28 18:00:00", "RUN_DTG": "2024-10-29 08:15:52", "BASIN": "WP", "STMNR": 22, "CAT_ID": null, "CAT_DESC": null, "MSGID": "WTPN51 PGTW 282100", "VALIDTIME": "2024-10-23 12:00:00" }, "geometry": { "type": "Point", "coordinates": [ 122.900002, 16.9 ] } },
{ "type": "Feature", "properties": { "ID": 276146, "LAT": 17.35, "LON": 122.27, "VMAX": 45.0, "MSLP": 991.0, "RMAX": 60.0, "FSPD": 4.29274, "FDIR": 306.8122, "RENV": 280.0, "PENV": 1002.0, "VALIDT": 0, "DTG": "2024-10-23 17:00", "LATNOW": 16.4, "LONNOW": 108.7, "WINDNOW": 25.0, "DIRNOW": 1.0, "SPDNOW": 0.0, "TECH": "TRAK", "ADVNR": 34, "ATCFID": "WP222024", "NAME": "TRAMI", "FTECH": "JTWC", "FCST_DTG": "2024-10-28 18:00:00", "RUN_DTG": "2024-10-29 08:15:52", "BASIN": "WP", "STMNR": 22, "CAT_ID": null, "CAT_DESC": null, "MSGID": "WTPN51 PGTW 282100", "VALIDTIME": "2024-10-23 17:00:00" }, "geometry": { "type": "Point", "coordinates": [ 122.269997, 17.35 ] } },
{ "type": "Feature", "properties": { "ID": 276147, "LAT": 17.4, "LON": 122.2, "VMAX": 45.0, "MSLP": 991.0, "RMAX": 50.0, "FSPD": 5.32781, "FDIR": 247.27965, "RENV": 280.0, "PENV": 1002.0, "VALIDT": 0, "DTG": "2024-10-23 18:00", "LATNOW": 16.4, "LONNOW": 108.7, "WINDNOW": 25.0, "DIRNOW": 1.0, "SPDNOW": 0.0, "TECH": "TRAK", "ADVNR": 34, "ATCFID": "WP222024", "NAME": "TRAMI", "FTECH": "JTWC", "FCST_DTG": "2024-10-28 18:00:00", "RUN_DTG": "2024-10-29 08:15:52", "BASIN": "WP", "STMNR": 22, "CAT_ID": null, "CAT_DESC": null, "MSGID": "WTPN51 PGTW 282100", "VALIDTIME": "2024-10-23 18:00:00" }, "geometry": { "type": "Point", "coordinates": [ 122.199997, 17.4 ] } },
{ "type": "Feature", "properties": { "ID": 276148, "LAT": 17.0, "LON": 121.2, "VMAX": 45.0, "MSLP": 988.0, "RMAX": 35.0, "FSPD": 6.71189, "FDIR": 287.85364, "RENV": 240.0, "PENV": 1002.0, "VALIDT": 0, "DTG": "2024-10-24 00:00", "LATNOW": 16.4, "LONNOW": 108.7, "WINDNOW": 25.0, "DIRNOW": 1.0, "SPDNOW": 0.0, "TECH": "TRAK", "ADVNR": 34, "ATCFID": "WP222024", "NAME": "TRAMI", "FTECH": "JTWC", "FCST_DTG": "2024-10-28 18:00:00", "RUN_DTG": "2024-10-29 08:15:52", "BASIN": "WP", "STMNR": 22, "CAT_ID": null, "CAT_DESC": null, "MSGID": "WTPN51 PGTW 282100", "VALIDTIME": "2024-10-24 00:00:00" }, "geometry": { "type": "Point", "coordinates": [ 121.199997, 17.0 ] } },
{ "type": "Feature", "properties": { "ID": 276149, "LAT": 17.4, "LON": 119.9, "VMAX": 40.0, "MSLP": 988.0, "RMAX": 30.0, "FSPD": 2.13409, "FDIR": 223.68233, "RENV": 300.0, "PENV": 1002.0, "VALIDT": 0, "DTG": "2024-10-24 06:00", "LATNOW": 16.4, "LONNOW": 108.7, "WINDNOW": 25.0, "DIRNOW": 1.0, "SPDNOW": 0.0, "TECH": "TRAK", "ADVNR": 34, "ATCFID": "WP222024", "NAME": "TRAMI", "FTECH": "JTWC", "FCST_DTG": "2024-10-28 18:00:00", "RUN_DTG": "2024-10-29 08:15:52", "BASIN": "WP", "STMNR": 22, "CAT_ID": null, "CAT_DESC": null, "MSGID": "WTPN51 PGTW 282100", "VALIDTIME": "2024-10-24 06:00:00" }, "geometry": { "type": "Point", "coordinates": [ 119.900002, 17.4 ] } },
{ "type": "Feature", "properties": { "ID": 276150, "LAT": 17.1, "LON": 119.6, "VMAX": 40.0, "MSLP": 986.0, "RMAX": 40.0, "FSPD": 3.59955, "FDIR": 235.1328, "RENV": 335.0, "PENV": 1002.0, "VALIDT": 0, "DTG": "2024-10-24 12:00", "LATNOW": 16.4, "LONNOW": 108.7, "WINDNOW": 25.0, "DIRNOW": 1.0, "SPDNOW": 0.0, "TECH": "TRAK", "ADVNR": 34, "ATCFID": "WP222024", "NAME": "TRAMI", "FTECH": "JTWC", "FCST_DTG": "2024-10-28 18:00:00", "RUN_DTG": "2024-10-29 08:15:52", "BASIN": "WP", "STMNR": 22, "CAT_ID": null, "CAT_DESC": null, "MSGID": "WTPN51 PGTW 282100", "VALIDTIME": "2024-10-24 12:00:00" }, "geometry": { "type": "Point", "coordinates": [ 119.599998, 17.1 ] } },
{ "type": "Feature", "properties": { "ID": 276151, "LAT": 16.7, "LON": 119.0, "VMAX": 45.0, "MSLP": 986.0, "RMAX": 40.0, "FSPD": 1.42434, "FDIR": 316.24945, "RENV": 335.0, "PENV": 1002.0, "VALIDT": 0, "DTG": "2024-10-24 18:00", "LATNOW": 16.4, "LONNOW": 108.7, "WINDNOW": 25.0, "DIRNOW": 1.0, "SPDNOW": 0.0, "TECH": "TRAK", "ADVNR": 34, "ATCFID": "WP222024", "NAME": "TRAMI", "FTECH": "JTWC", "FCST_DTG": "2024-10-28 18:00:00", "RUN_DTG": "2024-10-29 08:15:52", "BASIN": "WP", "STMNR": 22, "CAT_ID": null, "CAT_DESC": null, "MSGID": "WTPN51 PGTW 282100", "VALIDTIME": "2024-10-24 18:00:00" }, "geometry": { "type": "Point", "coordinates": [ 119.0, 16.700001 ] } },
{ "type": "Feature", "properties": { "ID": 276152, "LAT": 16.9, "LON": 118.8, "VMAX": 50.0, "MSLP": 988.0, "RMAX": 40.0, "FSPD": 9.3091, "FDIR": 296.23798, "RENV": 335.0, "PENV": 1003.0, "VALIDT": 0, "DTG": "2024-10-25 00:00", "LATNOW": 16.4, "LONNOW": 108.7, "WINDNOW": 25.0, "DIRNOW": 1.0, "SPDNOW": 0.0, "TECH": "TRAK", "ADVNR": 34, "ATCFID": "WP222024", "NAME": "TRAMI", "FTECH": "JTWC", "FCST_DTG": "2024-10-28 18:00:00", "RUN_DTG": "2024-10-29 08:15:52", "BASIN": "WP", "STMNR": 22, "CAT_ID": null, "CAT_DESC": null, "MSGID": "WTPN51 PGTW 282100", "VALIDTIME": "2024-10-25 00:00:00" }, "geometry": { "type": "Point", "coordinates": [ 118.800003, 16.9 ] } },
{ "type": "Feature", "properties": { "ID": 276153, "LAT": 17.7, "LON": 117.1, "VMAX": 55.0, "MSLP": 986.0, "RMAX": 40.0, "FSPD": 5.90517, "FDIR": 265.00214, "RENV": 335.0, "PENV": 1003.0, "VALIDT": 0, "DTG": "2024-10-25 06:00", "LATNOW": 16.4, "LONNOW": 108.7, "WINDNOW": 25.0, "DIRNOW": 1.0, "SPDNOW": 0.0, "TECH": "TRAK", "ADVNR": 34, "ATCFID": "WP222024", "NAME": "TRAMI", "FTECH": "JTWC", "FCST_DTG": "2024-10-28 18:00:00", "RUN_DTG": "2024-10-29 08:15:52", "BASIN": "WP", "STMNR": 22, "CAT_ID": null, "CAT_DESC": null, "MSGID": "WTPN51 PGTW 282100", "VALIDTIME": "2024-10-25 06:00:00" }, "geometry": { "type": "Point", "coordinates": [ 117.099998, 17.700001 ] } },
{ "type": "Feature", "properties": { "ID": 276154, "LAT": 17.6, "LON": 115.9, "VMAX": 55.0, "MSLP": 983.0, "RMAX": 40.0, "FSPD": 3.59304, "FDIR": 235.06038, "RENV": 295.0, "PENV": 1002.0, "VALIDT": 0, "DTG": "2024-10-25 12:00", "LATNOW": 16.4, "LONNOW": 108.7, "WINDNOW": 25.0, "DIRNOW": 1.0, "SPDNOW": 0.0, "TECH": "TRAK", "ADVNR": 34, "ATCFID": "WP222024", "NAME": "TRAMI", "FTECH": "JTWC", "FCST_DTG": "2024-10-28 18:00:00", "RUN_DTG": "2024-10-29 08:15:52", "BASIN": "WP", "STMNR": 22, "CAT_ID": null, "CAT_DESC": null, "MSGID": "WTPN51 PGTW 282100", "VALIDTIME": "2024-10-25 12:00:00" }, "geometry": { "type": "Point", "coordinates": [ 115.900002, 17.6 ] } },
{ "type": "Feature", "properties": { "ID": 276155, "LAT": 17.2, "LON": 115.3, "VMAX": 60.0, "MSLP": 983.0, "RMAX": 40.0, "FSPD": 10.81165, "FDIR": 269.99997, "RENV": 280.0, "PENV": 1004.0, "VALIDT": 0, "DTG": "2024-10-25 18:00", "LATNOW": 16.4, "LONNOW": 108.7, "WINDNOW": 25.0, "DIRNOW": 1.0, "SPDNOW": 0.0, "TECH": "TRAK", "ADVNR": 34, "ATCFID": "WP222024", "NAME": "TRAMI", "FTECH": "JTWC", "FCST_DTG": "2024-10-28 18:00:00", "RUN_DTG": "2024-10-29 08:15:52", "BASIN": "WP", "STMNR": 22, "CAT_ID": null, "CAT_DESC": null, "MSGID": "WTPN51 PGTW 282100", "VALIDTIME": "2024-10-25 18:00:00" }, "geometry": { "type": "Point", "coordinates": [ 115.300003, 17.200001 ] } },
{ "type": "Feature", "properties": { "ID": 276156, "LAT": 17.2, "LON": 113.1, "VMAX": 60.0, "MSLP": 978.0, "RMAX": 35.0, "FSPD": 6.90119, "FDIR": 265.7249, "RENV": 280.0, "PENV": 1004.0, "VALIDT": 0, "DTG": "2024-10-26 00:00", "LATNOW": 16.4, "LONNOW": 108.7, "WINDNOW": 25.0, "DIRNOW": 1.0, "SPDNOW": 0.0, "TECH": "TRAK", "ADVNR": 34, "ATCFID": "WP222024", "NAME": "TRAMI", "FTECH": "JTWC", "FCST_DTG": "2024-10-28 18:00:00", "RUN_DTG": "2024-10-29 08:15:52", "BASIN": "WP", "STMNR": 22, "CAT_ID": null, "CAT_DESC": null, "MSGID": "WTPN51 PGTW 282100", "VALIDTIME": "2024-10-26 00:00:00" }, "geometry": { "type": "Point", "coordinates": [ 113.099998, 17.200001 ] } },
{ "type": "Feature", "properties": { "ID": 276157, "LAT": 17.1, "LON": 111.7, "VMAX": 55.0, "MSLP": 980.0, "RMAX": 70.0, "FSPD": 4.45391, "FDIR": 276.6327, "RENV": 440.0, "PENV": 1006.0, "VALIDT": 0, "DTG": "2024-10-26 06:00", "LATNOW": 16.4, "LONNOW": 108.7, "WINDNOW": 25.0, "DIRNOW": 1.0, "SPDNOW": 0.0, "TECH": "TRAK", "ADVNR": 34, "ATCFID": "WP222024", "NAME": "TRAMI", "FTECH": "JTWC", "FCST_DTG": "2024-10-28 18:00:00", "RUN_DTG": "2024-10-29 08:15:52", "BASIN": "WP", "STMNR": 22, "CAT_ID": null, "CAT_DESC": null, "MSGID": "WTPN51 PGTW 282100", "VALIDTIME": "2024-10-26 06:00:00" }, "geometry": { "type": "Point", "coordinates": [ 111.699997, 17.1 ] } },
{ "type": "Feature", "properties": { "ID": 276158, "LAT": 17.2, "LON": 110.8, "VMAX": 55.0, "MSLP": 988.0, "RMAX": 30.0, "FSPD": 5.02352, "FDIR": 258.18127, "RENV": 260.0, "PENV": 1003.0, "VALIDT": 0, "DTG": "2024-10-26 12:00", "LATNOW": 16.4, "LONNOW": 108.7, "WINDNOW": 25.0, "DIRNOW": 1.0, "SPDNOW": 0.0, "TECH": "TRAK", "ADVNR": 34, "ATCFID": "WP222024", "NAME": "TRAMI", "FTECH": "JTWC", "FCST_DTG": "2024-10-28 18:00:00", "RUN_DTG": "2024-10-29 08:15:52", "BASIN": "WP", "STMNR": 22, "CAT_ID": null, "CAT_DESC": null, "MSGID": "WTPN51 PGTW 282100", "VALIDTIME": "2024-10-26 12:00:00" }, "geometry": { "type": "Point", "coordinates": [ 110.800003, 17.200001 ] } },
{ "type": "Feature", "properties": { "ID": 276159, "LAT": 17.0, "LON": 109.8, "VMAX": 50.0, "MSLP": 988.0, "RMAX": 30.0, "FSPD": 7.36071, "FDIR": 249.54611, "RENV": 260.0, "PENV": 1003.0, "VALIDT": 0, "DTG": "2024-10-26 18:00", "LATNOW": 16.4, "LONNOW": 108.7, "WINDNOW": 25.0, "DIRNOW": 1.0, "SPDNOW": 0.0, "TECH": "TRAK", "ADVNR": 34, "ATCFID": "WP222024", "NAME": "TRAMI", "FTECH": "JTWC", "FCST_DTG": "2024-10-28 18:00:00", "RUN_DTG": "2024-10-29 08:15:52", "BASIN": "WP", "STMNR": 22, "CAT_ID": null, "CAT_DESC": null, "MSGID": "WTPN51 PGTW 282100", "VALIDTIME": "2024-10-26 18:00:00" }, "geometry": { "type": "Point", "coordinates": [ 109.800003, 17.0 ] } },
{ "type": "Feature", "properties": { "ID": 276160, "LAT": 16.5, "LON": 108.4, "VMAX": 45.0, "MSLP": 985.0, "RMAX": 30.0, "FSPD": 3.60662, "FDIR": 235.21098, "RENV": 260.0, "PENV": 1003.0, "VALIDT": 0, "DTG": "2024-10-27 00:00", "LATNOW": 16.4, "LONNOW": 108.7, "WINDNOW": 25.0, "DIRNOW": 1.0, "SPDNOW": 0.0, "TECH": "TRAK", "ADVNR": 34, "ATCFID": "WP222024", "NAME": "TRAMI", "FTECH": "JTWC", "FCST_DTG": "2024-10-28 18:00:00", "RUN_DTG": "2024-10-29 08:15:52", "BASIN": "WP", "STMNR": 22, "CAT_ID": null, "CAT_DESC": null, "MSGID": "WTPN51 PGTW 282100", "VALIDTIME": "2024-10-27 00:00:00" }, "geometry": { "type": "Point", "coordinates": [ 108.400002, 16.5 ] } },
{ "type": "Feature", "properties": { "ID": 276161, "LAT": 16.18, "LON": 107.92001, "VMAX": 45.0, "MSLP": 985.0, "RMAX": 30.0, "FSPD": 3.60917, "FDIR": 235.23914, "RENV": 260.0, "PENV": 1003.0, "VALIDT": 0, "DTG": "2024-10-27 04:00", "LATNOW": 16.4, "LONNOW": 108.7, "WINDNOW": 25.0, "DIRNOW": 1.0, "SPDNOW": 0.0, "TECH": "TRAK", "ADVNR": 34, "ATCFID": "WP222024", "NAME": "TRAMI", "FTECH": "JTWC", "FCST_DTG": "2024-10-28 18:00:00", "RUN_DTG": "2024-10-29 08:15:52", "BASIN": "WP", "STMNR": 22, "CAT_ID": null, "CAT_DESC": null, "MSGID": "WTPN51 PGTW 282100", "VALIDTIME": "2024-10-27 04:00:00" }, "geometry": { "type": "Point", "coordinates": [ 107.920006, 16.18 ] } },
{ "type": "Feature", "properties": { "ID": 276162, "LAT": 16.1, "LON": 107.8, "VMAX": 40.0, "MSLP": 987.0, "RMAX": 70.0, "FSPD": 4.10981, "FDIR": 208.80971, "RENV": 265.0, "PENV": 1004.0, "VALIDT": 0, "DTG": "2024-10-27 06:00", "LATNOW": 16.4, "LONNOW": 108.7, "WINDNOW": 25.0, "DIRNOW": 1.0, "SPDNOW": 0.0, "TECH": "TRAK", "ADVNR": 34, "ATCFID": "WP222024", "NAME": "TRAMI", "FTECH": "JTWC", "FCST_DTG": "2024-10-28 18:00:00", "RUN_DTG": "2024-10-29 08:15:52", "BASIN": "WP", "STMNR": 22, "CAT_ID": null, "CAT_DESC": null, "MSGID": "WTPN51 PGTW 282100", "VALIDTIME": "2024-10-27 06:00:00" }, "geometry": { "type": "Point", "coordinates": [ 107.800003, 16.1 ] } },
{ "type": "Feature", "properties": { "ID": 276163, "LAT": 15.4, "LON": 107.4, "VMAX": 35.0, "MSLP": 996.0, "RMAX": 55.0, "FSPD": 2.04998, "FDIR": 104.53369, "RENV": 265.0, "PENV": 1004.0, "VALIDT": 0, "DTG": "2024-10-27 12:00", "LATNOW": 16.4, "LONNOW": 108.7, "WINDNOW": 25.0, "DIRNOW": 1.0, "SPDNOW": 0.0, "TECH": "TRAK", "ADVNR": 34, "ATCFID": "WP222024", "NAME": "TRAMI", "FTECH": "JTWC", "FCST_DTG": "2024-10-28 18:00:00", "RUN_DTG": "2024-10-29 08:15:52", "BASIN": "WP", "STMNR": 22, "CAT_ID": null, "CAT_DESC": null, "MSGID": "WTPN51 PGTW 282100", "VALIDTIME": "2024-10-27 12:00:00" }, "geometry": { "type": "Point", "coordinates": [ 107.400002, 15.4 ] } },
{ "type": "Feature", "properties": { "ID": 276164, "LAT": 15.3, "LON": 107.8, "VMAX": 30.0, "MSLP": 998.0, "RMAX": 55.0, "FSPD": 2.11665, "FDIR": 13.54471, "RENV": 265.0, "PENV": 1004.0, "VALIDT": 0, "DTG": "2024-10-27 18:00", "LATNOW": 16.4, "LONNOW": 108.7, "WINDNOW": 25.0, "DIRNOW": 1.0, "SPDNOW": 0.0, "TECH": "TRAK", "ADVNR": 34, "ATCFID": "WP222024", "NAME": "TRAMI", "FTECH": "JTWC", "FCST_DTG": "2024-10-28 18:00:00", "RUN_DTG": "2024-10-29 08:15:52", "BASIN": "WP", "STMNR": 22, "CAT_ID": null, "CAT_DESC": null, "MSGID": "WTPN51 PGTW 282100", "VALIDTIME": "2024-10-27 18:00:00" }, "geometry": { "type": "Point", "coordinates": [ 107.800003, 15.3 ] } },
{ "type": "Feature", "properties": { "ID": 276165, "LAT": 15.7, "LON": 107.9, "VMAX": 30.0, "MSLP": 997.0, "RMAX": 55.0, "FSPD": 1.11633, "FDIR": 117.44077, "RENV": 265.0, "PENV": 1004.0, "VALIDT": 0, "DTG": "2024-10-28 00:00", "LATNOW": 16.4, "LONNOW": 108.7, "WINDNOW": 25.0, "DIRNOW": 1.0, "SPDNOW": 0.0, "TECH": "TRAK", "ADVNR": 34, "ATCFID": "WP222024", "NAME": "TRAMI", "FTECH": "JTWC", "FCST_DTG": "2024-10-28 18:00:00", "RUN_DTG": "2024-10-29 08:15:52", "BASIN": "WP", "STMNR": 22, "CAT_ID": null, "CAT_DESC": null, "MSGID": "WTPN51 PGTW 282100", "VALIDTIME": "2024-10-28 00:00:00" }, "geometry": { "type": "Point", "coordinates": [ 107.900002, 15.7 ] } },
{ "type": "Feature", "properties": { "ID": 276166, "LAT": 15.6, "LON": 108.1, "VMAX": 25.0, "MSLP": 998.0, "RMAX": 55.0, "FSPD": 3.21874, "FDIR": 50.25946, "RENV": 210.0, "PENV": 1004.0, "VALIDT": 0, "DTG": "2024-10-28 06:00", "LATNOW": 16.4, "LONNOW": 108.7, "WINDNOW": 25.0, "DIRNOW": 1.0, "SPDNOW": 0.0, "TECH": "TRAK", "ADVNR": 34, "ATCFID": "WP222024", "NAME": "TRAMI", "FTECH": "JTWC", "FCST_DTG": "2024-10-28 18:00:00", "RUN_DTG": "2024-10-29 08:15:52", "BASIN": "WP", "STMNR": 22, "CAT_ID": null, "CAT_DESC": null, "MSGID": "WTPN51 PGTW 282100", "VALIDTIME": "2024-10-28 06:00:00" }, "geometry": { "type": "Point", "coordinates": [ 108.099998, 15.6 ] } },
{ "type": "Feature", "properties": { "ID": 276167, "LAT": 16.0, "LON": 108.6, "VMAX": 25.0, "MSLP": 1002.0, "RMAX": 55.0, "FSPD": 2.11624, "FDIR": 13.49951, "RENV": 210.0, "PENV": 1004.0, "VALIDT": 0, "DTG": "2024-10-28 12:00", "LATNOW": 16.4, "LONNOW": 108.7, "WINDNOW": 25.0, "DIRNOW": 1.0, "SPDNOW": 0.0, "TECH": "TRAK", "ADVNR": 34, "ATCFID": "WP222024", "NAME": "TRAMI", "FTECH": "JTWC", "FCST_DTG": "2024-10-28 18:00:00", "RUN_DTG": "2024-10-29 08:15:52", "BASIN": "WP", "STMNR": 22, "CAT_ID": null, "CAT_DESC": null, "MSGID": "WTPN51 PGTW 282100", "VALIDTIME": "2024-10-28 12:00:00" }, "geometry": { "type": "Point", "coordinates": [ 108.599998, 16.0 ] } },
{ "type": "Feature", "properties": { "ID": 276168, "LAT": 16.4, "LON": 108.7, "VMAX": 25.0, "MSLP": 1002.0, "RMAX": 55.0, "FSPD": 0.74028, "FDIR": 90.0, "RENV": 210.0, "PENV": 1004.0, "VALIDT": 0, "DTG": "2024-10-28 18:00", "LATNOW": 16.4, "LONNOW": 108.7, "WINDNOW": 25.0, "DIRNOW": 1.0, "SPDNOW": 0.0, "TECH": "TRAK", "ADVNR": 34, "ATCFID": "WP222024", "NAME": "TRAMI", "FTECH": "JTWC", "FCST_DTG": "2024-10-28 18:00:00", "RUN_DTG": "2024-10-29 08:15:52", "BASIN": "WP", "STMNR": 22, "CAT_ID": null, "CAT_DESC": null, "MSGID": "WTPN51 PGTW 282100", "VALIDTIME": "2024-10-28 18:00:00" }, "geometry": { "type": "Point", "coordinates": [ 108.699997, 16.4 ] } },
{ "type": "Feature", "properties": { "ID": 276169, "LAT": 16.4, "LON": 109.0, "VMAX": 20.0, "MSLP": 1012.95825, "RMAX": 64.37511, "FSPD": 1.02024, "FDIR": 104.60294, "RENV": 250.0, "PENV": 1012.0, "VALIDT": 12, "DTG": "2024-10-29 06:00", "LATNOW": 16.4, "LONNOW": 108.7, "WINDNOW": 25.0, "DIRNOW": 1.0, "SPDNOW": 0.0, "TECH": "FCST", "ADVNR": 34, "ATCFID": "WP222024", "NAME": "TRAMI", "FTECH": "JTWC", "FCST_DTG": "2024-10-28 18:00:00", "RUN_DTG": "2024-10-29 08:15:52", "BASIN": "WP", "STMNR": 22, "CAT_ID": null, "CAT_DESC": null, "MSGID": "WTPN51 PGTW 282100", "VALIDTIME": "2024-10-29 06:00:00" }, "geometry": { "type": "Point", "coordinates": [ 109.0, 16.4 ] } },
{ "type": "Feature", "properties": { "ID": 276170, "LAT": 16.3, "LON": 109.4, "VMAX": 20.0, "MSLP": 1012.95825, "RMAX": 64.37511, "FSPD": 1.02024, "FDIR": 104.60294, "RENV": 250.0, "PENV": 1012.0, "VALIDT": 24, "DTG": "2024-10-29 18:00", "LATNOW": 16.4, "LONNOW": 108.7, "WINDNOW": 25.0, "DIRNOW": 1.0, "SPDNOW": 0.0, "TECH": "FCST", "ADVNR": 34, "ATCFID": "WP222024", "NAME": "TRAMI", "FTECH": "JTWC", "FCST_DTG": "2024-10-28 18:00:00", "RUN_DTG": "2024-10-29 08:15:52", "BASIN": "WP", "STMNR": 22, "CAT_ID": null, "CAT_DESC": null, "MSGID": "WTPN51 PGTW 282100", "VALIDTIME": "2024-10-29 18:00:00" }, "geometry": { "type": "Point", "coordinates": [ 109.400002, 16.299999 ] } },
{ "type": "Feature", "properties": { "ID": 276168, "LAT": 16.4, "LON": 108.7, "VMAX": 25.0, "MSLP": 1002.0, "RMAX": 55.0, "FSPD": 0.74028, "FDIR": 90.0, "RENV": 210.0, "PENV": 1004.0, "VALIDT": 0, "DTG": "2024-10-28 18:00", "LATNOW": 16.4, "LONNOW": 108.7, "WINDNOW": 25.0, "DIRNOW": 1.0, "SPDNOW": 0.0, "TECH": "TRAK", "ADVNR": 34, "ATCFID": "WP222024", "NAME": "TRAMI", "FTECH": "JTWC", "FCST_DTG": "2024-10-28 18:00:00", "RUN_DTG": "2024-10-29 08:15:52", "BASIN": "WP", "STMNR": 22, "CAT_ID": null, "CAT_DESC": null, "MSGID": "WTPN51 PGTW 282100", "VALIDTIME": "2024-10-28 18:00:00" }, "geometry": { "type": "LineString", "coordinates": [ [ 139.3, 13.8 ], [ 139.1, 13.8 ], [ 138.9, 13.8 ], [ 138.5, 13.9 ], [ 138.2, 14.0 ], [ 137.9, 14.0 ], [ 137.5, 14.0 ], [ 136.9, 14.2 ], [ 136.0, 14.9 ], [ 134.1, 14.4 ], [ 132.5, 14.1 ], [ 130.1, 13.4 ], [ 129.0, 13.1 ], [ 128.2, 13.1 ], [ 127.4, 13.6 ], [ 126.6, 14.0 ], [ 125.9, 14.6 ], [ 125.1, 15.1 ], [ 124.4, 15.7 ], [ 123.3, 16.2 ], [ 122.9, 16.9 ], [ 122.27, 17.35 ], [ 122.2, 17.4 ], [ 121.2, 17.0 ], [ 119.9, 17.4 ], [ 119.6, 17.1 ], [ 119.0, 16.7 ], [ 118.8, 16.9 ], [ 117.1, 17.7 ], [ 115.9, 17.6 ], [ 115.3, 17.2 ], [ 113.1, 17.2 ], [ 111.7, 17.1 ], [ 110.8, 17.2 ], [ 109.8, 17.0 ], [ 108.4, 16.5 ], [ 107.92001, 16.18 ], [ 107.8, 16.1 ], [ 107.4, 15.4 ], [ 107.8, 15.3 ], [ 107.9, 15.7 ], [ 108.1, 15.6 ], [ 108.6, 16.0 ], [ 108.7, 16.4 ] ] } },
{ "type": "Feature", "properties": { "ID": 276170, "LAT": 16.3, "LON": 109.4, "VMAX": 20.0, "MSLP": 1012.95825, "RMAX": 64.37511, "FSPD": 1.02024, "FDIR": 104.60294, "RENV": 250.0, "PENV": 1012.0, "VALIDT": 24, "DTG": "2024-10-29 18:00", "LATNOW": 16.4, "LONNOW": 108.7, "WINDNOW": 25.0, "DIRNOW": 1.0, "SPDNOW": 0.0, "TECH": "FCST", "ADVNR": 34, "ATCFID": "WP222024", "NAME": "TRAMI", "FTECH": "JTWC", "FCST_DTG": "2024-10-28 18:00:00", "RUN_DTG": "2024-10-29 08:15:52", "BASIN": "WP", "STMNR": 22, "CAT_ID": null, "CAT_DESC": null, "MSGID": "WTPN51 PGTW 282100", "VALIDTIME": "2024-10-29 18:00:00" }, "geometry": { "type": "LineString", "coordinates": [ [ 108.7, 16.4 ], [ 109.0, 16.4 ], [ 109.4, 16.3 ] ] } }
]
}
