{
"type": "FeatureCollection",
"crs": { "type": "name", "properties": { "name": "urn:ogc:def:crs:OGC:1.3:CRS84" } },
"features": [
{ "type": "Feature", "properties": { "ID": 6370, "LAT": -8.2, "LON": 76.0, "VMAX": 15.0, "MSLP": 1013.8515, "RMAX": 40.0, "FSPD": 2.57222, "FDIR": 179.99997, "RENV": 500.0, "PENV": 1012.0, "VALIDT": 0, "DTG": "2026-03-29 00:00", "LATNOW": -32.0, "LONNOW": 73.1, "WINDNOW": 50.0, "DIRNOW": 10.0, "SPDNOW": 5.0, "TECH": "TRAK", "ADVNR": 10, "ATCFID": "SH292026", "NAME": "INDUSA", "FTECH": "JTWC", "FCST_DTG": "2026-04-05 18:00:00", "RUN_DTG": "2026-04-06 13:49:36", "BASIN": "SH", "STMNR": 29, "CAT_ID": null, "CAT_DESC": null, "MSGID": "WTXS51 PGTW 052100", "VALIDTIME": "2026-03-29 00:00:00" }, "geometry": { "type": "Point", "coordinates": [ 76.0, -8.2 ] } },
{ "type": "Feature", "properties": { "ID": 6371, "LAT": -8.7, "LON": 76.0, "VMAX": 15.0, "MSLP": 1013.8515, "RMAX": 40.0, "FSPD": 3.60111, "FDIR": 179.99997, "RENV": 500.0, "PENV": 1012.0, "VALIDT": 0, "DTG": "2026-03-29 06:00", "LATNOW": -32.0, "LONNOW": 73.1, "WINDNOW": 50.0, "DIRNOW": 10.0, "SPDNOW": 5.0, "TECH": "TRAK", "ADVNR": 10, "ATCFID": "SH292026", "NAME": "INDUSA", "FTECH": "JTWC", "FCST_DTG": "2026-04-05 18:00:00", "RUN_DTG": "2026-04-06 13:49:36", "BASIN": "SH", "STMNR": 29, "CAT_ID": null, "CAT_DESC": null, "MSGID": "WTXS51 PGTW 052100", "VALIDTIME": "2026-03-29 06:00:00" }, "geometry": { "type": "Point", "coordinates": [ 76.0, -8.7 ] } },
{ "type": "Feature", "properties": { "ID": 6372, "LAT": -9.4, "LON": 76.0, "VMAX": 15.0, "MSLP": 1013.8515, "RMAX": 40.0, "FSPD": 1.14719, "FDIR": 153.75052, "RENV": 500.0, "PENV": 1012.0, "VALIDT": 0, "DTG": "2026-03-29 12:00", "LATNOW": -32.0, "LONNOW": 73.1, "WINDNOW": 50.0, "DIRNOW": 10.0, "SPDNOW": 5.0, "TECH": "TRAK", "ADVNR": 10, "ATCFID": "SH292026", "NAME": "INDUSA", "FTECH": "JTWC", "FCST_DTG": "2026-04-05 18:00:00", "RUN_DTG": "2026-04-06 13:49:36", "BASIN": "SH", "STMNR": 29, "CAT_ID": null, "CAT_DESC": null, "MSGID": "WTXS51 PGTW 052100", "VALIDTIME": "2026-03-29 12:00:00" }, "geometry": { "type": "Point", "coordinates": [ 76.0, -9.4 ] } },
{ "type": "Feature", "properties": { "ID": 6373, "LAT": -9.6, "LON": 76.1, "VMAX": 15.0, "MSLP": 1013.8515, "RMAX": 40.0, "FSPD": 1.83727, "FDIR": 304.0567, "RENV": 500.0, "PENV": 1012.0, "VALIDT": 0, "DTG": "2026-03-29 18:00", "LATNOW": -32.0, "LONNOW": 73.1, "WINDNOW": 50.0, "DIRNOW": 10.0, "SPDNOW": 5.0, "TECH": "TRAK", "ADVNR": 10, "ATCFID": "SH292026", "NAME": "INDUSA", "FTECH": "JTWC", "FCST_DTG": "2026-04-05 18:00:00", "RUN_DTG": "2026-04-06 13:49:36", "BASIN": "SH", "STMNR": 29, "CAT_ID": null, "CAT_DESC": null, "MSGID": "WTXS51 PGTW 052100", "VALIDTIME": "2026-03-29 18:00:00" }, "geometry": { "type": "Point", "coordinates": [ 76.099998, -9.6 ] } },
{ "type": "Feature", "properties": { "ID": 6374, "LAT": -9.4, "LON": 75.8, "VMAX": 15.0, "MSLP": 1013.8515, "RMAX": 40.0, "FSPD": 5.24391, "FDIR": 11.17703, "RENV": 500.0, "PENV": 1012.0, "VALIDT": 0, "DTG": "2026-03-30 00:00", "LATNOW": -32.0, "LONNOW": 73.1, "WINDNOW": 50.0, "DIRNOW": 10.0, "SPDNOW": 5.0, "TECH": "TRAK", "ADVNR": 10, "ATCFID": "SH292026", "NAME": "INDUSA", "FTECH": "JTWC", "FCST_DTG": "2026-04-05 18:00:00", "RUN_DTG": "2026-04-06 13:49:36", "BASIN": "SH", "STMNR": 29, "CAT_ID": null, "CAT_DESC": null, "MSGID": "WTXS51 PGTW 052100", "VALIDTIME": "2026-03-30 00:00:00" }, "geometry": { "type": "Point", "coordinates": [ 75.800003, -9.4 ] } },
{ "type": "Feature", "properties": { "ID": 6375, "LAT": -8.4, "LON": 76.0, "VMAX": 20.0, "MSLP": 1012.95825, "RMAX": 45.0, "FSPD": 2.74416, "FDIR": 112.02054, "RENV": 500.0, "PENV": 1012.0, "VALIDT": 0, "DTG": "2026-03-30 06:00", "LATNOW": -32.0, "LONNOW": 73.1, "WINDNOW": 50.0, "DIRNOW": 10.0, "SPDNOW": 5.0, "TECH": "TRAK", "ADVNR": 10, "ATCFID": "SH292026", "NAME": "INDUSA", "FTECH": "JTWC", "FCST_DTG": "2026-04-05 18:00:00", "RUN_DTG": "2026-04-06 13:49:36", "BASIN": "SH", "STMNR": 29, "CAT_ID": null, "CAT_DESC": null, "MSGID": "WTXS51 PGTW 052100", "VALIDTIME": "2026-03-30 06:00:00" }, "geometry": { "type": "Point", "coordinates": [ 76.0, -8.4 ] } },
{ "type": "Feature", "properties": { "ID": 6376, "LAT": -8.6, "LON": 76.5, "VMAX": 20.0, "MSLP": 1012.95825, "RMAX": 45.0, "FSPD": 1.0173, "FDIR": 90.0, "RENV": 500.0, "PENV": 1012.0, "VALIDT": 0, "DTG": "2026-03-30 12:00", "LATNOW": -32.0, "LONNOW": 73.1, "WINDNOW": 50.0, "DIRNOW": 10.0, "SPDNOW": 5.0, "TECH": "TRAK", "ADVNR": 10, "ATCFID": "SH292026", "NAME": "INDUSA", "FTECH": "JTWC", "FCST_DTG": "2026-04-05 18:00:00", "RUN_DTG": "2026-04-06 13:49:36", "BASIN": "SH", "STMNR": 29, "CAT_ID": null, "CAT_DESC": null, "MSGID": "WTXS51 PGTW 052100", "VALIDTIME": "2026-03-30 12:00:00" }, "geometry": { "type": "Point", "coordinates": [ 76.5, -8.6 ] } },
{ "type": "Feature", "properties": { "ID": 6377, "LAT": -8.6, "LON": 76.7, "VMAX": 20.0, "MSLP": 1012.95825, "RMAX": 45.0, "FSPD": 1.02889, "FDIR": 360.0, "RENV": 500.0, "PENV": 1012.0, "VALIDT": 0, "DTG": "2026-03-30 18:00", "LATNOW": -32.0, "LONNOW": 73.1, "WINDNOW": 50.0, "DIRNOW": 10.0, "SPDNOW": 5.0, "TECH": "TRAK", "ADVNR": 10, "ATCFID": "SH292026", "NAME": "INDUSA", "FTECH": "JTWC", "FCST_DTG": "2026-04-05 18:00:00", "RUN_DTG": "2026-04-06 13:49:36", "BASIN": "SH", "STMNR": 29, "CAT_ID": null, "CAT_DESC": null, "MSGID": "WTXS51 PGTW 052100", "VALIDTIME": "2026-03-30 18:00:00" }, "geometry": { "type": "Point", "coordinates": [ 76.699997, -8.6 ] } },
{ "type": "Feature", "properties": { "ID": 6378, "LAT": -8.4, "LON": 76.7, "VMAX": 20.0, "MSLP": 1012.95825, "RMAX": 45.0, "FSPD": 4.07138, "FDIR": 269.99997, "RENV": 500.0, "PENV": 1012.0, "VALIDT": 0, "DTG": "2026-03-31 00:00", "LATNOW": -32.0, "LONNOW": 73.1, "WINDNOW": 50.0, "DIRNOW": 10.0, "SPDNOW": 5.0, "TECH": "TRAK", "ADVNR": 10, "ATCFID": "SH292026", "NAME": "INDUSA", "FTECH": "JTWC", "FCST_DTG": "2026-04-05 18:00:00", "RUN_DTG": "2026-04-06 13:49:36", "BASIN": "SH", "STMNR": 29, "CAT_ID": null, "CAT_DESC": null, "MSGID": "WTXS51 PGTW 052100", "VALIDTIME": "2026-03-31 00:00:00" }, "geometry": { "type": "Point", "coordinates": [ 76.699997, -8.4 ] } },
{ "type": "Feature", "properties": { "ID": 6379, "LAT": -8.4, "LON": 75.9, "VMAX": 20.0, "MSLP": 1012.95825, "RMAX": 45.0, "FSPD": 2.29553, "FDIR": 206.30724, "RENV": 500.0, "PENV": 1012.0, "VALIDT": 0, "DTG": "2026-03-31 06:00", "LATNOW": -32.0, "LONNOW": 73.1, "WINDNOW": 50.0, "DIRNOW": 10.0, "SPDNOW": 5.0, "TECH": "TRAK", "ADVNR": 10, "ATCFID": "SH292026", "NAME": "INDUSA", "FTECH": "JTWC", "FCST_DTG": "2026-04-05 18:00:00", "RUN_DTG": "2026-04-06 13:49:36", "BASIN": "SH", "STMNR": 29, "CAT_ID": null, "CAT_DESC": null, "MSGID": "WTXS51 PGTW 052100", "VALIDTIME": "2026-03-31 06:00:00" }, "geometry": { "type": "Point", "coordinates": [ 75.900002, -8.4 ] } },
{ "type": "Feature", "properties": { "ID": 6380, "LAT": -8.8, "LON": 75.7, "VMAX": 20.0, "MSLP": 1012.95825, "RMAX": 45.0, "FSPD": 2.16934, "FDIR": 224.64857, "RENV": 500.0, "PENV": 1012.0, "VALIDT": 0, "DTG": "2026-03-31 12:00", "LATNOW": -32.0, "LONNOW": 73.1, "WINDNOW": 50.0, "DIRNOW": 10.0, "SPDNOW": 5.0, "TECH": "TRAK", "ADVNR": 10, "ATCFID": "SH292026", "NAME": "INDUSA", "FTECH": "JTWC", "FCST_DTG": "2026-04-05 18:00:00", "RUN_DTG": "2026-04-06 13:49:36", "BASIN": "SH", "STMNR": 29, "CAT_ID": null, "CAT_DESC": null, "MSGID": "WTXS51 PGTW 052100", "VALIDTIME": "2026-03-31 12:00:00" }, "geometry": { "type": "Point", "coordinates": [ 75.699997, -8.8 ] } },
{ "type": "Feature", "properties": { "ID": 6381, "LAT": -9.1, "LON": 75.4, "VMAX": 20.0, "MSLP": 1012.95825, "RMAX": 45.0, "FSPD": 3.24929, "FDIR": 198.2042, "RENV": 500.0, "PENV": 1012.0, "VALIDT": 0, "DTG": "2026-03-31 18:00", "LATNOW": -32.0, "LONNOW": 73.1, "WINDNOW": 50.0, "DIRNOW": 10.0, "SPDNOW": 5.0, "TECH": "TRAK", "ADVNR": 10, "ATCFID": "SH292026", "NAME": "INDUSA", "FTECH": "JTWC", "FCST_DTG": "2026-04-05 18:00:00", "RUN_DTG": "2026-04-06 13:49:36", "BASIN": "SH", "STMNR": 29, "CAT_ID": null, "CAT_DESC": null, "MSGID": "WTXS51 PGTW 052100", "VALIDTIME": "2026-03-31 18:00:00" }, "geometry": { "type": "Point", "coordinates": [ 75.400002, -9.1 ] } },
{ "type": "Feature", "properties": { "ID": 6382, "LAT": -9.7, "LON": 75.2, "VMAX": 25.0, "MSLP": 1011.80975, "RMAX": 45.0, "FSPD": 5.74875, "FDIR": 190.14362, "RENV": 500.0, "PENV": 1012.0, "VALIDT": 0, "DTG": "2026-04-01 00:00", "LATNOW": -32.0, "LONNOW": 73.1, "WINDNOW": 50.0, "DIRNOW": 10.0, "SPDNOW": 5.0, "TECH": "TRAK", "ADVNR": 10, "ATCFID": "SH292026", "NAME": "INDUSA", "FTECH": "JTWC", "FCST_DTG": "2026-04-05 18:00:00", "RUN_DTG": "2026-04-06 13:49:36", "BASIN": "SH", "STMNR": 29, "CAT_ID": null, "CAT_DESC": null, "MSGID": "WTXS51 PGTW 052100", "VALIDTIME": "2026-04-01 00:00:00" }, "geometry": { "type": "Point", "coordinates": [ 75.199997, -9.7 ] } },
{ "type": "Feature", "properties": { "ID": 6383, "LAT": -10.8, "LON": 75.0, "VMAX": 25.0, "MSLP": 1011.80975, "RMAX": 45.0, "FSPD": 2.95964, "FDIR": 238.56973, "RENV": 500.0, "PENV": 1012.0, "VALIDT": 0, "DTG": "2026-04-01 06:00", "LATNOW": -32.0, "LONNOW": 73.1, "WINDNOW": 50.0, "DIRNOW": 10.0, "SPDNOW": 5.0, "TECH": "TRAK", "ADVNR": 10, "ATCFID": "SH292026", "NAME": "INDUSA", "FTECH": "JTWC", "FCST_DTG": "2026-04-05 18:00:00", "RUN_DTG": "2026-04-06 13:49:36", "BASIN": "SH", "STMNR": 29, "CAT_ID": null, "CAT_DESC": null, "MSGID": "WTXS51 PGTW 052100", "VALIDTIME": "2026-04-01 06:00:00" }, "geometry": { "type": "Point", "coordinates": [ 75.0, -10.8 ] } },
{ "type": "Feature", "properties": { "ID": 6384, "LAT": -11.1, "LON": 74.5, "VMAX": 25.0, "MSLP": 1011.80975, "RMAX": 45.0, "FSPD": 3.02892, "FDIR": 269.99997, "RENV": 500.0, "PENV": 1012.0, "VALIDT": 0, "DTG": "2026-04-01 12:00", "LATNOW": -32.0, "LONNOW": 73.1, "WINDNOW": 50.0, "DIRNOW": 10.0, "SPDNOW": 5.0, "TECH": "TRAK", "ADVNR": 10, "ATCFID": "SH292026", "NAME": "INDUSA", "FTECH": "JTWC", "FCST_DTG": "2026-04-05 18:00:00", "RUN_DTG": "2026-04-06 13:49:36", "BASIN": "SH", "STMNR": 29, "CAT_ID": null, "CAT_DESC": null, "MSGID": "WTXS51 PGTW 052100", "VALIDTIME": "2026-04-01 12:00:00" }, "geometry": { "type": "Point", "coordinates": [ 74.5, -11.1 ] } },
{ "type": "Feature", "properties": { "ID": 6385, "LAT": -11.1, "LON": 73.9, "VMAX": 30.0, "MSLP": 1010.40607, "RMAX": 44.21983, "FSPD": 1.84397, "FDIR": 213.17955, "RENV": 500.0, "PENV": 1012.0, "VALIDT": 0, "DTG": "2026-04-01 18:00", "LATNOW": -32.0, "LONNOW": 73.1, "WINDNOW": 50.0, "DIRNOW": 10.0, "SPDNOW": 5.0, "TECH": "TRAK", "ADVNR": 10, "ATCFID": "SH292026", "NAME": "INDUSA", "FTECH": "JTWC", "FCST_DTG": "2026-04-05 18:00:00", "RUN_DTG": "2026-04-06 13:49:36", "BASIN": "SH", "STMNR": 29, "CAT_ID": null, "CAT_DESC": null, "MSGID": "WTXS51 PGTW 052100", "VALIDTIME": "2026-04-01 18:00:00" }, "geometry": { "type": "Point", "coordinates": [ 73.900002, -11.1 ] } },
{ "type": "Feature", "properties": { "ID": 6386, "LAT": -11.4, "LON": 73.7, "VMAX": 35.0, "MSLP": 1003.0, "RMAX": 40.0, "FSPD": 3.24693, "FDIR": 198.07678, "RENV": 245.0, "PENV": 1008.0, "VALIDT": 0, "DTG": "2026-04-02 00:00", "LATNOW": -32.0, "LONNOW": 73.1, "WINDNOW": 50.0, "DIRNOW": 10.0, "SPDNOW": 5.0, "TECH": "TRAK", "ADVNR": 10, "ATCFID": "SH292026", "NAME": "INDUSA", "FTECH": "JTWC", "FCST_DTG": "2026-04-05 18:00:00", "RUN_DTG": "2026-04-06 13:49:36", "BASIN": "SH", "STMNR": 29, "CAT_ID": null, "CAT_DESC": null, "MSGID": "WTXS51 PGTW 052100", "VALIDTIME": "2026-04-02 00:00:00" }, "geometry": { "type": "Point", "coordinates": [ 73.699997, -11.4 ] } },
{ "type": "Feature", "properties": { "ID": 6387, "LAT": -12.0, "LON": 73.5, "VMAX": 40.0, "MSLP": 1003.0, "RMAX": 40.0, "FSPD": 3.43531, "FDIR": 206.03676, "RENV": 245.0, "PENV": 1008.0, "VALIDT": 0, "DTG": "2026-04-02 06:00", "LATNOW": -32.0, "LONNOW": 73.1, "WINDNOW": 50.0, "DIRNOW": 10.0, "SPDNOW": 5.0, "TECH": "TRAK", "ADVNR": 10, "ATCFID": "SH292026", "NAME": "INDUSA", "FTECH": "JTWC", "FCST_DTG": "2026-04-05 18:00:00", "RUN_DTG": "2026-04-06 13:49:36", "BASIN": "SH", "STMNR": 29, "CAT_ID": null, "CAT_DESC": null, "MSGID": "WTXS51 PGTW 052100", "VALIDTIME": "2026-04-02 06:00:00" }, "geometry": { "type": "Point", "coordinates": [ 73.5, -12.0 ] } },
{ "type": "Feature", "properties": { "ID": 6388, "LAT": -12.6, "LON": 73.2, "VMAX": 45.0, "MSLP": 999.0, "RMAX": 10.0, "FSPD": 1.50618, "FDIR": 90.0, "RENV": 180.0, "PENV": 1008.0, "VALIDT": 0, "DTG": "2026-04-02 12:00", "LATNOW": -32.0, "LONNOW": 73.1, "WINDNOW": 50.0, "DIRNOW": 10.0, "SPDNOW": 5.0, "TECH": "TRAK", "ADVNR": 10, "ATCFID": "SH292026", "NAME": "INDUSA", "FTECH": "JTWC", "FCST_DTG": "2026-04-05 18:00:00", "RUN_DTG": "2026-04-06 13:49:36", "BASIN": "SH", "STMNR": 29, "CAT_ID": null, "CAT_DESC": null, "MSGID": "WTXS51 PGTW 052100", "VALIDTIME": "2026-04-02 12:00:00" }, "geometry": { "type": "Point", "coordinates": [ 73.199997, -12.6 ] } },
{ "type": "Feature", "properties": { "ID": 6389, "LAT": -12.6, "LON": 73.5, "VMAX": 55.0, "MSLP": 997.0, "RMAX": 10.0, "FSPD": 5.65889, "FDIR": 179.99997, "RENV": 180.0, "PENV": 1008.0, "VALIDT": 0, "DTG": "2026-04-02 18:00", "LATNOW": -32.0, "LONNOW": 73.1, "WINDNOW": 50.0, "DIRNOW": 10.0, "SPDNOW": 5.0, "TECH": "TRAK", "ADVNR": 10, "ATCFID": "SH292026", "NAME": "INDUSA", "FTECH": "JTWC", "FCST_DTG": "2026-04-05 18:00:00", "RUN_DTG": "2026-04-06 13:49:36", "BASIN": "SH", "STMNR": 29, "CAT_ID": null, "CAT_DESC": null, "MSGID": "WTXS51 PGTW 052100", "VALIDTIME": "2026-04-02 18:00:00" }, "geometry": { "type": "Point", "coordinates": [ 73.5, -12.6 ] } },
{ "type": "Feature", "properties": { "ID": 6390, "LAT": -13.7, "LON": 73.5, "VMAX": 55.0, "MSLP": 991.0, "RMAX": 10.0, "FSPD": 8.27533, "FDIR": 201.17361, "RENV": 180.0, "PENV": 1008.0, "VALIDT": 0, "DTG": "2026-04-03 00:00", "LATNOW": -32.0, "LONNOW": 73.1, "WINDNOW": 50.0, "DIRNOW": 10.0, "SPDNOW": 5.0, "TECH": "TRAK", "ADVNR": 10, "ATCFID": "SH292026", "NAME": "INDUSA", "FTECH": "JTWC", "FCST_DTG": "2026-04-05 18:00:00", "RUN_DTG": "2026-04-06 13:49:36", "BASIN": "SH", "STMNR": 29, "CAT_ID": null, "CAT_DESC": null, "MSGID": "WTXS51 PGTW 052100", "VALIDTIME": "2026-04-03 00:00:00" }, "geometry": { "type": "Point", "coordinates": [ 73.5, -13.7 ] } },
{ "type": "Feature", "properties": { "ID": 6391, "LAT": -15.2, "LON": 72.9, "VMAX": 55.0, "MSLP": 991.0, "RMAX": 10.0, "FSPD": 7.53175, "FDIR": 207.38379, "RENV": 180.0, "PENV": 1008.0, "VALIDT": 0, "DTG": "2026-04-03 06:00", "LATNOW": -32.0, "LONNOW": 73.1, "WINDNOW": 50.0, "DIRNOW": 10.0, "SPDNOW": 5.0, "TECH": "TRAK", "ADVNR": 10, "ATCFID": "SH292026", "NAME": "INDUSA", "FTECH": "JTWC", "FCST_DTG": "2026-04-05 18:00:00", "RUN_DTG": "2026-04-06 13:49:36", "BASIN": "SH", "STMNR": 29, "CAT_ID": null, "CAT_DESC": null, "MSGID": "WTXS51 PGTW 052100", "VALIDTIME": "2026-04-03 06:00:00" }, "geometry": { "type": "Point", "coordinates": [ 72.900002, -15.2 ] } },
{ "type": "Feature", "properties": { "ID": 6392, "LAT": -16.5, "LON": 72.2, "VMAX": 60.0, "MSLP": 995.0, "RMAX": 10.0, "FSPD": 7.30927, "FDIR": 203.7982, "RENV": 180.0, "PENV": 1010.0, "VALIDT": 0, "DTG": "2026-04-03 12:00", "LATNOW": -32.0, "LONNOW": 73.1, "WINDNOW": 50.0, "DIRNOW": 10.0, "SPDNOW": 5.0, "TECH": "TRAK", "ADVNR": 10, "ATCFID": "SH292026", "NAME": "INDUSA", "FTECH": "JTWC", "FCST_DTG": "2026-04-05 18:00:00", "RUN_DTG": "2026-04-06 13:49:36", "BASIN": "SH", "STMNR": 29, "CAT_ID": null, "CAT_DESC": null, "MSGID": "WTXS51 PGTW 052100", "VALIDTIME": "2026-04-03 12:00:00" }, "geometry": { "type": "Point", "coordinates": [ 72.199997, -16.5 ] } },
{ "type": "Feature", "properties": { "ID": 6393, "LAT": -17.8, "LON": 71.6, "VMAX": 65.0, "MSLP": 993.0, "RMAX": 10.0, "FSPD": 8.19173, "FDIR": 208.453, "RENV": 200.0, "PENV": 1010.0, "VALIDT": 0, "DTG": "2026-04-03 18:00", "LATNOW": -32.0, "LONNOW": 73.1, "WINDNOW": 50.0, "DIRNOW": 10.0, "SPDNOW": 5.0, "TECH": "TRAK", "ADVNR": 10, "ATCFID": "SH292026", "NAME": "INDUSA", "FTECH": "JTWC", "FCST_DTG": "2026-04-05 18:00:00", "RUN_DTG": "2026-04-06 13:49:36", "BASIN": "SH", "STMNR": 29, "CAT_ID": null, "CAT_DESC": null, "MSGID": "WTXS51 PGTW 052100", "VALIDTIME": "2026-04-03 18:00:00" }, "geometry": { "type": "Point", "coordinates": [ 71.599998, -17.799999 ] } },
{ "type": "Feature", "properties": { "ID": 6394, "LAT": -19.2, "LON": 70.8, "VMAX": 70.0, "MSLP": 987.0, "RMAX": 15.0, "FSPD": 6.36103, "FDIR": 207.17477, "RENV": 160.0, "PENV": 1007.0, "VALIDT": 0, "DTG": "2026-04-04 00:00", "LATNOW": -32.0, "LONNOW": 73.1, "WINDNOW": 50.0, "DIRNOW": 10.0, "SPDNOW": 5.0, "TECH": "TRAK", "ADVNR": 10, "ATCFID": "SH292026", "NAME": "INDUSA", "FTECH": "JTWC", "FCST_DTG": "2026-04-05 18:00:00", "RUN_DTG": "2026-04-06 13:49:36", "BASIN": "SH", "STMNR": 29, "CAT_ID": null, "CAT_DESC": null, "MSGID": "WTXS51 PGTW 052100", "VALIDTIME": "2026-04-04 00:00:00" }, "geometry": { "type": "Point", "coordinates": [ 70.800003, -19.200001 ] } },
{ "type": "Feature", "properties": { "ID": 6395, "LAT": -20.3, "LON": 70.2, "VMAX": 90.0, "MSLP": 984.0, "RMAX": 15.0, "FSPD": 7.73159, "FDIR": 176.43951, "RENV": 190.0, "PENV": 1008.0, "VALIDT": 0, "DTG": "2026-04-04 06:00", "LATNOW": -32.0, "LONNOW": 73.1, "WINDNOW": 50.0, "DIRNOW": 10.0, "SPDNOW": 5.0, "TECH": "TRAK", "ADVNR": 10, "ATCFID": "SH292026", "NAME": "INDUSA", "FTECH": "JTWC", "FCST_DTG": "2026-04-05 18:00:00", "RUN_DTG": "2026-04-06 13:49:36", "BASIN": "SH", "STMNR": 29, "CAT_ID": null, "CAT_DESC": null, "MSGID": "WTXS51 PGTW 052100", "VALIDTIME": "2026-04-04 06:00:00" }, "geometry": { "type": "Point", "coordinates": [ 70.199997, -20.299999 ] } },
{ "type": "Feature", "properties": { "ID": 6396, "LAT": -21.8, "LON": 70.3, "VMAX": 80.0, "MSLP": 971.0, "RMAX": 10.0, "FSPD": 9.77445, "FDIR": 179.99997, "RENV": 190.0, "PENV": 1010.0, "VALIDT": 0, "DTG": "2026-04-04 12:00", "LATNOW": -32.0, "LONNOW": 73.1, "WINDNOW": 50.0, "DIRNOW": 10.0, "SPDNOW": 5.0, "TECH": "TRAK", "ADVNR": 10, "ATCFID": "SH292026", "NAME": "INDUSA", "FTECH": "JTWC", "FCST_DTG": "2026-04-05 18:00:00", "RUN_DTG": "2026-04-06 13:49:36", "BASIN": "SH", "STMNR": 29, "CAT_ID": null, "CAT_DESC": null, "MSGID": "WTXS51 PGTW 052100", "VALIDTIME": "2026-04-04 12:00:00" }, "geometry": { "type": "Point", "coordinates": [ 70.300003, -21.799999 ] } },
{ "type": "Feature", "properties": { "ID": 6397, "LAT": -23.7, "LON": 70.3, "VMAX": 70.0, "MSLP": 976.0, "RMAX": 5.0, "FSPD": 9.78562, "FDIR": 177.26132, "RENV": 210.0, "PENV": 1008.0, "VALIDT": 0, "DTG": "2026-04-04 18:00", "LATNOW": -32.0, "LONNOW": 73.1, "WINDNOW": 50.0, "DIRNOW": 10.0, "SPDNOW": 5.0, "TECH": "TRAK", "ADVNR": 10, "ATCFID": "SH292026", "NAME": "INDUSA", "FTECH": "JTWC", "FCST_DTG": "2026-04-05 18:00:00", "RUN_DTG": "2026-04-06 13:49:36", "BASIN": "SH", "STMNR": 29, "CAT_ID": null, "CAT_DESC": null, "MSGID": "WTXS51 PGTW 052100", "VALIDTIME": "2026-04-04 18:00:00" }, "geometry": { "type": "Point", "coordinates": [ 70.300003, -23.700001 ] } },
{ "type": "Feature", "properties": { "ID": 6398, "LAT": -25.6, "LON": 70.4, "VMAX": 65.0, "MSLP": 982.0, "RMAX": 10.0, "FSPD": 10.28889, "FDIR": 179.99997, "RENV": 160.0, "PENV": 1009.0, "VALIDT": 0, "DTG": "2026-04-05 00:00", "LATNOW": -32.0, "LONNOW": 73.1, "WINDNOW": 50.0, "DIRNOW": 10.0, "SPDNOW": 5.0, "TECH": "TRAK", "ADVNR": 10, "ATCFID": "SH292026", "NAME": "INDUSA", "FTECH": "JTWC", "FCST_DTG": "2026-04-05 18:00:00", "RUN_DTG": "2026-04-06 13:49:36", "BASIN": "SH", "STMNR": 29, "CAT_ID": null, "CAT_DESC": null, "MSGID": "WTXS51 PGTW 052100", "VALIDTIME": "2026-04-05 00:00:00" }, "geometry": { "type": "Point", "coordinates": [ 70.400002, -25.6 ] } },
{ "type": "Feature", "properties": { "ID": 6399, "LAT": -27.6, "LON": 70.4, "VMAX": 60.0, "MSLP": 984.0, "RMAX": 15.0, "FSPD": 11.17787, "FDIR": 150.97943, "RENV": 160.0, "PENV": 1008.0, "VALIDT": 0, "DTG": "2026-04-05 06:00", "LATNOW": -32.0, "LONNOW": 73.1, "WINDNOW": 50.0, "DIRNOW": 10.0, "SPDNOW": 5.0, "TECH": "TRAK", "ADVNR": 10, "ATCFID": "SH292026", "NAME": "INDUSA", "FTECH": "JTWC", "FCST_DTG": "2026-04-05 18:00:00", "RUN_DTG": "2026-04-06 13:49:36", "BASIN": "SH", "STMNR": 29, "CAT_ID": null, "CAT_DESC": null, "MSGID": "WTXS51 PGTW 052100", "VALIDTIME": "2026-04-05 06:00:00" }, "geometry": { "type": "Point", "coordinates": [ 70.400002, -27.6 ] } },
{ "type": "Feature", "properties": { "ID": 6400, "LAT": -29.5, "LON": 71.6, "VMAX": 55.0, "MSLP": 988.0, "RMAX": 40.0, "FSPD": 14.47026, "FDIR": 152.72232, "RENV": 155.0, "PENV": 1010.0, "VALIDT": 0, "DTG": "2026-04-05 12:00", "LATNOW": -32.0, "LONNOW": 73.1, "WINDNOW": 50.0, "DIRNOW": 10.0, "SPDNOW": 5.0, "TECH": "TRAK", "ADVNR": 10, "ATCFID": "SH292026", "NAME": "INDUSA", "FTECH": "JTWC", "FCST_DTG": "2026-04-05 18:00:00", "RUN_DTG": "2026-04-06 13:49:36", "BASIN": "SH", "STMNR": 29, "CAT_ID": null, "CAT_DESC": null, "MSGID": "WTXS51 PGTW 052100", "VALIDTIME": "2026-04-05 12:00:00" }, "geometry": { "type": "Point", "coordinates": [ 71.599998, -29.5 ] } },
{ "type": "Feature", "properties": { "ID": 6401, "LAT": -32.0, "LON": 73.1, "VMAX": 50.0, "MSLP": 988.0, "RMAX": 40.0, "FSPD": 10.48186, "FDIR": 146.5484, "RENV": 145.0, "PENV": 1010.0, "VALIDT": 0, "DTG": "2026-04-05 18:00", "LATNOW": -32.0, "LONNOW": 73.1, "WINDNOW": 50.0, "DIRNOW": 10.0, "SPDNOW": 5.0, "TECH": "TRAK", "ADVNR": 10, "ATCFID": "SH292026", "NAME": "INDUSA", "FTECH": "JTWC", "FCST_DTG": "2026-04-05 18:00:00", "RUN_DTG": "2026-04-06 13:49:36", "BASIN": "SH", "STMNR": 29, "CAT_ID": null, "CAT_DESC": null, "MSGID": "WTXS51 PGTW 052100", "VALIDTIME": "2026-04-05 18:00:00" }, "geometry": { "type": "Point", "coordinates": [ 73.099998, -32.0 ] } },
{ "type": "Feature", "properties": { "ID": 6402, "LAT": -35.4, "LON": 75.8, "VMAX": 40.0, "MSLP": 1006.833, "RMAX": 50.40167, "FSPD": 10.48186, "FDIR": 146.5484, "RENV": 300.0, "PENV": 1012.0, "VALIDT": 12, "DTG": "2026-04-06 06:00", "LATNOW": -32.0, "LONNOW": 73.1, "WINDNOW": 50.0, "DIRNOW": 10.0, "SPDNOW": 5.0, "TECH": "FCST", "ADVNR": 10, "ATCFID": "SH292026", "NAME": "INDUSA", "FTECH": "JTWC", "FCST_DTG": "2026-04-05 18:00:00", "RUN_DTG": "2026-04-06 13:49:36", "BASIN": "SH", "STMNR": 29, "CAT_ID": null, "CAT_DESC": null, "MSGID": "WTXS51 PGTW 052100", "VALIDTIME": "2026-04-06 06:00:00" }, "geometry": { "type": "Point", "coordinates": [ 75.800003, -35.400002 ] } },
{ "type": "Feature", "properties": { "ID": 6401, "LAT": -32.0, "LON": 73.1, "VMAX": 50.0, "MSLP": 988.0, "RMAX": 40.0, "FSPD": 10.48186, "FDIR": 146.5484, "RENV": 145.0, "PENV": 1010.0, "VALIDT": 0, "DTG": "2026-04-05 18:00", "LATNOW": -32.0, "LONNOW": 73.1, "WINDNOW": 50.0, "DIRNOW": 10.0, "SPDNOW": 5.0, "TECH": "TRAK", "ADVNR": 10, "ATCFID": "SH292026", "NAME": "INDUSA", "FTECH": "JTWC", "FCST_DTG": "2026-04-05 18:00:00", "RUN_DTG": "2026-04-06 13:49:36", "BASIN": "SH", "STMNR": 29, "CAT_ID": null, "CAT_DESC": null, "MSGID": "WTXS51 PGTW 052100", "VALIDTIME": "2026-04-05 18:00:00" }, "geometry": { "type": "LineString", "coordinates": [ [ 76.0, -8.2 ], [ 76.0, -8.7 ], [ 76.0, -9.4 ], [ 76.1, -9.6 ], [ 75.8, -9.4 ], [ 76.0, -8.4 ], [ 76.5, -8.6 ], [ 76.7, -8.6 ], [ 76.7, -8.4 ], [ 75.9, -8.4 ], [ 75.7, -8.8 ], [ 75.4, -9.1 ], [ 75.2, -9.7 ], [ 75.0, -10.8 ], [ 74.5, -11.1 ], [ 73.9, -11.1 ], [ 73.7, -11.4 ], [ 73.5, -12.0 ], [ 73.2, -12.6 ], [ 73.5, -12.6 ], [ 73.5, -13.7 ], [ 72.9, -15.2 ], [ 72.2, -16.5 ], [ 71.6, -17.8 ], [ 70.8, -19.2 ], [ 70.2, -20.3 ], [ 70.3, -21.8 ], [ 70.3, -23.7 ], [ 70.4, -25.6 ], [ 70.4, -27.6 ], [ 71.6, -29.5 ], [ 73.1, -32.0 ] ] } },
{ "type": "Feature", "properties": { "ID": 6402, "LAT": -35.4, "LON": 75.8, "VMAX": 40.0, "MSLP": 1006.833, "RMAX": 50.40167, "FSPD": 10.48186, "FDIR": 146.5484, "RENV": 300.0, "PENV": 1012.0, "VALIDT": 12, "DTG": "2026-04-06 06:00", "LATNOW": -32.0, "LONNOW": 73.1, "WINDNOW": 50.0, "DIRNOW": 10.0, "SPDNOW": 5.0, "TECH": "FCST", "ADVNR": 10, "ATCFID": "SH292026", "NAME": "INDUSA", "FTECH": "JTWC", "FCST_DTG": "2026-04-05 18:00:00", "RUN_DTG": "2026-04-06 13:49:36", "BASIN": "SH", "STMNR": 29, "CAT_ID": null, "CAT_DESC": null, "MSGID": "WTXS51 PGTW 052100", "VALIDTIME": "2026-04-06 06:00:00" }, "geometry": { "type": "LineString", "coordinates": [ [ 73.1, -32.0 ], [ 75.8, -35.4 ] ] } }
]
}
