{
"type": "FeatureCollection",
"crs": { "type": "name", "properties": { "name": "urn:ogc:def:crs:OGC:1.3:CRS84" } },
"features": [
{ "type": "Feature", "properties": { "ID": 86528, "LAT": 12.1, "LON": -106.2, "VMAX": 30.0, "MSLP": 1010.0, "RMAX": 110.0, "FSPD": 2.5349, "FDIR": 307.50513, "RENV": 150.0, "PENV": 1012.0, "VALIDT": 0, "DTG": "2026-08-30 18:00", "LATNOW": 25.5, "LONNOW": -127.1, "WINDNOW": 35.0, "DIRNOW": 4.0, "SPDNOW": 2.0, "TECH": "TRAK", "ADVNR": 30, "ATCFID": "EP132026", "NAME": "MARIE", "FTECH": "OFCL", "FCST_DTG": "2026-09-08 12:00:00", "RUN_DTG": "2026-09-09 06:26:29", "BASIN": "EP", "STMNR": 13, "CAT_ID": null, "CAT_DESC": null, "MSGID": "WTPZ23 KNHC 081437", "VALIDTIME": "2026-08-30 18:00:00" }, "geometry": { "type": "Point", "coordinates": [ -106.199997, 12.1 ] } },
{ "type": "Feature", "properties": { "ID": 86529, "LAT": 12.4, "LON": -106.6, "VMAX": 30.0, "MSLP": 1007.0, "RMAX": 110.0, "FSPD": 4.97133, "FDIR": 245.54808, "RENV": 150.0, "PENV": 1012.0, "VALIDT": 0, "DTG": "2026-08-31 00:00", "LATNOW": 25.5, "LONNOW": -127.1, "WINDNOW": 35.0, "DIRNOW": 4.0, "SPDNOW": 2.0, "TECH": "TRAK", "ADVNR": 30, "ATCFID": "EP132026", "NAME": "MARIE", "FTECH": "OFCL", "FCST_DTG": "2026-09-08 12:00:00", "RUN_DTG": "2026-09-09 06:26:29", "BASIN": "EP", "STMNR": 13, "CAT_ID": null, "CAT_DESC": null, "MSGID": "WTPZ23 KNHC 081437", "VALIDTIME": "2026-08-31 00:00:00" }, "geometry": { "type": "Point", "coordinates": [ -106.599998, 12.4 ] } },
{ "type": "Feature", "properties": { "ID": 86530, "LAT": 12.0, "LON": -107.5, "VMAX": 30.0, "MSLP": 1007.0, "RMAX": 70.0, "FSPD": 3.06327, "FDIR": 260.3319, "RENV": 150.0, "PENV": 1010.0, "VALIDT": 0, "DTG": "2026-08-31 06:00", "LATNOW": 25.5, "LONNOW": -127.1, "WINDNOW": 35.0, "DIRNOW": 4.0, "SPDNOW": 2.0, "TECH": "TRAK", "ADVNR": 30, "ATCFID": "EP132026", "NAME": "MARIE", "FTECH": "OFCL", "FCST_DTG": "2026-09-08 12:00:00", "RUN_DTG": "2026-09-09 06:26:29", "BASIN": "EP", "STMNR": 13, "CAT_ID": null, "CAT_DESC": null, "MSGID": "WTPZ23 KNHC 081437", "VALIDTIME": "2026-08-31 06:00:00" }, "geometry": { "type": "Point", "coordinates": [ -107.5, 12.0 ] } },
{ "type": "Feature", "properties": { "ID": 86531, "LAT": 11.9, "LON": -108.1, "VMAX": 30.0, "MSLP": 1007.0, "RMAX": 70.0, "FSPD": 3.43554, "FDIR": 26.04477, "RENV": 150.0, "PENV": 1009.0, "VALIDT": 0, "DTG": "2026-08-31 12:00", "LATNOW": 25.5, "LONNOW": -127.1, "WINDNOW": 35.0, "DIRNOW": 4.0, "SPDNOW": 2.0, "TECH": "TRAK", "ADVNR": 30, "ATCFID": "EP132026", "NAME": "MARIE", "FTECH": "OFCL", "FCST_DTG": "2026-09-08 12:00:00", "RUN_DTG": "2026-09-09 06:26:29", "BASIN": "EP", "STMNR": 13, "CAT_ID": null, "CAT_DESC": null, "MSGID": "WTPZ23 KNHC 081437", "VALIDTIME": "2026-08-31 12:00:00" }, "geometry": { "type": "Point", "coordinates": [ -108.099998, 11.9 ] } },
{ "type": "Feature", "properties": { "ID": 86532, "LAT": 12.5, "LON": -107.8, "VMAX": 30.0, "MSLP": 1006.0, "RMAX": 60.0, "FSPD": 3.12717, "FDIR": 350.76886, "RENV": 150.0, "PENV": 1010.0, "VALIDT": 0, "DTG": "2026-08-31 18:00", "LATNOW": 25.5, "LONNOW": -127.1, "WINDNOW": 35.0, "DIRNOW": 4.0, "SPDNOW": 2.0, "TECH": "TRAK", "ADVNR": 30, "ATCFID": "EP132026", "NAME": "MARIE", "FTECH": "OFCL", "FCST_DTG": "2026-09-08 12:00:00", "RUN_DTG": "2026-09-09 06:26:29", "BASIN": "EP", "STMNR": 13, "CAT_ID": null, "CAT_DESC": null, "MSGID": "WTPZ23 KNHC 081437", "VALIDTIME": "2026-08-31 18:00:00" }, "geometry": { "type": "Point", "coordinates": [ -107.800003, 12.5 ] } },
{ "type": "Feature", "properties": { "ID": 86533, "LAT": 13.1, "LON": -107.9, "VMAX": 30.0, "MSLP": 1006.0, "RMAX": 60.0, "FSPD": 4.06399, "FDIR": 300.42056, "RENV": 150.0, "PENV": 1010.0, "VALIDT": 0, "DTG": "2026-09-01 00:00", "LATNOW": 25.5, "LONNOW": -127.1, "WINDNOW": 35.0, "DIRNOW": 4.0, "SPDNOW": 2.0, "TECH": "TRAK", "ADVNR": 30, "ATCFID": "EP132026", "NAME": "MARIE", "FTECH": "OFCL", "FCST_DTG": "2026-09-08 12:00:00", "RUN_DTG": "2026-09-09 06:26:29", "BASIN": "EP", "STMNR": 13, "CAT_ID": null, "CAT_DESC": null, "MSGID": "WTPZ23 KNHC 081437", "VALIDTIME": "2026-09-01 00:00:00" }, "geometry": { "type": "Point", "coordinates": [ -107.900002, 13.1 ] } },
{ "type": "Feature", "properties": { "ID": 86534, "LAT": 13.5, "LON": -108.6, "VMAX": 40.0, "MSLP": 1002.0, "RMAX": 70.0, "FSPD": 6.25346, "FDIR": 9.18201, "RENV": 220.0, "PENV": 1011.0, "VALIDT": 0, "DTG": "2026-09-01 06:00", "LATNOW": 25.5, "LONNOW": -127.1, "WINDNOW": 35.0, "DIRNOW": 4.0, "SPDNOW": 2.0, "TECH": "TRAK", "ADVNR": 30, "ATCFID": "EP132026", "NAME": "MARIE", "FTECH": "OFCL", "FCST_DTG": "2026-09-08 12:00:00", "RUN_DTG": "2026-09-09 06:26:29", "BASIN": "EP", "STMNR": 13, "CAT_ID": null, "CAT_DESC": null, "MSGID": "WTPZ23 KNHC 081437", "VALIDTIME": "2026-09-01 06:00:00" }, "geometry": { "type": "Point", "coordinates": [ -108.599998, 13.5 ] } },
{ "type": "Feature", "properties": { "ID": 86535, "LAT": 14.7, "LON": -108.4, "VMAX": 40.0, "MSLP": 1002.0, "RMAX": 70.0, "FSPD": 5.43401, "FDIR": 304.61276, "RENV": 220.0, "PENV": 1011.0, "VALIDT": 0, "DTG": "2026-09-01 12:00", "LATNOW": 25.5, "LONNOW": -127.1, "WINDNOW": 35.0, "DIRNOW": 4.0, "SPDNOW": 2.0, "TECH": "TRAK", "ADVNR": 30, "ATCFID": "EP132026", "NAME": "MARIE", "FTECH": "OFCL", "FCST_DTG": "2026-09-08 12:00:00", "RUN_DTG": "2026-09-09 06:26:29", "BASIN": "EP", "STMNR": 13, "CAT_ID": null, "CAT_DESC": null, "MSGID": "WTPZ23 KNHC 081437", "VALIDTIME": "2026-09-01 12:00:00" }, "geometry": { "type": "Point", "coordinates": [ -108.400002, 14.7 ] } },
{ "type": "Feature", "properties": { "ID": 86536, "LAT": 15.3, "LON": -109.3, "VMAX": 50.0, "MSLP": 997.0, "RMAX": 70.0, "FSPD": 4.31883, "FDIR": 306.55423, "RENV": 220.0, "PENV": 1011.0, "VALIDT": 0, "DTG": "2026-09-01 18:00", "LATNOW": 25.5, "LONNOW": -127.1, "WINDNOW": 35.0, "DIRNOW": 4.0, "SPDNOW": 2.0, "TECH": "TRAK", "ADVNR": 30, "ATCFID": "EP132026", "NAME": "MARIE", "FTECH": "OFCL", "FCST_DTG": "2026-09-08 12:00:00", "RUN_DTG": "2026-09-09 06:26:29", "BASIN": "EP", "STMNR": 13, "CAT_ID": null, "CAT_DESC": null, "MSGID": "WTPZ23 KNHC 081437", "VALIDTIME": "2026-09-01 18:00:00" }, "geometry": { "type": "Point", "coordinates": [ -109.300003, 15.3 ] } },
{ "type": "Feature", "properties": { "ID": 86537, "LAT": 15.8, "LON": -110.0, "VMAX": 55.0, "MSLP": 994.0, "RMAX": 60.0, "FSPD": 4.28045, "FDIR": 316.14594, "RENV": 220.0, "PENV": 1011.0, "VALIDT": 0, "DTG": "2026-09-02 00:00", "LATNOW": 25.5, "LONNOW": -127.1, "WINDNOW": 35.0, "DIRNOW": 4.0, "SPDNOW": 2.0, "TECH": "TRAK", "ADVNR": 30, "ATCFID": "EP132026", "NAME": "MARIE", "FTECH": "OFCL", "FCST_DTG": "2026-09-08 12:00:00", "RUN_DTG": "2026-09-09 06:26:29", "BASIN": "EP", "STMNR": 13, "CAT_ID": null, "CAT_DESC": null, "MSGID": "WTPZ23 KNHC 081437", "VALIDTIME": "2026-09-02 00:00:00" }, "geometry": { "type": "Point", "coordinates": [ -110.0, 15.8 ] } },
{ "type": "Feature", "properties": { "ID": 86538, "LAT": 16.4, "LON": -110.6, "VMAX": 55.0, "MSLP": 994.0, "RMAX": 25.0, "FSPD": 4.01798, "FDIR": 300.80658, "RENV": 220.0, "PENV": 1011.0, "VALIDT": 0, "DTG": "2026-09-02 06:00", "LATNOW": 25.5, "LONNOW": -127.1, "WINDNOW": 35.0, "DIRNOW": 4.0, "SPDNOW": 2.0, "TECH": "TRAK", "ADVNR": 30, "ATCFID": "EP132026", "NAME": "MARIE", "FTECH": "OFCL", "FCST_DTG": "2026-09-08 12:00:00", "RUN_DTG": "2026-09-09 06:26:29", "BASIN": "EP", "STMNR": 13, "CAT_ID": null, "CAT_DESC": null, "MSGID": "WTPZ23 KNHC 081437", "VALIDTIME": "2026-09-02 06:00:00" }, "geometry": { "type": "Point", "coordinates": [ -110.599998, 16.4 ] } },
{ "type": "Feature", "properties": { "ID": 86539, "LAT": 16.8, "LON": -111.3, "VMAX": 60.0, "MSLP": 992.0, "RMAX": 25.0, "FSPD": 5.76754, "FDIR": 323.39545, "RENV": 220.0, "PENV": 1011.0, "VALIDT": 0, "DTG": "2026-09-02 12:00", "LATNOW": 25.5, "LONNOW": -127.1, "WINDNOW": 35.0, "DIRNOW": 4.0, "SPDNOW": 2.0, "TECH": "TRAK", "ADVNR": 30, "ATCFID": "EP132026", "NAME": "MARIE", "FTECH": "OFCL", "FCST_DTG": "2026-09-08 12:00:00", "RUN_DTG": "2026-09-09 06:26:29", "BASIN": "EP", "STMNR": 13, "CAT_ID": null, "CAT_DESC": null, "MSGID": "WTPZ23 KNHC 081437", "VALIDTIME": "2026-09-02 12:00:00" }, "geometry": { "type": "Point", "coordinates": [ -111.300003, 16.799999 ] } },
{ "type": "Feature", "properties": { "ID": 86540, "LAT": 17.7, "LON": -112.0, "VMAX": 60.0, "MSLP": 992.0, "RMAX": 50.0, "FSPD": 4.28399, "FDIR": 306.90048, "RENV": 220.0, "PENV": 1011.0, "VALIDT": 0, "DTG": "2026-09-02 18:00", "LATNOW": 25.5, "LONNOW": -127.1, "WINDNOW": 35.0, "DIRNOW": 4.0, "SPDNOW": 2.0, "TECH": "TRAK", "ADVNR": 30, "ATCFID": "EP132026", "NAME": "MARIE", "FTECH": "OFCL", "FCST_DTG": "2026-09-08 12:00:00", "RUN_DTG": "2026-09-09 06:26:29", "BASIN": "EP", "STMNR": 13, "CAT_ID": null, "CAT_DESC": null, "MSGID": "WTPZ23 KNHC 081437", "VALIDTIME": "2026-09-02 18:00:00" }, "geometry": { "type": "Point", "coordinates": [ -112.0, 17.700001 ] } },
{ "type": "Feature", "properties": { "ID": 86541, "LAT": 18.2, "LON": -112.7, "VMAX": 70.0, "MSLP": 985.0, "RMAX": 30.0, "FSPD": 4.27617, "FDIR": 306.97916, "RENV": 220.0, "PENV": 1011.0, "VALIDT": 0, "DTG": "2026-09-03 00:00", "LATNOW": 25.5, "LONNOW": -127.1, "WINDNOW": 35.0, "DIRNOW": 4.0, "SPDNOW": 2.0, "TECH": "TRAK", "ADVNR": 30, "ATCFID": "EP132026", "NAME": "MARIE", "FTECH": "OFCL", "FCST_DTG": "2026-09-08 12:00:00", "RUN_DTG": "2026-09-09 06:26:29", "BASIN": "EP", "STMNR": 13, "CAT_ID": null, "CAT_DESC": null, "MSGID": "WTPZ23 KNHC 081437", "VALIDTIME": "2026-09-03 00:00:00" }, "geometry": { "type": "Point", "coordinates": [ -112.699997, 18.200001 ] } },
{ "type": "Feature", "properties": { "ID": 86542, "LAT": 18.7, "LON": -113.4, "VMAX": 75.0, "MSLP": 981.0, "RMAX": 30.0, "FSPD": 5.1073, "FDIR": 287.58862, "RENV": 220.0, "PENV": 1011.0, "VALIDT": 0, "DTG": "2026-09-03 06:00", "LATNOW": 25.5, "LONNOW": -127.1, "WINDNOW": 35.0, "DIRNOW": 4.0, "SPDNOW": 2.0, "TECH": "TRAK", "ADVNR": 30, "ATCFID": "EP132026", "NAME": "MARIE", "FTECH": "OFCL", "FCST_DTG": "2026-09-08 12:00:00", "RUN_DTG": "2026-09-09 06:26:29", "BASIN": "EP", "STMNR": 13, "CAT_ID": null, "CAT_DESC": null, "MSGID": "WTPZ23 KNHC 081437", "VALIDTIME": "2026-09-03 06:00:00" }, "geometry": { "type": "Point", "coordinates": [ -113.400002, 18.700001 ] } },
{ "type": "Feature", "properties": { "ID": 86543, "LAT": 19.0, "LON": -114.4, "VMAX": 80.0, "MSLP": 976.0, "RMAX": 30.0, "FSPD": 3.44253, "FDIR": 278.59436, "RENV": 260.0, "PENV": 1009.0, "VALIDT": 0, "DTG": "2026-09-03 12:00", "LATNOW": 25.5, "LONNOW": -127.1, "WINDNOW": 35.0, "DIRNOW": 4.0, "SPDNOW": 2.0, "TECH": "TRAK", "ADVNR": 30, "ATCFID": "EP132026", "NAME": "MARIE", "FTECH": "OFCL", "FCST_DTG": "2026-09-08 12:00:00", "RUN_DTG": "2026-09-09 06:26:29", "BASIN": "EP", "STMNR": 13, "CAT_ID": null, "CAT_DESC": null, "MSGID": "WTPZ23 KNHC 081437", "VALIDTIME": "2026-09-03 12:00:00" }, "geometry": { "type": "Point", "coordinates": [ -114.400002, 19.0 ] } },
{ "type": "Feature", "properties": { "ID": 86544, "LAT": 19.1, "LON": -115.1, "VMAX": 80.0, "MSLP": 976.0, "RMAX": 30.0, "FSPD": 4.39569, "FDIR": 297.9133, "RENV": 300.0, "PENV": 1011.0, "VALIDT": 0, "DTG": "2026-09-03 18:00", "LATNOW": 25.5, "LONNOW": -127.1, "WINDNOW": 35.0, "DIRNOW": 4.0, "SPDNOW": 2.0, "TECH": "TRAK", "ADVNR": 30, "ATCFID": "EP132026", "NAME": "MARIE", "FTECH": "OFCL", "FCST_DTG": "2026-09-08 12:00:00", "RUN_DTG": "2026-09-09 06:26:29", "BASIN": "EP", "STMNR": 13, "CAT_ID": null, "CAT_DESC": null, "MSGID": "WTPZ23 KNHC 081437", "VALIDTIME": "2026-09-03 18:00:00" }, "geometry": { "type": "Point", "coordinates": [ -115.099998, 19.1 ] } },
{ "type": "Feature", "properties": { "ID": 86545, "LAT": 19.5, "LON": -115.9, "VMAX": 80.0, "MSLP": 975.0, "RMAX": 30.0, "FSPD": 4.01127, "FDIR": 284.8625, "RENV": 300.0, "PENV": 1010.0, "VALIDT": 0, "DTG": "2026-09-04 00:00", "LATNOW": 25.5, "LONNOW": -127.1, "WINDNOW": 35.0, "DIRNOW": 4.0, "SPDNOW": 2.0, "TECH": "TRAK", "ADVNR": 30, "ATCFID": "EP132026", "NAME": "MARIE", "FTECH": "OFCL", "FCST_DTG": "2026-09-08 12:00:00", "RUN_DTG": "2026-09-09 06:26:29", "BASIN": "EP", "STMNR": 13, "CAT_ID": null, "CAT_DESC": null, "MSGID": "WTPZ23 KNHC 081437", "VALIDTIME": "2026-09-04 00:00:00" }, "geometry": { "type": "Point", "coordinates": [ -115.900002, 19.5 ] } },
{ "type": "Feature", "properties": { "ID": 86546, "LAT": 19.7, "LON": -116.7, "VMAX": 85.0, "MSLP": 972.0, "RMAX": 20.0, "FSPD": 4.47614, "FDIR": 283.28876, "RENV": 300.0, "PENV": 1010.0, "VALIDT": 0, "DTG": "2026-09-04 06:00", "LATNOW": 25.5, "LONNOW": -127.1, "WINDNOW": 35.0, "DIRNOW": 4.0, "SPDNOW": 2.0, "TECH": "TRAK", "ADVNR": 30, "ATCFID": "EP132026", "NAME": "MARIE", "FTECH": "OFCL", "FCST_DTG": "2026-09-08 12:00:00", "RUN_DTG": "2026-09-09 06:26:29", "BASIN": "EP", "STMNR": 13, "CAT_ID": null, "CAT_DESC": null, "MSGID": "WTPZ23 KNHC 081437", "VALIDTIME": "2026-09-04 06:00:00" }, "geometry": { "type": "Point", "coordinates": [ -116.699997, 19.700001 ] } },
{ "type": "Feature", "properties": { "ID": 86547, "LAT": 19.9, "LON": -117.6, "VMAX": 85.0, "MSLP": 972.0, "RMAX": 20.0, "FSPD": 3.07759, "FDIR": 289.531, "RENV": 280.0, "PENV": 1007.0, "VALIDT": 0, "DTG": "2026-09-04 12:00", "LATNOW": 25.5, "LONNOW": -127.1, "WINDNOW": 35.0, "DIRNOW": 4.0, "SPDNOW": 2.0, "TECH": "TRAK", "ADVNR": 30, "ATCFID": "EP132026", "NAME": "MARIE", "FTECH": "OFCL", "FCST_DTG": "2026-09-08 12:00:00", "RUN_DTG": "2026-09-09 06:26:29", "BASIN": "EP", "STMNR": 13, "CAT_ID": null, "CAT_DESC": null, "MSGID": "WTPZ23 KNHC 081437", "VALIDTIME": "2026-09-04 12:00:00" }, "geometry": { "type": "Point", "coordinates": [ -117.599998, 19.9 ] } },
{ "type": "Feature", "properties": { "ID": 86548, "LAT": 20.1, "LON": -118.2, "VMAX": 85.0, "MSLP": 972.0, "RMAX": 25.0, "FSPD": 3.52598, "FDIR": 316.84497, "RENV": 320.0, "PENV": 1009.0, "VALIDT": 0, "DTG": "2026-09-04 18:00", "LATNOW": 25.5, "LONNOW": -127.1, "WINDNOW": 35.0, "DIRNOW": 4.0, "SPDNOW": 2.0, "TECH": "TRAK", "ADVNR": 30, "ATCFID": "EP132026", "NAME": "MARIE", "FTECH": "OFCL", "FCST_DTG": "2026-09-08 12:00:00", "RUN_DTG": "2026-09-09 06:26:29", "BASIN": "EP", "STMNR": 13, "CAT_ID": null, "CAT_DESC": null, "MSGID": "WTPZ23 KNHC 081437", "VALIDTIME": "2026-09-04 18:00:00" }, "geometry": { "type": "Point", "coordinates": [ -118.199997, 20.1 ] } },
{ "type": "Feature", "properties": { "ID": 86549, "LAT": 20.6, "LON": -118.7, "VMAX": 85.0, "MSLP": 967.0, "RMAX": 35.0, "FSPD": 3.86485, "FDIR": 311.72397, "RENV": 320.0, "PENV": 1009.0, "VALIDT": 0, "DTG": "2026-09-05 00:00", "LATNOW": 25.5, "LONNOW": -127.1, "WINDNOW": 35.0, "DIRNOW": 4.0, "SPDNOW": 2.0, "TECH": "TRAK", "ADVNR": 30, "ATCFID": "EP132026", "NAME": "MARIE", "FTECH": "OFCL", "FCST_DTG": "2026-09-08 12:00:00", "RUN_DTG": "2026-09-09 06:26:29", "BASIN": "EP", "STMNR": 13, "CAT_ID": null, "CAT_DESC": null, "MSGID": "WTPZ23 KNHC 081437", "VALIDTIME": "2026-09-05 00:00:00" }, "geometry": { "type": "Point", "coordinates": [ -118.699997, 20.6 ] } },
{ "type": "Feature", "properties": { "ID": 86550, "LAT": 21.1, "LON": -119.3, "VMAX": 85.0, "MSLP": 967.0, "RMAX": 35.0, "FSPD": 4.61616, "FDIR": 303.86377, "RENV": 320.0, "PENV": 1009.0, "VALIDT": 0, "DTG": "2026-09-05 06:00", "LATNOW": 25.5, "LONNOW": -127.1, "WINDNOW": 35.0, "DIRNOW": 4.0, "SPDNOW": 2.0, "TECH": "TRAK", "ADVNR": 30, "ATCFID": "EP132026", "NAME": "MARIE", "FTECH": "OFCL", "FCST_DTG": "2026-09-08 12:00:00", "RUN_DTG": "2026-09-09 06:26:29", "BASIN": "EP", "STMNR": 13, "CAT_ID": null, "CAT_DESC": null, "MSGID": "WTPZ23 KNHC 081437", "VALIDTIME": "2026-09-05 06:00:00" }, "geometry": { "type": "Point", "coordinates": [ -119.300003, 21.1 ] } },
{ "type": "Feature", "properties": { "ID": 86551, "LAT": 21.6, "LON": -120.1, "VMAX": 80.0, "MSLP": 970.0, "RMAX": 35.0, "FSPD": 2.84424, "FDIR": 302.8619, "RENV": 320.0, "PENV": 1008.0, "VALIDT": 0, "DTG": "2026-09-05 12:00", "LATNOW": 25.5, "LONNOW": -127.1, "WINDNOW": 35.0, "DIRNOW": 4.0, "SPDNOW": 2.0, "TECH": "TRAK", "ADVNR": 30, "ATCFID": "EP132026", "NAME": "MARIE", "FTECH": "OFCL", "FCST_DTG": "2026-09-08 12:00:00", "RUN_DTG": "2026-09-09 06:26:29", "BASIN": "EP", "STMNR": 13, "CAT_ID": null, "CAT_DESC": null, "MSGID": "WTPZ23 KNHC 081437", "VALIDTIME": "2026-09-05 12:00:00" }, "geometry": { "type": "Point", "coordinates": [ -120.099998, 21.6 ] } },
{ "type": "Feature", "properties": { "ID": 86552, "LAT": 21.9, "LON": -120.6, "VMAX": 80.0, "MSLP": 970.0, "RMAX": 35.0, "FSPD": 2.80527, "FDIR": 317.18384, "RENV": 320.0, "PENV": 1008.0, "VALIDT": 0, "DTG": "2026-09-05 18:00", "LATNOW": 25.5, "LONNOW": -127.1, "WINDNOW": 35.0, "DIRNOW": 4.0, "SPDNOW": 2.0, "TECH": "TRAK", "ADVNR": 30, "ATCFID": "EP132026", "NAME": "MARIE", "FTECH": "OFCL", "FCST_DTG": "2026-09-08 12:00:00", "RUN_DTG": "2026-09-09 06:26:29", "BASIN": "EP", "STMNR": 13, "CAT_ID": null, "CAT_DESC": null, "MSGID": "WTPZ23 KNHC 081437", "VALIDTIME": "2026-09-05 18:00:00" }, "geometry": { "type": "Point", "coordinates": [ -120.599998, 21.9 ] } },
{ "type": "Feature", "properties": { "ID": 86553, "LAT": 22.3, "LON": -121.0, "VMAX": 80.0, "MSLP": 970.0, "RMAX": 40.0, "FSPD": 4.53655, "FDIR": 312.87488, "RENV": 280.0, "PENV": 1007.0, "VALIDT": 0, "DTG": "2026-09-06 00:00", "LATNOW": 25.5, "LONNOW": -127.1, "WINDNOW": 35.0, "DIRNOW": 4.0, "SPDNOW": 2.0, "TECH": "TRAK", "ADVNR": 30, "ATCFID": "EP132026", "NAME": "MARIE", "FTECH": "OFCL", "FCST_DTG": "2026-09-08 12:00:00", "RUN_DTG": "2026-09-09 06:26:29", "BASIN": "EP", "STMNR": 13, "CAT_ID": null, "CAT_DESC": null, "MSGID": "WTPZ23 KNHC 081437", "VALIDTIME": "2026-09-06 00:00:00" }, "geometry": { "type": "Point", "coordinates": [ -121.0, 22.299999 ] } },
{ "type": "Feature", "properties": { "ID": 86554, "LAT": 22.9, "LON": -121.7, "VMAX": 80.0, "MSLP": 971.0, "RMAX": 40.0, "FSPD": 3.5065, "FDIR": 305.93347, "RENV": 280.0, "PENV": 1008.0, "VALIDT": 0, "DTG": "2026-09-06 06:00", "LATNOW": 25.5, "LONNOW": -127.1, "WINDNOW": 35.0, "DIRNOW": 4.0, "SPDNOW": 2.0, "TECH": "TRAK", "ADVNR": 30, "ATCFID": "EP132026", "NAME": "MARIE", "FTECH": "OFCL", "FCST_DTG": "2026-09-08 12:00:00", "RUN_DTG": "2026-09-09 06:26:29", "BASIN": "EP", "STMNR": 13, "CAT_ID": null, "CAT_DESC": null, "MSGID": "WTPZ23 KNHC 081437", "VALIDTIME": "2026-09-06 06:00:00" }, "geometry": { "type": "Point", "coordinates": [ -121.699997, 22.9 ] } },
{ "type": "Feature", "properties": { "ID": 86555, "LAT": 23.3, "LON": -122.3, "VMAX": 70.0, "MSLP": 977.0, "RMAX": 40.0, "FSPD": 3.18978, "FDIR": 323.74524, "RENV": 280.0, "PENV": 1008.0, "VALIDT": 0, "DTG": "2026-09-06 12:00", "LATNOW": 25.5, "LONNOW": -127.1, "WINDNOW": 35.0, "DIRNOW": 4.0, "SPDNOW": 2.0, "TECH": "TRAK", "ADVNR": 30, "ATCFID": "EP132026", "NAME": "MARIE", "FTECH": "OFCL", "FCST_DTG": "2026-09-08 12:00:00", "RUN_DTG": "2026-09-09 06:26:29", "BASIN": "EP", "STMNR": 13, "CAT_ID": null, "CAT_DESC": null, "MSGID": "WTPZ23 KNHC 081437", "VALIDTIME": "2026-09-06 12:00:00" }, "geometry": { "type": "Point", "coordinates": [ -122.300003, 23.299999 ] } },
{ "type": "Feature", "properties": { "ID": 86556, "LAT": 23.8, "LON": -122.7, "VMAX": 65.0, "MSLP": 980.0, "RMAX": 35.0, "FSPD": 1.7463, "FDIR": 306.09906, "RENV": 270.0, "PENV": 1008.0, "VALIDT": 0, "DTG": "2026-09-06 18:00", "LATNOW": 25.5, "LONNOW": -127.1, "WINDNOW": 35.0, "DIRNOW": 4.0, "SPDNOW": 2.0, "TECH": "TRAK", "ADVNR": 30, "ATCFID": "EP132026", "NAME": "MARIE", "FTECH": "OFCL", "FCST_DTG": "2026-09-08 12:00:00", "RUN_DTG": "2026-09-09 06:26:29", "BASIN": "EP", "STMNR": 13, "CAT_ID": null, "CAT_DESC": null, "MSGID": "WTPZ23 KNHC 081437", "VALIDTIME": "2026-09-06 18:00:00" }, "geometry": { "type": "Point", "coordinates": [ -122.699997, 23.799999 ] } },
{ "type": "Feature", "properties": { "ID": 86557, "LAT": 24.0, "LON": -123.0, "VMAX": 60.0, "MSLP": 983.0, "RMAX": 35.0, "FSPD": 2.14174, "FDIR": 298.7115, "RENV": 270.0, "PENV": 1008.0, "VALIDT": 0, "DTG": "2026-09-07 00:00", "LATNOW": 25.5, "LONNOW": -127.1, "WINDNOW": 35.0, "DIRNOW": 4.0, "SPDNOW": 2.0, "TECH": "TRAK", "ADVNR": 30, "ATCFID": "EP132026", "NAME": "MARIE", "FTECH": "OFCL", "FCST_DTG": "2026-09-08 12:00:00", "RUN_DTG": "2026-09-09 06:26:29", "BASIN": "EP", "STMNR": 13, "CAT_ID": null, "CAT_DESC": null, "MSGID": "WTPZ23 KNHC 081437", "VALIDTIME": "2026-09-07 00:00:00" }, "geometry": { "type": "Point", "coordinates": [ -123.0, 24.0 ] } },
{ "type": "Feature", "properties": { "ID": 86558, "LAT": 24.2, "LON": -123.4, "VMAX": 55.0, "MSLP": 986.0, "RMAX": 35.0, "FSPD": 3.62563, "FDIR": 295.19318, "RENV": 260.0, "PENV": 1008.0, "VALIDT": 0, "DTG": "2026-09-07 06:00", "LATNOW": 25.5, "LONNOW": -127.1, "WINDNOW": 35.0, "DIRNOW": 4.0, "SPDNOW": 2.0, "TECH": "TRAK", "ADVNR": 30, "ATCFID": "EP132026", "NAME": "MARIE", "FTECH": "OFCL", "FCST_DTG": "2026-09-08 12:00:00", "RUN_DTG": "2026-09-09 06:26:29", "BASIN": "EP", "STMNR": 13, "CAT_ID": null, "CAT_DESC": null, "MSGID": "WTPZ23 KNHC 081437", "VALIDTIME": "2026-09-07 06:00:00" }, "geometry": { "type": "Point", "coordinates": [ -123.400002, 24.200001 ] } },
{ "type": "Feature", "properties": { "ID": 86559, "LAT": 24.5, "LON": -124.1, "VMAX": 55.0, "MSLP": 988.0, "RMAX": 35.0, "FSPD": 3.7787, "FDIR": 277.82474, "RENV": 260.0, "PENV": 1008.0, "VALIDT": 0, "DTG": "2026-09-07 12:00", "LATNOW": 25.5, "LONNOW": -127.1, "WINDNOW": 35.0, "DIRNOW": 4.0, "SPDNOW": 2.0, "TECH": "TRAK", "ADVNR": 30, "ATCFID": "EP132026", "NAME": "MARIE", "FTECH": "OFCL", "FCST_DTG": "2026-09-08 12:00:00", "RUN_DTG": "2026-09-09 06:26:29", "BASIN": "EP", "STMNR": 13, "CAT_ID": null, "CAT_DESC": null, "MSGID": "WTPZ23 KNHC 081437", "VALIDTIME": "2026-09-07 12:00:00" }, "geometry": { "type": "Point", "coordinates": [ -124.099998, 24.5 ] } },
{ "type": "Feature", "properties": { "ID": 86560, "LAT": 24.6, "LON": -124.9, "VMAX": 50.0, "MSLP": 992.0, "RMAX": 40.0, "FSPD": 3.86274, "FDIR": 302.1897, "RENV": 260.0, "PENV": 1009.0, "VALIDT": 0, "DTG": "2026-09-07 18:00", "LATNOW": 25.5, "LONNOW": -127.1, "WINDNOW": 35.0, "DIRNOW": 4.0, "SPDNOW": 2.0, "TECH": "TRAK", "ADVNR": 30, "ATCFID": "EP132026", "NAME": "MARIE", "FTECH": "OFCL", "FCST_DTG": "2026-09-08 12:00:00", "RUN_DTG": "2026-09-09 06:26:29", "BASIN": "EP", "STMNR": 13, "CAT_ID": null, "CAT_DESC": null, "MSGID": "WTPZ23 KNHC 081437", "VALIDTIME": "2026-09-07 18:00:00" }, "geometry": { "type": "Point", "coordinates": [ -124.900002, 24.6 ] } },
{ "type": "Feature", "properties": { "ID": 86561, "LAT": 25.0, "LON": -125.6, "VMAX": 45.0, "MSLP": 994.0, "RMAX": 40.0, "FSPD": 3.41954, "FDIR": 287.51086, "RENV": 240.0, "PENV": 1007.0, "VALIDT": 0, "DTG": "2026-09-08 00:00", "LATNOW": 25.5, "LONNOW": -127.1, "WINDNOW": 35.0, "DIRNOW": 4.0, "SPDNOW": 2.0, "TECH": "TRAK", "ADVNR": 30, "ATCFID": "EP132026", "NAME": "MARIE", "FTECH": "OFCL", "FCST_DTG": "2026-09-08 12:00:00", "RUN_DTG": "2026-09-09 06:26:29", "BASIN": "EP", "STMNR": 13, "CAT_ID": null, "CAT_DESC": null, "MSGID": "WTPZ23 KNHC 081437", "VALIDTIME": "2026-09-08 00:00:00" }, "geometry": { "type": "Point", "coordinates": [ -125.599998, 25.0 ] } },
{ "type": "Feature", "properties": { "ID": 86562, "LAT": 25.2, "LON": -126.3, "VMAX": 40.0, "MSLP": 996.0, "RMAX": 40.0, "FSPD": 4.02674, "FDIR": 292.53638, "RENV": 230.0, "PENV": 1009.0, "VALIDT": 0, "DTG": "2026-09-08 06:00", "LATNOW": 25.5, "LONNOW": -127.1, "WINDNOW": 35.0, "DIRNOW": 4.0, "SPDNOW": 2.0, "TECH": "TRAK", "ADVNR": 30, "ATCFID": "EP132026", "NAME": "MARIE", "FTECH": "OFCL", "FCST_DTG": "2026-09-08 12:00:00", "RUN_DTG": "2026-09-09 06:26:29", "BASIN": "EP", "STMNR": 13, "CAT_ID": null, "CAT_DESC": null, "MSGID": "WTPZ23 KNHC 081437", "VALIDTIME": "2026-09-08 06:00:00" }, "geometry": { "type": "Point", "coordinates": [ -126.300003, 25.200001 ] } },
{ "type": "Feature", "properties": { "ID": 86563, "LAT": 25.5, "LON": -127.1, "VMAX": 35.0, "MSLP": 1000.0, "RMAX": 40.0, "FSPD": 4.1557, "FDIR": 317.96637, "RENV": 230.0, "PENV": 1009.0, "VALIDT": 0, "DTG": "2026-09-08 12:00", "LATNOW": 25.5, "LONNOW": -127.1, "WINDNOW": 35.0, "DIRNOW": 4.0, "SPDNOW": 2.0, "TECH": "TRAK", "ADVNR": 30, "ATCFID": "EP132026", "NAME": "MARIE", "FTECH": "OFCL", "FCST_DTG": "2026-09-08 12:00:00", "RUN_DTG": "2026-09-09 06:26:29", "BASIN": "EP", "STMNR": 13, "CAT_ID": null, "CAT_DESC": null, "MSGID": "WTPZ23 KNHC 081437", "VALIDTIME": "2026-09-08 12:00:00" }, "geometry": { "type": "Point", "coordinates": [ -127.099998, 25.5 ] } },
{ "type": "Feature", "properties": { "ID": 86564, "LAT": 25.8, "LON": -127.4, "VMAX": 35.0, "MSLP": 1000.0, "RMAX": 40.0, "FSPD": 4.22047, "FDIR": 324.35245, "RENV": 180.0, "PENV": 1012.0, "VALIDT": 3, "DTG": "2026-09-08 15:00", "LATNOW": 25.5, "LONNOW": -127.1, "WINDNOW": 35.0, "DIRNOW": 4.0, "SPDNOW": 2.0, "TECH": "FCST", "ADVNR": 30, "ATCFID": "EP132026", "NAME": "MARIE", "FTECH": "OFCL", "FCST_DTG": "2026-09-08 12:00:00", "RUN_DTG": "2026-09-09 06:26:29", "BASIN": "EP", "STMNR": 13, "CAT_ID": null, "CAT_DESC": null, "MSGID": "WTPZ23 KNHC 081437", "VALIDTIME": "2026-09-08 15:00:00" }, "geometry": { "type": "Point", "coordinates": [ -127.400002, 25.799999 ] } },
{ "type": "Feature", "properties": { "ID": 86565, "LAT": 26.8, "LON": -128.2, "VMAX": 30.0, "MSLP": 1010.40607, "RMAX": 47.20708, "FSPD": 5.59883, "FDIR": 330.79752, "RENV": 250.0, "PENV": 1012.0, "VALIDT": 12, "DTG": "2026-09-09 00:00", "LATNOW": 25.5, "LONNOW": -127.1, "WINDNOW": 35.0, "DIRNOW": 4.0, "SPDNOW": 2.0, "TECH": "FCST", "ADVNR": 30, "ATCFID": "EP132026", "NAME": "MARIE", "FTECH": "OFCL", "FCST_DTG": "2026-09-08 12:00:00", "RUN_DTG": "2026-09-09 06:26:29", "BASIN": "EP", "STMNR": 13, "CAT_ID": null, "CAT_DESC": null, "MSGID": "WTPZ23 KNHC 081437", "VALIDTIME": "2026-09-09 00:00:00" }, "geometry": { "type": "Point", "coordinates": [ -128.199997, 26.799999 ] } },
{ "type": "Feature", "properties": { "ID": 86566, "LAT": 28.7, "LON": -129.4, "VMAX": 30.0, "MSLP": 1010.40607, "RMAX": 47.20708, "FSPD": 7.46375, "FDIR": 329.49347, "RENV": 250.0, "PENV": 1012.0, "VALIDT": 24, "DTG": "2026-09-09 12:00", "LATNOW": 25.5, "LONNOW": -127.1, "WINDNOW": 35.0, "DIRNOW": 4.0, "SPDNOW": 2.0, "TECH": "FCST", "ADVNR": 30, "ATCFID": "EP132026", "NAME": "MARIE", "FTECH": "OFCL", "FCST_DTG": "2026-09-08 12:00:00", "RUN_DTG": "2026-09-09 06:26:29", "BASIN": "EP", "STMNR": 13, "CAT_ID": null, "CAT_DESC": null, "MSGID": "WTPZ23 KNHC 081437", "VALIDTIME": "2026-09-09 12:00:00" }, "geometry": { "type": "Point", "coordinates": [ -129.399994, 28.700001 ] } },
{ "type": "Feature", "properties": { "ID": 86567, "LAT": 31.2, "LON": -131.1, "VMAX": 25.0, "MSLP": 1011.80975, "RMAX": 48.03996, "FSPD": 7.46375, "FDIR": 329.49347, "RENV": 250.0, "PENV": 1012.0, "VALIDT": 36, "DTG": "2026-09-10 00:00", "LATNOW": 25.5, "LONNOW": -127.1, "WINDNOW": 35.0, "DIRNOW": 4.0, "SPDNOW": 2.0, "TECH": "FCST", "ADVNR": 30, "ATCFID": "EP132026", "NAME": "MARIE", "FTECH": "OFCL", "FCST_DTG": "2026-09-08 12:00:00", "RUN_DTG": "2026-09-09 06:26:29", "BASIN": "EP", "STMNR": 13, "CAT_ID": null, "CAT_DESC": null, "MSGID": "WTPZ23 KNHC 081437", "VALIDTIME": "2026-09-10 00:00:00" }, "geometry": { "type": "Point", "coordinates": [ -131.100006, 31.200001 ] } },
{ "type": "Feature", "properties": { "ID": 86563, "LAT": 25.5, "LON": -127.1, "VMAX": 35.0, "MSLP": 1000.0, "RMAX": 40.0, "FSPD": 4.1557, "FDIR": 317.96637, "RENV": 230.0, "PENV": 1009.0, "VALIDT": 0, "DTG": "2026-09-08 12:00", "LATNOW": 25.5, "LONNOW": -127.1, "WINDNOW": 35.0, "DIRNOW": 4.0, "SPDNOW": 2.0, "TECH": "TRAK", "ADVNR": 30, "ATCFID": "EP132026", "NAME": "MARIE", "FTECH": "OFCL", "FCST_DTG": "2026-09-08 12:00:00", "RUN_DTG": "2026-09-09 06:26:29", "BASIN": "EP", "STMNR": 13, "CAT_ID": null, "CAT_DESC": null, "MSGID": "WTPZ23 KNHC 081437", "VALIDTIME": "2026-09-08 12:00:00" }, "geometry": { "type": "LineString", "coordinates": [ [ -106.2, 12.1 ], [ -106.6, 12.4 ], [ -107.5, 12.0 ], [ -108.1, 11.9 ], [ -107.8, 12.5 ], [ -107.9, 13.1 ], [ -108.6, 13.5 ], [ -108.4, 14.7 ], [ -109.3, 15.3 ], [ -110.0, 15.8 ], [ -110.6, 16.4 ], [ -111.3, 16.8 ], [ -112.0, 17.7 ], [ -112.7, 18.2 ], [ -113.4, 18.7 ], [ -114.4, 19.0 ], [ -115.1, 19.1 ], [ -115.9, 19.5 ], [ -116.7, 19.7 ], [ -117.6, 19.9 ], [ -118.2, 20.1 ], [ -118.7, 20.6 ], [ -119.3, 21.1 ], [ -120.1, 21.6 ], [ -120.6, 21.9 ], [ -121.0, 22.3 ], [ -121.7, 22.9 ], [ -122.3, 23.3 ], [ -122.7, 23.8 ], [ -123.0, 24.0 ], [ -123.4, 24.2 ], [ -124.1, 24.5 ], [ -124.9, 24.6 ], [ -125.6, 25.0 ], [ -126.3, 25.2 ], [ -127.1, 25.5 ] ] } },
{ "type": "Feature", "properties": { "ID": 86567, "LAT": 31.2, "LON": -131.1, "VMAX": 25.0, "MSLP": 1011.80975, "RMAX": 48.03996, "FSPD": 7.46375, "FDIR": 329.49347, "RENV": 250.0, "PENV": 1012.0, "VALIDT": 36, "DTG": "2026-09-10 00:00", "LATNOW": 25.5, "LONNOW": -127.1, "WINDNOW": 35.0, "DIRNOW": 4.0, "SPDNOW": 2.0, "TECH": "FCST", "ADVNR": 30, "ATCFID": "EP132026", "NAME": "MARIE", "FTECH": "OFCL", "FCST_DTG": "2026-09-08 12:00:00", "RUN_DTG": "2026-09-09 06:26:29", "BASIN": "EP", "STMNR": 13, "CAT_ID": null, "CAT_DESC": null, "MSGID": "WTPZ23 KNHC 081437", "VALIDTIME": "2026-09-10 00:00:00" }, "geometry": { "type": "LineString", "coordinates": [ [ -127.1, 25.5 ], [ -127.4, 25.8 ], [ -128.2, 26.8 ], [ -129.4, 28.7 ], [ -131.1, 31.2 ] ] } }
]
}
