{
"type": "FeatureCollection",
"crs": { "type": "name", "properties": { "name": "urn:ogc:def:crs:OGC:1.3:CRS84" } },
"features": [
{ "type": "Feature", "properties": { "ID": 2890, "LAT": 12.7, "LON": 135.0, "VMAX": 15.0, "MSLP": 1013.8515, "RMAX": 40.0, "FSPD": 2.05778, "FDIR": 360.0, "RENV": 500.0, "PENV": 1012.0, "VALIDT": 0, "DTG": "2025-07-20 06:00", "LATNOW": 20.8, "LONNOW": 129.9, "WINDNOW": 35.0, "DIRNOW": 4.0, "SPDNOW": 2.0, "TECH": "TRAK", "ADVNR": 8, "ATCFID": "WP102025", "NAME": "FRANCISCO", "FTECH": "JTWC", "FCST_DTG": "2025-07-24 00:00:00", "RUN_DTG": "2025-07-24 02:43:34", "BASIN": "WP", "STMNR": 10, "CAT_ID": null, "CAT_DESC": null, "MSGID": "WTPN52 PGTW 240300", "VALIDTIME": "2025-07-20 06:00:00" }, "geometry": { "type": "Point", "coordinates": [ 135.0, 12.7 ] } },
{ "type": "Feature", "properties": { "ID": 2891, "LAT": 13.1, "LON": 135.0, "VMAX": 15.0, "MSLP": 1013.8515, "RMAX": 40.0, "FSPD": 5.09375, "FDIR": 323.89725, "RENV": 500.0, "PENV": 1012.0, "VALIDT": 0, "DTG": "2025-07-20 12:00", "LATNOW": 20.8, "LONNOW": 129.9, "WINDNOW": 35.0, "DIRNOW": 4.0, "SPDNOW": 2.0, "TECH": "TRAK", "ADVNR": 8, "ATCFID": "WP102025", "NAME": "FRANCISCO", "FTECH": "JTWC", "FCST_DTG": "2025-07-24 00:00:00", "RUN_DTG": "2025-07-24 02:43:34", "BASIN": "WP", "STMNR": 10, "CAT_ID": null, "CAT_DESC": null, "MSGID": "WTPN52 PGTW 240300", "VALIDTIME": "2025-07-20 12:00:00" }, "geometry": { "type": "Point", "coordinates": [ 135.0, 13.1 ] } },
{ "type": "Feature", "properties": { "ID": 2892, "LAT": 13.9, "LON": 134.4, "VMAX": 15.0, "MSLP": 1013.8515, "RMAX": 40.0, "FSPD": 2.93398, "FDIR": 301.73694, "RENV": 500.0, "PENV": 1012.0, "VALIDT": 0, "DTG": "2025-07-20 18:00", "LATNOW": 20.8, "LONNOW": 129.9, "WINDNOW": 35.0, "DIRNOW": 4.0, "SPDNOW": 2.0, "TECH": "TRAK", "ADVNR": 8, "ATCFID": "WP102025", "NAME": "FRANCISCO", "FTECH": "JTWC", "FCST_DTG": "2025-07-24 00:00:00", "RUN_DTG": "2025-07-24 02:43:34", "BASIN": "WP", "STMNR": 10, "CAT_ID": null, "CAT_DESC": null, "MSGID": "WTPN52 PGTW 240300", "VALIDTIME": "2025-07-20 18:00:00" }, "geometry": { "type": "Point", "coordinates": [ 134.399994, 13.9 ] } },
{ "type": "Feature", "properties": { "ID": 2893, "LAT": 14.2, "LON": 133.9, "VMAX": 15.0, "MSLP": 1013.8515, "RMAX": 40.0, "FSPD": 3.25376, "FDIR": 322.23572, "RENV": 500.0, "PENV": 1012.0, "VALIDT": 0, "DTG": "2025-07-21 00:00", "LATNOW": 20.8, "LONNOW": 129.9, "WINDNOW": 35.0, "DIRNOW": 4.0, "SPDNOW": 2.0, "TECH": "TRAK", "ADVNR": 8, "ATCFID": "WP102025", "NAME": "FRANCISCO", "FTECH": "JTWC", "FCST_DTG": "2025-07-24 00:00:00", "RUN_DTG": "2025-07-24 02:43:34", "BASIN": "WP", "STMNR": 10, "CAT_ID": null, "CAT_DESC": null, "MSGID": "WTPN52 PGTW 240300", "VALIDTIME": "2025-07-21 00:00:00" }, "geometry": { "type": "Point", "coordinates": [ 133.899994, 14.2 ] } },
{ "type": "Feature", "properties": { "ID": 2894, "LAT": 14.7, "LON": 133.5, "VMAX": 15.0, "MSLP": 1013.8515, "RMAX": 40.0, "FSPD": 3.63522, "FDIR": 352.14474, "RENV": 500.0, "PENV": 1012.0, "VALIDT": 0, "DTG": "2025-07-21 06:00", "LATNOW": 20.8, "LONNOW": 129.9, "WINDNOW": 35.0, "DIRNOW": 4.0, "SPDNOW": 2.0, "TECH": "TRAK", "ADVNR": 8, "ATCFID": "WP102025", "NAME": "FRANCISCO", "FTECH": "JTWC", "FCST_DTG": "2025-07-24 00:00:00", "RUN_DTG": "2025-07-24 02:43:34", "BASIN": "WP", "STMNR": 10, "CAT_ID": null, "CAT_DESC": null, "MSGID": "WTPN52 PGTW 240300", "VALIDTIME": "2025-07-21 06:00:00" }, "geometry": { "type": "Point", "coordinates": [ 133.5, 14.7 ] } },
{ "type": "Feature", "properties": { "ID": 2895, "LAT": 15.4, "LON": 133.4, "VMAX": 15.0, "MSLP": 1013.8515, "RMAX": 40.0, "FSPD": 3.08667, "FDIR": 360.0, "RENV": 500.0, "PENV": 1012.0, "VALIDT": 0, "DTG": "2025-07-21 12:00", "LATNOW": 20.8, "LONNOW": 129.9, "WINDNOW": 35.0, "DIRNOW": 4.0, "SPDNOW": 2.0, "TECH": "TRAK", "ADVNR": 8, "ATCFID": "WP102025", "NAME": "FRANCISCO", "FTECH": "JTWC", "FCST_DTG": "2025-07-24 00:00:00", "RUN_DTG": "2025-07-24 02:43:34", "BASIN": "WP", "STMNR": 10, "CAT_ID": null, "CAT_DESC": null, "MSGID": "WTPN52 PGTW 240300", "VALIDTIME": "2025-07-21 12:00:00" }, "geometry": { "type": "Point", "coordinates": [ 133.399994, 15.4 ] } },
{ "type": "Feature", "properties": { "ID": 2896, "LAT": 16.0, "LON": 133.4, "VMAX": 15.0, "MSLP": 1013.8515, "RMAX": 40.0, "FSPD": 5.99281, "FDIR": 340.78317, "RENV": 500.0, "PENV": 1012.0, "VALIDT": 0, "DTG": "2025-07-21 18:00", "LATNOW": 20.8, "LONNOW": 129.9, "WINDNOW": 35.0, "DIRNOW": 4.0, "SPDNOW": 2.0, "TECH": "TRAK", "ADVNR": 8, "ATCFID": "WP102025", "NAME": "FRANCISCO", "FTECH": "JTWC", "FCST_DTG": "2025-07-24 00:00:00", "RUN_DTG": "2025-07-24 02:43:34", "BASIN": "WP", "STMNR": 10, "CAT_ID": null, "CAT_DESC": null, "MSGID": "WTPN52 PGTW 240300", "VALIDTIME": "2025-07-21 18:00:00" }, "geometry": { "type": "Point", "coordinates": [ 133.399994, 16.0 ] } },
{ "type": "Feature", "properties": { "ID": 2897, "LAT": 17.1, "LON": 133.0, "VMAX": 20.0, "MSLP": 1012.95825, "RMAX": 45.0, "FSPD": 4.79122, "FDIR": 329.20193, "RENV": 500.0, "PENV": 1012.0, "VALIDT": 0, "DTG": "2025-07-22 00:00", "LATNOW": 20.8, "LONNOW": 129.9, "WINDNOW": 35.0, "DIRNOW": 4.0, "SPDNOW": 2.0, "TECH": "TRAK", "ADVNR": 8, "ATCFID": "WP102025", "NAME": "FRANCISCO", "FTECH": "JTWC", "FCST_DTG": "2025-07-24 00:00:00", "RUN_DTG": "2025-07-24 02:43:34", "BASIN": "WP", "STMNR": 10, "CAT_ID": null, "CAT_DESC": null, "MSGID": "WTPN52 PGTW 240300", "VALIDTIME": "2025-07-22 00:00:00" }, "geometry": { "type": "Point", "coordinates": [ 133.0, 17.1 ] } },
{ "type": "Feature", "properties": { "ID": 2898, "LAT": 17.9, "LON": 132.5, "VMAX": 25.0, "MSLP": 1003.0, "RMAX": 30.0, "FSPD": 9.78297, "FDIR": 333.37482, "RENV": 120.0, "PENV": 1006.0, "VALIDT": 0, "DTG": "2025-07-22 06:00", "LATNOW": 20.8, "LONNOW": 129.9, "WINDNOW": 35.0, "DIRNOW": 4.0, "SPDNOW": 2.0, "TECH": "TRAK", "ADVNR": 8, "ATCFID": "WP102025", "NAME": "FRANCISCO", "FTECH": "JTWC", "FCST_DTG": "2025-07-24 00:00:00", "RUN_DTG": "2025-07-24 02:43:34", "BASIN": "WP", "STMNR": 10, "CAT_ID": null, "CAT_DESC": null, "MSGID": "WTPN52 PGTW 240300", "VALIDTIME": "2025-07-22 06:00:00" }, "geometry": { "type": "Point", "coordinates": [ 132.5, 17.9 ] } },
{ "type": "Feature", "properties": { "ID": 2899, "LAT": 19.6, "LON": 131.6, "VMAX": 25.0, "MSLP": 1003.0, "RMAX": 30.0, "FSPD": 4.16961, "FDIR": 291.72406, "RENV": 120.0, "PENV": 1006.0, "VALIDT": 0, "DTG": "2025-07-22 12:00", "LATNOW": 20.8, "LONNOW": 129.9, "WINDNOW": 35.0, "DIRNOW": 4.0, "SPDNOW": 2.0, "TECH": "TRAK", "ADVNR": 8, "ATCFID": "WP102025", "NAME": "FRANCISCO", "FTECH": "JTWC", "FCST_DTG": "2025-07-24 00:00:00", "RUN_DTG": "2025-07-24 02:43:34", "BASIN": "WP", "STMNR": 10, "CAT_ID": null, "CAT_DESC": null, "MSGID": "WTPN52 PGTW 240300", "VALIDTIME": "2025-07-22 12:00:00" }, "geometry": { "type": "Point", "coordinates": [ 131.600006, 19.6 ] } },
{ "type": "Feature", "properties": { "ID": 2900, "LAT": 19.9, "LON": 130.8, "VMAX": 30.0, "MSLP": 1003.0, "RMAX": 30.0, "FSPD": 6.34679, "FDIR": 316.84467, "RENV": 120.0, "PENV": 1006.0, "VALIDT": 0, "DTG": "2025-07-22 18:00", "LATNOW": 20.8, "LONNOW": 129.9, "WINDNOW": 35.0, "DIRNOW": 4.0, "SPDNOW": 2.0, "TECH": "TRAK", "ADVNR": 8, "ATCFID": "WP102025", "NAME": "FRANCISCO", "FTECH": "JTWC", "FCST_DTG": "2025-07-24 00:00:00", "RUN_DTG": "2025-07-24 02:43:34", "BASIN": "WP", "STMNR": 10, "CAT_ID": null, "CAT_DESC": null, "MSGID": "WTPN52 PGTW 240300", "VALIDTIME": "2025-07-22 18:00:00" }, "geometry": { "type": "Point", "coordinates": [ 130.800003, 19.9 ] } },
{ "type": "Feature", "properties": { "ID": 2901, "LAT": 20.8, "LON": 129.9, "VMAX": 35.0, "MSLP": 1008.74713, "RMAX": 42.69135, "FSPD": 4.41847, "FDIR": 330.8361, "RENV": 500.0, "PENV": 1012.0, "VALIDT": 0, "DTG": "2025-07-23 00:00", "LATNOW": 20.8, "LONNOW": 129.9, "WINDNOW": 35.0, "DIRNOW": 4.0, "SPDNOW": 2.0, "TECH": "TRAK", "ADVNR": 8, "ATCFID": "WP102025", "NAME": "FRANCISCO", "FTECH": "JTWC", "FCST_DTG": "2025-07-24 00:00:00", "RUN_DTG": "2025-07-24 02:43:34", "BASIN": "WP", "STMNR": 10, "CAT_ID": null, "CAT_DESC": null, "MSGID": "WTPN52 PGTW 240300", "VALIDTIME": "2025-07-23 00:00:00" }, "geometry": { "type": "Point", "coordinates": [ 129.899994, 20.799999 ] } },
{ "type": "Feature", "properties": { "ID": 2902, "LAT": 22.3, "LON": 129.0, "VMAX": 40.0, "MSLP": 1006.833, "RMAX": 41.26637, "FSPD": 4.65459, "FDIR": 325.98907, "RENV": 250.0, "PENV": 1012.0, "VALIDT": 12, "DTG": "2025-07-23 12:00", "LATNOW": 20.8, "LONNOW": 129.9, "WINDNOW": 35.0, "DIRNOW": 4.0, "SPDNOW": 2.0, "TECH": "FCST", "ADVNR": 8, "ATCFID": "WP102025", "NAME": "FRANCISCO", "FTECH": "JTWC", "FCST_DTG": "2025-07-24 00:00:00", "RUN_DTG": "2025-07-24 02:43:34", "BASIN": "WP", "STMNR": 10, "CAT_ID": null, "CAT_DESC": null, "MSGID": "WTPN52 PGTW 240300", "VALIDTIME": "2025-07-23 12:00:00" }, "geometry": { "type": "Point", "coordinates": [ 129.0, 22.299999 ] } },
{ "type": "Feature", "properties": { "ID": 2903, "LAT": 23.8, "LON": 127.9, "VMAX": 40.0, "MSLP": 1006.833, "RMAX": 41.26637, "FSPD": 4.71453, "FDIR": 319.80334, "RENV": 250.0, "PENV": 1012.0, "VALIDT": 24, "DTG": "2025-07-24 00:00", "LATNOW": 20.8, "LONNOW": 129.9, "WINDNOW": 35.0, "DIRNOW": 4.0, "SPDNOW": 2.0, "TECH": "FCST", "ADVNR": 8, "ATCFID": "WP102025", "NAME": "FRANCISCO", "FTECH": "JTWC", "FCST_DTG": "2025-07-24 00:00:00", "RUN_DTG": "2025-07-24 02:43:34", "BASIN": "WP", "STMNR": 10, "CAT_ID": null, "CAT_DESC": null, "MSGID": "WTPN52 PGTW 240300", "VALIDTIME": "2025-07-24 00:00:00" }, "geometry": { "type": "Point", "coordinates": [ 127.900002, 23.799999 ] } },
{ "type": "Feature", "properties": { "ID": 2904, "LAT": 25.2, "LON": 126.6, "VMAX": 40.0, "MSLP": 1006.833, "RMAX": 41.26637, "FSPD": 4.32475, "FDIR": 306.49606, "RENV": 250.0, "PENV": 1012.0, "VALIDT": 36, "DTG": "2025-07-24 12:00", "LATNOW": 20.8, "LONNOW": 129.9, "WINDNOW": 35.0, "DIRNOW": 4.0, "SPDNOW": 2.0, "TECH": "FCST", "ADVNR": 8, "ATCFID": "WP102025", "NAME": "FRANCISCO", "FTECH": "JTWC", "FCST_DTG": "2025-07-24 00:00:00", "RUN_DTG": "2025-07-24 02:43:34", "BASIN": "WP", "STMNR": 10, "CAT_ID": null, "CAT_DESC": null, "MSGID": "WTPN52 PGTW 240300", "VALIDTIME": "2025-07-24 12:00:00" }, "geometry": { "type": "Point", "coordinates": [ 126.599998, 25.200001 ] } },
{ "type": "Feature", "properties": { "ID": 2905, "LAT": 26.2, "LON": 125.1, "VMAX": 35.0, "MSLP": 1008.74713, "RMAX": 42.69135, "FSPD": 3.9848, "FDIR": 300.01776, "RENV": 250.0, "PENV": 1012.0, "VALIDT": 48, "DTG": "2025-07-25 00:00", "LATNOW": 20.8, "LONNOW": 129.9, "WINDNOW": 35.0, "DIRNOW": 4.0, "SPDNOW": 2.0, "TECH": "FCST", "ADVNR": 8, "ATCFID": "WP102025", "NAME": "FRANCISCO", "FTECH": "JTWC", "FCST_DTG": "2025-07-24 00:00:00", "RUN_DTG": "2025-07-24 02:43:34", "BASIN": "WP", "STMNR": 10, "CAT_ID": null, "CAT_DESC": null, "MSGID": "WTPN52 PGTW 240300", "VALIDTIME": "2025-07-25 00:00:00" }, "geometry": { "type": "Point", "coordinates": [ 125.099998, 26.200001 ] } },
{ "type": "Feature", "properties": { "ID": 2906, "LAT": 26.975, "LON": 123.6, "VMAX": 35.0, "MSLP": 1008.74713, "RMAX": 42.69135, "FSPD": 3.53389, "FDIR": 283.68347, "RENV": 250.0, "PENV": 1012.0, "VALIDT": 60, "DTG": "2025-07-25 12:00", "LATNOW": 20.8, "LONNOW": 129.9, "WINDNOW": 35.0, "DIRNOW": 4.0, "SPDNOW": 2.0, "TECH": "FCST", "ADVNR": 8, "ATCFID": "WP102025", "NAME": "FRANCISCO", "FTECH": "JTWC", "FCST_DTG": "2025-07-24 00:00:00", "RUN_DTG": "2025-07-24 02:43:34", "BASIN": "WP", "STMNR": 10, "CAT_ID": null, "CAT_DESC": null, "MSGID": "WTPN52 PGTW 240300", "VALIDTIME": "2025-07-25 12:00:00" }, "geometry": { "type": "Point", "coordinates": [ 123.599998, 26.975 ] } },
{ "type": "Feature", "properties": { "ID": 2907, "LAT": 27.3, "LON": 122.1, "VMAX": 35.0, "MSLP": 1008.74713, "RMAX": 42.69135, "FSPD": 3.53389, "FDIR": 283.68347, "RENV": 250.0, "PENV": 1012.0, "VALIDT": 72, "DTG": "2025-07-26 00:00", "LATNOW": 20.8, "LONNOW": 129.9, "WINDNOW": 35.0, "DIRNOW": 4.0, "SPDNOW": 2.0, "TECH": "FCST", "ADVNR": 8, "ATCFID": "WP102025", "NAME": "FRANCISCO", "FTECH": "JTWC", "FCST_DTG": "2025-07-24 00:00:00", "RUN_DTG": "2025-07-24 02:43:34", "BASIN": "WP", "STMNR": 10, "CAT_ID": null, "CAT_DESC": null, "MSGID": "WTPN52 PGTW 240300", "VALIDTIME": "2025-07-26 00:00:00" }, "geometry": { "type": "Point", "coordinates": [ 122.099998, 27.299999 ] } },
{ "type": "Feature", "properties": { "ID": 2901, "LAT": 20.8, "LON": 129.9, "VMAX": 35.0, "MSLP": 1008.74713, "RMAX": 42.69135, "FSPD": 4.41847, "FDIR": 330.8361, "RENV": 500.0, "PENV": 1012.0, "VALIDT": 0, "DTG": "2025-07-23 00:00", "LATNOW": 20.8, "LONNOW": 129.9, "WINDNOW": 35.0, "DIRNOW": 4.0, "SPDNOW": 2.0, "TECH": "TRAK", "ADVNR": 8, "ATCFID": "WP102025", "NAME": "FRANCISCO", "FTECH": "JTWC", "FCST_DTG": "2025-07-24 00:00:00", "RUN_DTG": "2025-07-24 02:43:34", "BASIN": "WP", "STMNR": 10, "CAT_ID": null, "CAT_DESC": null, "MSGID": "WTPN52 PGTW 240300", "VALIDTIME": "2025-07-23 00:00:00" }, "geometry": { "type": "LineString", "coordinates": [ [ 135.0, 12.7 ], [ 135.0, 13.1 ], [ 134.4, 13.9 ], [ 133.9, 14.2 ], [ 133.5, 14.7 ], [ 133.4, 15.4 ], [ 133.4, 16.0 ], [ 133.0, 17.1 ], [ 132.5, 17.9 ], [ 131.6, 19.6 ], [ 130.8, 19.9 ], [ 129.9, 20.8 ] ] } },
{ "type": "Feature", "properties": { "ID": 2907, "LAT": 27.3, "LON": 122.1, "VMAX": 35.0, "MSLP": 1008.74713, "RMAX": 42.69135, "FSPD": 3.53389, "FDIR": 283.68347, "RENV": 250.0, "PENV": 1012.0, "VALIDT": 72, "DTG": "2025-07-26 00:00", "LATNOW": 20.8, "LONNOW": 129.9, "WINDNOW": 35.0, "DIRNOW": 4.0, "SPDNOW": 2.0, "TECH": "FCST", "ADVNR": 8, "ATCFID": "WP102025", "NAME": "FRANCISCO", "FTECH": "JTWC", "FCST_DTG": "2025-07-24 00:00:00", "RUN_DTG": "2025-07-24 02:43:34", "BASIN": "WP", "STMNR": 10, "CAT_ID": null, "CAT_DESC": null, "MSGID": "WTPN52 PGTW 240300", "VALIDTIME": "2025-07-26 00:00:00" }, "geometry": { "type": "LineString", "coordinates": [ [ 129.9, 20.8 ], [ 129.0, 22.3 ], [ 127.9, 23.8 ], [ 126.6, 25.2 ], [ 125.1, 26.2 ], [ 123.6, 26.975 ], [ 122.1, 27.3 ] ] } }
]
}
