{
"type": "FeatureCollection",
"crs": { "type": "name", "properties": { "name": "urn:ogc:def:crs:OGC:1.3:CRS84" } },
"features": [
{ "type": "Feature", "properties": { "ID": 263913, "LAT": 19.2, "LON": 123.9, "VMAX": 80.0, "MSLP": 986.0, "RMAX": 45.0, "FSPD": 4.65577, "FDIR": 303.53732, "RENV": 325.0, "PENV": 1006.0, "VALIDT": 0, "DTG": "2024-09-29 06:00", "LATNOW": 23.0, "LONNOW": 120.9, "WINDNOW": 25.0, "DIRNOW": 2.0, "SPDNOW": 2.0, "TECH": "TRAK", "ADVNR": 27, "ATCFID": "WP202024", "NAME": "KRATHON", "FTECH": "JTWC", "FCST_DTG": "2024-10-03 18:00:00", "RUN_DTG": "2024-10-04 09:35:10", "BASIN": "WP", "STMNR": 20, "CAT_ID": null, "CAT_DESC": null, "MSGID": "WTPN53 PGTW 032100", "VALIDTIME": "2024-09-29 06:00:00" }, "geometry": { "type": "Point", "coordinates": [ 123.900002, 19.200001 ] } },
{ "type": "Feature", "properties": { "ID": 263914, "LAT": 19.7, "LON": 123.1, "VMAX": 95.0, "MSLP": 973.0, "RMAX": 35.0, "FSPD": 4.16732, "FDIR": 291.73663, "RENV": 360.0, "PENV": 1007.0, "VALIDT": 0, "DTG": "2024-09-29 12:00", "LATNOW": 23.0, "LONNOW": 120.9, "WINDNOW": 25.0, "DIRNOW": 2.0, "SPDNOW": 2.0, "TECH": "TRAK", "ADVNR": 27, "ATCFID": "WP202024", "NAME": "KRATHON", "FTECH": "JTWC", "FCST_DTG": "2024-10-03 18:00:00", "RUN_DTG": "2024-10-04 09:35:10", "BASIN": "WP", "STMNR": 20, "CAT_ID": null, "CAT_DESC": null, "MSGID": "WTPN53 PGTW 032100", "VALIDTIME": "2024-09-29 12:00:00" }, "geometry": { "type": "Point", "coordinates": [ 123.099998, 19.700001 ] } },
{ "type": "Feature", "properties": { "ID": 263915, "LAT": 20.0, "LON": 122.3, "VMAX": 105.0, "MSLP": 961.0, "RMAX": 26.0, "FSPD": 1.53838, "FDIR": 289.5365, "RENV": 380.0, "PENV": 1006.0, "VALIDT": 0, "DTG": "2024-09-29 18:00", "LATNOW": 23.0, "LONNOW": 120.9, "WINDNOW": 25.0, "DIRNOW": 2.0, "SPDNOW": 2.0, "TECH": "TRAK", "ADVNR": 27, "ATCFID": "WP202024", "NAME": "KRATHON", "FTECH": "JTWC", "FCST_DTG": "2024-10-03 18:00:00", "RUN_DTG": "2024-10-04 09:35:10", "BASIN": "WP", "STMNR": 20, "CAT_ID": null, "CAT_DESC": null, "MSGID": "WTPN53 PGTW 032100", "VALIDTIME": "2024-09-29 18:00:00" }, "geometry": { "type": "Point", "coordinates": [ 122.300003, 20.0 ] } },
{ "type": "Feature", "properties": { "ID": 263916, "LAT": 20.1, "LON": 122.0, "VMAX": 115.0, "MSLP": 950.0, "RMAX": 17.0, "FSPD": 4.3742, "FDIR": 298.0625, "RENV": 380.0, "PENV": 1006.0, "VALIDT": 0, "DTG": "2024-09-30 00:00", "LATNOW": 23.0, "LONNOW": 120.9, "WINDNOW": 25.0, "DIRNOW": 2.0, "SPDNOW": 2.0, "TECH": "TRAK", "ADVNR": 27, "ATCFID": "WP202024", "NAME": "KRATHON", "FTECH": "JTWC", "FCST_DTG": "2024-10-03 18:00:00", "RUN_DTG": "2024-10-04 09:35:10", "BASIN": "WP", "STMNR": 20, "CAT_ID": null, "CAT_DESC": null, "MSGID": "WTPN53 PGTW 032100", "VALIDTIME": "2024-09-30 00:00:00" }, "geometry": { "type": "Point", "coordinates": [ 122.0, 20.1 ] } },
{ "type": "Feature", "properties": { "ID": 263917, "LAT": 20.5, "LON": 121.2, "VMAX": 120.0, "MSLP": 940.0, "RMAX": 17.0, "FSPD": 3.37305, "FDIR": 269.99997, "RENV": 345.0, "PENV": 1006.0, "VALIDT": 0, "DTG": "2024-09-30 06:00", "LATNOW": 23.0, "LONNOW": 120.9, "WINDNOW": 25.0, "DIRNOW": 2.0, "SPDNOW": 2.0, "TECH": "TRAK", "ADVNR": 27, "ATCFID": "WP202024", "NAME": "KRATHON", "FTECH": "JTWC", "FCST_DTG": "2024-10-03 18:00:00", "RUN_DTG": "2024-10-04 09:35:10", "BASIN": "WP", "STMNR": 20, "CAT_ID": null, "CAT_DESC": null, "MSGID": "WTPN53 PGTW 032100", "VALIDTIME": "2024-09-30 06:00:00" }, "geometry": { "type": "Point", "coordinates": [ 121.199997, 20.5 ] } },
{ "type": "Feature", "properties": { "ID": 263898, "LAT": 26.0, "LON": 126.3, "VMAX": 15.0, "MSLP": 1013.8515, "RMAX": 40.0, "FSPD": 7.43754, "FDIR": 154.05191, "RENV": 500.0, "PENV": 1012.0, "VALIDT": 0, "DTG": "2024-09-25 12:00", "LATNOW": 23.0, "LONNOW": 120.9, "WINDNOW": 25.0, "DIRNOW": 2.0, "SPDNOW": 2.0, "TECH": "TRAK", "ADVNR": 27, "ATCFID": "WP202024", "NAME": "KRATHON", "FTECH": "JTWC", "FCST_DTG": "2024-10-03 18:00:00", "RUN_DTG": "2024-10-04 09:35:10", "BASIN": "WP", "STMNR": 20, "CAT_ID": null, "CAT_DESC": null, "MSGID": "WTPN53 PGTW 032100", "VALIDTIME": "2024-09-25 12:00:00" }, "geometry": { "type": "Point", "coordinates": [ 126.300003, 26.0 ] } },
{ "type": "Feature", "properties": { "ID": 263899, "LAT": 24.7, "LON": 127.0, "VMAX": 15.0, "MSLP": 1013.8515, "RMAX": 40.0, "FSPD": 5.65419, "FDIR": 155.48413, "RENV": 500.0, "PENV": 1012.0, "VALIDT": 0, "DTG": "2024-09-25 18:00", "LATNOW": 23.0, "LONNOW": 120.9, "WINDNOW": 25.0, "DIRNOW": 2.0, "SPDNOW": 2.0, "TECH": "TRAK", "ADVNR": 27, "ATCFID": "WP202024", "NAME": "KRATHON", "FTECH": "JTWC", "FCST_DTG": "2024-10-03 18:00:00", "RUN_DTG": "2024-10-04 09:35:10", "BASIN": "WP", "STMNR": 20, "CAT_ID": null, "CAT_DESC": null, "MSGID": "WTPN53 PGTW 032100", "VALIDTIME": "2024-09-25 18:00:00" }, "geometry": { "type": "Point", "coordinates": [ 127.0, 24.700001 ] } },
{ "type": "Feature", "properties": { "ID": 263900, "LAT": 23.7, "LON": 127.5, "VMAX": 15.0, "MSLP": 1013.8515, "RMAX": 40.0, "FSPD": 5.16613, "FDIR": 174.74854, "RENV": 500.0, "PENV": 1012.0, "VALIDT": 0, "DTG": "2024-09-26 00:00", "LATNOW": 23.0, "LONNOW": 120.9, "WINDNOW": 25.0, "DIRNOW": 2.0, "SPDNOW": 2.0, "TECH": "TRAK", "ADVNR": 27, "ATCFID": "WP202024", "NAME": "KRATHON", "FTECH": "JTWC", "FCST_DTG": "2024-10-03 18:00:00", "RUN_DTG": "2024-10-04 09:35:10", "BASIN": "WP", "STMNR": 20, "CAT_ID": null, "CAT_DESC": null, "MSGID": "WTPN53 PGTW 032100", "VALIDTIME": "2024-09-26 00:00:00" }, "geometry": { "type": "Point", "coordinates": [ 127.5, 23.700001 ] } },
{ "type": "Feature", "properties": { "ID": 263901, "LAT": 22.7, "LON": 127.6, "VMAX": 15.0, "MSLP": 1013.8515, "RMAX": 40.0, "FSPD": 4.14299, "FDIR": 186.59686, "RENV": 500.0, "PENV": 1012.0, "VALIDT": 0, "DTG": "2024-09-26 06:00", "LATNOW": 23.0, "LONNOW": 120.9, "WINDNOW": 25.0, "DIRNOW": 2.0, "SPDNOW": 2.0, "TECH": "TRAK", "ADVNR": 27, "ATCFID": "WP202024", "NAME": "KRATHON", "FTECH": "JTWC", "FCST_DTG": "2024-10-03 18:00:00", "RUN_DTG": "2024-10-04 09:35:10", "BASIN": "WP", "STMNR": 20, "CAT_ID": null, "CAT_DESC": null, "MSGID": "WTPN53 PGTW 032100", "VALIDTIME": "2024-09-26 06:00:00" }, "geometry": { "type": "Point", "coordinates": [ 127.599998, 22.700001 ] } },
{ "type": "Feature", "properties": { "ID": 263902, "LAT": 21.9, "LON": 127.5, "VMAX": 20.0, "MSLP": 1012.95825, "RMAX": 45.0, "FSPD": 2.50813, "FDIR": 214.87096, "RENV": 500.0, "PENV": 1012.0, "VALIDT": 0, "DTG": "2024-09-26 12:00", "LATNOW": 23.0, "LONNOW": 120.9, "WINDNOW": 25.0, "DIRNOW": 2.0, "SPDNOW": 2.0, "TECH": "TRAK", "ADVNR": 27, "ATCFID": "WP202024", "NAME": "KRATHON", "FTECH": "JTWC", "FCST_DTG": "2024-10-03 18:00:00", "RUN_DTG": "2024-10-04 09:35:10", "BASIN": "WP", "STMNR": 20, "CAT_ID": null, "CAT_DESC": null, "MSGID": "WTPN53 PGTW 032100", "VALIDTIME": "2024-09-26 12:00:00" }, "geometry": { "type": "Point", "coordinates": [ 127.5, 21.9 ] } },
{ "type": "Feature", "properties": { "ID": 263903, "LAT": 21.5, "LON": 127.2, "VMAX": 20.0, "MSLP": 1012.95825, "RMAX": 45.0, "FSPD": 3.51618, "FDIR": 222.98442, "RENV": 500.0, "PENV": 1012.0, "VALIDT": 0, "DTG": "2024-09-26 18:00", "LATNOW": 23.0, "LONNOW": 120.9, "WINDNOW": 25.0, "DIRNOW": 2.0, "SPDNOW": 2.0, "TECH": "TRAK", "ADVNR": 27, "ATCFID": "WP202024", "NAME": "KRATHON", "FTECH": "JTWC", "FCST_DTG": "2024-10-03 18:00:00", "RUN_DTG": "2024-10-04 09:35:10", "BASIN": "WP", "STMNR": 20, "CAT_ID": null, "CAT_DESC": null, "MSGID": "WTPN53 PGTW 032100", "VALIDTIME": "2024-09-26 18:00:00" }, "geometry": { "type": "Point", "coordinates": [ 127.199997, 21.5 ] } },
{ "type": "Feature", "properties": { "ID": 263904, "LAT": 21.0, "LON": 126.7, "VMAX": 20.0, "MSLP": 1012.95825, "RMAX": 45.0, "FSPD": 4.08359, "FDIR": 208.13368, "RENV": 500.0, "PENV": 1012.0, "VALIDT": 0, "DTG": "2024-09-27 00:00", "LATNOW": 23.0, "LONNOW": 120.9, "WINDNOW": 25.0, "DIRNOW": 2.0, "SPDNOW": 2.0, "TECH": "TRAK", "ADVNR": 27, "ATCFID": "WP202024", "NAME": "KRATHON", "FTECH": "JTWC", "FCST_DTG": "2024-10-03 18:00:00", "RUN_DTG": "2024-10-04 09:35:10", "BASIN": "WP", "STMNR": 20, "CAT_ID": null, "CAT_DESC": null, "MSGID": "WTPN53 PGTW 032100", "VALIDTIME": "2024-09-27 00:00:00" }, "geometry": { "type": "Point", "coordinates": [ 126.699997, 21.0 ] } },
{ "type": "Feature", "properties": { "ID": 263905, "LAT": 20.3, "LON": 126.3, "VMAX": 25.0, "MSLP": 1002.0, "RMAX": 40.0, "FSPD": 3.21762, "FDIR": 216.92548, "RENV": 210.0, "PENV": 1006.0, "VALIDT": 0, "DTG": "2024-09-27 06:00", "LATNOW": 23.0, "LONNOW": 120.9, "WINDNOW": 25.0, "DIRNOW": 2.0, "SPDNOW": 2.0, "TECH": "TRAK", "ADVNR": 27, "ATCFID": "WP202024", "NAME": "KRATHON", "FTECH": "JTWC", "FCST_DTG": "2024-10-03 18:00:00", "RUN_DTG": "2024-10-04 09:35:10", "BASIN": "WP", "STMNR": 20, "CAT_ID": null, "CAT_DESC": null, "MSGID": "WTPN53 PGTW 032100", "VALIDTIME": "2024-09-27 06:00:00" }, "geometry": { "type": "Point", "coordinates": [ 126.300003, 20.299999 ] } },
{ "type": "Feature", "properties": { "ID": 263906, "LAT": 19.8, "LON": 125.9, "VMAX": 30.0, "MSLP": 1002.0, "RMAX": 40.0, "FSPD": 3.72951, "FDIR": 195.07835, "RENV": 210.0, "PENV": 1006.0, "VALIDT": 0, "DTG": "2024-09-27 12:00", "LATNOW": 23.0, "LONNOW": 120.9, "WINDNOW": 25.0, "DIRNOW": 2.0, "SPDNOW": 2.0, "TECH": "TRAK", "ADVNR": 27, "ATCFID": "WP202024", "NAME": "KRATHON", "FTECH": "JTWC", "FCST_DTG": "2024-10-03 18:00:00", "RUN_DTG": "2024-10-04 09:35:10", "BASIN": "WP", "STMNR": 20, "CAT_ID": null, "CAT_DESC": null, "MSGID": "WTPN53 PGTW 032100", "VALIDTIME": "2024-09-27 12:00:00" }, "geometry": { "type": "Point", "coordinates": [ 125.900002, 19.799999 ] } },
{ "type": "Feature", "properties": { "ID": 263907, "LAT": 19.1, "LON": 125.7, "VMAX": 30.0, "MSLP": 1001.0, "RMAX": 40.0, "FSPD": 2.11456, "FDIR": 166.69202, "RENV": 240.0, "PENV": 1008.0, "VALIDT": 0, "DTG": "2024-09-27 18:00", "LATNOW": 23.0, "LONNOW": 120.9, "WINDNOW": 25.0, "DIRNOW": 2.0, "SPDNOW": 2.0, "TECH": "TRAK", "ADVNR": 27, "ATCFID": "WP202024", "NAME": "KRATHON", "FTECH": "JTWC", "FCST_DTG": "2024-10-03 18:00:00", "RUN_DTG": "2024-10-04 09:35:10", "BASIN": "WP", "STMNR": 20, "CAT_ID": null, "CAT_DESC": null, "MSGID": "WTPN53 PGTW 032100", "VALIDTIME": "2024-09-27 18:00:00" }, "geometry": { "type": "Point", "coordinates": [ 125.699997, 19.1 ] } },
{ "type": "Feature", "properties": { "ID": 263908, "LAT": 18.7, "LON": 125.8, "VMAX": 35.0, "MSLP": 1000.0, "RMAX": 35.0, "FSPD": 1.4176, "FDIR": 223.46443, "RENV": 260.0, "PENV": 1008.0, "VALIDT": 0, "DTG": "2024-09-28 00:00", "LATNOW": 23.0, "LONNOW": 120.9, "WINDNOW": 25.0, "DIRNOW": 2.0, "SPDNOW": 2.0, "TECH": "TRAK", "ADVNR": 27, "ATCFID": "WP202024", "NAME": "KRATHON", "FTECH": "JTWC", "FCST_DTG": "2024-10-03 18:00:00", "RUN_DTG": "2024-10-04 09:35:10", "BASIN": "WP", "STMNR": 20, "CAT_ID": null, "CAT_DESC": null, "MSGID": "WTPN53 PGTW 032100", "VALIDTIME": "2024-09-28 00:00:00" }, "geometry": { "type": "Point", "coordinates": [ 125.800003, 18.700001 ] } },
{ "type": "Feature", "properties": { "ID": 263909, "LAT": 18.5, "LON": 125.6, "VMAX": 35.0, "MSLP": 1000.0, "RMAX": 45.0, "FSPD": 0.48785, "FDIR": 269.99997, "RENV": 410.0, "PENV": 1008.0, "VALIDT": 0, "DTG": "2024-09-28 06:00", "LATNOW": 23.0, "LONNOW": 120.9, "WINDNOW": 25.0, "DIRNOW": 2.0, "SPDNOW": 2.0, "TECH": "TRAK", "ADVNR": 27, "ATCFID": "WP202024", "NAME": "KRATHON", "FTECH": "JTWC", "FCST_DTG": "2024-10-03 18:00:00", "RUN_DTG": "2024-10-04 09:35:10", "BASIN": "WP", "STMNR": 20, "CAT_ID": null, "CAT_DESC": null, "MSGID": "WTPN53 PGTW 032100", "VALIDTIME": "2024-09-28 06:00:00" }, "geometry": { "type": "Point", "coordinates": [ 125.599998, 18.5 ] } },
{ "type": "Feature", "properties": { "ID": 263910, "LAT": 18.5, "LON": 125.5, "VMAX": 40.0, "MSLP": 997.0, "RMAX": 45.0, "FSPD": 3.1011, "FDIR": 289.37704, "RENV": 300.0, "PENV": 1005.0, "VALIDT": 0, "DTG": "2024-09-28 12:00", "LATNOW": 23.0, "LONNOW": 120.9, "WINDNOW": 25.0, "DIRNOW": 2.0, "SPDNOW": 2.0, "TECH": "TRAK", "ADVNR": 27, "ATCFID": "WP202024", "NAME": "KRATHON", "FTECH": "JTWC", "FCST_DTG": "2024-10-03 18:00:00", "RUN_DTG": "2024-10-04 09:35:10", "BASIN": "WP", "STMNR": 20, "CAT_ID": null, "CAT_DESC": null, "MSGID": "WTPN53 PGTW 032100", "VALIDTIME": "2024-09-28 12:00:00" }, "geometry": { "type": "Point", "coordinates": [ 125.5, 18.5 ] } },
{ "type": "Feature", "properties": { "ID": 263911, "LAT": 18.7, "LON": 124.9, "VMAX": 50.0, "MSLP": 996.0, "RMAX": 40.0, "FSPD": 2.92371, "FDIR": 269.99997, "RENV": 310.0, "PENV": 1007.0, "VALIDT": 0, "DTG": "2024-09-28 18:00", "LATNOW": 23.0, "LONNOW": 120.9, "WINDNOW": 25.0, "DIRNOW": 2.0, "SPDNOW": 2.0, "TECH": "TRAK", "ADVNR": 27, "ATCFID": "WP202024", "NAME": "KRATHON", "FTECH": "JTWC", "FCST_DTG": "2024-10-03 18:00:00", "RUN_DTG": "2024-10-04 09:35:10", "BASIN": "WP", "STMNR": 20, "CAT_ID": null, "CAT_DESC": null, "MSGID": "WTPN53 PGTW 032100", "VALIDTIME": "2024-09-28 18:00:00" }, "geometry": { "type": "Point", "coordinates": [ 124.900002, 18.700001 ] } },
{ "type": "Feature", "properties": { "ID": 263912, "LAT": 18.7, "LON": 124.3, "VMAX": 60.0, "MSLP": 993.0, "RMAX": 35.0, "FSPD": 3.22556, "FDIR": 322.8872, "RENV": 390.0, "PENV": 1008.0, "VALIDT": 0, "DTG": "2024-09-29 00:00", "LATNOW": 23.0, "LONNOW": 120.9, "WINDNOW": 25.0, "DIRNOW": 2.0, "SPDNOW": 2.0, "TECH": "TRAK", "ADVNR": 27, "ATCFID": "WP202024", "NAME": "KRATHON", "FTECH": "JTWC", "FCST_DTG": "2024-10-03 18:00:00", "RUN_DTG": "2024-10-04 09:35:10", "BASIN": "WP", "STMNR": 20, "CAT_ID": null, "CAT_DESC": null, "MSGID": "WTPN53 PGTW 032100", "VALIDTIME": "2024-09-29 00:00:00" }, "geometry": { "type": "Point", "coordinates": [ 124.300003, 18.700001 ] } },
{ "type": "Feature", "properties": { "ID": 263918, "LAT": 20.5, "LON": 120.5, "VMAX": 125.0, "MSLP": 935.0, "RMAX": 17.0, "FSPD": 2.46287, "FDIR": 282.05676, "RENV": 330.0, "PENV": 1006.0, "VALIDT": 0, "DTG": "2024-09-30 12:00", "LATNOW": 23.0, "LONNOW": 120.9, "WINDNOW": 25.0, "DIRNOW": 2.0, "SPDNOW": 2.0, "TECH": "TRAK", "ADVNR": 27, "ATCFID": "WP202024", "NAME": "KRATHON", "FTECH": "JTWC", "FCST_DTG": "2024-10-03 18:00:00", "RUN_DTG": "2024-10-04 09:35:10", "BASIN": "WP", "STMNR": 20, "CAT_ID": null, "CAT_DESC": null, "MSGID": "WTPN53 PGTW 032100", "VALIDTIME": "2024-09-30 12:00:00" }, "geometry": { "type": "Point", "coordinates": [ 120.5, 20.5 ] } },
{ "type": "Feature", "properties": { "ID": 263919, "LAT": 20.6, "LON": 120.0, "VMAX": 130.0, "MSLP": 932.0, "RMAX": 15.0, "FSPD": 1.92621, "FDIR": 269.99997, "RENV": 330.0, "PENV": 1006.0, "VALIDT": 0, "DTG": "2024-09-30 18:00", "LATNOW": 23.0, "LONNOW": 120.9, "WINDNOW": 25.0, "DIRNOW": 2.0, "SPDNOW": 2.0, "TECH": "TRAK", "ADVNR": 27, "ATCFID": "WP202024", "NAME": "KRATHON", "FTECH": "JTWC", "FCST_DTG": "2024-10-03 18:00:00", "RUN_DTG": "2024-10-04 09:35:10", "BASIN": "WP", "STMNR": 20, "CAT_ID": null, "CAT_DESC": null, "MSGID": "WTPN53 PGTW 032100", "VALIDTIME": "2024-09-30 18:00:00" }, "geometry": { "type": "Point", "coordinates": [ 120.0, 20.6 ] } },
{ "type": "Feature", "properties": { "ID": 263920, "LAT": 20.6, "LON": 119.6, "VMAX": 130.0, "MSLP": 927.0, "RMAX": 12.0, "FSPD": 1.81867, "FDIR": 328.05994, "RENV": 340.0, "PENV": 1006.0, "VALIDT": 0, "DTG": "2024-10-01 00:00", "LATNOW": 23.0, "LONNOW": 120.9, "WINDNOW": 25.0, "DIRNOW": 2.0, "SPDNOW": 2.0, "TECH": "TRAK", "ADVNR": 27, "ATCFID": "WP202024", "NAME": "KRATHON", "FTECH": "JTWC", "FCST_DTG": "2024-10-03 18:00:00", "RUN_DTG": "2024-10-04 09:35:10", "BASIN": "WP", "STMNR": 20, "CAT_ID": null, "CAT_DESC": null, "MSGID": "WTPN53 PGTW 032100", "VALIDTIME": "2024-10-01 00:00:00" }, "geometry": { "type": "Point", "coordinates": [ 119.599998, 20.6 ] } },
{ "type": "Feature", "properties": { "ID": 263921, "LAT": 20.9, "LON": 119.4, "VMAX": 125.0, "MSLP": 927.0, "RMAX": 12.0, "FSPD": 2.113, "FDIR": 346.8713, "RENV": 295.0, "PENV": 1006.0, "VALIDT": 0, "DTG": "2024-10-01 06:00", "LATNOW": 23.0, "LONNOW": 120.9, "WINDNOW": 25.0, "DIRNOW": 2.0, "SPDNOW": 2.0, "TECH": "TRAK", "ADVNR": 27, "ATCFID": "WP202024", "NAME": "KRATHON", "FTECH": "JTWC", "FCST_DTG": "2024-10-03 18:00:00", "RUN_DTG": "2024-10-04 09:35:10", "BASIN": "WP", "STMNR": 20, "CAT_ID": null, "CAT_DESC": null, "MSGID": "WTPN53 PGTW 032100", "VALIDTIME": "2024-10-01 06:00:00" }, "geometry": { "type": "Point", "coordinates": [ 119.400002, 20.9 ] } },
{ "type": "Feature", "properties": { "ID": 263922, "LAT": 21.3, "LON": 119.3, "VMAX": 110.0, "MSLP": 931.0, "RMAX": 15.0, "FSPD": 1.13493, "FDIR": 335.03546, "RENV": 290.0, "PENV": 1006.0, "VALIDT": 0, "DTG": "2024-10-01 12:00", "LATNOW": 23.0, "LONNOW": 120.9, "WINDNOW": 25.0, "DIRNOW": 2.0, "SPDNOW": 2.0, "TECH": "TRAK", "ADVNR": 27, "ATCFID": "WP202024", "NAME": "KRATHON", "FTECH": "JTWC", "FCST_DTG": "2024-10-03 18:00:00", "RUN_DTG": "2024-10-04 09:35:10", "BASIN": "WP", "STMNR": 20, "CAT_ID": null, "CAT_DESC": null, "MSGID": "WTPN53 PGTW 032100", "VALIDTIME": "2024-10-01 12:00:00" }, "geometry": { "type": "Point", "coordinates": [ 119.300003, 21.299999 ] } },
{ "type": "Feature", "properties": { "ID": 263923, "LAT": 21.5, "LON": 119.2, "VMAX": 105.0, "MSLP": 943.0, "RMAX": 15.0, "FSPD": 0.47868, "FDIR": 90.0, "RENV": 230.0, "PENV": 1006.0, "VALIDT": 0, "DTG": "2024-10-01 18:00", "LATNOW": 23.0, "LONNOW": 120.9, "WINDNOW": 25.0, "DIRNOW": 2.0, "SPDNOW": 2.0, "TECH": "TRAK", "ADVNR": 27, "ATCFID": "WP202024", "NAME": "KRATHON", "FTECH": "JTWC", "FCST_DTG": "2024-10-03 18:00:00", "RUN_DTG": "2024-10-04 09:35:10", "BASIN": "WP", "STMNR": 20, "CAT_ID": null, "CAT_DESC": null, "MSGID": "WTPN53 PGTW 032100", "VALIDTIME": "2024-10-01 18:00:00" }, "geometry": { "type": "Point", "coordinates": [ 119.199997, 21.5 ] } },
{ "type": "Feature", "properties": { "ID": 263924, "LAT": 21.5, "LON": 119.3, "VMAX": 100.0, "MSLP": 950.0, "RMAX": 15.0, "FSPD": 2.11256, "FDIR": 13.07675, "RENV": 230.0, "PENV": 1006.0, "VALIDT": 0, "DTG": "2024-10-02 00:00", "LATNOW": 23.0, "LONNOW": 120.9, "WINDNOW": 25.0, "DIRNOW": 2.0, "SPDNOW": 2.0, "TECH": "TRAK", "ADVNR": 27, "ATCFID": "WP202024", "NAME": "KRATHON", "FTECH": "JTWC", "FCST_DTG": "2024-10-03 18:00:00", "RUN_DTG": "2024-10-04 09:35:10", "BASIN": "WP", "STMNR": 20, "CAT_ID": null, "CAT_DESC": null, "MSGID": "WTPN53 PGTW 032100", "VALIDTIME": "2024-10-02 00:00:00" }, "geometry": { "type": "Point", "coordinates": [ 119.300003, 21.5 ] } },
{ "type": "Feature", "properties": { "ID": 263925, "LAT": 21.9, "LON": 119.4, "VMAX": 100.0, "MSLP": 956.0, "RMAX": 15.0, "FSPD": 0.70166, "FDIR": 42.8457, "RENV": 210.0, "PENV": 1008.0, "VALIDT": 0, "DTG": "2024-10-02 06:00", "LATNOW": 23.0, "LONNOW": 120.9, "WINDNOW": 25.0, "DIRNOW": 2.0, "SPDNOW": 2.0, "TECH": "TRAK", "ADVNR": 27, "ATCFID": "WP202024", "NAME": "KRATHON", "FTECH": "JTWC", "FCST_DTG": "2024-10-03 18:00:00", "RUN_DTG": "2024-10-04 09:35:10", "BASIN": "WP", "STMNR": 20, "CAT_ID": null, "CAT_DESC": null, "MSGID": "WTPN53 PGTW 032100", "VALIDTIME": "2024-10-02 06:00:00" }, "geometry": { "type": "Point", "coordinates": [ 119.400002, 21.9 ] } },
{ "type": "Feature", "properties": { "ID": 263926, "LAT": 22.0, "LON": 119.5, "VMAX": 100.0, "MSLP": 957.0, "RMAX": 15.0, "FSPD": 1.40263, "FDIR": 42.81543, "RENV": 200.0, "PENV": 1010.0, "VALIDT": 0, "DTG": "2024-10-02 12:00", "LATNOW": 23.0, "LONNOW": 120.9, "WINDNOW": 25.0, "DIRNOW": 2.0, "SPDNOW": 2.0, "TECH": "TRAK", "ADVNR": 27, "ATCFID": "WP202024", "NAME": "KRATHON", "FTECH": "JTWC", "FCST_DTG": "2024-10-03 18:00:00", "RUN_DTG": "2024-10-04 09:35:10", "BASIN": "WP", "STMNR": 20, "CAT_ID": null, "CAT_DESC": null, "MSGID": "WTPN53 PGTW 032100", "VALIDTIME": "2024-10-02 12:00:00" }, "geometry": { "type": "Point", "coordinates": [ 119.5, 22.0 ] } },
{ "type": "Feature", "properties": { "ID": 263927, "LAT": 22.2, "LON": 119.7, "VMAX": 90.0, "MSLP": 957.0, "RMAX": 15.0, "FSPD": 1.75999, "FDIR": 54.22552, "RENV": 170.0, "PENV": 1008.0, "VALIDT": 0, "DTG": "2024-10-02 18:00", "LATNOW": 23.0, "LONNOW": 120.9, "WINDNOW": 25.0, "DIRNOW": 2.0, "SPDNOW": 2.0, "TECH": "TRAK", "ADVNR": 27, "ATCFID": "WP202024", "NAME": "KRATHON", "FTECH": "JTWC", "FCST_DTG": "2024-10-03 18:00:00", "RUN_DTG": "2024-10-04 09:35:10", "BASIN": "WP", "STMNR": 20, "CAT_ID": null, "CAT_DESC": null, "MSGID": "WTPN53 PGTW 032100", "VALIDTIME": "2024-10-02 18:00:00" }, "geometry": { "type": "Point", "coordinates": [ 119.699997, 22.200001 ] } },
{ "type": "Feature", "properties": { "ID": 263928, "LAT": 22.4, "LON": 120.0, "VMAX": 75.0, "MSLP": 960.0, "RMAX": 5.0, "FSPD": 2.16171, "FDIR": 61.57791, "RENV": 180.0, "PENV": 1006.0, "VALIDT": 0, "DTG": "2024-10-03 00:00", "LATNOW": 23.0, "LONNOW": 120.9, "WINDNOW": 25.0, "DIRNOW": 2.0, "SPDNOW": 2.0, "TECH": "TRAK", "ADVNR": 27, "ATCFID": "WP202024", "NAME": "KRATHON", "FTECH": "JTWC", "FCST_DTG": "2024-10-03 18:00:00", "RUN_DTG": "2024-10-04 09:35:10", "BASIN": "WP", "STMNR": 20, "CAT_ID": null, "CAT_DESC": null, "MSGID": "WTPN53 PGTW 032100", "VALIDTIME": "2024-10-03 00:00:00" }, "geometry": { "type": "Point", "coordinates": [ 120.0, 22.4 ] } },
{ "type": "Feature", "properties": { "ID": 263929, "LAT": 22.6, "LON": 120.4, "VMAX": 65.0, "MSLP": 965.0, "RMAX": 5.0, "FSPD": 1.51434, "FDIR": 70.14041, "RENV": 175.0, "PENV": 1005.0, "VALIDT": 0, "DTG": "2024-10-03 06:00", "LATNOW": 23.0, "LONNOW": 120.9, "WINDNOW": 25.0, "DIRNOW": 2.0, "SPDNOW": 2.0, "TECH": "TRAK", "ADVNR": 27, "ATCFID": "WP202024", "NAME": "KRATHON", "FTECH": "JTWC", "FCST_DTG": "2024-10-03 18:00:00", "RUN_DTG": "2024-10-04 09:35:10", "BASIN": "WP", "STMNR": 20, "CAT_ID": null, "CAT_DESC": null, "MSGID": "WTPN53 PGTW 032100", "VALIDTIME": "2024-10-03 06:00:00" }, "geometry": { "type": "Point", "coordinates": [ 120.400002, 22.6 ] } },
{ "type": "Feature", "properties": { "ID": 263930, "LAT": 22.7, "LON": 120.7, "VMAX": 45.0, "MSLP": 975.0, "RMAX": 15.0, "FSPD": 1.81132, "FDIR": 31.56512, "RENV": 165.0, "PENV": 1008.0, "VALIDT": 0, "DTG": "2024-10-03 12:00", "LATNOW": 23.0, "LONNOW": 120.9, "WINDNOW": 25.0, "DIRNOW": 2.0, "SPDNOW": 2.0, "TECH": "TRAK", "ADVNR": 27, "ATCFID": "WP202024", "NAME": "KRATHON", "FTECH": "JTWC", "FCST_DTG": "2024-10-03 18:00:00", "RUN_DTG": "2024-10-04 09:35:10", "BASIN": "WP", "STMNR": 20, "CAT_ID": null, "CAT_DESC": null, "MSGID": "WTPN53 PGTW 032100", "VALIDTIME": "2024-10-03 12:00:00" }, "geometry": { "type": "Point", "coordinates": [ 120.699997, 22.700001 ] } },
{ "type": "Feature", "properties": { "ID": 263931, "LAT": 23.0, "LON": 120.9, "VMAX": 25.0, "MSLP": 999.0, "RMAX": 20.0, "FSPD": 1.54333, "FDIR": 360.0, "RENV": 90.0, "PENV": 1012.0, "VALIDT": 0, "DTG": "2024-10-03 18:00", "LATNOW": 23.0, "LONNOW": 120.9, "WINDNOW": 25.0, "DIRNOW": 2.0, "SPDNOW": 2.0, "TECH": "TRAK", "ADVNR": 27, "ATCFID": "WP202024", "NAME": "KRATHON", "FTECH": "JTWC", "FCST_DTG": "2024-10-03 18:00:00", "RUN_DTG": "2024-10-04 09:35:10", "BASIN": "WP", "STMNR": 20, "CAT_ID": null, "CAT_DESC": null, "MSGID": "WTPN53 PGTW 032100", "VALIDTIME": "2024-10-03 18:00:00" }, "geometry": { "type": "Point", "coordinates": [ 120.900002, 23.0 ] } },
{ "type": "Feature", "properties": { "ID": 263932, "LAT": 23.6, "LON": 120.9, "VMAX": 20.0, "MSLP": 1012.95825, "RMAX": 24.31892, "FSPD": 0.97695, "FDIR": 285.26547, "RENV": 250.0, "PENV": 1012.0, "VALIDT": 12, "DTG": "2024-10-04 06:00", "LATNOW": 23.0, "LONNOW": 120.9, "WINDNOW": 25.0, "DIRNOW": 2.0, "SPDNOW": 2.0, "TECH": "FCST", "ADVNR": 27, "ATCFID": "WP202024", "NAME": "KRATHON", "FTECH": "JTWC", "FCST_DTG": "2024-10-03 18:00:00", "RUN_DTG": "2024-10-04 09:35:10", "BASIN": "WP", "STMNR": 20, "CAT_ID": null, "CAT_DESC": null, "MSGID": "WTPN53 PGTW 032100", "VALIDTIME": "2024-10-04 06:00:00" }, "geometry": { "type": "Point", "coordinates": [ 120.900002, 23.6 ] } },
{ "type": "Feature", "properties": { "ID": 263933, "LAT": 23.7, "LON": 120.5, "VMAX": 15.0, "MSLP": 1013.8515, "RMAX": 21.61681, "FSPD": 0.97695, "FDIR": 285.26547, "RENV": 250.0, "PENV": 1012.0, "VALIDT": 24, "DTG": "2024-10-04 18:00", "LATNOW": 23.0, "LONNOW": 120.9, "WINDNOW": 25.0, "DIRNOW": 2.0, "SPDNOW": 2.0, "TECH": "FCST", "ADVNR": 27, "ATCFID": "WP202024", "NAME": "KRATHON", "FTECH": "JTWC", "FCST_DTG": "2024-10-03 18:00:00", "RUN_DTG": "2024-10-04 09:35:10", "BASIN": "WP", "STMNR": 20, "CAT_ID": null, "CAT_DESC": null, "MSGID": "WTPN53 PGTW 032100", "VALIDTIME": "2024-10-04 18:00:00" }, "geometry": { "type": "Point", "coordinates": [ 120.5, 23.700001 ] } },
{ "type": "Feature", "properties": { "ID": 263931, "LAT": 23.0, "LON": 120.9, "VMAX": 25.0, "MSLP": 999.0, "RMAX": 20.0, "FSPD": 1.54333, "FDIR": 360.0, "RENV": 90.0, "PENV": 1012.0, "VALIDT": 0, "DTG": "2024-10-03 18:00", "LATNOW": 23.0, "LONNOW": 120.9, "WINDNOW": 25.0, "DIRNOW": 2.0, "SPDNOW": 2.0, "TECH": "TRAK", "ADVNR": 27, "ATCFID": "WP202024", "NAME": "KRATHON", "FTECH": "JTWC", "FCST_DTG": "2024-10-03 18:00:00", "RUN_DTG": "2024-10-04 09:35:10", "BASIN": "WP", "STMNR": 20, "CAT_ID": null, "CAT_DESC": null, "MSGID": "WTPN53 PGTW 032100", "VALIDTIME": "2024-10-03 18:00:00" }, "geometry": { "type": "LineString", "coordinates": [ [ 126.3, 26.0 ], [ 127.0, 24.7 ], [ 127.5, 23.7 ], [ 127.6, 22.7 ], [ 127.5, 21.9 ], [ 127.2, 21.5 ], [ 126.7, 21.0 ], [ 126.3, 20.3 ], [ 125.9, 19.8 ], [ 125.7, 19.1 ], [ 125.8, 18.7 ], [ 125.6, 18.5 ], [ 125.5, 18.5 ], [ 124.9, 18.7 ], [ 124.3, 18.7 ], [ 123.9, 19.2 ], [ 123.1, 19.7 ], [ 122.3, 20.0 ], [ 122.0, 20.1 ], [ 121.2, 20.5 ], [ 120.5, 20.5 ], [ 120.0, 20.6 ], [ 119.6, 20.6 ], [ 119.4, 20.9 ], [ 119.3, 21.3 ], [ 119.2, 21.5 ], [ 119.3, 21.5 ], [ 119.4, 21.9 ], [ 119.5, 22.0 ], [ 119.7, 22.2 ], [ 120.0, 22.4 ], [ 120.4, 22.6 ], [ 120.7, 22.7 ], [ 120.9, 23.0 ] ] } },
{ "type": "Feature", "properties": { "ID": 263933, "LAT": 23.7, "LON": 120.5, "VMAX": 15.0, "MSLP": 1013.8515, "RMAX": 21.61681, "FSPD": 0.97695, "FDIR": 285.26547, "RENV": 250.0, "PENV": 1012.0, "VALIDT": 24, "DTG": "2024-10-04 18:00", "LATNOW": 23.0, "LONNOW": 120.9, "WINDNOW": 25.0, "DIRNOW": 2.0, "SPDNOW": 2.0, "TECH": "FCST", "ADVNR": 27, "ATCFID": "WP202024", "NAME": "KRATHON", "FTECH": "JTWC", "FCST_DTG": "2024-10-03 18:00:00", "RUN_DTG": "2024-10-04 09:35:10", "BASIN": "WP", "STMNR": 20, "CAT_ID": null, "CAT_DESC": null, "MSGID": "WTPN53 PGTW 032100", "VALIDTIME": "2024-10-04 18:00:00" }, "geometry": { "type": "LineString", "coordinates": [ [ 120.9, 23.0 ], [ 120.9, 23.6 ], [ 120.5, 23.7 ] ] } }
]
}
