{
"type": "FeatureCollection",
"crs": { "type": "name", "properties": { "name": "urn:ogc:def:crs:OGC:1.3:CRS84" } },
"features": [
{ "type": "Feature", "properties": { "ID": 9377, "LAT": 20.5, "LON": 125.7, "VMAX": 15.0, "MSLP": 1013.8515, "RMAX": 40.0, "FSPD": 4.60718, "FDIR": 250.42842, "RENV": 500.0, "PENV": 1012.0, "VALIDT": 0, "DTG": "2025-07-21 12:00", "LATNOW": 31.5, "LONNOW": 119.6, "WINDNOW": 30.0, "DIRNOW": 2.0, "SPDNOW": 2.0, "TECH": "TRAK", "ADVNR": 31, "ATCFID": "WP112025", "NAME": "CO-MAY", "FTECH": "JTWC", "FCST_DTG": "2025-07-30 12:00:00", "RUN_DTG": "2025-07-31 16:37:39", "BASIN": "WP", "STMNR": 11, "CAT_ID": null, "CAT_DESC": null, "MSGID": "WTPN53 PGTW 301500", "VALIDTIME": "2025-07-21 12:00:00" }, "geometry": { "type": "Point", "coordinates": [ 125.699997, 20.5 ] } },
{ "type": "Feature", "properties": { "ID": 9378, "LAT": 20.2, "LON": 124.8, "VMAX": 15.0, "MSLP": 1013.8515, "RMAX": 40.0, "FSPD": 4.6151, "FDIR": 250.46327, "RENV": 500.0, "PENV": 1012.0, "VALIDT": 0, "DTG": "2025-07-21 18:00", "LATNOW": 31.5, "LONNOW": 119.6, "WINDNOW": 30.0, "DIRNOW": 2.0, "SPDNOW": 2.0, "TECH": "TRAK", "ADVNR": 31, "ATCFID": "WP112025", "NAME": "CO-MAY", "FTECH": "JTWC", "FCST_DTG": "2025-07-30 12:00:00", "RUN_DTG": "2025-07-31 16:37:39", "BASIN": "WP", "STMNR": 11, "CAT_ID": null, "CAT_DESC": null, "MSGID": "WTPN53 PGTW 301500", "VALIDTIME": "2025-07-21 18:00:00" }, "geometry": { "type": "Point", "coordinates": [ 124.800003, 20.200001 ] } },
{ "type": "Feature", "properties": { "ID": 9379, "LAT": 19.9, "LON": 123.9, "VMAX": 15.0, "MSLP": 1013.8515, "RMAX": 40.0, "FSPD": 3.96598, "FDIR": 238.74437, "RENV": 500.0, "PENV": 1012.0, "VALIDT": 0, "DTG": "2025-07-22 00:00", "LATNOW": 31.5, "LONNOW": 119.6, "WINDNOW": 30.0, "DIRNOW": 2.0, "SPDNOW": 2.0, "TECH": "TRAK", "ADVNR": 31, "ATCFID": "WP112025", "NAME": "CO-MAY", "FTECH": "JTWC", "FCST_DTG": "2025-07-30 12:00:00", "RUN_DTG": "2025-07-31 16:37:39", "BASIN": "WP", "STMNR": 11, "CAT_ID": null, "CAT_DESC": null, "MSGID": "WTPN53 PGTW 301500", "VALIDTIME": "2025-07-22 00:00:00" }, "geometry": { "type": "Point", "coordinates": [ 123.900002, 19.9 ] } },
{ "type": "Feature", "properties": { "ID": 9380, "LAT": 19.5, "LON": 123.2, "VMAX": 20.0, "MSLP": 1012.95825, "RMAX": 45.0, "FSPD": 3.91462, "FDIR": 262.4485, "RENV": 500.0, "PENV": 1012.0, "VALIDT": 0, "DTG": "2025-07-22 06:00", "LATNOW": 31.5, "LONNOW": 119.6, "WINDNOW": 30.0, "DIRNOW": 2.0, "SPDNOW": 2.0, "TECH": "TRAK", "ADVNR": 31, "ATCFID": "WP112025", "NAME": "CO-MAY", "FTECH": "JTWC", "FCST_DTG": "2025-07-30 12:00:00", "RUN_DTG": "2025-07-31 16:37:39", "BASIN": "WP", "STMNR": 11, "CAT_ID": null, "CAT_DESC": null, "MSGID": "WTPN53 PGTW 301500", "VALIDTIME": "2025-07-22 06:00:00" }, "geometry": { "type": "Point", "coordinates": [ 123.199997, 19.5 ] } },
{ "type": "Feature", "properties": { "ID": 9381, "LAT": 19.4, "LON": 122.4, "VMAX": 20.0, "MSLP": 1012.95825, "RMAX": 45.0, "FSPD": 4.88103, "FDIR": 263.94995, "RENV": 500.0, "PENV": 1012.0, "VALIDT": 0, "DTG": "2025-07-22 12:00", "LATNOW": 31.5, "LONNOW": 119.6, "WINDNOW": 30.0, "DIRNOW": 2.0, "SPDNOW": 2.0, "TECH": "TRAK", "ADVNR": 31, "ATCFID": "WP112025", "NAME": "CO-MAY", "FTECH": "JTWC", "FCST_DTG": "2025-07-30 12:00:00", "RUN_DTG": "2025-07-31 16:37:39", "BASIN": "WP", "STMNR": 11, "CAT_ID": null, "CAT_DESC": null, "MSGID": "WTPN53 PGTW 301500", "VALIDTIME": "2025-07-22 12:00:00" }, "geometry": { "type": "Point", "coordinates": [ 122.400002, 19.4 ] } },
{ "type": "Feature", "properties": { "ID": 9382, "LAT": 19.3, "LON": 121.4, "VMAX": 25.0, "MSLP": 1011.80975, "RMAX": 45.0, "FSPD": 5.07637, "FDIR": 239.55539, "RENV": 500.0, "PENV": 1012.0, "VALIDT": 0, "DTG": "2025-07-22 18:00", "LATNOW": 31.5, "LONNOW": 119.6, "WINDNOW": 30.0, "DIRNOW": 2.0, "SPDNOW": 2.0, "TECH": "TRAK", "ADVNR": 31, "ATCFID": "WP112025", "NAME": "CO-MAY", "FTECH": "JTWC", "FCST_DTG": "2025-07-30 12:00:00", "RUN_DTG": "2025-07-31 16:37:39", "BASIN": "WP", "STMNR": 11, "CAT_ID": null, "CAT_DESC": null, "MSGID": "WTPN53 PGTW 301500", "VALIDTIME": "2025-07-22 18:00:00" }, "geometry": { "type": "Point", "coordinates": [ 121.400002, 19.299999 ] } },
{ "type": "Feature", "properties": { "ID": 9383, "LAT": 18.8, "LON": 120.5, "VMAX": 30.0, "MSLP": 997.0, "RMAX": 30.0, "FSPD": 6.38351, "FDIR": 223.50565, "RENV": 150.0, "PENV": 1004.0, "VALIDT": 0, "DTG": "2025-07-23 00:00", "LATNOW": 31.5, "LONNOW": 119.6, "WINDNOW": 30.0, "DIRNOW": 2.0, "SPDNOW": 2.0, "TECH": "TRAK", "ADVNR": 31, "ATCFID": "WP112025", "NAME": "CO-MAY", "FTECH": "JTWC", "FCST_DTG": "2025-07-30 12:00:00", "RUN_DTG": "2025-07-31 16:37:39", "BASIN": "WP", "STMNR": 11, "CAT_ID": null, "CAT_DESC": null, "MSGID": "WTPN53 PGTW 301500", "VALIDTIME": "2025-07-23 00:00:00" }, "geometry": { "type": "Point", "coordinates": [ 120.5, 18.799999 ] } },
{ "type": "Feature", "properties": { "ID": 9384, "LAT": 17.9, "LON": 119.6, "VMAX": 35.0, "MSLP": 997.0, "RMAX": 30.0, "FSPD": 3.91632, "FDIR": 269.99997, "RENV": 150.0, "PENV": 1004.0, "VALIDT": 0, "DTG": "2025-07-23 06:00", "LATNOW": 31.5, "LONNOW": 119.6, "WINDNOW": 30.0, "DIRNOW": 2.0, "SPDNOW": 2.0, "TECH": "TRAK", "ADVNR": 31, "ATCFID": "WP112025", "NAME": "CO-MAY", "FTECH": "JTWC", "FCST_DTG": "2025-07-30 12:00:00", "RUN_DTG": "2025-07-31 16:37:39", "BASIN": "WP", "STMNR": 11, "CAT_ID": null, "CAT_DESC": null, "MSGID": "WTPN53 PGTW 301500", "VALIDTIME": "2025-07-23 06:00:00" }, "geometry": { "type": "Point", "coordinates": [ 119.599998, 17.9 ] } },
{ "type": "Feature", "properties": { "ID": 9385, "LAT": 17.9, "LON": 118.8, "VMAX": 40.0, "MSLP": 997.0, "RMAX": 30.0, "FSPD": 6.47214, "FDIR": 217.35788, "RENV": 150.0, "PENV": 1004.0, "VALIDT": 0, "DTG": "2025-07-23 12:00", "LATNOW": 31.5, "LONNOW": 119.6, "WINDNOW": 30.0, "DIRNOW": 2.0, "SPDNOW": 2.0, "TECH": "TRAK", "ADVNR": 31, "ATCFID": "WP112025", "NAME": "CO-MAY", "FTECH": "JTWC", "FCST_DTG": "2025-07-30 12:00:00", "RUN_DTG": "2025-07-31 16:37:39", "BASIN": "WP", "STMNR": 11, "CAT_ID": null, "CAT_DESC": null, "MSGID": "WTPN53 PGTW 301500", "VALIDTIME": "2025-07-23 12:00:00" }, "geometry": { "type": "Point", "coordinates": [ 118.800003, 17.9 ] } },
{ "type": "Feature", "properties": { "ID": 9386, "LAT": 16.9, "LON": 118.0, "VMAX": 60.0, "MSLP": 992.0, "RMAX": 30.0, "FSPD": 4.66073, "FDIR": 140.59235, "RENV": 105.0, "PENV": 1000.0, "VALIDT": 0, "DTG": "2025-07-23 18:00", "LATNOW": 31.5, "LONNOW": 119.6, "WINDNOW": 30.0, "DIRNOW": 2.0, "SPDNOW": 2.0, "TECH": "TRAK", "ADVNR": 31, "ATCFID": "WP112025", "NAME": "CO-MAY", "FTECH": "JTWC", "FCST_DTG": "2025-07-30 12:00:00", "RUN_DTG": "2025-07-31 16:37:39", "BASIN": "WP", "STMNR": 11, "CAT_ID": null, "CAT_DESC": null, "MSGID": "WTPN53 PGTW 301500", "VALIDTIME": "2025-07-23 18:00:00" }, "geometry": { "type": "Point", "coordinates": [ 118.0, 16.9 ] } },
{ "type": "Feature", "properties": { "ID": 9387, "LAT": 16.2, "LON": 118.6, "VMAX": 70.0, "MSLP": 981.0, "RMAX": 25.0, "FSPD": 3.7893, "FDIR": 114.03461, "RENV": 100.0, "PENV": 999.0, "VALIDT": 0, "DTG": "2025-07-24 00:00", "LATNOW": 31.5, "LONNOW": 119.6, "WINDNOW": 30.0, "DIRNOW": 2.0, "SPDNOW": 2.0, "TECH": "TRAK", "ADVNR": 31, "ATCFID": "WP112025", "NAME": "CO-MAY", "FTECH": "JTWC", "FCST_DTG": "2025-07-30 12:00:00", "RUN_DTG": "2025-07-31 16:37:39", "BASIN": "WP", "STMNR": 11, "CAT_ID": null, "CAT_DESC": null, "MSGID": "WTPN53 PGTW 301500", "VALIDTIME": "2025-07-24 00:00:00" }, "geometry": { "type": "Point", "coordinates": [ 118.599998, 16.200001 ] } },
{ "type": "Feature", "properties": { "ID": 9388, "LAT": 15.9, "LON": 119.3, "VMAX": 70.0, "MSLP": 975.0, "RMAX": 20.0, "FSPD": 1.42716, "FDIR": 43.86792, "RENV": 125.0, "PENV": 1000.0, "VALIDT": 0, "DTG": "2025-07-24 06:00", "LATNOW": 31.5, "LONNOW": 119.6, "WINDNOW": 30.0, "DIRNOW": 2.0, "SPDNOW": 2.0, "TECH": "TRAK", "ADVNR": 31, "ATCFID": "WP112025", "NAME": "CO-MAY", "FTECH": "JTWC", "FCST_DTG": "2025-07-30 12:00:00", "RUN_DTG": "2025-07-31 16:37:39", "BASIN": "WP", "STMNR": 11, "CAT_ID": null, "CAT_DESC": null, "MSGID": "WTPN53 PGTW 301500", "VALIDTIME": "2025-07-24 06:00:00" }, "geometry": { "type": "Point", "coordinates": [ 119.300003, 15.9 ] } },
{ "type": "Feature", "properties": { "ID": 9389, "LAT": 16.1, "LON": 119.5, "VMAX": 65.0, "MSLP": 974.0, "RMAX": 15.0, "FSPD": 4.63267, "FDIR": 48.21921, "RENV": 125.0, "PENV": 1000.0, "VALIDT": 0, "DTG": "2025-07-24 12:00", "LATNOW": 31.5, "LONNOW": 119.6, "WINDNOW": 30.0, "DIRNOW": 2.0, "SPDNOW": 2.0, "TECH": "TRAK", "ADVNR": 31, "ATCFID": "WP112025", "NAME": "CO-MAY", "FTECH": "JTWC", "FCST_DTG": "2025-07-30 12:00:00", "RUN_DTG": "2025-07-31 16:37:39", "BASIN": "WP", "STMNR": 11, "CAT_ID": null, "CAT_DESC": null, "MSGID": "WTPN53 PGTW 301500", "VALIDTIME": "2025-07-24 12:00:00" }, "geometry": { "type": "Point", "coordinates": [ 119.5, 16.1 ] } },
{ "type": "Feature", "properties": { "ID": 9390, "LAT": 16.7, "LON": 120.2, "VMAX": 60.0, "MSLP": 976.0, "RMAX": 15.0, "FSPD": 4.2729, "FDIR": 43.74847, "RENV": 135.0, "PENV": 999.0, "VALIDT": 0, "DTG": "2025-07-24 18:00", "LATNOW": 31.5, "LONNOW": 119.6, "WINDNOW": 30.0, "DIRNOW": 2.0, "SPDNOW": 2.0, "TECH": "TRAK", "ADVNR": 31, "ATCFID": "WP112025", "NAME": "CO-MAY", "FTECH": "JTWC", "FCST_DTG": "2025-07-30 12:00:00", "RUN_DTG": "2025-07-31 16:37:39", "BASIN": "WP", "STMNR": 11, "CAT_ID": null, "CAT_DESC": null, "MSGID": "WTPN53 PGTW 301500", "VALIDTIME": "2025-07-24 18:00:00" }, "geometry": { "type": "Point", "coordinates": [ 120.199997, 16.700001 ] } },
{ "type": "Feature", "properties": { "ID": 9391, "LAT": 16.94, "LON": 120.44, "VMAX": 60.0, "MSLP": 976.0, "RMAX": 15.0, "FSPD": 4.26959, "FDIR": 43.70224, "RENV": 135.0, "PENV": 999.0, "VALIDT": 0, "DTG": "2025-07-24 20:00", "LATNOW": 31.5, "LONNOW": 119.6, "WINDNOW": 30.0, "DIRNOW": 2.0, "SPDNOW": 2.0, "TECH": "TRAK", "ADVNR": 31, "ATCFID": "WP112025", "NAME": "CO-MAY", "FTECH": "JTWC", "FCST_DTG": "2025-07-30 12:00:00", "RUN_DTG": "2025-07-31 16:37:39", "BASIN": "WP", "STMNR": 11, "CAT_ID": null, "CAT_DESC": null, "MSGID": "WTPN53 PGTW 301500", "VALIDTIME": "2025-07-24 20:00:00" }, "geometry": { "type": "Point", "coordinates": [ 120.440002, 16.940001 ] } },
{ "type": "Feature", "properties": { "ID": 9392, "LAT": 17.3, "LON": 120.8, "VMAX": 45.0, "MSLP": 980.0, "RMAX": 15.0, "FSPD": 10.30048, "FDIR": 2.7178, "RENV": 130.0, "PENV": 996.0, "VALIDT": 0, "DTG": "2025-07-25 00:00", "LATNOW": 31.5, "LONNOW": 119.6, "WINDNOW": 30.0, "DIRNOW": 2.0, "SPDNOW": 2.0, "TECH": "TRAK", "ADVNR": 31, "ATCFID": "WP112025", "NAME": "CO-MAY", "FTECH": "JTWC", "FCST_DTG": "2025-07-30 12:00:00", "RUN_DTG": "2025-07-31 16:37:39", "BASIN": "WP", "STMNR": 11, "CAT_ID": null, "CAT_DESC": null, "MSGID": "WTPN53 PGTW 301500", "VALIDTIME": "2025-07-25 00:00:00" }, "geometry": { "type": "Point", "coordinates": [ 120.800003, 17.299999 ] } },
{ "type": "Feature", "properties": { "ID": 9393, "LAT": 19.3, "LON": 120.9, "VMAX": 45.0, "MSLP": 989.0, "RMAX": 15.0, "FSPD": 18.69726, "FDIR": 42.02182, "RENV": 120.0, "PENV": 997.0, "VALIDT": 0, "DTG": "2025-07-25 06:00", "LATNOW": 31.5, "LONNOW": 119.6, "WINDNOW": 30.0, "DIRNOW": 2.0, "SPDNOW": 2.0, "TECH": "TRAK", "ADVNR": 31, "ATCFID": "WP112025", "NAME": "CO-MAY", "FTECH": "JTWC", "FCST_DTG": "2025-07-30 12:00:00", "RUN_DTG": "2025-07-31 16:37:39", "BASIN": "WP", "STMNR": 11, "CAT_ID": null, "CAT_DESC": null, "MSGID": "WTPN53 PGTW 301500", "VALIDTIME": "2025-07-25 06:00:00" }, "geometry": { "type": "Point", "coordinates": [ 120.900002, 19.299999 ] } },
{ "type": "Feature", "properties": { "ID": 9394, "LAT": 22.0, "LON": 123.5, "VMAX": 35.0, "MSLP": 986.0, "RMAX": 15.0, "FSPD": 10.57515, "FDIR": 38.89072, "RENV": 140.0, "PENV": 996.0, "VALIDT": 0, "DTG": "2025-07-25 12:00", "LATNOW": 31.5, "LONNOW": 119.6, "WINDNOW": 30.0, "DIRNOW": 2.0, "SPDNOW": 2.0, "TECH": "TRAK", "ADVNR": 31, "ATCFID": "WP112025", "NAME": "CO-MAY", "FTECH": "JTWC", "FCST_DTG": "2025-07-30 12:00:00", "RUN_DTG": "2025-07-31 16:37:39", "BASIN": "WP", "STMNR": 11, "CAT_ID": null, "CAT_DESC": null, "MSGID": "WTPN53 PGTW 301500", "VALIDTIME": "2025-07-25 12:00:00" }, "geometry": { "type": "Point", "coordinates": [ 123.5, 22.0 ] } },
{ "type": "Feature", "properties": { "ID": 9395, "LAT": 23.6, "LON": 124.9, "VMAX": 30.0, "MSLP": 997.0, "RMAX": 65.0, "FSPD": 9.51423, "FDIR": 23.18958, "RENV": 140.0, "PENV": 1000.0, "VALIDT": 0, "DTG": "2025-07-25 18:00", "LATNOW": 31.5, "LONNOW": 119.6, "WINDNOW": 30.0, "DIRNOW": 2.0, "SPDNOW": 2.0, "TECH": "TRAK", "ADVNR": 31, "ATCFID": "WP112025", "NAME": "CO-MAY", "FTECH": "JTWC", "FCST_DTG": "2025-07-30 12:00:00", "RUN_DTG": "2025-07-31 16:37:39", "BASIN": "WP", "STMNR": 11, "CAT_ID": null, "CAT_DESC": null, "MSGID": "WTPN53 PGTW 301500", "VALIDTIME": "2025-07-25 18:00:00" }, "geometry": { "type": "Point", "coordinates": [ 124.900002, 23.6 ] } },
{ "type": "Feature", "properties": { "ID": 9396, "LAT": 25.3, "LON": 125.7, "VMAX": 25.0, "MSLP": 997.0, "RMAX": 60.0, "FSPD": 6.33993, "FDIR": 35.76361, "RENV": 140.0, "PENV": 1000.0, "VALIDT": 0, "DTG": "2025-07-26 00:00", "LATNOW": 31.5, "LONNOW": 119.6, "WINDNOW": 30.0, "DIRNOW": 2.0, "SPDNOW": 2.0, "TECH": "TRAK", "ADVNR": 31, "ATCFID": "WP112025", "NAME": "CO-MAY", "FTECH": "JTWC", "FCST_DTG": "2025-07-30 12:00:00", "RUN_DTG": "2025-07-31 16:37:39", "BASIN": "WP", "STMNR": 11, "CAT_ID": null, "CAT_DESC": null, "MSGID": "WTPN53 PGTW 301500", "VALIDTIME": "2025-07-26 00:00:00" }, "geometry": { "type": "Point", "coordinates": [ 125.699997, 25.299999 ] } },
{ "type": "Feature", "properties": { "ID": 9397, "LAT": 26.3, "LON": 126.5, "VMAX": 25.0, "MSLP": 997.0, "RMAX": 60.0, "FSPD": 3.22085, "FDIR": 16.5965, "RENV": 140.0, "PENV": 1000.0, "VALIDT": 0, "DTG": "2025-07-26 06:00", "LATNOW": 31.5, "LONNOW": 119.6, "WINDNOW": 30.0, "DIRNOW": 2.0, "SPDNOW": 2.0, "TECH": "TRAK", "ADVNR": 31, "ATCFID": "WP112025", "NAME": "CO-MAY", "FTECH": "JTWC", "FCST_DTG": "2025-07-30 12:00:00", "RUN_DTG": "2025-07-31 16:37:39", "BASIN": "WP", "STMNR": 11, "CAT_ID": null, "CAT_DESC": null, "MSGID": "WTPN53 PGTW 301500", "VALIDTIME": "2025-07-26 06:00:00" }, "geometry": { "type": "Point", "coordinates": [ 126.5, 26.299999 ] } },
{ "type": "Feature", "properties": { "ID": 9398, "LAT": 26.9, "LON": 126.7, "VMAX": 25.0, "MSLP": 994.0, "RMAX": 60.0, "FSPD": 3.21148, "FDIR": 90.0, "RENV": 140.0, "PENV": 1000.0, "VALIDT": 0, "DTG": "2025-07-26 12:00", "LATNOW": 31.5, "LONNOW": 119.6, "WINDNOW": 30.0, "DIRNOW": 2.0, "SPDNOW": 2.0, "TECH": "TRAK", "ADVNR": 31, "ATCFID": "WP112025", "NAME": "CO-MAY", "FTECH": "JTWC", "FCST_DTG": "2025-07-30 12:00:00", "RUN_DTG": "2025-07-31 16:37:39", "BASIN": "WP", "STMNR": 11, "CAT_ID": null, "CAT_DESC": null, "MSGID": "WTPN53 PGTW 301500", "VALIDTIME": "2025-07-26 12:00:00" }, "geometry": { "type": "Point", "coordinates": [ 126.699997, 26.9 ] } },
{ "type": "Feature", "properties": { "ID": 9399, "LAT": 26.9, "LON": 127.4, "VMAX": 25.0, "MSLP": 996.0, "RMAX": 60.0, "FSPD": 2.39969, "FDIR": 130.02618, "RENV": 95.0, "PENV": 998.0, "VALIDT": 0, "DTG": "2025-07-26 18:00", "LATNOW": 31.5, "LONNOW": 119.6, "WINDNOW": 30.0, "DIRNOW": 2.0, "SPDNOW": 2.0, "TECH": "TRAK", "ADVNR": 31, "ATCFID": "WP112025", "NAME": "CO-MAY", "FTECH": "JTWC", "FCST_DTG": "2025-07-30 12:00:00", "RUN_DTG": "2025-07-31 16:37:39", "BASIN": "WP", "STMNR": 11, "CAT_ID": null, "CAT_DESC": null, "MSGID": "WTPN53 PGTW 301500", "VALIDTIME": "2025-07-26 18:00:00" }, "geometry": { "type": "Point", "coordinates": [ 127.400002, 26.9 ] } },
{ "type": "Feature", "properties": { "ID": 9400, "LAT": 26.6, "LON": 127.8, "VMAX": 25.0, "MSLP": 994.0, "RMAX": 75.0, "FSPD": 7.81986, "FDIR": 90.0, "RENV": 95.0, "PENV": 998.0, "VALIDT": 0, "DTG": "2025-07-27 00:00", "LATNOW": 31.5, "LONNOW": 119.6, "WINDNOW": 30.0, "DIRNOW": 2.0, "SPDNOW": 2.0, "TECH": "TRAK", "ADVNR": 31, "ATCFID": "WP112025", "NAME": "CO-MAY", "FTECH": "JTWC", "FCST_DTG": "2025-07-30 12:00:00", "RUN_DTG": "2025-07-31 16:37:39", "BASIN": "WP", "STMNR": 11, "CAT_ID": null, "CAT_DESC": null, "MSGID": "WTPN53 PGTW 301500", "VALIDTIME": "2025-07-27 00:00:00" }, "geometry": { "type": "Point", "coordinates": [ 127.800003, 26.6 ] } },
{ "type": "Feature", "properties": { "ID": 9401, "LAT": 26.6, "LON": 129.5, "VMAX": 30.0, "MSLP": 993.0, "RMAX": 75.0, "FSPD": 4.62958, "FDIR": 116.39029, "RENV": 95.0, "PENV": 996.0, "VALIDT": 0, "DTG": "2025-07-27 06:00", "LATNOW": 31.5, "LONNOW": 119.6, "WINDNOW": 30.0, "DIRNOW": 2.0, "SPDNOW": 2.0, "TECH": "TRAK", "ADVNR": 31, "ATCFID": "WP112025", "NAME": "CO-MAY", "FTECH": "JTWC", "FCST_DTG": "2025-07-30 12:00:00", "RUN_DTG": "2025-07-31 16:37:39", "BASIN": "WP", "STMNR": 11, "CAT_ID": null, "CAT_DESC": null, "MSGID": "WTPN53 PGTW 301500", "VALIDTIME": "2025-07-27 06:00:00" }, "geometry": { "type": "Point", "coordinates": [ 129.5, 26.6 ] } },
{ "type": "Feature", "properties": { "ID": 9402, "LAT": 26.2, "LON": 130.4, "VMAX": 40.0, "MSLP": 990.0, "RMAX": 75.0, "FSPD": 7.53559, "FDIR": 281.81808, "RENV": 175.0, "PENV": 996.0, "VALIDT": 0, "DTG": "2025-07-27 12:00", "LATNOW": 31.5, "LONNOW": 119.6, "WINDNOW": 30.0, "DIRNOW": 2.0, "SPDNOW": 2.0, "TECH": "TRAK", "ADVNR": 31, "ATCFID": "WP112025", "NAME": "CO-MAY", "FTECH": "JTWC", "FCST_DTG": "2025-07-30 12:00:00", "RUN_DTG": "2025-07-31 16:37:39", "BASIN": "WP", "STMNR": 11, "CAT_ID": null, "CAT_DESC": null, "MSGID": "WTPN53 PGTW 301500", "VALIDTIME": "2025-07-27 12:00:00" }, "geometry": { "type": "Point", "coordinates": [ 130.399994, 26.200001 ] } },
{ "type": "Feature", "properties": { "ID": 9403, "LAT": 26.5, "LON": 128.8, "VMAX": 35.0, "MSLP": 986.0, "RMAX": 90.0, "FSPD": 4.27288, "FDIR": 256.0664, "RENV": 175.0, "PENV": 996.0, "VALIDT": 0, "DTG": "2025-07-27 18:00", "LATNOW": 31.5, "LONNOW": 119.6, "WINDNOW": 30.0, "DIRNOW": 2.0, "SPDNOW": 2.0, "TECH": "TRAK", "ADVNR": 31, "ATCFID": "WP112025", "NAME": "CO-MAY", "FTECH": "JTWC", "FCST_DTG": "2025-07-30 12:00:00", "RUN_DTG": "2025-07-31 16:37:39", "BASIN": "WP", "STMNR": 11, "CAT_ID": null, "CAT_DESC": null, "MSGID": "WTPN53 PGTW 301500", "VALIDTIME": "2025-07-27 18:00:00" }, "geometry": { "type": "Point", "coordinates": [ 128.800003, 26.5 ] } },
{ "type": "Feature", "properties": { "ID": 9404, "LAT": 26.3, "LON": 127.9, "VMAX": 35.0, "MSLP": 986.0, "RMAX": 60.0, "FSPD": 2.40339, "FDIR": 50.04755, "RENV": 175.0, "PENV": 996.0, "VALIDT": 0, "DTG": "2025-07-28 00:00", "LATNOW": 31.5, "LONNOW": 119.6, "WINDNOW": 30.0, "DIRNOW": 2.0, "SPDNOW": 2.0, "TECH": "TRAK", "ADVNR": 31, "ATCFID": "WP112025", "NAME": "CO-MAY", "FTECH": "JTWC", "FCST_DTG": "2025-07-30 12:00:00", "RUN_DTG": "2025-07-31 16:37:39", "BASIN": "WP", "STMNR": 11, "CAT_ID": null, "CAT_DESC": null, "MSGID": "WTPN53 PGTW 301500", "VALIDTIME": "2025-07-28 00:00:00" }, "geometry": { "type": "Point", "coordinates": [ 127.900002, 26.299999 ] } },
{ "type": "Feature", "properties": { "ID": 9405, "LAT": 26.6, "LON": 128.3, "VMAX": 35.0, "MSLP": 988.0, "RMAX": 60.0, "FSPD": 5.15523, "FDIR": 306.78003, "RENV": 175.0, "PENV": 996.0, "VALIDT": 0, "DTG": "2025-07-28 06:00", "LATNOW": 31.5, "LONNOW": 119.6, "WINDNOW": 30.0, "DIRNOW": 2.0, "SPDNOW": 2.0, "TECH": "TRAK", "ADVNR": 31, "ATCFID": "WP112025", "NAME": "CO-MAY", "FTECH": "JTWC", "FCST_DTG": "2025-07-30 12:00:00", "RUN_DTG": "2025-07-31 16:37:39", "BASIN": "WP", "STMNR": 11, "CAT_ID": null, "CAT_DESC": null, "MSGID": "WTPN53 PGTW 301500", "VALIDTIME": "2025-07-28 06:00:00" }, "geometry": { "type": "Point", "coordinates": [ 128.300003, 26.6 ] } },
{ "type": "Feature", "properties": { "ID": 9406, "LAT": 27.2, "LON": 127.4, "VMAX": 30.0, "MSLP": 987.0, "RMAX": 60.0, "FSPD": 11.03922, "FDIR": 264.65204, "RENV": 175.0, "PENV": 1000.0, "VALIDT": 0, "DTG": "2025-07-28 12:00", "LATNOW": 31.5, "LONNOW": 119.6, "WINDNOW": 30.0, "DIRNOW": 2.0, "SPDNOW": 2.0, "TECH": "TRAK", "ADVNR": 31, "ATCFID": "WP112025", "NAME": "CO-MAY", "FTECH": "JTWC", "FCST_DTG": "2025-07-30 12:00:00", "RUN_DTG": "2025-07-31 16:37:39", "BASIN": "WP", "STMNR": 11, "CAT_ID": null, "CAT_DESC": null, "MSGID": "WTPN53 PGTW 301500", "VALIDTIME": "2025-07-28 12:00:00" }, "geometry": { "type": "Point", "coordinates": [ 127.400002, 27.200001 ] } },
{ "type": "Feature", "properties": { "ID": 9407, "LAT": 27.0, "LON": 125.0, "VMAX": 35.0, "MSLP": 992.0, "RMAX": 60.0, "FSPD": 3.15643, "FDIR": 324.57892, "RENV": 115.0, "PENV": 1010.0, "VALIDT": 0, "DTG": "2025-07-28 18:00", "LATNOW": 31.5, "LONNOW": 119.6, "WINDNOW": 30.0, "DIRNOW": 2.0, "SPDNOW": 2.0, "TECH": "TRAK", "ADVNR": 31, "ATCFID": "WP112025", "NAME": "CO-MAY", "FTECH": "JTWC", "FCST_DTG": "2025-07-30 12:00:00", "RUN_DTG": "2025-07-31 16:37:39", "BASIN": "WP", "STMNR": 11, "CAT_ID": null, "CAT_DESC": null, "MSGID": "WTPN53 PGTW 301500", "VALIDTIME": "2025-07-28 18:00:00" }, "geometry": { "type": "Point", "coordinates": [ 125.0, 27.0 ] } },
{ "type": "Feature", "properties": { "ID": 9408, "LAT": 27.5, "LON": 124.6, "VMAX": 35.0, "MSLP": 1008.74713, "RMAX": 42.69135, "FSPD": 3.83467, "FDIR": 323.6042, "RENV": 500.0, "PENV": 1012.0, "VALIDT": 0, "DTG": "2025-07-29 00:00", "LATNOW": 31.5, "LONNOW": 119.6, "WINDNOW": 30.0, "DIRNOW": 2.0, "SPDNOW": 2.0, "TECH": "TRAK", "ADVNR": 31, "ATCFID": "WP112025", "NAME": "CO-MAY", "FTECH": "JTWC", "FCST_DTG": "2025-07-30 12:00:00", "RUN_DTG": "2025-07-31 16:37:39", "BASIN": "WP", "STMNR": 11, "CAT_ID": null, "CAT_DESC": null, "MSGID": "WTPN53 PGTW 301500", "VALIDTIME": "2025-07-29 00:00:00" }, "geometry": { "type": "Point", "coordinates": [ 124.599998, 27.5 ] } },
{ "type": "Feature", "properties": { "ID": 9409, "LAT": 28.1, "LON": 124.1, "VMAX": 35.0, "MSLP": 987.0, "RMAX": 60.0, "FSPD": 4.08168, "FDIR": 309.0639, "RENV": 175.0, "PENV": 1000.0, "VALIDT": 0, "DTG": "2025-07-29 06:00", "LATNOW": 31.5, "LONNOW": 119.6, "WINDNOW": 30.0, "DIRNOW": 2.0, "SPDNOW": 2.0, "TECH": "TRAK", "ADVNR": 31, "ATCFID": "WP112025", "NAME": "CO-MAY", "FTECH": "JTWC", "FCST_DTG": "2025-07-30 12:00:00", "RUN_DTG": "2025-07-31 16:37:39", "BASIN": "WP", "STMNR": 11, "CAT_ID": null, "CAT_DESC": null, "MSGID": "WTPN53 PGTW 301500", "VALIDTIME": "2025-07-29 06:00:00" }, "geometry": { "type": "Point", "coordinates": [ 124.099998, 28.1 ] } },
{ "type": "Feature", "properties": { "ID": 9410, "LAT": 28.6, "LON": 123.4, "VMAX": 40.0, "MSLP": 984.0, "RMAX": 70.0, "FSPD": 4.24665, "FDIR": 327.99332, "RENV": 195.0, "PENV": 994.0, "VALIDT": 0, "DTG": "2025-07-29 12:00", "LATNOW": 31.5, "LONNOW": 119.6, "WINDNOW": 30.0, "DIRNOW": 2.0, "SPDNOW": 2.0, "TECH": "TRAK", "ADVNR": 31, "ATCFID": "WP112025", "NAME": "CO-MAY", "FTECH": "JTWC", "FCST_DTG": "2025-07-30 12:00:00", "RUN_DTG": "2025-07-31 16:37:39", "BASIN": "WP", "STMNR": 11, "CAT_ID": null, "CAT_DESC": null, "MSGID": "WTPN53 PGTW 301500", "VALIDTIME": "2025-07-29 12:00:00" }, "geometry": { "type": "Point", "coordinates": [ 123.400002, 28.6 ] } },
{ "type": "Feature", "properties": { "ID": 9411, "LAT": 29.3, "LON": 122.9, "VMAX": 40.0, "MSLP": 982.0, "RMAX": 70.0, "FSPD": 4.49042, "FDIR": 323.31723, "RENV": 175.0, "PENV": 995.0, "VALIDT": 0, "DTG": "2025-07-29 18:00", "LATNOW": 31.5, "LONNOW": 119.6, "WINDNOW": 30.0, "DIRNOW": 2.0, "SPDNOW": 2.0, "TECH": "TRAK", "ADVNR": 31, "ATCFID": "WP112025", "NAME": "CO-MAY", "FTECH": "JTWC", "FCST_DTG": "2025-07-30 12:00:00", "RUN_DTG": "2025-07-31 16:37:39", "BASIN": "WP", "STMNR": 11, "CAT_ID": null, "CAT_DESC": null, "MSGID": "WTPN53 PGTW 301500", "VALIDTIME": "2025-07-29 18:00:00" }, "geometry": { "type": "Point", "coordinates": [ 122.900002, 29.299999 ] } },
{ "type": "Feature", "properties": { "ID": 9412, "LAT": 30.0, "LON": 122.3, "VMAX": 40.0, "MSLP": 981.0, "RMAX": 70.0, "FSPD": 4.23027, "FDIR": 328.35046, "RENV": 200.0, "PENV": 994.0, "VALIDT": 0, "DTG": "2025-07-30 00:00", "LATNOW": 31.5, "LONNOW": 119.6, "WINDNOW": 30.0, "DIRNOW": 2.0, "SPDNOW": 2.0, "TECH": "TRAK", "ADVNR": 31, "ATCFID": "WP112025", "NAME": "CO-MAY", "FTECH": "JTWC", "FCST_DTG": "2025-07-30 12:00:00", "RUN_DTG": "2025-07-31 16:37:39", "BASIN": "WP", "STMNR": 11, "CAT_ID": null, "CAT_DESC": null, "MSGID": "WTPN53 PGTW 301500", "VALIDTIME": "2025-07-30 00:00:00" }, "geometry": { "type": "Point", "coordinates": [ 122.300003, 30.0 ] } },
{ "type": "Feature", "properties": { "ID": 9413, "LAT": 30.7, "LON": 121.8, "VMAX": 40.0, "MSLP": 980.0, "RMAX": 50.0, "FSPD": 3.12071, "FDIR": 325.51175, "RENV": 200.0, "PENV": 994.0, "VALIDT": 0, "DTG": "2025-07-30 06:00", "LATNOW": 31.5, "LONNOW": 119.6, "WINDNOW": 30.0, "DIRNOW": 2.0, "SPDNOW": 2.0, "TECH": "TRAK", "ADVNR": 31, "ATCFID": "WP112025", "NAME": "CO-MAY", "FTECH": "JTWC", "FCST_DTG": "2025-07-30 12:00:00", "RUN_DTG": "2025-07-31 16:37:39", "BASIN": "WP", "STMNR": 11, "CAT_ID": null, "CAT_DESC": null, "MSGID": "WTPN53 PGTW 301500", "VALIDTIME": "2025-07-30 06:00:00" }, "geometry": { "type": "Point", "coordinates": [ 121.800003, 30.700001 ] } },
{ "type": "Feature", "properties": { "ID": 9414, "LAT": 30.95, "LON": 121.60001, "VMAX": 40.0, "MSLP": 980.0, "RMAX": 50.0, "FSPD": 3.11814, "FDIR": 325.5807, "RENV": 200.0, "PENV": 994.0, "VALIDT": 0, "DTG": "2025-07-30 09:00", "LATNOW": 31.5, "LONNOW": 119.6, "WINDNOW": 30.0, "DIRNOW": 2.0, "SPDNOW": 2.0, "TECH": "TRAK", "ADVNR": 31, "ATCFID": "WP112025", "NAME": "CO-MAY", "FTECH": "JTWC", "FCST_DTG": "2025-07-30 12:00:00", "RUN_DTG": "2025-07-31 16:37:39", "BASIN": "WP", "STMNR": 11, "CAT_ID": null, "CAT_DESC": null, "MSGID": "WTPN53 PGTW 301500", "VALIDTIME": "2025-07-30 09:00:00" }, "geometry": { "type": "Point", "coordinates": [ 121.600006, 30.950001 ] } },
{ "type": "Feature", "properties": { "ID": 9415, "LAT": 31.2, "LON": 121.4, "VMAX": 35.0, "MSLP": 981.0, "RMAX": 50.0, "FSPD": 4.40037, "FDIR": 269.99997, "RENV": 200.0, "PENV": 994.0, "VALIDT": 0, "DTG": "2025-07-30 12:00", "LATNOW": 31.5, "LONNOW": 119.6, "WINDNOW": 30.0, "DIRNOW": 2.0, "SPDNOW": 2.0, "TECH": "TRAK", "ADVNR": 31, "ATCFID": "WP112025", "NAME": "CO-MAY", "FTECH": "JTWC", "FCST_DTG": "2025-07-30 12:00:00", "RUN_DTG": "2025-07-31 16:37:39", "BASIN": "WP", "STMNR": 11, "CAT_ID": null, "CAT_DESC": null, "MSGID": "WTPN53 PGTW 301500", "VALIDTIME": "2025-07-30 12:00:00" }, "geometry": { "type": "Point", "coordinates": [ 121.400002, 31.200001 ] } },
{ "type": "Feature", "properties": { "ID": 9416, "LAT": 31.2, "LON": 120.4, "VMAX": 30.0, "MSLP": 979.0, "RMAX": 50.0, "FSPD": 3.83965, "FDIR": 293.6999, "RENV": 150.0, "PENV": 994.0, "VALIDT": 0, "DTG": "2025-07-30 18:00", "LATNOW": 31.5, "LONNOW": 119.6, "WINDNOW": 30.0, "DIRNOW": 2.0, "SPDNOW": 2.0, "TECH": "TRAK", "ADVNR": 31, "ATCFID": "WP112025", "NAME": "CO-MAY", "FTECH": "JTWC", "FCST_DTG": "2025-07-30 12:00:00", "RUN_DTG": "2025-07-31 16:37:39", "BASIN": "WP", "STMNR": 11, "CAT_ID": null, "CAT_DESC": null, "MSGID": "WTPN53 PGTW 301500", "VALIDTIME": "2025-07-30 18:00:00" }, "geometry": { "type": "Point", "coordinates": [ 120.400002, 31.200001 ] } },
{ "type": "Feature", "properties": { "ID": 9417, "LAT": 31.44, "LON": 119.76, "VMAX": 30.0, "MSLP": 979.0, "RMAX": 50.0, "FSPD": 3.83458, "FDIR": 293.7329, "RENV": 150.0, "PENV": 994.0, "VALIDT": 0, "DTG": "2025-07-30 22:00", "LATNOW": 31.5, "LONNOW": 119.6, "WINDNOW": 30.0, "DIRNOW": 2.0, "SPDNOW": 2.0, "TECH": "TRAK", "ADVNR": 31, "ATCFID": "WP112025", "NAME": "CO-MAY", "FTECH": "JTWC", "FCST_DTG": "2025-07-30 12:00:00", "RUN_DTG": "2025-07-31 16:37:39", "BASIN": "WP", "STMNR": 11, "CAT_ID": null, "CAT_DESC": null, "MSGID": "WTPN53 PGTW 301500", "VALIDTIME": "2025-07-30 22:00:00" }, "geometry": { "type": "Point", "coordinates": [ 119.760002, 31.440001 ] } },
{ "type": "Feature", "properties": { "ID": 9418, "LAT": 31.5, "LON": 119.6, "VMAX": 30.0, "MSLP": 988.0, "RMAX": 50.0, "FSPD": 2.4395, "FDIR": 327.51395, "RENV": 140.0, "PENV": 994.0, "VALIDT": 0, "DTG": "2025-07-31 00:00", "LATNOW": 31.5, "LONNOW": 119.6, "WINDNOW": 30.0, "DIRNOW": 2.0, "SPDNOW": 2.0, "TECH": "TRAK", "ADVNR": 31, "ATCFID": "WP112025", "NAME": "CO-MAY", "FTECH": "JTWC", "FCST_DTG": "2025-07-30 12:00:00", "RUN_DTG": "2025-07-31 16:37:39", "BASIN": "WP", "STMNR": 11, "CAT_ID": null, "CAT_DESC": null, "MSGID": "WTPN53 PGTW 301500", "VALIDTIME": "2025-07-31 00:00:00" }, "geometry": { "type": "Point", "coordinates": [ 119.599998, 31.5 ] } },
{ "type": "Feature", "properties": { "ID": 9419, "LAT": 32.3, "LON": 119.0, "VMAX": 25.0, "MSLP": 1011.80975, "RMAX": 68.70229, "FSPD": 1.60494, "FDIR": 288.69556, "RENV": 250.0, "PENV": 1012.0, "VALIDT": 24, "DTG": "2025-07-31 12:00", "LATNOW": 31.5, "LONNOW": 119.6, "WINDNOW": 30.0, "DIRNOW": 2.0, "SPDNOW": 2.0, "TECH": "FCST", "ADVNR": 31, "ATCFID": "WP112025", "NAME": "CO-MAY", "FTECH": "JTWC", "FCST_DTG": "2025-07-30 12:00:00", "RUN_DTG": "2025-07-31 16:37:39", "BASIN": "WP", "STMNR": 11, "CAT_ID": null, "CAT_DESC": null, "MSGID": "WTPN53 PGTW 301500", "VALIDTIME": "2025-07-31 12:00:00" }, "geometry": { "type": "Point", "coordinates": [ 119.0, 32.299999 ] } },
{ "type": "Feature", "properties": { "ID": 9420, "LAT": 32.5, "LON": 118.3, "VMAX": 20.0, "MSLP": 1012.95825, "RMAX": 68.70229, "FSPD": 1.60494, "FDIR": 288.69556, "RENV": 250.0, "PENV": 1012.0, "VALIDT": 36, "DTG": "2025-08-01 00:00", "LATNOW": 31.5, "LONNOW": 119.6, "WINDNOW": 30.0, "DIRNOW": 2.0, "SPDNOW": 2.0, "TECH": "FCST", "ADVNR": 31, "ATCFID": "WP112025", "NAME": "CO-MAY", "FTECH": "JTWC", "FCST_DTG": "2025-07-30 12:00:00", "RUN_DTG": "2025-07-31 16:37:39", "BASIN": "WP", "STMNR": 11, "CAT_ID": null, "CAT_DESC": null, "MSGID": "WTPN53 PGTW 301500", "VALIDTIME": "2025-08-01 00:00:00" }, "geometry": { "type": "Point", "coordinates": [ 118.300003, 32.5 ] } },
{ "type": "Feature", "properties": { "ID": 9418, "LAT": 31.5, "LON": 119.6, "VMAX": 30.0, "MSLP": 988.0, "RMAX": 50.0, "FSPD": 2.4395, "FDIR": 327.51395, "RENV": 140.0, "PENV": 994.0, "VALIDT": 0, "DTG": "2025-07-31 00:00", "LATNOW": 31.5, "LONNOW": 119.6, "WINDNOW": 30.0, "DIRNOW": 2.0, "SPDNOW": 2.0, "TECH": "TRAK", "ADVNR": 31, "ATCFID": "WP112025", "NAME": "CO-MAY", "FTECH": "JTWC", "FCST_DTG": "2025-07-30 12:00:00", "RUN_DTG": "2025-07-31 16:37:39", "BASIN": "WP", "STMNR": 11, "CAT_ID": null, "CAT_DESC": null, "MSGID": "WTPN53 PGTW 301500", "VALIDTIME": "2025-07-31 00:00:00" }, "geometry": { "type": "LineString", "coordinates": [ [ 125.7, 20.5 ], [ 124.8, 20.2 ], [ 123.9, 19.9 ], [ 123.2, 19.5 ], [ 122.4, 19.4 ], [ 121.4, 19.3 ], [ 120.5, 18.8 ], [ 119.6, 17.9 ], [ 118.8, 17.9 ], [ 118.0, 16.9 ], [ 118.6, 16.2 ], [ 119.3, 15.9 ], [ 119.5, 16.1 ], [ 120.2, 16.7 ], [ 120.44, 16.94 ], [ 120.8, 17.3 ], [ 120.9, 19.3 ], [ 123.5, 22.0 ], [ 124.9, 23.6 ], [ 125.7, 25.3 ], [ 126.5, 26.3 ], [ 126.7, 26.9 ], [ 127.4, 26.9 ], [ 127.8, 26.6 ], [ 129.5, 26.6 ], [ 130.4, 26.2 ], [ 128.8, 26.5 ], [ 127.9, 26.3 ], [ 128.3, 26.6 ], [ 127.4, 27.2 ], [ 125.0, 27.0 ], [ 124.6, 27.5 ], [ 124.1, 28.1 ], [ 123.4, 28.6 ], [ 122.9, 29.3 ], [ 122.3, 30.0 ], [ 121.8, 30.7 ], [ 121.60001, 30.95 ], [ 121.4, 31.2 ], [ 120.4, 31.2 ], [ 119.76, 31.44 ], [ 119.6, 31.5 ] ] } },
{ "type": "Feature", "properties": { "ID": 9420, "LAT": 32.5, "LON": 118.3, "VMAX": 20.0, "MSLP": 1012.95825, "RMAX": 68.70229, "FSPD": 1.60494, "FDIR": 288.69556, "RENV": 250.0, "PENV": 1012.0, "VALIDT": 36, "DTG": "2025-08-01 00:00", "LATNOW": 31.5, "LONNOW": 119.6, "WINDNOW": 30.0, "DIRNOW": 2.0, "SPDNOW": 2.0, "TECH": "FCST", "ADVNR": 31, "ATCFID": "WP112025", "NAME": "CO-MAY", "FTECH": "JTWC", "FCST_DTG": "2025-07-30 12:00:00", "RUN_DTG": "2025-07-31 16:37:39", "BASIN": "WP", "STMNR": 11, "CAT_ID": null, "CAT_DESC": null, "MSGID": "WTPN53 PGTW 301500", "VALIDTIME": "2025-08-01 00:00:00" }, "geometry": { "type": "LineString", "coordinates": [ [ 119.6, 31.5 ], [ 119.0, 32.3 ], [ 118.3, 32.5 ] ] } }
]
}
