{
"type": "FeatureCollection",
"crs": { "type": "name", "properties": { "name": "urn:ogc:def:crs:OGC:1.3:CRS84" } },
"features": [
{ "type": "Feature", "properties": { "ID": 237057, "LAT": 24.3, "LON": 125.8, "VMAX": 15.0, "MSLP": 1013.8515, "RMAX": 40.0, "FSPD": 1.06927, "FDIR": 298.75842, "RENV": 500.0, "PENV": 1012.0, "VALIDT": 0, "DTG": "2024-08-18 06:00", "LATNOW": 36.1, "LONNOW": 125.5, "WINDNOW": 25.0, "DIRNOW": 8.0, "SPDNOW": 1.0, "TECH": "TRAK", "ADVNR": 8, "ATCFID": "WP102024", "NAME": "JONGDARI", "FTECH": "JTWC", "FCST_DTG": "2024-08-20 18:00:00", "RUN_DTG": "2024-08-21 09:11:09", "BASIN": "WP", "STMNR": 10, "CAT_ID": null, "CAT_DESC": null, "MSGID": "WTPN51 PGTW 202100", "VALIDTIME": "2024-08-18 06:00:00" }, "geometry": { "type": "Point", "coordinates": [ 125.800003, 24.299999 ] } },
{ "type": "Feature", "properties": { "ID": 237058, "LAT": 24.4, "LON": 125.6, "VMAX": 20.0, "MSLP": 1012.95825, "RMAX": 45.0, "FSPD": 1.61272, "FDIR": 16.86697, "RENV": 500.0, "PENV": 1012.0, "VALIDT": 0, "DTG": "2024-08-18 12:00", "LATNOW": 36.1, "LONNOW": 125.5, "WINDNOW": 25.0, "DIRNOW": 8.0, "SPDNOW": 1.0, "TECH": "TRAK", "ADVNR": 8, "ATCFID": "WP102024", "NAME": "JONGDARI", "FTECH": "JTWC", "FCST_DTG": "2024-08-20 18:00:00", "RUN_DTG": "2024-08-21 09:11:09", "BASIN": "WP", "STMNR": 10, "CAT_ID": null, "CAT_DESC": null, "MSGID": "WTPN51 PGTW 202100", "VALIDTIME": "2024-08-18 12:00:00" }, "geometry": { "type": "Point", "coordinates": [ 125.599998, 24.4 ] } },
{ "type": "Feature", "properties": { "ID": 237059, "LAT": 24.7, "LON": 125.7, "VMAX": 20.0, "MSLP": 1012.95825, "RMAX": 45.0, "FSPD": 2.25952, "FDIR": 24.39584, "RENV": 500.0, "PENV": 1012.0, "VALIDT": 0, "DTG": "2024-08-18 18:00", "LATNOW": 36.1, "LONNOW": 125.5, "WINDNOW": 25.0, "DIRNOW": 8.0, "SPDNOW": 1.0, "TECH": "TRAK", "ADVNR": 8, "ATCFID": "WP102024", "NAME": "JONGDARI", "FTECH": "JTWC", "FCST_DTG": "2024-08-20 18:00:00", "RUN_DTG": "2024-08-21 09:11:09", "BASIN": "WP", "STMNR": 10, "CAT_ID": null, "CAT_DESC": null, "MSGID": "WTPN51 PGTW 202100", "VALIDTIME": "2024-08-18 18:00:00" }, "geometry": { "type": "Point", "coordinates": [ 125.699997, 24.700001 ] } },
{ "type": "Feature", "properties": { "ID": 237060, "LAT": 25.1, "LON": 125.9, "VMAX": 25.0, "MSLP": 1001.0, "RMAX": 30.0, "FSPD": 6.19071, "FDIR": 4.29419, "RENV": 85.0, "PENV": 1005.0, "VALIDT": 0, "DTG": "2024-08-19 00:00", "LATNOW": 36.1, "LONNOW": 125.5, "WINDNOW": 25.0, "DIRNOW": 8.0, "SPDNOW": 1.0, "TECH": "TRAK", "ADVNR": 8, "ATCFID": "WP102024", "NAME": "JONGDARI", "FTECH": "JTWC", "FCST_DTG": "2024-08-20 18:00:00", "RUN_DTG": "2024-08-21 09:11:09", "BASIN": "WP", "STMNR": 10, "CAT_ID": null, "CAT_DESC": null, "MSGID": "WTPN51 PGTW 202100", "VALIDTIME": "2024-08-19 00:00:00" }, "geometry": { "type": "Point", "coordinates": [ 125.900002, 25.1 ] } },
{ "type": "Feature", "properties": { "ID": 237061, "LAT": 26.3, "LON": 126.0, "VMAX": 35.0, "MSLP": 1001.0, "RMAX": 30.0, "FSPD": 7.33233, "FDIR": 349.1905, "RENV": 85.0, "PENV": 1005.0, "VALIDT": 0, "DTG": "2024-08-19 06:00", "LATNOW": 36.1, "LONNOW": 125.5, "WINDNOW": 25.0, "DIRNOW": 8.0, "SPDNOW": 1.0, "TECH": "TRAK", "ADVNR": 8, "ATCFID": "WP102024", "NAME": "JONGDARI", "FTECH": "JTWC", "FCST_DTG": "2024-08-20 18:00:00", "RUN_DTG": "2024-08-21 09:11:09", "BASIN": "WP", "STMNR": 10, "CAT_ID": null, "CAT_DESC": null, "MSGID": "WTPN51 PGTW 202100", "VALIDTIME": "2024-08-19 06:00:00" }, "geometry": { "type": "Point", "coordinates": [ 126.0, 26.299999 ] } },
{ "type": "Feature", "properties": { "ID": 237062, "LAT": 27.7, "LON": 125.7, "VMAX": 35.0, "MSLP": 999.0, "RMAX": 20.0, "FSPD": 7.76951, "FDIR": 353.31378, "RENV": 70.0, "PENV": 1003.0, "VALIDT": 0, "DTG": "2024-08-19 12:00", "LATNOW": 36.1, "LONNOW": 125.5, "WINDNOW": 25.0, "DIRNOW": 8.0, "SPDNOW": 1.0, "TECH": "TRAK", "ADVNR": 8, "ATCFID": "WP102024", "NAME": "JONGDARI", "FTECH": "JTWC", "FCST_DTG": "2024-08-20 18:00:00", "RUN_DTG": "2024-08-21 09:11:09", "BASIN": "WP", "STMNR": 10, "CAT_ID": null, "CAT_DESC": null, "MSGID": "WTPN51 PGTW 202100", "VALIDTIME": "2024-08-19 12:00:00" }, "geometry": { "type": "Point", "coordinates": [ 125.699997, 27.700001 ] } },
{ "type": "Feature", "properties": { "ID": 237063, "LAT": 29.2, "LON": 125.5, "VMAX": 35.0, "MSLP": 1001.0, "RMAX": 20.0, "FSPD": 10.28889, "FDIR": 360.0, "RENV": 60.0, "PENV": 1004.0, "VALIDT": 0, "DTG": "2024-08-19 18:00", "LATNOW": 36.1, "LONNOW": 125.5, "WINDNOW": 25.0, "DIRNOW": 8.0, "SPDNOW": 1.0, "TECH": "TRAK", "ADVNR": 8, "ATCFID": "WP102024", "NAME": "JONGDARI", "FTECH": "JTWC", "FCST_DTG": "2024-08-20 18:00:00", "RUN_DTG": "2024-08-21 09:11:09", "BASIN": "WP", "STMNR": 10, "CAT_ID": null, "CAT_DESC": null, "MSGID": "WTPN51 PGTW 202100", "VALIDTIME": "2024-08-19 18:00:00" }, "geometry": { "type": "Point", "coordinates": [ 125.5, 29.200001 ] } },
{ "type": "Feature", "properties": { "ID": 237064, "LAT": 31.2, "LON": 125.5, "VMAX": 35.0, "MSLP": 1001.0, "RMAX": 20.0, "FSPD": 8.75642, "FDIR": 357.14575, "RENV": 60.0, "PENV": 1004.0, "VALIDT": 0, "DTG": "2024-08-20 00:00", "LATNOW": 36.1, "LONNOW": 125.5, "WINDNOW": 25.0, "DIRNOW": 8.0, "SPDNOW": 1.0, "TECH": "TRAK", "ADVNR": 8, "ATCFID": "WP102024", "NAME": "JONGDARI", "FTECH": "JTWC", "FCST_DTG": "2024-08-20 18:00:00", "RUN_DTG": "2024-08-21 09:11:09", "BASIN": "WP", "STMNR": 10, "CAT_ID": null, "CAT_DESC": null, "MSGID": "WTPN51 PGTW 202100", "VALIDTIME": "2024-08-20 00:00:00" }, "geometry": { "type": "Point", "coordinates": [ 125.5, 31.200001 ] } },
{ "type": "Feature", "properties": { "ID": 237065, "LAT": 32.9, "LON": 125.4, "VMAX": 30.0, "MSLP": 1001.0, "RMAX": 20.0, "FSPD": 7.25302, "FDIR": 6.78555, "RENV": 50.0, "PENV": 1004.0, "VALIDT": 0, "DTG": "2024-08-20 06:00", "LATNOW": 36.1, "LONNOW": 125.5, "WINDNOW": 25.0, "DIRNOW": 8.0, "SPDNOW": 1.0, "TECH": "TRAK", "ADVNR": 8, "ATCFID": "WP102024", "NAME": "JONGDARI", "FTECH": "JTWC", "FCST_DTG": "2024-08-20 18:00:00", "RUN_DTG": "2024-08-21 09:11:09", "BASIN": "WP", "STMNR": 10, "CAT_ID": null, "CAT_DESC": null, "MSGID": "WTPN51 PGTW 202100", "VALIDTIME": "2024-08-20 06:00:00" }, "geometry": { "type": "Point", "coordinates": [ 125.400002, 32.900002 ] } },
{ "type": "Feature", "properties": { "ID": 237066, "LAT": 34.3, "LON": 125.6, "VMAX": 30.0, "MSLP": 1003.0, "RMAX": 30.0, "FSPD": 9.26953, "FDIR": 357.40076, "RENV": 55.0, "PENV": 1005.0, "VALIDT": 0, "DTG": "2024-08-20 12:00", "LATNOW": 36.1, "LONNOW": 125.5, "WINDNOW": 25.0, "DIRNOW": 8.0, "SPDNOW": 1.0, "TECH": "TRAK", "ADVNR": 8, "ATCFID": "WP102024", "NAME": "JONGDARI", "FTECH": "JTWC", "FCST_DTG": "2024-08-20 18:00:00", "RUN_DTG": "2024-08-21 09:11:09", "BASIN": "WP", "STMNR": 10, "CAT_ID": null, "CAT_DESC": null, "MSGID": "WTPN51 PGTW 202100", "VALIDTIME": "2024-08-20 12:00:00" }, "geometry": { "type": "Point", "coordinates": [ 125.599998, 34.299999 ] } },
{ "type": "Feature", "properties": { "ID": 237067, "LAT": 36.1, "LON": 125.5, "VMAX": 25.0, "MSLP": 1003.0, "RMAX": 30.0, "FSPD": 8.152, "FDIR": 23.78784, "RENV": 55.0, "PENV": 1005.0, "VALIDT": 0, "DTG": "2024-08-20 18:00", "LATNOW": 36.1, "LONNOW": 125.5, "WINDNOW": 25.0, "DIRNOW": 8.0, "SPDNOW": 1.0, "TECH": "TRAK", "ADVNR": 8, "ATCFID": "WP102024", "NAME": "JONGDARI", "FTECH": "JTWC", "FCST_DTG": "2024-08-20 18:00:00", "RUN_DTG": "2024-08-21 09:11:09", "BASIN": "WP", "STMNR": 10, "CAT_ID": null, "CAT_DESC": null, "MSGID": "WTPN51 PGTW 202100", "VALIDTIME": "2024-08-20 18:00:00" }, "geometry": { "type": "Point", "coordinates": [ 125.5, 36.099998 ] } },
{ "type": "Feature", "properties": { "ID": 237068, "LAT": 37.84, "LON": 126.46, "VMAX": 25.0, "MSLP": 1003.0, "RMAX": 30.0, "FSPD": 8.12652, "FDIR": 23.37701, "RENV": 55.0, "PENV": 1005.0, "VALIDT": 7, "DTG": "2024-08-21 01:00", "LATNOW": 36.1, "LONNOW": 125.5, "WINDNOW": 25.0, "DIRNOW": 8.0, "SPDNOW": 1.0, "TECH": "FCST", "ADVNR": 8, "ATCFID": "WP102024", "NAME": "JONGDARI", "FTECH": "JTWC", "FCST_DTG": "2024-08-20 18:00:00", "RUN_DTG": "2024-08-21 09:11:09", "BASIN": "WP", "STMNR": 10, "CAT_ID": null, "CAT_DESC": null, "MSGID": "WTPN51 PGTW 202100", "VALIDTIME": "2024-08-21 01:00:00" }, "geometry": { "type": "Point", "coordinates": [ 126.459999, 37.84 ] } },
{ "type": "Feature", "properties": { "ID": 237069, "LAT": 39.0, "LON": 127.1, "VMAX": 20.0, "MSLP": 1012.95825, "RMAX": 34.64305, "FSPD": 8.17878, "FDIR": 57.67984, "RENV": 250.0, "PENV": 1012.0, "VALIDT": 12, "DTG": "2024-08-21 06:00", "LATNOW": 36.1, "LONNOW": 125.5, "WINDNOW": 25.0, "DIRNOW": 8.0, "SPDNOW": 1.0, "TECH": "FCST", "ADVNR": 8, "ATCFID": "WP102024", "NAME": "JONGDARI", "FTECH": "JTWC", "FCST_DTG": "2024-08-20 18:00:00", "RUN_DTG": "2024-08-21 09:11:09", "BASIN": "WP", "STMNR": 10, "CAT_ID": null, "CAT_DESC": null, "MSGID": "WTPN51 PGTW 202100", "VALIDTIME": "2024-08-21 06:00:00" }, "geometry": { "type": "Point", "coordinates": [ 127.099998, 39.0 ] } },
{ "type": "Feature", "properties": { "ID": 237070, "LAT": 40.7, "LON": 130.6, "VMAX": 20.0, "MSLP": 1012.95825, "RMAX": 34.64305, "FSPD": 8.17878, "FDIR": 57.67984, "RENV": 250.0, "PENV": 1012.0, "VALIDT": 24, "DTG": "2024-08-21 18:00", "LATNOW": 36.1, "LONNOW": 125.5, "WINDNOW": 25.0, "DIRNOW": 8.0, "SPDNOW": 1.0, "TECH": "FCST", "ADVNR": 8, "ATCFID": "WP102024", "NAME": "JONGDARI", "FTECH": "JTWC", "FCST_DTG": "2024-08-20 18:00:00", "RUN_DTG": "2024-08-21 09:11:09", "BASIN": "WP", "STMNR": 10, "CAT_ID": null, "CAT_DESC": null, "MSGID": "WTPN51 PGTW 202100", "VALIDTIME": "2024-08-21 18:00:00" }, "geometry": { "type": "Point", "coordinates": [ 130.600006, 40.700001 ] } },
{ "type": "Feature", "properties": { "ID": 237067, "LAT": 36.1, "LON": 125.5, "VMAX": 25.0, "MSLP": 1003.0, "RMAX": 30.0, "FSPD": 8.152, "FDIR": 23.78784, "RENV": 55.0, "PENV": 1005.0, "VALIDT": 0, "DTG": "2024-08-20 18:00", "LATNOW": 36.1, "LONNOW": 125.5, "WINDNOW": 25.0, "DIRNOW": 8.0, "SPDNOW": 1.0, "TECH": "TRAK", "ADVNR": 8, "ATCFID": "WP102024", "NAME": "JONGDARI", "FTECH": "JTWC", "FCST_DTG": "2024-08-20 18:00:00", "RUN_DTG": "2024-08-21 09:11:09", "BASIN": "WP", "STMNR": 10, "CAT_ID": null, "CAT_DESC": null, "MSGID": "WTPN51 PGTW 202100", "VALIDTIME": "2024-08-20 18:00:00" }, "geometry": { "type": "LineString", "coordinates": [ [ 125.8, 24.3 ], [ 125.6, 24.4 ], [ 125.7, 24.7 ], [ 125.9, 25.1 ], [ 126.0, 26.3 ], [ 125.7, 27.7 ], [ 125.5, 29.2 ], [ 125.5, 31.2 ], [ 125.4, 32.9 ], [ 125.6, 34.3 ], [ 125.5, 36.1 ] ] } },
{ "type": "Feature", "properties": { "ID": 237070, "LAT": 40.7, "LON": 130.6, "VMAX": 20.0, "MSLP": 1012.95825, "RMAX": 34.64305, "FSPD": 8.17878, "FDIR": 57.67984, "RENV": 250.0, "PENV": 1012.0, "VALIDT": 24, "DTG": "2024-08-21 18:00", "LATNOW": 36.1, "LONNOW": 125.5, "WINDNOW": 25.0, "DIRNOW": 8.0, "SPDNOW": 1.0, "TECH": "FCST", "ADVNR": 8, "ATCFID": "WP102024", "NAME": "JONGDARI", "FTECH": "JTWC", "FCST_DTG": "2024-08-20 18:00:00", "RUN_DTG": "2024-08-21 09:11:09", "BASIN": "WP", "STMNR": 10, "CAT_ID": null, "CAT_DESC": null, "MSGID": "WTPN51 PGTW 202100", "VALIDTIME": "2024-08-21 18:00:00" }, "geometry": { "type": "LineString", "coordinates": [ [ 125.5, 36.1 ], [ 126.46, 37.84 ], [ 127.1, 39.0 ], [ 130.6, 40.7 ] ] } }
]
}
