{
"type": "FeatureCollection",
"crs": { "type": "name", "properties": { "name": "urn:ogc:def:crs:OGC:1.3:CRS84" } },
"features": [
{ "type": "Feature", "properties": { "ID": 255389, "LAT": 19.4, "LON": 116.9, "VMAX": 15.0, "MSLP": 1013.8515, "RMAX": 40.0, "FSPD": 4.66171, "FDIR": 236.51099, "RENV": 500.0, "PENV": 1012.0, "VALIDT": 0, "DTG": "2024-09-17 12:00", "LATNOW": 16.9, "LONNOW": 106.9, "WINDNOW": 30.0, "DIRNOW": 4.0, "SPDNOW": 3.0, "TECH": "TRAK", "ADVNR": 5, "ATCFID": "WP162024", "NAME": "SOULIK", "FTECH": "JTWC", "FCST_DTG": "2024-09-19 06:00:00", "RUN_DTG": "2024-09-19 20:45:22", "BASIN": "WP", "STMNR": 16, "CAT_ID": null, "CAT_DESC": null, "MSGID": "WTPN51 PGTW 190900", "VALIDTIME": "2024-09-17 12:00:00" }, "geometry": { "type": "Point", "coordinates": [ 116.900002, 19.4 ] } },
{ "type": "Feature", "properties": { "ID": 255390, "LAT": 18.9, "LON": 116.1, "VMAX": 15.0, "MSLP": 1013.8515, "RMAX": 40.0, "FSPD": 5.77065, "FDIR": 237.66344, "RENV": 500.0, "PENV": 1012.0, "VALIDT": 0, "DTG": "2024-09-17 18:00", "LATNOW": 16.9, "LONNOW": 106.9, "WINDNOW": 30.0, "DIRNOW": 4.0, "SPDNOW": 3.0, "TECH": "TRAK", "ADVNR": 5, "ATCFID": "WP162024", "NAME": "SOULIK", "FTECH": "JTWC", "FCST_DTG": "2024-09-19 06:00:00", "RUN_DTG": "2024-09-19 20:45:22", "BASIN": "WP", "STMNR": 16, "CAT_ID": null, "CAT_DESC": null, "MSGID": "WTPN51 PGTW 190900", "VALIDTIME": "2024-09-17 18:00:00" }, "geometry": { "type": "Point", "coordinates": [ 116.099998, 18.9 ] } },
{ "type": "Feature", "properties": { "ID": 255391, "LAT": 18.3, "LON": 115.1, "VMAX": 20.0, "MSLP": 1012.95825, "RMAX": 45.0, "FSPD": 8.17675, "FDIR": 243.87004, "RENV": 500.0, "PENV": 1012.0, "VALIDT": 0, "DTG": "2024-09-18 00:00", "LATNOW": 16.9, "LONNOW": 106.9, "WINDNOW": 30.0, "DIRNOW": 4.0, "SPDNOW": 3.0, "TECH": "TRAK", "ADVNR": 5, "ATCFID": "WP162024", "NAME": "SOULIK", "FTECH": "JTWC", "FCST_DTG": "2024-09-19 06:00:00", "RUN_DTG": "2024-09-19 20:45:22", "BASIN": "WP", "STMNR": 16, "CAT_ID": null, "CAT_DESC": null, "MSGID": "WTPN51 PGTW 190900", "VALIDTIME": "2024-09-18 00:00:00" }, "geometry": { "type": "Point", "coordinates": [ 115.099998, 18.299999 ] } },
{ "type": "Feature", "properties": { "ID": 255392, "LAT": 17.6, "LON": 113.6, "VMAX": 25.0, "MSLP": 1000.0, "RMAX": 15.0, "FSPD": 7.37545, "FDIR": 266.00027, "RENV": 275.0, "PENV": 1002.0, "VALIDT": 0, "DTG": "2024-09-18 06:00", "LATNOW": 16.9, "LONNOW": 106.9, "WINDNOW": 30.0, "DIRNOW": 4.0, "SPDNOW": 3.0, "TECH": "TRAK", "ADVNR": 5, "ATCFID": "WP162024", "NAME": "SOULIK", "FTECH": "JTWC", "FCST_DTG": "2024-09-19 06:00:00", "RUN_DTG": "2024-09-19 20:45:22", "BASIN": "WP", "STMNR": 16, "CAT_ID": null, "CAT_DESC": null, "MSGID": "WTPN51 PGTW 190900", "VALIDTIME": "2024-09-18 06:00:00" }, "geometry": { "type": "Point", "coordinates": [ 113.599998, 17.6 ] } },
{ "type": "Feature", "properties": { "ID": 255393, "LAT": 17.5, "LON": 112.1, "VMAX": 25.0, "MSLP": 1000.0, "RMAX": 15.0, "FSPD": 10.80916, "FDIR": 267.27203, "RENV": 275.0, "PENV": 1002.0, "VALIDT": 0, "DTG": "2024-09-18 12:00", "LATNOW": 16.9, "LONNOW": 106.9, "WINDNOW": 30.0, "DIRNOW": 4.0, "SPDNOW": 3.0, "TECH": "TRAK", "ADVNR": 5, "ATCFID": "WP162024", "NAME": "SOULIK", "FTECH": "JTWC", "FCST_DTG": "2024-09-19 06:00:00", "RUN_DTG": "2024-09-19 20:45:22", "BASIN": "WP", "STMNR": 16, "CAT_ID": null, "CAT_DESC": null, "MSGID": "WTPN51 PGTW 190900", "VALIDTIME": "2024-09-18 12:00:00" }, "geometry": { "type": "Point", "coordinates": [ 112.099998, 17.5 ] } },
{ "type": "Feature", "properties": { "ID": 255394, "LAT": 17.4, "LON": 109.9, "VMAX": 30.0, "MSLP": 998.0, "RMAX": 15.0, "FSPD": 8.85365, "FDIR": 266.66888, "RENV": 275.0, "PENV": 1002.0, "VALIDT": 0, "DTG": "2024-09-18 18:00", "LATNOW": 16.9, "LONNOW": 106.9, "WINDNOW": 30.0, "DIRNOW": 4.0, "SPDNOW": 3.0, "TECH": "TRAK", "ADVNR": 5, "ATCFID": "WP162024", "NAME": "SOULIK", "FTECH": "JTWC", "FCST_DTG": "2024-09-19 06:00:00", "RUN_DTG": "2024-09-19 20:45:22", "BASIN": "WP", "STMNR": 16, "CAT_ID": null, "CAT_DESC": null, "MSGID": "WTPN51 PGTW 190900", "VALIDTIME": "2024-09-18 18:00:00" }, "geometry": { "type": "Point", "coordinates": [ 109.900002, 17.4 ] } },
{ "type": "Feature", "properties": { "ID": 255395, "LAT": 17.3, "LON": 108.1, "VMAX": 30.0, "MSLP": 1010.40607, "RMAX": 44.21983, "FSPD": 6.24776, "FDIR": 250.76988, "RENV": 500.0, "PENV": 1012.0, "VALIDT": 0, "DTG": "2024-09-19 00:00", "LATNOW": 16.9, "LONNOW": 106.9, "WINDNOW": 30.0, "DIRNOW": 4.0, "SPDNOW": 3.0, "TECH": "TRAK", "ADVNR": 5, "ATCFID": "WP162024", "NAME": "SOULIK", "FTECH": "JTWC", "FCST_DTG": "2024-09-19 06:00:00", "RUN_DTG": "2024-09-19 20:45:22", "BASIN": "WP", "STMNR": 16, "CAT_ID": null, "CAT_DESC": null, "MSGID": "WTPN51 PGTW 190900", "VALIDTIME": "2024-09-19 00:00:00" }, "geometry": { "type": "Point", "coordinates": [ 108.099998, 17.299999 ] } },
{ "type": "Feature", "properties": { "ID": 255396, "LAT": 16.98, "LON": 107.14, "VMAX": 30.0, "MSLP": 1010.40607, "RMAX": 44.21983, "FSPD": 6.25368, "FDIR": 250.7888, "RENV": 500.0, "PENV": 1012.0, "VALIDT": 0, "DTG": "2024-09-19 04:00", "LATNOW": 16.9, "LONNOW": 106.9, "WINDNOW": 30.0, "DIRNOW": 4.0, "SPDNOW": 3.0, "TECH": "TRAK", "ADVNR": 5, "ATCFID": "WP162024", "NAME": "SOULIK", "FTECH": "JTWC", "FCST_DTG": "2024-09-19 06:00:00", "RUN_DTG": "2024-09-19 20:45:22", "BASIN": "WP", "STMNR": 16, "CAT_ID": null, "CAT_DESC": null, "MSGID": "WTPN51 PGTW 190900", "VALIDTIME": "2024-09-19 04:00:00" }, "geometry": { "type": "Point", "coordinates": [ 107.139999, 16.98 ] } },
{ "type": "Feature", "properties": { "ID": 255397, "LAT": 16.9, "LON": 106.9, "VMAX": 30.0, "MSLP": 1000.0, "RMAX": 15.0, "FSPD": 3.69171, "FDIR": 269.99997, "RENV": 275.0, "PENV": 1002.0, "VALIDT": 0, "DTG": "2024-09-19 06:00", "LATNOW": 16.9, "LONNOW": 106.9, "WINDNOW": 30.0, "DIRNOW": 4.0, "SPDNOW": 3.0, "TECH": "TRAK", "ADVNR": 5, "ATCFID": "WP162024", "NAME": "SOULIK", "FTECH": "JTWC", "FCST_DTG": "2024-09-19 06:00:00", "RUN_DTG": "2024-09-19 20:45:22", "BASIN": "WP", "STMNR": 16, "CAT_ID": null, "CAT_DESC": null, "MSGID": "WTPN51 PGTW 190900", "VALIDTIME": "2024-09-19 06:00:00" }, "geometry": { "type": "Point", "coordinates": [ 106.900002, 16.9 ] } },
{ "type": "Feature", "properties": { "ID": 255398, "LAT": 16.9, "LON": 105.4, "VMAX": 25.0, "MSLP": 1011.80975, "RMAX": 18.01498, "FSPD": 4.00963, "FDIR": 281.096, "RENV": 250.0, "PENV": 1012.0, "VALIDT": 12, "DTG": "2024-09-19 18:00", "LATNOW": 16.9, "LONNOW": 106.9, "WINDNOW": 30.0, "DIRNOW": 4.0, "SPDNOW": 3.0, "TECH": "FCST", "ADVNR": 5, "ATCFID": "WP162024", "NAME": "SOULIK", "FTECH": "JTWC", "FCST_DTG": "2024-09-19 06:00:00", "RUN_DTG": "2024-09-19 20:45:22", "BASIN": "WP", "STMNR": 16, "CAT_ID": null, "CAT_DESC": null, "MSGID": "WTPN51 PGTW 190900", "VALIDTIME": "2024-09-19 18:00:00" }, "geometry": { "type": "Point", "coordinates": [ 105.400002, 16.9 ] } },
{ "type": "Feature", "properties": { "ID": 255399, "LAT": 17.2, "LON": 103.8, "VMAX": 20.0, "MSLP": 1012.95825, "RMAX": 18.01498, "FSPD": 4.00963, "FDIR": 281.096, "RENV": 250.0, "PENV": 1012.0, "VALIDT": 24, "DTG": "2024-09-20 06:00", "LATNOW": 16.9, "LONNOW": 106.9, "WINDNOW": 30.0, "DIRNOW": 4.0, "SPDNOW": 3.0, "TECH": "FCST", "ADVNR": 5, "ATCFID": "WP162024", "NAME": "SOULIK", "FTECH": "JTWC", "FCST_DTG": "2024-09-19 06:00:00", "RUN_DTG": "2024-09-19 20:45:22", "BASIN": "WP", "STMNR": 16, "CAT_ID": null, "CAT_DESC": null, "MSGID": "WTPN51 PGTW 190900", "VALIDTIME": "2024-09-20 06:00:00" }, "geometry": { "type": "Point", "coordinates": [ 103.800003, 17.200001 ] } },
{ "type": "Feature", "properties": { "ID": 255397, "LAT": 16.9, "LON": 106.9, "VMAX": 30.0, "MSLP": 1000.0, "RMAX": 15.0, "FSPD": 3.69171, "FDIR": 269.99997, "RENV": 275.0, "PENV": 1002.0, "VALIDT": 0, "DTG": "2024-09-19 06:00", "LATNOW": 16.9, "LONNOW": 106.9, "WINDNOW": 30.0, "DIRNOW": 4.0, "SPDNOW": 3.0, "TECH": "TRAK", "ADVNR": 5, "ATCFID": "WP162024", "NAME": "SOULIK", "FTECH": "JTWC", "FCST_DTG": "2024-09-19 06:00:00", "RUN_DTG": "2024-09-19 20:45:22", "BASIN": "WP", "STMNR": 16, "CAT_ID": null, "CAT_DESC": null, "MSGID": "WTPN51 PGTW 190900", "VALIDTIME": "2024-09-19 06:00:00" }, "geometry": { "type": "LineString", "coordinates": [ [ 116.9, 19.4 ], [ 116.1, 18.9 ], [ 115.1, 18.3 ], [ 113.6, 17.6 ], [ 112.1, 17.5 ], [ 109.9, 17.4 ], [ 108.1, 17.3 ], [ 107.14, 16.98 ], [ 106.9, 16.9 ] ] } },
{ "type": "Feature", "properties": { "ID": 255399, "LAT": 17.2, "LON": 103.8, "VMAX": 20.0, "MSLP": 1012.95825, "RMAX": 18.01498, "FSPD": 4.00963, "FDIR": 281.096, "RENV": 250.0, "PENV": 1012.0, "VALIDT": 24, "DTG": "2024-09-20 06:00", "LATNOW": 16.9, "LONNOW": 106.9, "WINDNOW": 30.0, "DIRNOW": 4.0, "SPDNOW": 3.0, "TECH": "FCST", "ADVNR": 5, "ATCFID": "WP162024", "NAME": "SOULIK", "FTECH": "JTWC", "FCST_DTG": "2024-09-19 06:00:00", "RUN_DTG": "2024-09-19 20:45:22", "BASIN": "WP", "STMNR": 16, "CAT_ID": null, "CAT_DESC": null, "MSGID": "WTPN51 PGTW 190900", "VALIDTIME": "2024-09-20 06:00:00" }, "geometry": { "type": "LineString", "coordinates": [ [ 106.9, 16.9 ], [ 105.4, 16.9 ], [ 103.8, 17.2 ] ] } }
]
}
