{
"type": "FeatureCollection",
"crs": { "type": "name", "properties": { "name": "urn:ogc:def:crs:OGC:1.3:CRS84" } },
"features": [
{ "type": "Feature", "properties": { "ID": 13036, "LAT": 28.2, "LON": 167.1, "VMAX": 20.0, "MSLP": 1012.95825, "RMAX": 45.0, "FSPD": 3.85099, "FDIR": 200.75342, "RENV": 500.0, "PENV": 1012.0, "VALIDT": 0, "DTG": "2025-08-01 18:00", "LATNOW": 28.1, "LONNOW": 161.9, "WINDNOW": 25.0, "DIRNOW": 4.0, "SPDNOW": 3.0, "TECH": "TRAK", "ADVNR": 3, "ATCFID": "WP142025", "NAME": "FOURTEEN", "FTECH": "JTWC", "FCST_DTG": "2025-08-04 12:00:00", "RUN_DTG": "2025-08-05 06:27:22", "BASIN": "WP", "STMNR": 14, "CAT_ID": null, "CAT_DESC": null, "MSGID": "WTPN53 PGTW 041500", "VALIDTIME": "2025-08-01 18:00:00" }, "geometry": { "type": "Point", "coordinates": [ 167.100006, 28.200001 ] } },
{ "type": "Feature", "properties": { "ID": 13037, "LAT": 27.5, "LON": 166.8, "VMAX": 20.0, "MSLP": 1012.95825, "RMAX": 45.0, "FSPD": 2.91528, "FDIR": 208.07613, "RENV": 500.0, "PENV": 1012.0, "VALIDT": 0, "DTG": "2025-08-02 00:00", "LATNOW": 28.1, "LONNOW": 161.9, "WINDNOW": 25.0, "DIRNOW": 4.0, "SPDNOW": 3.0, "TECH": "TRAK", "ADVNR": 3, "ATCFID": "WP142025", "NAME": "FOURTEEN", "FTECH": "JTWC", "FCST_DTG": "2025-08-04 12:00:00", "RUN_DTG": "2025-08-05 06:27:22", "BASIN": "WP", "STMNR": 14, "CAT_ID": null, "CAT_DESC": null, "MSGID": "WTPN53 PGTW 041500", "VALIDTIME": "2025-08-02 00:00:00" }, "geometry": { "type": "Point", "coordinates": [ 166.800003, 27.5 ] } },
{ "type": "Feature", "properties": { "ID": 13038, "LAT": 27.0, "LON": 166.5, "VMAX": 20.0, "MSLP": 1012.95825, "RMAX": 45.0, "FSPD": 2.61293, "FDIR": 190.12659, "RENV": 500.0, "PENV": 1012.0, "VALIDT": 0, "DTG": "2025-08-02 06:00", "LATNOW": 28.1, "LONNOW": 161.9, "WINDNOW": 25.0, "DIRNOW": 4.0, "SPDNOW": 3.0, "TECH": "TRAK", "ADVNR": 3, "ATCFID": "WP142025", "NAME": "FOURTEEN", "FTECH": "JTWC", "FCST_DTG": "2025-08-04 12:00:00", "RUN_DTG": "2025-08-05 06:27:22", "BASIN": "WP", "STMNR": 14, "CAT_ID": null, "CAT_DESC": null, "MSGID": "WTPN53 PGTW 041500", "VALIDTIME": "2025-08-02 06:00:00" }, "geometry": { "type": "Point", "coordinates": [ 166.5, 27.0 ] } },
{ "type": "Feature", "properties": { "ID": 13039, "LAT": 26.5, "LON": 166.4, "VMAX": 20.0, "MSLP": 1012.95825, "RMAX": 45.0, "FSPD": 2.77394, "FDIR": 236.195, "RENV": 500.0, "PENV": 1012.0, "VALIDT": 0, "DTG": "2025-08-02 12:00", "LATNOW": 28.1, "LONNOW": 161.9, "WINDNOW": 25.0, "DIRNOW": 4.0, "SPDNOW": 3.0, "TECH": "TRAK", "ADVNR": 3, "ATCFID": "WP142025", "NAME": "FOURTEEN", "FTECH": "JTWC", "FCST_DTG": "2025-08-04 12:00:00", "RUN_DTG": "2025-08-05 06:27:22", "BASIN": "WP", "STMNR": 14, "CAT_ID": null, "CAT_DESC": null, "MSGID": "WTPN53 PGTW 041500", "VALIDTIME": "2025-08-02 12:00:00" }, "geometry": { "type": "Point", "coordinates": [ 166.399994, 26.5 ] } },
{ "type": "Feature", "properties": { "ID": 13040, "LAT": 26.2, "LON": 165.9, "VMAX": 20.0, "MSLP": 1012.95825, "RMAX": 45.0, "FSPD": 3.71825, "FDIR": 194.41957, "RENV": 500.0, "PENV": 1012.0, "VALIDT": 0, "DTG": "2025-08-02 18:00", "LATNOW": 28.1, "LONNOW": 161.9, "WINDNOW": 25.0, "DIRNOW": 4.0, "SPDNOW": 3.0, "TECH": "TRAK", "ADVNR": 3, "ATCFID": "WP142025", "NAME": "FOURTEEN", "FTECH": "JTWC", "FCST_DTG": "2025-08-04 12:00:00", "RUN_DTG": "2025-08-05 06:27:22", "BASIN": "WP", "STMNR": 14, "CAT_ID": null, "CAT_DESC": null, "MSGID": "WTPN53 PGTW 041500", "VALIDTIME": "2025-08-02 18:00:00" }, "geometry": { "type": "Point", "coordinates": [ 165.899994, 26.200001 ] } },
{ "type": "Feature", "properties": { "ID": 13041, "LAT": 25.5, "LON": 165.7, "VMAX": 20.0, "MSLP": 1012.95825, "RMAX": 45.0, "FSPD": 3.17044, "FDIR": 35.77557, "RENV": 500.0, "PENV": 1012.0, "VALIDT": 0, "DTG": "2025-08-03 00:00", "LATNOW": 28.1, "LONNOW": 161.9, "WINDNOW": 25.0, "DIRNOW": 4.0, "SPDNOW": 3.0, "TECH": "TRAK", "ADVNR": 3, "ATCFID": "WP142025", "NAME": "FOURTEEN", "FTECH": "JTWC", "FCST_DTG": "2025-08-04 12:00:00", "RUN_DTG": "2025-08-05 06:27:22", "BASIN": "WP", "STMNR": 14, "CAT_ID": null, "CAT_DESC": null, "MSGID": "WTPN53 PGTW 041500", "VALIDTIME": "2025-08-03 00:00:00" }, "geometry": { "type": "Point", "coordinates": [ 165.699997, 25.5 ] } },
{ "type": "Feature", "properties": { "ID": 13042, "LAT": 26.0, "LON": 166.1, "VMAX": 20.0, "MSLP": 1012.95825, "RMAX": 45.0, "FSPD": 4.00373, "FDIR": 292.6731, "RENV": 500.0, "PENV": 1012.0, "VALIDT": 0, "DTG": "2025-08-03 06:00", "LATNOW": 28.1, "LONNOW": 161.9, "WINDNOW": 25.0, "DIRNOW": 4.0, "SPDNOW": 3.0, "TECH": "TRAK", "ADVNR": 3, "ATCFID": "WP142025", "NAME": "FOURTEEN", "FTECH": "JTWC", "FCST_DTG": "2025-08-04 12:00:00", "RUN_DTG": "2025-08-05 06:27:22", "BASIN": "WP", "STMNR": 14, "CAT_ID": null, "CAT_DESC": null, "MSGID": "WTPN53 PGTW 041500", "VALIDTIME": "2025-08-03 06:00:00" }, "geometry": { "type": "Point", "coordinates": [ 166.100006, 26.0 ] } },
{ "type": "Feature", "properties": { "ID": 13043, "LAT": 26.3, "LON": 165.3, "VMAX": 20.0, "MSLP": 1012.95825, "RMAX": 45.0, "FSPD": 3.26769, "FDIR": 279.05798, "RENV": 500.0, "PENV": 1012.0, "VALIDT": 0, "DTG": "2025-08-03 12:00", "LATNOW": 28.1, "LONNOW": 161.9, "WINDNOW": 25.0, "DIRNOW": 4.0, "SPDNOW": 3.0, "TECH": "TRAK", "ADVNR": 3, "ATCFID": "WP142025", "NAME": "FOURTEEN", "FTECH": "JTWC", "FCST_DTG": "2025-08-04 12:00:00", "RUN_DTG": "2025-08-05 06:27:22", "BASIN": "WP", "STMNR": 14, "CAT_ID": null, "CAT_DESC": null, "MSGID": "WTPN53 PGTW 041500", "VALIDTIME": "2025-08-03 12:00:00" }, "geometry": { "type": "Point", "coordinates": [ 165.300003, 26.299999 ] } },
{ "type": "Feature", "properties": { "ID": 13044, "LAT": 26.4, "LON": 164.6, "VMAX": 20.0, "MSLP": 1012.95825, "RMAX": 45.0, "FSPD": 4.48849, "FDIR": 304.9646, "RENV": 500.0, "PENV": 1012.0, "VALIDT": 0, "DTG": "2025-08-03 18:00", "LATNOW": 28.1, "LONNOW": 161.9, "WINDNOW": 25.0, "DIRNOW": 4.0, "SPDNOW": 3.0, "TECH": "TRAK", "ADVNR": 3, "ATCFID": "WP142025", "NAME": "FOURTEEN", "FTECH": "JTWC", "FCST_DTG": "2025-08-04 12:00:00", "RUN_DTG": "2025-08-05 06:27:22", "BASIN": "WP", "STMNR": 14, "CAT_ID": null, "CAT_DESC": null, "MSGID": "WTPN53 PGTW 041500", "VALIDTIME": "2025-08-03 18:00:00" }, "geometry": { "type": "Point", "coordinates": [ 164.600006, 26.4 ] } },
{ "type": "Feature", "properties": { "ID": 13045, "LAT": 26.9, "LON": 163.8, "VMAX": 25.0, "MSLP": 1011.80975, "RMAX": 45.0, "FSPD": 6.73511, "FDIR": 327.16205, "RENV": 500.0, "PENV": 1012.0, "VALIDT": 0, "DTG": "2025-08-04 00:00", "LATNOW": 28.1, "LONNOW": 161.9, "WINDNOW": 25.0, "DIRNOW": 4.0, "SPDNOW": 3.0, "TECH": "TRAK", "ADVNR": 3, "ATCFID": "WP142025", "NAME": "FOURTEEN", "FTECH": "JTWC", "FCST_DTG": "2025-08-04 12:00:00", "RUN_DTG": "2025-08-05 06:27:22", "BASIN": "WP", "STMNR": 14, "CAT_ID": null, "CAT_DESC": null, "MSGID": "WTPN53 PGTW 041500", "VALIDTIME": "2025-08-04 00:00:00" }, "geometry": { "type": "Point", "coordinates": [ 163.800003, 26.9 ] } },
{ "type": "Feature", "properties": { "ID": 13046, "LAT": 28.0, "LON": 163.0, "VMAX": 25.0, "MSLP": 1008.0, "RMAX": 35.0, "FSPD": 5.02064, "FDIR": 275.8812, "RENV": 160.0, "PENV": 1011.0, "VALIDT": 0, "DTG": "2025-08-04 06:00", "LATNOW": 28.1, "LONNOW": 161.9, "WINDNOW": 25.0, "DIRNOW": 4.0, "SPDNOW": 3.0, "TECH": "TRAK", "ADVNR": 3, "ATCFID": "WP142025", "NAME": "FOURTEEN", "FTECH": "JTWC", "FCST_DTG": "2025-08-04 12:00:00", "RUN_DTG": "2025-08-05 06:27:22", "BASIN": "WP", "STMNR": 14, "CAT_ID": null, "CAT_DESC": null, "MSGID": "WTPN53 PGTW 041500", "VALIDTIME": "2025-08-04 06:00:00" }, "geometry": { "type": "Point", "coordinates": [ 163.0, 28.0 ] } },
{ "type": "Feature", "properties": { "ID": 13047, "LAT": 28.1, "LON": 161.9, "VMAX": 25.0, "MSLP": 1008.0, "RMAX": 35.0, "FSPD": 3.98523, "FDIR": 284.9618, "RENV": 160.0, "PENV": 1011.0, "VALIDT": 0, "DTG": "2025-08-04 12:00", "LATNOW": 28.1, "LONNOW": 161.9, "WINDNOW": 25.0, "DIRNOW": 4.0, "SPDNOW": 3.0, "TECH": "TRAK", "ADVNR": 3, "ATCFID": "WP142025", "NAME": "FOURTEEN", "FTECH": "JTWC", "FCST_DTG": "2025-08-04 12:00:00", "RUN_DTG": "2025-08-05 06:27:22", "BASIN": "WP", "STMNR": 14, "CAT_ID": null, "CAT_DESC": null, "MSGID": "WTPN53 PGTW 041500", "VALIDTIME": "2025-08-04 12:00:00" }, "geometry": { "type": "Point", "coordinates": [ 161.899994, 28.1 ] } },
{ "type": "Feature", "properties": { "ID": 13048, "LAT": 28.5, "LON": 160.2, "VMAX": 20.0, "MSLP": 1012.95825, "RMAX": 37.40813, "FSPD": 3.76477, "FDIR": 303.13315, "RENV": 250.0, "PENV": 1012.0, "VALIDT": 12, "DTG": "2025-08-05 00:00", "LATNOW": 28.1, "LONNOW": 161.9, "WINDNOW": 25.0, "DIRNOW": 4.0, "SPDNOW": 3.0, "TECH": "FCST", "ADVNR": 3, "ATCFID": "WP142025", "NAME": "FOURTEEN", "FTECH": "JTWC", "FCST_DTG": "2025-08-04 12:00:00", "RUN_DTG": "2025-08-05 06:27:22", "BASIN": "WP", "STMNR": 14, "CAT_ID": null, "CAT_DESC": null, "MSGID": "WTPN53 PGTW 041500", "VALIDTIME": "2025-08-05 00:00:00" }, "geometry": { "type": "Point", "coordinates": [ 160.199997, 28.5 ] } },
{ "type": "Feature", "properties": { "ID": 13049, "LAT": 29.3, "LON": 158.8, "VMAX": 20.0, "MSLP": 1012.95825, "RMAX": 37.40813, "FSPD": 3.76477, "FDIR": 303.13315, "RENV": 250.0, "PENV": 1012.0, "VALIDT": 24, "DTG": "2025-08-05 12:00", "LATNOW": 28.1, "LONNOW": 161.9, "WINDNOW": 25.0, "DIRNOW": 4.0, "SPDNOW": 3.0, "TECH": "FCST", "ADVNR": 3, "ATCFID": "WP142025", "NAME": "FOURTEEN", "FTECH": "JTWC", "FCST_DTG": "2025-08-04 12:00:00", "RUN_DTG": "2025-08-05 06:27:22", "BASIN": "WP", "STMNR": 14, "CAT_ID": null, "CAT_DESC": null, "MSGID": "WTPN53 PGTW 041500", "VALIDTIME": "2025-08-05 12:00:00" }, "geometry": { "type": "Point", "coordinates": [ 158.800003, 29.299999 ] } },
{ "type": "Feature", "properties": { "ID": 13047, "LAT": 28.1, "LON": 161.9, "VMAX": 25.0, "MSLP": 1008.0, "RMAX": 35.0, "FSPD": 3.98523, "FDIR": 284.9618, "RENV": 160.0, "PENV": 1011.0, "VALIDT": 0, "DTG": "2025-08-04 12:00", "LATNOW": 28.1, "LONNOW": 161.9, "WINDNOW": 25.0, "DIRNOW": 4.0, "SPDNOW": 3.0, "TECH": "TRAK", "ADVNR": 3, "ATCFID": "WP142025", "NAME": "FOURTEEN", "FTECH": "JTWC", "FCST_DTG": "2025-08-04 12:00:00", "RUN_DTG": "2025-08-05 06:27:22", "BASIN": "WP", "STMNR": 14, "CAT_ID": null, "CAT_DESC": null, "MSGID": "WTPN53 PGTW 041500", "VALIDTIME": "2025-08-04 12:00:00" }, "geometry": { "type": "LineString", "coordinates": [ [ 167.1, 28.2 ], [ 166.8, 27.5 ], [ 166.5, 27.0 ], [ 166.4, 26.5 ], [ 165.9, 26.2 ], [ 165.7, 25.5 ], [ 166.1, 26.0 ], [ 165.3, 26.3 ], [ 164.6, 26.4 ], [ 163.8, 26.9 ], [ 163.0, 28.0 ], [ 161.9, 28.1 ] ] } },
{ "type": "Feature", "properties": { "ID": 13049, "LAT": 29.3, "LON": 158.8, "VMAX": 20.0, "MSLP": 1012.95825, "RMAX": 37.40813, "FSPD": 3.76477, "FDIR": 303.13315, "RENV": 250.0, "PENV": 1012.0, "VALIDT": 24, "DTG": "2025-08-05 12:00", "LATNOW": 28.1, "LONNOW": 161.9, "WINDNOW": 25.0, "DIRNOW": 4.0, "SPDNOW": 3.0, "TECH": "FCST", "ADVNR": 3, "ATCFID": "WP142025", "NAME": "FOURTEEN", "FTECH": "JTWC", "FCST_DTG": "2025-08-04 12:00:00", "RUN_DTG": "2025-08-05 06:27:22", "BASIN": "WP", "STMNR": 14, "CAT_ID": null, "CAT_DESC": null, "MSGID": "WTPN53 PGTW 041500", "VALIDTIME": "2025-08-05 12:00:00" }, "geometry": { "type": "LineString", "coordinates": [ [ 161.9, 28.1 ], [ 160.2, 28.5 ], [ 158.8, 29.3 ] ] } }
]
}
