{
"type": "FeatureCollection",
"crs": { "type": "name", "properties": { "name": "urn:ogc:def:crs:OGC:1.3:CRS84" } },
"features": [
{ "type": "Feature", "properties": { "ID": 275398, "LAT": 15.0, "LON": -97.2, "VMAX": 25.0, "MSLP": 1007.0, "RMAX": 50.0, "FSPD": 6.65711, "FDIR": 201.9778, "RENV": 100.0, "PENV": 1009.0, "VALIDT": 0, "DTG": "2024-10-21 00:00", "LATNOW": 22.5, "LONNOW": -129.6, "WINDNOW": 45.0, "DIRNOW": 2.0, "SPDNOW": 3.0, "TECH": "TRAK", "ADVNR": 24, "ATCFID": "EP122024", "NAME": "KRISTY", "FTECH": "OFCL", "FCST_DTG": "2024-10-27 12:00:00", "RUN_DTG": "2024-10-28 02:12:47", "BASIN": "EP", "STMNR": 12, "CAT_ID": null, "CAT_DESC": null, "MSGID": "WTPZ22 KNHC 271430", "VALIDTIME": "2024-10-21 00:00:00" }, "geometry": { "type": "Point", "coordinates": [ -97.199997, 15.0 ] } },
{ "type": "Feature", "properties": { "ID": 275399, "LAT": 13.8, "LON": -97.7, "VMAX": 30.0, "MSLP": 1007.0, "RMAX": 50.0, "FSPD": 11.60116, "FDIR": 262.3551, "RENV": 100.0, "PENV": 1009.0, "VALIDT": 0, "DTG": "2024-10-21 06:00", "LATNOW": 22.5, "LONNOW": -129.6, "WINDNOW": 45.0, "DIRNOW": 2.0, "SPDNOW": 3.0, "TECH": "TRAK", "ADVNR": 24, "ATCFID": "EP122024", "NAME": "KRISTY", "FTECH": "OFCL", "FCST_DTG": "2024-10-27 12:00:00", "RUN_DTG": "2024-10-28 02:12:47", "BASIN": "EP", "STMNR": 12, "CAT_ID": null, "CAT_DESC": null, "MSGID": "WTPZ22 KNHC 271430", "VALIDTIME": "2024-10-21 06:00:00" }, "geometry": { "type": "Point", "coordinates": [ -97.699997, 13.8 ] } },
{ "type": "Feature", "properties": { "ID": 275400, "LAT": 13.5, "LON": -100.0, "VMAX": 30.0, "MSLP": 1005.0, "RMAX": 40.0, "FSPD": 7.02356, "FDIR": 265.79953, "RENV": 80.0, "PENV": 1008.0, "VALIDT": 0, "DTG": "2024-10-21 12:00", "LATNOW": 22.5, "LONNOW": -129.6, "WINDNOW": 45.0, "DIRNOW": 2.0, "SPDNOW": 3.0, "TECH": "TRAK", "ADVNR": 24, "ATCFID": "EP122024", "NAME": "KRISTY", "FTECH": "OFCL", "FCST_DTG": "2024-10-27 12:00:00", "RUN_DTG": "2024-10-28 02:12:47", "BASIN": "EP", "STMNR": 12, "CAT_ID": null, "CAT_DESC": null, "MSGID": "WTPZ22 KNHC 271430", "VALIDTIME": "2024-10-21 12:00:00" }, "geometry": { "type": "Point", "coordinates": [ -100.0, 13.5 ] } },
{ "type": "Feature", "properties": { "ID": 275401, "LAT": 13.4, "LON": -101.4, "VMAX": 35.0, "MSLP": 1005.0, "RMAX": 50.0, "FSPD": 6.09029, "FDIR": 279.72617, "RENV": 100.0, "PENV": 1009.0, "VALIDT": 0, "DTG": "2024-10-21 18:00", "LATNOW": 22.5, "LONNOW": -129.6, "WINDNOW": 45.0, "DIRNOW": 2.0, "SPDNOW": 3.0, "TECH": "TRAK", "ADVNR": 24, "ATCFID": "EP122024", "NAME": "KRISTY", "FTECH": "OFCL", "FCST_DTG": "2024-10-27 12:00:00", "RUN_DTG": "2024-10-28 02:12:47", "BASIN": "EP", "STMNR": 12, "CAT_ID": null, "CAT_DESC": null, "MSGID": "WTPZ22 KNHC 271430", "VALIDTIME": "2024-10-21 18:00:00" }, "geometry": { "type": "Point", "coordinates": [ -101.400002, 13.4 ] } },
{ "type": "Feature", "properties": { "ID": 275402, "LAT": 13.6, "LON": -102.6, "VMAX": 40.0, "MSLP": 1003.0, "RMAX": 40.0, "FSPD": 7.45091, "FDIR": 290.19537, "RENV": 125.0, "PENV": 1009.0, "VALIDT": 0, "DTG": "2024-10-22 00:00", "LATNOW": 22.5, "LONNOW": -129.6, "WINDNOW": 45.0, "DIRNOW": 2.0, "SPDNOW": 3.0, "TECH": "TRAK", "ADVNR": 24, "ATCFID": "EP122024", "NAME": "KRISTY", "FTECH": "OFCL", "FCST_DTG": "2024-10-27 12:00:00", "RUN_DTG": "2024-10-28 02:12:47", "BASIN": "EP", "STMNR": 12, "CAT_ID": null, "CAT_DESC": null, "MSGID": "WTPZ22 KNHC 271430", "VALIDTIME": "2024-10-22 00:00:00" }, "geometry": { "type": "Point", "coordinates": [ -102.599998, 13.6 ] } },
{ "type": "Feature", "properties": { "ID": 275403, "LAT": 14.1, "LON": -104.0, "VMAX": 45.0, "MSLP": 1001.0, "RMAX": 25.0, "FSPD": 10.18024, "FDIR": 281.6618, "RENV": 120.0, "PENV": 1009.0, "VALIDT": 0, "DTG": "2024-10-22 06:00", "LATNOW": 22.5, "LONNOW": -129.6, "WINDNOW": 45.0, "DIRNOW": 2.0, "SPDNOW": 3.0, "TECH": "TRAK", "ADVNR": 24, "ATCFID": "EP122024", "NAME": "KRISTY", "FTECH": "OFCL", "FCST_DTG": "2024-10-27 12:00:00", "RUN_DTG": "2024-10-28 02:12:47", "BASIN": "EP", "STMNR": 12, "CAT_ID": null, "CAT_DESC": null, "MSGID": "WTPZ22 KNHC 271430", "VALIDTIME": "2024-10-22 06:00:00" }, "geometry": { "type": "Point", "coordinates": [ -104.0, 14.1 ] } },
{ "type": "Feature", "properties": { "ID": 275404, "LAT": 14.5, "LON": -106.0, "VMAX": 50.0, "MSLP": 997.0, "RMAX": 25.0, "FSPD": 8.48068, "FDIR": 273.47772, "RENV": 180.0, "PENV": 1010.0, "VALIDT": 0, "DTG": "2024-10-22 12:00", "LATNOW": 22.5, "LONNOW": -129.6, "WINDNOW": 45.0, "DIRNOW": 2.0, "SPDNOW": 3.0, "TECH": "TRAK", "ADVNR": 24, "ATCFID": "EP122024", "NAME": "KRISTY", "FTECH": "OFCL", "FCST_DTG": "2024-10-27 12:00:00", "RUN_DTG": "2024-10-28 02:12:47", "BASIN": "EP", "STMNR": 12, "CAT_ID": null, "CAT_DESC": null, "MSGID": "WTPZ22 KNHC 271430", "VALIDTIME": "2024-10-22 12:00:00" }, "geometry": { "type": "Point", "coordinates": [ -106.0, 14.5 ] } },
{ "type": "Feature", "properties": { "ID": 275405, "LAT": 14.6, "LON": -107.7, "VMAX": 60.0, "MSLP": 993.0, "RMAX": 20.0, "FSPD": 7.48349, "FDIR": 273.9418, "RENV": 180.0, "PENV": 1010.0, "VALIDT": 0, "DTG": "2024-10-22 18:00", "LATNOW": 22.5, "LONNOW": -129.6, "WINDNOW": 45.0, "DIRNOW": 2.0, "SPDNOW": 3.0, "TECH": "TRAK", "ADVNR": 24, "ATCFID": "EP122024", "NAME": "KRISTY", "FTECH": "OFCL", "FCST_DTG": "2024-10-27 12:00:00", "RUN_DTG": "2024-10-28 02:12:47", "BASIN": "EP", "STMNR": 12, "CAT_ID": null, "CAT_DESC": null, "MSGID": "WTPZ22 KNHC 271430", "VALIDTIME": "2024-10-22 18:00:00" }, "geometry": { "type": "Point", "coordinates": [ -107.699997, 14.6 ] } },
{ "type": "Feature", "properties": { "ID": 275406, "LAT": 14.7, "LON": -109.2, "VMAX": 70.0, "MSLP": 983.0, "RMAX": 10.0, "FSPD": 9.51462, "FDIR": 263.792, "RENV": 180.0, "PENV": 1010.0, "VALIDT": 0, "DTG": "2024-10-23 00:00", "LATNOW": 22.5, "LONNOW": -129.6, "WINDNOW": 45.0, "DIRNOW": 2.0, "SPDNOW": 3.0, "TECH": "TRAK", "ADVNR": 24, "ATCFID": "EP122024", "NAME": "KRISTY", "FTECH": "OFCL", "FCST_DTG": "2024-10-27 12:00:00", "RUN_DTG": "2024-10-28 02:12:47", "BASIN": "EP", "STMNR": 12, "CAT_ID": null, "CAT_DESC": null, "MSGID": "WTPZ22 KNHC 271430", "VALIDTIME": "2024-10-23 00:00:00" }, "geometry": { "type": "Point", "coordinates": [ -109.199997, 14.7 ] } },
{ "type": "Feature", "properties": { "ID": 275407, "LAT": 14.5, "LON": -111.1, "VMAX": 80.0, "MSLP": 975.0, "RMAX": 10.0, "FSPD": 9.47922, "FDIR": 266.88895, "RENV": 180.0, "PENV": 1010.0, "VALIDT": 0, "DTG": "2024-10-23 06:00", "LATNOW": 22.5, "LONNOW": -129.6, "WINDNOW": 45.0, "DIRNOW": 2.0, "SPDNOW": 3.0, "TECH": "TRAK", "ADVNR": 24, "ATCFID": "EP122024", "NAME": "KRISTY", "FTECH": "OFCL", "FCST_DTG": "2024-10-27 12:00:00", "RUN_DTG": "2024-10-28 02:12:47", "BASIN": "EP", "STMNR": 12, "CAT_ID": null, "CAT_DESC": null, "MSGID": "WTPZ22 KNHC 271430", "VALIDTIME": "2024-10-23 06:00:00" }, "geometry": { "type": "Point", "coordinates": [ -111.099998, 14.5 ] } },
{ "type": "Feature", "properties": { "ID": 275408, "LAT": 14.4, "LON": -113.0, "VMAX": 105.0, "MSLP": 958.0, "RMAX": 10.0, "FSPD": 8.6158, "FDIR": 259.681, "RENV": 180.0, "PENV": 1010.0, "VALIDT": 0, "DTG": "2024-10-23 12:00", "LATNOW": 22.5, "LONNOW": -129.6, "WINDNOW": 45.0, "DIRNOW": 2.0, "SPDNOW": 3.0, "TECH": "TRAK", "ADVNR": 24, "ATCFID": "EP122024", "NAME": "KRISTY", "FTECH": "OFCL", "FCST_DTG": "2024-10-27 12:00:00", "RUN_DTG": "2024-10-28 02:12:47", "BASIN": "EP", "STMNR": 12, "CAT_ID": null, "CAT_DESC": null, "MSGID": "WTPZ22 KNHC 271430", "VALIDTIME": "2024-10-23 12:00:00" }, "geometry": { "type": "Point", "coordinates": [ -113.0, 14.4 ] } },
{ "type": "Feature", "properties": { "ID": 275409, "LAT": 14.1, "LON": -114.7, "VMAX": 130.0, "MSLP": 932.0, "RMAX": 10.0, "FSPD": 8.49582, "FDIR": 273.4715, "RENV": 180.0, "PENV": 1010.0, "VALIDT": 0, "DTG": "2024-10-23 18:00", "LATNOW": 22.5, "LONNOW": -129.6, "WINDNOW": 45.0, "DIRNOW": 2.0, "SPDNOW": 3.0, "TECH": "TRAK", "ADVNR": 24, "ATCFID": "EP122024", "NAME": "KRISTY", "FTECH": "OFCL", "FCST_DTG": "2024-10-27 12:00:00", "RUN_DTG": "2024-10-28 02:12:47", "BASIN": "EP", "STMNR": 12, "CAT_ID": null, "CAT_DESC": null, "MSGID": "WTPZ22 KNHC 271430", "VALIDTIME": "2024-10-23 18:00:00" }, "geometry": { "type": "Point", "coordinates": [ -114.699997, 14.1 ] } },
{ "type": "Feature", "properties": { "ID": 275410, "LAT": 14.2, "LON": -116.4, "VMAX": 135.0, "MSLP": 928.0, "RMAX": 10.0, "FSPD": 8.99374, "FDIR": 266.7209, "RENV": 180.0, "PENV": 1009.0, "VALIDT": 0, "DTG": "2024-10-24 00:00", "LATNOW": 22.5, "LONNOW": -129.6, "WINDNOW": 45.0, "DIRNOW": 2.0, "SPDNOW": 3.0, "TECH": "TRAK", "ADVNR": 24, "ATCFID": "EP122024", "NAME": "KRISTY", "FTECH": "OFCL", "FCST_DTG": "2024-10-27 12:00:00", "RUN_DTG": "2024-10-28 02:12:47", "BASIN": "EP", "STMNR": 12, "CAT_ID": null, "CAT_DESC": null, "MSGID": "WTPZ22 KNHC 271430", "VALIDTIME": "2024-10-24 00:00:00" }, "geometry": { "type": "Point", "coordinates": [ -116.400002, 14.2 ] } },
{ "type": "Feature", "properties": { "ID": 275411, "LAT": 14.1, "LON": -118.2, "VMAX": 130.0, "MSLP": 933.0, "RMAX": 10.0, "FSPD": 7.50347, "FDIR": 266.0686, "RENV": 180.0, "PENV": 1009.0, "VALIDT": 0, "DTG": "2024-10-24 06:00", "LATNOW": 22.5, "LONNOW": -129.6, "WINDNOW": 45.0, "DIRNOW": 2.0, "SPDNOW": 3.0, "TECH": "TRAK", "ADVNR": 24, "ATCFID": "EP122024", "NAME": "KRISTY", "FTECH": "OFCL", "FCST_DTG": "2024-10-27 12:00:00", "RUN_DTG": "2024-10-28 02:12:47", "BASIN": "EP", "STMNR": 12, "CAT_ID": null, "CAT_DESC": null, "MSGID": "WTPZ22 KNHC 271430", "VALIDTIME": "2024-10-24 06:00:00" }, "geometry": { "type": "Point", "coordinates": [ -118.199997, 14.1 ] } },
{ "type": "Feature", "properties": { "ID": 275412, "LAT": 14.0, "LON": -119.7, "VMAX": 130.0, "MSLP": 933.0, "RMAX": 10.0, "FSPD": 6.50809, "FDIR": 274.53378, "RENV": 180.0, "PENV": 1009.0, "VALIDT": 0, "DTG": "2024-10-24 12:00", "LATNOW": 22.5, "LONNOW": -129.6, "WINDNOW": 45.0, "DIRNOW": 2.0, "SPDNOW": 3.0, "TECH": "TRAK", "ADVNR": 24, "ATCFID": "EP122024", "NAME": "KRISTY", "FTECH": "OFCL", "FCST_DTG": "2024-10-27 12:00:00", "RUN_DTG": "2024-10-28 02:12:47", "BASIN": "EP", "STMNR": 12, "CAT_ID": null, "CAT_DESC": null, "MSGID": "WTPZ22 KNHC 271430", "VALIDTIME": "2024-10-24 12:00:00" }, "geometry": { "type": "Point", "coordinates": [ -119.699997, 14.0 ] } },
{ "type": "Feature", "properties": { "ID": 275413, "LAT": 14.1, "LON": -121.0, "VMAX": 140.0, "MSLP": 926.0, "RMAX": 10.0, "FSPD": 6.17921, "FDIR": 284.46338, "RENV": 180.0, "PENV": 1009.0, "VALIDT": 0, "DTG": "2024-10-24 18:00", "LATNOW": 22.5, "LONNOW": -129.6, "WINDNOW": 45.0, "DIRNOW": 2.0, "SPDNOW": 3.0, "TECH": "TRAK", "ADVNR": 24, "ATCFID": "EP122024", "NAME": "KRISTY", "FTECH": "OFCL", "FCST_DTG": "2024-10-27 12:00:00", "RUN_DTG": "2024-10-28 02:12:47", "BASIN": "EP", "STMNR": 12, "CAT_ID": null, "CAT_DESC": null, "MSGID": "WTPZ22 KNHC 271430", "VALIDTIME": "2024-10-24 18:00:00" }, "geometry": { "type": "Point", "coordinates": [ -121.0, 14.1 ] } },
{ "type": "Feature", "properties": { "ID": 275414, "LAT": 14.4, "LON": -122.2, "VMAX": 140.0, "MSLP": 926.0, "RMAX": 10.0, "FSPD": 6.50299, "FDIR": 293.29993, "RENV": 300.0, "PENV": 1007.0, "VALIDT": 0, "DTG": "2024-10-25 00:00", "LATNOW": 22.5, "LONNOW": -129.6, "WINDNOW": 45.0, "DIRNOW": 2.0, "SPDNOW": 3.0, "TECH": "TRAK", "ADVNR": 24, "ATCFID": "EP122024", "NAME": "KRISTY", "FTECH": "OFCL", "FCST_DTG": "2024-10-27 12:00:00", "RUN_DTG": "2024-10-28 02:12:47", "BASIN": "EP", "STMNR": 12, "CAT_ID": null, "CAT_DESC": null, "MSGID": "WTPZ22 KNHC 271430", "VALIDTIME": "2024-10-25 00:00:00" }, "geometry": { "type": "Point", "coordinates": [ -122.199997, 14.4 ] } },
{ "type": "Feature", "properties": { "ID": 275415, "LAT": 14.9, "LON": -123.4, "VMAX": 130.0, "MSLP": 932.0, "RMAX": 10.0, "FSPD": 5.43055, "FDIR": 304.638, "RENV": 270.0, "PENV": 1008.0, "VALIDT": 0, "DTG": "2024-10-25 06:00", "LATNOW": 22.5, "LONNOW": -129.6, "WINDNOW": 45.0, "DIRNOW": 2.0, "SPDNOW": 3.0, "TECH": "TRAK", "ADVNR": 24, "ATCFID": "EP122024", "NAME": "KRISTY", "FTECH": "OFCL", "FCST_DTG": "2024-10-27 12:00:00", "RUN_DTG": "2024-10-28 02:12:47", "BASIN": "EP", "STMNR": 12, "CAT_ID": null, "CAT_DESC": null, "MSGID": "WTPZ22 KNHC 271430", "VALIDTIME": "2024-10-25 06:00:00" }, "geometry": { "type": "Point", "coordinates": [ -123.400002, 14.9 ] } },
{ "type": "Feature", "properties": { "ID": 275416, "LAT": 15.5, "LON": -124.3, "VMAX": 115.0, "MSLP": 948.0, "RMAX": 10.0, "FSPD": 7.14434, "FDIR": 310.39584, "RENV": 260.0, "PENV": 1008.0, "VALIDT": 0, "DTG": "2024-10-25 12:00", "LATNOW": 22.5, "LONNOW": -129.6, "WINDNOW": 45.0, "DIRNOW": 2.0, "SPDNOW": 3.0, "TECH": "TRAK", "ADVNR": 24, "ATCFID": "EP122024", "NAME": "KRISTY", "FTECH": "OFCL", "FCST_DTG": "2024-10-27 12:00:00", "RUN_DTG": "2024-10-28 02:12:47", "BASIN": "EP", "STMNR": 12, "CAT_ID": null, "CAT_DESC": null, "MSGID": "WTPZ22 KNHC 271430", "VALIDTIME": "2024-10-25 12:00:00" }, "geometry": { "type": "Point", "coordinates": [ -124.300003, 15.5 ] } },
{ "type": "Feature", "properties": { "ID": 275417, "LAT": 16.4, "LON": -125.4, "VMAX": 105.0, "MSLP": 958.0, "RMAX": 10.0, "FSPD": 6.10207, "FDIR": 306.16742, "RENV": 260.0, "PENV": 1008.0, "VALIDT": 0, "DTG": "2024-10-25 18:00", "LATNOW": 22.5, "LONNOW": -129.6, "WINDNOW": 45.0, "DIRNOW": 2.0, "SPDNOW": 3.0, "TECH": "TRAK", "ADVNR": 24, "ATCFID": "EP122024", "NAME": "KRISTY", "FTECH": "OFCL", "FCST_DTG": "2024-10-27 12:00:00", "RUN_DTG": "2024-10-28 02:12:47", "BASIN": "EP", "STMNR": 12, "CAT_ID": null, "CAT_DESC": null, "MSGID": "WTPZ22 KNHC 271430", "VALIDTIME": "2024-10-25 18:00:00" }, "geometry": { "type": "Point", "coordinates": [ -125.400002, 16.4 ] } },
{ "type": "Feature", "properties": { "ID": 275418, "LAT": 17.1, "LON": -126.4, "VMAX": 95.0, "MSLP": 965.0, "RMAX": 15.0, "FSPD": 6.46949, "FDIR": 322.67273, "RENV": 180.0, "PENV": 1007.0, "VALIDT": 0, "DTG": "2024-10-26 00:00", "LATNOW": 22.5, "LONNOW": -129.6, "WINDNOW": 45.0, "DIRNOW": 2.0, "SPDNOW": 3.0, "TECH": "TRAK", "ADVNR": 24, "ATCFID": "EP122024", "NAME": "KRISTY", "FTECH": "OFCL", "FCST_DTG": "2024-10-27 12:00:00", "RUN_DTG": "2024-10-28 02:12:47", "BASIN": "EP", "STMNR": 12, "CAT_ID": null, "CAT_DESC": null, "MSGID": "WTPZ22 KNHC 271430", "VALIDTIME": "2024-10-26 00:00:00" }, "geometry": { "type": "Point", "coordinates": [ -126.400002, 17.1 ] } },
{ "type": "Feature", "properties": { "ID": 275419, "LAT": 18.1, "LON": -127.2, "VMAX": 85.0, "MSLP": 972.0, "RMAX": 20.0, "FSPD": 7.16018, "FDIR": 322.2162, "RENV": 200.0, "PENV": 1008.0, "VALIDT": 0, "DTG": "2024-10-26 06:00", "LATNOW": 22.5, "LONNOW": -129.6, "WINDNOW": 45.0, "DIRNOW": 2.0, "SPDNOW": 3.0, "TECH": "TRAK", "ADVNR": 24, "ATCFID": "EP122024", "NAME": "KRISTY", "FTECH": "OFCL", "FCST_DTG": "2024-10-27 12:00:00", "RUN_DTG": "2024-10-28 02:12:47", "BASIN": "EP", "STMNR": 12, "CAT_ID": null, "CAT_DESC": null, "MSGID": "WTPZ22 KNHC 271430", "VALIDTIME": "2024-10-26 06:00:00" }, "geometry": { "type": "Point", "coordinates": [ -127.199997, 18.1 ] } },
{ "type": "Feature", "properties": { "ID": 275420, "LAT": 19.2, "LON": -128.1, "VMAX": 70.0, "MSLP": 982.0, "RMAX": 20.0, "FSPD": 6.44034, "FDIR": 323.01422, "RENV": 200.0, "PENV": 1009.0, "VALIDT": 0, "DTG": "2024-10-26 12:00", "LATNOW": 22.5, "LONNOW": -129.6, "WINDNOW": 45.0, "DIRNOW": 2.0, "SPDNOW": 3.0, "TECH": "TRAK", "ADVNR": 24, "ATCFID": "EP122024", "NAME": "KRISTY", "FTECH": "OFCL", "FCST_DTG": "2024-10-27 12:00:00", "RUN_DTG": "2024-10-28 02:12:47", "BASIN": "EP", "STMNR": 12, "CAT_ID": null, "CAT_DESC": null, "MSGID": "WTPZ22 KNHC 271430", "VALIDTIME": "2024-10-26 12:00:00" }, "geometry": { "type": "Point", "coordinates": [ -128.100006, 19.200001 ] } },
{ "type": "Feature", "properties": { "ID": 275421, "LAT": 20.2, "LON": -128.9, "VMAX": 60.0, "MSLP": 990.0, "RMAX": 20.0, "FSPD": 5.01447, "FDIR": 337.41757, "RENV": 200.0, "PENV": 1009.0, "VALIDT": 0, "DTG": "2024-10-26 18:00", "LATNOW": 22.5, "LONNOW": -129.6, "WINDNOW": 45.0, "DIRNOW": 2.0, "SPDNOW": 3.0, "TECH": "TRAK", "ADVNR": 24, "ATCFID": "EP122024", "NAME": "KRISTY", "FTECH": "OFCL", "FCST_DTG": "2024-10-27 12:00:00", "RUN_DTG": "2024-10-28 02:12:47", "BASIN": "EP", "STMNR": 12, "CAT_ID": null, "CAT_DESC": null, "MSGID": "WTPZ22 KNHC 271430", "VALIDTIME": "2024-10-26 18:00:00" }, "geometry": { "type": "Point", "coordinates": [ -128.899994, 20.200001 ] } },
{ "type": "Feature", "properties": { "ID": 275422, "LAT": 21.1, "LON": -129.3, "VMAX": 50.0, "MSLP": 996.0, "RMAX": 20.0, "FSPD": 3.2319, "FDIR": 342.75842, "RENV": 120.0, "PENV": 1010.0, "VALIDT": 0, "DTG": "2024-10-27 00:00", "LATNOW": 22.5, "LONNOW": -129.6, "WINDNOW": 45.0, "DIRNOW": 2.0, "SPDNOW": 3.0, "TECH": "TRAK", "ADVNR": 24, "ATCFID": "EP122024", "NAME": "KRISTY", "FTECH": "OFCL", "FCST_DTG": "2024-10-27 12:00:00", "RUN_DTG": "2024-10-28 02:12:47", "BASIN": "EP", "STMNR": 12, "CAT_ID": null, "CAT_DESC": null, "MSGID": "WTPZ22 KNHC 271430", "VALIDTIME": "2024-10-27 00:00:00" }, "geometry": { "type": "Point", "coordinates": [ -129.300003, 21.1 ] } },
{ "type": "Feature", "properties": { "ID": 275423, "LAT": 21.7, "LON": -129.5, "VMAX": 50.0, "MSLP": 1000.0, "RMAX": 40.0, "FSPD": 4.14306, "FDIR": 353.39325, "RENV": 100.0, "PENV": 1012.0, "VALIDT": 0, "DTG": "2024-10-27 06:00", "LATNOW": 22.5, "LONNOW": -129.6, "WINDNOW": 45.0, "DIRNOW": 2.0, "SPDNOW": 3.0, "TECH": "TRAK", "ADVNR": 24, "ATCFID": "EP122024", "NAME": "KRISTY", "FTECH": "OFCL", "FCST_DTG": "2024-10-27 12:00:00", "RUN_DTG": "2024-10-28 02:12:47", "BASIN": "EP", "STMNR": 12, "CAT_ID": null, "CAT_DESC": null, "MSGID": "WTPZ22 KNHC 271430", "VALIDTIME": "2024-10-27 06:00:00" }, "geometry": { "type": "Point", "coordinates": [ -129.5, 21.700001 ] } },
{ "type": "Feature", "properties": { "ID": 275424, "LAT": 22.5, "LON": -129.6, "VMAX": 45.0, "MSLP": 1003.0, "RMAX": 40.0, "FSPD": 2.16107, "FDIR": 298.4312, "RENV": 100.0, "PENV": 1012.0, "VALIDT": 0, "DTG": "2024-10-27 12:00", "LATNOW": 22.5, "LONNOW": -129.6, "WINDNOW": 45.0, "DIRNOW": 2.0, "SPDNOW": 3.0, "TECH": "TRAK", "ADVNR": 24, "ATCFID": "EP122024", "NAME": "KRISTY", "FTECH": "OFCL", "FCST_DTG": "2024-10-27 12:00:00", "RUN_DTG": "2024-10-28 02:12:47", "BASIN": "EP", "STMNR": 12, "CAT_ID": null, "CAT_DESC": null, "MSGID": "WTPZ22 KNHC 271430", "VALIDTIME": "2024-10-27 12:00:00" }, "geometry": { "type": "Point", "coordinates": [ -129.600006, 22.5 ] } },
{ "type": "Feature", "properties": { "ID": 275425, "LAT": 22.6, "LON": -129.8, "VMAX": 40.0, "MSLP": 1003.0, "RMAX": 40.0, "FSPD": 2.24196, "FDIR": 278.79938, "RENV": 180.0, "PENV": 1012.0, "VALIDT": 3, "DTG": "2024-10-27 15:00", "LATNOW": 22.5, "LONNOW": -129.6, "WINDNOW": 45.0, "DIRNOW": 2.0, "SPDNOW": 3.0, "TECH": "FCST", "ADVNR": 24, "ATCFID": "EP122024", "NAME": "KRISTY", "FTECH": "OFCL", "FCST_DTG": "2024-10-27 12:00:00", "RUN_DTG": "2024-10-28 02:12:47", "BASIN": "EP", "STMNR": 12, "CAT_ID": null, "CAT_DESC": null, "MSGID": "WTPZ22 KNHC 271430", "VALIDTIME": "2024-10-27 15:00:00" }, "geometry": { "type": "Point", "coordinates": [ -129.800003, 22.6 ] } },
{ "type": "Feature", "properties": { "ID": 275426, "LAT": 22.7, "LON": -130.5, "VMAX": 30.0, "MSLP": 1010.40607, "RMAX": 45.38993, "FSPD": 3.3474, "FDIR": 247.40517, "RENV": 250.0, "PENV": 1012.0, "VALIDT": 12, "DTG": "2024-10-28 00:00", "LATNOW": 22.5, "LONNOW": -129.6, "WINDNOW": 45.0, "DIRNOW": 2.0, "SPDNOW": 3.0, "TECH": "FCST", "ADVNR": 24, "ATCFID": "EP122024", "NAME": "KRISTY", "FTECH": "OFCL", "FCST_DTG": "2024-10-27 12:00:00", "RUN_DTG": "2024-10-28 02:12:47", "BASIN": "EP", "STMNR": 12, "CAT_ID": null, "CAT_DESC": null, "MSGID": "WTPZ22 KNHC 271430", "VALIDTIME": "2024-10-28 00:00:00" }, "geometry": { "type": "Point", "coordinates": [ -130.5, 22.700001 ] } },
{ "type": "Feature", "properties": { "ID": 275427, "LAT": 22.2, "LON": -131.8, "VMAX": 25.0, "MSLP": 1011.80975, "RMAX": 46.19074, "FSPD": 3.3474, "FDIR": 247.40517, "RENV": 250.0, "PENV": 1012.0, "VALIDT": 24, "DTG": "2024-10-28 12:00", "LATNOW": 22.5, "LONNOW": -129.6, "WINDNOW": 45.0, "DIRNOW": 2.0, "SPDNOW": 3.0, "TECH": "FCST", "ADVNR": 24, "ATCFID": "EP122024", "NAME": "KRISTY", "FTECH": "OFCL", "FCST_DTG": "2024-10-27 12:00:00", "RUN_DTG": "2024-10-28 02:12:47", "BASIN": "EP", "STMNR": 12, "CAT_ID": null, "CAT_DESC": null, "MSGID": "WTPZ22 KNHC 271430", "VALIDTIME": "2024-10-28 12:00:00" }, "geometry": { "type": "Point", "coordinates": [ -131.800003, 22.200001 ] } },
{ "type": "Feature", "properties": { "ID": 275424, "LAT": 22.5, "LON": -129.6, "VMAX": 45.0, "MSLP": 1003.0, "RMAX": 40.0, "FSPD": 2.16107, "FDIR": 298.4312, "RENV": 100.0, "PENV": 1012.0, "VALIDT": 0, "DTG": "2024-10-27 12:00", "LATNOW": 22.5, "LONNOW": -129.6, "WINDNOW": 45.0, "DIRNOW": 2.0, "SPDNOW": 3.0, "TECH": "TRAK", "ADVNR": 24, "ATCFID": "EP122024", "NAME": "KRISTY", "FTECH": "OFCL", "FCST_DTG": "2024-10-27 12:00:00", "RUN_DTG": "2024-10-28 02:12:47", "BASIN": "EP", "STMNR": 12, "CAT_ID": null, "CAT_DESC": null, "MSGID": "WTPZ22 KNHC 271430", "VALIDTIME": "2024-10-27 12:00:00" }, "geometry": { "type": "LineString", "coordinates": [ [ -97.2, 15.0 ], [ -97.7, 13.8 ], [ -100.0, 13.5 ], [ -101.4, 13.4 ], [ -102.6, 13.6 ], [ -104.0, 14.1 ], [ -106.0, 14.5 ], [ -107.7, 14.6 ], [ -109.2, 14.7 ], [ -111.1, 14.5 ], [ -113.0, 14.4 ], [ -114.7, 14.1 ], [ -116.4, 14.2 ], [ -118.2, 14.1 ], [ -119.7, 14.0 ], [ -121.0, 14.1 ], [ -122.2, 14.4 ], [ -123.4, 14.9 ], [ -124.3, 15.5 ], [ -125.4, 16.4 ], [ -126.4, 17.1 ], [ -127.2, 18.1 ], [ -128.1, 19.2 ], [ -128.9, 20.2 ], [ -129.3, 21.1 ], [ -129.5, 21.7 ], [ -129.6, 22.5 ] ] } },
{ "type": "Feature", "properties": { "ID": 275427, "LAT": 22.2, "LON": -131.8, "VMAX": 25.0, "MSLP": 1011.80975, "RMAX": 46.19074, "FSPD": 3.3474, "FDIR": 247.40517, "RENV": 250.0, "PENV": 1012.0, "VALIDT": 24, "DTG": "2024-10-28 12:00", "LATNOW": 22.5, "LONNOW": -129.6, "WINDNOW": 45.0, "DIRNOW": 2.0, "SPDNOW": 3.0, "TECH": "FCST", "ADVNR": 24, "ATCFID": "EP122024", "NAME": "KRISTY", "FTECH": "OFCL", "FCST_DTG": "2024-10-27 12:00:00", "RUN_DTG": "2024-10-28 02:12:47", "BASIN": "EP", "STMNR": 12, "CAT_ID": null, "CAT_DESC": null, "MSGID": "WTPZ22 KNHC 271430", "VALIDTIME": "2024-10-28 12:00:00" }, "geometry": { "type": "LineString", "coordinates": [ [ -129.6, 22.5 ], [ -129.8, 22.6 ], [ -130.5, 22.7 ], [ -131.8, 22.2 ] ] } }
]
}
