{
"type": "FeatureCollection",
"crs": { "type": "name", "properties": { "name": "urn:ogc:def:crs:OGC:1.3:CRS84" } },
"features": [
{ "type": "Feature", "properties": { "ID": 9321, "LAT": 11.9, "LON": -142.3, "VMAX": 30.0, "MSLP": 1009.0, "RMAX": 30.0, "FSPD": 4.55875, "FDIR": 276.4795, "RENV": 100.0, "PENV": 1012.0, "VALIDT": 0, "DTG": "2025-07-28 06:00", "LATNOW": 11.9, "LONNOW": -142.3, "WINDNOW": 30.0, "DIRNOW": 5.0, "SPDNOW": 3.0, "TECH": "TRAK", "ADVNR": null, "ATCFID": "CP022025", "NAME": "KELI", "FTECH": "OFCL", "FCST_DTG": "2025-07-30 18:00:00", "RUN_DTG": "2025-07-31 16:37:39", "BASIN": "CP", "STMNR": 2, "CAT_ID": null, "CAT_DESC": null, "MSGID": null, "VALIDTIME": "2025-07-28 06:00:00" }, "geometry": { "type": "Point", "coordinates": [ -142.300003, 11.9 ] } },
{ "type": "Feature", "properties": { "ID": 9322, "LAT": 12.0, "LON": -143.2, "VMAX": 30.0, "MSLP": 1008.0, "RMAX": 30.0, "FSPD": 5.03203, "FDIR": 269.99997, "RENV": 100.0, "PENV": 1011.0, "VALIDT": 0, "DTG": "2025-07-28 12:00", "LATNOW": 11.9, "LONNOW": -142.3, "WINDNOW": 30.0, "DIRNOW": 5.0, "SPDNOW": 3.0, "TECH": "TRAK", "ADVNR": null, "ATCFID": "CP022025", "NAME": "KELI", "FTECH": "OFCL", "FCST_DTG": "2025-07-30 18:00:00", "RUN_DTG": "2025-07-31 16:37:39", "BASIN": "CP", "STMNR": 2, "CAT_ID": null, "CAT_DESC": null, "MSGID": null, "VALIDTIME": "2025-07-28 12:00:00" }, "geometry": { "type": "Point", "coordinates": [ -143.199997, 12.0 ] } },
{ "type": "Feature", "properties": { "ID": 9323, "LAT": 12.0, "LON": -144.2, "VMAX": 35.0, "MSLP": 1006.0, "RMAX": 20.0, "FSPD": 4.15359, "FDIR": 284.34204, "RENV": 90.0, "PENV": 1011.0, "VALIDT": 0, "DTG": "2025-07-28 18:00", "LATNOW": 11.9, "LONNOW": -142.3, "WINDNOW": 30.0, "DIRNOW": 5.0, "SPDNOW": 3.0, "TECH": "TRAK", "ADVNR": null, "ATCFID": "CP022025", "NAME": "KELI", "FTECH": "OFCL", "FCST_DTG": "2025-07-30 18:00:00", "RUN_DTG": "2025-07-31 16:37:39", "BASIN": "CP", "STMNR": 2, "CAT_ID": null, "CAT_DESC": null, "MSGID": null, "VALIDTIME": "2025-07-28 18:00:00" }, "geometry": { "type": "Point", "coordinates": [ -144.199997, 12.0 ] } },
{ "type": "Feature", "properties": { "ID": 9324, "LAT": 12.2, "LON": -145.0, "VMAX": 35.0, "MSLP": 1006.0, "RMAX": 20.0, "FSPD": 5.13058, "FDIR": 281.56854, "RENV": 100.0, "PENV": 1011.0, "VALIDT": 0, "DTG": "2025-07-29 00:00", "LATNOW": 11.9, "LONNOW": -142.3, "WINDNOW": 30.0, "DIRNOW": 5.0, "SPDNOW": 3.0, "TECH": "TRAK", "ADVNR": null, "ATCFID": "CP022025", "NAME": "KELI", "FTECH": "OFCL", "FCST_DTG": "2025-07-30 18:00:00", "RUN_DTG": "2025-07-31 16:37:39", "BASIN": "CP", "STMNR": 2, "CAT_ID": null, "CAT_DESC": null, "MSGID": null, "VALIDTIME": "2025-07-29 00:00:00" }, "geometry": { "type": "Point", "coordinates": [ -145.0, 12.2 ] } },
{ "type": "Feature", "properties": { "ID": 9325, "LAT": 12.4, "LON": -146.0, "VMAX": 35.0, "MSLP": 1006.0, "RMAX": 20.0, "FSPD": 6.53178, "FDIR": 269.99997, "RENV": 100.0, "PENV": 1011.0, "VALIDT": 0, "DTG": "2025-07-29 06:00", "LATNOW": 11.9, "LONNOW": -142.3, "WINDNOW": 30.0, "DIRNOW": 5.0, "SPDNOW": 3.0, "TECH": "TRAK", "ADVNR": null, "ATCFID": "CP022025", "NAME": "KELI", "FTECH": "OFCL", "FCST_DTG": "2025-07-30 18:00:00", "RUN_DTG": "2025-07-31 16:37:39", "BASIN": "CP", "STMNR": 2, "CAT_ID": null, "CAT_DESC": null, "MSGID": null, "VALIDTIME": "2025-07-29 06:00:00" }, "geometry": { "type": "Point", "coordinates": [ -146.0, 12.4 ] } },
{ "type": "Feature", "properties": { "ID": 9326, "LAT": 12.4, "LON": -147.3, "VMAX": 35.0, "MSLP": 1006.0, "RMAX": 20.0, "FSPD": 9.16958, "FDIR": 279.68958, "RENV": 100.0, "PENV": 1011.0, "VALIDT": 0, "DTG": "2025-07-29 12:00", "LATNOW": 11.9, "LONNOW": -142.3, "WINDNOW": 30.0, "DIRNOW": 5.0, "SPDNOW": 3.0, "TECH": "TRAK", "ADVNR": null, "ATCFID": "CP022025", "NAME": "KELI", "FTECH": "OFCL", "FCST_DTG": "2025-07-30 18:00:00", "RUN_DTG": "2025-07-31 16:37:39", "BASIN": "CP", "STMNR": 2, "CAT_ID": null, "CAT_DESC": null, "MSGID": null, "VALIDTIME": "2025-07-29 12:00:00" }, "geometry": { "type": "Point", "coordinates": [ -147.300003, 12.4 ] } },
{ "type": "Feature", "properties": { "ID": 9327, "LAT": 12.7, "LON": -149.1, "VMAX": 35.0, "MSLP": 1006.0, "RMAX": 20.0, "FSPD": 9.15899, "FDIR": 279.70087, "RENV": 100.0, "PENV": 1011.0, "VALIDT": 0, "DTG": "2025-07-29 18:00", "LATNOW": 11.9, "LONNOW": -142.3, "WINDNOW": 30.0, "DIRNOW": 5.0, "SPDNOW": 3.0, "TECH": "TRAK", "ADVNR": null, "ATCFID": "CP022025", "NAME": "KELI", "FTECH": "OFCL", "FCST_DTG": "2025-07-30 18:00:00", "RUN_DTG": "2025-07-31 16:37:39", "BASIN": "CP", "STMNR": 2, "CAT_ID": null, "CAT_DESC": null, "MSGID": null, "VALIDTIME": "2025-07-29 18:00:00" }, "geometry": { "type": "Point", "coordinates": [ -149.100006, 12.7 ] } },
{ "type": "Feature", "properties": { "ID": 9328, "LAT": 13.0, "LON": -150.9, "VMAX": 35.0, "MSLP": 1006.0, "RMAX": 20.0, "FSPD": 9.64249, "FDIR": 279.21008, "RENV": 100.0, "PENV": 1011.0, "VALIDT": 0, "DTG": "2025-07-30 00:00", "LATNOW": 11.9, "LONNOW": -142.3, "WINDNOW": 30.0, "DIRNOW": 5.0, "SPDNOW": 3.0, "TECH": "TRAK", "ADVNR": null, "ATCFID": "CP022025", "NAME": "KELI", "FTECH": "OFCL", "FCST_DTG": "2025-07-30 18:00:00", "RUN_DTG": "2025-07-31 16:37:39", "BASIN": "CP", "STMNR": 2, "CAT_ID": null, "CAT_DESC": null, "MSGID": null, "VALIDTIME": "2025-07-30 00:00:00" }, "geometry": { "type": "Point", "coordinates": [ -150.899994, 13.0 ] } },
{ "type": "Feature", "properties": { "ID": 9329, "LAT": 13.3, "LON": -152.8, "VMAX": 35.0, "MSLP": 1006.0, "RMAX": 20.0, "FSPD": 9.13733, "FDIR": 279.72412, "RENV": 100.0, "PENV": 1012.0, "VALIDT": 0, "DTG": "2025-07-30 06:00", "LATNOW": 11.9, "LONNOW": -142.3, "WINDNOW": 30.0, "DIRNOW": 5.0, "SPDNOW": 3.0, "TECH": "TRAK", "ADVNR": null, "ATCFID": "CP022025", "NAME": "KELI", "FTECH": "OFCL", "FCST_DTG": "2025-07-30 18:00:00", "RUN_DTG": "2025-07-31 16:37:39", "BASIN": "CP", "STMNR": 2, "CAT_ID": null, "CAT_DESC": null, "MSGID": null, "VALIDTIME": "2025-07-30 06:00:00" }, "geometry": { "type": "Point", "coordinates": [ -152.800003, 13.3 ] } },
{ "type": "Feature", "properties": { "ID": 9330, "LAT": 13.6, "LON": -154.6, "VMAX": 35.0, "MSLP": 1006.0, "RMAX": 20.0, "FSPD": 5.52302, "FDIR": 275.34454, "RENV": 100.0, "PENV": 1012.0, "VALIDT": 0, "DTG": "2025-07-30 12:00", "LATNOW": 11.9, "LONNOW": -142.3, "WINDNOW": 30.0, "DIRNOW": 5.0, "SPDNOW": 3.0, "TECH": "TRAK", "ADVNR": null, "ATCFID": "CP022025", "NAME": "KELI", "FTECH": "OFCL", "FCST_DTG": "2025-07-30 18:00:00", "RUN_DTG": "2025-07-31 16:37:39", "BASIN": "CP", "STMNR": 2, "CAT_ID": null, "CAT_DESC": null, "MSGID": null, "VALIDTIME": "2025-07-30 12:00:00" }, "geometry": { "type": "Point", "coordinates": [ -154.600006, 13.6 ] } },
{ "type": "Feature", "properties": { "ID": 9331, "LAT": 13.7, "LON": -155.7, "VMAX": 35.0, "MSLP": 1006.0, "RMAX": 20.0, "FSPD": 18.15693, "FDIR": 278.14426, "RENV": 100.0, "PENV": 1012.0, "VALIDT": 0, "DTG": "2025-07-30 18:00", "LATNOW": 11.9, "LONNOW": -142.3, "WINDNOW": 30.0, "DIRNOW": 5.0, "SPDNOW": 3.0, "TECH": "TRAK", "ADVNR": null, "ATCFID": "CP022025", "NAME": "KELI", "FTECH": "OFCL", "FCST_DTG": "2025-07-30 18:00:00", "RUN_DTG": "2025-07-31 16:37:39", "BASIN": "CP", "STMNR": 2, "CAT_ID": null, "CAT_DESC": null, "MSGID": null, "VALIDTIME": "2025-07-30 18:00:00" }, "geometry": { "type": "Point", "coordinates": [ -155.699997, 13.7 ] } },
{ "type": "Feature", "properties": { "ID": 9332, "LAT": 14.2, "LON": -159.3, "VMAX": 31.0, "MSLP": 1011.0, "RMAX": 44.8843, "FSPD": 18.15693, "FDIR": 278.14426, "RENV": 500.0, "PENV": 1012.0, "VALIDT": 0, "DTG": "2025-07-31 00:00", "LATNOW": 11.9, "LONNOW": -142.3, "WINDNOW": 30.0, "DIRNOW": 5.0, "SPDNOW": 3.0, "TECH": "TRAK", "ADVNR": null, "ATCFID": "CP022025", "NAME": "KELI", "FTECH": "OFCL", "FCST_DTG": "2025-07-30 18:00:00", "RUN_DTG": "2025-07-31 16:37:39", "BASIN": "CP", "STMNR": 2, "CAT_ID": null, "CAT_DESC": null, "MSGID": null, "VALIDTIME": "2025-07-31 00:00:00" }, "geometry": { "type": "Point", "coordinates": [ -159.300003, 14.2 ] } },
{ "type": "Feature", "properties": { "ID": 9332, "LAT": 14.2, "LON": -159.3, "VMAX": 31.0, "MSLP": 1011.0, "RMAX": 44.8843, "FSPD": 18.15693, "FDIR": 278.14426, "RENV": 500.0, "PENV": 1012.0, "VALIDT": 0, "DTG": "2025-07-31 00:00", "LATNOW": 11.9, "LONNOW": -142.3, "WINDNOW": 30.0, "DIRNOW": 5.0, "SPDNOW": 3.0, "TECH": "TRAK", "ADVNR": null, "ATCFID": "CP022025", "NAME": "KELI", "FTECH": "OFCL", "FCST_DTG": "2025-07-30 18:00:00", "RUN_DTG": "2025-07-31 16:37:39", "BASIN": "CP", "STMNR": 2, "CAT_ID": null, "CAT_DESC": null, "MSGID": null, "VALIDTIME": "2025-07-31 00:00:00" }, "geometry": { "type": "LineString", "coordinates": [ [ -142.3, 11.9 ], [ -143.2, 12.0 ], [ -144.2, 12.0 ], [ -145.0, 12.2 ], [ -146.0, 12.4 ], [ -147.3, 12.4 ], [ -149.1, 12.7 ], [ -150.9, 13.0 ], [ -152.8, 13.3 ], [ -154.6, 13.6 ], [ -155.7, 13.7 ], [ -159.3, 14.2 ] ] } }
]
}
