{
"type": "FeatureCollection",
"crs": { "type": "name", "properties": { "name": "urn:ogc:def:crs:OGC:1.3:CRS84" } },
"features": [
{ "type": "Feature", "properties": { "ID": 93120, "LAT": -15.5, "LON": 146.7, "VMAX": 20.0, "MSLP": 1012.95825, "RMAX": 45.0, "FSPD": 2.23316, "FDIR": 117.43427, "RENV": 500.0, "PENV": 1012.0, "VALIDT": 0, "DTG": "2026-01-05 06:00", "LATNOW": -20.1, "LONNOW": 147.7, "WINDNOW": 35.0, "DIRNOW": 3.0, "SPDNOW": 4.0, "TECH": "TRAK", "ADVNR": 4, "ATCFID": "SH132026", "NAME": "KOJI", "FTECH": "JTWC", "FCST_DTG": "2026-01-11 00:00:00", "RUN_DTG": "2026-01-11 08:10:41", "BASIN": "SH", "STMNR": 13, "CAT_ID": null, "CAT_DESC": null, "MSGID": "WTPS51 PGTW 110300", "VALIDTIME": "2026-01-05 06:00:00" }, "geometry": { "type": "Point", "coordinates": [ 146.699997, -15.5 ] } },
{ "type": "Feature", "properties": { "ID": 93121, "LAT": -15.7, "LON": 147.1, "VMAX": 20.0, "MSLP": 1012.95825, "RMAX": 45.0, "FSPD": 1.98098, "FDIR": 90.0, "RENV": 500.0, "PENV": 1012.0, "VALIDT": 0, "DTG": "2026-01-05 12:00", "LATNOW": -20.1, "LONNOW": 147.7, "WINDNOW": 35.0, "DIRNOW": 3.0, "SPDNOW": 4.0, "TECH": "TRAK", "ADVNR": 4, "ATCFID": "SH132026", "NAME": "KOJI", "FTECH": "JTWC", "FCST_DTG": "2026-01-11 00:00:00", "RUN_DTG": "2026-01-11 08:10:41", "BASIN": "SH", "STMNR": 13, "CAT_ID": null, "CAT_DESC": null, "MSGID": "WTPS51 PGTW 110300", "VALIDTIME": "2026-01-05 12:00:00" }, "geometry": { "type": "Point", "coordinates": [ 147.100006, -15.7 ] } },
{ "type": "Feature", "properties": { "ID": 93122, "LAT": -15.7, "LON": 147.5, "VMAX": 20.0, "MSLP": 1012.95825, "RMAX": 45.0, "FSPD": 3.99625, "FDIR": 82.60373, "RENV": 500.0, "PENV": 1012.0, "VALIDT": 0, "DTG": "2026-01-05 18:00", "LATNOW": -20.1, "LONNOW": 147.7, "WINDNOW": 35.0, "DIRNOW": 3.0, "SPDNOW": 4.0, "TECH": "TRAK", "ADVNR": 4, "ATCFID": "SH132026", "NAME": "KOJI", "FTECH": "JTWC", "FCST_DTG": "2026-01-11 00:00:00", "RUN_DTG": "2026-01-11 08:10:41", "BASIN": "SH", "STMNR": 13, "CAT_ID": null, "CAT_DESC": null, "MSGID": "WTPS51 PGTW 110300", "VALIDTIME": "2026-01-05 18:00:00" }, "geometry": { "type": "Point", "coordinates": [ 147.5, -15.7 ] } },
{ "type": "Feature", "properties": { "ID": 93123, "LAT": -15.6, "LON": 148.3, "VMAX": 20.0, "MSLP": 1012.95825, "RMAX": 45.0, "FSPD": 8.07096, "FDIR": 101.02393, "RENV": 500.0, "PENV": 1012.0, "VALIDT": 0, "DTG": "2026-01-06 00:00", "LATNOW": -20.1, "LONNOW": 147.7, "WINDNOW": 35.0, "DIRNOW": 3.0, "SPDNOW": 4.0, "TECH": "TRAK", "ADVNR": 4, "ATCFID": "SH132026", "NAME": "KOJI", "FTECH": "JTWC", "FCST_DTG": "2026-01-11 00:00:00", "RUN_DTG": "2026-01-11 08:10:41", "BASIN": "SH", "STMNR": 13, "CAT_ID": null, "CAT_DESC": null, "MSGID": "WTPS51 PGTW 110300", "VALIDTIME": "2026-01-06 00:00:00" }, "geometry": { "type": "Point", "coordinates": [ 148.300003, -15.6 ] } },
{ "type": "Feature", "properties": { "ID": 93124, "LAT": -15.9, "LON": 149.9, "VMAX": 25.0, "MSLP": 1011.80975, "RMAX": 45.0, "FSPD": 6.13879, "FDIR": 75.43924, "RENV": 500.0, "PENV": 1012.0, "VALIDT": 0, "DTG": "2026-01-06 06:00", "LATNOW": -20.1, "LONNOW": 147.7, "WINDNOW": 35.0, "DIRNOW": 3.0, "SPDNOW": 4.0, "TECH": "TRAK", "ADVNR": 4, "ATCFID": "SH132026", "NAME": "KOJI", "FTECH": "JTWC", "FCST_DTG": "2026-01-11 00:00:00", "RUN_DTG": "2026-01-11 08:10:41", "BASIN": "SH", "STMNR": 13, "CAT_ID": null, "CAT_DESC": null, "MSGID": "WTPS51 PGTW 110300", "VALIDTIME": "2026-01-06 06:00:00" }, "geometry": { "type": "Point", "coordinates": [ 149.899994, -15.9 ] } },
{ "type": "Feature", "properties": { "ID": 93125, "LAT": -15.6, "LON": 151.1, "VMAX": 25.0, "MSLP": 1011.80975, "RMAX": 45.0, "FSPD": 1.80837, "FDIR": 55.32224, "RENV": 500.0, "PENV": 1012.0, "VALIDT": 0, "DTG": "2026-01-06 12:00", "LATNOW": -20.1, "LONNOW": 147.7, "WINDNOW": 35.0, "DIRNOW": 3.0, "SPDNOW": 4.0, "TECH": "TRAK", "ADVNR": 4, "ATCFID": "SH132026", "NAME": "KOJI", "FTECH": "JTWC", "FCST_DTG": "2026-01-11 00:00:00", "RUN_DTG": "2026-01-11 08:10:41", "BASIN": "SH", "STMNR": 13, "CAT_ID": null, "CAT_DESC": null, "MSGID": "WTPS51 PGTW 110300", "VALIDTIME": "2026-01-06 12:00:00" }, "geometry": { "type": "Point", "coordinates": [ 151.100006, -15.6 ] } },
{ "type": "Feature", "properties": { "ID": 93126, "LAT": -15.4, "LON": 151.4, "VMAX": 25.0, "MSLP": 1011.80975, "RMAX": 45.0, "FSPD": 2.97587, "FDIR": 90.0, "RENV": 500.0, "PENV": 1012.0, "VALIDT": 0, "DTG": "2026-01-06 18:00", "LATNOW": -20.1, "LONNOW": 147.7, "WINDNOW": 35.0, "DIRNOW": 3.0, "SPDNOW": 4.0, "TECH": "TRAK", "ADVNR": 4, "ATCFID": "SH132026", "NAME": "KOJI", "FTECH": "JTWC", "FCST_DTG": "2026-01-11 00:00:00", "RUN_DTG": "2026-01-11 08:10:41", "BASIN": "SH", "STMNR": 13, "CAT_ID": null, "CAT_DESC": null, "MSGID": "WTPS51 PGTW 110300", "VALIDTIME": "2026-01-06 18:00:00" }, "geometry": { "type": "Point", "coordinates": [ 151.399994, -15.4 ] } },
{ "type": "Feature", "properties": { "ID": 93127, "LAT": -15.4, "LON": 152.0, "VMAX": 25.0, "MSLP": 1011.80975, "RMAX": 45.0, "FSPD": 1.14231, "FDIR": 334.2516, "RENV": 500.0, "PENV": 1012.0, "VALIDT": 0, "DTG": "2026-01-07 00:00", "LATNOW": -20.1, "LONNOW": 147.7, "WINDNOW": 35.0, "DIRNOW": 3.0, "SPDNOW": 4.0, "TECH": "TRAK", "ADVNR": 4, "ATCFID": "SH132026", "NAME": "KOJI", "FTECH": "JTWC", "FCST_DTG": "2026-01-11 00:00:00", "RUN_DTG": "2026-01-11 08:10:41", "BASIN": "SH", "STMNR": 13, "CAT_ID": null, "CAT_DESC": null, "MSGID": "WTPS51 PGTW 110300", "VALIDTIME": "2026-01-07 00:00:00" }, "geometry": { "type": "Point", "coordinates": [ 152.0, -15.4 ] } },
{ "type": "Feature", "properties": { "ID": 93128, "LAT": -15.2, "LON": 151.9, "VMAX": 25.0, "MSLP": 1011.80975, "RMAX": 45.0, "FSPD": 2.48224, "FDIR": 269.99997, "RENV": 500.0, "PENV": 1012.0, "VALIDT": 0, "DTG": "2026-01-07 06:00", "LATNOW": -20.1, "LONNOW": 147.7, "WINDNOW": 35.0, "DIRNOW": 3.0, "SPDNOW": 4.0, "TECH": "TRAK", "ADVNR": 4, "ATCFID": "SH132026", "NAME": "KOJI", "FTECH": "JTWC", "FCST_DTG": "2026-01-11 00:00:00", "RUN_DTG": "2026-01-11 08:10:41", "BASIN": "SH", "STMNR": 13, "CAT_ID": null, "CAT_DESC": null, "MSGID": "WTPS51 PGTW 110300", "VALIDTIME": "2026-01-07 06:00:00" }, "geometry": { "type": "Point", "coordinates": [ 151.899994, -15.2 ] } },
{ "type": "Feature", "properties": { "ID": 93129, "LAT": -15.2, "LON": 151.4, "VMAX": 30.0, "MSLP": 1010.40607, "RMAX": 44.21983, "FSPD": 4.58699, "FDIR": 282.96204, "RENV": 500.0, "PENV": 1012.0, "VALIDT": 0, "DTG": "2026-01-07 12:00", "LATNOW": -20.1, "LONNOW": 147.7, "WINDNOW": 35.0, "DIRNOW": 3.0, "SPDNOW": 4.0, "TECH": "TRAK", "ADVNR": 4, "ATCFID": "SH132026", "NAME": "KOJI", "FTECH": "JTWC", "FCST_DTG": "2026-01-11 00:00:00", "RUN_DTG": "2026-01-11 08:10:41", "BASIN": "SH", "STMNR": 13, "CAT_ID": null, "CAT_DESC": null, "MSGID": "WTPS51 PGTW 110300", "VALIDTIME": "2026-01-07 12:00:00" }, "geometry": { "type": "Point", "coordinates": [ 151.399994, -15.2 ] } },
{ "type": "Feature", "properties": { "ID": 93130, "LAT": -15.0, "LON": 150.5, "VMAX": 30.0, "MSLP": 1010.40607, "RMAX": 44.21983, "FSPD": 5.07227, "FDIR": 258.29657, "RENV": 500.0, "PENV": 1012.0, "VALIDT": 0, "DTG": "2026-01-07 18:00", "LATNOW": -20.1, "LONNOW": 147.7, "WINDNOW": 35.0, "DIRNOW": 3.0, "SPDNOW": 4.0, "TECH": "TRAK", "ADVNR": 4, "ATCFID": "SH132026", "NAME": "KOJI", "FTECH": "JTWC", "FCST_DTG": "2026-01-11 00:00:00", "RUN_DTG": "2026-01-11 08:10:41", "BASIN": "SH", "STMNR": 13, "CAT_ID": null, "CAT_DESC": null, "MSGID": "WTPS51 PGTW 110300", "VALIDTIME": "2026-01-07 18:00:00" }, "geometry": { "type": "Point", "coordinates": [ 150.5, -15.0 ] } },
{ "type": "Feature", "properties": { "ID": 93131, "LAT": -15.2, "LON": 149.5, "VMAX": 35.0, "MSLP": 1008.74713, "RMAX": 42.69135, "FSPD": 2.68811, "FDIR": 292.50443, "RENV": 500.0, "PENV": 1012.0, "VALIDT": 0, "DTG": "2026-01-08 00:00", "LATNOW": -20.1, "LONNOW": 147.7, "WINDNOW": 35.0, "DIRNOW": 3.0, "SPDNOW": 4.0, "TECH": "TRAK", "ADVNR": 4, "ATCFID": "SH132026", "NAME": "KOJI", "FTECH": "JTWC", "FCST_DTG": "2026-01-11 00:00:00", "RUN_DTG": "2026-01-11 08:10:41", "BASIN": "SH", "STMNR": 13, "CAT_ID": null, "CAT_DESC": null, "MSGID": "WTPS51 PGTW 110300", "VALIDTIME": "2026-01-08 00:00:00" }, "geometry": { "type": "Point", "coordinates": [ 149.5, -15.2 ] } },
{ "type": "Feature", "properties": { "ID": 93132, "LAT": -15.0, "LON": 149.0, "VMAX": 35.0, "MSLP": 1008.74713, "RMAX": 42.69135, "FSPD": 2.23897, "FDIR": 297.35724, "RENV": 500.0, "PENV": 1012.0, "VALIDT": 0, "DTG": "2026-01-08 06:00", "LATNOW": -20.1, "LONNOW": 147.7, "WINDNOW": 35.0, "DIRNOW": 3.0, "SPDNOW": 4.0, "TECH": "TRAK", "ADVNR": 4, "ATCFID": "SH132026", "NAME": "KOJI", "FTECH": "JTWC", "FCST_DTG": "2026-01-11 00:00:00", "RUN_DTG": "2026-01-11 08:10:41", "BASIN": "SH", "STMNR": 13, "CAT_ID": null, "CAT_DESC": null, "MSGID": "WTPS51 PGTW 110300", "VALIDTIME": "2026-01-08 06:00:00" }, "geometry": { "type": "Point", "coordinates": [ 149.0, -15.0 ] } },
{ "type": "Feature", "properties": { "ID": 93133, "LAT": -14.8, "LON": 148.6, "VMAX": 35.0, "MSLP": 1008.74713, "RMAX": 42.69135, "FSPD": 3.94242, "FDIR": 310.72632, "RENV": 500.0, "PENV": 1012.0, "VALIDT": 0, "DTG": "2026-01-08 12:00", "LATNOW": -20.1, "LONNOW": 147.7, "WINDNOW": 35.0, "DIRNOW": 3.0, "SPDNOW": 4.0, "TECH": "TRAK", "ADVNR": 4, "ATCFID": "SH132026", "NAME": "KOJI", "FTECH": "JTWC", "FCST_DTG": "2026-01-11 00:00:00", "RUN_DTG": "2026-01-11 08:10:41", "BASIN": "SH", "STMNR": 13, "CAT_ID": null, "CAT_DESC": null, "MSGID": "WTPS51 PGTW 110300", "VALIDTIME": "2026-01-08 12:00:00" }, "geometry": { "type": "Point", "coordinates": [ 148.600006, -14.8 ] } },
{ "type": "Feature", "properties": { "ID": 93134, "LAT": -14.3, "LON": 148.0, "VMAX": 35.0, "MSLP": 1008.74713, "RMAX": 42.69135, "FSPD": 2.62019, "FDIR": 349.0194, "RENV": 500.0, "PENV": 1012.0, "VALIDT": 0, "DTG": "2026-01-08 18:00", "LATNOW": -20.1, "LONNOW": 147.7, "WINDNOW": 35.0, "DIRNOW": 3.0, "SPDNOW": 4.0, "TECH": "TRAK", "ADVNR": 4, "ATCFID": "SH132026", "NAME": "KOJI", "FTECH": "JTWC", "FCST_DTG": "2026-01-11 00:00:00", "RUN_DTG": "2026-01-11 08:10:41", "BASIN": "SH", "STMNR": 13, "CAT_ID": null, "CAT_DESC": null, "MSGID": "WTPS51 PGTW 110300", "VALIDTIME": "2026-01-08 18:00:00" }, "geometry": { "type": "Point", "coordinates": [ 148.0, -14.3 ] } },
{ "type": "Feature", "properties": { "ID": 93135, "LAT": -13.8, "LON": 147.9, "VMAX": 35.0, "MSLP": 1008.74713, "RMAX": 42.69135, "FSPD": 3.63549, "FDIR": 187.88583, "RENV": 500.0, "PENV": 1012.0, "VALIDT": 0, "DTG": "2026-01-09 00:00", "LATNOW": -20.1, "LONNOW": 147.7, "WINDNOW": 35.0, "DIRNOW": 3.0, "SPDNOW": 4.0, "TECH": "TRAK", "ADVNR": 4, "ATCFID": "SH132026", "NAME": "KOJI", "FTECH": "JTWC", "FCST_DTG": "2026-01-11 00:00:00", "RUN_DTG": "2026-01-11 08:10:41", "BASIN": "SH", "STMNR": 13, "CAT_ID": null, "CAT_DESC": null, "MSGID": "WTPS51 PGTW 110300", "VALIDTIME": "2026-01-09 00:00:00" }, "geometry": { "type": "Point", "coordinates": [ 147.899994, -13.8 ] } },
{ "type": "Feature", "properties": { "ID": 93136, "LAT": -14.5, "LON": 147.8, "VMAX": 35.0, "MSLP": 1008.74713, "RMAX": 42.69135, "FSPD": 4.37604, "FDIR": 145.37762, "RENV": 500.0, "PENV": 1012.0, "VALIDT": 0, "DTG": "2026-01-09 06:00", "LATNOW": -20.1, "LONNOW": 147.7, "WINDNOW": 35.0, "DIRNOW": 3.0, "SPDNOW": 4.0, "TECH": "TRAK", "ADVNR": 4, "ATCFID": "SH132026", "NAME": "KOJI", "FTECH": "JTWC", "FCST_DTG": "2026-01-11 00:00:00", "RUN_DTG": "2026-01-11 08:10:41", "BASIN": "SH", "STMNR": 13, "CAT_ID": null, "CAT_DESC": null, "MSGID": "WTPS51 PGTW 110300", "VALIDTIME": "2026-01-09 06:00:00" }, "geometry": { "type": "Point", "coordinates": [ 147.800003, -14.5 ] } },
{ "type": "Feature", "properties": { "ID": 93137, "LAT": -15.2, "LON": 148.3, "VMAX": 35.0, "MSLP": 1008.74713, "RMAX": 42.69135, "FSPD": 3.60111, "FDIR": 179.99997, "RENV": 500.0, "PENV": 1012.0, "VALIDT": 0, "DTG": "2026-01-09 12:00", "LATNOW": -20.1, "LONNOW": 147.7, "WINDNOW": 35.0, "DIRNOW": 3.0, "SPDNOW": 4.0, "TECH": "TRAK", "ADVNR": 4, "ATCFID": "SH132026", "NAME": "KOJI", "FTECH": "JTWC", "FCST_DTG": "2026-01-11 00:00:00", "RUN_DTG": "2026-01-11 08:10:41", "BASIN": "SH", "STMNR": 13, "CAT_ID": null, "CAT_DESC": null, "MSGID": "WTPS51 PGTW 110300", "VALIDTIME": "2026-01-09 12:00:00" }, "geometry": { "type": "Point", "coordinates": [ 148.300003, -15.2 ] } },
{ "type": "Feature", "properties": { "ID": 93138, "LAT": -15.9, "LON": 148.3, "VMAX": 35.0, "MSLP": 1008.74713, "RMAX": 42.69135, "FSPD": 3.24094, "FDIR": 197.74945, "RENV": 500.0, "PENV": 1012.0, "VALIDT": 0, "DTG": "2026-01-09 18:00", "LATNOW": -20.1, "LONNOW": 147.7, "WINDNOW": 35.0, "DIRNOW": 3.0, "SPDNOW": 4.0, "TECH": "TRAK", "ADVNR": 4, "ATCFID": "SH132026", "NAME": "KOJI", "FTECH": "JTWC", "FCST_DTG": "2026-01-11 00:00:00", "RUN_DTG": "2026-01-11 08:10:41", "BASIN": "SH", "STMNR": 13, "CAT_ID": null, "CAT_DESC": null, "MSGID": "WTPS51 PGTW 110300", "VALIDTIME": "2026-01-09 18:00:00" }, "geometry": { "type": "Point", "coordinates": [ 148.300003, -15.9 ] } },
{ "type": "Feature", "properties": { "ID": 93139, "LAT": -16.5, "LON": 148.1, "VMAX": 35.0, "MSLP": 1008.74713, "RMAX": 42.69135, "FSPD": 2.57222, "FDIR": 179.99997, "RENV": 500.0, "PENV": 1012.0, "VALIDT": 0, "DTG": "2026-01-10 00:00", "LATNOW": -20.1, "LONNOW": 147.7, "WINDNOW": 35.0, "DIRNOW": 3.0, "SPDNOW": 4.0, "TECH": "TRAK", "ADVNR": 4, "ATCFID": "SH132026", "NAME": "KOJI", "FTECH": "JTWC", "FCST_DTG": "2026-01-11 00:00:00", "RUN_DTG": "2026-01-11 08:10:41", "BASIN": "SH", "STMNR": 13, "CAT_ID": null, "CAT_DESC": null, "MSGID": "WTPS51 PGTW 110300", "VALIDTIME": "2026-01-10 00:00:00" }, "geometry": { "type": "Point", "coordinates": [ 148.100006, -16.5 ] } },
{ "type": "Feature", "properties": { "ID": 93140, "LAT": -17.0, "LON": 148.1, "VMAX": 40.0, "MSLP": 988.0, "RMAX": 80.0, "FSPD": 4.65594, "FDIR": 186.05096, "RENV": 180.0, "PENV": 999.0, "VALIDT": 0, "DTG": "2026-01-10 06:00", "LATNOW": -20.1, "LONNOW": 147.7, "WINDNOW": 35.0, "DIRNOW": 3.0, "SPDNOW": 4.0, "TECH": "TRAK", "ADVNR": 4, "ATCFID": "SH132026", "NAME": "KOJI", "FTECH": "JTWC", "FCST_DTG": "2026-01-11 00:00:00", "RUN_DTG": "2026-01-11 08:10:41", "BASIN": "SH", "STMNR": 13, "CAT_ID": null, "CAT_DESC": null, "MSGID": "WTPS51 PGTW 110300", "VALIDTIME": "2026-01-10 06:00:00" }, "geometry": { "type": "Point", "coordinates": [ 148.100006, -17.0 ] } },
{ "type": "Feature", "properties": { "ID": 93141, "LAT": -17.9, "LON": 148.0, "VMAX": 45.0, "MSLP": 988.0, "RMAX": 80.0, "FSPD": 7.21871, "FDIR": 183.87308, "RENV": 180.0, "PENV": 999.0, "VALIDT": 0, "DTG": "2026-01-10 12:00", "LATNOW": -20.1, "LONNOW": 147.7, "WINDNOW": 35.0, "DIRNOW": 3.0, "SPDNOW": 4.0, "TECH": "TRAK", "ADVNR": 4, "ATCFID": "SH132026", "NAME": "KOJI", "FTECH": "JTWC", "FCST_DTG": "2026-01-11 00:00:00", "RUN_DTG": "2026-01-11 08:10:41", "BASIN": "SH", "STMNR": 13, "CAT_ID": null, "CAT_DESC": null, "MSGID": "WTPS51 PGTW 110300", "VALIDTIME": "2026-01-10 12:00:00" }, "geometry": { "type": "Point", "coordinates": [ 148.0, -17.9 ] } },
{ "type": "Feature", "properties": { "ID": 93142, "LAT": -19.3, "LON": 147.9, "VMAX": 45.0, "MSLP": 988.0, "RMAX": 60.0, "FSPD": 4.22814, "FDIR": 193.2511, "RENV": 160.0, "PENV": 1001.0, "VALIDT": 0, "DTG": "2026-01-10 18:00", "LATNOW": -20.1, "LONNOW": 147.7, "WINDNOW": 35.0, "DIRNOW": 3.0, "SPDNOW": 4.0, "TECH": "TRAK", "ADVNR": 4, "ATCFID": "SH132026", "NAME": "KOJI", "FTECH": "JTWC", "FCST_DTG": "2026-01-11 00:00:00", "RUN_DTG": "2026-01-11 08:10:41", "BASIN": "SH", "STMNR": 13, "CAT_ID": null, "CAT_DESC": null, "MSGID": "WTPS51 PGTW 110300", "VALIDTIME": "2026-01-10 18:00:00" }, "geometry": { "type": "Point", "coordinates": [ 147.899994, -19.299999 ] } },
{ "type": "Feature", "properties": { "ID": 93143, "LAT": -19.94, "LON": 147.73999, "VMAX": 45.0, "MSLP": 988.0, "RMAX": 60.0, "FSPD": 4.22753, "FDIR": 193.21661, "RENV": 160.0, "PENV": 1001.0, "VALIDT": 0, "DTG": "2026-01-10 22:00", "LATNOW": -20.1, "LONNOW": 147.7, "WINDNOW": 35.0, "DIRNOW": 3.0, "SPDNOW": 4.0, "TECH": "TRAK", "ADVNR": 4, "ATCFID": "SH132026", "NAME": "KOJI", "FTECH": "JTWC", "FCST_DTG": "2026-01-11 00:00:00", "RUN_DTG": "2026-01-11 08:10:41", "BASIN": "SH", "STMNR": 13, "CAT_ID": null, "CAT_DESC": null, "MSGID": "WTPS51 PGTW 110300", "VALIDTIME": "2026-01-10 22:00:00" }, "geometry": { "type": "Point", "coordinates": [ 147.73999, -19.940001 ] } },
{ "type": "Feature", "properties": { "ID": 93144, "LAT": -20.1, "LON": 147.7, "VMAX": 35.0, "MSLP": 987.0, "RMAX": 60.0, "FSPD": 2.8195, "FDIR": 223.12724, "RENV": 165.0, "PENV": 999.0, "VALIDT": 0, "DTG": "2026-01-11 00:00", "LATNOW": -20.1, "LONNOW": 147.7, "WINDNOW": 35.0, "DIRNOW": 3.0, "SPDNOW": 4.0, "TECH": "TRAK", "ADVNR": 4, "ATCFID": "SH132026", "NAME": "KOJI", "FTECH": "JTWC", "FCST_DTG": "2026-01-11 00:00:00", "RUN_DTG": "2026-01-11 08:10:41", "BASIN": "SH", "STMNR": 13, "CAT_ID": null, "CAT_DESC": null, "MSGID": "WTPS51 PGTW 110300", "VALIDTIME": "2026-01-11 00:00:00" }, "geometry": { "type": "Point", "coordinates": [ 147.699997, -20.1 ] } },
{ "type": "Feature", "properties": { "ID": 93145, "LAT": -20.9, "LON": 146.9, "VMAX": 30.0, "MSLP": 1010.40607, "RMAX": 81.85089, "FSPD": 2.8195, "FDIR": 223.12724, "RENV": 250.0, "PENV": 1012.0, "VALIDT": 12, "DTG": "2026-01-11 12:00", "LATNOW": -20.1, "LONNOW": 147.7, "WINDNOW": 35.0, "DIRNOW": 3.0, "SPDNOW": 4.0, "TECH": "FCST", "ADVNR": 4, "ATCFID": "SH132026", "NAME": "KOJI", "FTECH": "JTWC", "FCST_DTG": "2026-01-11 00:00:00", "RUN_DTG": "2026-01-11 08:10:41", "BASIN": "SH", "STMNR": 13, "CAT_ID": null, "CAT_DESC": null, "MSGID": "WTPS51 PGTW 110300", "VALIDTIME": "2026-01-11 12:00:00" }, "geometry": { "type": "Point", "coordinates": [ 146.899994, -20.9 ] } },
{ "type": "Feature", "properties": { "ID": 93144, "LAT": -20.1, "LON": 147.7, "VMAX": 35.0, "MSLP": 987.0, "RMAX": 60.0, "FSPD": 2.8195, "FDIR": 223.12724, "RENV": 165.0, "PENV": 999.0, "VALIDT": 0, "DTG": "2026-01-11 00:00", "LATNOW": -20.1, "LONNOW": 147.7, "WINDNOW": 35.0, "DIRNOW": 3.0, "SPDNOW": 4.0, "TECH": "TRAK", "ADVNR": 4, "ATCFID": "SH132026", "NAME": "KOJI", "FTECH": "JTWC", "FCST_DTG": "2026-01-11 00:00:00", "RUN_DTG": "2026-01-11 08:10:41", "BASIN": "SH", "STMNR": 13, "CAT_ID": null, "CAT_DESC": null, "MSGID": "WTPS51 PGTW 110300", "VALIDTIME": "2026-01-11 00:00:00" }, "geometry": { "type": "LineString", "coordinates": [ [ 146.7, -15.5 ], [ 147.1, -15.7 ], [ 147.5, -15.7 ], [ 148.3, -15.6 ], [ 149.9, -15.9 ], [ 151.1, -15.6 ], [ 151.4, -15.4 ], [ 152.0, -15.4 ], [ 151.9, -15.2 ], [ 151.4, -15.2 ], [ 150.5, -15.0 ], [ 149.5, -15.2 ], [ 149.0, -15.0 ], [ 148.6, -14.8 ], [ 148.0, -14.3 ], [ 147.9, -13.8 ], [ 147.8, -14.5 ], [ 148.3, -15.2 ], [ 148.3, -15.9 ], [ 148.1, -16.5 ], [ 148.1, -17.0 ], [ 148.0, -17.9 ], [ 147.9, -19.3 ], [ 147.73999, -19.94 ], [ 147.7, -20.1 ] ] } },
{ "type": "Feature", "properties": { "ID": 93145, "LAT": -20.9, "LON": 146.9, "VMAX": 30.0, "MSLP": 1010.40607, "RMAX": 81.85089, "FSPD": 2.8195, "FDIR": 223.12724, "RENV": 250.0, "PENV": 1012.0, "VALIDT": 12, "DTG": "2026-01-11 12:00", "LATNOW": -20.1, "LONNOW": 147.7, "WINDNOW": 35.0, "DIRNOW": 3.0, "SPDNOW": 4.0, "TECH": "FCST", "ADVNR": 4, "ATCFID": "SH132026", "NAME": "KOJI", "FTECH": "JTWC", "FCST_DTG": "2026-01-11 00:00:00", "RUN_DTG": "2026-01-11 08:10:41", "BASIN": "SH", "STMNR": 13, "CAT_ID": null, "CAT_DESC": null, "MSGID": "WTPS51 PGTW 110300", "VALIDTIME": "2026-01-11 12:00:00" }, "geometry": { "type": "LineString", "coordinates": [ [ 147.7, -20.1 ], [ 146.9, -20.9 ] ] } }
]
}
