{
"type": "FeatureCollection",
"crs": { "type": "name", "properties": { "name": "urn:ogc:def:crs:OGC:1.3:CRS84" } },
"features": [
{ "type": "Feature", "properties": { "ID": 101696, "LAT": 6.4, "LON": 140.5, "VMAX": 15.0, "MSLP": 1013.8515, "RMAX": 40.0, "FSPD": 3.62546, "FDIR": 315.19336, "RENV": 500.0, "PENV": 1012.0, "VALIDT": 0, "DTG": "2026-02-02 00:00", "LATNOW": 10.1, "LONNOW": 122.8, "WINDNOW": 25.0, "DIRNOW": 3.0, "SPDNOW": 3.0, "TECH": "TRAK", "ADVNR": 11, "ATCFID": "WP022026", "NAME": "PENHA", "FTECH": "JTWC", "FCST_DTG": "2026-02-06 12:00:00", "RUN_DTG": "2026-02-07 06:25:59", "BASIN": "WP", "STMNR": 2, "CAT_ID": null, "CAT_DESC": null, "MSGID": "WTPN51 PGTW 061500", "VALIDTIME": "2026-02-02 00:00:00" }, "geometry": { "type": "Point", "coordinates": [ 140.5, 6.4 ] } },
{ "type": "Feature", "properties": { "ID": 101697, "LAT": 6.9, "LON": 140.0, "VMAX": 15.0, "MSLP": 1013.8515, "RMAX": 40.0, "FSPD": 5.44391, "FDIR": 311.41382, "RENV": 500.0, "PENV": 1012.0, "VALIDT": 0, "DTG": "2026-02-02 06:00", "LATNOW": 10.1, "LONNOW": 122.8, "WINDNOW": 25.0, "DIRNOW": 3.0, "SPDNOW": 3.0, "TECH": "TRAK", "ADVNR": 11, "ATCFID": "WP022026", "NAME": "PENHA", "FTECH": "JTWC", "FCST_DTG": "2026-02-06 12:00:00", "RUN_DTG": "2026-02-07 06:25:59", "BASIN": "WP", "STMNR": 2, "CAT_ID": null, "CAT_DESC": null, "MSGID": "WTPN51 PGTW 061500", "VALIDTIME": "2026-02-02 06:00:00" }, "geometry": { "type": "Point", "coordinates": [ 140.0, 6.9 ] } },
{ "type": "Feature", "properties": { "ID": 101698, "LAT": 7.6, "LON": 139.2, "VMAX": 15.0, "MSLP": 1013.8515, "RMAX": 40.0, "FSPD": 8.71769, "FDIR": 290.7364, "RENV": 500.0, "PENV": 1012.0, "VALIDT": 0, "DTG": "2026-02-02 12:00", "LATNOW": 10.1, "LONNOW": 122.8, "WINDNOW": 25.0, "DIRNOW": 3.0, "SPDNOW": 3.0, "TECH": "TRAK", "ADVNR": 11, "ATCFID": "WP022026", "NAME": "PENHA", "FTECH": "JTWC", "FCST_DTG": "2026-02-06 12:00:00", "RUN_DTG": "2026-02-07 06:25:59", "BASIN": "WP", "STMNR": 2, "CAT_ID": null, "CAT_DESC": null, "MSGID": "WTPN51 PGTW 061500", "VALIDTIME": "2026-02-02 12:00:00" }, "geometry": { "type": "Point", "coordinates": [ 139.199997, 7.6 ] } },
{ "type": "Feature", "properties": { "ID": 101699, "LAT": 8.2, "LON": 137.6, "VMAX": 15.0, "MSLP": 1013.8515, "RMAX": 40.0, "FSPD": 7.90637, "FDIR": 285.086, "RENV": 500.0, "PENV": 1012.0, "VALIDT": 0, "DTG": "2026-02-02 18:00", "LATNOW": 10.1, "LONNOW": 122.8, "WINDNOW": 25.0, "DIRNOW": 3.0, "SPDNOW": 3.0, "TECH": "TRAK", "ADVNR": 11, "ATCFID": "WP022026", "NAME": "PENHA", "FTECH": "JTWC", "FCST_DTG": "2026-02-06 12:00:00", "RUN_DTG": "2026-02-07 06:25:59", "BASIN": "WP", "STMNR": 2, "CAT_ID": null, "CAT_DESC": null, "MSGID": "WTPN51 PGTW 061500", "VALIDTIME": "2026-02-02 18:00:00" }, "geometry": { "type": "Point", "coordinates": [ 137.600006, 8.2 ] } },
{ "type": "Feature", "properties": { "ID": 101700, "LAT": 8.6, "LON": 136.1, "VMAX": 25.0, "MSLP": 1011.80975, "RMAX": 45.0, "FSPD": 3.27046, "FDIR": 308.99115, "RENV": 500.0, "PENV": 1012.0, "VALIDT": 0, "DTG": "2026-02-03 00:00", "LATNOW": 10.1, "LONNOW": 122.8, "WINDNOW": 25.0, "DIRNOW": 3.0, "SPDNOW": 3.0, "TECH": "TRAK", "ADVNR": 11, "ATCFID": "WP022026", "NAME": "PENHA", "FTECH": "JTWC", "FCST_DTG": "2026-02-06 12:00:00", "RUN_DTG": "2026-02-07 06:25:59", "BASIN": "WP", "STMNR": 2, "CAT_ID": null, "CAT_DESC": null, "MSGID": "WTPN51 PGTW 061500", "VALIDTIME": "2026-02-03 00:00:00" }, "geometry": { "type": "Point", "coordinates": [ 136.100006, 8.6 ] } },
{ "type": "Feature", "properties": { "ID": 101701, "LAT": 9.0, "LON": 135.6, "VMAX": 25.0, "MSLP": 1011.80975, "RMAX": 45.0, "FSPD": 3.09138, "FDIR": 279.5793, "RENV": 500.0, "PENV": 1012.0, "VALIDT": 0, "DTG": "2026-02-03 06:00", "LATNOW": 10.1, "LONNOW": 122.8, "WINDNOW": 25.0, "DIRNOW": 3.0, "SPDNOW": 3.0, "TECH": "TRAK", "ADVNR": 11, "ATCFID": "WP022026", "NAME": "PENHA", "FTECH": "JTWC", "FCST_DTG": "2026-02-06 12:00:00", "RUN_DTG": "2026-02-07 06:25:59", "BASIN": "WP", "STMNR": 2, "CAT_ID": null, "CAT_DESC": null, "MSGID": "WTPN51 PGTW 061500", "VALIDTIME": "2026-02-03 06:00:00" }, "geometry": { "type": "Point", "coordinates": [ 135.600006, 9.0 ] } },
{ "type": "Feature", "properties": { "ID": 101702, "LAT": 9.1, "LON": 135.0, "VMAX": 25.0, "MSLP": 1011.80975, "RMAX": 45.0, "FSPD": 5.5877, "FDIR": 269.99997, "RENV": 500.0, "PENV": 1012.0, "VALIDT": 0, "DTG": "2026-02-03 12:00", "LATNOW": 10.1, "LONNOW": 122.8, "WINDNOW": 25.0, "DIRNOW": 3.0, "SPDNOW": 3.0, "TECH": "TRAK", "ADVNR": 11, "ATCFID": "WP022026", "NAME": "PENHA", "FTECH": "JTWC", "FCST_DTG": "2026-02-06 12:00:00", "RUN_DTG": "2026-02-07 06:25:59", "BASIN": "WP", "STMNR": 2, "CAT_ID": null, "CAT_DESC": null, "MSGID": "WTPN51 PGTW 061500", "VALIDTIME": "2026-02-03 12:00:00" }, "geometry": { "type": "Point", "coordinates": [ 135.0, 9.1 ] } },
{ "type": "Feature", "properties": { "ID": 101703, "LAT": 9.1, "LON": 133.9, "VMAX": 25.0, "MSLP": 1011.80975, "RMAX": 45.0, "FSPD": 4.34847, "FDIR": 249.21179, "RENV": 500.0, "PENV": 1012.0, "VALIDT": 0, "DTG": "2026-02-03 18:00", "LATNOW": 10.1, "LONNOW": 122.8, "WINDNOW": 25.0, "DIRNOW": 3.0, "SPDNOW": 3.0, "TECH": "TRAK", "ADVNR": 11, "ATCFID": "WP022026", "NAME": "PENHA", "FTECH": "JTWC", "FCST_DTG": "2026-02-06 12:00:00", "RUN_DTG": "2026-02-07 06:25:59", "BASIN": "WP", "STMNR": 2, "CAT_ID": null, "CAT_DESC": null, "MSGID": "WTPN51 PGTW 061500", "VALIDTIME": "2026-02-03 18:00:00" }, "geometry": { "type": "Point", "coordinates": [ 133.899994, 9.1 ] } },
{ "type": "Feature", "properties": { "ID": 101704, "LAT": 8.8, "LON": 133.1, "VMAX": 30.0, "MSLP": 1010.40607, "RMAX": 44.21983, "FSPD": 2.59381, "FDIR": 258.5603, "RENV": 500.0, "PENV": 1012.0, "VALIDT": 0, "DTG": "2026-02-04 00:00", "LATNOW": 10.1, "LONNOW": 122.8, "WINDNOW": 25.0, "DIRNOW": 3.0, "SPDNOW": 3.0, "TECH": "TRAK", "ADVNR": 11, "ATCFID": "WP022026", "NAME": "PENHA", "FTECH": "JTWC", "FCST_DTG": "2026-02-06 12:00:00", "RUN_DTG": "2026-02-07 06:25:59", "BASIN": "WP", "STMNR": 2, "CAT_ID": null, "CAT_DESC": null, "MSGID": "WTPN51 PGTW 061500", "VALIDTIME": "2026-02-04 00:00:00" }, "geometry": { "type": "Point", "coordinates": [ 133.100006, 8.8 ] } },
{ "type": "Feature", "properties": { "ID": 101705, "LAT": 8.7, "LON": 132.6, "VMAX": 30.0, "MSLP": 1010.40607, "RMAX": 44.21983, "FSPD": 5.59381, "FDIR": 269.99997, "RENV": 500.0, "PENV": 1012.0, "VALIDT": 0, "DTG": "2026-02-04 06:00", "LATNOW": 10.1, "LONNOW": 122.8, "WINDNOW": 25.0, "DIRNOW": 3.0, "SPDNOW": 3.0, "TECH": "TRAK", "ADVNR": 11, "ATCFID": "WP022026", "NAME": "PENHA", "FTECH": "JTWC", "FCST_DTG": "2026-02-06 12:00:00", "RUN_DTG": "2026-02-07 06:25:59", "BASIN": "WP", "STMNR": 2, "CAT_ID": null, "CAT_DESC": null, "MSGID": "WTPN51 PGTW 061500", "VALIDTIME": "2026-02-04 06:00:00" }, "geometry": { "type": "Point", "coordinates": [ 132.600006, 8.7 ] } },
{ "type": "Feature", "properties": { "ID": 101706, "LAT": 8.7, "LON": 131.5, "VMAX": 30.0, "MSLP": 1010.40607, "RMAX": 44.21983, "FSPD": 5.96307, "FDIR": 249.81288, "RENV": 500.0, "PENV": 1012.0, "VALIDT": 0, "DTG": "2026-02-04 12:00", "LATNOW": 10.1, "LONNOW": 122.8, "WINDNOW": 25.0, "DIRNOW": 3.0, "SPDNOW": 3.0, "TECH": "TRAK", "ADVNR": 11, "ATCFID": "WP022026", "NAME": "PENHA", "FTECH": "JTWC", "FCST_DTG": "2026-02-06 12:00:00", "RUN_DTG": "2026-02-07 06:25:59", "BASIN": "WP", "STMNR": 2, "CAT_ID": null, "CAT_DESC": null, "MSGID": "WTPN51 PGTW 061500", "VALIDTIME": "2026-02-04 12:00:00" }, "geometry": { "type": "Point", "coordinates": [ 131.5, 8.7 ] } },
{ "type": "Feature", "properties": { "ID": 101707, "LAT": 8.3, "LON": 130.4, "VMAX": 30.0, "MSLP": 1010.40607, "RMAX": 44.21983, "FSPD": 5.8104, "FDIR": 254.59644, "RENV": 500.0, "PENV": 1012.0, "VALIDT": 0, "DTG": "2026-02-04 18:00", "LATNOW": 10.1, "LONNOW": 122.8, "WINDNOW": 25.0, "DIRNOW": 3.0, "SPDNOW": 3.0, "TECH": "TRAK", "ADVNR": 11, "ATCFID": "WP022026", "NAME": "PENHA", "FTECH": "JTWC", "FCST_DTG": "2026-02-06 12:00:00", "RUN_DTG": "2026-02-07 06:25:59", "BASIN": "WP", "STMNR": 2, "CAT_ID": null, "CAT_DESC": null, "MSGID": "WTPN51 PGTW 061500", "VALIDTIME": "2026-02-04 18:00:00" }, "geometry": { "type": "Point", "coordinates": [ 130.399994, 8.3 ] } },
{ "type": "Feature", "properties": { "ID": 101708, "LAT": 8.0, "LON": 129.3, "VMAX": 35.0, "MSLP": 1008.74713, "RMAX": 42.69135, "FSPD": 7.20423, "FDIR": 278.21088, "RENV": 500.0, "PENV": 1012.0, "VALIDT": 0, "DTG": "2026-02-05 00:00", "LATNOW": 10.1, "LONNOW": 122.8, "WINDNOW": 25.0, "DIRNOW": 3.0, "SPDNOW": 3.0, "TECH": "TRAK", "ADVNR": 11, "ATCFID": "WP022026", "NAME": "PENHA", "FTECH": "JTWC", "FCST_DTG": "2026-02-06 12:00:00", "RUN_DTG": "2026-02-07 06:25:59", "BASIN": "WP", "STMNR": 2, "CAT_ID": null, "CAT_DESC": null, "MSGID": "WTPN51 PGTW 061500", "VALIDTIME": "2026-02-05 00:00:00" }, "geometry": { "type": "Point", "coordinates": [ 129.300003, 8.0 ] } },
{ "type": "Feature", "properties": { "ID": 101709, "LAT": 8.2, "LON": 127.9, "VMAX": 40.0, "MSLP": 1006.833, "RMAX": 41.26637, "FSPD": 4.83392, "FDIR": 288.6189, "RENV": 500.0, "PENV": 1012.0, "VALIDT": 0, "DTG": "2026-02-05 06:00", "LATNOW": 10.1, "LONNOW": 122.8, "WINDNOW": 25.0, "DIRNOW": 3.0, "SPDNOW": 3.0, "TECH": "TRAK", "ADVNR": 11, "ATCFID": "WP022026", "NAME": "PENHA", "FTECH": "JTWC", "FCST_DTG": "2026-02-06 12:00:00", "RUN_DTG": "2026-02-07 06:25:59", "BASIN": "WP", "STMNR": 2, "CAT_ID": null, "CAT_DESC": null, "MSGID": "WTPN51 PGTW 061500", "VALIDTIME": "2026-02-05 06:00:00" }, "geometry": { "type": "Point", "coordinates": [ 127.900002, 8.2 ] } },
{ "type": "Feature", "properties": { "ID": 101710, "LAT": 8.5, "LON": 127.0, "VMAX": 40.0, "MSLP": 1006.833, "RMAX": 41.26637, "FSPD": 7.35932, "FDIR": 304.0026, "RENV": 500.0, "PENV": 1012.0, "VALIDT": 0, "DTG": "2026-02-05 12:00", "LATNOW": 10.1, "LONNOW": 122.8, "WINDNOW": 25.0, "DIRNOW": 3.0, "SPDNOW": 3.0, "TECH": "TRAK", "ADVNR": 11, "ATCFID": "WP022026", "NAME": "PENHA", "FTECH": "JTWC", "FCST_DTG": "2026-02-06 12:00:00", "RUN_DTG": "2026-02-07 06:25:59", "BASIN": "WP", "STMNR": 2, "CAT_ID": null, "CAT_DESC": null, "MSGID": "WTPN51 PGTW 061500", "VALIDTIME": "2026-02-05 12:00:00" }, "geometry": { "type": "Point", "coordinates": [ 127.0, 8.5 ] } },
{ "type": "Feature", "properties": { "ID": 101711, "LAT": 9.06, "LON": 126.16, "VMAX": 40.0, "MSLP": 1006.833, "RMAX": 41.26637, "FSPD": 7.35377, "FDIR": 304.03168, "RENV": 500.0, "PENV": 1012.0, "VALIDT": 0, "DTG": "2026-02-05 16:00", "LATNOW": 10.1, "LONNOW": 122.8, "WINDNOW": 25.0, "DIRNOW": 3.0, "SPDNOW": 3.0, "TECH": "TRAK", "ADVNR": 11, "ATCFID": "WP022026", "NAME": "PENHA", "FTECH": "JTWC", "FCST_DTG": "2026-02-06 12:00:00", "RUN_DTG": "2026-02-07 06:25:59", "BASIN": "WP", "STMNR": 2, "CAT_ID": null, "CAT_DESC": null, "MSGID": "WTPN51 PGTW 061500", "VALIDTIME": "2026-02-05 16:00:00" }, "geometry": { "type": "Point", "coordinates": [ 126.160004, 9.06 ] } },
{ "type": "Feature", "properties": { "ID": 101712, "LAT": 9.3, "LON": 125.8, "VMAX": 35.0, "MSLP": 1008.74713, "RMAX": 42.69135, "FSPD": 5.68798, "FDIR": 296.88623, "RENV": 500.0, "PENV": 1012.0, "VALIDT": 0, "DTG": "2026-02-05 18:00", "LATNOW": 10.1, "LONNOW": 122.8, "WINDNOW": 25.0, "DIRNOW": 3.0, "SPDNOW": 3.0, "TECH": "TRAK", "ADVNR": 11, "ATCFID": "WP022026", "NAME": "PENHA", "FTECH": "JTWC", "FCST_DTG": "2026-02-06 12:00:00", "RUN_DTG": "2026-02-07 06:25:59", "BASIN": "WP", "STMNR": 2, "CAT_ID": null, "CAT_DESC": null, "MSGID": "WTPN51 PGTW 061500", "VALIDTIME": "2026-02-05 18:00:00" }, "geometry": { "type": "Point", "coordinates": [ 125.800003, 9.3 ] } },
{ "type": "Feature", "properties": { "ID": 101713, "LAT": 9.8, "LON": 124.8, "VMAX": 30.0, "MSLP": 1010.40607, "RMAX": 44.21983, "FSPD": 6.10407, "FDIR": 274.8345, "RENV": 500.0, "PENV": 1012.0, "VALIDT": 0, "DTG": "2026-02-06 00:00", "LATNOW": 10.1, "LONNOW": 122.8, "WINDNOW": 25.0, "DIRNOW": 3.0, "SPDNOW": 3.0, "TECH": "TRAK", "ADVNR": 11, "ATCFID": "WP022026", "NAME": "PENHA", "FTECH": "JTWC", "FCST_DTG": "2026-02-06 12:00:00", "RUN_DTG": "2026-02-07 06:25:59", "BASIN": "WP", "STMNR": 2, "CAT_ID": null, "CAT_DESC": null, "MSGID": "WTPN51 PGTW 061500", "VALIDTIME": "2026-02-06 00:00:00" }, "geometry": { "type": "Point", "coordinates": [ 124.800003, 9.8 ] } },
{ "type": "Feature", "properties": { "ID": 101714, "LAT": 9.9, "LON": 123.6, "VMAX": 30.0, "MSLP": 1010.40607, "RMAX": 44.21983, "FSPD": 4.18157, "FDIR": 284.24414, "RENV": 500.0, "PENV": 1012.0, "VALIDT": 0, "DTG": "2026-02-06 06:00", "LATNOW": 10.1, "LONNOW": 122.8, "WINDNOW": 25.0, "DIRNOW": 3.0, "SPDNOW": 3.0, "TECH": "TRAK", "ADVNR": 11, "ATCFID": "WP022026", "NAME": "PENHA", "FTECH": "JTWC", "FCST_DTG": "2026-02-06 12:00:00", "RUN_DTG": "2026-02-07 06:25:59", "BASIN": "WP", "STMNR": 2, "CAT_ID": null, "CAT_DESC": null, "MSGID": "WTPN51 PGTW 061500", "VALIDTIME": "2026-02-06 06:00:00" }, "geometry": { "type": "Point", "coordinates": [ 123.599998, 9.9 ] } },
{ "type": "Feature", "properties": { "ID": 101715, "LAT": 10.1, "LON": 122.8, "VMAX": 25.0, "MSLP": 1011.80975, "RMAX": 45.0, "FSPD": 3.31428, "FDIR": 302.90662, "RENV": 500.0, "PENV": 1012.0, "VALIDT": 0, "DTG": "2026-02-06 12:00", "LATNOW": 10.1, "LONNOW": 122.8, "WINDNOW": 25.0, "DIRNOW": 3.0, "SPDNOW": 3.0, "TECH": "TRAK", "ADVNR": 11, "ATCFID": "WP022026", "NAME": "PENHA", "FTECH": "JTWC", "FCST_DTG": "2026-02-06 12:00:00", "RUN_DTG": "2026-02-07 06:25:59", "BASIN": "WP", "STMNR": 2, "CAT_ID": null, "CAT_DESC": null, "MSGID": "WTPN51 PGTW 061500", "VALIDTIME": "2026-02-06 12:00:00" }, "geometry": { "type": "Point", "coordinates": [ 122.800003, 10.1 ] } },
{ "type": "Feature", "properties": { "ID": 101716, "LAT": 10.8, "LON": 121.7, "VMAX": 20.0, "MSLP": 1012.95825, "RMAX": 45.0, "FSPD": 2.71185, "FDIR": 319.35944, "RENV": 250.0, "PENV": 1012.0, "VALIDT": 12, "DTG": "2026-02-07 00:00", "LATNOW": 10.1, "LONNOW": 122.8, "WINDNOW": 25.0, "DIRNOW": 3.0, "SPDNOW": 3.0, "TECH": "FCST", "ADVNR": 11, "ATCFID": "WP022026", "NAME": "PENHA", "FTECH": "JTWC", "FCST_DTG": "2026-02-06 12:00:00", "RUN_DTG": "2026-02-07 06:25:59", "BASIN": "WP", "STMNR": 2, "CAT_ID": null, "CAT_DESC": null, "MSGID": "WTPN51 PGTW 061500", "VALIDTIME": "2026-02-07 00:00:00" }, "geometry": { "type": "Point", "coordinates": [ 121.699997, 10.8 ] } },
{ "type": "Feature", "properties": { "ID": 101717, "LAT": 11.6, "LON": 121.0, "VMAX": 20.0, "MSLP": 1012.95825, "RMAX": 45.0, "FSPD": 2.71185, "FDIR": 319.35944, "RENV": 250.0, "PENV": 1012.0, "VALIDT": 24, "DTG": "2026-02-07 12:00", "LATNOW": 10.1, "LONNOW": 122.8, "WINDNOW": 25.0, "DIRNOW": 3.0, "SPDNOW": 3.0, "TECH": "FCST", "ADVNR": 11, "ATCFID": "WP022026", "NAME": "PENHA", "FTECH": "JTWC", "FCST_DTG": "2026-02-06 12:00:00", "RUN_DTG": "2026-02-07 06:25:59", "BASIN": "WP", "STMNR": 2, "CAT_ID": null, "CAT_DESC": null, "MSGID": "WTPN51 PGTW 061500", "VALIDTIME": "2026-02-07 12:00:00" }, "geometry": { "type": "Point", "coordinates": [ 121.0, 11.6 ] } },
{ "type": "Feature", "properties": { "ID": 101715, "LAT": 10.1, "LON": 122.8, "VMAX": 25.0, "MSLP": 1011.80975, "RMAX": 45.0, "FSPD": 3.31428, "FDIR": 302.90662, "RENV": 500.0, "PENV": 1012.0, "VALIDT": 0, "DTG": "2026-02-06 12:00", "LATNOW": 10.1, "LONNOW": 122.8, "WINDNOW": 25.0, "DIRNOW": 3.0, "SPDNOW": 3.0, "TECH": "TRAK", "ADVNR": 11, "ATCFID": "WP022026", "NAME": "PENHA", "FTECH": "JTWC", "FCST_DTG": "2026-02-06 12:00:00", "RUN_DTG": "2026-02-07 06:25:59", "BASIN": "WP", "STMNR": 2, "CAT_ID": null, "CAT_DESC": null, "MSGID": "WTPN51 PGTW 061500", "VALIDTIME": "2026-02-06 12:00:00" }, "geometry": { "type": "LineString", "coordinates": [ [ 140.5, 6.4 ], [ 140.0, 6.9 ], [ 139.2, 7.6 ], [ 137.6, 8.2 ], [ 136.1, 8.6 ], [ 135.6, 9.0 ], [ 135.0, 9.1 ], [ 133.9, 9.1 ], [ 133.1, 8.8 ], [ 132.6, 8.7 ], [ 131.5, 8.7 ], [ 130.4, 8.3 ], [ 129.3, 8.0 ], [ 127.9, 8.2 ], [ 127.0, 8.5 ], [ 126.16, 9.06 ], [ 125.8, 9.3 ], [ 124.8, 9.8 ], [ 123.6, 9.9 ], [ 122.8, 10.1 ] ] } },
{ "type": "Feature", "properties": { "ID": 101717, "LAT": 11.6, "LON": 121.0, "VMAX": 20.0, "MSLP": 1012.95825, "RMAX": 45.0, "FSPD": 2.71185, "FDIR": 319.35944, "RENV": 250.0, "PENV": 1012.0, "VALIDT": 24, "DTG": "2026-02-07 12:00", "LATNOW": 10.1, "LONNOW": 122.8, "WINDNOW": 25.0, "DIRNOW": 3.0, "SPDNOW": 3.0, "TECH": "FCST", "ADVNR": 11, "ATCFID": "WP022026", "NAME": "PENHA", "FTECH": "JTWC", "FCST_DTG": "2026-02-06 12:00:00", "RUN_DTG": "2026-02-07 06:25:59", "BASIN": "WP", "STMNR": 2, "CAT_ID": null, "CAT_DESC": null, "MSGID": "WTPN51 PGTW 061500", "VALIDTIME": "2026-02-07 12:00:00" }, "geometry": { "type": "LineString", "coordinates": [ [ 122.8, 10.1 ], [ 121.7, 10.8 ], [ 121.0, 11.6 ] ] } }
]
}
