{
"type": "FeatureCollection",
"crs": { "type": "name", "properties": { "name": "urn:ogc:def:crs:OGC:1.3:CRS84" } },
"features": [
{ "type": "Feature", "properties": { "ID": 51380, "LAT": 15.2, "LON": 88.5, "VMAX": 25.0, "MSLP": 1011.80975, "RMAX": 45.0, "FSPD": 3.35663, "FDIR": 242.6266, "RENV": 500.0, "PENV": 1012.0, "VALIDT": 0, "DTG": "2025-09-30 00:00", "LATNOW": 19.5, "LONNOW": 84.7, "WINDNOW": 35.0, "DIRNOW": 4.0, "SPDNOW": 2.0, "TECH": "TRAK", "ADVNR": 6, "ATCFID": "IO012025", "NAME": "ONE", "FTECH": "JTWC", "FCST_DTG": "2025-10-02 12:00:00", "RUN_DTG": "2025-10-03 07:06:43", "BASIN": "IO", "STMNR": 1, "CAT_ID": null, "CAT_DESC": null, "MSGID": "WTIO51 PGTW 021500", "VALIDTIME": "2025-09-30 00:00:00" }, "geometry": { "type": "Point", "coordinates": [ 88.5, 15.2 ] } },
{ "type": "Feature", "properties": { "ID": 51381, "LAT": 14.9, "LON": 87.9, "VMAX": 25.0, "MSLP": 1011.80975, "RMAX": 45.0, "FSPD": 3.63051, "FDIR": 253.53668, "RENV": 500.0, "PENV": 1012.0, "VALIDT": 0, "DTG": "2025-09-30 06:00", "LATNOW": 19.5, "LONNOW": 84.7, "WINDNOW": 35.0, "DIRNOW": 4.0, "SPDNOW": 2.0, "TECH": "TRAK", "ADVNR": 6, "ATCFID": "IO012025", "NAME": "ONE", "FTECH": "JTWC", "FCST_DTG": "2025-10-02 12:00:00", "RUN_DTG": "2025-10-03 07:06:43", "BASIN": "IO", "STMNR": 1, "CAT_ID": null, "CAT_DESC": null, "MSGID": "WTIO51 PGTW 021500", "VALIDTIME": "2025-09-30 06:00:00" }, "geometry": { "type": "Point", "coordinates": [ 87.900002, 14.9 ] } },
{ "type": "Feature", "properties": { "ID": 51382, "LAT": 14.7, "LON": 87.2, "VMAX": 25.0, "MSLP": 1011.80975, "RMAX": 45.0, "FSPD": 2.5401, "FDIR": 281.68494, "RENV": 500.0, "PENV": 1012.0, "VALIDT": 0, "DTG": "2025-09-30 12:00", "LATNOW": 19.5, "LONNOW": 84.7, "WINDNOW": 35.0, "DIRNOW": 4.0, "SPDNOW": 2.0, "TECH": "TRAK", "ADVNR": 6, "ATCFID": "IO012025", "NAME": "ONE", "FTECH": "JTWC", "FCST_DTG": "2025-10-02 12:00:00", "RUN_DTG": "2025-10-03 07:06:43", "BASIN": "IO", "STMNR": 1, "CAT_ID": null, "CAT_DESC": null, "MSGID": "WTIO51 PGTW 021500", "VALIDTIME": "2025-09-30 12:00:00" }, "geometry": { "type": "Point", "coordinates": [ 87.199997, 14.7 ] } },
{ "type": "Feature", "properties": { "ID": 51383, "LAT": 14.8, "LON": 86.7, "VMAX": 30.0, "MSLP": 1010.40607, "RMAX": 44.21983, "FSPD": 3.12637, "FDIR": 9.14178, "RENV": 500.0, "PENV": 1012.0, "VALIDT": 0, "DTG": "2025-09-30 18:00", "LATNOW": 19.5, "LONNOW": 84.7, "WINDNOW": 35.0, "DIRNOW": 4.0, "SPDNOW": 2.0, "TECH": "TRAK", "ADVNR": 6, "ATCFID": "IO012025", "NAME": "ONE", "FTECH": "JTWC", "FCST_DTG": "2025-10-02 12:00:00", "RUN_DTG": "2025-10-03 07:06:43", "BASIN": "IO", "STMNR": 1, "CAT_ID": null, "CAT_DESC": null, "MSGID": "WTIO51 PGTW 021500", "VALIDTIME": "2025-09-30 18:00:00" }, "geometry": { "type": "Point", "coordinates": [ 86.699997, 14.8 ] } },
{ "type": "Feature", "properties": { "ID": 51384, "LAT": 15.4, "LON": 86.8, "VMAX": 30.0, "MSLP": 1010.40607, "RMAX": 44.21983, "FSPD": 2.97068, "FDIR": 329.98227, "RENV": 500.0, "PENV": 1012.0, "VALIDT": 0, "DTG": "2025-10-01 00:00", "LATNOW": 19.5, "LONNOW": 84.7, "WINDNOW": 35.0, "DIRNOW": 4.0, "SPDNOW": 2.0, "TECH": "TRAK", "ADVNR": 6, "ATCFID": "IO012025", "NAME": "ONE", "FTECH": "JTWC", "FCST_DTG": "2025-10-02 12:00:00", "RUN_DTG": "2025-10-03 07:06:43", "BASIN": "IO", "STMNR": 1, "CAT_ID": null, "CAT_DESC": null, "MSGID": "WTIO51 PGTW 021500", "VALIDTIME": "2025-10-01 00:00:00" }, "geometry": { "type": "Point", "coordinates": [ 86.800003, 15.4 ] } },
{ "type": "Feature", "properties": { "ID": 51385, "LAT": 15.9, "LON": 86.5, "VMAX": 35.0, "MSLP": 997.0, "RMAX": 94.0, "FSPD": 4.23238, "FDIR": 346.5071, "RENV": 170.0, "PENV": 1002.0, "VALIDT": 0, "DTG": "2025-10-01 06:00", "LATNOW": 19.5, "LONNOW": 84.7, "WINDNOW": 35.0, "DIRNOW": 4.0, "SPDNOW": 2.0, "TECH": "TRAK", "ADVNR": 6, "ATCFID": "IO012025", "NAME": "ONE", "FTECH": "JTWC", "FCST_DTG": "2025-10-02 12:00:00", "RUN_DTG": "2025-10-03 07:06:43", "BASIN": "IO", "STMNR": 1, "CAT_ID": null, "CAT_DESC": null, "MSGID": "WTIO51 PGTW 021500", "VALIDTIME": "2025-10-01 06:00:00" }, "geometry": { "type": "Point", "coordinates": [ 86.5, 15.9 ] } },
{ "type": "Feature", "properties": { "ID": 51386, "LAT": 16.7, "LON": 86.3, "VMAX": 35.0, "MSLP": 997.0, "RMAX": 94.0, "FSPD": 3.94199, "FDIR": 269.99997, "RENV": 170.0, "PENV": 1002.0, "VALIDT": 0, "DTG": "2025-10-01 12:00", "LATNOW": 19.5, "LONNOW": 84.7, "WINDNOW": 35.0, "DIRNOW": 4.0, "SPDNOW": 2.0, "TECH": "TRAK", "ADVNR": 6, "ATCFID": "IO012025", "NAME": "ONE", "FTECH": "JTWC", "FCST_DTG": "2025-10-02 12:00:00", "RUN_DTG": "2025-10-03 07:06:43", "BASIN": "IO", "STMNR": 1, "CAT_ID": null, "CAT_DESC": null, "MSGID": "WTIO51 PGTW 021500", "VALIDTIME": "2025-10-01 12:00:00" }, "geometry": { "type": "Point", "coordinates": [ 86.300003, 16.700001 ] } },
{ "type": "Feature", "properties": { "ID": 51387, "LAT": 16.7, "LON": 85.5, "VMAX": 35.0, "MSLP": 1008.74713, "RMAX": 42.69135, "FSPD": 2.96577, "FDIR": 330.14667, "RENV": 500.0, "PENV": 1012.0, "VALIDT": 0, "DTG": "2025-10-01 18:00", "LATNOW": 19.5, "LONNOW": 84.7, "WINDNOW": 35.0, "DIRNOW": 4.0, "SPDNOW": 2.0, "TECH": "TRAK", "ADVNR": 6, "ATCFID": "IO012025", "NAME": "ONE", "FTECH": "JTWC", "FCST_DTG": "2025-10-02 12:00:00", "RUN_DTG": "2025-10-03 07:06:43", "BASIN": "IO", "STMNR": 1, "CAT_ID": null, "CAT_DESC": null, "MSGID": "WTIO51 PGTW 021500", "VALIDTIME": "2025-10-01 18:00:00" }, "geometry": { "type": "Point", "coordinates": [ 85.5, 16.700001 ] } },
{ "type": "Feature", "properties": { "ID": 51388, "LAT": 17.2, "LON": 85.2, "VMAX": 35.0, "MSLP": 997.0, "RMAX": 94.0, "FSPD": 7.35043, "FDIR": 348.4748, "RENV": 170.0, "PENV": 1002.0, "VALIDT": 0, "DTG": "2025-10-02 00:00", "LATNOW": 19.5, "LONNOW": 84.7, "WINDNOW": 35.0, "DIRNOW": 4.0, "SPDNOW": 2.0, "TECH": "TRAK", "ADVNR": 6, "ATCFID": "IO012025", "NAME": "ONE", "FTECH": "JTWC", "FCST_DTG": "2025-10-02 12:00:00", "RUN_DTG": "2025-10-03 07:06:43", "BASIN": "IO", "STMNR": 1, "CAT_ID": null, "CAT_DESC": null, "MSGID": "WTIO51 PGTW 021500", "VALIDTIME": "2025-10-02 00:00:00" }, "geometry": { "type": "Point", "coordinates": [ 85.199997, 17.200001 ] } },
{ "type": "Feature", "properties": { "ID": 51389, "LAT": 18.6, "LON": 84.9, "VMAX": 35.0, "MSLP": 994.0, "RMAX": 80.0, "FSPD": 4.73125, "FDIR": 348.12463, "RENV": 160.0, "PENV": 1002.0, "VALIDT": 0, "DTG": "2025-10-02 06:00", "LATNOW": 19.5, "LONNOW": 84.7, "WINDNOW": 35.0, "DIRNOW": 4.0, "SPDNOW": 2.0, "TECH": "TRAK", "ADVNR": 6, "ATCFID": "IO012025", "NAME": "ONE", "FTECH": "JTWC", "FCST_DTG": "2025-10-02 12:00:00", "RUN_DTG": "2025-10-03 07:06:43", "BASIN": "IO", "STMNR": 1, "CAT_ID": null, "CAT_DESC": null, "MSGID": "WTIO51 PGTW 021500", "VALIDTIME": "2025-10-02 06:00:00" }, "geometry": { "type": "Point", "coordinates": [ 84.900002, 18.6 ] } },
{ "type": "Feature", "properties": { "ID": 51390, "LAT": 19.14, "LON": 84.78, "VMAX": 35.0, "MSLP": 994.0, "RMAX": 80.0, "FSPD": 4.73072, "FDIR": 348.156, "RENV": 160.0, "PENV": 1002.0, "VALIDT": 0, "DTG": "2025-10-02 09:00", "LATNOW": 19.5, "LONNOW": 84.7, "WINDNOW": 35.0, "DIRNOW": 4.0, "SPDNOW": 2.0, "TECH": "TRAK", "ADVNR": 6, "ATCFID": "IO012025", "NAME": "ONE", "FTECH": "JTWC", "FCST_DTG": "2025-10-02 12:00:00", "RUN_DTG": "2025-10-03 07:06:43", "BASIN": "IO", "STMNR": 1, "CAT_ID": null, "CAT_DESC": null, "MSGID": "WTIO51 PGTW 021500", "VALIDTIME": "2025-10-02 09:00:00" }, "geometry": { "type": "Point", "coordinates": [ 84.779999, 19.139999 ] } },
{ "type": "Feature", "properties": { "ID": 51391, "LAT": 19.5, "LON": 84.7, "VMAX": 35.0, "MSLP": 995.0, "RMAX": 65.0, "FSPD": 4.08626, "FDIR": 331.79626, "RENV": 160.0, "PENV": 1002.0, "VALIDT": 0, "DTG": "2025-10-02 12:00", "LATNOW": 19.5, "LONNOW": 84.7, "WINDNOW": 35.0, "DIRNOW": 4.0, "SPDNOW": 2.0, "TECH": "TRAK", "ADVNR": 6, "ATCFID": "IO012025", "NAME": "ONE", "FTECH": "JTWC", "FCST_DTG": "2025-10-02 12:00:00", "RUN_DTG": "2025-10-03 07:06:43", "BASIN": "IO", "STMNR": 1, "CAT_ID": null, "CAT_DESC": null, "MSGID": "WTIO51 PGTW 021500", "VALIDTIME": "2025-10-02 12:00:00" }, "geometry": { "type": "Point", "coordinates": [ 84.699997, 19.5 ] } },
{ "type": "Feature", "properties": { "ID": 51392, "LAT": 20.9, "LON": 83.9, "VMAX": 30.0, "MSLP": 1010.40607, "RMAX": 81.39487, "FSPD": 4.08626, "FDIR": 331.79626, "RENV": 250.0, "PENV": 1012.0, "VALIDT": 12, "DTG": "2025-10-03 00:00", "LATNOW": 19.5, "LONNOW": 84.7, "WINDNOW": 35.0, "DIRNOW": 4.0, "SPDNOW": 2.0, "TECH": "FCST", "ADVNR": 6, "ATCFID": "IO012025", "NAME": "ONE", "FTECH": "JTWC", "FCST_DTG": "2025-10-02 12:00:00", "RUN_DTG": "2025-10-03 07:06:43", "BASIN": "IO", "STMNR": 1, "CAT_ID": null, "CAT_DESC": null, "MSGID": "WTIO51 PGTW 021500", "VALIDTIME": "2025-10-03 00:00:00" }, "geometry": { "type": "Point", "coordinates": [ 83.900002, 20.9 ] } },
{ "type": "Feature", "properties": { "ID": 51391, "LAT": 19.5, "LON": 84.7, "VMAX": 35.0, "MSLP": 995.0, "RMAX": 65.0, "FSPD": 4.08626, "FDIR": 331.79626, "RENV": 160.0, "PENV": 1002.0, "VALIDT": 0, "DTG": "2025-10-02 12:00", "LATNOW": 19.5, "LONNOW": 84.7, "WINDNOW": 35.0, "DIRNOW": 4.0, "SPDNOW": 2.0, "TECH": "TRAK", "ADVNR": 6, "ATCFID": "IO012025", "NAME": "ONE", "FTECH": "JTWC", "FCST_DTG": "2025-10-02 12:00:00", "RUN_DTG": "2025-10-03 07:06:43", "BASIN": "IO", "STMNR": 1, "CAT_ID": null, "CAT_DESC": null, "MSGID": "WTIO51 PGTW 021500", "VALIDTIME": "2025-10-02 12:00:00" }, "geometry": { "type": "LineString", "coordinates": [ [ 88.5, 15.2 ], [ 87.9, 14.9 ], [ 87.2, 14.7 ], [ 86.7, 14.8 ], [ 86.8, 15.4 ], [ 86.5, 15.9 ], [ 86.3, 16.7 ], [ 85.5, 16.7 ], [ 85.2, 17.2 ], [ 84.9, 18.6 ], [ 84.78, 19.14 ], [ 84.7, 19.5 ] ] } },
{ "type": "Feature", "properties": { "ID": 51392, "LAT": 20.9, "LON": 83.9, "VMAX": 30.0, "MSLP": 1010.40607, "RMAX": 81.39487, "FSPD": 4.08626, "FDIR": 331.79626, "RENV": 250.0, "PENV": 1012.0, "VALIDT": 12, "DTG": "2025-10-03 00:00", "LATNOW": 19.5, "LONNOW": 84.7, "WINDNOW": 35.0, "DIRNOW": 4.0, "SPDNOW": 2.0, "TECH": "FCST", "ADVNR": 6, "ATCFID": "IO012025", "NAME": "ONE", "FTECH": "JTWC", "FCST_DTG": "2025-10-02 12:00:00", "RUN_DTG": "2025-10-03 07:06:43", "BASIN": "IO", "STMNR": 1, "CAT_ID": null, "CAT_DESC": null, "MSGID": "WTIO51 PGTW 021500", "VALIDTIME": "2025-10-03 00:00:00" }, "geometry": { "type": "LineString", "coordinates": [ [ 84.7, 19.5 ], [ 83.9, 20.9 ] ] } }
]
}
