{
"type": "FeatureCollection",
"crs": { "type": "name", "properties": { "name": "urn:ogc:def:crs:OGC:1.3:CRS84" } },
"features": [
{ "type": "Feature", "properties": { "ID": 44274, "LAT": 10.7, "LON": -105.2, "VMAX": 20.0, "MSLP": 1009.0, "RMAX": 120.0, "FSPD": 5.157, "FDIR": 281.50845, "RENV": 180.0, "PENV": 1010.0, "VALIDT": 0, "DTG": "2026-07-17 12:00", "LATNOW": 23.5, "LONNOW": -155.0, "WINDNOW": 30.0, "DIRNOW": 6.0, "SPDNOW": 3.0, "TECH": "TRAK", "ADVNR": 30, "ATCFID": "EP062026", "NAME": "FAUSTO", "FTECH": "OFCL", "FCST_DTG": "2026-07-29 12:00:00", "RUN_DTG": "2026-07-30 06:26:36", "BASIN": "EP", "STMNR": 6, "CAT_ID": null, "CAT_DESC": null, "MSGID": "WTPZ21 KNHC 260846", "VALIDTIME": "2026-07-17 12:00:00" }, "geometry": { "type": "Point", "coordinates": [ -105.199997, 10.7 ] } },
{ "type": "Feature", "properties": { "ID": 44275, "LAT": 10.9, "LON": -106.2, "VMAX": 20.0, "MSLP": 1009.0, "RMAX": 120.0, "FSPD": 7.63499, "FDIR": 127.33096, "RENV": 180.0, "PENV": 1010.0, "VALIDT": 0, "DTG": "2026-07-17 18:00", "LATNOW": 23.5, "LONNOW": -155.0, "WINDNOW": 30.0, "DIRNOW": 6.0, "SPDNOW": 3.0, "TECH": "TRAK", "ADVNR": 30, "ATCFID": "EP062026", "NAME": "FAUSTO", "FTECH": "OFCL", "FCST_DTG": "2026-07-29 12:00:00", "RUN_DTG": "2026-07-30 06:26:36", "BASIN": "EP", "STMNR": 6, "CAT_ID": null, "CAT_DESC": null, "MSGID": "WTPZ21 KNHC 260846", "VALIDTIME": "2026-07-17 18:00:00" }, "geometry": { "type": "Point", "coordinates": [ -106.199997, 10.9 ] } },
{ "type": "Feature", "properties": { "ID": 44276, "LAT": 10.0, "LON": -105.0, "VMAX": 20.0, "MSLP": 1009.0, "RMAX": 120.0, "FSPD": 3.40785, "FDIR": 296.92834, "RENV": 180.0, "PENV": 1010.0, "VALIDT": 0, "DTG": "2026-07-18 00:00", "LATNOW": 23.5, "LONNOW": -155.0, "WINDNOW": 30.0, "DIRNOW": 6.0, "SPDNOW": 3.0, "TECH": "TRAK", "ADVNR": 30, "ATCFID": "EP062026", "NAME": "FAUSTO", "FTECH": "OFCL", "FCST_DTG": "2026-07-29 12:00:00", "RUN_DTG": "2026-07-30 06:26:36", "BASIN": "EP", "STMNR": 6, "CAT_ID": null, "CAT_DESC": null, "MSGID": "WTPZ21 KNHC 260846", "VALIDTIME": "2026-07-18 00:00:00" }, "geometry": { "type": "Point", "coordinates": [ -105.0, 10.0 ] } },
{ "type": "Feature", "properties": { "ID": 44277, "LAT": 10.3, "LON": -105.6, "VMAX": 25.0, "MSLP": 1009.0, "RMAX": 120.0, "FSPD": 5.08682, "FDIR": 275.80435, "RENV": 180.0, "PENV": 1010.0, "VALIDT": 0, "DTG": "2026-07-18 06:00", "LATNOW": 23.5, "LONNOW": -155.0, "WINDNOW": 30.0, "DIRNOW": 6.0, "SPDNOW": 3.0, "TECH": "TRAK", "ADVNR": 30, "ATCFID": "EP062026", "NAME": "FAUSTO", "FTECH": "OFCL", "FCST_DTG": "2026-07-29 12:00:00", "RUN_DTG": "2026-07-30 06:26:36", "BASIN": "EP", "STMNR": 6, "CAT_ID": null, "CAT_DESC": null, "MSGID": "WTPZ21 KNHC 260846", "VALIDTIME": "2026-07-18 06:00:00" }, "geometry": { "type": "Point", "coordinates": [ -105.599998, 10.3 ] } },
{ "type": "Feature", "properties": { "ID": 44278, "LAT": 10.4, "LON": -106.6, "VMAX": 25.0, "MSLP": 1009.0, "RMAX": 120.0, "FSPD": 3.4044, "FDIR": 296.95782, "RENV": 180.0, "PENV": 1010.0, "VALIDT": 0, "DTG": "2026-07-18 12:00", "LATNOW": 23.5, "LONNOW": -155.0, "WINDNOW": 30.0, "DIRNOW": 6.0, "SPDNOW": 3.0, "TECH": "TRAK", "ADVNR": 30, "ATCFID": "EP062026", "NAME": "FAUSTO", "FTECH": "OFCL", "FCST_DTG": "2026-07-29 12:00:00", "RUN_DTG": "2026-07-30 06:26:36", "BASIN": "EP", "STMNR": 6, "CAT_ID": null, "CAT_DESC": null, "MSGID": "WTPZ21 KNHC 260846", "VALIDTIME": "2026-07-18 12:00:00" }, "geometry": { "type": "Point", "coordinates": [ -106.599998, 10.4 ] } },
{ "type": "Feature", "properties": { "ID": 44279, "LAT": 10.7, "LON": -107.2, "VMAX": 25.0, "MSLP": 1008.0, "RMAX": 120.0, "FSPD": 6.40173, "FDIR": 288.75012, "RENV": 180.0, "PENV": 1012.0, "VALIDT": 0, "DTG": "2026-07-18 18:00", "LATNOW": 23.5, "LONNOW": -155.0, "WINDNOW": 30.0, "DIRNOW": 6.0, "SPDNOW": 3.0, "TECH": "TRAK", "ADVNR": 30, "ATCFID": "EP062026", "NAME": "FAUSTO", "FTECH": "OFCL", "FCST_DTG": "2026-07-29 12:00:00", "RUN_DTG": "2026-07-30 06:26:36", "BASIN": "EP", "STMNR": 6, "CAT_ID": null, "CAT_DESC": null, "MSGID": "WTPZ21 KNHC 260846", "VALIDTIME": "2026-07-18 18:00:00" }, "geometry": { "type": "Point", "coordinates": [ -107.199997, 10.7 ] } },
{ "type": "Feature", "properties": { "ID": 44280, "LAT": 11.1, "LON": -108.4, "VMAX": 30.0, "MSLP": 1008.0, "RMAX": 100.0, "FSPD": 9.05516, "FDIR": 297.03262, "RENV": 180.0, "PENV": 1012.0, "VALIDT": 0, "DTG": "2026-07-19 00:00", "LATNOW": 23.5, "LONNOW": -155.0, "WINDNOW": 30.0, "DIRNOW": 6.0, "SPDNOW": 3.0, "TECH": "TRAK", "ADVNR": 30, "ATCFID": "EP062026", "NAME": "FAUSTO", "FTECH": "OFCL", "FCST_DTG": "2026-07-29 12:00:00", "RUN_DTG": "2026-07-30 06:26:36", "BASIN": "EP", "STMNR": 6, "CAT_ID": null, "CAT_DESC": null, "MSGID": "WTPZ21 KNHC 260846", "VALIDTIME": "2026-07-19 00:00:00" }, "geometry": { "type": "Point", "coordinates": [ -108.400002, 11.1 ] } },
{ "type": "Feature", "properties": { "ID": 44281, "LAT": 11.9, "LON": -110.0, "VMAX": 30.0, "MSLP": 1007.0, "RMAX": 80.0, "FSPD": 6.23144, "FDIR": 284.3396, "RENV": 190.0, "PENV": 1011.0, "VALIDT": 0, "DTG": "2026-07-19 06:00", "LATNOW": 23.5, "LONNOW": -155.0, "WINDNOW": 30.0, "DIRNOW": 6.0, "SPDNOW": 3.0, "TECH": "TRAK", "ADVNR": 30, "ATCFID": "EP062026", "NAME": "FAUSTO", "FTECH": "OFCL", "FCST_DTG": "2026-07-29 12:00:00", "RUN_DTG": "2026-07-30 06:26:36", "BASIN": "EP", "STMNR": 6, "CAT_ID": null, "CAT_DESC": null, "MSGID": "WTPZ21 KNHC 260846", "VALIDTIME": "2026-07-19 06:00:00" }, "geometry": { "type": "Point", "coordinates": [ -110.0, 11.9 ] } },
{ "type": "Feature", "properties": { "ID": 44282, "LAT": 12.2, "LON": -111.2, "VMAX": 30.0, "MSLP": 1006.0, "RMAX": 80.0, "FSPD": 5.05356, "FDIR": 275.84274, "RENV": 170.0, "PENV": 1009.0, "VALIDT": 0, "DTG": "2026-07-19 12:00", "LATNOW": 23.5, "LONNOW": -155.0, "WINDNOW": 30.0, "DIRNOW": 6.0, "SPDNOW": 3.0, "TECH": "TRAK", "ADVNR": 30, "ATCFID": "EP062026", "NAME": "FAUSTO", "FTECH": "OFCL", "FCST_DTG": "2026-07-29 12:00:00", "RUN_DTG": "2026-07-30 06:26:36", "BASIN": "EP", "STMNR": 6, "CAT_ID": null, "CAT_DESC": null, "MSGID": "WTPZ21 KNHC 260846", "VALIDTIME": "2026-07-19 12:00:00" }, "geometry": { "type": "Point", "coordinates": [ -111.199997, 12.2 ] } },
{ "type": "Feature", "properties": { "ID": 44283, "LAT": 12.3, "LON": -112.2, "VMAX": 35.0, "MSLP": 1005.0, "RMAX": 60.0, "FSPD": 10.55538, "FDIR": 269.99997, "RENV": 170.0, "PENV": 1009.0, "VALIDT": 0, "DTG": "2026-07-19 18:00", "LATNOW": 23.5, "LONNOW": -155.0, "WINDNOW": 30.0, "DIRNOW": 6.0, "SPDNOW": 3.0, "TECH": "TRAK", "ADVNR": 30, "ATCFID": "EP062026", "NAME": "FAUSTO", "FTECH": "OFCL", "FCST_DTG": "2026-07-29 12:00:00", "RUN_DTG": "2026-07-30 06:26:36", "BASIN": "EP", "STMNR": 6, "CAT_ID": null, "CAT_DESC": null, "MSGID": "WTPZ21 KNHC 260846", "VALIDTIME": "2026-07-19 18:00:00" }, "geometry": { "type": "Point", "coordinates": [ -112.199997, 12.3 ] } },
{ "type": "Feature", "properties": { "ID": 44284, "LAT": 12.3, "LON": -114.3, "VMAX": 40.0, "MSLP": 1002.0, "RMAX": 60.0, "FSPD": 4.96657, "FDIR": 294.4768, "RENV": 160.0, "PENV": 1008.0, "VALIDT": 0, "DTG": "2026-07-20 00:00", "LATNOW": 23.5, "LONNOW": -155.0, "WINDNOW": 30.0, "DIRNOW": 6.0, "SPDNOW": 3.0, "TECH": "TRAK", "ADVNR": 30, "ATCFID": "EP062026", "NAME": "FAUSTO", "FTECH": "OFCL", "FCST_DTG": "2026-07-29 12:00:00", "RUN_DTG": "2026-07-30 06:26:36", "BASIN": "EP", "STMNR": 6, "CAT_ID": null, "CAT_DESC": null, "MSGID": "WTPZ21 KNHC 260846", "VALIDTIME": "2026-07-20 00:00:00" }, "geometry": { "type": "Point", "coordinates": [ -114.300003, 12.3 ] } },
{ "type": "Feature", "properties": { "ID": 44285, "LAT": 12.7, "LON": -115.2, "VMAX": 45.0, "MSLP": 999.0, "RMAX": 50.0, "FSPD": 4.76483, "FDIR": 302.6724, "RENV": 170.0, "PENV": 1009.0, "VALIDT": 0, "DTG": "2026-07-20 06:00", "LATNOW": 23.5, "LONNOW": -155.0, "WINDNOW": 30.0, "DIRNOW": 6.0, "SPDNOW": 3.0, "TECH": "TRAK", "ADVNR": 30, "ATCFID": "EP062026", "NAME": "FAUSTO", "FTECH": "OFCL", "FCST_DTG": "2026-07-29 12:00:00", "RUN_DTG": "2026-07-30 06:26:36", "BASIN": "EP", "STMNR": 6, "CAT_ID": null, "CAT_DESC": null, "MSGID": "WTPZ21 KNHC 260846", "VALIDTIME": "2026-07-20 06:00:00" }, "geometry": { "type": "Point", "coordinates": [ -115.199997, 12.7 ] } },
{ "type": "Feature", "properties": { "ID": 44286, "LAT": 13.2, "LON": -116.0, "VMAX": 50.0, "MSLP": 996.0, "RMAX": 40.0, "FSPD": 5.09298, "FDIR": 323.90912, "RENV": 180.0, "PENV": 1008.0, "VALIDT": 0, "DTG": "2026-07-20 12:00", "LATNOW": 23.5, "LONNOW": -155.0, "WINDNOW": 30.0, "DIRNOW": 6.0, "SPDNOW": 3.0, "TECH": "TRAK", "ADVNR": 30, "ATCFID": "EP062026", "NAME": "FAUSTO", "FTECH": "OFCL", "FCST_DTG": "2026-07-29 12:00:00", "RUN_DTG": "2026-07-30 06:26:36", "BASIN": "EP", "STMNR": 6, "CAT_ID": null, "CAT_DESC": null, "MSGID": "WTPZ21 KNHC 260846", "VALIDTIME": "2026-07-20 12:00:00" }, "geometry": { "type": "Point", "coordinates": [ -116.0, 13.2 ] } },
{ "type": "Feature", "properties": { "ID": 44287, "LAT": 14.0, "LON": -116.6, "VMAX": 55.0, "MSLP": 994.0, "RMAX": 40.0, "FSPD": 2.86603, "FDIR": 315.88867, "RENV": 180.0, "PENV": 1008.0, "VALIDT": 0, "DTG": "2026-07-20 18:00", "LATNOW": 23.5, "LONNOW": -155.0, "WINDNOW": 30.0, "DIRNOW": 6.0, "SPDNOW": 3.0, "TECH": "TRAK", "ADVNR": 30, "ATCFID": "EP062026", "NAME": "FAUSTO", "FTECH": "OFCL", "FCST_DTG": "2026-07-29 12:00:00", "RUN_DTG": "2026-07-30 06:26:36", "BASIN": "EP", "STMNR": 6, "CAT_ID": null, "CAT_DESC": null, "MSGID": "WTPZ21 KNHC 260846", "VALIDTIME": "2026-07-20 18:00:00" }, "geometry": { "type": "Point", "coordinates": [ -116.599998, 14.0 ] } },
{ "type": "Feature", "properties": { "ID": 44288, "LAT": 14.4, "LON": -117.0, "VMAX": 65.0, "MSLP": 988.0, "RMAX": 15.0, "FSPD": 4.67738, "FDIR": 320.34485, "RENV": 180.0, "PENV": 1008.0, "VALIDT": 0, "DTG": "2026-07-21 00:00", "LATNOW": 23.5, "LONNOW": -155.0, "WINDNOW": 30.0, "DIRNOW": 6.0, "SPDNOW": 3.0, "TECH": "TRAK", "ADVNR": 30, "ATCFID": "EP062026", "NAME": "FAUSTO", "FTECH": "OFCL", "FCST_DTG": "2026-07-29 12:00:00", "RUN_DTG": "2026-07-30 06:26:36", "BASIN": "EP", "STMNR": 6, "CAT_ID": null, "CAT_DESC": null, "MSGID": "WTPZ21 KNHC 260846", "VALIDTIME": "2026-07-21 00:00:00" }, "geometry": { "type": "Point", "coordinates": [ -117.0, 14.4 ] } },
{ "type": "Feature", "properties": { "ID": 44289, "LAT": 15.1, "LON": -117.6, "VMAX": 70.0, "MSLP": 985.0, "RMAX": 15.0, "FSPD": 6.0957, "FDIR": 319.42468, "RENV": 180.0, "PENV": 1009.0, "VALIDT": 0, "DTG": "2026-07-21 06:00", "LATNOW": 23.5, "LONNOW": -155.0, "WINDNOW": 30.0, "DIRNOW": 6.0, "SPDNOW": 3.0, "TECH": "TRAK", "ADVNR": 30, "ATCFID": "EP062026", "NAME": "FAUSTO", "FTECH": "OFCL", "FCST_DTG": "2026-07-29 12:00:00", "RUN_DTG": "2026-07-30 06:26:36", "BASIN": "EP", "STMNR": 6, "CAT_ID": null, "CAT_DESC": null, "MSGID": "WTPZ21 KNHC 260846", "VALIDTIME": "2026-07-21 06:00:00" }, "geometry": { "type": "Point", "coordinates": [ -117.599998, 15.1 ] } },
{ "type": "Feature", "properties": { "ID": 44290, "LAT": 16.0, "LON": -118.4, "VMAX": 65.0, "MSLP": 986.0, "RMAX": 15.0, "FSPD": 6.01097, "FDIR": 295.3357, "RENV": 180.0, "PENV": 1009.0, "VALIDT": 0, "DTG": "2026-07-21 12:00", "LATNOW": 23.5, "LONNOW": -155.0, "WINDNOW": 30.0, "DIRNOW": 6.0, "SPDNOW": 3.0, "TECH": "TRAK", "ADVNR": 30, "ATCFID": "EP062026", "NAME": "FAUSTO", "FTECH": "OFCL", "FCST_DTG": "2026-07-29 12:00:00", "RUN_DTG": "2026-07-30 06:26:36", "BASIN": "EP", "STMNR": 6, "CAT_ID": null, "CAT_DESC": null, "MSGID": "WTPZ21 KNHC 260846", "VALIDTIME": "2026-07-21 12:00:00" }, "geometry": { "type": "Point", "coordinates": [ -118.400002, 16.0 ] } },
{ "type": "Feature", "properties": { "ID": 44291, "LAT": 16.5, "LON": -119.5, "VMAX": 65.0, "MSLP": 987.0, "RMAX": 15.0, "FSPD": 2.4663, "FDIR": 269.99997, "RENV": 180.0, "PENV": 1009.0, "VALIDT": 0, "DTG": "2026-07-21 18:00", "LATNOW": 23.5, "LONNOW": -155.0, "WINDNOW": 30.0, "DIRNOW": 6.0, "SPDNOW": 3.0, "TECH": "TRAK", "ADVNR": 30, "ATCFID": "EP062026", "NAME": "FAUSTO", "FTECH": "OFCL", "FCST_DTG": "2026-07-29 12:00:00", "RUN_DTG": "2026-07-30 06:26:36", "BASIN": "EP", "STMNR": 6, "CAT_ID": null, "CAT_DESC": null, "MSGID": "WTPZ21 KNHC 260846", "VALIDTIME": "2026-07-21 18:00:00" }, "geometry": { "type": "Point", "coordinates": [ -119.5, 16.5 ] } },
{ "type": "Feature", "properties": { "ID": 44292, "LAT": 16.5, "LON": -120.0, "VMAX": 70.0, "MSLP": 984.0, "RMAX": 15.0, "FSPD": 2.03852, "FDIR": 284.61737, "RENV": 190.0, "PENV": 1009.0, "VALIDT": 0, "DTG": "2026-07-22 00:00", "LATNOW": 23.5, "LONNOW": -155.0, "WINDNOW": 30.0, "DIRNOW": 6.0, "SPDNOW": 3.0, "TECH": "TRAK", "ADVNR": 30, "ATCFID": "EP062026", "NAME": "FAUSTO", "FTECH": "OFCL", "FCST_DTG": "2026-07-29 12:00:00", "RUN_DTG": "2026-07-30 06:26:36", "BASIN": "EP", "STMNR": 6, "CAT_ID": null, "CAT_DESC": null, "MSGID": "WTPZ21 KNHC 260846", "VALIDTIME": "2026-07-22 00:00:00" }, "geometry": { "type": "Point", "coordinates": [ -120.0, 16.5 ] } },
{ "type": "Feature", "properties": { "ID": 44293, "LAT": 16.6, "LON": -120.4, "VMAX": 75.0, "MSLP": 981.0, "RMAX": 15.0, "FSPD": 3.33437, "FDIR": 297.57147, "RENV": 190.0, "PENV": 1009.0, "VALIDT": 0, "DTG": "2026-07-22 06:00", "LATNOW": 23.5, "LONNOW": -155.0, "WINDNOW": 30.0, "DIRNOW": 6.0, "SPDNOW": 3.0, "TECH": "TRAK", "ADVNR": 30, "ATCFID": "EP062026", "NAME": "FAUSTO", "FTECH": "OFCL", "FCST_DTG": "2026-07-29 12:00:00", "RUN_DTG": "2026-07-30 06:26:36", "BASIN": "EP", "STMNR": 6, "CAT_ID": null, "CAT_DESC": null, "MSGID": "WTPZ21 KNHC 260846", "VALIDTIME": "2026-07-22 06:00:00" }, "geometry": { "type": "Point", "coordinates": [ -120.400002, 16.6 ] } },
{ "type": "Feature", "properties": { "ID": 44294, "LAT": 16.9, "LON": -121.0, "VMAX": 70.0, "MSLP": 983.0, "RMAX": 15.0, "FSPD": 2.66634, "FDIR": 292.6985, "RENV": 190.0, "PENV": 1009.0, "VALIDT": 0, "DTG": "2026-07-22 12:00", "LATNOW": 23.5, "LONNOW": -155.0, "WINDNOW": 30.0, "DIRNOW": 6.0, "SPDNOW": 3.0, "TECH": "TRAK", "ADVNR": 30, "ATCFID": "EP062026", "NAME": "FAUSTO", "FTECH": "OFCL", "FCST_DTG": "2026-07-29 12:00:00", "RUN_DTG": "2026-07-30 06:26:36", "BASIN": "EP", "STMNR": 6, "CAT_ID": null, "CAT_DESC": null, "MSGID": "WTPZ21 KNHC 260846", "VALIDTIME": "2026-07-22 12:00:00" }, "geometry": { "type": "Point", "coordinates": [ -121.0, 16.9 ] } },
{ "type": "Feature", "properties": { "ID": 44295, "LAT": 17.1, "LON": -121.5, "VMAX": 70.0, "MSLP": 983.0, "RMAX": 15.0, "FSPD": 4.68335, "FDIR": 289.24057, "RENV": 200.0, "PENV": 1008.0, "VALIDT": 0, "DTG": "2026-07-22 18:00", "LATNOW": 23.5, "LONNOW": -155.0, "WINDNOW": 30.0, "DIRNOW": 6.0, "SPDNOW": 3.0, "TECH": "TRAK", "ADVNR": 30, "ATCFID": "EP062026", "NAME": "FAUSTO", "FTECH": "OFCL", "FCST_DTG": "2026-07-29 12:00:00", "RUN_DTG": "2026-07-30 06:26:36", "BASIN": "EP", "STMNR": 6, "CAT_ID": null, "CAT_DESC": null, "MSGID": "WTPZ21 KNHC 260846", "VALIDTIME": "2026-07-22 18:00:00" }, "geometry": { "type": "Point", "coordinates": [ -121.5, 17.1 ] } },
{ "type": "Feature", "properties": { "ID": 44296, "LAT": 17.4, "LON": -122.4, "VMAX": 70.0, "MSLP": 982.0, "RMAX": 30.0, "FSPD": 5.61188, "FDIR": 285.96277, "RENV": 210.0, "PENV": 1009.0, "VALIDT": 0, "DTG": "2026-07-23 00:00", "LATNOW": 23.5, "LONNOW": -155.0, "WINDNOW": 30.0, "DIRNOW": 6.0, "SPDNOW": 3.0, "TECH": "TRAK", "ADVNR": 30, "ATCFID": "EP062026", "NAME": "FAUSTO", "FTECH": "OFCL", "FCST_DTG": "2026-07-29 12:00:00", "RUN_DTG": "2026-07-30 06:26:36", "BASIN": "EP", "STMNR": 6, "CAT_ID": null, "CAT_DESC": null, "MSGID": "WTPZ21 KNHC 260846", "VALIDTIME": "2026-07-23 00:00:00" }, "geometry": { "type": "Point", "coordinates": [ -122.400002, 17.4 ] } },
{ "type": "Feature", "properties": { "ID": 44297, "LAT": 17.7, "LON": -123.5, "VMAX": 70.0, "MSLP": 982.0, "RMAX": 30.0, "FSPD": 6.39017, "FDIR": 274.61755, "RENV": 210.0, "PENV": 1008.0, "VALIDT": 0, "DTG": "2026-07-23 06:00", "LATNOW": 23.5, "LONNOW": -155.0, "WINDNOW": 30.0, "DIRNOW": 6.0, "SPDNOW": 3.0, "TECH": "TRAK", "ADVNR": 30, "ATCFID": "EP062026", "NAME": "FAUSTO", "FTECH": "OFCL", "FCST_DTG": "2026-07-29 12:00:00", "RUN_DTG": "2026-07-30 06:26:36", "BASIN": "EP", "STMNR": 6, "CAT_ID": null, "CAT_DESC": null, "MSGID": "WTPZ21 KNHC 260846", "VALIDTIME": "2026-07-23 06:00:00" }, "geometry": { "type": "Point", "coordinates": [ -123.5, 17.700001 ] } },
{ "type": "Feature", "properties": { "ID": 44298, "LAT": 17.8, "LON": -124.8, "VMAX": 75.0, "MSLP": 979.0, "RMAX": 20.0, "FSPD": 7.0233, "FDIR": 282.6941, "RENV": 210.0, "PENV": 1008.0, "VALIDT": 0, "DTG": "2026-07-23 12:00", "LATNOW": 23.5, "LONNOW": -155.0, "WINDNOW": 30.0, "DIRNOW": 6.0, "SPDNOW": 3.0, "TECH": "TRAK", "ADVNR": 30, "ATCFID": "EP062026", "NAME": "FAUSTO", "FTECH": "OFCL", "FCST_DTG": "2026-07-29 12:00:00", "RUN_DTG": "2026-07-30 06:26:36", "BASIN": "EP", "STMNR": 6, "CAT_ID": null, "CAT_DESC": null, "MSGID": "WTPZ21 KNHC 260846", "VALIDTIME": "2026-07-23 12:00:00" }, "geometry": { "type": "Point", "coordinates": [ -124.800003, 17.799999 ] } },
{ "type": "Feature", "properties": { "ID": 44299, "LAT": 18.1, "LON": -126.2, "VMAX": 75.0, "MSLP": 980.0, "RMAX": 20.0, "FSPD": 7.35074, "FDIR": 274.01315, "RENV": 210.0, "PENV": 1008.0, "VALIDT": 0, "DTG": "2026-07-23 18:00", "LATNOW": 23.5, "LONNOW": -155.0, "WINDNOW": 30.0, "DIRNOW": 6.0, "SPDNOW": 3.0, "TECH": "TRAK", "ADVNR": 30, "ATCFID": "EP062026", "NAME": "FAUSTO", "FTECH": "OFCL", "FCST_DTG": "2026-07-29 12:00:00", "RUN_DTG": "2026-07-30 06:26:36", "BASIN": "EP", "STMNR": 6, "CAT_ID": null, "CAT_DESC": null, "MSGID": "WTPZ21 KNHC 260846", "VALIDTIME": "2026-07-23 18:00:00" }, "geometry": { "type": "Point", "coordinates": [ -126.199997, 18.1 ] } },
{ "type": "Feature", "properties": { "ID": 44300, "LAT": 18.2, "LON": -127.7, "VMAX": 80.0, "MSLP": 976.0, "RMAX": 20.0, "FSPD": 7.48512, "FDIR": 281.89893, "RENV": 250.0, "PENV": 1008.0, "VALIDT": 0, "DTG": "2026-07-24 00:00", "LATNOW": 23.5, "LONNOW": -155.0, "WINDNOW": 30.0, "DIRNOW": 6.0, "SPDNOW": 3.0, "TECH": "TRAK", "ADVNR": 30, "ATCFID": "EP062026", "NAME": "FAUSTO", "FTECH": "OFCL", "FCST_DTG": "2026-07-29 12:00:00", "RUN_DTG": "2026-07-30 06:26:36", "BASIN": "EP", "STMNR": 6, "CAT_ID": null, "CAT_DESC": null, "MSGID": "WTPZ21 KNHC 260846", "VALIDTIME": "2026-07-24 00:00:00" }, "geometry": { "type": "Point", "coordinates": [ -127.699997, 18.200001 ] } },
{ "type": "Feature", "properties": { "ID": 44301, "LAT": 18.5, "LON": -129.2, "VMAX": 80.0, "MSLP": 976.0, "RMAX": 20.0, "FSPD": 6.83008, "FDIR": 269.99997, "RENV": 250.0, "PENV": 1008.0, "VALIDT": 0, "DTG": "2026-07-24 06:00", "LATNOW": 23.5, "LONNOW": -155.0, "WINDNOW": 30.0, "DIRNOW": 6.0, "SPDNOW": 3.0, "TECH": "TRAK", "ADVNR": 30, "ATCFID": "EP062026", "NAME": "FAUSTO", "FTECH": "OFCL", "FCST_DTG": "2026-07-29 12:00:00", "RUN_DTG": "2026-07-30 06:26:36", "BASIN": "EP", "STMNR": 6, "CAT_ID": null, "CAT_DESC": null, "MSGID": "WTPZ21 KNHC 260846", "VALIDTIME": "2026-07-24 06:00:00" }, "geometry": { "type": "Point", "coordinates": [ -129.199997, 18.5 ] } },
{ "type": "Feature", "properties": { "ID": 44302, "LAT": 18.5, "LON": -130.6, "VMAX": 90.0, "MSLP": 970.0, "RMAX": 20.0, "FSPD": 6.84736, "FDIR": 274.30872, "RENV": 250.0, "PENV": 1008.0, "VALIDT": 0, "DTG": "2026-07-24 12:00", "LATNOW": 23.5, "LONNOW": -155.0, "WINDNOW": 30.0, "DIRNOW": 6.0, "SPDNOW": 3.0, "TECH": "TRAK", "ADVNR": 30, "ATCFID": "EP062026", "NAME": "FAUSTO", "FTECH": "OFCL", "FCST_DTG": "2026-07-29 12:00:00", "RUN_DTG": "2026-07-30 06:26:36", "BASIN": "EP", "STMNR": 6, "CAT_ID": null, "CAT_DESC": null, "MSGID": "WTPZ21 KNHC 260846", "VALIDTIME": "2026-07-24 12:00:00" }, "geometry": { "type": "Point", "coordinates": [ -130.600006, 18.5 ] } },
{ "type": "Feature", "properties": { "ID": 44303, "LAT": 18.6, "LON": -132.0, "VMAX": 90.0, "MSLP": 967.0, "RMAX": 15.0, "FSPD": 6.33848, "FDIR": 269.99997, "RENV": 250.0, "PENV": 1008.0, "VALIDT": 0, "DTG": "2026-07-24 18:00", "LATNOW": 23.5, "LONNOW": -155.0, "WINDNOW": 30.0, "DIRNOW": 6.0, "SPDNOW": 3.0, "TECH": "TRAK", "ADVNR": 30, "ATCFID": "EP062026", "NAME": "FAUSTO", "FTECH": "OFCL", "FCST_DTG": "2026-07-29 12:00:00", "RUN_DTG": "2026-07-30 06:26:36", "BASIN": "EP", "STMNR": 6, "CAT_ID": null, "CAT_DESC": null, "MSGID": "WTPZ21 KNHC 260846", "VALIDTIME": "2026-07-24 18:00:00" }, "geometry": { "type": "Point", "coordinates": [ -132.0, 18.6 ] } },
{ "type": "Feature", "properties": { "ID": 44304, "LAT": 18.6, "LON": -133.3, "VMAX": 90.0, "MSLP": 967.0, "RMAX": 15.0, "FSPD": 5.87173, "FDIR": 275.02634, "RENV": 230.0, "PENV": 1008.0, "VALIDT": 0, "DTG": "2026-07-25 00:00", "LATNOW": 23.5, "LONNOW": -155.0, "WINDNOW": 30.0, "DIRNOW": 6.0, "SPDNOW": 3.0, "TECH": "TRAK", "ADVNR": 30, "ATCFID": "EP062026", "NAME": "FAUSTO", "FTECH": "OFCL", "FCST_DTG": "2026-07-29 12:00:00", "RUN_DTG": "2026-07-30 06:26:36", "BASIN": "EP", "STMNR": 6, "CAT_ID": null, "CAT_DESC": null, "MSGID": "WTPZ21 KNHC 260846", "VALIDTIME": "2026-07-25 00:00:00" }, "geometry": { "type": "Point", "coordinates": [ -133.300003, 18.6 ] } },
{ "type": "Feature", "properties": { "ID": 44305, "LAT": 18.7, "LON": -134.5, "VMAX": 85.0, "MSLP": 971.0, "RMAX": 15.0, "FSPD": 6.98846, "FDIR": 282.75833, "RENV": 230.0, "PENV": 1010.0, "VALIDT": 0, "DTG": "2026-07-25 06:00", "LATNOW": 23.5, "LONNOW": -155.0, "WINDNOW": 30.0, "DIRNOW": 6.0, "SPDNOW": 3.0, "TECH": "TRAK", "ADVNR": 30, "ATCFID": "EP062026", "NAME": "FAUSTO", "FTECH": "OFCL", "FCST_DTG": "2026-07-29 12:00:00", "RUN_DTG": "2026-07-30 06:26:36", "BASIN": "EP", "STMNR": 6, "CAT_ID": null, "CAT_DESC": null, "MSGID": "WTPZ21 KNHC 260846", "VALIDTIME": "2026-07-25 06:00:00" }, "geometry": { "type": "Point", "coordinates": [ -134.5, 18.700001 ] } },
{ "type": "Feature", "properties": { "ID": 44306, "LAT": 19.0, "LON": -135.9, "VMAX": 85.0, "MSLP": 971.0, "RMAX": 20.0, "FSPD": 5.44548, "FDIR": 280.89117, "RENV": 230.0, "PENV": 1010.0, "VALIDT": 0, "DTG": "2026-07-25 12:00", "LATNOW": 23.5, "LONNOW": -155.0, "WINDNOW": 30.0, "DIRNOW": 6.0, "SPDNOW": 3.0, "TECH": "TRAK", "ADVNR": 30, "ATCFID": "EP062026", "NAME": "FAUSTO", "FTECH": "OFCL", "FCST_DTG": "2026-07-29 12:00:00", "RUN_DTG": "2026-07-30 06:26:36", "BASIN": "EP", "STMNR": 6, "CAT_ID": null, "CAT_DESC": null, "MSGID": "WTPZ21 KNHC 260846", "VALIDTIME": "2026-07-25 12:00:00" }, "geometry": { "type": "Point", "coordinates": [ -135.899994, 19.0 ] } },
{ "type": "Feature", "properties": { "ID": 44307, "LAT": 19.2, "LON": -137.0, "VMAX": 85.0, "MSLP": 971.0, "RMAX": 30.0, "FSPD": 5.91653, "FDIR": 280.01462, "RENV": 230.0, "PENV": 1010.0, "VALIDT": 0, "DTG": "2026-07-25 18:00", "LATNOW": 23.5, "LONNOW": -155.0, "WINDNOW": 30.0, "DIRNOW": 6.0, "SPDNOW": 3.0, "TECH": "TRAK", "ADVNR": 30, "ATCFID": "EP062026", "NAME": "FAUSTO", "FTECH": "OFCL", "FCST_DTG": "2026-07-29 12:00:00", "RUN_DTG": "2026-07-30 06:26:36", "BASIN": "EP", "STMNR": 6, "CAT_ID": null, "CAT_DESC": null, "MSGID": "WTPZ21 KNHC 260846", "VALIDTIME": "2026-07-25 18:00:00" }, "geometry": { "type": "Point", "coordinates": [ -137.0, 19.200001 ] } },
{ "type": "Feature", "properties": { "ID": 44308, "LAT": 19.4, "LON": -138.2, "VMAX": 85.0, "MSLP": 971.0, "RMAX": 30.0, "FSPD": 4.95732, "FDIR": 281.97882, "RENV": 230.0, "PENV": 1010.0, "VALIDT": 0, "DTG": "2026-07-26 00:00", "LATNOW": 23.5, "LONNOW": -155.0, "WINDNOW": 30.0, "DIRNOW": 6.0, "SPDNOW": 3.0, "TECH": "TRAK", "ADVNR": 30, "ATCFID": "EP062026", "NAME": "FAUSTO", "FTECH": "OFCL", "FCST_DTG": "2026-07-29 12:00:00", "RUN_DTG": "2026-07-30 06:26:36", "BASIN": "EP", "STMNR": 6, "CAT_ID": null, "CAT_DESC": null, "MSGID": "WTPZ21 KNHC 260846", "VALIDTIME": "2026-07-26 00:00:00" }, "geometry": { "type": "Point", "coordinates": [ -138.199997, 19.4 ] } },
{ "type": "Feature", "properties": { "ID": 44309, "LAT": 19.6, "LON": -139.2, "VMAX": 80.0, "MSLP": 974.0, "RMAX": 30.0, "FSPD": 6.37987, "FDIR": 279.2806, "RENV": 230.0, "PENV": 1011.0, "VALIDT": 0, "DTG": "2026-07-26 06:00", "LATNOW": 23.5, "LONNOW": -155.0, "WINDNOW": 30.0, "DIRNOW": 6.0, "SPDNOW": 3.0, "TECH": "TRAK", "ADVNR": 30, "ATCFID": "EP062026", "NAME": "FAUSTO", "FTECH": "OFCL", "FCST_DTG": "2026-07-29 12:00:00", "RUN_DTG": "2026-07-30 06:26:36", "BASIN": "EP", "STMNR": 6, "CAT_ID": null, "CAT_DESC": null, "MSGID": "WTPZ21 KNHC 260846", "VALIDTIME": "2026-07-26 06:00:00" }, "geometry": { "type": "Point", "coordinates": [ -139.199997, 19.6 ] } },
{ "type": "Feature", "properties": { "ID": 44310, "LAT": 19.8, "LON": -140.5, "VMAX": 75.0, "MSLP": 977.0, "RMAX": 25.0, "FSPD": 5.80836, "FDIR": 269.99997, "RENV": 230.0, "PENV": 1011.0, "VALIDT": 0, "DTG": "2026-07-26 12:00", "LATNOW": 23.5, "LONNOW": -155.0, "WINDNOW": 30.0, "DIRNOW": 6.0, "SPDNOW": 3.0, "TECH": "TRAK", "ADVNR": 30, "ATCFID": "EP062026", "NAME": "FAUSTO", "FTECH": "OFCL", "FCST_DTG": "2026-07-29 12:00:00", "RUN_DTG": "2026-07-30 06:26:36", "BASIN": "EP", "STMNR": 6, "CAT_ID": null, "CAT_DESC": null, "MSGID": "WTPZ21 KNHC 260846", "VALIDTIME": "2026-07-26 12:00:00" }, "geometry": { "type": "Point", "coordinates": [ -140.5, 19.799999 ] } },
{ "type": "Feature", "properties": { "ID": 44311, "LAT": 19.8, "LON": -141.7, "VMAX": 75.0, "MSLP": 982.0, "RMAX": 25.0, "FSPD": 6.37207, "FDIR": 279.29218, "RENV": 230.0, "PENV": 1011.0, "VALIDT": 0, "DTG": "2026-07-26 18:00", "LATNOW": 23.5, "LONNOW": -155.0, "WINDNOW": 30.0, "DIRNOW": 6.0, "SPDNOW": 3.0, "TECH": "TRAK", "ADVNR": 30, "ATCFID": "EP062026", "NAME": "FAUSTO", "FTECH": "OFCL", "FCST_DTG": "2026-07-29 12:00:00", "RUN_DTG": "2026-07-30 06:26:36", "BASIN": "EP", "STMNR": 6, "CAT_ID": null, "CAT_DESC": null, "MSGID": "WTPZ21 KNHC 260846", "VALIDTIME": "2026-07-26 18:00:00" }, "geometry": { "type": "Point", "coordinates": [ -141.699997, 19.799999 ] } },
{ "type": "Feature", "properties": { "ID": 44312, "LAT": 20.0, "LON": -143.0, "VMAX": 75.0, "MSLP": 984.0, "RMAX": 25.0, "FSPD": 5.88792, "FDIR": 280.06387, "RENV": 230.0, "PENV": 1011.0, "VALIDT": 0, "DTG": "2026-07-27 00:00", "LATNOW": 23.5, "LONNOW": -155.0, "WINDNOW": 30.0, "DIRNOW": 6.0, "SPDNOW": 3.0, "TECH": "TRAK", "ADVNR": 30, "ATCFID": "EP062026", "NAME": "FAUSTO", "FTECH": "OFCL", "FCST_DTG": "2026-07-29 12:00:00", "RUN_DTG": "2026-07-30 06:26:36", "BASIN": "EP", "STMNR": 6, "CAT_ID": null, "CAT_DESC": null, "MSGID": "WTPZ21 KNHC 260846", "VALIDTIME": "2026-07-27 00:00:00" }, "geometry": { "type": "Point", "coordinates": [ -143.0, 20.0 ] } },
{ "type": "Feature", "properties": { "ID": 44313, "LAT": 20.2, "LON": -144.2, "VMAX": 75.0, "MSLP": 984.0, "RMAX": 20.0, "FSPD": 6.45752, "FDIR": 283.82733, "RENV": 230.0, "PENV": 1011.0, "VALIDT": 0, "DTG": "2026-07-27 06:00", "LATNOW": 23.5, "LONNOW": -155.0, "WINDNOW": 30.0, "DIRNOW": 6.0, "SPDNOW": 3.0, "TECH": "TRAK", "ADVNR": 30, "ATCFID": "EP062026", "NAME": "FAUSTO", "FTECH": "OFCL", "FCST_DTG": "2026-07-29 12:00:00", "RUN_DTG": "2026-07-30 06:26:36", "BASIN": "EP", "STMNR": 6, "CAT_ID": null, "CAT_DESC": null, "MSGID": "WTPZ21 KNHC 260846", "VALIDTIME": "2026-07-27 06:00:00" }, "geometry": { "type": "Point", "coordinates": [ -144.199997, 20.200001 ] } },
{ "type": "Feature", "properties": { "ID": 44314, "LAT": 20.5, "LON": -145.5, "VMAX": 70.0, "MSLP": 986.0, "RMAX": 15.0, "FSPD": 6.97238, "FDIR": 296.27625, "RENV": 180.0, "PENV": 1010.0, "VALIDT": 0, "DTG": "2026-07-27 12:00", "LATNOW": 23.5, "LONNOW": -155.0, "WINDNOW": 30.0, "DIRNOW": 6.0, "SPDNOW": 3.0, "TECH": "TRAK", "ADVNR": 30, "ATCFID": "EP062026", "NAME": "FAUSTO", "FTECH": "OFCL", "FCST_DTG": "2026-07-29 12:00:00", "RUN_DTG": "2026-07-30 06:26:36", "BASIN": "EP", "STMNR": 6, "CAT_ID": null, "CAT_DESC": null, "MSGID": "WTPZ21 KNHC 260846", "VALIDTIME": "2026-07-27 12:00:00" }, "geometry": { "type": "Point", "coordinates": [ -145.5, 20.5 ] } },
{ "type": "Feature", "properties": { "ID": 44315, "LAT": 21.1, "LON": -146.8, "VMAX": 65.0, "MSLP": 994.0, "RMAX": 20.0, "FSPD": 7.47824, "FDIR": 285.97205, "RENV": 160.0, "PENV": 1010.0, "VALIDT": 0, "DTG": "2026-07-27 18:00", "LATNOW": 23.5, "LONNOW": -155.0, "WINDNOW": 30.0, "DIRNOW": 6.0, "SPDNOW": 3.0, "TECH": "TRAK", "ADVNR": 30, "ATCFID": "EP062026", "NAME": "FAUSTO", "FTECH": "OFCL", "FCST_DTG": "2026-07-29 12:00:00", "RUN_DTG": "2026-07-30 06:26:36", "BASIN": "EP", "STMNR": 6, "CAT_ID": null, "CAT_DESC": null, "MSGID": "WTPZ21 KNHC 260846", "VALIDTIME": "2026-07-27 18:00:00" }, "geometry": { "type": "Point", "coordinates": [ -146.800003, 21.1 ] } },
{ "type": "Feature", "properties": { "ID": 44316, "LAT": 21.5, "LON": -148.3, "VMAX": 60.0, "MSLP": 996.0, "RMAX": 30.0, "FSPD": 6.86972, "FDIR": 282.9827, "RENV": 120.0, "PENV": 1010.0, "VALIDT": 0, "DTG": "2026-07-28 00:00", "LATNOW": 23.5, "LONNOW": -155.0, "WINDNOW": 30.0, "DIRNOW": 6.0, "SPDNOW": 3.0, "TECH": "TRAK", "ADVNR": 30, "ATCFID": "EP062026", "NAME": "FAUSTO", "FTECH": "OFCL", "FCST_DTG": "2026-07-29 12:00:00", "RUN_DTG": "2026-07-30 06:26:36", "BASIN": "EP", "STMNR": 6, "CAT_ID": null, "CAT_DESC": null, "MSGID": "WTPZ21 KNHC 260846", "VALIDTIME": "2026-07-28 00:00:00" }, "geometry": { "type": "Point", "coordinates": [ -148.300003, 21.5 ] } },
{ "type": "Feature", "properties": { "ID": 44317, "LAT": 21.8, "LON": -149.7, "VMAX": 55.0, "MSLP": 999.0, "RMAX": 35.0, "FSPD": 6.68721, "FDIR": 269.99997, "RENV": 120.0, "PENV": 1011.0, "VALIDT": 0, "DTG": "2026-07-28 06:00", "LATNOW": 23.5, "LONNOW": -155.0, "WINDNOW": 30.0, "DIRNOW": 6.0, "SPDNOW": 3.0, "TECH": "TRAK", "ADVNR": 30, "ATCFID": "EP062026", "NAME": "FAUSTO", "FTECH": "OFCL", "FCST_DTG": "2026-07-29 12:00:00", "RUN_DTG": "2026-07-30 06:26:36", "BASIN": "EP", "STMNR": 6, "CAT_ID": null, "CAT_DESC": null, "MSGID": "WTPZ21 KNHC 260846", "VALIDTIME": "2026-07-28 06:00:00" }, "geometry": { "type": "Point", "coordinates": [ -149.699997, 21.799999 ] } },
{ "type": "Feature", "properties": { "ID": 44318, "LAT": 21.8, "LON": -151.1, "VMAX": 50.0, "MSLP": 1004.0, "RMAX": 60.0, "FSPD": 4.20788, "FDIR": 317.18445, "RENV": 120.0, "PENV": 1011.0, "VALIDT": 0, "DTG": "2026-07-28 12:00", "LATNOW": 23.5, "LONNOW": -155.0, "WINDNOW": 30.0, "DIRNOW": 6.0, "SPDNOW": 3.0, "TECH": "TRAK", "ADVNR": 30, "ATCFID": "EP062026", "NAME": "FAUSTO", "FTECH": "OFCL", "FCST_DTG": "2026-07-29 12:00:00", "RUN_DTG": "2026-07-30 06:26:36", "BASIN": "EP", "STMNR": 6, "CAT_ID": null, "CAT_DESC": null, "MSGID": "WTPZ21 KNHC 260846", "VALIDTIME": "2026-07-28 12:00:00" }, "geometry": { "type": "Point", "coordinates": [ -151.100006, 21.799999 ] } },
{ "type": "Feature", "properties": { "ID": 44319, "LAT": 22.4, "LON": -151.7, "VMAX": 45.0, "MSLP": 1005.0, "RMAX": 60.0, "FSPD": 6.25095, "FDIR": 294.29865, "RENV": 120.0, "PENV": 1011.0, "VALIDT": 0, "DTG": "2026-07-28 18:00", "LATNOW": 23.5, "LONNOW": -155.0, "WINDNOW": 30.0, "DIRNOW": 6.0, "SPDNOW": 3.0, "TECH": "TRAK", "ADVNR": 30, "ATCFID": "EP062026", "NAME": "FAUSTO", "FTECH": "OFCL", "FCST_DTG": "2026-07-29 12:00:00", "RUN_DTG": "2026-07-30 06:26:36", "BASIN": "EP", "STMNR": 6, "CAT_ID": null, "CAT_DESC": null, "MSGID": "WTPZ21 KNHC 260846", "VALIDTIME": "2026-07-28 18:00:00" }, "geometry": { "type": "Point", "coordinates": [ -151.699997, 22.4 ] } },
{ "type": "Feature", "properties": { "ID": 44320, "LAT": 22.9, "LON": -152.9, "VMAX": 35.0, "MSLP": 1007.0, "RMAX": 120.0, "FSPD": 4.97897, "FDIR": 288.05753, "RENV": 125.0, "PENV": 1011.0, "VALIDT": 0, "DTG": "2026-07-29 00:00", "LATNOW": 23.5, "LONNOW": -155.0, "WINDNOW": 30.0, "DIRNOW": 6.0, "SPDNOW": 3.0, "TECH": "TRAK", "ADVNR": 30, "ATCFID": "EP062026", "NAME": "FAUSTO", "FTECH": "OFCL", "FCST_DTG": "2026-07-29 12:00:00", "RUN_DTG": "2026-07-30 06:26:36", "BASIN": "EP", "STMNR": 6, "CAT_ID": null, "CAT_DESC": null, "MSGID": "WTPZ21 KNHC 260846", "VALIDTIME": "2026-07-29 00:00:00" }, "geometry": { "type": "Point", "coordinates": [ -152.899994, 22.9 ] } },
{ "type": "Feature", "properties": { "ID": 44321, "LAT": 23.2, "LON": -153.9, "VMAX": 35.0, "MSLP": 1007.0, "RMAX": 110.0, "FSPD": 5.41984, "FDIR": 286.5442, "RENV": 120.0, "PENV": 1012.0, "VALIDT": 0, "DTG": "2026-07-29 06:00", "LATNOW": 23.5, "LONNOW": -155.0, "WINDNOW": 30.0, "DIRNOW": 6.0, "SPDNOW": 3.0, "TECH": "TRAK", "ADVNR": 30, "ATCFID": "EP062026", "NAME": "FAUSTO", "FTECH": "OFCL", "FCST_DTG": "2026-07-29 12:00:00", "RUN_DTG": "2026-07-30 06:26:36", "BASIN": "EP", "STMNR": 6, "CAT_ID": null, "CAT_DESC": null, "MSGID": "WTPZ21 KNHC 260846", "VALIDTIME": "2026-07-29 06:00:00" }, "geometry": { "type": "Point", "coordinates": [ -153.899994, 23.200001 ] } },
{ "type": "Feature", "properties": { "ID": 44322, "LAT": 23.5, "LON": -155.0, "VMAX": 30.0, "MSLP": 1008.0, "RMAX": 110.0, "FSPD": 6.44248, "FDIR": 298.62732, "RENV": 120.0, "PENV": 1012.0, "VALIDT": 0, "DTG": "2026-07-29 12:00", "LATNOW": 23.5, "LONNOW": -155.0, "WINDNOW": 30.0, "DIRNOW": 6.0, "SPDNOW": 3.0, "TECH": "TRAK", "ADVNR": 30, "ATCFID": "EP062026", "NAME": "FAUSTO", "FTECH": "OFCL", "FCST_DTG": "2026-07-29 12:00:00", "RUN_DTG": "2026-07-30 06:26:36", "BASIN": "EP", "STMNR": 6, "CAT_ID": null, "CAT_DESC": null, "MSGID": "WTPZ21 KNHC 260846", "VALIDTIME": "2026-07-29 12:00:00" }, "geometry": { "type": "Point", "coordinates": [ -155.0, 23.5 ] } },
{ "type": "Feature", "properties": { "ID": 44323, "LAT": 23.8, "LON": -155.6, "VMAX": 30.0, "MSLP": 1008.0, "RMAX": 110.0, "FSPD": 5.73482, "FDIR": 280.33545, "RENV": 250.0, "PENV": 1012.0, "VALIDT": 3, "DTG": "2026-07-29 15:00", "LATNOW": 23.5, "LONNOW": -155.0, "WINDNOW": 30.0, "DIRNOW": 6.0, "SPDNOW": 3.0, "TECH": "FCST", "ADVNR": 30, "ATCFID": "EP062026", "NAME": "FAUSTO", "FTECH": "OFCL", "FCST_DTG": "2026-07-29 12:00:00", "RUN_DTG": "2026-07-30 06:26:36", "BASIN": "EP", "STMNR": 6, "CAT_ID": null, "CAT_DESC": null, "MSGID": "WTPZ21 KNHC 260846", "VALIDTIME": "2026-07-29 15:00:00" }, "geometry": { "type": "Point", "coordinates": [ -155.600006, 23.799999 ] } },
{ "type": "Feature", "properties": { "ID": 44324, "LAT": 24.1, "LON": -157.4, "VMAX": 25.0, "MSLP": 1011.80975, "RMAX": 117.56842, "FSPD": 6.22713, "FDIR": 281.91925, "RENV": 250.0, "PENV": 1012.0, "VALIDT": 12, "DTG": "2026-07-30 00:00", "LATNOW": 23.5, "LONNOW": -155.0, "WINDNOW": 30.0, "DIRNOW": 6.0, "SPDNOW": 3.0, "TECH": "FCST", "ADVNR": 30, "ATCFID": "EP062026", "NAME": "FAUSTO", "FTECH": "OFCL", "FCST_DTG": "2026-07-29 12:00:00", "RUN_DTG": "2026-07-30 06:26:36", "BASIN": "EP", "STMNR": 6, "CAT_ID": null, "CAT_DESC": null, "MSGID": "WTPZ21 KNHC 260846", "VALIDTIME": "2026-07-30 00:00:00" }, "geometry": { "type": "Point", "coordinates": [ -157.399994, 24.1 ] } },
{ "type": "Feature", "properties": { "ID": 44325, "LAT": 24.6, "LON": -160.0, "VMAX": 25.0, "MSLP": 1011.80975, "RMAX": 117.56842, "FSPD": 6.10212, "FDIR": 287.16168, "RENV": 250.0, "PENV": 1012.0, "VALIDT": 24, "DTG": "2026-07-30 12:00", "LATNOW": 23.5, "LONNOW": -155.0, "WINDNOW": 30.0, "DIRNOW": 6.0, "SPDNOW": 3.0, "TECH": "FCST", "ADVNR": 30, "ATCFID": "EP062026", "NAME": "FAUSTO", "FTECH": "OFCL", "FCST_DTG": "2026-07-29 12:00:00", "RUN_DTG": "2026-07-30 06:26:36", "BASIN": "EP", "STMNR": 6, "CAT_ID": null, "CAT_DESC": null, "MSGID": "WTPZ21 KNHC 260846", "VALIDTIME": "2026-07-30 12:00:00" }, "geometry": { "type": "Point", "coordinates": [ -160.0, 24.6 ] } },
{ "type": "Feature", "properties": { "ID": 44326, "LAT": 25.3, "LON": -162.5, "VMAX": 20.0, "MSLP": 1012.95825, "RMAX": 117.56842, "FSPD": 6.10212, "FDIR": 287.16168, "RENV": 250.0, "PENV": 1012.0, "VALIDT": 36, "DTG": "2026-07-31 00:00", "LATNOW": 23.5, "LONNOW": -155.0, "WINDNOW": 30.0, "DIRNOW": 6.0, "SPDNOW": 3.0, "TECH": "FCST", "ADVNR": 30, "ATCFID": "EP062026", "NAME": "FAUSTO", "FTECH": "OFCL", "FCST_DTG": "2026-07-29 12:00:00", "RUN_DTG": "2026-07-30 06:26:36", "BASIN": "EP", "STMNR": 6, "CAT_ID": null, "CAT_DESC": null, "MSGID": "WTPZ21 KNHC 260846", "VALIDTIME": "2026-07-31 00:00:00" }, "geometry": { "type": "Point", "coordinates": [ -162.5, 25.299999 ] } },
{ "type": "Feature", "properties": { "ID": 44322, "LAT": 23.5, "LON": -155.0, "VMAX": 30.0, "MSLP": 1008.0, "RMAX": 110.0, "FSPD": 6.44248, "FDIR": 298.62732, "RENV": 120.0, "PENV": 1012.0, "VALIDT": 0, "DTG": "2026-07-29 12:00", "LATNOW": 23.5, "LONNOW": -155.0, "WINDNOW": 30.0, "DIRNOW": 6.0, "SPDNOW": 3.0, "TECH": "TRAK", "ADVNR": 30, "ATCFID": "EP062026", "NAME": "FAUSTO", "FTECH": "OFCL", "FCST_DTG": "2026-07-29 12:00:00", "RUN_DTG": "2026-07-30 06:26:36", "BASIN": "EP", "STMNR": 6, "CAT_ID": null, "CAT_DESC": null, "MSGID": "WTPZ21 KNHC 260846", "VALIDTIME": "2026-07-29 12:00:00" }, "geometry": { "type": "LineString", "coordinates": [ [ -105.2, 10.7 ], [ -106.2, 10.9 ], [ -105.0, 10.0 ], [ -105.6, 10.3 ], [ -106.6, 10.4 ], [ -107.2, 10.7 ], [ -108.4, 11.1 ], [ -110.0, 11.9 ], [ -111.2, 12.2 ], [ -112.2, 12.3 ], [ -114.3, 12.3 ], [ -115.2, 12.7 ], [ -116.0, 13.2 ], [ -116.6, 14.0 ], [ -117.0, 14.4 ], [ -117.6, 15.1 ], [ -118.4, 16.0 ], [ -119.5, 16.5 ], [ -120.0, 16.5 ], [ -120.4, 16.6 ], [ -121.0, 16.9 ], [ -121.5, 17.1 ], [ -122.4, 17.4 ], [ -123.5, 17.7 ], [ -124.8, 17.8 ], [ -126.2, 18.1 ], [ -127.7, 18.2 ], [ -129.2, 18.5 ], [ -130.6, 18.5 ], [ -132.0, 18.6 ], [ -133.3, 18.6 ], [ -134.5, 18.7 ], [ -135.9, 19.0 ], [ -137.0, 19.2 ], [ -138.2, 19.4 ], [ -139.2, 19.6 ], [ -140.5, 19.8 ], [ -141.7, 19.8 ], [ -143.0, 20.0 ], [ -144.2, 20.2 ], [ -145.5, 20.5 ], [ -146.8, 21.1 ], [ -148.3, 21.5 ], [ -149.7, 21.8 ], [ -151.1, 21.8 ], [ -151.7, 22.4 ], [ -152.9, 22.9 ], [ -153.9, 23.2 ], [ -155.0, 23.5 ] ] } },
{ "type": "Feature", "properties": { "ID": 44326, "LAT": 25.3, "LON": -162.5, "VMAX": 20.0, "MSLP": 1012.95825, "RMAX": 117.56842, "FSPD": 6.10212, "FDIR": 287.16168, "RENV": 250.0, "PENV": 1012.0, "VALIDT": 36, "DTG": "2026-07-31 00:00", "LATNOW": 23.5, "LONNOW": -155.0, "WINDNOW": 30.0, "DIRNOW": 6.0, "SPDNOW": 3.0, "TECH": "FCST", "ADVNR": 30, "ATCFID": "EP062026", "NAME": "FAUSTO", "FTECH": "OFCL", "FCST_DTG": "2026-07-29 12:00:00", "RUN_DTG": "2026-07-30 06:26:36", "BASIN": "EP", "STMNR": 6, "CAT_ID": null, "CAT_DESC": null, "MSGID": "WTPZ21 KNHC 260846", "VALIDTIME": "2026-07-31 00:00:00" }, "geometry": { "type": "LineString", "coordinates": [ [ -155.0, 23.5 ], [ -155.6, 23.8 ], [ -157.4, 24.1 ], [ -160.0, 24.6 ], [ -162.5, 25.3 ] ] } }
]
}
