{
"type": "FeatureCollection",
"crs": { "type": "name", "properties": { "name": "urn:ogc:def:crs:OGC:1.3:CRS84" } },
"features": [
{ "type": "Feature", "properties": { "ID": 312371, "LAT": -7.7, "LON": 87.8, "VMAX": 20.0, "MSLP": 1012.95825, "RMAX": 45.0, "FSPD": 2.56345, "FDIR": 143.39243, "RENV": 500.0, "PENV": 1012.0, "VALIDT": 0, "DTG": "2025-03-06 12:00", "LATNOW": -24.5, "LONNOW": 65.4, "WINDNOW": 35.0, "DIRNOW": 7.0, "SPDNOW": 5.0, "TECH": "TRAK", "ADVNR": 13, "ATCFID": "SH242025", "NAME": "IVONE", "FTECH": "JTWC", "FCST_DTG": "2025-03-14 06:00:00", "RUN_DTG": "2025-03-14 20:17:55", "BASIN": "SH", "STMNR": 24, "CAT_ID": null, "CAT_DESC": null, "MSGID": "WTXS51 PGTW 140900", "VALIDTIME": "2025-03-06 12:00:00" }, "geometry": { "type": "Point", "coordinates": [ 87.800003, -7.7 ] } },
{ "type": "Feature", "properties": { "ID": 312372, "LAT": -8.1, "LON": 88.1, "VMAX": 20.0, "MSLP": 1012.95825, "RMAX": 45.0, "FSPD": 2.1198, "FDIR": 166.1052, "RENV": 500.0, "PENV": 1012.0, "VALIDT": 0, "DTG": "2025-03-06 18:00", "LATNOW": -24.5, "LONNOW": 65.4, "WINDNOW": 35.0, "DIRNOW": 7.0, "SPDNOW": 5.0, "TECH": "TRAK", "ADVNR": 13, "ATCFID": "SH242025", "NAME": "IVONE", "FTECH": "JTWC", "FCST_DTG": "2025-03-14 06:00:00", "RUN_DTG": "2025-03-14 20:17:55", "BASIN": "SH", "STMNR": 24, "CAT_ID": null, "CAT_DESC": null, "MSGID": "WTXS51 PGTW 140900", "VALIDTIME": "2025-03-06 18:00:00" }, "geometry": { "type": "Point", "coordinates": [ 88.099998, -8.1 ] } },
{ "type": "Feature", "properties": { "ID": 312373, "LAT": -8.5, "LON": 88.2, "VMAX": 20.0, "MSLP": 1012.95825, "RMAX": 45.0, "FSPD": 5.74939, "FDIR": 190.17908, "RENV": 500.0, "PENV": 1012.0, "VALIDT": 0, "DTG": "2025-03-07 00:00", "LATNOW": -24.5, "LONNOW": 65.4, "WINDNOW": 35.0, "DIRNOW": 7.0, "SPDNOW": 5.0, "TECH": "TRAK", "ADVNR": 13, "ATCFID": "SH242025", "NAME": "IVONE", "FTECH": "JTWC", "FCST_DTG": "2025-03-14 06:00:00", "RUN_DTG": "2025-03-14 20:17:55", "BASIN": "SH", "STMNR": 24, "CAT_ID": null, "CAT_DESC": null, "MSGID": "WTXS51 PGTW 140900", "VALIDTIME": "2025-03-07 00:00:00" }, "geometry": { "type": "Point", "coordinates": [ 88.199997, -8.5 ] } },
{ "type": "Feature", "properties": { "ID": 312374, "LAT": -9.6, "LON": 88.0, "VMAX": 20.0, "MSLP": 1012.95825, "RMAX": 45.0, "FSPD": 5.50734, "FDIR": 235.91211, "RENV": 500.0, "PENV": 1012.0, "VALIDT": 0, "DTG": "2025-03-07 06:00", "LATNOW": -24.5, "LONNOW": 65.4, "WINDNOW": 35.0, "DIRNOW": 7.0, "SPDNOW": 5.0, "TECH": "TRAK", "ADVNR": 13, "ATCFID": "SH242025", "NAME": "IVONE", "FTECH": "JTWC", "FCST_DTG": "2025-03-14 06:00:00", "RUN_DTG": "2025-03-14 20:17:55", "BASIN": "SH", "STMNR": 24, "CAT_ID": null, "CAT_DESC": null, "MSGID": "WTXS51 PGTW 140900", "VALIDTIME": "2025-03-07 06:00:00" }, "geometry": { "type": "Point", "coordinates": [ 88.0, -9.6 ] } },
{ "type": "Feature", "properties": { "ID": 312375, "LAT": -10.2, "LON": 87.1, "VMAX": 20.0, "MSLP": 1012.95825, "RMAX": 45.0, "FSPD": 5.77678, "FDIR": 254.50453, "RENV": 500.0, "PENV": 1012.0, "VALIDT": 0, "DTG": "2025-03-07 12:00", "LATNOW": -24.5, "LONNOW": 65.4, "WINDNOW": 35.0, "DIRNOW": 7.0, "SPDNOW": 5.0, "TECH": "TRAK", "ADVNR": 13, "ATCFID": "SH242025", "NAME": "IVONE", "FTECH": "JTWC", "FCST_DTG": "2025-03-14 06:00:00", "RUN_DTG": "2025-03-14 20:17:55", "BASIN": "SH", "STMNR": 24, "CAT_ID": null, "CAT_DESC": null, "MSGID": "WTXS51 PGTW 140900", "VALIDTIME": "2025-03-07 12:00:00" }, "geometry": { "type": "Point", "coordinates": [ 87.099998, -10.2 ] } },
{ "type": "Feature", "properties": { "ID": 312376, "LAT": -10.5, "LON": 86.0, "VMAX": 30.0, "MSLP": 1010.40607, "RMAX": 44.21983, "FSPD": 5.08633, "FDIR": 232.63744, "RENV": 500.0, "PENV": 1012.0, "VALIDT": 0, "DTG": "2025-03-07 18:00", "LATNOW": -24.5, "LONNOW": 65.4, "WINDNOW": 35.0, "DIRNOW": 7.0, "SPDNOW": 5.0, "TECH": "TRAK", "ADVNR": 13, "ATCFID": "SH242025", "NAME": "IVONE", "FTECH": "JTWC", "FCST_DTG": "2025-03-14 06:00:00", "RUN_DTG": "2025-03-14 20:17:55", "BASIN": "SH", "STMNR": 24, "CAT_ID": null, "CAT_DESC": null, "MSGID": "WTXS51 PGTW 140900", "VALIDTIME": "2025-03-07 18:00:00" }, "geometry": { "type": "Point", "coordinates": [ 86.0, -10.5 ] } },
{ "type": "Feature", "properties": { "ID": 312377, "LAT": -11.1, "LON": 85.2, "VMAX": 30.0, "MSLP": 1010.40607, "RMAX": 44.21983, "FSPD": 4.82609, "FDIR": 211.4855, "RENV": 500.0, "PENV": 1012.0, "VALIDT": 0, "DTG": "2025-03-08 00:00", "LATNOW": -24.5, "LONNOW": 65.4, "WINDNOW": 35.0, "DIRNOW": 7.0, "SPDNOW": 5.0, "TECH": "TRAK", "ADVNR": 13, "ATCFID": "SH242025", "NAME": "IVONE", "FTECH": "JTWC", "FCST_DTG": "2025-03-14 06:00:00", "RUN_DTG": "2025-03-14 20:17:55", "BASIN": "SH", "STMNR": 24, "CAT_ID": null, "CAT_DESC": null, "MSGID": "WTXS51 PGTW 140900", "VALIDTIME": "2025-03-08 00:00:00" }, "geometry": { "type": "Point", "coordinates": [ 85.199997, -11.1 ] } },
{ "type": "Feature", "properties": { "ID": 312378, "LAT": -11.9, "LON": 84.7, "VMAX": 35.0, "MSLP": 998.0, "RMAX": 100.0, "FSPD": 1.14535, "FDIR": 206.06157, "RENV": 310.0, "PENV": 1006.0, "VALIDT": 0, "DTG": "2025-03-08 06:00", "LATNOW": -24.5, "LONNOW": 65.4, "WINDNOW": 35.0, "DIRNOW": 7.0, "SPDNOW": 5.0, "TECH": "TRAK", "ADVNR": 13, "ATCFID": "SH242025", "NAME": "IVONE", "FTECH": "JTWC", "FCST_DTG": "2025-03-14 06:00:00", "RUN_DTG": "2025-03-14 20:17:55", "BASIN": "SH", "STMNR": 24, "CAT_ID": null, "CAT_DESC": null, "MSGID": "WTXS51 PGTW 140900", "VALIDTIME": "2025-03-08 06:00:00" }, "geometry": { "type": "Point", "coordinates": [ 84.699997, -11.9 ] } },
{ "type": "Feature", "properties": { "ID": 312379, "LAT": -12.1, "LON": 84.6, "VMAX": 35.0, "MSLP": 998.0, "RMAX": 100.0, "FSPD": 6.23026, "FDIR": 214.33846, "RENV": 310.0, "PENV": 1006.0, "VALIDT": 0, "DTG": "2025-03-08 12:00", "LATNOW": -24.5, "LONNOW": 65.4, "WINDNOW": 35.0, "DIRNOW": 7.0, "SPDNOW": 5.0, "TECH": "TRAK", "ADVNR": 13, "ATCFID": "SH242025", "NAME": "IVONE", "FTECH": "JTWC", "FCST_DTG": "2025-03-14 06:00:00", "RUN_DTG": "2025-03-14 20:17:55", "BASIN": "SH", "STMNR": 24, "CAT_ID": null, "CAT_DESC": null, "MSGID": "WTXS51 PGTW 140900", "VALIDTIME": "2025-03-08 12:00:00" }, "geometry": { "type": "Point", "coordinates": [ 84.599998, -12.1 ] } },
{ "type": "Feature", "properties": { "ID": 312380, "LAT": -13.1, "LON": 83.9, "VMAX": 40.0, "MSLP": 996.0, "RMAX": 100.0, "FSPD": 3.25961, "FDIR": 217.89662, "RENV": 310.0, "PENV": 1006.0, "VALIDT": 0, "DTG": "2025-03-08 18:00", "LATNOW": -24.5, "LONNOW": 65.4, "WINDNOW": 35.0, "DIRNOW": 7.0, "SPDNOW": 5.0, "TECH": "TRAK", "ADVNR": 13, "ATCFID": "SH242025", "NAME": "IVONE", "FTECH": "JTWC", "FCST_DTG": "2025-03-14 06:00:00", "RUN_DTG": "2025-03-14 20:17:55", "BASIN": "SH", "STMNR": 24, "CAT_ID": null, "CAT_DESC": null, "MSGID": "WTXS51 PGTW 140900", "VALIDTIME": "2025-03-08 18:00:00" }, "geometry": { "type": "Point", "coordinates": [ 83.900002, -13.1 ] } },
{ "type": "Feature", "properties": { "ID": 312381, "LAT": -13.6, "LON": 83.5, "VMAX": 40.0, "MSLP": 996.0, "RMAX": 80.0, "FSPD": 8.75725, "FDIR": 160.03802, "RENV": 350.0, "PENV": 1008.0, "VALIDT": 0, "DTG": "2025-03-09 00:00", "LATNOW": -24.5, "LONNOW": 65.4, "WINDNOW": 35.0, "DIRNOW": 7.0, "SPDNOW": 5.0, "TECH": "TRAK", "ADVNR": 13, "ATCFID": "SH242025", "NAME": "IVONE", "FTECH": "JTWC", "FCST_DTG": "2025-03-14 06:00:00", "RUN_DTG": "2025-03-14 20:17:55", "BASIN": "SH", "STMNR": 24, "CAT_ID": null, "CAT_DESC": null, "MSGID": "WTXS51 PGTW 140900", "VALIDTIME": "2025-03-09 00:00:00" }, "geometry": { "type": "Point", "coordinates": [ 83.5, -13.6 ] } },
{ "type": "Feature", "properties": { "ID": 312382, "LAT": -15.2, "LON": 84.1, "VMAX": 45.0, "MSLP": 996.0, "RMAX": 70.0, "FSPD": 4.23318, "FDIR": 193.53833, "RENV": 280.0, "PENV": 1004.0, "VALIDT": 0, "DTG": "2025-03-09 06:00", "LATNOW": -24.5, "LONNOW": 65.4, "WINDNOW": 35.0, "DIRNOW": 7.0, "SPDNOW": 5.0, "TECH": "TRAK", "ADVNR": 13, "ATCFID": "SH242025", "NAME": "IVONE", "FTECH": "JTWC", "FCST_DTG": "2025-03-14 06:00:00", "RUN_DTG": "2025-03-14 20:17:55", "BASIN": "SH", "STMNR": 24, "CAT_ID": null, "CAT_DESC": null, "MSGID": "WTXS51 PGTW 140900", "VALIDTIME": "2025-03-09 06:00:00" }, "geometry": { "type": "Point", "coordinates": [ 84.099998, -15.2 ] } },
{ "type": "Feature", "properties": { "ID": 312383, "LAT": -16.0, "LON": 83.9, "VMAX": 45.0, "MSLP": 993.0, "RMAX": 65.0, "FSPD": 8.21043, "FDIR": 208.69316, "RENV": 280.0, "PENV": 1006.0, "VALIDT": 0, "DTG": "2025-03-09 12:00", "LATNOW": -24.5, "LONNOW": 65.4, "WINDNOW": 35.0, "DIRNOW": 7.0, "SPDNOW": 5.0, "TECH": "TRAK", "ADVNR": 13, "ATCFID": "SH242025", "NAME": "IVONE", "FTECH": "JTWC", "FCST_DTG": "2025-03-14 06:00:00", "RUN_DTG": "2025-03-14 20:17:55", "BASIN": "SH", "STMNR": 24, "CAT_ID": null, "CAT_DESC": null, "MSGID": "WTXS51 PGTW 140900", "VALIDTIME": "2025-03-09 12:00:00" }, "geometry": { "type": "Point", "coordinates": [ 83.900002, -16.0 ] } },
{ "type": "Feature", "properties": { "ID": 312384, "LAT": -17.4, "LON": 83.1, "VMAX": 50.0, "MSLP": 993.0, "RMAX": 65.0, "FSPD": 3.23443, "FDIR": 217.31985, "RENV": 280.0, "PENV": 1006.0, "VALIDT": 0, "DTG": "2025-03-09 18:00", "LATNOW": -24.5, "LONNOW": 65.4, "WINDNOW": 35.0, "DIRNOW": 7.0, "SPDNOW": 5.0, "TECH": "TRAK", "ADVNR": 13, "ATCFID": "SH242025", "NAME": "IVONE", "FTECH": "JTWC", "FCST_DTG": "2025-03-14 06:00:00", "RUN_DTG": "2025-03-14 20:17:55", "BASIN": "SH", "STMNR": 24, "CAT_ID": null, "CAT_DESC": null, "MSGID": "WTXS51 PGTW 140900", "VALIDTIME": "2025-03-09 18:00:00" }, "geometry": { "type": "Point", "coordinates": [ 83.099998, -17.4 ] } },
{ "type": "Feature", "properties": { "ID": 312385, "LAT": -17.9, "LON": 82.7, "VMAX": 50.0, "MSLP": 993.0, "RMAX": 60.0, "FSPD": 7.11851, "FDIR": 200.0335, "RENV": 290.0, "PENV": 1008.0, "VALIDT": 0, "DTG": "2025-03-10 00:00", "LATNOW": -24.5, "LONNOW": 65.4, "WINDNOW": 35.0, "DIRNOW": 7.0, "SPDNOW": 5.0, "TECH": "TRAK", "ADVNR": 13, "ATCFID": "SH242025", "NAME": "IVONE", "FTECH": "JTWC", "FCST_DTG": "2025-03-14 06:00:00", "RUN_DTG": "2025-03-14 20:17:55", "BASIN": "SH", "STMNR": 24, "CAT_ID": null, "CAT_DESC": null, "MSGID": "WTXS51 PGTW 140900", "VALIDTIME": "2025-03-10 00:00:00" }, "geometry": { "type": "Point", "coordinates": [ 82.699997, -17.9 ] } },
{ "type": "Feature", "properties": { "ID": 312386, "LAT": -19.2, "LON": 82.2, "VMAX": 45.0, "MSLP": 991.0, "RMAX": 60.0, "FSPD": 5.03916, "FDIR": 215.24277, "RENV": 270.0, "PENV": 1007.0, "VALIDT": 0, "DTG": "2025-03-10 06:00", "LATNOW": -24.5, "LONNOW": 65.4, "WINDNOW": 35.0, "DIRNOW": 7.0, "SPDNOW": 5.0, "TECH": "TRAK", "ADVNR": 13, "ATCFID": "SH242025", "NAME": "IVONE", "FTECH": "JTWC", "FCST_DTG": "2025-03-14 06:00:00", "RUN_DTG": "2025-03-14 20:17:55", "BASIN": "SH", "STMNR": 24, "CAT_ID": null, "CAT_DESC": null, "MSGID": "WTXS51 PGTW 140900", "VALIDTIME": "2025-03-10 06:00:00" }, "geometry": { "type": "Point", "coordinates": [ 82.199997, -19.200001 ] } },
{ "type": "Feature", "properties": { "ID": 312387, "LAT": -20.0, "LON": 81.6, "VMAX": 45.0, "MSLP": 993.0, "RMAX": 60.0, "FSPD": 3.07585, "FDIR": 250.45743, "RENV": 270.0, "PENV": 1007.0, "VALIDT": 0, "DTG": "2025-03-10 12:00", "LATNOW": -24.5, "LONNOW": 65.4, "WINDNOW": 35.0, "DIRNOW": 7.0, "SPDNOW": 5.0, "TECH": "TRAK", "ADVNR": 13, "ATCFID": "SH242025", "NAME": "IVONE", "FTECH": "JTWC", "FCST_DTG": "2025-03-14 06:00:00", "RUN_DTG": "2025-03-14 20:17:55", "BASIN": "SH", "STMNR": 24, "CAT_ID": null, "CAT_DESC": null, "MSGID": "WTXS51 PGTW 140900", "VALIDTIME": "2025-03-10 12:00:00" }, "geometry": { "type": "Point", "coordinates": [ 81.599998, -20.0 ] } },
{ "type": "Feature", "properties": { "ID": 312388, "LAT": -20.2, "LON": 81.0, "VMAX": 45.0, "MSLP": 989.0, "RMAX": 60.0, "FSPD": 5.31082, "FDIR": 269.99997, "RENV": 270.0, "PENV": 1007.0, "VALIDT": 0, "DTG": "2025-03-10 18:00", "LATNOW": -24.5, "LONNOW": 65.4, "WINDNOW": 35.0, "DIRNOW": 7.0, "SPDNOW": 5.0, "TECH": "TRAK", "ADVNR": 13, "ATCFID": "SH242025", "NAME": "IVONE", "FTECH": "JTWC", "FCST_DTG": "2025-03-14 06:00:00", "RUN_DTG": "2025-03-14 20:17:55", "BASIN": "SH", "STMNR": 24, "CAT_ID": null, "CAT_DESC": null, "MSGID": "WTXS51 PGTW 140900", "VALIDTIME": "2025-03-10 18:00:00" }, "geometry": { "type": "Point", "coordinates": [ 81.0, -20.200001 ] } },
{ "type": "Feature", "properties": { "ID": 312389, "LAT": -20.2, "LON": 79.9, "VMAX": 45.0, "MSLP": 996.0, "RMAX": 65.0, "FSPD": 3.89531, "FDIR": 262.411, "RENV": 270.0, "PENV": 1010.0, "VALIDT": 0, "DTG": "2025-03-11 00:00", "LATNOW": -24.5, "LONNOW": 65.4, "WINDNOW": 35.0, "DIRNOW": 7.0, "SPDNOW": 5.0, "TECH": "TRAK", "ADVNR": 13, "ATCFID": "SH242025", "NAME": "IVONE", "FTECH": "JTWC", "FCST_DTG": "2025-03-14 06:00:00", "RUN_DTG": "2025-03-14 20:17:55", "BASIN": "SH", "STMNR": 24, "CAT_ID": null, "CAT_DESC": null, "MSGID": "WTXS51 PGTW 140900", "VALIDTIME": "2025-03-11 00:00:00" }, "geometry": { "type": "Point", "coordinates": [ 79.900002, -20.200001 ] } },
{ "type": "Feature", "properties": { "ID": 312390, "LAT": -20.3, "LON": 79.1, "VMAX": 45.0, "MSLP": 998.0, "RMAX": 80.0, "FSPD": 5.07017, "FDIR": 287.72168, "RENV": 240.0, "PENV": 1008.0, "VALIDT": 0, "DTG": "2025-03-11 06:00", "LATNOW": -24.5, "LONNOW": 65.4, "WINDNOW": 35.0, "DIRNOW": 7.0, "SPDNOW": 5.0, "TECH": "TRAK", "ADVNR": 13, "ATCFID": "SH242025", "NAME": "IVONE", "FTECH": "JTWC", "FCST_DTG": "2025-03-14 06:00:00", "RUN_DTG": "2025-03-14 20:17:55", "BASIN": "SH", "STMNR": 24, "CAT_ID": null, "CAT_DESC": null, "MSGID": "WTXS51 PGTW 140900", "VALIDTIME": "2025-03-11 06:00:00" }, "geometry": { "type": "Point", "coordinates": [ 79.099998, -20.299999 ] } },
{ "type": "Feature", "properties": { "ID": 312391, "LAT": -20.0, "LON": 78.1, "VMAX": 45.0, "MSLP": 1004.66364, "RMAX": 39.89946, "FSPD": 5.41954, "FDIR": 280.94394, "RENV": 500.0, "PENV": 1012.0, "VALIDT": 0, "DTG": "2025-03-11 12:00", "LATNOW": -24.5, "LONNOW": 65.4, "WINDNOW": 35.0, "DIRNOW": 7.0, "SPDNOW": 5.0, "TECH": "TRAK", "ADVNR": 13, "ATCFID": "SH242025", "NAME": "IVONE", "FTECH": "JTWC", "FCST_DTG": "2025-03-14 06:00:00", "RUN_DTG": "2025-03-14 20:17:55", "BASIN": "SH", "STMNR": 24, "CAT_ID": null, "CAT_DESC": null, "MSGID": "WTXS51 PGTW 140900", "VALIDTIME": "2025-03-11 12:00:00" }, "geometry": { "type": "Point", "coordinates": [ 78.099998, -20.0 ] } },
{ "type": "Feature", "properties": { "ID": 312392, "LAT": -19.8, "LON": 77.0, "VMAX": 45.0, "MSLP": 996.0, "RMAX": 65.0, "FSPD": 7.28094, "FDIR": 274.0516, "RENV": 270.0, "PENV": 1010.0, "VALIDT": 0, "DTG": "2025-03-11 18:00", "LATNOW": -24.5, "LONNOW": 65.4, "WINDNOW": 35.0, "DIRNOW": 7.0, "SPDNOW": 5.0, "TECH": "TRAK", "ADVNR": 13, "ATCFID": "SH242025", "NAME": "IVONE", "FTECH": "JTWC", "FCST_DTG": "2025-03-14 06:00:00", "RUN_DTG": "2025-03-14 20:17:55", "BASIN": "SH", "STMNR": 24, "CAT_ID": null, "CAT_DESC": null, "MSGID": "WTXS51 PGTW 140900", "VALIDTIME": "2025-03-11 18:00:00" }, "geometry": { "type": "Point", "coordinates": [ 77.0, -19.799999 ] } },
{ "type": "Feature", "properties": { "ID": 312393, "LAT": -19.7, "LON": 75.5, "VMAX": 40.0, "MSLP": 990.0, "RMAX": 105.0, "FSPD": 5.90593, "FDIR": 280.03287, "RENV": 250.0, "PENV": 1008.0, "VALIDT": 0, "DTG": "2025-03-12 00:00", "LATNOW": -24.5, "LONNOW": 65.4, "WINDNOW": 35.0, "DIRNOW": 7.0, "SPDNOW": 5.0, "TECH": "TRAK", "ADVNR": 13, "ATCFID": "SH242025", "NAME": "IVONE", "FTECH": "JTWC", "FCST_DTG": "2025-03-14 06:00:00", "RUN_DTG": "2025-03-14 20:17:55", "BASIN": "SH", "STMNR": 24, "CAT_ID": null, "CAT_DESC": null, "MSGID": "WTXS51 PGTW 140900", "VALIDTIME": "2025-03-12 00:00:00" }, "geometry": { "type": "Point", "coordinates": [ 75.5, -19.700001 ] } },
{ "type": "Feature", "properties": { "ID": 312394, "LAT": -19.5, "LON": 74.3, "VMAX": 40.0, "MSLP": 997.0, "RMAX": 105.0, "FSPD": 6.86248, "FDIR": 261.37708, "RENV": 260.0, "PENV": 1009.0, "VALIDT": 0, "DTG": "2025-03-12 06:00", "LATNOW": -24.5, "LONNOW": 65.4, "WINDNOW": 35.0, "DIRNOW": 7.0, "SPDNOW": 5.0, "TECH": "TRAK", "ADVNR": 13, "ATCFID": "SH242025", "NAME": "IVONE", "FTECH": "JTWC", "FCST_DTG": "2025-03-14 06:00:00", "RUN_DTG": "2025-03-14 20:17:55", "BASIN": "SH", "STMNR": 24, "CAT_ID": null, "CAT_DESC": null, "MSGID": "WTXS51 PGTW 140900", "VALIDTIME": "2025-03-12 06:00:00" }, "geometry": { "type": "Point", "coordinates": [ 74.300003, -19.5 ] } },
{ "type": "Feature", "properties": { "ID": 312395, "LAT": -19.7, "LON": 72.9, "VMAX": 35.0, "MSLP": 997.0, "RMAX": 130.0, "FSPD": 9.54116, "FDIR": 254.35997, "RENV": 275.0, "PENV": 1009.0, "VALIDT": 0, "DTG": "2025-03-12 12:00", "LATNOW": -24.5, "LONNOW": 65.4, "WINDNOW": 35.0, "DIRNOW": 7.0, "SPDNOW": 5.0, "TECH": "TRAK", "ADVNR": 13, "ATCFID": "SH242025", "NAME": "IVONE", "FTECH": "JTWC", "FCST_DTG": "2025-03-14 06:00:00", "RUN_DTG": "2025-03-14 20:17:55", "BASIN": "SH", "STMNR": 24, "CAT_ID": null, "CAT_DESC": null, "MSGID": "WTXS51 PGTW 140900", "VALIDTIME": "2025-03-12 12:00:00" }, "geometry": { "type": "Point", "coordinates": [ 72.900002, -19.700001 ] } },
{ "type": "Feature", "properties": { "ID": 312396, "LAT": -20.2, "LON": 71.0, "VMAX": 35.0, "MSLP": 999.0, "RMAX": 130.0, "FSPD": 7.4274, "FDIR": 220.36864, "RENV": 275.0, "PENV": 1007.0, "VALIDT": 0, "DTG": "2025-03-12 18:00", "LATNOW": -24.5, "LONNOW": 65.4, "WINDNOW": 35.0, "DIRNOW": 7.0, "SPDNOW": 5.0, "TECH": "TRAK", "ADVNR": 13, "ATCFID": "SH242025", "NAME": "IVONE", "FTECH": "JTWC", "FCST_DTG": "2025-03-14 06:00:00", "RUN_DTG": "2025-03-14 20:17:55", "BASIN": "SH", "STMNR": 24, "CAT_ID": null, "CAT_DESC": null, "MSGID": "WTXS51 PGTW 140900", "VALIDTIME": "2025-03-12 18:00:00" }, "geometry": { "type": "Point", "coordinates": [ 71.0, -20.200001 ] } },
{ "type": "Feature", "properties": { "ID": 312397, "LAT": -21.3, "LON": 70.0, "VMAX": 35.0, "MSLP": 998.0, "RMAX": 100.0, "FSPD": 8.07629, "FDIR": 251.4283, "RENV": 285.0, "PENV": 1007.0, "VALIDT": 0, "DTG": "2025-03-13 00:00", "LATNOW": -24.5, "LONNOW": 65.4, "WINDNOW": 35.0, "DIRNOW": 7.0, "SPDNOW": 5.0, "TECH": "TRAK", "ADVNR": 13, "ATCFID": "SH242025", "NAME": "IVONE", "FTECH": "JTWC", "FCST_DTG": "2025-03-14 06:00:00", "RUN_DTG": "2025-03-14 20:17:55", "BASIN": "SH", "STMNR": 24, "CAT_ID": null, "CAT_DESC": null, "MSGID": "WTXS51 PGTW 140900", "VALIDTIME": "2025-03-13 00:00:00" }, "geometry": { "type": "Point", "coordinates": [ 70.0, -21.299999 ] } },
{ "type": "Feature", "properties": { "ID": 312398, "LAT": -21.8, "LON": 68.4, "VMAX": 35.0, "MSLP": 996.0, "RMAX": 100.0, "FSPD": 6.13862, "FDIR": 202.80179, "RENV": 255.0, "PENV": 1007.0, "VALIDT": 0, "DTG": "2025-03-13 06:00", "LATNOW": -24.5, "LONNOW": 65.4, "WINDNOW": 35.0, "DIRNOW": 7.0, "SPDNOW": 5.0, "TECH": "TRAK", "ADVNR": 13, "ATCFID": "SH242025", "NAME": "IVONE", "FTECH": "JTWC", "FCST_DTG": "2025-03-14 06:00:00", "RUN_DTG": "2025-03-14 20:17:55", "BASIN": "SH", "STMNR": 24, "CAT_ID": null, "CAT_DESC": null, "MSGID": "WTXS51 PGTW 140900", "VALIDTIME": "2025-03-13 06:00:00" }, "geometry": { "type": "Point", "coordinates": [ 68.400002, -21.799999 ] } },
{ "type": "Feature", "properties": { "ID": 312399, "LAT": -22.9, "LON": 67.9, "VMAX": 35.0, "MSLP": 996.0, "RMAX": 130.0, "FSPD": 7.3185, "FDIR": 230.75458, "RENV": 255.0, "PENV": 1007.0, "VALIDT": 0, "DTG": "2025-03-13 12:00", "LATNOW": -24.5, "LONNOW": 65.4, "WINDNOW": 35.0, "DIRNOW": 7.0, "SPDNOW": 5.0, "TECH": "TRAK", "ADVNR": 13, "ATCFID": "SH242025", "NAME": "IVONE", "FTECH": "JTWC", "FCST_DTG": "2025-03-14 06:00:00", "RUN_DTG": "2025-03-14 20:17:55", "BASIN": "SH", "STMNR": 24, "CAT_ID": null, "CAT_DESC": null, "MSGID": "WTXS51 PGTW 140900", "VALIDTIME": "2025-03-13 12:00:00" }, "geometry": { "type": "Point", "coordinates": [ 67.900002, -22.9 ] } },
{ "type": "Feature", "properties": { "ID": 312400, "LAT": -23.8, "LON": 66.7, "VMAX": 35.0, "MSLP": 998.0, "RMAX": 130.0, "FSPD": 4.55421, "FDIR": 235.61154, "RENV": 255.0, "PENV": 1007.0, "VALIDT": 0, "DTG": "2025-03-13 18:00", "LATNOW": -24.5, "LONNOW": 65.4, "WINDNOW": 35.0, "DIRNOW": 7.0, "SPDNOW": 5.0, "TECH": "TRAK", "ADVNR": 13, "ATCFID": "SH242025", "NAME": "IVONE", "FTECH": "JTWC", "FCST_DTG": "2025-03-14 06:00:00", "RUN_DTG": "2025-03-14 20:17:55", "BASIN": "SH", "STMNR": 24, "CAT_ID": null, "CAT_DESC": null, "MSGID": "WTXS51 PGTW 140900", "VALIDTIME": "2025-03-13 18:00:00" }, "geometry": { "type": "Point", "coordinates": [ 66.699997, -23.799999 ] } },
{ "type": "Feature", "properties": { "ID": 312401, "LAT": -24.3, "LON": 65.9, "VMAX": 35.0, "MSLP": 994.0, "RMAX": 94.0, "FSPD": 2.55848, "FDIR": 246.28734, "RENV": 210.0, "PENV": 1008.0, "VALIDT": 0, "DTG": "2025-03-14 00:00", "LATNOW": -24.5, "LONNOW": 65.4, "WINDNOW": 35.0, "DIRNOW": 7.0, "SPDNOW": 5.0, "TECH": "TRAK", "ADVNR": 13, "ATCFID": "SH242025", "NAME": "IVONE", "FTECH": "JTWC", "FCST_DTG": "2025-03-14 06:00:00", "RUN_DTG": "2025-03-14 20:17:55", "BASIN": "SH", "STMNR": 24, "CAT_ID": null, "CAT_DESC": null, "MSGID": "WTXS51 PGTW 140900", "VALIDTIME": "2025-03-14 00:00:00" }, "geometry": { "type": "Point", "coordinates": [ 65.900002, -24.299999 ] } },
{ "type": "Feature", "properties": { "ID": 312402, "LAT": -24.5, "LON": 65.4, "VMAX": 35.0, "MSLP": 993.0, "RMAX": 94.0, "FSPD": 6.69233, "FDIR": 163.92181, "RENV": 210.0, "PENV": 1008.0, "VALIDT": 0, "DTG": "2025-03-14 06:00", "LATNOW": -24.5, "LONNOW": 65.4, "WINDNOW": 35.0, "DIRNOW": 7.0, "SPDNOW": 5.0, "TECH": "TRAK", "ADVNR": 13, "ATCFID": "SH242025", "NAME": "IVONE", "FTECH": "JTWC", "FCST_DTG": "2025-03-14 06:00:00", "RUN_DTG": "2025-03-14 20:17:55", "BASIN": "SH", "STMNR": 24, "CAT_ID": null, "CAT_DESC": null, "MSGID": "WTXS51 PGTW 140900", "VALIDTIME": "2025-03-14 06:00:00" }, "geometry": { "type": "Point", "coordinates": [ 65.400002, -24.5 ] } },
{ "type": "Feature", "properties": { "ID": 312403, "LAT": -27.0, "LON": 66.2, "VMAX": 35.0, "MSLP": 1008.74713, "RMAX": 116.19624, "FSPD": 6.69233, "FDIR": 163.92181, "RENV": 250.0, "PENV": 1012.0, "VALIDT": 12, "DTG": "2025-03-14 18:00", "LATNOW": -24.5, "LONNOW": 65.4, "WINDNOW": 35.0, "DIRNOW": 7.0, "SPDNOW": 5.0, "TECH": "FCST", "ADVNR": 13, "ATCFID": "SH242025", "NAME": "IVONE", "FTECH": "JTWC", "FCST_DTG": "2025-03-14 06:00:00", "RUN_DTG": "2025-03-14 20:17:55", "BASIN": "SH", "STMNR": 24, "CAT_ID": null, "CAT_DESC": null, "MSGID": "WTXS51 PGTW 140900", "VALIDTIME": "2025-03-14 18:00:00" }, "geometry": { "type": "Point", "coordinates": [ 66.199997, -27.0 ] } },
{ "type": "Feature", "properties": { "ID": 312402, "LAT": -24.5, "LON": 65.4, "VMAX": 35.0, "MSLP": 993.0, "RMAX": 94.0, "FSPD": 6.69233, "FDIR": 163.92181, "RENV": 210.0, "PENV": 1008.0, "VALIDT": 0, "DTG": "2025-03-14 06:00", "LATNOW": -24.5, "LONNOW": 65.4, "WINDNOW": 35.0, "DIRNOW": 7.0, "SPDNOW": 5.0, "TECH": "TRAK", "ADVNR": 13, "ATCFID": "SH242025", "NAME": "IVONE", "FTECH": "JTWC", "FCST_DTG": "2025-03-14 06:00:00", "RUN_DTG": "2025-03-14 20:17:55", "BASIN": "SH", "STMNR": 24, "CAT_ID": null, "CAT_DESC": null, "MSGID": "WTXS51 PGTW 140900", "VALIDTIME": "2025-03-14 06:00:00" }, "geometry": { "type": "LineString", "coordinates": [ [ 87.8, -7.7 ], [ 88.1, -8.1 ], [ 88.2, -8.5 ], [ 88.0, -9.6 ], [ 87.1, -10.2 ], [ 86.0, -10.5 ], [ 85.2, -11.1 ], [ 84.7, -11.9 ], [ 84.6, -12.1 ], [ 83.9, -13.1 ], [ 83.5, -13.6 ], [ 84.1, -15.2 ], [ 83.9, -16.0 ], [ 83.1, -17.4 ], [ 82.7, -17.9 ], [ 82.2, -19.2 ], [ 81.6, -20.0 ], [ 81.0, -20.2 ], [ 79.9, -20.2 ], [ 79.1, -20.3 ], [ 78.1, -20.0 ], [ 77.0, -19.8 ], [ 75.5, -19.7 ], [ 74.3, -19.5 ], [ 72.9, -19.7 ], [ 71.0, -20.2 ], [ 70.0, -21.3 ], [ 68.4, -21.8 ], [ 67.9, -22.9 ], [ 66.7, -23.8 ], [ 65.9, -24.3 ], [ 65.4, -24.5 ] ] } },
{ "type": "Feature", "properties": { "ID": 312403, "LAT": -27.0, "LON": 66.2, "VMAX": 35.0, "MSLP": 1008.74713, "RMAX": 116.19624, "FSPD": 6.69233, "FDIR": 163.92181, "RENV": 250.0, "PENV": 1012.0, "VALIDT": 12, "DTG": "2025-03-14 18:00", "LATNOW": -24.5, "LONNOW": 65.4, "WINDNOW": 35.0, "DIRNOW": 7.0, "SPDNOW": 5.0, "TECH": "FCST", "ADVNR": 13, "ATCFID": "SH242025", "NAME": "IVONE", "FTECH": "JTWC", "FCST_DTG": "2025-03-14 06:00:00", "RUN_DTG": "2025-03-14 20:17:55", "BASIN": "SH", "STMNR": 24, "CAT_ID": null, "CAT_DESC": null, "MSGID": "WTXS51 PGTW 140900", "VALIDTIME": "2025-03-14 18:00:00" }, "geometry": { "type": "LineString", "coordinates": [ [ 65.4, -24.5 ], [ 66.2, -27.0 ] ] } }
]
}
