{
"type": "FeatureCollection",
"crs": { "type": "name", "properties": { "name": "urn:ogc:def:crs:OGC:1.3:CRS84" } },
"features": [
{ "type": "Feature", "properties": { "ID": 79814, "LAT": -10.5, "LON": 115.4, "VMAX": 15.0, "MSLP": 1013.8515, "RMAX": 40.0, "FSPD": 1.01164, "FDIR": 90.0, "RENV": 500.0, "PENV": 1012.0, "VALIDT": 0, "DTG": "2025-11-13 00:00", "LATNOW": -14.5, "LONNOW": 127.7, "WINDNOW": 85.0, "DIRNOW": 1.0, "SPDNOW": 4.0, "TECH": "TRAK", "ADVNR": 27, "ATCFID": "SH052026", "NAME": "FINA", "FTECH": "JTWC", "FCST_DTG": "2025-11-24 18:00:00", "RUN_DTG": "2025-11-25 09:11:26", "BASIN": "SH", "STMNR": 5, "CAT_ID": null, "CAT_DESC": null, "MSGID": "WTXS51 PGTW 242100", "VALIDTIME": "2025-11-13 00:00:00" }, "geometry": { "type": "Point", "coordinates": [ 115.400002, -10.5 ] } },
{ "type": "Feature", "properties": { "ID": 79815, "LAT": -10.5, "LON": 115.6, "VMAX": 15.0, "MSLP": 1013.8515, "RMAX": 40.0, "FSPD": 2.58054, "FDIR": 101.49927, "RENV": 500.0, "PENV": 1012.0, "VALIDT": 0, "DTG": "2025-11-13 06:00", "LATNOW": -14.5, "LONNOW": 127.7, "WINDNOW": 85.0, "DIRNOW": 1.0, "SPDNOW": 4.0, "TECH": "TRAK", "ADVNR": 27, "ATCFID": "SH052026", "NAME": "FINA", "FTECH": "JTWC", "FCST_DTG": "2025-11-24 18:00:00", "RUN_DTG": "2025-11-25 09:11:26", "BASIN": "SH", "STMNR": 5, "CAT_ID": null, "CAT_DESC": null, "MSGID": "WTXS51 PGTW 242100", "VALIDTIME": "2025-11-13 06:00:00" }, "geometry": { "type": "Point", "coordinates": [ 115.599998, -10.5 ] } },
{ "type": "Feature", "properties": { "ID": 79816, "LAT": -10.6, "LON": 116.1, "VMAX": 15.0, "MSLP": 1013.8515, "RMAX": 40.0, "FSPD": 2.72889, "FDIR": 112.15009, "RENV": 500.0, "PENV": 1012.0, "VALIDT": 0, "DTG": "2025-11-13 12:00", "LATNOW": -14.5, "LONNOW": 127.7, "WINDNOW": 85.0, "DIRNOW": 1.0, "SPDNOW": 4.0, "TECH": "TRAK", "ADVNR": 27, "ATCFID": "SH052026", "NAME": "FINA", "FTECH": "JTWC", "FCST_DTG": "2025-11-24 18:00:00", "RUN_DTG": "2025-11-25 09:11:26", "BASIN": "SH", "STMNR": 5, "CAT_ID": null, "CAT_DESC": null, "MSGID": "WTXS51 PGTW 242100", "VALIDTIME": "2025-11-13 12:00:00" }, "geometry": { "type": "Point", "coordinates": [ 116.099998, -10.6 ] } },
{ "type": "Feature", "properties": { "ID": 79817, "LAT": -10.8, "LON": 116.6, "VMAX": 15.0, "MSLP": 1013.8515, "RMAX": 40.0, "FSPD": 2.08545, "FDIR": 104.28119, "RENV": 500.0, "PENV": 1012.0, "VALIDT": 0, "DTG": "2025-11-13 18:00", "LATNOW": -14.5, "LONNOW": 127.7, "WINDNOW": 85.0, "DIRNOW": 1.0, "SPDNOW": 4.0, "TECH": "TRAK", "ADVNR": 27, "ATCFID": "SH052026", "NAME": "FINA", "FTECH": "JTWC", "FCST_DTG": "2025-11-24 18:00:00", "RUN_DTG": "2025-11-25 09:11:26", "BASIN": "SH", "STMNR": 5, "CAT_ID": null, "CAT_DESC": null, "MSGID": "WTXS51 PGTW 242100", "VALIDTIME": "2025-11-13 18:00:00" }, "geometry": { "type": "Point", "coordinates": [ 116.599998, -10.8 ] } },
{ "type": "Feature", "properties": { "ID": 79818, "LAT": -10.9, "LON": 117.0, "VMAX": 20.0, "MSLP": 1012.95825, "RMAX": 45.0, "FSPD": 5.22031, "FDIR": 119.52036, "RENV": 500.0, "PENV": 1012.0, "VALIDT": 0, "DTG": "2025-11-14 00:00", "LATNOW": -14.5, "LONNOW": 127.7, "WINDNOW": 85.0, "DIRNOW": 1.0, "SPDNOW": 4.0, "TECH": "TRAK", "ADVNR": 27, "ATCFID": "SH052026", "NAME": "FINA", "FTECH": "JTWC", "FCST_DTG": "2025-11-24 18:00:00", "RUN_DTG": "2025-11-25 09:11:26", "BASIN": "SH", "STMNR": 5, "CAT_ID": null, "CAT_DESC": null, "MSGID": "WTXS51 PGTW 242100", "VALIDTIME": "2025-11-14 00:00:00" }, "geometry": { "type": "Point", "coordinates": [ 117.0, -10.9 ] } },
{ "type": "Feature", "properties": { "ID": 79819, "LAT": -11.4, "LON": 117.9, "VMAX": 20.0, "MSLP": 1012.95825, "RMAX": 45.0, "FSPD": 5.404, "FDIR": 131.78821, "RENV": 500.0, "PENV": 1012.0, "VALIDT": 0, "DTG": "2025-11-14 06:00", "LATNOW": -14.5, "LONNOW": 127.7, "WINDNOW": 85.0, "DIRNOW": 1.0, "SPDNOW": 4.0, "TECH": "TRAK", "ADVNR": 27, "ATCFID": "SH052026", "NAME": "FINA", "FTECH": "JTWC", "FCST_DTG": "2025-11-24 18:00:00", "RUN_DTG": "2025-11-25 09:11:26", "BASIN": "SH", "STMNR": 5, "CAT_ID": null, "CAT_DESC": null, "MSGID": "WTXS51 PGTW 242100", "VALIDTIME": "2025-11-14 06:00:00" }, "geometry": { "type": "Point", "coordinates": [ 117.900002, -11.4 ] } },
{ "type": "Feature", "properties": { "ID": 79820, "LAT": -12.1, "LON": 118.7, "VMAX": 20.0, "MSLP": 1012.95825, "RMAX": 45.0, "FSPD": 4.52714, "FDIR": 90.0, "RENV": 500.0, "PENV": 1012.0, "VALIDT": 0, "DTG": "2025-11-14 12:00", "LATNOW": -14.5, "LONNOW": 127.7, "WINDNOW": 85.0, "DIRNOW": 1.0, "SPDNOW": 4.0, "TECH": "TRAK", "ADVNR": 27, "ATCFID": "SH052026", "NAME": "FINA", "FTECH": "JTWC", "FCST_DTG": "2025-11-24 18:00:00", "RUN_DTG": "2025-11-25 09:11:26", "BASIN": "SH", "STMNR": 5, "CAT_ID": null, "CAT_DESC": null, "MSGID": "WTXS51 PGTW 242100", "VALIDTIME": "2025-11-14 12:00:00" }, "geometry": { "type": "Point", "coordinates": [ 118.699997, -12.1 ] } },
{ "type": "Feature", "properties": { "ID": 79821, "LAT": -12.1, "LON": 119.6, "VMAX": 20.0, "MSLP": 1012.95825, "RMAX": 45.0, "FSPD": 7.61784, "FDIR": 82.2377, "RENV": 500.0, "PENV": 1012.0, "VALIDT": 0, "DTG": "2025-11-14 18:00", "LATNOW": -14.5, "LONNOW": 127.7, "WINDNOW": 85.0, "DIRNOW": 1.0, "SPDNOW": 4.0, "TECH": "TRAK", "ADVNR": 27, "ATCFID": "SH052026", "NAME": "FINA", "FTECH": "JTWC", "FCST_DTG": "2025-11-24 18:00:00", "RUN_DTG": "2025-11-25 09:11:26", "BASIN": "SH", "STMNR": 5, "CAT_ID": null, "CAT_DESC": null, "MSGID": "WTXS51 PGTW 242100", "VALIDTIME": "2025-11-14 18:00:00" }, "geometry": { "type": "Point", "coordinates": [ 119.599998, -12.1 ] } },
{ "type": "Feature", "properties": { "ID": 79822, "LAT": -11.9, "LON": 121.1, "VMAX": 20.0, "MSLP": 1012.95825, "RMAX": 45.0, "FSPD": 6.72708, "FDIR": 76.73706, "RENV": 500.0, "PENV": 1012.0, "VALIDT": 0, "DTG": "2025-11-15 00:00", "LATNOW": -14.5, "LONNOW": 127.7, "WINDNOW": 85.0, "DIRNOW": 1.0, "SPDNOW": 4.0, "TECH": "TRAK", "ADVNR": 27, "ATCFID": "SH052026", "NAME": "FINA", "FTECH": "JTWC", "FCST_DTG": "2025-11-24 18:00:00", "RUN_DTG": "2025-11-25 09:11:26", "BASIN": "SH", "STMNR": 5, "CAT_ID": null, "CAT_DESC": null, "MSGID": "WTXS51 PGTW 242100", "VALIDTIME": "2025-11-15 00:00:00" }, "geometry": { "type": "Point", "coordinates": [ 121.099998, -11.9 ] } },
{ "type": "Feature", "properties": { "ID": 79823, "LAT": -11.6, "LON": 122.4, "VMAX": 20.0, "MSLP": 1012.95825, "RMAX": 45.0, "FSPD": 7.57789, "FDIR": 86.10733, "RENV": 500.0, "PENV": 1012.0, "VALIDT": 0, "DTG": "2025-11-15 06:00", "LATNOW": -14.5, "LONNOW": 127.7, "WINDNOW": 85.0, "DIRNOW": 1.0, "SPDNOW": 4.0, "TECH": "TRAK", "ADVNR": 27, "ATCFID": "SH052026", "NAME": "FINA", "FTECH": "JTWC", "FCST_DTG": "2025-11-24 18:00:00", "RUN_DTG": "2025-11-25 09:11:26", "BASIN": "SH", "STMNR": 5, "CAT_ID": null, "CAT_DESC": null, "MSGID": "WTXS51 PGTW 242100", "VALIDTIME": "2025-11-15 06:00:00" }, "geometry": { "type": "Point", "coordinates": [ 122.400002, -11.6 ] } },
{ "type": "Feature", "properties": { "ID": 79824, "LAT": -11.5, "LON": 123.9, "VMAX": 20.0, "MSLP": 1012.95825, "RMAX": 45.0, "FSPD": 6.5535, "FDIR": 90.0, "RENV": 500.0, "PENV": 1012.0, "VALIDT": 0, "DTG": "2025-11-15 12:00", "LATNOW": -14.5, "LONNOW": 127.7, "WINDNOW": 85.0, "DIRNOW": 1.0, "SPDNOW": 4.0, "TECH": "TRAK", "ADVNR": 27, "ATCFID": "SH052026", "NAME": "FINA", "FTECH": "JTWC", "FCST_DTG": "2025-11-24 18:00:00", "RUN_DTG": "2025-11-25 09:11:26", "BASIN": "SH", "STMNR": 5, "CAT_ID": null, "CAT_DESC": null, "MSGID": "WTXS51 PGTW 242100", "VALIDTIME": "2025-11-15 12:00:00" }, "geometry": { "type": "Point", "coordinates": [ 123.900002, -11.5 ] } },
{ "type": "Feature", "properties": { "ID": 79825, "LAT": -11.5, "LON": 125.2, "VMAX": 25.0, "MSLP": 1011.80975, "RMAX": 45.0, "FSPD": 5.04117, "FDIR": 90.0, "RENV": 500.0, "PENV": 1012.0, "VALIDT": 0, "DTG": "2025-11-15 18:00", "LATNOW": -14.5, "LONNOW": 127.7, "WINDNOW": 85.0, "DIRNOW": 1.0, "SPDNOW": 4.0, "TECH": "TRAK", "ADVNR": 27, "ATCFID": "SH052026", "NAME": "FINA", "FTECH": "JTWC", "FCST_DTG": "2025-11-24 18:00:00", "RUN_DTG": "2025-11-25 09:11:26", "BASIN": "SH", "STMNR": 5, "CAT_ID": null, "CAT_DESC": null, "MSGID": "WTXS51 PGTW 242100", "VALIDTIME": "2025-11-15 18:00:00" }, "geometry": { "type": "Point", "coordinates": [ 125.199997, -11.5 ] } },
{ "type": "Feature", "properties": { "ID": 79826, "LAT": -11.5, "LON": 126.2, "VMAX": 25.0, "MSLP": 1011.80975, "RMAX": 45.0, "FSPD": 3.0687, "FDIR": 80.34918, "RENV": 500.0, "PENV": 1012.0, "VALIDT": 0, "DTG": "2025-11-16 00:00", "LATNOW": -14.5, "LONNOW": 127.7, "WINDNOW": 85.0, "DIRNOW": 1.0, "SPDNOW": 4.0, "TECH": "TRAK", "ADVNR": 27, "ATCFID": "SH052026", "NAME": "FINA", "FTECH": "JTWC", "FCST_DTG": "2025-11-24 18:00:00", "RUN_DTG": "2025-11-25 09:11:26", "BASIN": "SH", "STMNR": 5, "CAT_ID": null, "CAT_DESC": null, "MSGID": "WTXS51 PGTW 242100", "VALIDTIME": "2025-11-16 00:00:00" }, "geometry": { "type": "Point", "coordinates": [ 126.199997, -11.5 ] } },
{ "type": "Feature", "properties": { "ID": 79827, "LAT": -11.4, "LON": 126.8, "VMAX": 25.0, "MSLP": 1011.80975, "RMAX": 45.0, "FSPD": 3.39805, "FDIR": 62.9877, "RENV": 500.0, "PENV": 1012.0, "VALIDT": 0, "DTG": "2025-11-16 06:00", "LATNOW": -14.5, "LONNOW": 127.7, "WINDNOW": 85.0, "DIRNOW": 1.0, "SPDNOW": 4.0, "TECH": "TRAK", "ADVNR": 27, "ATCFID": "SH052026", "NAME": "FINA", "FTECH": "JTWC", "FCST_DTG": "2025-11-24 18:00:00", "RUN_DTG": "2025-11-25 09:11:26", "BASIN": "SH", "STMNR": 5, "CAT_ID": null, "CAT_DESC": null, "MSGID": "WTXS51 PGTW 242100", "VALIDTIME": "2025-11-16 06:00:00" }, "geometry": { "type": "Point", "coordinates": [ 126.800003, -11.4 ] } },
{ "type": "Feature", "properties": { "ID": 79828, "LAT": -11.1, "LON": 127.4, "VMAX": 25.0, "MSLP": 1011.80975, "RMAX": 45.0, "FSPD": 2.57642, "FDIR": 78.48203, "RENV": 500.0, "PENV": 1012.0, "VALIDT": 0, "DTG": "2025-11-16 12:00", "LATNOW": -14.5, "LONNOW": 127.7, "WINDNOW": 85.0, "DIRNOW": 1.0, "SPDNOW": 4.0, "TECH": "TRAK", "ADVNR": 27, "ATCFID": "SH052026", "NAME": "FINA", "FTECH": "JTWC", "FCST_DTG": "2025-11-24 18:00:00", "RUN_DTG": "2025-11-25 09:11:26", "BASIN": "SH", "STMNR": 5, "CAT_ID": null, "CAT_DESC": null, "MSGID": "WTXS51 PGTW 242100", "VALIDTIME": "2025-11-16 12:00:00" }, "geometry": { "type": "Point", "coordinates": [ 127.400002, -11.1 ] } },
{ "type": "Feature", "properties": { "ID": 79829, "LAT": -11.0, "LON": 127.9, "VMAX": 25.0, "MSLP": 1011.80975, "RMAX": 45.0, "FSPD": 2.52492, "FDIR": 90.0, "RENV": 500.0, "PENV": 1012.0, "VALIDT": 0, "DTG": "2025-11-16 18:00", "LATNOW": -14.5, "LONNOW": 127.7, "WINDNOW": 85.0, "DIRNOW": 1.0, "SPDNOW": 4.0, "TECH": "TRAK", "ADVNR": 27, "ATCFID": "SH052026", "NAME": "FINA", "FTECH": "JTWC", "FCST_DTG": "2025-11-24 18:00:00", "RUN_DTG": "2025-11-25 09:11:26", "BASIN": "SH", "STMNR": 5, "CAT_ID": null, "CAT_DESC": null, "MSGID": "WTXS51 PGTW 242100", "VALIDTIME": "2025-11-16 18:00:00" }, "geometry": { "type": "Point", "coordinates": [ 127.900002, -11.0 ] } },
{ "type": "Feature", "properties": { "ID": 79830, "LAT": -11.0, "LON": 128.4, "VMAX": 25.0, "MSLP": 1011.80975, "RMAX": 45.0, "FSPD": 3.07385, "FDIR": 80.36554, "RENV": 500.0, "PENV": 1012.0, "VALIDT": 0, "DTG": "2025-11-17 00:00", "LATNOW": -14.5, "LONNOW": 127.7, "WINDNOW": 85.0, "DIRNOW": 1.0, "SPDNOW": 4.0, "TECH": "TRAK", "ADVNR": 27, "ATCFID": "SH052026", "NAME": "FINA", "FTECH": "JTWC", "FCST_DTG": "2025-11-24 18:00:00", "RUN_DTG": "2025-11-25 09:11:26", "BASIN": "SH", "STMNR": 5, "CAT_ID": null, "CAT_DESC": null, "MSGID": "WTXS51 PGTW 242100", "VALIDTIME": "2025-11-17 00:00:00" }, "geometry": { "type": "Point", "coordinates": [ 128.399994, -11.0 ] } },
{ "type": "Feature", "properties": { "ID": 79831, "LAT": -10.9, "LON": 129.0, "VMAX": 25.0, "MSLP": 1011.80975, "RMAX": 45.0, "FSPD": 3.68391, "FDIR": 73.78201, "RENV": 500.0, "PENV": 1012.0, "VALIDT": 0, "DTG": "2025-11-17 06:00", "LATNOW": -14.5, "LONNOW": 127.7, "WINDNOW": 85.0, "DIRNOW": 1.0, "SPDNOW": 4.0, "TECH": "TRAK", "ADVNR": 27, "ATCFID": "SH052026", "NAME": "FINA", "FTECH": "JTWC", "FCST_DTG": "2025-11-24 18:00:00", "RUN_DTG": "2025-11-25 09:11:26", "BASIN": "SH", "STMNR": 5, "CAT_ID": null, "CAT_DESC": null, "MSGID": "WTXS51 PGTW 242100", "VALIDTIME": "2025-11-17 06:00:00" }, "geometry": { "type": "Point", "coordinates": [ 129.0, -10.9 ] } },
{ "type": "Feature", "properties": { "ID": 79832, "LAT": -10.7, "LON": 129.7, "VMAX": 30.0, "MSLP": 1010.40607, "RMAX": 44.21983, "FSPD": 2.26935, "FDIR": 63.039, "RENV": 500.0, "PENV": 1012.0, "VALIDT": 0, "DTG": "2025-11-17 12:00", "LATNOW": -14.5, "LONNOW": 127.7, "WINDNOW": 85.0, "DIRNOW": 1.0, "SPDNOW": 4.0, "TECH": "TRAK", "ADVNR": 27, "ATCFID": "SH052026", "NAME": "FINA", "FTECH": "JTWC", "FCST_DTG": "2025-11-24 18:00:00", "RUN_DTG": "2025-11-25 09:11:26", "BASIN": "SH", "STMNR": 5, "CAT_ID": null, "CAT_DESC": null, "MSGID": "WTXS51 PGTW 242100", "VALIDTIME": "2025-11-17 12:00:00" }, "geometry": { "type": "Point", "coordinates": [ 129.699997, -10.7 ] } },
{ "type": "Feature", "properties": { "ID": 79833, "LAT": -10.5, "LON": 130.1, "VMAX": 30.0, "MSLP": 1010.40607, "RMAX": 44.21983, "FSPD": 2.54549, "FDIR": 52.67746, "RENV": 500.0, "PENV": 1012.0, "VALIDT": 0, "DTG": "2025-11-17 18:00", "LATNOW": -14.5, "LONNOW": 127.7, "WINDNOW": 85.0, "DIRNOW": 1.0, "SPDNOW": 4.0, "TECH": "TRAK", "ADVNR": 27, "ATCFID": "SH052026", "NAME": "FINA", "FTECH": "JTWC", "FCST_DTG": "2025-11-24 18:00:00", "RUN_DTG": "2025-11-25 09:11:26", "BASIN": "SH", "STMNR": 5, "CAT_ID": null, "CAT_DESC": null, "MSGID": "WTXS51 PGTW 242100", "VALIDTIME": "2025-11-17 18:00:00" }, "geometry": { "type": "Point", "coordinates": [ 130.100006, -10.5 ] } },
{ "type": "Feature", "properties": { "ID": 79834, "LAT": -10.2, "LON": 130.5, "VMAX": 35.0, "MSLP": 1008.74713, "RMAX": 42.69135, "FSPD": 1.83502, "FDIR": 55.896, "RENV": 500.0, "PENV": 1012.0, "VALIDT": 0, "DTG": "2025-11-18 00:00", "LATNOW": -14.5, "LONNOW": 127.7, "WINDNOW": 85.0, "DIRNOW": 1.0, "SPDNOW": 4.0, "TECH": "TRAK", "ADVNR": 27, "ATCFID": "SH052026", "NAME": "FINA", "FTECH": "JTWC", "FCST_DTG": "2025-11-24 18:00:00", "RUN_DTG": "2025-11-25 09:11:26", "BASIN": "SH", "STMNR": 5, "CAT_ID": null, "CAT_DESC": null, "MSGID": "WTXS51 PGTW 242100", "VALIDTIME": "2025-11-18 00:00:00" }, "geometry": { "type": "Point", "coordinates": [ 130.5, -10.2 ] } },
{ "type": "Feature", "properties": { "ID": 79835, "LAT": -10.0, "LON": 130.8, "VMAX": 35.0, "MSLP": 998.0, "RMAX": 15.0, "FSPD": 2.09107, "FDIR": 75.75781, "RENV": 170.0, "PENV": 1004.0, "VALIDT": 0, "DTG": "2025-11-18 06:00", "LATNOW": -14.5, "LONNOW": 127.7, "WINDNOW": 85.0, "DIRNOW": 1.0, "SPDNOW": 4.0, "TECH": "TRAK", "ADVNR": 27, "ATCFID": "SH052026", "NAME": "FINA", "FTECH": "JTWC", "FCST_DTG": "2025-11-24 18:00:00", "RUN_DTG": "2025-11-25 09:11:26", "BASIN": "SH", "STMNR": 5, "CAT_ID": null, "CAT_DESC": null, "MSGID": "WTXS51 PGTW 242100", "VALIDTIME": "2025-11-18 06:00:00" }, "geometry": { "type": "Point", "coordinates": [ 130.800003, -10.0 ] } },
{ "type": "Feature", "properties": { "ID": 79836, "LAT": -9.9, "LON": 131.2, "VMAX": 40.0, "MSLP": 998.0, "RMAX": 15.0, "FSPD": 3.0844, "FDIR": 80.39886, "RENV": 170.0, "PENV": 1004.0, "VALIDT": 0, "DTG": "2025-11-18 12:00", "LATNOW": -14.5, "LONNOW": 127.7, "WINDNOW": 85.0, "DIRNOW": 1.0, "SPDNOW": 4.0, "TECH": "TRAK", "ADVNR": 27, "ATCFID": "SH052026", "NAME": "FINA", "FTECH": "JTWC", "FCST_DTG": "2025-11-24 18:00:00", "RUN_DTG": "2025-11-25 09:11:26", "BASIN": "SH", "STMNR": 5, "CAT_ID": null, "CAT_DESC": null, "MSGID": "WTXS51 PGTW 242100", "VALIDTIME": "2025-11-18 12:00:00" }, "geometry": { "type": "Point", "coordinates": [ 131.199997, -9.9 ] } },
{ "type": "Feature", "properties": { "ID": 79837, "LAT": -9.8, "LON": 131.8, "VMAX": 45.0, "MSLP": 995.0, "RMAX": 15.0, "FSPD": 3.41195, "FDIR": 63.10657, "RENV": 170.0, "PENV": 1004.0, "VALIDT": 0, "DTG": "2025-11-18 18:00", "LATNOW": -14.5, "LONNOW": 127.7, "WINDNOW": 85.0, "DIRNOW": 1.0, "SPDNOW": 4.0, "TECH": "TRAK", "ADVNR": 27, "ATCFID": "SH052026", "NAME": "FINA", "FTECH": "JTWC", "FCST_DTG": "2025-11-24 18:00:00", "RUN_DTG": "2025-11-25 09:11:26", "BASIN": "SH", "STMNR": 5, "CAT_ID": null, "CAT_DESC": null, "MSGID": "WTXS51 PGTW 242100", "VALIDTIME": "2025-11-18 18:00:00" }, "geometry": { "type": "Point", "coordinates": [ 131.800003, -9.8 ] } },
{ "type": "Feature", "properties": { "ID": 79838, "LAT": -9.5, "LON": 132.4, "VMAX": 50.0, "MSLP": 993.0, "RMAX": 15.0, "FSPD": 1.44496, "FDIR": 135.40219, "RENV": 160.0, "PENV": 1004.0, "VALIDT": 0, "DTG": "2025-11-19 00:00", "LATNOW": -14.5, "LONNOW": 127.7, "WINDNOW": 85.0, "DIRNOW": 1.0, "SPDNOW": 4.0, "TECH": "TRAK", "ADVNR": 27, "ATCFID": "SH052026", "NAME": "FINA", "FTECH": "JTWC", "FCST_DTG": "2025-11-24 18:00:00", "RUN_DTG": "2025-11-25 09:11:26", "BASIN": "SH", "STMNR": 5, "CAT_ID": null, "CAT_DESC": null, "MSGID": "WTXS51 PGTW 242100", "VALIDTIME": "2025-11-19 00:00:00" }, "geometry": { "type": "Point", "coordinates": [ 132.399994, -9.5 ] } },
{ "type": "Feature", "properties": { "ID": 79839, "LAT": -9.7, "LON": 132.6, "VMAX": 55.0, "MSLP": 991.0, "RMAX": 15.0, "FSPD": 1.02889, "FDIR": 360.0, "RENV": 160.0, "PENV": 1004.0, "VALIDT": 0, "DTG": "2025-11-19 06:00", "LATNOW": -14.5, "LONNOW": 127.7, "WINDNOW": 85.0, "DIRNOW": 1.0, "SPDNOW": 4.0, "TECH": "TRAK", "ADVNR": 27, "ATCFID": "SH052026", "NAME": "FINA", "FTECH": "JTWC", "FCST_DTG": "2025-11-24 18:00:00", "RUN_DTG": "2025-11-25 09:11:26", "BASIN": "SH", "STMNR": 5, "CAT_ID": null, "CAT_DESC": null, "MSGID": "WTXS51 PGTW 242100", "VALIDTIME": "2025-11-19 06:00:00" }, "geometry": { "type": "Point", "coordinates": [ 132.600006, -9.7 ] } },
{ "type": "Feature", "properties": { "ID": 79840, "LAT": -9.5, "LON": 132.6, "VMAX": 60.0, "MSLP": 987.0, "RMAX": 15.0, "FSPD": 2.02953, "FDIR": 90.0, "RENV": 160.0, "PENV": 1004.0, "VALIDT": 0, "DTG": "2025-11-19 12:00", "LATNOW": -14.5, "LONNOW": 127.7, "WINDNOW": 85.0, "DIRNOW": 1.0, "SPDNOW": 4.0, "TECH": "TRAK", "ADVNR": 27, "ATCFID": "SH052026", "NAME": "FINA", "FTECH": "JTWC", "FCST_DTG": "2025-11-24 18:00:00", "RUN_DTG": "2025-11-25 09:11:26", "BASIN": "SH", "STMNR": 5, "CAT_ID": null, "CAT_DESC": null, "MSGID": "WTXS51 PGTW 242100", "VALIDTIME": "2025-11-19 12:00:00" }, "geometry": { "type": "Point", "coordinates": [ 132.600006, -9.5 ] } },
{ "type": "Feature", "properties": { "ID": 79841, "LAT": -9.5, "LON": 133.0, "VMAX": 60.0, "MSLP": 984.0, "RMAX": 10.0, "FSPD": 1.84681, "FDIR": 146.68613, "RENV": 160.0, "PENV": 1004.0, "VALIDT": 0, "DTG": "2025-11-19 18:00", "LATNOW": -14.5, "LONNOW": 127.7, "WINDNOW": 85.0, "DIRNOW": 1.0, "SPDNOW": 4.0, "TECH": "TRAK", "ADVNR": 27, "ATCFID": "SH052026", "NAME": "FINA", "FTECH": "JTWC", "FCST_DTG": "2025-11-24 18:00:00", "RUN_DTG": "2025-11-25 09:11:26", "BASIN": "SH", "STMNR": 5, "CAT_ID": null, "CAT_DESC": null, "MSGID": "WTXS51 PGTW 242100", "VALIDTIME": "2025-11-19 18:00:00" }, "geometry": { "type": "Point", "coordinates": [ 133.0, -9.5 ] } },
{ "type": "Feature", "properties": { "ID": 79842, "LAT": -9.8, "LON": 133.2, "VMAX": 65.0, "MSLP": 984.0, "RMAX": 10.0, "FSPD": 1.14694, "FDIR": 153.77579, "RENV": 170.0, "PENV": 1004.0, "VALIDT": 0, "DTG": "2025-11-20 00:00", "LATNOW": -14.5, "LONNOW": 127.7, "WINDNOW": 85.0, "DIRNOW": 1.0, "SPDNOW": 4.0, "TECH": "TRAK", "ADVNR": 27, "ATCFID": "SH052026", "NAME": "FINA", "FTECH": "JTWC", "FCST_DTG": "2025-11-24 18:00:00", "RUN_DTG": "2025-11-25 09:11:26", "BASIN": "SH", "STMNR": 5, "CAT_ID": null, "CAT_DESC": null, "MSGID": "WTXS51 PGTW 242100", "VALIDTIME": "2025-11-20 00:00:00" }, "geometry": { "type": "Point", "coordinates": [ 133.199997, -9.8 ] } },
{ "type": "Feature", "properties": { "ID": 79843, "LAT": -10.0, "LON": 133.3, "VMAX": 60.0, "MSLP": 980.0, "RMAX": 10.0, "FSPD": 0.51445, "FDIR": 179.99997, "RENV": 160.0, "PENV": 1007.0, "VALIDT": 0, "DTG": "2025-11-20 06:00", "LATNOW": -14.5, "LONNOW": 127.7, "WINDNOW": 85.0, "DIRNOW": 1.0, "SPDNOW": 4.0, "TECH": "TRAK", "ADVNR": 27, "ATCFID": "SH052026", "NAME": "FINA", "FTECH": "JTWC", "FCST_DTG": "2025-11-24 18:00:00", "RUN_DTG": "2025-11-25 09:11:26", "BASIN": "SH", "STMNR": 5, "CAT_ID": null, "CAT_DESC": null, "MSGID": "WTXS51 PGTW 242100", "VALIDTIME": "2025-11-20 06:00:00" }, "geometry": { "type": "Point", "coordinates": [ 133.300003, -10.0 ] } },
{ "type": "Feature", "properties": { "ID": 79844, "LAT": -10.1, "LON": 133.3, "VMAX": 55.0, "MSLP": 983.0, "RMAX": 15.0, "FSPD": 2.16526, "FDIR": 224.53946, "RENV": 160.0, "PENV": 1004.0, "VALIDT": 0, "DTG": "2025-11-20 12:00", "LATNOW": -14.5, "LONNOW": 127.7, "WINDNOW": 85.0, "DIRNOW": 1.0, "SPDNOW": 4.0, "TECH": "TRAK", "ADVNR": 27, "ATCFID": "SH052026", "NAME": "FINA", "FTECH": "JTWC", "FCST_DTG": "2025-11-24 18:00:00", "RUN_DTG": "2025-11-25 09:11:26", "BASIN": "SH", "STMNR": 5, "CAT_ID": null, "CAT_DESC": null, "MSGID": "WTXS51 PGTW 242100", "VALIDTIME": "2025-11-20 12:00:00" }, "geometry": { "type": "Point", "coordinates": [ 133.300003, -10.1 ] } },
{ "type": "Feature", "properties": { "ID": 79845, "LAT": -10.4, "LON": 133.0, "VMAX": 60.0, "MSLP": 987.0, "RMAX": 15.0, "FSPD": 2.58213, "FDIR": 281.492, "RENV": 110.0, "PENV": 1005.0, "VALIDT": 0, "DTG": "2025-11-20 18:00", "LATNOW": -14.5, "LONNOW": 127.7, "WINDNOW": 85.0, "DIRNOW": 1.0, "SPDNOW": 4.0, "TECH": "TRAK", "ADVNR": 27, "ATCFID": "SH052026", "NAME": "FINA", "FTECH": "JTWC", "FCST_DTG": "2025-11-24 18:00:00", "RUN_DTG": "2025-11-25 09:11:26", "BASIN": "SH", "STMNR": 5, "CAT_ID": null, "CAT_DESC": null, "MSGID": "WTXS51 PGTW 242100", "VALIDTIME": "2025-11-20 18:00:00" }, "geometry": { "type": "Point", "coordinates": [ 133.0, -10.4 ] } },
{ "type": "Feature", "properties": { "ID": 79846, "LAT": -10.3, "LON": 132.5, "VMAX": 65.0, "MSLP": 983.0, "RMAX": 15.0, "FSPD": 2.11904, "FDIR": 193.81104, "RENV": 125.0, "PENV": 1004.0, "VALIDT": 0, "DTG": "2025-11-21 00:00", "LATNOW": -14.5, "LONNOW": 127.7, "WINDNOW": 85.0, "DIRNOW": 1.0, "SPDNOW": 4.0, "TECH": "TRAK", "ADVNR": 27, "ATCFID": "SH052026", "NAME": "FINA", "FTECH": "JTWC", "FCST_DTG": "2025-11-24 18:00:00", "RUN_DTG": "2025-11-25 09:11:26", "BASIN": "SH", "STMNR": 5, "CAT_ID": null, "CAT_DESC": null, "MSGID": "WTXS51 PGTW 242100", "VALIDTIME": "2025-11-21 00:00:00" }, "geometry": { "type": "Point", "coordinates": [ 132.5, -10.3 ] } },
{ "type": "Feature", "properties": { "ID": 79847, "LAT": -10.7, "LON": 132.4, "VMAX": 65.0, "MSLP": 980.0, "RMAX": 15.0, "FSPD": 2.29242, "FDIR": 206.14966, "RENV": 110.0, "PENV": 1006.0, "VALIDT": 0, "DTG": "2025-11-21 06:00", "LATNOW": -14.5, "LONNOW": 127.7, "WINDNOW": 85.0, "DIRNOW": 1.0, "SPDNOW": 4.0, "TECH": "TRAK", "ADVNR": 27, "ATCFID": "SH052026", "NAME": "FINA", "FTECH": "JTWC", "FCST_DTG": "2025-11-24 18:00:00", "RUN_DTG": "2025-11-25 09:11:26", "BASIN": "SH", "STMNR": 5, "CAT_ID": null, "CAT_DESC": null, "MSGID": "WTXS51 PGTW 242100", "VALIDTIME": "2025-11-21 06:00:00" }, "geometry": { "type": "Point", "coordinates": [ 132.399994, -10.7 ] } },
{ "type": "Feature", "properties": { "ID": 79848, "LAT": -11.1, "LON": 132.2, "VMAX": 70.0, "MSLP": 981.0, "RMAX": 10.0, "FSPD": 3.68733, "FDIR": 213.16475, "RENV": 130.0, "PENV": 1004.0, "VALIDT": 0, "DTG": "2025-11-21 12:00", "LATNOW": -14.5, "LONNOW": 127.7, "WINDNOW": 85.0, "DIRNOW": 1.0, "SPDNOW": 4.0, "TECH": "TRAK", "ADVNR": 27, "ATCFID": "SH052026", "NAME": "FINA", "FTECH": "JTWC", "FCST_DTG": "2025-11-24 18:00:00", "RUN_DTG": "2025-11-25 09:11:26", "BASIN": "SH", "STMNR": 5, "CAT_ID": null, "CAT_DESC": null, "MSGID": "WTXS51 PGTW 242100", "VALIDTIME": "2025-11-21 12:00:00" }, "geometry": { "type": "Point", "coordinates": [ 132.199997, -11.1 ] } },
{ "type": "Feature", "properties": { "ID": 79849, "LAT": -11.7, "LON": 131.8, "VMAX": 70.0, "MSLP": 980.0, "RMAX": 10.0, "FSPD": 2.07935, "FDIR": 255.67581, "RENV": 130.0, "PENV": 1006.0, "VALIDT": 0, "DTG": "2025-11-21 18:00", "LATNOW": -14.5, "LONNOW": 127.7, "WINDNOW": 85.0, "DIRNOW": 1.0, "SPDNOW": 4.0, "TECH": "TRAK", "ADVNR": 27, "ATCFID": "SH052026", "NAME": "FINA", "FTECH": "JTWC", "FCST_DTG": "2025-11-24 18:00:00", "RUN_DTG": "2025-11-25 09:11:26", "BASIN": "SH", "STMNR": 5, "CAT_ID": null, "CAT_DESC": null, "MSGID": "WTXS51 PGTW 242100", "VALIDTIME": "2025-11-21 18:00:00" }, "geometry": { "type": "Point", "coordinates": [ 131.800003, -11.7 ] } },
{ "type": "Feature", "properties": { "ID": 79850, "LAT": -11.8, "LON": 131.4, "VMAX": 80.0, "MSLP": 979.0, "RMAX": 15.0, "FSPD": 2.07856, "FDIR": 255.67041, "RENV": 180.0, "PENV": 1005.0, "VALIDT": 0, "DTG": "2025-11-22 00:00", "LATNOW": -14.5, "LONNOW": 127.7, "WINDNOW": 85.0, "DIRNOW": 1.0, "SPDNOW": 4.0, "TECH": "TRAK", "ADVNR": 27, "ATCFID": "SH052026", "NAME": "FINA", "FTECH": "JTWC", "FCST_DTG": "2025-11-24 18:00:00", "RUN_DTG": "2025-11-25 09:11:26", "BASIN": "SH", "STMNR": 5, "CAT_ID": null, "CAT_DESC": null, "MSGID": "WTXS51 PGTW 242100", "VALIDTIME": "2025-11-22 00:00:00" }, "geometry": { "type": "Point", "coordinates": [ 131.399994, -11.8 ] } },
{ "type": "Feature", "properties": { "ID": 79851, "LAT": -11.9, "LON": 131.0, "VMAX": 90.0, "MSLP": 974.0, "RMAX": 15.0, "FSPD": 2.26051, "FDIR": 242.92476, "RENV": 180.0, "PENV": 1007.0, "VALIDT": 0, "DTG": "2025-11-22 06:00", "LATNOW": -14.5, "LONNOW": 127.7, "WINDNOW": 85.0, "DIRNOW": 1.0, "SPDNOW": 4.0, "TECH": "TRAK", "ADVNR": 27, "ATCFID": "SH052026", "NAME": "FINA", "FTECH": "JTWC", "FCST_DTG": "2025-11-24 18:00:00", "RUN_DTG": "2025-11-25 09:11:26", "BASIN": "SH", "STMNR": 5, "CAT_ID": null, "CAT_DESC": null, "MSGID": "WTXS51 PGTW 242100", "VALIDTIME": "2025-11-22 06:00:00" }, "geometry": { "type": "Point", "coordinates": [ 131.0, -11.9 ] } },
{ "type": "Feature", "properties": { "ID": 79852, "LAT": -12.1, "LON": 130.6, "VMAX": 85.0, "MSLP": 964.0, "RMAX": 5.0, "FSPD": 4.30781, "FDIR": 249.00641, "RENV": 170.0, "PENV": 1004.0, "VALIDT": 0, "DTG": "2025-11-22 12:00", "LATNOW": -14.5, "LONNOW": 127.7, "WINDNOW": 85.0, "DIRNOW": 1.0, "SPDNOW": 4.0, "TECH": "TRAK", "ADVNR": 27, "ATCFID": "SH052026", "NAME": "FINA", "FTECH": "JTWC", "FCST_DTG": "2025-11-24 18:00:00", "RUN_DTG": "2025-11-25 09:11:26", "BASIN": "SH", "STMNR": 5, "CAT_ID": null, "CAT_DESC": null, "MSGID": "WTXS51 PGTW 242100", "VALIDTIME": "2025-11-22 12:00:00" }, "geometry": { "type": "Point", "coordinates": [ 130.600006, -12.1 ] } },
{ "type": "Feature", "properties": { "ID": 79853, "LAT": -12.4, "LON": 129.8, "VMAX": 90.0, "MSLP": 967.0, "RMAX": 12.0, "FSPD": 2.11815, "FDIR": 193.71185, "RENV": 170.0, "PENV": 1004.0, "VALIDT": 0, "DTG": "2025-11-22 18:00", "LATNOW": -14.5, "LONNOW": 127.7, "WINDNOW": 85.0, "DIRNOW": 1.0, "SPDNOW": 4.0, "TECH": "TRAK", "ADVNR": 27, "ATCFID": "SH052026", "NAME": "FINA", "FTECH": "JTWC", "FCST_DTG": "2025-11-24 18:00:00", "RUN_DTG": "2025-11-25 09:11:26", "BASIN": "SH", "STMNR": 5, "CAT_ID": null, "CAT_DESC": null, "MSGID": "WTXS51 PGTW 242100", "VALIDTIME": "2025-11-22 18:00:00" }, "geometry": { "type": "Point", "coordinates": [ 129.800003, -12.4 ] } },
{ "type": "Feature", "properties": { "ID": 79854, "LAT": -12.8, "LON": 129.7, "VMAX": 100.0, "MSLP": 964.0, "RMAX": 12.0, "FSPD": 2.87306, "FDIR": 224.25581, "RENV": 170.0, "PENV": 1004.0, "VALIDT": 0, "DTG": "2025-11-23 00:00", "LATNOW": -14.5, "LONNOW": 127.7, "WINDNOW": 85.0, "DIRNOW": 1.0, "SPDNOW": 4.0, "TECH": "TRAK", "ADVNR": 27, "ATCFID": "SH052026", "NAME": "FINA", "FTECH": "JTWC", "FCST_DTG": "2025-11-24 18:00:00", "RUN_DTG": "2025-11-25 09:11:26", "BASIN": "SH", "STMNR": 5, "CAT_ID": null, "CAT_DESC": null, "MSGID": "WTXS51 PGTW 242100", "VALIDTIME": "2025-11-23 00:00:00" }, "geometry": { "type": "Point", "coordinates": [ 129.699997, -12.8 ] } },
{ "type": "Feature", "properties": { "ID": 79855, "LAT": -13.2, "LON": 129.3, "VMAX": 90.0, "MSLP": 956.0, "RMAX": 12.0, "FSPD": 2.87083, "FDIR": 224.20996, "RENV": 170.0, "PENV": 1004.0, "VALIDT": 0, "DTG": "2025-11-23 06:00", "LATNOW": -14.5, "LONNOW": 127.7, "WINDNOW": 85.0, "DIRNOW": 1.0, "SPDNOW": 4.0, "TECH": "TRAK", "ADVNR": 27, "ATCFID": "SH052026", "NAME": "FINA", "FTECH": "JTWC", "FCST_DTG": "2025-11-24 18:00:00", "RUN_DTG": "2025-11-25 09:11:26", "BASIN": "SH", "STMNR": 5, "CAT_ID": null, "CAT_DESC": null, "MSGID": "WTXS51 PGTW 242100", "VALIDTIME": "2025-11-23 06:00:00" }, "geometry": { "type": "Point", "coordinates": [ 129.300003, -13.2 ] } },
{ "type": "Feature", "properties": { "ID": 79856, "LAT": -13.6, "LON": 128.9, "VMAX": 95.0, "MSLP": 964.0, "RMAX": 5.0, "FSPD": 2.52527, "FDIR": 232.3269, "RENV": 170.0, "PENV": 1004.0, "VALIDT": 0, "DTG": "2025-11-23 12:00", "LATNOW": -14.5, "LONNOW": 127.7, "WINDNOW": 85.0, "DIRNOW": 1.0, "SPDNOW": 4.0, "TECH": "TRAK", "ADVNR": 27, "ATCFID": "SH052026", "NAME": "FINA", "FTECH": "JTWC", "FCST_DTG": "2025-11-24 18:00:00", "RUN_DTG": "2025-11-25 09:11:26", "BASIN": "SH", "STMNR": 5, "CAT_ID": null, "CAT_DESC": null, "MSGID": "WTXS51 PGTW 242100", "VALIDTIME": "2025-11-23 12:00:00" }, "geometry": { "type": "Point", "coordinates": [ 128.899994, -13.6 ] } },
{ "type": "Feature", "properties": { "ID": 79857, "LAT": -13.9, "LON": 128.5, "VMAX": 105.0, "MSLP": 960.0, "RMAX": 6.0, "FSPD": 1.8169, "FDIR": 235.50812, "RENV": 170.0, "PENV": 1004.0, "VALIDT": 0, "DTG": "2025-11-23 18:00", "LATNOW": -14.5, "LONNOW": 127.7, "WINDNOW": 85.0, "DIRNOW": 1.0, "SPDNOW": 4.0, "TECH": "TRAK", "ADVNR": 27, "ATCFID": "SH052026", "NAME": "FINA", "FTECH": "JTWC", "FCST_DTG": "2025-11-24 18:00:00", "RUN_DTG": "2025-11-25 09:11:26", "BASIN": "SH", "STMNR": 5, "CAT_ID": null, "CAT_DESC": null, "MSGID": "WTXS51 PGTW 242100", "VALIDTIME": "2025-11-23 18:00:00" }, "geometry": { "type": "Point", "coordinates": [ 128.5, -13.9 ] } },
{ "type": "Feature", "properties": { "ID": 79858, "LAT": -14.1, "LON": 128.2, "VMAX": 100.0, "MSLP": 958.0, "RMAX": 5.0, "FSPD": 1.433, "FDIR": 224.11072, "RENV": 170.0, "PENV": 1004.0, "VALIDT": 0, "DTG": "2025-11-24 00:00", "LATNOW": -14.5, "LONNOW": 127.7, "WINDNOW": 85.0, "DIRNOW": 1.0, "SPDNOW": 4.0, "TECH": "TRAK", "ADVNR": 27, "ATCFID": "SH052026", "NAME": "FINA", "FTECH": "JTWC", "FCST_DTG": "2025-11-24 18:00:00", "RUN_DTG": "2025-11-25 09:11:26", "BASIN": "SH", "STMNR": 5, "CAT_ID": null, "CAT_DESC": null, "MSGID": "WTXS51 PGTW 242100", "VALIDTIME": "2025-11-24 00:00:00" }, "geometry": { "type": "Point", "coordinates": [ 128.199997, -14.1 ] } },
{ "type": "Feature", "properties": { "ID": 79859, "LAT": -14.3, "LON": 128.0, "VMAX": 110.0, "MSLP": 960.0, "RMAX": 5.0, "FSPD": 0.71627, "FDIR": 224.09178, "RENV": 170.0, "PENV": 1004.0, "VALIDT": 0, "DTG": "2025-11-24 06:00", "LATNOW": -14.5, "LONNOW": 127.7, "WINDNOW": 85.0, "DIRNOW": 1.0, "SPDNOW": 4.0, "TECH": "TRAK", "ADVNR": 27, "ATCFID": "SH052026", "NAME": "FINA", "FTECH": "JTWC", "FCST_DTG": "2025-11-24 18:00:00", "RUN_DTG": "2025-11-25 09:11:26", "BASIN": "SH", "STMNR": 5, "CAT_ID": null, "CAT_DESC": null, "MSGID": "WTXS51 PGTW 242100", "VALIDTIME": "2025-11-24 06:00:00" }, "geometry": { "type": "Point", "coordinates": [ 128.0, -14.3 ] } },
{ "type": "Feature", "properties": { "ID": 79860, "LAT": -14.4, "LON": 127.9, "VMAX": 100.0, "MSLP": 946.0, "RMAX": 6.0, "FSPD": 1.12145, "FDIR": 242.69482, "RENV": 170.0, "PENV": 1004.0, "VALIDT": 0, "DTG": "2025-11-24 12:00", "LATNOW": -14.5, "LONNOW": 127.7, "WINDNOW": 85.0, "DIRNOW": 1.0, "SPDNOW": 4.0, "TECH": "TRAK", "ADVNR": 27, "ATCFID": "SH052026", "NAME": "FINA", "FTECH": "JTWC", "FCST_DTG": "2025-11-24 18:00:00", "RUN_DTG": "2025-11-25 09:11:26", "BASIN": "SH", "STMNR": 5, "CAT_ID": null, "CAT_DESC": null, "MSGID": "WTXS51 PGTW 242100", "VALIDTIME": "2025-11-24 12:00:00" }, "geometry": { "type": "Point", "coordinates": [ 127.900002, -14.4 ] } },
{ "type": "Feature", "properties": { "ID": 79861, "LAT": -14.44, "LON": 127.82, "VMAX": 100.0, "MSLP": 946.0, "RMAX": 6.0, "FSPD": 1.12126, "FDIR": 242.68939, "RENV": 170.0, "PENV": 1004.0, "VALIDT": 0, "DTG": "2025-11-24 14:00", "LATNOW": -14.5, "LONNOW": 127.7, "WINDNOW": 85.0, "DIRNOW": 1.0, "SPDNOW": 4.0, "TECH": "TRAK", "ADVNR": 27, "ATCFID": "SH052026", "NAME": "FINA", "FTECH": "JTWC", "FCST_DTG": "2025-11-24 18:00:00", "RUN_DTG": "2025-11-25 09:11:26", "BASIN": "SH", "STMNR": 5, "CAT_ID": null, "CAT_DESC": null, "MSGID": "WTXS51 PGTW 242100", "VALIDTIME": "2025-11-24 14:00:00" }, "geometry": { "type": "Point", "coordinates": [ 127.82, -14.44 ] } },
{ "type": "Feature", "properties": { "ID": 79862, "LAT": -14.5, "LON": 127.7, "VMAX": 85.0, "MSLP": 978.1209, "RMAX": 29.68459, "FSPD": 0.90679, "FDIR": 235.43616, "RENV": 445.2689, "PENV": 1012.0, "VALIDT": 0, "DTG": "2025-11-24 18:00", "LATNOW": -14.5, "LONNOW": 127.7, "WINDNOW": 85.0, "DIRNOW": 1.0, "SPDNOW": 4.0, "TECH": "TRAK", "ADVNR": 27, "ATCFID": "SH052026", "NAME": "FINA", "FTECH": "JTWC", "FCST_DTG": "2025-11-24 18:00:00", "RUN_DTG": "2025-11-25 09:11:26", "BASIN": "SH", "STMNR": 5, "CAT_ID": null, "CAT_DESC": null, "MSGID": "WTXS51 PGTW 242100", "VALIDTIME": "2025-11-24 18:00:00" }, "geometry": { "type": "Point", "coordinates": [ 127.699997, -14.5 ] } },
{ "type": "Feature", "properties": { "ID": 79863, "LAT": -14.7, "LON": 127.4, "VMAX": 55.0, "MSLP": 999.55927, "RMAX": 37.26371, "FSPD": 0.91801, "FDIR": 212.79826, "RENV": 250.0, "PENV": 1012.0, "VALIDT": 12, "DTG": "2025-11-25 06:00", "LATNOW": -14.5, "LONNOW": 127.7, "WINDNOW": 85.0, "DIRNOW": 1.0, "SPDNOW": 4.0, "TECH": "FCST", "ADVNR": 27, "ATCFID": "SH052026", "NAME": "FINA", "FTECH": "JTWC", "FCST_DTG": "2025-11-24 18:00:00", "RUN_DTG": "2025-11-25 09:11:26", "BASIN": "SH", "STMNR": 5, "CAT_ID": null, "CAT_DESC": null, "MSGID": "WTXS51 PGTW 242100", "VALIDTIME": "2025-11-25 06:00:00" }, "geometry": { "type": "Point", "coordinates": [ 127.400002, -14.7 ] } },
{ "type": "Feature", "properties": { "ID": 79864, "LAT": -15.0, "LON": 127.2, "VMAX": 40.0, "MSLP": 1006.833, "RMAX": 41.26637, "FSPD": 1.56315, "FDIR": 189.13254, "RENV": 250.0, "PENV": 1012.0, "VALIDT": 24, "DTG": "2025-11-25 18:00", "LATNOW": -14.5, "LONNOW": 127.7, "WINDNOW": 85.0, "DIRNOW": 1.0, "SPDNOW": 4.0, "TECH": "FCST", "ADVNR": 27, "ATCFID": "SH052026", "NAME": "FINA", "FTECH": "JTWC", "FCST_DTG": "2025-11-24 18:00:00", "RUN_DTG": "2025-11-25 09:11:26", "BASIN": "SH", "STMNR": 5, "CAT_ID": null, "CAT_DESC": null, "MSGID": "WTXS51 PGTW 242100", "VALIDTIME": "2025-11-25 18:00:00" }, "geometry": { "type": "Point", "coordinates": [ 127.199997, -15.0 ] } },
{ "type": "Feature", "properties": { "ID": 79865, "LAT": -15.6, "LON": 127.1, "VMAX": 30.0, "MSLP": 1010.40607, "RMAX": 44.21983, "FSPD": 1.56315, "FDIR": 189.13254, "RENV": 250.0, "PENV": 1012.0, "VALIDT": 36, "DTG": "2025-11-26 06:00", "LATNOW": -14.5, "LONNOW": 127.7, "WINDNOW": 85.0, "DIRNOW": 1.0, "SPDNOW": 4.0, "TECH": "FCST", "ADVNR": 27, "ATCFID": "SH052026", "NAME": "FINA", "FTECH": "JTWC", "FCST_DTG": "2025-11-24 18:00:00", "RUN_DTG": "2025-11-25 09:11:26", "BASIN": "SH", "STMNR": 5, "CAT_ID": null, "CAT_DESC": null, "MSGID": "WTXS51 PGTW 242100", "VALIDTIME": "2025-11-26 06:00:00" }, "geometry": { "type": "Point", "coordinates": [ 127.099998, -15.6 ] } },
{ "type": "Feature", "properties": { "ID": 79862, "LAT": -14.5, "LON": 127.7, "VMAX": 85.0, "MSLP": 978.1209, "RMAX": 29.68459, "FSPD": 0.90679, "FDIR": 235.43616, "RENV": 445.2689, "PENV": 1012.0, "VALIDT": 0, "DTG": "2025-11-24 18:00", "LATNOW": -14.5, "LONNOW": 127.7, "WINDNOW": 85.0, "DIRNOW": 1.0, "SPDNOW": 4.0, "TECH": "TRAK", "ADVNR": 27, "ATCFID": "SH052026", "NAME": "FINA", "FTECH": "JTWC", "FCST_DTG": "2025-11-24 18:00:00", "RUN_DTG": "2025-11-25 09:11:26", "BASIN": "SH", "STMNR": 5, "CAT_ID": null, "CAT_DESC": null, "MSGID": "WTXS51 PGTW 242100", "VALIDTIME": "2025-11-24 18:00:00" }, "geometry": { "type": "LineString", "coordinates": [ [ 115.4, -10.5 ], [ 115.6, -10.5 ], [ 116.1, -10.6 ], [ 116.6, -10.8 ], [ 117.0, -10.9 ], [ 117.9, -11.4 ], [ 118.7, -12.1 ], [ 119.6, -12.1 ], [ 121.1, -11.9 ], [ 122.4, -11.6 ], [ 123.9, -11.5 ], [ 125.2, -11.5 ], [ 126.2, -11.5 ], [ 126.8, -11.4 ], [ 127.4, -11.1 ], [ 127.9, -11.0 ], [ 128.4, -11.0 ], [ 129.0, -10.9 ], [ 129.7, -10.7 ], [ 130.1, -10.5 ], [ 130.5, -10.2 ], [ 130.8, -10.0 ], [ 131.2, -9.9 ], [ 131.8, -9.8 ], [ 132.4, -9.5 ], [ 132.6, -9.7 ], [ 132.6, -9.5 ], [ 133.0, -9.5 ], [ 133.2, -9.8 ], [ 133.3, -10.0 ], [ 133.3, -10.1 ], [ 133.0, -10.4 ], [ 132.5, -10.3 ], [ 132.4, -10.7 ], [ 132.2, -11.1 ], [ 131.8, -11.7 ], [ 131.4, -11.8 ], [ 131.0, -11.9 ], [ 130.6, -12.1 ], [ 129.8, -12.4 ], [ 129.7, -12.8 ], [ 129.3, -13.2 ], [ 128.9, -13.6 ], [ 128.5, -13.9 ], [ 128.2, -14.1 ], [ 128.0, -14.3 ], [ 127.9, -14.4 ], [ 127.82, -14.44 ], [ 127.7, -14.5 ] ] } },
{ "type": "Feature", "properties": { "ID": 79865, "LAT": -15.6, "LON": 127.1, "VMAX": 30.0, "MSLP": 1010.40607, "RMAX": 44.21983, "FSPD": 1.56315, "FDIR": 189.13254, "RENV": 250.0, "PENV": 1012.0, "VALIDT": 36, "DTG": "2025-11-26 06:00", "LATNOW": -14.5, "LONNOW": 127.7, "WINDNOW": 85.0, "DIRNOW": 1.0, "SPDNOW": 4.0, "TECH": "FCST", "ADVNR": 27, "ATCFID": "SH052026", "NAME": "FINA", "FTECH": "JTWC", "FCST_DTG": "2025-11-24 18:00:00", "RUN_DTG": "2025-11-25 09:11:26", "BASIN": "SH", "STMNR": 5, "CAT_ID": null, "CAT_DESC": null, "MSGID": "WTXS51 PGTW 242100", "VALIDTIME": "2025-11-26 06:00:00" }, "geometry": { "type": "LineString", "coordinates": [ [ 127.7, -14.5 ], [ 127.4, -14.7 ], [ 127.2, -15.0 ], [ 127.1, -15.6 ] ] } }
]
}
