{
"type": "FeatureCollection",
"crs": { "type": "name", "properties": { "name": "urn:ogc:def:crs:OGC:1.3:CRS84" } },
"features": [
{ "type": "Feature", "properties": { "ID": 244676, "LAT": 14.5, "LON": -111.1, "VMAX": 25.0, "MSLP": 1010.0, "RMAX": 60.0, "FSPD": 2.49029, "FDIR": 269.99997, "RENV": 150.0, "PENV": 1011.0, "VALIDT": 0, "DTG": "2024-08-22 06:00", "LATNOW": 16.9, "LONNOW": -134.8, "WINDNOW": 30.0, "DIRNOW": 6.0, "SPDNOW": 3.0, "TECH": "TRAK", "ADVNR": 15, "ATCFID": "EP082024", "NAME": "HECTOR", "FTECH": "OFCL", "FCST_DTG": "2024-08-29 06:00:00", "RUN_DTG": "2024-08-29 22:12:25", "BASIN": "EP", "STMNR": 8, "CAT_ID": null, "CAT_DESC": null, "MSGID": "WTPZ23 KNHC 290834", "VALIDTIME": "2024-08-22 06:00:00" }, "geometry": { "type": "Point", "coordinates": [ -111.099998, 14.5 ] } },
{ "type": "Feature", "properties": { "ID": 244677, "LAT": 14.5, "LON": -111.6, "VMAX": 25.0, "MSLP": 1009.0, "RMAX": 60.0, "FSPD": 3.25488, "FDIR": 217.78952, "RENV": 180.0, "PENV": 1011.0, "VALIDT": 0, "DTG": "2024-08-22 12:00", "LATNOW": 16.9, "LONNOW": -134.8, "WINDNOW": 30.0, "DIRNOW": 6.0, "SPDNOW": 3.0, "TECH": "TRAK", "ADVNR": 15, "ATCFID": "EP082024", "NAME": "HECTOR", "FTECH": "OFCL", "FCST_DTG": "2024-08-29 06:00:00", "RUN_DTG": "2024-08-29 22:12:25", "BASIN": "EP", "STMNR": 8, "CAT_ID": null, "CAT_DESC": null, "MSGID": "WTPZ23 KNHC 290834", "VALIDTIME": "2024-08-22 12:00:00" }, "geometry": { "type": "Point", "coordinates": [ -111.599998, 14.5 ] } },
{ "type": "Feature", "properties": { "ID": 244678, "LAT": 14.0, "LON": -112.0, "VMAX": 25.0, "MSLP": 1009.0, "RMAX": 90.0, "FSPD": 1.58371, "FDIR": 251.04437, "RENV": 180.0, "PENV": 1011.0, "VALIDT": 0, "DTG": "2024-08-22 18:00", "LATNOW": 16.9, "LONNOW": -134.8, "WINDNOW": 30.0, "DIRNOW": 6.0, "SPDNOW": 3.0, "TECH": "TRAK", "ADVNR": 15, "ATCFID": "EP082024", "NAME": "HECTOR", "FTECH": "OFCL", "FCST_DTG": "2024-08-29 06:00:00", "RUN_DTG": "2024-08-29 22:12:25", "BASIN": "EP", "STMNR": 8, "CAT_ID": null, "CAT_DESC": null, "MSGID": "WTPZ23 KNHC 290834", "VALIDTIME": "2024-08-22 18:00:00" }, "geometry": { "type": "Point", "coordinates": [ -112.0, 14.0 ] } },
{ "type": "Feature", "properties": { "ID": 244679, "LAT": 13.9, "LON": -112.3, "VMAX": 25.0, "MSLP": 1008.0, "RMAX": 90.0, "FSPD": 2.4969, "FDIR": 269.99997, "RENV": 180.0, "PENV": 1011.0, "VALIDT": 0, "DTG": "2024-08-23 00:00", "LATNOW": 16.9, "LONNOW": -134.8, "WINDNOW": 30.0, "DIRNOW": 6.0, "SPDNOW": 3.0, "TECH": "TRAK", "ADVNR": 15, "ATCFID": "EP082024", "NAME": "HECTOR", "FTECH": "OFCL", "FCST_DTG": "2024-08-29 06:00:00", "RUN_DTG": "2024-08-29 22:12:25", "BASIN": "EP", "STMNR": 8, "CAT_ID": null, "CAT_DESC": null, "MSGID": "WTPZ23 KNHC 290834", "VALIDTIME": "2024-08-23 00:00:00" }, "geometry": { "type": "Point", "coordinates": [ -112.300003, 13.9 ] } },
{ "type": "Feature", "properties": { "ID": 244680, "LAT": 13.9, "LON": -112.8, "VMAX": 30.0, "MSLP": 1007.0, "RMAX": 90.0, "FSPD": 2.52322, "FDIR": 307.70908, "RENV": 180.0, "PENV": 1011.0, "VALIDT": 0, "DTG": "2024-08-23 06:00", "LATNOW": 16.9, "LONNOW": -134.8, "WINDNOW": 30.0, "DIRNOW": 6.0, "SPDNOW": 3.0, "TECH": "TRAK", "ADVNR": 15, "ATCFID": "EP082024", "NAME": "HECTOR", "FTECH": "OFCL", "FCST_DTG": "2024-08-29 06:00:00", "RUN_DTG": "2024-08-29 22:12:25", "BASIN": "EP", "STMNR": 8, "CAT_ID": null, "CAT_DESC": null, "MSGID": "WTPZ23 KNHC 290834", "VALIDTIME": "2024-08-23 06:00:00" }, "geometry": { "type": "Point", "coordinates": [ -112.800003, 13.9 ] } },
{ "type": "Feature", "properties": { "ID": 244681, "LAT": 14.2, "LON": -113.2, "VMAX": 30.0, "MSLP": 1007.0, "RMAX": 80.0, "FSPD": 5.21742, "FDIR": 287.20575, "RENV": 180.0, "PENV": 1011.0, "VALIDT": 0, "DTG": "2024-08-23 12:00", "LATNOW": 16.9, "LONNOW": -134.8, "WINDNOW": 30.0, "DIRNOW": 6.0, "SPDNOW": 3.0, "TECH": "TRAK", "ADVNR": 15, "ATCFID": "EP082024", "NAME": "HECTOR", "FTECH": "OFCL", "FCST_DTG": "2024-08-29 06:00:00", "RUN_DTG": "2024-08-29 22:12:25", "BASIN": "EP", "STMNR": 8, "CAT_ID": null, "CAT_DESC": null, "MSGID": "WTPZ23 KNHC 290834", "VALIDTIME": "2024-08-23 12:00:00" }, "geometry": { "type": "Point", "coordinates": [ -113.199997, 14.2 ] } },
{ "type": "Feature", "properties": { "ID": 244682, "LAT": 14.5, "LON": -114.2, "VMAX": 30.0, "MSLP": 1007.0, "RMAX": 80.0, "FSPD": 3.94036, "FDIR": 310.7522, "RENV": 180.0, "PENV": 1011.0, "VALIDT": 0, "DTG": "2024-08-23 18:00", "LATNOW": 16.9, "LONNOW": -134.8, "WINDNOW": 30.0, "DIRNOW": 6.0, "SPDNOW": 3.0, "TECH": "TRAK", "ADVNR": 15, "ATCFID": "EP082024", "NAME": "HECTOR", "FTECH": "OFCL", "FCST_DTG": "2024-08-29 06:00:00", "RUN_DTG": "2024-08-29 22:12:25", "BASIN": "EP", "STMNR": 8, "CAT_ID": null, "CAT_DESC": null, "MSGID": "WTPZ23 KNHC 290834", "VALIDTIME": "2024-08-23 18:00:00" }, "geometry": { "type": "Point", "coordinates": [ -114.199997, 14.5 ] } },
{ "type": "Feature", "properties": { "ID": 244683, "LAT": 15.0, "LON": -114.8, "VMAX": 30.0, "MSLP": 1007.0, "RMAX": 80.0, "FSPD": 4.37272, "FDIR": 325.44073, "RENV": 180.0, "PENV": 1011.0, "VALIDT": 0, "DTG": "2024-08-24 00:00", "LATNOW": 16.9, "LONNOW": -134.8, "WINDNOW": 30.0, "DIRNOW": 6.0, "SPDNOW": 3.0, "TECH": "TRAK", "ADVNR": 15, "ATCFID": "EP082024", "NAME": "HECTOR", "FTECH": "OFCL", "FCST_DTG": "2024-08-29 06:00:00", "RUN_DTG": "2024-08-29 22:12:25", "BASIN": "EP", "STMNR": 8, "CAT_ID": null, "CAT_DESC": null, "MSGID": "WTPZ23 KNHC 290834", "VALIDTIME": "2024-08-24 00:00:00" }, "geometry": { "type": "Point", "coordinates": [ -114.800003, 15.0 ] } },
{ "type": "Feature", "properties": { "ID": 244684, "LAT": 15.7, "LON": -115.3, "VMAX": 30.0, "MSLP": 1007.0, "RMAX": 80.0, "FSPD": 3.50387, "FDIR": 278.4428, "RENV": 180.0, "PENV": 1011.0, "VALIDT": 0, "DTG": "2024-08-24 06:00", "LATNOW": 16.9, "LONNOW": -134.8, "WINDNOW": 30.0, "DIRNOW": 6.0, "SPDNOW": 3.0, "TECH": "TRAK", "ADVNR": 15, "ATCFID": "EP082024", "NAME": "HECTOR", "FTECH": "OFCL", "FCST_DTG": "2024-08-29 06:00:00", "RUN_DTG": "2024-08-29 22:12:25", "BASIN": "EP", "STMNR": 8, "CAT_ID": null, "CAT_DESC": null, "MSGID": "WTPZ23 KNHC 290834", "VALIDTIME": "2024-08-24 06:00:00" }, "geometry": { "type": "Point", "coordinates": [ -115.300003, 15.7 ] } },
{ "type": "Feature", "properties": { "ID": 244685, "LAT": 15.8, "LON": -116.0, "VMAX": 30.0, "MSLP": 1006.0, "RMAX": 80.0, "FSPD": 7.44108, "FDIR": 273.9643, "RENV": 190.0, "PENV": 1010.0, "VALIDT": 0, "DTG": "2024-08-24 12:00", "LATNOW": 16.9, "LONNOW": -134.8, "WINDNOW": 30.0, "DIRNOW": 6.0, "SPDNOW": 3.0, "TECH": "TRAK", "ADVNR": 15, "ATCFID": "EP082024", "NAME": "HECTOR", "FTECH": "OFCL", "FCST_DTG": "2024-08-29 06:00:00", "RUN_DTG": "2024-08-29 22:12:25", "BASIN": "EP", "STMNR": 8, "CAT_ID": null, "CAT_DESC": null, "MSGID": "WTPZ23 KNHC 290834", "VALIDTIME": "2024-08-24 12:00:00" }, "geometry": { "type": "Point", "coordinates": [ -116.0, 15.8 ] } },
{ "type": "Feature", "properties": { "ID": 244686, "LAT": 15.9, "LON": -117.5, "VMAX": 30.0, "MSLP": 1006.0, "RMAX": 80.0, "FSPD": 5.65306, "FDIR": 285.8434, "RENV": 190.0, "PENV": 1010.0, "VALIDT": 0, "DTG": "2024-08-24 18:00", "LATNOW": 16.9, "LONNOW": -134.8, "WINDNOW": 30.0, "DIRNOW": 6.0, "SPDNOW": 3.0, "TECH": "TRAK", "ADVNR": 15, "ATCFID": "EP082024", "NAME": "HECTOR", "FTECH": "OFCL", "FCST_DTG": "2024-08-29 06:00:00", "RUN_DTG": "2024-08-29 22:12:25", "BASIN": "EP", "STMNR": 8, "CAT_ID": null, "CAT_DESC": null, "MSGID": "WTPZ23 KNHC 290834", "VALIDTIME": "2024-08-24 18:00:00" }, "geometry": { "type": "Point", "coordinates": [ -117.5, 15.9 ] } },
{ "type": "Feature", "properties": { "ID": 244687, "LAT": 16.2, "LON": -118.6, "VMAX": 30.0, "MSLP": 1006.0, "RMAX": 80.0, "FSPD": 6.93361, "FDIR": 274.25494, "RENV": 200.0, "PENV": 1010.0, "VALIDT": 0, "DTG": "2024-08-25 00:00", "LATNOW": 16.9, "LONNOW": -134.8, "WINDNOW": 30.0, "DIRNOW": 6.0, "SPDNOW": 3.0, "TECH": "TRAK", "ADVNR": 15, "ATCFID": "EP082024", "NAME": "HECTOR", "FTECH": "OFCL", "FCST_DTG": "2024-08-29 06:00:00", "RUN_DTG": "2024-08-29 22:12:25", "BASIN": "EP", "STMNR": 8, "CAT_ID": null, "CAT_DESC": null, "MSGID": "WTPZ23 KNHC 290834", "VALIDTIME": "2024-08-25 00:00:00" }, "geometry": { "type": "Point", "coordinates": [ -118.599998, 16.200001 ] } },
{ "type": "Feature", "properties": { "ID": 244688, "LAT": 16.3, "LON": -120.0, "VMAX": 30.0, "MSLP": 1006.0, "RMAX": 60.0, "FSPD": 5.17683, "FDIR": 252.6551, "RENV": 200.0, "PENV": 1010.0, "VALIDT": 0, "DTG": "2024-08-25 06:00", "LATNOW": 16.9, "LONNOW": -134.8, "WINDNOW": 30.0, "DIRNOW": 6.0, "SPDNOW": 3.0, "TECH": "TRAK", "ADVNR": 15, "ATCFID": "EP082024", "NAME": "HECTOR", "FTECH": "OFCL", "FCST_DTG": "2024-08-29 06:00:00", "RUN_DTG": "2024-08-29 22:12:25", "BASIN": "EP", "STMNR": 8, "CAT_ID": null, "CAT_DESC": null, "MSGID": "WTPZ23 KNHC 290834", "VALIDTIME": "2024-08-25 06:00:00" }, "geometry": { "type": "Point", "coordinates": [ -120.0, 16.299999 ] } },
{ "type": "Feature", "properties": { "ID": 244689, "LAT": 16.0, "LON": -121.0, "VMAX": 30.0, "MSLP": 1006.0, "RMAX": 60.0, "FSPD": 4.97307, "FDIR": 264.06232, "RENV": 200.0, "PENV": 1010.0, "VALIDT": 0, "DTG": "2024-08-25 12:00", "LATNOW": 16.9, "LONNOW": -134.8, "WINDNOW": 30.0, "DIRNOW": 6.0, "SPDNOW": 3.0, "TECH": "TRAK", "ADVNR": 15, "ATCFID": "EP082024", "NAME": "HECTOR", "FTECH": "OFCL", "FCST_DTG": "2024-08-29 06:00:00", "RUN_DTG": "2024-08-29 22:12:25", "BASIN": "EP", "STMNR": 8, "CAT_ID": null, "CAT_DESC": null, "MSGID": "WTPZ23 KNHC 290834", "VALIDTIME": "2024-08-25 12:00:00" }, "geometry": { "type": "Point", "coordinates": [ -121.0, 16.0 ] } },
{ "type": "Feature", "properties": { "ID": 244690, "LAT": 15.9, "LON": -122.0, "VMAX": 40.0, "MSLP": 1003.0, "RMAX": 50.0, "FSPD": 4.70959, "FDIR": 289.1293, "RENV": 200.0, "PENV": 1013.0, "VALIDT": 0, "DTG": "2024-08-25 18:00", "LATNOW": 16.9, "LONNOW": -134.8, "WINDNOW": 30.0, "DIRNOW": 6.0, "SPDNOW": 3.0, "TECH": "TRAK", "ADVNR": 15, "ATCFID": "EP082024", "NAME": "HECTOR", "FTECH": "OFCL", "FCST_DTG": "2024-08-29 06:00:00", "RUN_DTG": "2024-08-29 22:12:25", "BASIN": "EP", "STMNR": 8, "CAT_ID": null, "CAT_DESC": null, "MSGID": "WTPZ23 KNHC 290834", "VALIDTIME": "2024-08-25 18:00:00" }, "geometry": { "type": "Point", "coordinates": [ -122.0, 15.9 ] } },
{ "type": "Feature", "properties": { "ID": 244691, "LAT": 16.2, "LON": -122.9, "VMAX": 40.0, "MSLP": 1001.0, "RMAX": 50.0, "FSPD": 2.47009, "FDIR": 269.99997, "RENV": 200.0, "PENV": 1013.0, "VALIDT": 0, "DTG": "2024-08-26 00:00", "LATNOW": 16.9, "LONNOW": -134.8, "WINDNOW": 30.0, "DIRNOW": 6.0, "SPDNOW": 3.0, "TECH": "TRAK", "ADVNR": 15, "ATCFID": "EP082024", "NAME": "HECTOR", "FTECH": "OFCL", "FCST_DTG": "2024-08-29 06:00:00", "RUN_DTG": "2024-08-29 22:12:25", "BASIN": "EP", "STMNR": 8, "CAT_ID": null, "CAT_DESC": null, "MSGID": "WTPZ23 KNHC 290834", "VALIDTIME": "2024-08-26 00:00:00" }, "geometry": { "type": "Point", "coordinates": [ -122.900002, 16.200001 ] } },
{ "type": "Feature", "properties": { "ID": 244692, "LAT": 16.2, "LON": -123.4, "VMAX": 40.0, "MSLP": 1001.0, "RMAX": 50.0, "FSPD": 5.45985, "FDIR": 264.59335, "RENV": 200.0, "PENV": 1013.0, "VALIDT": 0, "DTG": "2024-08-26 06:00", "LATNOW": 16.9, "LONNOW": -134.8, "WINDNOW": 30.0, "DIRNOW": 6.0, "SPDNOW": 3.0, "TECH": "TRAK", "ADVNR": 15, "ATCFID": "EP082024", "NAME": "HECTOR", "FTECH": "OFCL", "FCST_DTG": "2024-08-29 06:00:00", "RUN_DTG": "2024-08-29 22:12:25", "BASIN": "EP", "STMNR": 8, "CAT_ID": null, "CAT_DESC": null, "MSGID": "WTPZ23 KNHC 290834", "VALIDTIME": "2024-08-26 06:00:00" }, "geometry": { "type": "Point", "coordinates": [ -123.400002, 16.200001 ] } },
{ "type": "Feature", "properties": { "ID": 244693, "LAT": 16.1, "LON": -124.5, "VMAX": 40.0, "MSLP": 1001.0, "RMAX": 50.0, "FSPD": 4.70534, "FDIR": 289.1471, "RENV": 150.0, "PENV": 1012.0, "VALIDT": 0, "DTG": "2024-08-26 12:00", "LATNOW": 16.9, "LONNOW": -134.8, "WINDNOW": 30.0, "DIRNOW": 6.0, "SPDNOW": 3.0, "TECH": "TRAK", "ADVNR": 15, "ATCFID": "EP082024", "NAME": "HECTOR", "FTECH": "OFCL", "FCST_DTG": "2024-08-29 06:00:00", "RUN_DTG": "2024-08-29 22:12:25", "BASIN": "EP", "STMNR": 8, "CAT_ID": null, "CAT_DESC": null, "MSGID": "WTPZ23 KNHC 290834", "VALIDTIME": "2024-08-26 12:00:00" }, "geometry": { "type": "Point", "coordinates": [ -124.5, 16.1 ] } },
{ "type": "Feature", "properties": { "ID": 244694, "LAT": 16.4, "LON": -125.4, "VMAX": 45.0, "MSLP": 1000.0, "RMAX": 50.0, "FSPD": 4.23617, "FDIR": 291.36597, "RENV": 170.0, "PENV": 1014.0, "VALIDT": 0, "DTG": "2024-08-26 18:00", "LATNOW": 16.9, "LONNOW": -134.8, "WINDNOW": 30.0, "DIRNOW": 6.0, "SPDNOW": 3.0, "TECH": "TRAK", "ADVNR": 15, "ATCFID": "EP082024", "NAME": "HECTOR", "FTECH": "OFCL", "FCST_DTG": "2024-08-29 06:00:00", "RUN_DTG": "2024-08-29 22:12:25", "BASIN": "EP", "STMNR": 8, "CAT_ID": null, "CAT_DESC": null, "MSGID": "WTPZ23 KNHC 290834", "VALIDTIME": "2024-08-26 18:00:00" }, "geometry": { "type": "Point", "coordinates": [ -125.400002, 16.4 ] } },
{ "type": "Feature", "properties": { "ID": 244695, "LAT": 16.7, "LON": -126.2, "VMAX": 45.0, "MSLP": 1000.0, "RMAX": 50.0, "FSPD": 4.23044, "FDIR": 291.39618, "RENV": 170.0, "PENV": 1014.0, "VALIDT": 0, "DTG": "2024-08-27 00:00", "LATNOW": 16.9, "LONNOW": -134.8, "WINDNOW": 30.0, "DIRNOW": 6.0, "SPDNOW": 3.0, "TECH": "TRAK", "ADVNR": 15, "ATCFID": "EP082024", "NAME": "HECTOR", "FTECH": "OFCL", "FCST_DTG": "2024-08-29 06:00:00", "RUN_DTG": "2024-08-29 22:12:25", "BASIN": "EP", "STMNR": 8, "CAT_ID": null, "CAT_DESC": null, "MSGID": "WTPZ23 KNHC 290834", "VALIDTIME": "2024-08-27 00:00:00" }, "geometry": { "type": "Point", "coordinates": [ -126.199997, 16.700001 ] } },
{ "type": "Feature", "properties": { "ID": 244696, "LAT": 17.0, "LON": -127.0, "VMAX": 45.0, "MSLP": 1000.0, "RMAX": 50.0, "FSPD": 6.43233, "FDIR": 293.57123, "RENV": 170.0, "PENV": 1014.0, "VALIDT": 0, "DTG": "2024-08-27 06:00", "LATNOW": 16.9, "LONNOW": -134.8, "WINDNOW": 30.0, "DIRNOW": 6.0, "SPDNOW": 3.0, "TECH": "TRAK", "ADVNR": 15, "ATCFID": "EP082024", "NAME": "HECTOR", "FTECH": "OFCL", "FCST_DTG": "2024-08-29 06:00:00", "RUN_DTG": "2024-08-29 22:12:25", "BASIN": "EP", "STMNR": 8, "CAT_ID": null, "CAT_DESC": null, "MSGID": "WTPZ23 KNHC 290834", "VALIDTIME": "2024-08-27 06:00:00" }, "geometry": { "type": "Point", "coordinates": [ -127.0, 17.0 ] } },
{ "type": "Feature", "properties": { "ID": 244697, "LAT": 17.5, "LON": -128.2, "VMAX": 40.0, "MSLP": 1002.0, "RMAX": 50.0, "FSPD": 5.49128, "FDIR": 280.79922, "RENV": 150.0, "PENV": 1010.0, "VALIDT": 0, "DTG": "2024-08-27 12:00", "LATNOW": 16.9, "LONNOW": -134.8, "WINDNOW": 30.0, "DIRNOW": 6.0, "SPDNOW": 3.0, "TECH": "TRAK", "ADVNR": 15, "ATCFID": "EP082024", "NAME": "HECTOR", "FTECH": "OFCL", "FCST_DTG": "2024-08-29 06:00:00", "RUN_DTG": "2024-08-29 22:12:25", "BASIN": "EP", "STMNR": 8, "CAT_ID": null, "CAT_DESC": null, "MSGID": "WTPZ23 KNHC 290834", "VALIDTIME": "2024-08-27 12:00:00" }, "geometry": { "type": "Point", "coordinates": [ -128.199997, 17.5 ] } },
{ "type": "Feature", "properties": { "ID": 244698, "LAT": 17.7, "LON": -129.3, "VMAX": 45.0, "MSLP": 1001.0, "RMAX": 25.0, "FSPD": 6.22448, "FDIR": 289.3048, "RENV": 150.0, "PENV": 1011.0, "VALIDT": 0, "DTG": "2024-08-27 18:00", "LATNOW": 16.9, "LONNOW": -134.8, "WINDNOW": 30.0, "DIRNOW": 6.0, "SPDNOW": 3.0, "TECH": "TRAK", "ADVNR": 15, "ATCFID": "EP082024", "NAME": "HECTOR", "FTECH": "OFCL", "FCST_DTG": "2024-08-29 06:00:00", "RUN_DTG": "2024-08-29 22:12:25", "BASIN": "EP", "STMNR": 8, "CAT_ID": null, "CAT_DESC": null, "MSGID": "WTPZ23 KNHC 290834", "VALIDTIME": "2024-08-27 18:00:00" }, "geometry": { "type": "Point", "coordinates": [ -129.300003, 17.700001 ] } },
{ "type": "Feature", "properties": { "ID": 244699, "LAT": 18.1, "LON": -130.5, "VMAX": 45.0, "MSLP": 1001.0, "RMAX": 25.0, "FSPD": 5.47339, "FDIR": 280.83484, "RENV": 150.0, "PENV": 1011.0, "VALIDT": 0, "DTG": "2024-08-28 00:00", "LATNOW": 16.9, "LONNOW": -134.8, "WINDNOW": 30.0, "DIRNOW": 6.0, "SPDNOW": 3.0, "TECH": "TRAK", "ADVNR": 15, "ATCFID": "EP082024", "NAME": "HECTOR", "FTECH": "OFCL", "FCST_DTG": "2024-08-29 06:00:00", "RUN_DTG": "2024-08-29 22:12:25", "BASIN": "EP", "STMNR": 8, "CAT_ID": null, "CAT_DESC": null, "MSGID": "WTPZ23 KNHC 290834", "VALIDTIME": "2024-08-28 00:00:00" }, "geometry": { "type": "Point", "coordinates": [ -130.5, 18.1 ] } },
{ "type": "Feature", "properties": { "ID": 244700, "LAT": 18.3, "LON": -131.6, "VMAX": 45.0, "MSLP": 1002.0, "RMAX": 25.0, "FSPD": 3.90735, "FDIR": 269.99997, "RENV": 150.0, "PENV": 1012.0, "VALIDT": 0, "DTG": "2024-08-28 06:00", "LATNOW": 16.9, "LONNOW": -134.8, "WINDNOW": 30.0, "DIRNOW": 6.0, "SPDNOW": 3.0, "TECH": "TRAK", "ADVNR": 15, "ATCFID": "EP082024", "NAME": "HECTOR", "FTECH": "OFCL", "FCST_DTG": "2024-08-29 06:00:00", "RUN_DTG": "2024-08-29 22:12:25", "BASIN": "EP", "STMNR": 8, "CAT_ID": null, "CAT_DESC": null, "MSGID": "WTPZ23 KNHC 290834", "VALIDTIME": "2024-08-28 06:00:00" }, "geometry": { "type": "Point", "coordinates": [ -131.600006, 18.299999 ] } },
{ "type": "Feature", "properties": { "ID": 244701, "LAT": 18.3, "LON": -132.4, "VMAX": 45.0, "MSLP": 1002.0, "RMAX": 40.0, "FSPD": 4.64658, "FDIR": 219.19487, "RENV": 150.0, "PENV": 1012.0, "VALIDT": 0, "DTG": "2024-08-28 12:00", "LATNOW": 16.9, "LONNOW": -134.8, "WINDNOW": 30.0, "DIRNOW": 6.0, "SPDNOW": 3.0, "TECH": "TRAK", "ADVNR": 15, "ATCFID": "EP082024", "NAME": "HECTOR", "FTECH": "OFCL", "FCST_DTG": "2024-08-29 06:00:00", "RUN_DTG": "2024-08-29 22:12:25", "BASIN": "EP", "STMNR": 8, "CAT_ID": null, "CAT_DESC": null, "MSGID": "WTPZ23 KNHC 290834", "VALIDTIME": "2024-08-28 12:00:00" }, "geometry": { "type": "Point", "coordinates": [ -132.399994, 18.299999 ] } },
{ "type": "Feature", "properties": { "ID": 244702, "LAT": 17.6, "LON": -133.0, "VMAX": 40.0, "MSLP": 1004.0, "RMAX": 40.0, "FSPD": 4.00533, "FDIR": 239.0854, "RENV": 150.0, "PENV": 1012.0, "VALIDT": 0, "DTG": "2024-08-28 18:00", "LATNOW": 16.9, "LONNOW": -134.8, "WINDNOW": 30.0, "DIRNOW": 6.0, "SPDNOW": 3.0, "TECH": "TRAK", "ADVNR": 15, "ATCFID": "EP082024", "NAME": "HECTOR", "FTECH": "OFCL", "FCST_DTG": "2024-08-29 06:00:00", "RUN_DTG": "2024-08-29 22:12:25", "BASIN": "EP", "STMNR": 8, "CAT_ID": null, "CAT_DESC": null, "MSGID": "WTPZ23 KNHC 290834", "VALIDTIME": "2024-08-28 18:00:00" }, "geometry": { "type": "Point", "coordinates": [ -133.0, 17.6 ] } },
{ "type": "Feature", "properties": { "ID": 244703, "LAT": 17.2, "LON": -133.7, "VMAX": 35.0, "MSLP": 1006.0, "RMAX": 40.0, "FSPD": 5.62603, "FDIR": 254.0784, "RENV": 150.0, "PENV": 1012.0, "VALIDT": 0, "DTG": "2024-08-29 00:00", "LATNOW": 16.9, "LONNOW": -134.8, "WINDNOW": 30.0, "DIRNOW": 6.0, "SPDNOW": 3.0, "TECH": "TRAK", "ADVNR": 15, "ATCFID": "EP082024", "NAME": "HECTOR", "FTECH": "OFCL", "FCST_DTG": "2024-08-29 06:00:00", "RUN_DTG": "2024-08-29 22:12:25", "BASIN": "EP", "STMNR": 8, "CAT_ID": null, "CAT_DESC": null, "MSGID": "WTPZ23 KNHC 290834", "VALIDTIME": "2024-08-29 00:00:00" }, "geometry": { "type": "Point", "coordinates": [ -133.699997, 17.200001 ] } },
{ "type": "Feature", "properties": { "ID": 244704, "LAT": 16.9, "LON": -134.8, "VMAX": 30.0, "MSLP": 1008.0, "RMAX": 40.0, "FSPD": 5.90664, "FDIR": 269.99997, "RENV": 150.0, "PENV": 1012.0, "VALIDT": 0, "DTG": "2024-08-29 06:00", "LATNOW": 16.9, "LONNOW": -134.8, "WINDNOW": 30.0, "DIRNOW": 6.0, "SPDNOW": 3.0, "TECH": "TRAK", "ADVNR": 15, "ATCFID": "EP082024", "NAME": "HECTOR", "FTECH": "OFCL", "FCST_DTG": "2024-08-29 06:00:00", "RUN_DTG": "2024-08-29 22:12:25", "BASIN": "EP", "STMNR": 8, "CAT_ID": null, "CAT_DESC": null, "MSGID": "WTPZ23 KNHC 290834", "VALIDTIME": "2024-08-29 06:00:00" }, "geometry": { "type": "Point", "coordinates": [ -134.800003, 16.9 ] } },
{ "type": "Feature", "properties": { "ID": 244705, "LAT": 16.9, "LON": -135.4, "VMAX": 30.0, "MSLP": 1008.0, "RMAX": 40.0, "FSPD": 5.90664, "FDIR": 269.99997, "RENV": 250.0, "PENV": 1012.0, "VALIDT": 3, "DTG": "2024-08-29 09:00", "LATNOW": 16.9, "LONNOW": -134.8, "WINDNOW": 30.0, "DIRNOW": 6.0, "SPDNOW": 3.0, "TECH": "FCST", "ADVNR": 15, "ATCFID": "EP082024", "NAME": "HECTOR", "FTECH": "OFCL", "FCST_DTG": "2024-08-29 06:00:00", "RUN_DTG": "2024-08-29 22:12:25", "BASIN": "EP", "STMNR": 8, "CAT_ID": null, "CAT_DESC": null, "MSGID": "WTPZ23 KNHC 290834", "VALIDTIME": "2024-08-29 09:00:00" }, "geometry": { "type": "Point", "coordinates": [ -135.399994, 16.9 ] } },
{ "type": "Feature", "properties": { "ID": 244704, "LAT": 16.9, "LON": -134.8, "VMAX": 30.0, "MSLP": 1008.0, "RMAX": 40.0, "FSPD": 5.90664, "FDIR": 269.99997, "RENV": 150.0, "PENV": 1012.0, "VALIDT": 0, "DTG": "2024-08-29 06:00", "LATNOW": 16.9, "LONNOW": -134.8, "WINDNOW": 30.0, "DIRNOW": 6.0, "SPDNOW": 3.0, "TECH": "TRAK", "ADVNR": 15, "ATCFID": "EP082024", "NAME": "HECTOR", "FTECH": "OFCL", "FCST_DTG": "2024-08-29 06:00:00", "RUN_DTG": "2024-08-29 22:12:25", "BASIN": "EP", "STMNR": 8, "CAT_ID": null, "CAT_DESC": null, "MSGID": "WTPZ23 KNHC 290834", "VALIDTIME": "2024-08-29 06:00:00" }, "geometry": { "type": "LineString", "coordinates": [ [ -111.1, 14.5 ], [ -111.6, 14.5 ], [ -112.0, 14.0 ], [ -112.3, 13.9 ], [ -112.8, 13.9 ], [ -113.2, 14.2 ], [ -114.2, 14.5 ], [ -114.8, 15.0 ], [ -115.3, 15.7 ], [ -116.0, 15.8 ], [ -117.5, 15.9 ], [ -118.6, 16.2 ], [ -120.0, 16.3 ], [ -121.0, 16.0 ], [ -122.0, 15.9 ], [ -122.9, 16.2 ], [ -123.4, 16.2 ], [ -124.5, 16.1 ], [ -125.4, 16.4 ], [ -126.2, 16.7 ], [ -127.0, 17.0 ], [ -128.2, 17.5 ], [ -129.3, 17.7 ], [ -130.5, 18.1 ], [ -131.6, 18.3 ], [ -132.4, 18.3 ], [ -133.0, 17.6 ], [ -133.7, 17.2 ], [ -134.8, 16.9 ] ] } },
{ "type": "Feature", "properties": { "ID": 244705, "LAT": 16.9, "LON": -135.4, "VMAX": 30.0, "MSLP": 1008.0, "RMAX": 40.0, "FSPD": 5.90664, "FDIR": 269.99997, "RENV": 250.0, "PENV": 1012.0, "VALIDT": 3, "DTG": "2024-08-29 09:00", "LATNOW": 16.9, "LONNOW": -134.8, "WINDNOW": 30.0, "DIRNOW": 6.0, "SPDNOW": 3.0, "TECH": "FCST", "ADVNR": 15, "ATCFID": "EP082024", "NAME": "HECTOR", "FTECH": "OFCL", "FCST_DTG": "2024-08-29 06:00:00", "RUN_DTG": "2024-08-29 22:12:25", "BASIN": "EP", "STMNR": 8, "CAT_ID": null, "CAT_DESC": null, "MSGID": "WTPZ23 KNHC 290834", "VALIDTIME": "2024-08-29 09:00:00" }, "geometry": { "type": "LineString", "coordinates": [ [ -134.8, 16.9 ], [ -135.4, 16.9 ] ] } }
]
}
