{
"type": "FeatureCollection",
"crs": { "type": "name", "properties": { "name": "urn:ogc:def:crs:OGC:1.3:CRS84" } },
"features": [
{ "type": "Feature", "properties": { "ID": 254587, "LAT": 30.8, "LON": -75.9, "VMAX": 25.0, "MSLP": 1009.0, "RMAX": 24.25898, "FSPD": 3.53508, "FDIR": 269.99997, "RENV": 150.0, "PENV": 1010.0, "VALIDT": 0, "DTG": "2024-09-15 00:00", "LATNOW": 33.4, "LONNOW": -78.5, "WINDNOW": 35.0, "DIRNOW": 6.0, "SPDNOW": 2.0, "TECH": "TRAK", "ADVNR": 5, "ATCFID": "AL082024", "NAME": "EIGHT", "FTECH": "OFCL", "FCST_DTG": "2024-09-16 18:00:00", "RUN_DTG": "2024-09-17 09:44:16", "BASIN": "AL", "STMNR": 8, "CAT_ID": null, "CAT_DESC": null, "MSGID": "WTNT23 KNHC 162036", "VALIDTIME": "2024-09-15 00:00:00" }, "geometry": { "type": "Point", "coordinates": [ -75.900002, 30.799999 ] } },
{ "type": "Feature", "properties": { "ID": 254588, "LAT": 30.8, "LON": -76.7, "VMAX": 35.0, "MSLP": 1007.0, "RMAX": 120.0, "FSPD": 3.68908, "FDIR": 314.20697, "RENV": 150.0, "PENV": 1010.0, "VALIDT": 0, "DTG": "2024-09-15 06:00", "LATNOW": 33.4, "LONNOW": -78.5, "WINDNOW": 35.0, "DIRNOW": 6.0, "SPDNOW": 2.0, "TECH": "TRAK", "ADVNR": 5, "ATCFID": "AL082024", "NAME": "EIGHT", "FTECH": "OFCL", "FCST_DTG": "2024-09-16 18:00:00", "RUN_DTG": "2024-09-17 09:44:16", "BASIN": "AL", "STMNR": 8, "CAT_ID": null, "CAT_DESC": null, "MSGID": "WTNT23 KNHC 162036", "VALIDTIME": "2024-09-15 06:00:00" }, "geometry": { "type": "Point", "coordinates": [ -76.699997, 30.799999 ] } },
{ "type": "Feature", "properties": { "ID": 254589, "LAT": 31.3, "LON": -77.3, "VMAX": 35.0, "MSLP": 1008.0, "RMAX": 120.0, "FSPD": 3.37953, "FDIR": 319.56287, "RENV": 150.0, "PENV": 1012.0, "VALIDT": 0, "DTG": "2024-09-15 12:00", "LATNOW": 33.4, "LONNOW": -78.5, "WINDNOW": 35.0, "DIRNOW": 6.0, "SPDNOW": 2.0, "TECH": "TRAK", "ADVNR": 5, "ATCFID": "AL082024", "NAME": "EIGHT", "FTECH": "OFCL", "FCST_DTG": "2024-09-16 18:00:00", "RUN_DTG": "2024-09-17 09:44:16", "BASIN": "AL", "STMNR": 8, "CAT_ID": null, "CAT_DESC": null, "MSGID": "WTNT23 KNHC 162036", "VALIDTIME": "2024-09-15 12:00:00" }, "geometry": { "type": "Point", "coordinates": [ -77.300003, 31.299999 ] } },
{ "type": "Feature", "properties": { "ID": 254590, "LAT": 31.8, "LON": -77.8, "VMAX": 40.0, "MSLP": 1006.0, "RMAX": 70.0, "FSPD": 1.54333, "FDIR": 360.0, "RENV": 150.0, "PENV": 1012.0, "VALIDT": 0, "DTG": "2024-09-15 18:00", "LATNOW": 33.4, "LONNOW": -78.5, "WINDNOW": 35.0, "DIRNOW": 6.0, "SPDNOW": 2.0, "TECH": "TRAK", "ADVNR": 5, "ATCFID": "AL082024", "NAME": "EIGHT", "FTECH": "OFCL", "FCST_DTG": "2024-09-16 18:00:00", "RUN_DTG": "2024-09-17 09:44:16", "BASIN": "AL", "STMNR": 8, "CAT_ID": null, "CAT_DESC": null, "MSGID": "WTNT23 KNHC 162036", "VALIDTIME": "2024-09-15 18:00:00" }, "geometry": { "type": "Point", "coordinates": [ -77.800003, 31.799999 ] } },
{ "type": "Feature", "properties": { "ID": 254591, "LAT": 32.1, "LON": -77.8, "VMAX": 40.0, "MSLP": 1006.0, "RMAX": 60.0, "FSPD": 1.40428, "FDIR": 291.49054, "RENV": 150.0, "PENV": 1012.0, "VALIDT": 0, "DTG": "2024-09-16 00:00", "LATNOW": 33.4, "LONNOW": -78.5, "WINDNOW": 35.0, "DIRNOW": 6.0, "SPDNOW": 2.0, "TECH": "TRAK", "ADVNR": 5, "ATCFID": "AL082024", "NAME": "EIGHT", "FTECH": "OFCL", "FCST_DTG": "2024-09-16 18:00:00", "RUN_DTG": "2024-09-17 09:44:16", "BASIN": "AL", "STMNR": 8, "CAT_ID": null, "CAT_DESC": null, "MSGID": "WTNT23 KNHC 162036", "VALIDTIME": "2024-09-16 00:00:00" }, "geometry": { "type": "Point", "coordinates": [ -77.800003, 32.099998 ] } },
{ "type": "Feature", "properties": { "ID": 254592, "LAT": 32.2, "LON": -78.1, "VMAX": 40.0, "MSLP": 1005.0, "RMAX": 60.0, "FSPD": 3.117, "FDIR": 351.99872, "RENV": 120.0, "PENV": 1011.0, "VALIDT": 0, "DTG": "2024-09-16 06:00", "LATNOW": 33.4, "LONNOW": -78.5, "WINDNOW": 35.0, "DIRNOW": 6.0, "SPDNOW": 2.0, "TECH": "TRAK", "ADVNR": 5, "ATCFID": "AL082024", "NAME": "EIGHT", "FTECH": "OFCL", "FCST_DTG": "2024-09-16 18:00:00", "RUN_DTG": "2024-09-17 09:44:16", "BASIN": "AL", "STMNR": 8, "CAT_ID": null, "CAT_DESC": null, "MSGID": "WTNT23 KNHC 162036", "VALIDTIME": "2024-09-16 06:00:00" }, "geometry": { "type": "Point", "coordinates": [ -78.099998, 32.200001 ] } },
{ "type": "Feature", "properties": { "ID": 254593, "LAT": 32.8, "LON": -78.2, "VMAX": 45.0, "MSLP": 1005.0, "RMAX": 60.0, "FSPD": 3.34651, "FDIR": 337.273, "RENV": 120.0, "PENV": 1011.0, "VALIDT": 0, "DTG": "2024-09-16 12:00", "LATNOW": 33.4, "LONNOW": -78.5, "WINDNOW": 35.0, "DIRNOW": 6.0, "SPDNOW": 2.0, "TECH": "TRAK", "ADVNR": 5, "ATCFID": "AL082024", "NAME": "EIGHT", "FTECH": "OFCL", "FCST_DTG": "2024-09-16 18:00:00", "RUN_DTG": "2024-09-17 09:44:16", "BASIN": "AL", "STMNR": 8, "CAT_ID": null, "CAT_DESC": null, "MSGID": "WTNT23 KNHC 162036", "VALIDTIME": "2024-09-16 12:00:00" }, "geometry": { "type": "Point", "coordinates": [ -78.199997, 32.799999 ] } },
{ "type": "Feature", "properties": { "ID": 254594, "LAT": 33.4, "LON": -78.5, "VMAX": 35.0, "MSLP": 1006.0, "RMAX": 60.0, "FSPD": 5.75044, "FDIR": 333.45935, "RENV": 120.0, "PENV": 1011.0, "VALIDT": 0, "DTG": "2024-09-16 18:00", "LATNOW": 33.4, "LONNOW": -78.5, "WINDNOW": 35.0, "DIRNOW": 6.0, "SPDNOW": 2.0, "TECH": "TRAK", "ADVNR": 5, "ATCFID": "AL082024", "NAME": "EIGHT", "FTECH": "OFCL", "FCST_DTG": "2024-09-16 18:00:00", "RUN_DTG": "2024-09-17 09:44:16", "BASIN": "AL", "STMNR": 8, "CAT_ID": null, "CAT_DESC": null, "MSGID": "WTNT23 KNHC 162036", "VALIDTIME": "2024-09-16 18:00:00" }, "geometry": { "type": "Point", "coordinates": [ -78.5, 33.400002 ] } },
{ "type": "Feature", "properties": { "ID": 254595, "LAT": 33.9, "LON": -78.8, "VMAX": 30.0, "MSLP": 1006.0, "RMAX": 61.19648, "FSPD": 2.85023, "FDIR": 306.9868, "RENV": 250.0, "PENV": 1012.0, "VALIDT": 3, "DTG": "2024-09-16 21:00", "LATNOW": 33.4, "LONNOW": -78.5, "WINDNOW": 35.0, "DIRNOW": 6.0, "SPDNOW": 2.0, "TECH": "FCST", "ADVNR": 5, "ATCFID": "AL082024", "NAME": "EIGHT", "FTECH": "OFCL", "FCST_DTG": "2024-09-16 18:00:00", "RUN_DTG": "2024-09-17 09:44:16", "BASIN": "AL", "STMNR": 8, "CAT_ID": null, "CAT_DESC": null, "MSGID": "WTNT23 KNHC 162036", "VALIDTIME": "2024-09-16 21:00:00" }, "geometry": { "type": "Point", "coordinates": [ -78.800003, 33.900002 ] } },
{ "type": "Feature", "properties": { "ID": 254596, "LAT": 33.95, "LON": -78.88, "VMAX": 30.0, "MSLP": 1006.0, "RMAX": 61.19648, "FSPD": 2.84484, "FDIR": 307.06934, "RENV": 250.0, "PENV": 1012.0, "VALIDT": 3, "DTG": "2024-09-16 21:00", "LATNOW": 33.4, "LONNOW": -78.5, "WINDNOW": 35.0, "DIRNOW": 6.0, "SPDNOW": 2.0, "TECH": "FCST", "ADVNR": 5, "ATCFID": "AL082024", "NAME": "EIGHT", "FTECH": "OFCL", "FCST_DTG": "2024-09-16 18:00:00", "RUN_DTG": "2024-09-17 09:44:16", "BASIN": "AL", "STMNR": 8, "CAT_ID": null, "CAT_DESC": null, "MSGID": "WTNT23 KNHC 162036", "VALIDTIME": "2024-09-16 21:00:00" }, "geometry": { "type": "Point", "coordinates": [ -78.880005, 33.950001 ] } },
{ "type": "Feature", "properties": { "ID": 254597, "LAT": 34.4, "LON": -79.6, "VMAX": 25.0, "MSLP": 1011.80975, "RMAX": 62.56805, "FSPD": 3.03663, "FDIR": 295.0578, "RENV": 250.0, "PENV": 1012.0, "VALIDT": 12, "DTG": "2024-09-17 06:00", "LATNOW": 33.4, "LONNOW": -78.5, "WINDNOW": 35.0, "DIRNOW": 6.0, "SPDNOW": 2.0, "TECH": "FCST", "ADVNR": 5, "ATCFID": "AL082024", "NAME": "EIGHT", "FTECH": "OFCL", "FCST_DTG": "2024-09-16 18:00:00", "RUN_DTG": "2024-09-17 09:44:16", "BASIN": "AL", "STMNR": 8, "CAT_ID": null, "CAT_DESC": null, "MSGID": "WTNT23 KNHC 162036", "VALIDTIME": "2024-09-17 06:00:00" }, "geometry": { "type": "Point", "coordinates": [ -79.599998, 34.400002 ] } },
{ "type": "Feature", "properties": { "ID": 254598, "LAT": 34.9, "LON": -80.9, "VMAX": 20.0, "MSLP": 1012.95825, "RMAX": 63.82032, "FSPD": 3.03663, "FDIR": 295.0578, "RENV": 250.0, "PENV": 1012.0, "VALIDT": 24, "DTG": "2024-09-17 18:00", "LATNOW": 33.4, "LONNOW": -78.5, "WINDNOW": 35.0, "DIRNOW": 6.0, "SPDNOW": 2.0, "TECH": "FCST", "ADVNR": 5, "ATCFID": "AL082024", "NAME": "EIGHT", "FTECH": "OFCL", "FCST_DTG": "2024-09-16 18:00:00", "RUN_DTG": "2024-09-17 09:44:16", "BASIN": "AL", "STMNR": 8, "CAT_ID": null, "CAT_DESC": null, "MSGID": "WTNT23 KNHC 162036", "VALIDTIME": "2024-09-17 18:00:00" }, "geometry": { "type": "Point", "coordinates": [ -80.900002, 34.900002 ] } },
{ "type": "Feature", "properties": { "ID": 254594, "LAT": 33.4, "LON": -78.5, "VMAX": 35.0, "MSLP": 1006.0, "RMAX": 60.0, "FSPD": 5.75044, "FDIR": 333.45935, "RENV": 120.0, "PENV": 1011.0, "VALIDT": 0, "DTG": "2024-09-16 18:00", "LATNOW": 33.4, "LONNOW": -78.5, "WINDNOW": 35.0, "DIRNOW": 6.0, "SPDNOW": 2.0, "TECH": "TRAK", "ADVNR": 5, "ATCFID": "AL082024", "NAME": "EIGHT", "FTECH": "OFCL", "FCST_DTG": "2024-09-16 18:00:00", "RUN_DTG": "2024-09-17 09:44:16", "BASIN": "AL", "STMNR": 8, "CAT_ID": null, "CAT_DESC": null, "MSGID": "WTNT23 KNHC 162036", "VALIDTIME": "2024-09-16 18:00:00" }, "geometry": { "type": "LineString", "coordinates": [ [ -75.9, 30.8 ], [ -76.7, 30.8 ], [ -77.3, 31.3 ], [ -77.8, 31.8 ], [ -77.8, 32.1 ], [ -78.1, 32.2 ], [ -78.2, 32.8 ], [ -78.5, 33.4 ] ] } },
{ "type": "Feature", "properties": { "ID": 254598, "LAT": 34.9, "LON": -80.9, "VMAX": 20.0, "MSLP": 1012.95825, "RMAX": 63.82032, "FSPD": 3.03663, "FDIR": 295.0578, "RENV": 250.0, "PENV": 1012.0, "VALIDT": 24, "DTG": "2024-09-17 18:00", "LATNOW": 33.4, "LONNOW": -78.5, "WINDNOW": 35.0, "DIRNOW": 6.0, "SPDNOW": 2.0, "TECH": "FCST", "ADVNR": 5, "ATCFID": "AL082024", "NAME": "EIGHT", "FTECH": "OFCL", "FCST_DTG": "2024-09-16 18:00:00", "RUN_DTG": "2024-09-17 09:44:16", "BASIN": "AL", "STMNR": 8, "CAT_ID": null, "CAT_DESC": null, "MSGID": "WTNT23 KNHC 162036", "VALIDTIME": "2024-09-17 18:00:00" }, "geometry": { "type": "LineString", "coordinates": [ [ -78.5, 33.4 ], [ -78.8, 33.9 ], [ -78.88, 33.95 ], [ -79.6, 34.4 ], [ -80.9, 34.9 ] ] } }
]
}
