{
"type": "FeatureCollection",
"crs": { "type": "name", "properties": { "name": "urn:ogc:def:crs:OGC:1.3:CRS84" } },
"features": [
{ "type": "Feature", "properties": { "ID": 90805, "LAT": 12.3, "LON": -112.2, "VMAX": 20.0, "MSLP": 1009.0, "RMAX": 90.0, "FSPD": 4.31298, "FDIR": 315.69797, "RENV": 120.0, "PENV": 1010.0, "VALIDT": 0, "DTG": "2026-09-11 12:00", "LATNOW": 15.6, "LONNOW": -125.3, "WINDNOW": 25.0, "DIRNOW": 5.0, "SPDNOW": 3.0, "TECH": "TRAK", "ADVNR": 10, "ATCFID": "EP152026", "NAME": "FIFTEEN", "FTECH": "OFCL", "FCST_DTG": "2026-09-16 00:00:00", "RUN_DTG": "2026-09-16 14:55:00", "BASIN": "EP", "STMNR": 15, "CAT_ID": null, "CAT_DESC": null, "MSGID": "WTPZ25 KNHC 160231", "VALIDTIME": "2026-09-11 12:00:00" }, "geometry": { "type": "Point", "coordinates": [ -112.199997, 12.3 ] } },
{ "type": "Feature", "properties": { "ID": 90806, "LAT": 12.9, "LON": -112.8, "VMAX": 20.0, "MSLP": 1009.0, "RMAX": 90.0, "FSPD": 7.20565, "FDIR": 295.364, "RENV": 120.0, "PENV": 1010.0, "VALIDT": 0, "DTG": "2026-09-11 18:00", "LATNOW": 15.6, "LONNOW": -125.3, "WINDNOW": 25.0, "DIRNOW": 5.0, "SPDNOW": 3.0, "TECH": "TRAK", "ADVNR": 10, "ATCFID": "EP152026", "NAME": "FIFTEEN", "FTECH": "OFCL", "FCST_DTG": "2026-09-16 00:00:00", "RUN_DTG": "2026-09-16 14:55:00", "BASIN": "EP", "STMNR": 15, "CAT_ID": null, "CAT_DESC": null, "MSGID": "WTPZ25 KNHC 160231", "VALIDTIME": "2026-09-11 18:00:00" }, "geometry": { "type": "Point", "coordinates": [ -112.800003, 12.9 ] } },
{ "type": "Feature", "properties": { "ID": 90807, "LAT": 13.5, "LON": -114.1, "VMAX": 25.0, "MSLP": 1008.0, "RMAX": 90.0, "FSPD": 4.14574, "FDIR": 353.08167, "RENV": 120.0, "PENV": 1010.0, "VALIDT": 0, "DTG": "2026-09-12 00:00", "LATNOW": 15.6, "LONNOW": -125.3, "WINDNOW": 25.0, "DIRNOW": 5.0, "SPDNOW": 3.0, "TECH": "TRAK", "ADVNR": 10, "ATCFID": "EP152026", "NAME": "FIFTEEN", "FTECH": "OFCL", "FCST_DTG": "2026-09-16 00:00:00", "RUN_DTG": "2026-09-16 14:55:00", "BASIN": "EP", "STMNR": 15, "CAT_ID": null, "CAT_DESC": null, "MSGID": "WTPZ25 KNHC 160231", "VALIDTIME": "2026-09-12 00:00:00" }, "geometry": { "type": "Point", "coordinates": [ -114.099998, 13.5 ] } },
{ "type": "Feature", "properties": { "ID": 90808, "LAT": 14.3, "LON": -114.2, "VMAX": 30.0, "MSLP": 1006.0, "RMAX": 90.0, "FSPD": 5.74561, "FDIR": 9.96753, "RENV": 120.0, "PENV": 1010.0, "VALIDT": 0, "DTG": "2026-09-12 06:00", "LATNOW": 15.6, "LONNOW": -125.3, "WINDNOW": 25.0, "DIRNOW": 5.0, "SPDNOW": 3.0, "TECH": "TRAK", "ADVNR": 10, "ATCFID": "EP152026", "NAME": "FIFTEEN", "FTECH": "OFCL", "FCST_DTG": "2026-09-16 00:00:00", "RUN_DTG": "2026-09-16 14:55:00", "BASIN": "EP", "STMNR": 15, "CAT_ID": null, "CAT_DESC": null, "MSGID": "WTPZ25 KNHC 160231", "VALIDTIME": "2026-09-12 06:00:00" }, "geometry": { "type": "Point", "coordinates": [ -114.199997, 14.3 ] } },
{ "type": "Feature", "properties": { "ID": 90809, "LAT": 15.4, "LON": -114.0, "VMAX": 30.0, "MSLP": 1006.0, "RMAX": 90.0, "FSPD": 7.35328, "FDIR": 348.3663, "RENV": 120.0, "PENV": 1009.0, "VALIDT": 0, "DTG": "2026-09-12 12:00", "LATNOW": 15.6, "LONNOW": -125.3, "WINDNOW": 25.0, "DIRNOW": 5.0, "SPDNOW": 3.0, "TECH": "TRAK", "ADVNR": 10, "ATCFID": "EP152026", "NAME": "FIFTEEN", "FTECH": "OFCL", "FCST_DTG": "2026-09-16 00:00:00", "RUN_DTG": "2026-09-16 14:55:00", "BASIN": "EP", "STMNR": 15, "CAT_ID": null, "CAT_DESC": null, "MSGID": "WTPZ25 KNHC 160231", "VALIDTIME": "2026-09-12 12:00:00" }, "geometry": { "type": "Point", "coordinates": [ -114.0, 15.4 ] } },
{ "type": "Feature", "properties": { "ID": 90810, "LAT": 16.8, "LON": -114.3, "VMAX": 25.0, "MSLP": 1008.0, "RMAX": 90.0, "FSPD": 3.59827, "FDIR": 304.8816, "RENV": 120.0, "PENV": 1009.0, "VALIDT": 0, "DTG": "2026-09-12 18:00", "LATNOW": 15.6, "LONNOW": -125.3, "WINDNOW": 25.0, "DIRNOW": 5.0, "SPDNOW": 3.0, "TECH": "TRAK", "ADVNR": 10, "ATCFID": "EP152026", "NAME": "FIFTEEN", "FTECH": "OFCL", "FCST_DTG": "2026-09-16 00:00:00", "RUN_DTG": "2026-09-16 14:55:00", "BASIN": "EP", "STMNR": 15, "CAT_ID": null, "CAT_DESC": null, "MSGID": "WTPZ25 KNHC 160231", "VALIDTIME": "2026-09-12 18:00:00" }, "geometry": { "type": "Point", "coordinates": [ -114.300003, 16.799999 ] } },
{ "type": "Feature", "properties": { "ID": 90811, "LAT": 17.2, "LON": -114.9, "VMAX": 25.0, "MSLP": 1008.0, "RMAX": 80.0, "FSPD": 4.06182, "FDIR": 284.67322, "RENV": 120.0, "PENV": 1009.0, "VALIDT": 0, "DTG": "2026-09-13 00:00", "LATNOW": 15.6, "LONNOW": -125.3, "WINDNOW": 25.0, "DIRNOW": 5.0, "SPDNOW": 3.0, "TECH": "TRAK", "ADVNR": 10, "ATCFID": "EP152026", "NAME": "FIFTEEN", "FTECH": "OFCL", "FCST_DTG": "2026-09-16 00:00:00", "RUN_DTG": "2026-09-16 14:55:00", "BASIN": "EP", "STMNR": 15, "CAT_ID": null, "CAT_DESC": null, "MSGID": "WTPZ25 KNHC 160231", "VALIDTIME": "2026-09-13 00:00:00" }, "geometry": { "type": "Point", "coordinates": [ -114.900002, 17.200001 ] } },
{ "type": "Feature", "properties": { "ID": 90812, "LAT": 17.4, "LON": -115.7, "VMAX": 25.0, "MSLP": 1008.0, "RMAX": 80.0, "FSPD": 2.45452, "FDIR": 269.99997, "RENV": 120.0, "PENV": 1009.0, "VALIDT": 0, "DTG": "2026-09-13 06:00", "LATNOW": 15.6, "LONNOW": -125.3, "WINDNOW": 25.0, "DIRNOW": 5.0, "SPDNOW": 3.0, "TECH": "TRAK", "ADVNR": 10, "ATCFID": "EP152026", "NAME": "FIFTEEN", "FTECH": "OFCL", "FCST_DTG": "2026-09-16 00:00:00", "RUN_DTG": "2026-09-16 14:55:00", "BASIN": "EP", "STMNR": 15, "CAT_ID": null, "CAT_DESC": null, "MSGID": "WTPZ25 KNHC 160231", "VALIDTIME": "2026-09-13 06:00:00" }, "geometry": { "type": "Point", "coordinates": [ -115.699997, 17.4 ] } },
{ "type": "Feature", "properties": { "ID": 90813, "LAT": 17.4, "LON": -116.2, "VMAX": 25.0, "MSLP": 1007.0, "RMAX": 40.0, "FSPD": 2.50851, "FDIR": 258.16574, "RENV": 120.0, "PENV": 1009.0, "VALIDT": 0, "DTG": "2026-09-13 12:00", "LATNOW": 15.6, "LONNOW": -125.3, "WINDNOW": 25.0, "DIRNOW": 5.0, "SPDNOW": 3.0, "TECH": "TRAK", "ADVNR": 10, "ATCFID": "EP152026", "NAME": "FIFTEEN", "FTECH": "OFCL", "FCST_DTG": "2026-09-16 00:00:00", "RUN_DTG": "2026-09-16 14:55:00", "BASIN": "EP", "STMNR": 15, "CAT_ID": null, "CAT_DESC": null, "MSGID": "WTPZ25 KNHC 160231", "VALIDTIME": "2026-09-13 12:00:00" }, "geometry": { "type": "Point", "coordinates": [ -116.199997, 17.4 ] } },
{ "type": "Feature", "properties": { "ID": 90814, "LAT": 17.3, "LON": -116.7, "VMAX": 30.0, "MSLP": 1006.0, "RMAX": 40.0, "FSPD": 5.98635, "FDIR": 260.10333, "RENV": 160.0, "PENV": 1011.0, "VALIDT": 0, "DTG": "2026-09-13 18:00", "LATNOW": 15.6, "LONNOW": -125.3, "WINDNOW": 25.0, "DIRNOW": 5.0, "SPDNOW": 3.0, "TECH": "TRAK", "ADVNR": 10, "ATCFID": "EP152026", "NAME": "FIFTEEN", "FTECH": "OFCL", "FCST_DTG": "2026-09-16 00:00:00", "RUN_DTG": "2026-09-16 14:55:00", "BASIN": "EP", "STMNR": 15, "CAT_ID": null, "CAT_DESC": null, "MSGID": "WTPZ25 KNHC 160231", "VALIDTIME": "2026-09-13 18:00:00" }, "geometry": { "type": "Point", "coordinates": [ -116.699997, 17.299999 ] } },
{ "type": "Feature", "properties": { "ID": 90815, "LAT": 17.1, "LON": -117.9, "VMAX": 30.0, "MSLP": 1006.0, "RMAX": 40.0, "FSPD": 3.91705, "FDIR": 228.95328, "RENV": 140.0, "PENV": 1008.0, "VALIDT": 0, "DTG": "2026-09-14 00:00", "LATNOW": 15.6, "LONNOW": -125.3, "WINDNOW": 25.0, "DIRNOW": 5.0, "SPDNOW": 3.0, "TECH": "TRAK", "ADVNR": 10, "ATCFID": "EP152026", "NAME": "FIFTEEN", "FTECH": "OFCL", "FCST_DTG": "2026-09-16 00:00:00", "RUN_DTG": "2026-09-16 14:55:00", "BASIN": "EP", "STMNR": 15, "CAT_ID": null, "CAT_DESC": null, "MSGID": "WTPZ25 KNHC 160231", "VALIDTIME": "2026-09-14 00:00:00" }, "geometry": { "type": "Point", "coordinates": [ -117.900002, 17.1 ] } },
{ "type": "Feature", "properties": { "ID": 90816, "LAT": 16.6, "LON": -118.5, "VMAX": 30.0, "MSLP": 1006.0, "RMAX": 60.0, "FSPD": 4.23811, "FDIR": 248.64423, "RENV": 180.0, "PENV": 1009.0, "VALIDT": 0, "DTG": "2026-09-14 06:00", "LATNOW": 15.6, "LONNOW": -125.3, "WINDNOW": 25.0, "DIRNOW": 5.0, "SPDNOW": 3.0, "TECH": "TRAK", "ADVNR": 10, "ATCFID": "EP152026", "NAME": "FIFTEEN", "FTECH": "OFCL", "FCST_DTG": "2026-09-16 00:00:00", "RUN_DTG": "2026-09-16 14:55:00", "BASIN": "EP", "STMNR": 15, "CAT_ID": null, "CAT_DESC": null, "MSGID": "WTPZ25 KNHC 160231", "VALIDTIME": "2026-09-14 06:00:00" }, "geometry": { "type": "Point", "coordinates": [ -118.5, 16.6 ] } },
{ "type": "Feature", "properties": { "ID": 90817, "LAT": 16.3, "LON": -119.3, "VMAX": 30.0, "MSLP": 1006.0, "RMAX": 60.0, "FSPD": 4.63001, "FDIR": 311.81018, "RENV": 180.0, "PENV": 1009.0, "VALIDT": 0, "DTG": "2026-09-14 12:00", "LATNOW": 15.6, "LONNOW": -125.3, "WINDNOW": 25.0, "DIRNOW": 5.0, "SPDNOW": 3.0, "TECH": "TRAK", "ADVNR": 10, "ATCFID": "EP152026", "NAME": "FIFTEEN", "FTECH": "OFCL", "FCST_DTG": "2026-09-16 00:00:00", "RUN_DTG": "2026-09-16 14:55:00", "BASIN": "EP", "STMNR": 15, "CAT_ID": null, "CAT_DESC": null, "MSGID": "WTPZ25 KNHC 160231", "VALIDTIME": "2026-09-14 12:00:00" }, "geometry": { "type": "Point", "coordinates": [ -119.300003, 16.299999 ] } },
{ "type": "Feature", "properties": { "ID": 90818, "LAT": 16.9, "LON": -120.0, "VMAX": 30.0, "MSLP": 1006.0, "RMAX": 60.0, "FSPD": 5.79768, "FDIR": 249.21075, "RENV": 180.0, "PENV": 1009.0, "VALIDT": 0, "DTG": "2026-09-14 18:00", "LATNOW": 15.6, "LONNOW": -125.3, "WINDNOW": 25.0, "DIRNOW": 5.0, "SPDNOW": 3.0, "TECH": "TRAK", "ADVNR": 10, "ATCFID": "EP152026", "NAME": "FIFTEEN", "FTECH": "OFCL", "FCST_DTG": "2026-09-16 00:00:00", "RUN_DTG": "2026-09-16 14:55:00", "BASIN": "EP", "STMNR": 15, "CAT_ID": null, "CAT_DESC": null, "MSGID": "WTPZ25 KNHC 160231", "VALIDTIME": "2026-09-14 18:00:00" }, "geometry": { "type": "Point", "coordinates": [ -120.0, 16.9 ] } },
{ "type": "Feature", "properties": { "ID": 90819, "LAT": 16.5, "LON": -121.1, "VMAX": 30.0, "MSLP": 1005.0, "RMAX": 60.0, "FSPD": 5.17203, "FDIR": 252.6385, "RENV": 180.0, "PENV": 1009.0, "VALIDT": 0, "DTG": "2026-09-15 00:00", "LATNOW": 15.6, "LONNOW": -125.3, "WINDNOW": 25.0, "DIRNOW": 5.0, "SPDNOW": 3.0, "TECH": "TRAK", "ADVNR": 10, "ATCFID": "EP152026", "NAME": "FIFTEEN", "FTECH": "OFCL", "FCST_DTG": "2026-09-16 00:00:00", "RUN_DTG": "2026-09-16 14:55:00", "BASIN": "EP", "STMNR": 15, "CAT_ID": null, "CAT_DESC": null, "MSGID": "WTPZ25 KNHC 160231", "VALIDTIME": "2026-09-15 00:00:00" }, "geometry": { "type": "Point", "coordinates": [ -121.099998, 16.5 ] } },
{ "type": "Feature", "properties": { "ID": 90820, "LAT": 16.2, "LON": -122.1, "VMAX": 30.0, "MSLP": 1005.0, "RMAX": 60.0, "FSPD": 6.42225, "FDIR": 269.99997, "RENV": 180.0, "PENV": 1009.0, "VALIDT": 0, "DTG": "2026-09-15 06:00", "LATNOW": 15.6, "LONNOW": -125.3, "WINDNOW": 25.0, "DIRNOW": 5.0, "SPDNOW": 3.0, "TECH": "TRAK", "ADVNR": 10, "ATCFID": "EP152026", "NAME": "FIFTEEN", "FTECH": "OFCL", "FCST_DTG": "2026-09-16 00:00:00", "RUN_DTG": "2026-09-16 14:55:00", "BASIN": "EP", "STMNR": 15, "CAT_ID": null, "CAT_DESC": null, "MSGID": "WTPZ25 KNHC 160231", "VALIDTIME": "2026-09-15 06:00:00" }, "geometry": { "type": "Point", "coordinates": [ -122.099998, 16.200001 ] } },
{ "type": "Feature", "properties": { "ID": 90821, "LAT": 16.2, "LON": -123.4, "VMAX": 30.0, "MSLP": 1005.0, "RMAX": 60.0, "FSPD": 5.35622, "FDIR": 247.40677, "RENV": 180.0, "PENV": 1008.0, "VALIDT": 0, "DTG": "2026-09-15 12:00", "LATNOW": 15.6, "LONNOW": -125.3, "WINDNOW": 25.0, "DIRNOW": 5.0, "SPDNOW": 3.0, "TECH": "TRAK", "ADVNR": 10, "ATCFID": "EP152026", "NAME": "FIFTEEN", "FTECH": "OFCL", "FCST_DTG": "2026-09-16 00:00:00", "RUN_DTG": "2026-09-16 14:55:00", "BASIN": "EP", "STMNR": 15, "CAT_ID": null, "CAT_DESC": null, "MSGID": "WTPZ25 KNHC 160231", "VALIDTIME": "2026-09-15 12:00:00" }, "geometry": { "type": "Point", "coordinates": [ -123.400002, 16.200001 ] } },
{ "type": "Feature", "properties": { "ID": 90822, "LAT": 15.8, "LON": -124.4, "VMAX": 25.0, "MSLP": 1006.0, "RMAX": 50.0, "FSPD": 4.57448, "FDIR": 257.00183, "RENV": 120.0, "PENV": 1008.0, "VALIDT": 0, "DTG": "2026-09-15 18:00", "LATNOW": 15.6, "LONNOW": -125.3, "WINDNOW": 25.0, "DIRNOW": 5.0, "SPDNOW": 3.0, "TECH": "TRAK", "ADVNR": 10, "ATCFID": "EP152026", "NAME": "FIFTEEN", "FTECH": "OFCL", "FCST_DTG": "2026-09-16 00:00:00", "RUN_DTG": "2026-09-16 14:55:00", "BASIN": "EP", "STMNR": 15, "CAT_ID": null, "CAT_DESC": null, "MSGID": "WTPZ25 KNHC 160231", "VALIDTIME": "2026-09-15 18:00:00" }, "geometry": { "type": "Point", "coordinates": [ -124.400002, 15.8 ] } },
{ "type": "Feature", "properties": { "ID": 90823, "LAT": 15.6, "LON": -125.3, "VMAX": 25.0, "MSLP": 1006.0, "RMAX": 60.0, "FSPD": 5.06181, "FDIR": 258.27197, "RENV": 140.0, "PENV": 1008.0, "VALIDT": 0, "DTG": "2026-09-16 00:00", "LATNOW": 15.6, "LONNOW": -125.3, "WINDNOW": 25.0, "DIRNOW": 5.0, "SPDNOW": 3.0, "TECH": "TRAK", "ADVNR": 10, "ATCFID": "EP152026", "NAME": "FIFTEEN", "FTECH": "OFCL", "FCST_DTG": "2026-09-16 00:00:00", "RUN_DTG": "2026-09-16 14:55:00", "BASIN": "EP", "STMNR": 15, "CAT_ID": null, "CAT_DESC": null, "MSGID": "WTPZ25 KNHC 160231", "VALIDTIME": "2026-09-16 00:00:00" }, "geometry": { "type": "Point", "coordinates": [ -125.300003, 15.6 ] } },
{ "type": "Feature", "properties": { "ID": 90824, "LAT": 15.5, "LON": -125.8, "VMAX": 25.0, "MSLP": 1006.0, "RMAX": 60.0, "FSPD": 4.74312, "FDIR": 257.47162, "RENV": 250.0, "PENV": 1012.0, "VALIDT": 3, "DTG": "2026-09-16 03:00", "LATNOW": 15.6, "LONNOW": -125.3, "WINDNOW": 25.0, "DIRNOW": 5.0, "SPDNOW": 3.0, "TECH": "FCST", "ADVNR": 10, "ATCFID": "EP152026", "NAME": "FIFTEEN", "FTECH": "OFCL", "FCST_DTG": "2026-09-16 00:00:00", "RUN_DTG": "2026-09-16 14:55:00", "BASIN": "EP", "STMNR": 15, "CAT_ID": null, "CAT_DESC": null, "MSGID": "WTPZ25 KNHC 160231", "VALIDTIME": "2026-09-16 03:00:00" }, "geometry": { "type": "Point", "coordinates": [ -125.800003, 15.5 ] } },
{ "type": "Feature", "properties": { "ID": 90825, "LAT": 15.2, "LON": -127.2, "VMAX": 25.0, "MSLP": 1011.80975, "RMAX": 66.31174, "FSPD": 4.74312, "FDIR": 257.47162, "RENV": 250.0, "PENV": 1012.0, "VALIDT": 12, "DTG": "2026-09-16 12:00", "LATNOW": 15.6, "LONNOW": -125.3, "WINDNOW": 25.0, "DIRNOW": 5.0, "SPDNOW": 3.0, "TECH": "FCST", "ADVNR": 10, "ATCFID": "EP152026", "NAME": "FIFTEEN", "FTECH": "OFCL", "FCST_DTG": "2026-09-16 00:00:00", "RUN_DTG": "2026-09-16 14:55:00", "BASIN": "EP", "STMNR": 15, "CAT_ID": null, "CAT_DESC": null, "MSGID": "WTPZ25 KNHC 160231", "VALIDTIME": "2026-09-16 12:00:00" }, "geometry": { "type": "Point", "coordinates": [ -127.199997, 15.2 ] } },
{ "type": "Feature", "properties": { "ID": 90823, "LAT": 15.6, "LON": -125.3, "VMAX": 25.0, "MSLP": 1006.0, "RMAX": 60.0, "FSPD": 5.06181, "FDIR": 258.27197, "RENV": 140.0, "PENV": 1008.0, "VALIDT": 0, "DTG": "2026-09-16 00:00", "LATNOW": 15.6, "LONNOW": -125.3, "WINDNOW": 25.0, "DIRNOW": 5.0, "SPDNOW": 3.0, "TECH": "TRAK", "ADVNR": 10, "ATCFID": "EP152026", "NAME": "FIFTEEN", "FTECH": "OFCL", "FCST_DTG": "2026-09-16 00:00:00", "RUN_DTG": "2026-09-16 14:55:00", "BASIN": "EP", "STMNR": 15, "CAT_ID": null, "CAT_DESC": null, "MSGID": "WTPZ25 KNHC 160231", "VALIDTIME": "2026-09-16 00:00:00" }, "geometry": { "type": "LineString", "coordinates": [ [ -112.2, 12.3 ], [ -112.8, 12.9 ], [ -114.1, 13.5 ], [ -114.2, 14.3 ], [ -114.0, 15.4 ], [ -114.3, 16.8 ], [ -114.9, 17.2 ], [ -115.7, 17.4 ], [ -116.2, 17.4 ], [ -116.7, 17.3 ], [ -117.9, 17.1 ], [ -118.5, 16.6 ], [ -119.3, 16.3 ], [ -120.0, 16.9 ], [ -121.1, 16.5 ], [ -122.1, 16.2 ], [ -123.4, 16.2 ], [ -124.4, 15.8 ], [ -125.3, 15.6 ] ] } },
{ "type": "Feature", "properties": { "ID": 90825, "LAT": 15.2, "LON": -127.2, "VMAX": 25.0, "MSLP": 1011.80975, "RMAX": 66.31174, "FSPD": 4.74312, "FDIR": 257.47162, "RENV": 250.0, "PENV": 1012.0, "VALIDT": 12, "DTG": "2026-09-16 12:00", "LATNOW": 15.6, "LONNOW": -125.3, "WINDNOW": 25.0, "DIRNOW": 5.0, "SPDNOW": 3.0, "TECH": "FCST", "ADVNR": 10, "ATCFID": "EP152026", "NAME": "FIFTEEN", "FTECH": "OFCL", "FCST_DTG": "2026-09-16 00:00:00", "RUN_DTG": "2026-09-16 14:55:00", "BASIN": "EP", "STMNR": 15, "CAT_ID": null, "CAT_DESC": null, "MSGID": "WTPZ25 KNHC 160231", "VALIDTIME": "2026-09-16 12:00:00" }, "geometry": { "type": "LineString", "coordinates": [ [ -125.3, 15.6 ], [ -125.8, 15.5 ], [ -127.2, 15.2 ] ] } }
]
}
