{
"type": "FeatureCollection",
"crs": { "type": "name", "properties": { "name": "urn:ogc:def:crs:OGC:1.3:CRS84" } },
"features": [
{ "type": "Feature", "properties": { "ID": 69077, "LAT": 21.9, "LON": 119.1, "VMAX": 15.0, "MSLP": 1013.8515, "RMAX": 40.0, "FSPD": 2.44224, "FDIR": 257.83978, "RENV": 500.0, "PENV": 1012.0, "VALIDT": 0, "DTG": "2026-08-16 18:00", "LATNOW": 20.0, "LONNOW": 109.6, "WINDNOW": 25.0, "DIRNOW": 3.0, "SPDNOW": 1.0, "TECH": "TRAK", "ADVNR": 21, "ATCFID": "WP182026", "NAME": "NARRA", "FTECH": "JTWC", "FCST_DTG": "2026-08-25 18:00:00", "RUN_DTG": "2026-08-26 16:34:15", "BASIN": "WP", "STMNR": 18, "CAT_ID": null, "CAT_DESC": null, "MSGID": "WTPN52 PGTW 252100", "VALIDTIME": "2026-08-16 18:00:00" }, "geometry": { "type": "Point", "coordinates": [ 119.099998, 21.9 ] } },
{ "type": "Feature", "properties": { "ID": 69078, "LAT": 21.8, "LON": 118.6, "VMAX": 15.0, "MSLP": 1013.8515, "RMAX": 40.0, "FSPD": 2.74446, "FDIR": 200.40683, "RENV": 500.0, "PENV": 1012.0, "VALIDT": 0, "DTG": "2026-08-17 00:00", "LATNOW": 20.0, "LONNOW": 109.6, "WINDNOW": 25.0, "DIRNOW": 3.0, "SPDNOW": 1.0, "TECH": "TRAK", "ADVNR": 21, "ATCFID": "WP182026", "NAME": "NARRA", "FTECH": "JTWC", "FCST_DTG": "2026-08-25 18:00:00", "RUN_DTG": "2026-08-26 16:34:15", "BASIN": "WP", "STMNR": 18, "CAT_ID": null, "CAT_DESC": null, "MSGID": "WTPN52 PGTW 252100", "VALIDTIME": "2026-08-17 00:00:00" }, "geometry": { "type": "Point", "coordinates": [ 118.599998, 21.799999 ] } },
{ "type": "Feature", "properties": { "ID": 69079, "LAT": 21.3, "LON": 118.4, "VMAX": 15.0, "MSLP": 1013.8515, "RMAX": 40.0, "FSPD": 3.86195, "FDIR": 228.23758, "RENV": 500.0, "PENV": 1012.0, "VALIDT": 0, "DTG": "2026-08-17 06:00", "LATNOW": 20.0, "LONNOW": 109.6, "WINDNOW": 25.0, "DIRNOW": 3.0, "SPDNOW": 1.0, "TECH": "TRAK", "ADVNR": 21, "ATCFID": "WP182026", "NAME": "NARRA", "FTECH": "JTWC", "FCST_DTG": "2026-08-25 18:00:00", "RUN_DTG": "2026-08-26 16:34:15", "BASIN": "WP", "STMNR": 18, "CAT_ID": null, "CAT_DESC": null, "MSGID": "WTPN52 PGTW 252100", "VALIDTIME": "2026-08-17 06:00:00" }, "geometry": { "type": "Point", "coordinates": [ 118.400002, 21.299999 ] } },
{ "type": "Feature", "properties": { "ID": 69080, "LAT": 20.8, "LON": 117.8, "VMAX": 15.0, "MSLP": 1013.8515, "RMAX": 40.0, "FSPD": 2.74673, "FDIR": 200.53365, "RENV": 500.0, "PENV": 1012.0, "VALIDT": 0, "DTG": "2026-08-17 12:00", "LATNOW": 20.0, "LONNOW": 109.6, "WINDNOW": 25.0, "DIRNOW": 3.0, "SPDNOW": 1.0, "TECH": "TRAK", "ADVNR": 21, "ATCFID": "WP182026", "NAME": "NARRA", "FTECH": "JTWC", "FCST_DTG": "2026-08-25 18:00:00", "RUN_DTG": "2026-08-26 16:34:15", "BASIN": "WP", "STMNR": 18, "CAT_ID": null, "CAT_DESC": null, "MSGID": "WTPN52 PGTW 252100", "VALIDTIME": "2026-08-17 12:00:00" }, "geometry": { "type": "Point", "coordinates": [ 117.800003, 20.799999 ] } },
{ "type": "Feature", "properties": { "ID": 69081, "LAT": 20.3, "LON": 117.6, "VMAX": 15.0, "MSLP": 1013.8515, "RMAX": 40.0, "FSPD": 2.27332, "FDIR": 205.1519, "RENV": 500.0, "PENV": 1012.0, "VALIDT": 0, "DTG": "2026-08-17 18:00", "LATNOW": 20.0, "LONNOW": 109.6, "WINDNOW": 25.0, "DIRNOW": 3.0, "SPDNOW": 1.0, "TECH": "TRAK", "ADVNR": 21, "ATCFID": "WP182026", "NAME": "NARRA", "FTECH": "JTWC", "FCST_DTG": "2026-08-25 18:00:00", "RUN_DTG": "2026-08-26 16:34:15", "BASIN": "WP", "STMNR": 18, "CAT_ID": null, "CAT_DESC": null, "MSGID": "WTPN52 PGTW 252100", "VALIDTIME": "2026-08-17 18:00:00" }, "geometry": { "type": "Point", "coordinates": [ 117.599998, 20.299999 ] } },
{ "type": "Feature", "properties": { "ID": 69082, "LAT": 19.9, "LON": 117.4, "VMAX": 15.0, "MSLP": 1013.8515, "RMAX": 40.0, "FSPD": 3.41195, "FDIR": 205.22195, "RENV": 500.0, "PENV": 1012.0, "VALIDT": 0, "DTG": "2026-08-18 00:00", "LATNOW": 20.0, "LONNOW": 109.6, "WINDNOW": 25.0, "DIRNOW": 3.0, "SPDNOW": 1.0, "TECH": "TRAK", "ADVNR": 21, "ATCFID": "WP182026", "NAME": "NARRA", "FTECH": "JTWC", "FCST_DTG": "2026-08-25 18:00:00", "RUN_DTG": "2026-08-26 16:34:15", "BASIN": "WP", "STMNR": 18, "CAT_ID": null, "CAT_DESC": null, "MSGID": "WTPN52 PGTW 252100", "VALIDTIME": "2026-08-18 00:00:00" }, "geometry": { "type": "Point", "coordinates": [ 117.400002, 19.9 ] } },
{ "type": "Feature", "properties": { "ID": 69083, "LAT": 19.3, "LON": 117.1, "VMAX": 15.0, "MSLP": 1013.8515, "RMAX": 40.0, "FSPD": 5.82638, "FDIR": 269.99997, "RENV": 500.0, "PENV": 1012.0, "VALIDT": 0, "DTG": "2026-08-18 06:00", "LATNOW": 20.0, "LONNOW": 109.6, "WINDNOW": 25.0, "DIRNOW": 3.0, "SPDNOW": 1.0, "TECH": "TRAK", "ADVNR": 21, "ATCFID": "WP182026", "NAME": "NARRA", "FTECH": "JTWC", "FCST_DTG": "2026-08-25 18:00:00", "RUN_DTG": "2026-08-26 16:34:15", "BASIN": "WP", "STMNR": 18, "CAT_ID": null, "CAT_DESC": null, "MSGID": "WTPN52 PGTW 252100", "VALIDTIME": "2026-08-18 06:00:00" }, "geometry": { "type": "Point", "coordinates": [ 117.099998, 19.299999 ] } },
{ "type": "Feature", "properties": { "ID": 69084, "LAT": 19.3, "LON": 115.9, "VMAX": 20.0, "MSLP": 1012.95825, "RMAX": 45.0, "FSPD": 7.76852, "FDIR": 269.99997, "RENV": 500.0, "PENV": 1012.0, "VALIDT": 0, "DTG": "2026-08-18 12:00", "LATNOW": 20.0, "LONNOW": 109.6, "WINDNOW": 25.0, "DIRNOW": 3.0, "SPDNOW": 1.0, "TECH": "TRAK", "ADVNR": 21, "ATCFID": "WP182026", "NAME": "NARRA", "FTECH": "JTWC", "FCST_DTG": "2026-08-25 18:00:00", "RUN_DTG": "2026-08-26 16:34:15", "BASIN": "WP", "STMNR": 18, "CAT_ID": null, "CAT_DESC": null, "MSGID": "WTPN52 PGTW 252100", "VALIDTIME": "2026-08-18 12:00:00" }, "geometry": { "type": "Point", "coordinates": [ 115.900002, 19.299999 ] } },
{ "type": "Feature", "properties": { "ID": 69085, "LAT": 19.3, "LON": 114.3, "VMAX": 20.0, "MSLP": 1012.95825, "RMAX": 45.0, "FSPD": 8.75207, "FDIR": 273.36975, "RENV": 500.0, "PENV": 1012.0, "VALIDT": 0, "DTG": "2026-08-18 18:00", "LATNOW": 20.0, "LONNOW": 109.6, "WINDNOW": 25.0, "DIRNOW": 3.0, "SPDNOW": 1.0, "TECH": "TRAK", "ADVNR": 21, "ATCFID": "WP182026", "NAME": "NARRA", "FTECH": "JTWC", "FCST_DTG": "2026-08-25 18:00:00", "RUN_DTG": "2026-08-26 16:34:15", "BASIN": "WP", "STMNR": 18, "CAT_ID": null, "CAT_DESC": null, "MSGID": "WTPN52 PGTW 252100", "VALIDTIME": "2026-08-18 18:00:00" }, "geometry": { "type": "Point", "coordinates": [ 114.300003, 19.299999 ] } },
{ "type": "Feature", "properties": { "ID": 69086, "LAT": 19.4, "LON": 112.5, "VMAX": 20.0, "MSLP": 1012.95825, "RMAX": 45.0, "FSPD": 2.47939, "FDIR": 281.97522, "RENV": 500.0, "PENV": 1012.0, "VALIDT": 0, "DTG": "2026-08-19 00:00", "LATNOW": 20.0, "LONNOW": 109.6, "WINDNOW": 25.0, "DIRNOW": 3.0, "SPDNOW": 1.0, "TECH": "TRAK", "ADVNR": 21, "ATCFID": "WP182026", "NAME": "NARRA", "FTECH": "JTWC", "FCST_DTG": "2026-08-25 18:00:00", "RUN_DTG": "2026-08-26 16:34:15", "BASIN": "WP", "STMNR": 18, "CAT_ID": null, "CAT_DESC": null, "MSGID": "WTPN52 PGTW 252100", "VALIDTIME": "2026-08-19 00:00:00" }, "geometry": { "type": "Point", "coordinates": [ 112.5, 19.4 ] } },
{ "type": "Feature", "properties": { "ID": 69087, "LAT": 19.5, "LON": 112.0, "VMAX": 20.0, "MSLP": 1012.95825, "RMAX": 45.0, "FSPD": 2.90961, "FDIR": 269.99997, "RENV": 500.0, "PENV": 1012.0, "VALIDT": 0, "DTG": "2026-08-19 06:00", "LATNOW": 20.0, "LONNOW": 109.6, "WINDNOW": 25.0, "DIRNOW": 3.0, "SPDNOW": 1.0, "TECH": "TRAK", "ADVNR": 21, "ATCFID": "WP182026", "NAME": "NARRA", "FTECH": "JTWC", "FCST_DTG": "2026-08-25 18:00:00", "RUN_DTG": "2026-08-26 16:34:15", "BASIN": "WP", "STMNR": 18, "CAT_ID": null, "CAT_DESC": null, "MSGID": "WTPN52 PGTW 252100", "VALIDTIME": "2026-08-19 06:00:00" }, "geometry": { "type": "Point", "coordinates": [ 112.0, 19.5 ] } },
{ "type": "Feature", "properties": { "ID": 69088, "LAT": 19.5, "LON": 111.4, "VMAX": 25.0, "MSLP": 1011.80975, "RMAX": 45.0, "FSPD": 2.42468, "FDIR": 269.99997, "RENV": 500.0, "PENV": 1012.0, "VALIDT": 0, "DTG": "2026-08-19 12:00", "LATNOW": 20.0, "LONNOW": 109.6, "WINDNOW": 25.0, "DIRNOW": 3.0, "SPDNOW": 1.0, "TECH": "TRAK", "ADVNR": 21, "ATCFID": "WP182026", "NAME": "NARRA", "FTECH": "JTWC", "FCST_DTG": "2026-08-25 18:00:00", "RUN_DTG": "2026-08-26 16:34:15", "BASIN": "WP", "STMNR": 18, "CAT_ID": null, "CAT_DESC": null, "MSGID": "WTPN52 PGTW 252100", "VALIDTIME": "2026-08-19 12:00:00" }, "geometry": { "type": "Point", "coordinates": [ 111.400002, 19.5 ] } },
{ "type": "Feature", "properties": { "ID": 69089, "LAT": 19.5, "LON": 110.9, "VMAX": 25.0, "MSLP": 1011.80975, "RMAX": 45.0, "FSPD": 2.95437, "FDIR": 280.02826, "RENV": 500.0, "PENV": 1012.0, "VALIDT": 0, "DTG": "2026-08-19 18:00", "LATNOW": 20.0, "LONNOW": 109.6, "WINDNOW": 25.0, "DIRNOW": 3.0, "SPDNOW": 1.0, "TECH": "TRAK", "ADVNR": 21, "ATCFID": "WP182026", "NAME": "NARRA", "FTECH": "JTWC", "FCST_DTG": "2026-08-25 18:00:00", "RUN_DTG": "2026-08-26 16:34:15", "BASIN": "WP", "STMNR": 18, "CAT_ID": null, "CAT_DESC": null, "MSGID": "WTPN52 PGTW 252100", "VALIDTIME": "2026-08-19 18:00:00" }, "geometry": { "type": "Point", "coordinates": [ 110.900002, 19.5 ] } },
{ "type": "Feature", "properties": { "ID": 69090, "LAT": 19.54, "LON": 110.66, "VMAX": 25.0, "MSLP": 1011.80975, "RMAX": 45.0, "FSPD": 2.95351, "FDIR": 280.03088, "RENV": 500.0, "PENV": 1012.0, "VALIDT": 0, "DTG": "2026-08-19 20:00", "LATNOW": 20.0, "LONNOW": 109.6, "WINDNOW": 25.0, "DIRNOW": 3.0, "SPDNOW": 1.0, "TECH": "TRAK", "ADVNR": 21, "ATCFID": "WP182026", "NAME": "NARRA", "FTECH": "JTWC", "FCST_DTG": "2026-08-25 18:00:00", "RUN_DTG": "2026-08-26 16:34:15", "BASIN": "WP", "STMNR": 18, "CAT_ID": null, "CAT_DESC": null, "MSGID": "WTPN52 PGTW 252100", "VALIDTIME": "2026-08-19 20:00:00" }, "geometry": { "type": "Point", "coordinates": [ 110.660004, 19.540001 ] } },
{ "type": "Feature", "properties": { "ID": 69091, "LAT": 19.6, "LON": 110.3, "VMAX": 25.0, "MSLP": 1011.80975, "RMAX": 45.0, "FSPD": 2.90785, "FDIR": 269.99997, "RENV": 500.0, "PENV": 1012.0, "VALIDT": 0, "DTG": "2026-08-20 00:00", "LATNOW": 20.0, "LONNOW": 109.6, "WINDNOW": 25.0, "DIRNOW": 3.0, "SPDNOW": 1.0, "TECH": "TRAK", "ADVNR": 21, "ATCFID": "WP182026", "NAME": "NARRA", "FTECH": "JTWC", "FCST_DTG": "2026-08-25 18:00:00", "RUN_DTG": "2026-08-26 16:34:15", "BASIN": "WP", "STMNR": 18, "CAT_ID": null, "CAT_DESC": null, "MSGID": "WTPN52 PGTW 252100", "VALIDTIME": "2026-08-20 00:00:00" }, "geometry": { "type": "Point", "coordinates": [ 110.300003, 19.6 ] } },
{ "type": "Feature", "properties": { "ID": 69092, "LAT": 19.6, "LON": 109.7, "VMAX": 25.0, "MSLP": 1011.80975, "RMAX": 45.0, "FSPD": 2.63118, "FDIR": 293.01892, "RENV": 500.0, "PENV": 1012.0, "VALIDT": 0, "DTG": "2026-08-20 06:00", "LATNOW": 20.0, "LONNOW": 109.6, "WINDNOW": 25.0, "DIRNOW": 3.0, "SPDNOW": 1.0, "TECH": "TRAK", "ADVNR": 21, "ATCFID": "WP182026", "NAME": "NARRA", "FTECH": "JTWC", "FCST_DTG": "2026-08-25 18:00:00", "RUN_DTG": "2026-08-26 16:34:15", "BASIN": "WP", "STMNR": 18, "CAT_ID": null, "CAT_DESC": null, "MSGID": "WTPN52 PGTW 252100", "VALIDTIME": "2026-08-20 06:00:00" }, "geometry": { "type": "Point", "coordinates": [ 109.699997, 19.6 ] } },
{ "type": "Feature", "properties": { "ID": 69093, "LAT": 19.8, "LON": 109.2, "VMAX": 25.0, "MSLP": 1011.80975, "RMAX": 45.0, "FSPD": 4.16505, "FDIR": 291.7492, "RENV": 500.0, "PENV": 1012.0, "VALIDT": 0, "DTG": "2026-08-20 12:00", "LATNOW": 20.0, "LONNOW": 109.6, "WINDNOW": 25.0, "DIRNOW": 3.0, "SPDNOW": 1.0, "TECH": "TRAK", "ADVNR": 21, "ATCFID": "WP182026", "NAME": "NARRA", "FTECH": "JTWC", "FCST_DTG": "2026-08-25 18:00:00", "RUN_DTG": "2026-08-26 16:34:15", "BASIN": "WP", "STMNR": 18, "CAT_ID": null, "CAT_DESC": null, "MSGID": "WTPN52 PGTW 252100", "VALIDTIME": "2026-08-20 12:00:00" }, "geometry": { "type": "Point", "coordinates": [ 109.199997, 19.799999 ] } },
{ "type": "Feature", "properties": { "ID": 69094, "LAT": 20.1, "LON": 108.4, "VMAX": 25.0, "MSLP": 995.0, "RMAX": 60.0, "FSPD": 1.09436, "FDIR": 61.95987, "RENV": 180.0, "PENV": 1001.0, "VALIDT": 0, "DTG": "2026-08-20 18:00", "LATNOW": 20.0, "LONNOW": 109.6, "WINDNOW": 25.0, "DIRNOW": 3.0, "SPDNOW": 1.0, "TECH": "TRAK", "ADVNR": 21, "ATCFID": "WP182026", "NAME": "NARRA", "FTECH": "JTWC", "FCST_DTG": "2026-08-25 18:00:00", "RUN_DTG": "2026-08-26 16:34:15", "BASIN": "WP", "STMNR": 18, "CAT_ID": null, "CAT_DESC": null, "MSGID": "WTPN52 PGTW 252100", "VALIDTIME": "2026-08-20 18:00:00" }, "geometry": { "type": "Point", "coordinates": [ 108.400002, 20.1 ] } },
{ "type": "Feature", "properties": { "ID": 69095, "LAT": 20.2, "LON": 108.6, "VMAX": 25.0, "MSLP": 995.0, "RMAX": 60.0, "FSPD": 2.05778, "FDIR": 360.0, "RENV": 180.0, "PENV": 1001.0, "VALIDT": 0, "DTG": "2026-08-21 00:00", "LATNOW": 20.0, "LONNOW": 109.6, "WINDNOW": 25.0, "DIRNOW": 3.0, "SPDNOW": 1.0, "TECH": "TRAK", "ADVNR": 21, "ATCFID": "WP182026", "NAME": "NARRA", "FTECH": "JTWC", "FCST_DTG": "2026-08-25 18:00:00", "RUN_DTG": "2026-08-26 16:34:15", "BASIN": "WP", "STMNR": 18, "CAT_ID": null, "CAT_DESC": null, "MSGID": "WTPN52 PGTW 252100", "VALIDTIME": "2026-08-21 00:00:00" }, "geometry": { "type": "Point", "coordinates": [ 108.599998, 20.200001 ] } },
{ "type": "Feature", "properties": { "ID": 69096, "LAT": 20.6, "LON": 108.6, "VMAX": 30.0, "MSLP": 995.0, "RMAX": 50.0, "FSPD": 1.4089, "FDIR": 43.09045, "RENV": 180.0, "PENV": 1002.0, "VALIDT": 0, "DTG": "2026-08-21 06:00", "LATNOW": 20.0, "LONNOW": 109.6, "WINDNOW": 25.0, "DIRNOW": 3.0, "SPDNOW": 1.0, "TECH": "TRAK", "ADVNR": 21, "ATCFID": "WP182026", "NAME": "NARRA", "FTECH": "JTWC", "FCST_DTG": "2026-08-25 18:00:00", "RUN_DTG": "2026-08-26 16:34:15", "BASIN": "WP", "STMNR": 18, "CAT_ID": null, "CAT_DESC": null, "MSGID": "WTPN52 PGTW 252100", "VALIDTIME": "2026-08-21 06:00:00" }, "geometry": { "type": "Point", "coordinates": [ 108.599998, 20.6 ] } },
{ "type": "Feature", "properties": { "ID": 69097, "LAT": 20.8, "LON": 108.8, "VMAX": 35.0, "MSLP": 995.0, "RMAX": 40.0, "FSPD": 1.02889, "FDIR": 360.0, "RENV": 170.0, "PENV": 1002.0, "VALIDT": 0, "DTG": "2026-08-21 12:00", "LATNOW": 20.0, "LONNOW": 109.6, "WINDNOW": 25.0, "DIRNOW": 3.0, "SPDNOW": 1.0, "TECH": "TRAK", "ADVNR": 21, "ATCFID": "WP182026", "NAME": "NARRA", "FTECH": "JTWC", "FCST_DTG": "2026-08-25 18:00:00", "RUN_DTG": "2026-08-26 16:34:15", "BASIN": "WP", "STMNR": 18, "CAT_ID": null, "CAT_DESC": null, "MSGID": "WTPN52 PGTW 252100", "VALIDTIME": "2026-08-21 12:00:00" }, "geometry": { "type": "Point", "coordinates": [ 108.800003, 20.799999 ] } },
{ "type": "Feature", "properties": { "ID": 69098, "LAT": 21.0, "LON": 108.8, "VMAX": 35.0, "MSLP": 994.0, "RMAX": 30.0, "FSPD": 0.7037, "FDIR": 316.97528, "RENV": 155.0, "PENV": 1000.0, "VALIDT": 0, "DTG": "2026-08-21 18:00", "LATNOW": 20.0, "LONNOW": 109.6, "WINDNOW": 25.0, "DIRNOW": 3.0, "SPDNOW": 1.0, "TECH": "TRAK", "ADVNR": 21, "ATCFID": "WP182026", "NAME": "NARRA", "FTECH": "JTWC", "FCST_DTG": "2026-08-25 18:00:00", "RUN_DTG": "2026-08-26 16:34:15", "BASIN": "WP", "STMNR": 18, "CAT_ID": null, "CAT_DESC": null, "MSGID": "WTPN52 PGTW 252100", "VALIDTIME": "2026-08-21 18:00:00" }, "geometry": { "type": "Point", "coordinates": [ 108.800003, 21.0 ] } },
{ "type": "Feature", "properties": { "ID": 69099, "LAT": 21.1, "LON": 108.7, "VMAX": 35.0, "MSLP": 995.0, "RMAX": 30.0, "FSPD": 2.87971, "FDIR": 269.99997, "RENV": 165.0, "PENV": 1001.0, "VALIDT": 0, "DTG": "2026-08-22 00:00", "LATNOW": 20.0, "LONNOW": 109.6, "WINDNOW": 25.0, "DIRNOW": 3.0, "SPDNOW": 1.0, "TECH": "TRAK", "ADVNR": 21, "ATCFID": "WP182026", "NAME": "NARRA", "FTECH": "JTWC", "FCST_DTG": "2026-08-25 18:00:00", "RUN_DTG": "2026-08-26 16:34:15", "BASIN": "WP", "STMNR": 18, "CAT_ID": null, "CAT_DESC": null, "MSGID": "WTPN52 PGTW 252100", "VALIDTIME": "2026-08-22 00:00:00" }, "geometry": { "type": "Point", "coordinates": [ 108.699997, 21.1 ] } },
{ "type": "Feature", "properties": { "ID": 69100, "LAT": 21.1, "LON": 108.1, "VMAX": 30.0, "MSLP": 994.0, "RMAX": 30.0, "FSPD": 0.70367, "FDIR": 223.02246, "RENV": 150.0, "PENV": 1002.0, "VALIDT": 0, "DTG": "2026-08-22 06:00", "LATNOW": 20.0, "LONNOW": 109.6, "WINDNOW": 25.0, "DIRNOW": 3.0, "SPDNOW": 1.0, "TECH": "TRAK", "ADVNR": 21, "ATCFID": "WP182026", "NAME": "NARRA", "FTECH": "JTWC", "FCST_DTG": "2026-08-25 18:00:00", "RUN_DTG": "2026-08-26 16:34:15", "BASIN": "WP", "STMNR": 18, "CAT_ID": null, "CAT_DESC": null, "MSGID": "WTPN52 PGTW 252100", "VALIDTIME": "2026-08-22 06:00:00" }, "geometry": { "type": "Point", "coordinates": [ 108.099998, 21.1 ] } },
{ "type": "Feature", "properties": { "ID": 69101, "LAT": 21.0, "LON": 108.0, "VMAX": 30.0, "MSLP": 995.0, "RMAX": 50.0, "FSPD": 1.44084, "FDIR": 90.0, "RENV": 130.0, "PENV": 1000.0, "VALIDT": 0, "DTG": "2026-08-22 12:00", "LATNOW": 20.0, "LONNOW": 109.6, "WINDNOW": 25.0, "DIRNOW": 3.0, "SPDNOW": 1.0, "TECH": "TRAK", "ADVNR": 21, "ATCFID": "WP182026", "NAME": "NARRA", "FTECH": "JTWC", "FCST_DTG": "2026-08-25 18:00:00", "RUN_DTG": "2026-08-26 16:34:15", "BASIN": "WP", "STMNR": 18, "CAT_ID": null, "CAT_DESC": null, "MSGID": "WTPN52 PGTW 252100", "VALIDTIME": "2026-08-22 12:00:00" }, "geometry": { "type": "Point", "coordinates": [ 108.0, 21.0 ] } },
{ "type": "Feature", "properties": { "ID": 69102, "LAT": 21.0, "LON": 108.3, "VMAX": 30.0, "MSLP": 995.0, "RMAX": 40.0, "FSPD": 2.18042, "FDIR": 241.84363, "RENV": 110.0, "PENV": 1000.0, "VALIDT": 0, "DTG": "2026-08-22 18:00", "LATNOW": 20.0, "LONNOW": 109.6, "WINDNOW": 25.0, "DIRNOW": 3.0, "SPDNOW": 1.0, "TECH": "TRAK", "ADVNR": 21, "ATCFID": "WP182026", "NAME": "NARRA", "FTECH": "JTWC", "FCST_DTG": "2026-08-25 18:00:00", "RUN_DTG": "2026-08-26 16:34:15", "BASIN": "WP", "STMNR": 18, "CAT_ID": null, "CAT_DESC": null, "MSGID": "WTPN52 PGTW 252100", "VALIDTIME": "2026-08-22 18:00:00" }, "geometry": { "type": "Point", "coordinates": [ 108.300003, 21.0 ] } },
{ "type": "Feature", "properties": { "ID": 69103, "LAT": 20.8, "LON": 107.9, "VMAX": 35.0, "MSLP": 995.0, "RMAX": 40.0, "FSPD": 1.40887, "FDIR": 136.91058, "RENV": 110.0, "PENV": 1000.0, "VALIDT": 0, "DTG": "2026-08-23 00:00", "LATNOW": 20.0, "LONNOW": 109.6, "WINDNOW": 25.0, "DIRNOW": 3.0, "SPDNOW": 1.0, "TECH": "TRAK", "ADVNR": 21, "ATCFID": "WP182026", "NAME": "NARRA", "FTECH": "JTWC", "FCST_DTG": "2026-08-25 18:00:00", "RUN_DTG": "2026-08-26 16:34:15", "BASIN": "WP", "STMNR": 18, "CAT_ID": null, "CAT_DESC": null, "MSGID": "WTPN52 PGTW 252100", "VALIDTIME": "2026-08-23 00:00:00" }, "geometry": { "type": "Point", "coordinates": [ 107.900002, 20.799999 ] } },
{ "type": "Feature", "properties": { "ID": 69104, "LAT": 20.6, "LON": 108.1, "VMAX": 35.0, "MSLP": 994.0, "RMAX": 40.0, "FSPD": 0.51445, "FDIR": 179.99997, "RENV": 130.0, "PENV": 1002.0, "VALIDT": 0, "DTG": "2026-08-23 06:00", "LATNOW": 20.0, "LONNOW": 109.6, "WINDNOW": 25.0, "DIRNOW": 3.0, "SPDNOW": 1.0, "TECH": "TRAK", "ADVNR": 21, "ATCFID": "WP182026", "NAME": "NARRA", "FTECH": "JTWC", "FCST_DTG": "2026-08-25 18:00:00", "RUN_DTG": "2026-08-26 16:34:15", "BASIN": "WP", "STMNR": 18, "CAT_ID": null, "CAT_DESC": null, "MSGID": "WTPN52 PGTW 252100", "VALIDTIME": "2026-08-23 06:00:00" }, "geometry": { "type": "Point", "coordinates": [ 108.099998, 20.6 ] } },
{ "type": "Feature", "properties": { "ID": 69105, "LAT": 20.5, "LON": 108.1, "VMAX": 40.0, "MSLP": 993.0, "RMAX": 30.0, "FSPD": 1.53483, "FDIR": 250.41641, "RENV": 130.0, "PENV": 1000.0, "VALIDT": 0, "DTG": "2026-08-23 12:00", "LATNOW": 20.0, "LONNOW": 109.6, "WINDNOW": 25.0, "DIRNOW": 3.0, "SPDNOW": 1.0, "TECH": "TRAK", "ADVNR": 21, "ATCFID": "WP182026", "NAME": "NARRA", "FTECH": "JTWC", "FCST_DTG": "2026-08-25 18:00:00", "RUN_DTG": "2026-08-26 16:34:15", "BASIN": "WP", "STMNR": 18, "CAT_ID": null, "CAT_DESC": null, "MSGID": "WTPN52 PGTW 252100", "VALIDTIME": "2026-08-23 12:00:00" }, "geometry": { "type": "Point", "coordinates": [ 108.099998, 20.5 ] } },
{ "type": "Feature", "properties": { "ID": 69106, "LAT": 20.4, "LON": 107.8, "VMAX": 40.0, "MSLP": 992.0, "RMAX": 30.0, "FSPD": 1.09329, "FDIR": 241.9301, "RENV": 120.0, "PENV": 1000.0, "VALIDT": 0, "DTG": "2026-08-23 18:00", "LATNOW": 20.0, "LONNOW": 109.6, "WINDNOW": 25.0, "DIRNOW": 3.0, "SPDNOW": 1.0, "TECH": "TRAK", "ADVNR": 21, "ATCFID": "WP182026", "NAME": "NARRA", "FTECH": "JTWC", "FCST_DTG": "2026-08-25 18:00:00", "RUN_DTG": "2026-08-26 16:34:15", "BASIN": "WP", "STMNR": 18, "CAT_ID": null, "CAT_DESC": null, "MSGID": "WTPN52 PGTW 252100", "VALIDTIME": "2026-08-23 18:00:00" }, "geometry": { "type": "Point", "coordinates": [ 107.800003, 20.4 ] } },
{ "type": "Feature", "properties": { "ID": 69107, "LAT": 20.3, "LON": 107.6, "VMAX": 40.0, "MSLP": 992.0, "RMAX": 20.0, "FSPD": 2.51693, "FDIR": 215.15741, "RENV": 125.0, "PENV": 1001.0, "VALIDT": 0, "DTG": "2026-08-24 00:00", "LATNOW": 20.0, "LONNOW": 109.6, "WINDNOW": 25.0, "DIRNOW": 3.0, "SPDNOW": 1.0, "TECH": "TRAK", "ADVNR": 21, "ATCFID": "WP182026", "NAME": "NARRA", "FTECH": "JTWC", "FCST_DTG": "2026-08-25 18:00:00", "RUN_DTG": "2026-08-26 16:34:15", "BASIN": "WP", "STMNR": 18, "CAT_ID": null, "CAT_DESC": null, "MSGID": "WTPN52 PGTW 252100", "VALIDTIME": "2026-08-24 00:00:00" }, "geometry": { "type": "Point", "coordinates": [ 107.599998, 20.299999 ] } },
{ "type": "Feature", "properties": { "ID": 69108, "LAT": 19.9, "LON": 107.3, "VMAX": 40.0, "MSLP": 991.0, "RMAX": 20.0, "FSPD": 1.54333, "FDIR": 179.99997, "RENV": 120.0, "PENV": 1001.0, "VALIDT": 0, "DTG": "2026-08-24 06:00", "LATNOW": 20.0, "LONNOW": 109.6, "WINDNOW": 25.0, "DIRNOW": 3.0, "SPDNOW": 1.0, "TECH": "TRAK", "ADVNR": 21, "ATCFID": "WP182026", "NAME": "NARRA", "FTECH": "JTWC", "FCST_DTG": "2026-08-25 18:00:00", "RUN_DTG": "2026-08-26 16:34:15", "BASIN": "WP", "STMNR": 18, "CAT_ID": null, "CAT_DESC": null, "MSGID": "WTPN52 PGTW 252100", "VALIDTIME": "2026-08-24 06:00:00" }, "geometry": { "type": "Point", "coordinates": [ 107.300003, 19.9 ] } },
{ "type": "Feature", "properties": { "ID": 69109, "LAT": 19.6, "LON": 107.3, "VMAX": 40.0, "MSLP": 989.0, "RMAX": 30.0, "FSPD": 2.0062, "FDIR": 104.85822, "RENV": 110.0, "PENV": 998.0, "VALIDT": 0, "DTG": "2026-08-24 12:00", "LATNOW": 20.0, "LONNOW": 109.6, "WINDNOW": 25.0, "DIRNOW": 3.0, "SPDNOW": 1.0, "TECH": "TRAK", "ADVNR": 21, "ATCFID": "WP182026", "NAME": "NARRA", "FTECH": "JTWC", "FCST_DTG": "2026-08-25 18:00:00", "RUN_DTG": "2026-08-26 16:34:15", "BASIN": "WP", "STMNR": 18, "CAT_ID": null, "CAT_DESC": null, "MSGID": "WTPN52 PGTW 252100", "VALIDTIME": "2026-08-24 12:00:00" }, "geometry": { "type": "Point", "coordinates": [ 107.300003, 19.6 ] } },
{ "type": "Feature", "properties": { "ID": 69110, "LAT": 19.5, "LON": 107.7, "VMAX": 35.0, "MSLP": 990.0, "RMAX": 30.0, "FSPD": 1.41436, "FDIR": 223.32582, "RENV": 100.0, "PENV": 999.0, "VALIDT": 0, "DTG": "2026-08-24 18:00", "LATNOW": 20.0, "LONNOW": 109.6, "WINDNOW": 25.0, "DIRNOW": 3.0, "SPDNOW": 1.0, "TECH": "TRAK", "ADVNR": 21, "ATCFID": "WP182026", "NAME": "NARRA", "FTECH": "JTWC", "FCST_DTG": "2026-08-25 18:00:00", "RUN_DTG": "2026-08-26 16:34:15", "BASIN": "WP", "STMNR": 18, "CAT_ID": null, "CAT_DESC": null, "MSGID": "WTPN52 PGTW 252100", "VALIDTIME": "2026-08-24 18:00:00" }, "geometry": { "type": "Point", "coordinates": [ 107.699997, 19.5 ] } },
{ "type": "Feature", "properties": { "ID": 69111, "LAT": 19.3, "LON": 107.5, "VMAX": 35.0, "MSLP": 992.0, "RMAX": 30.0, "FSPD": 3.4364, "FDIR": 81.39017, "RENV": 95.0, "PENV": 999.0, "VALIDT": 0, "DTG": "2026-08-25 00:00", "LATNOW": 20.0, "LONNOW": 109.6, "WINDNOW": 25.0, "DIRNOW": 3.0, "SPDNOW": 1.0, "TECH": "TRAK", "ADVNR": 21, "ATCFID": "WP182026", "NAME": "NARRA", "FTECH": "JTWC", "FCST_DTG": "2026-08-25 18:00:00", "RUN_DTG": "2026-08-26 16:34:15", "BASIN": "WP", "STMNR": 18, "CAT_ID": null, "CAT_DESC": null, "MSGID": "WTPN52 PGTW 252100", "VALIDTIME": "2026-08-25 00:00:00" }, "geometry": { "type": "Point", "coordinates": [ 107.5, 19.299999 ] } },
{ "type": "Feature", "properties": { "ID": 69112, "LAT": 19.4, "LON": 108.2, "VMAX": 40.0, "MSLP": 993.0, "RMAX": 30.0, "FSPD": 3.43438, "FDIR": 81.38504, "RENV": 100.0, "PENV": 1000.0, "VALIDT": 0, "DTG": "2026-08-25 06:00", "LATNOW": 20.0, "LONNOW": 109.6, "WINDNOW": 25.0, "DIRNOW": 3.0, "SPDNOW": 1.0, "TECH": "TRAK", "ADVNR": 21, "ATCFID": "WP182026", "NAME": "NARRA", "FTECH": "JTWC", "FCST_DTG": "2026-08-25 18:00:00", "RUN_DTG": "2026-08-26 16:34:15", "BASIN": "WP", "STMNR": 18, "CAT_ID": null, "CAT_DESC": null, "MSGID": "WTPN52 PGTW 252100", "VALIDTIME": "2026-08-25 06:00:00" }, "geometry": { "type": "Point", "coordinates": [ 108.199997, 19.4 ] } },
{ "type": "Feature", "properties": { "ID": 69113, "LAT": 19.5, "LON": 108.9, "VMAX": 30.0, "MSLP": 991.0, "RMAX": 35.0, "FSPD": 4.25481, "FDIR": 52.80396, "RENV": 60.0, "PENV": 998.0, "VALIDT": 0, "DTG": "2026-08-25 12:00", "LATNOW": 20.0, "LONNOW": 109.6, "WINDNOW": 25.0, "DIRNOW": 3.0, "SPDNOW": 1.0, "TECH": "TRAK", "ADVNR": 21, "ATCFID": "WP182026", "NAME": "NARRA", "FTECH": "JTWC", "FCST_DTG": "2026-08-25 18:00:00", "RUN_DTG": "2026-08-26 16:34:15", "BASIN": "WP", "STMNR": 18, "CAT_ID": null, "CAT_DESC": null, "MSGID": "WTPN52 PGTW 252100", "VALIDTIME": "2026-08-25 12:00:00" }, "geometry": { "type": "Point", "coordinates": [ 108.900002, 19.5 ] } },
{ "type": "Feature", "properties": { "ID": 69114, "LAT": 20.0, "LON": 109.6, "VMAX": 25.0, "MSLP": 994.0, "RMAX": 35.0, "FSPD": 2.86452, "FDIR": 36.08325, "RENV": 50.0, "PENV": 998.0, "VALIDT": 0, "DTG": "2026-08-25 18:00", "LATNOW": 20.0, "LONNOW": 109.6, "WINDNOW": 25.0, "DIRNOW": 3.0, "SPDNOW": 1.0, "TECH": "TRAK", "ADVNR": 21, "ATCFID": "WP182026", "NAME": "NARRA", "FTECH": "JTWC", "FCST_DTG": "2026-08-25 18:00:00", "RUN_DTG": "2026-08-26 16:34:15", "BASIN": "WP", "STMNR": 18, "CAT_ID": null, "CAT_DESC": null, "MSGID": "WTPN52 PGTW 252100", "VALIDTIME": "2026-08-25 18:00:00" }, "geometry": { "type": "Point", "coordinates": [ 109.599998, 20.0 ] } },
{ "type": "Feature", "properties": { "ID": 69115, "LAT": 20.9, "LON": 110.3, "VMAX": 20.0, "MSLP": 1012.95825, "RMAX": 45.10376, "FSPD": 2.67067, "FDIR": 15.60571, "RENV": 250.0, "PENV": 1012.0, "VALIDT": 12, "DTG": "2026-08-26 06:00", "LATNOW": 20.0, "LONNOW": 109.6, "WINDNOW": 25.0, "DIRNOW": 3.0, "SPDNOW": 1.0, "TECH": "FCST", "ADVNR": 21, "ATCFID": "WP182026", "NAME": "NARRA", "FTECH": "JTWC", "FCST_DTG": "2026-08-25 18:00:00", "RUN_DTG": "2026-08-26 16:34:15", "BASIN": "WP", "STMNR": 18, "CAT_ID": null, "CAT_DESC": null, "MSGID": "WTPN52 PGTW 252100", "VALIDTIME": "2026-08-26 06:00:00" }, "geometry": { "type": "Point", "coordinates": [ 110.300003, 20.9 ] } },
{ "type": "Feature", "properties": { "ID": 69116, "LAT": 21.9, "LON": 110.6, "VMAX": 15.0, "MSLP": 1013.8515, "RMAX": 40.09223, "FSPD": 2.67067, "FDIR": 15.60571, "RENV": 250.0, "PENV": 1012.0, "VALIDT": 24, "DTG": "2026-08-26 18:00", "LATNOW": 20.0, "LONNOW": 109.6, "WINDNOW": 25.0, "DIRNOW": 3.0, "SPDNOW": 1.0, "TECH": "FCST", "ADVNR": 21, "ATCFID": "WP182026", "NAME": "NARRA", "FTECH": "JTWC", "FCST_DTG": "2026-08-25 18:00:00", "RUN_DTG": "2026-08-26 16:34:15", "BASIN": "WP", "STMNR": 18, "CAT_ID": null, "CAT_DESC": null, "MSGID": "WTPN52 PGTW 252100", "VALIDTIME": "2026-08-26 18:00:00" }, "geometry": { "type": "Point", "coordinates": [ 110.599998, 21.9 ] } },
{ "type": "Feature", "properties": { "ID": 69114, "LAT": 20.0, "LON": 109.6, "VMAX": 25.0, "MSLP": 994.0, "RMAX": 35.0, "FSPD": 2.86452, "FDIR": 36.08325, "RENV": 50.0, "PENV": 998.0, "VALIDT": 0, "DTG": "2026-08-25 18:00", "LATNOW": 20.0, "LONNOW": 109.6, "WINDNOW": 25.0, "DIRNOW": 3.0, "SPDNOW": 1.0, "TECH": "TRAK", "ADVNR": 21, "ATCFID": "WP182026", "NAME": "NARRA", "FTECH": "JTWC", "FCST_DTG": "2026-08-25 18:00:00", "RUN_DTG": "2026-08-26 16:34:15", "BASIN": "WP", "STMNR": 18, "CAT_ID": null, "CAT_DESC": null, "MSGID": "WTPN52 PGTW 252100", "VALIDTIME": "2026-08-25 18:00:00" }, "geometry": { "type": "LineString", "coordinates": [ [ 119.1, 21.9 ], [ 118.6, 21.8 ], [ 118.4, 21.3 ], [ 117.8, 20.8 ], [ 117.6, 20.3 ], [ 117.4, 19.9 ], [ 117.1, 19.3 ], [ 115.9, 19.3 ], [ 114.3, 19.3 ], [ 112.5, 19.4 ], [ 112.0, 19.5 ], [ 111.4, 19.5 ], [ 110.9, 19.5 ], [ 110.66, 19.54 ], [ 110.3, 19.6 ], [ 109.7, 19.6 ], [ 109.2, 19.8 ], [ 108.4, 20.1 ], [ 108.6, 20.2 ], [ 108.6, 20.6 ], [ 108.8, 20.8 ], [ 108.8, 21.0 ], [ 108.7, 21.1 ], [ 108.1, 21.1 ], [ 108.0, 21.0 ], [ 108.3, 21.0 ], [ 107.9, 20.8 ], [ 108.1, 20.6 ], [ 108.1, 20.5 ], [ 107.8, 20.4 ], [ 107.6, 20.3 ], [ 107.3, 19.9 ], [ 107.3, 19.6 ], [ 107.7, 19.5 ], [ 107.5, 19.3 ], [ 108.2, 19.4 ], [ 108.9, 19.5 ], [ 109.6, 20.0 ] ] } },
{ "type": "Feature", "properties": { "ID": 69116, "LAT": 21.9, "LON": 110.6, "VMAX": 15.0, "MSLP": 1013.8515, "RMAX": 40.09223, "FSPD": 2.67067, "FDIR": 15.60571, "RENV": 250.0, "PENV": 1012.0, "VALIDT": 24, "DTG": "2026-08-26 18:00", "LATNOW": 20.0, "LONNOW": 109.6, "WINDNOW": 25.0, "DIRNOW": 3.0, "SPDNOW": 1.0, "TECH": "FCST", "ADVNR": 21, "ATCFID": "WP182026", "NAME": "NARRA", "FTECH": "JTWC", "FCST_DTG": "2026-08-25 18:00:00", "RUN_DTG": "2026-08-26 16:34:15", "BASIN": "WP", "STMNR": 18, "CAT_ID": null, "CAT_DESC": null, "MSGID": "WTPN52 PGTW 252100", "VALIDTIME": "2026-08-26 18:00:00" }, "geometry": { "type": "LineString", "coordinates": [ [ 109.6, 20.0 ], [ 110.3, 20.9 ], [ 110.6, 21.9 ] ] } }
]
}
