{
"type": "FeatureCollection",
"crs": { "type": "name", "properties": { "name": "urn:ogc:def:crs:OGC:1.3:CRS84" } },
"features": [
{ "type": "Feature", "properties": { "ID": 26397, "LAT": 11.9, "LON": 133.8, "VMAX": 20.0, "MSLP": 1012.95825, "RMAX": 45.0, "FSPD": 10.40477, "FDIR": 299.63223, "RENV": 500.0, "PENV": 1012.0, "VALIDT": 0, "DTG": "2025-08-19 18:00", "LATNOW": 18.6, "LONNOW": 105.7, "WINDNOW": 80.0, "DIRNOW": 5.0, "SPDNOW": 3.0, "TECH": "TRAK", "ADVNR": 13, "ATCFID": "WP192025", "NAME": "KAJIKI", "FTECH": "JTWC", "FCST_DTG": "2025-08-25 12:00:00", "RUN_DTG": "2025-08-26 06:27:15", "BASIN": "WP", "STMNR": 19, "CAT_ID": null, "CAT_DESC": null, "MSGID": "WTPN51 PGTW 251500", "VALIDTIME": "2025-08-19 18:00:00" }, "geometry": { "type": "Point", "coordinates": [ 133.800003, 11.9 ] } },
{ "type": "Feature", "properties": { "ID": 26398, "LAT": 12.9, "LON": 132.0, "VMAX": 15.0, "MSLP": 1013.8515, "RMAX": 40.0, "FSPD": 7.70048, "FDIR": 302.30695, "RENV": 500.0, "PENV": 1012.0, "VALIDT": 0, "DTG": "2025-08-20 00:00", "LATNOW": 18.6, "LONNOW": 105.7, "WINDNOW": 80.0, "DIRNOW": 5.0, "SPDNOW": 3.0, "TECH": "TRAK", "ADVNR": 13, "ATCFID": "WP192025", "NAME": "KAJIKI", "FTECH": "JTWC", "FCST_DTG": "2025-08-25 12:00:00", "RUN_DTG": "2025-08-26 06:27:15", "BASIN": "WP", "STMNR": 19, "CAT_ID": null, "CAT_DESC": null, "MSGID": "WTPN51 PGTW 251500", "VALIDTIME": "2025-08-20 00:00:00" }, "geometry": { "type": "Point", "coordinates": [ 132.0, 12.9 ] } },
{ "type": "Feature", "properties": { "ID": 26399, "LAT": 13.7, "LON": 130.7, "VMAX": 15.0, "MSLP": 1013.8515, "RMAX": 40.0, "FSPD": 8.37906, "FDIR": 303.5434, "RENV": 500.0, "PENV": 1012.0, "VALIDT": 0, "DTG": "2025-08-20 06:00", "LATNOW": 18.6, "LONNOW": 105.7, "WINDNOW": 80.0, "DIRNOW": 5.0, "SPDNOW": 3.0, "TECH": "TRAK", "ADVNR": 13, "ATCFID": "WP192025", "NAME": "KAJIKI", "FTECH": "JTWC", "FCST_DTG": "2025-08-25 12:00:00", "RUN_DTG": "2025-08-26 06:27:15", "BASIN": "WP", "STMNR": 19, "CAT_ID": null, "CAT_DESC": null, "MSGID": "WTPN51 PGTW 251500", "VALIDTIME": "2025-08-20 06:00:00" }, "geometry": { "type": "Point", "coordinates": [ 130.699997, 13.7 ] } },
{ "type": "Feature", "properties": { "ID": 26400, "LAT": 14.6, "LON": 129.3, "VMAX": 15.0, "MSLP": 1013.8515, "RMAX": 40.0, "FSPD": 6.649, "FDIR": 283.42157, "RENV": 500.0, "PENV": 1012.0, "VALIDT": 0, "DTG": "2025-08-20 12:00", "LATNOW": 18.6, "LONNOW": 105.7, "WINDNOW": 80.0, "DIRNOW": 5.0, "SPDNOW": 3.0, "TECH": "TRAK", "ADVNR": 13, "ATCFID": "WP192025", "NAME": "KAJIKI", "FTECH": "JTWC", "FCST_DTG": "2025-08-25 12:00:00", "RUN_DTG": "2025-08-26 06:27:15", "BASIN": "WP", "STMNR": 19, "CAT_ID": null, "CAT_DESC": null, "MSGID": "WTPN51 PGTW 251500", "VALIDTIME": "2025-08-20 12:00:00" }, "geometry": { "type": "Point", "coordinates": [ 129.300003, 14.6 ] } },
{ "type": "Feature", "properties": { "ID": 26401, "LAT": 14.9, "LON": 128.0, "VMAX": 15.0, "MSLP": 1013.8515, "RMAX": 40.0, "FSPD": 6.05108, "FDIR": 279.7898, "RENV": 500.0, "PENV": 1012.0, "VALIDT": 0, "DTG": "2025-08-20 18:00", "LATNOW": 18.6, "LONNOW": 105.7, "WINDNOW": 80.0, "DIRNOW": 5.0, "SPDNOW": 3.0, "TECH": "TRAK", "ADVNR": 13, "ATCFID": "WP192025", "NAME": "KAJIKI", "FTECH": "JTWC", "FCST_DTG": "2025-08-25 12:00:00", "RUN_DTG": "2025-08-26 06:27:15", "BASIN": "WP", "STMNR": 19, "CAT_ID": null, "CAT_DESC": null, "MSGID": "WTPN51 PGTW 251500", "VALIDTIME": "2025-08-20 18:00:00" }, "geometry": { "type": "Point", "coordinates": [ 128.0, 14.9 ] } },
{ "type": "Feature", "properties": { "ID": 26402, "LAT": 15.1, "LON": 126.8, "VMAX": 15.0, "MSLP": 1013.8515, "RMAX": 40.0, "FSPD": 7.14842, "FDIR": 295.5816, "RENV": 500.0, "PENV": 1012.0, "VALIDT": 0, "DTG": "2025-08-21 00:00", "LATNOW": 18.6, "LONNOW": 105.7, "WINDNOW": 80.0, "DIRNOW": 5.0, "SPDNOW": 3.0, "TECH": "TRAK", "ADVNR": 13, "ATCFID": "WP192025", "NAME": "KAJIKI", "FTECH": "JTWC", "FCST_DTG": "2025-08-25 12:00:00", "RUN_DTG": "2025-08-26 06:27:15", "BASIN": "WP", "STMNR": 19, "CAT_ID": null, "CAT_DESC": null, "MSGID": "WTPN51 PGTW 251500", "VALIDTIME": "2025-08-21 00:00:00" }, "geometry": { "type": "Point", "coordinates": [ 126.800003, 15.1 ] } },
{ "type": "Feature", "properties": { "ID": 26403, "LAT": 15.7, "LON": 125.5, "VMAX": 15.0, "MSLP": 1013.8515, "RMAX": 40.0, "FSPD": 5.05588, "FDIR": 281.74188, "RENV": 500.0, "PENV": 1012.0, "VALIDT": 0, "DTG": "2025-08-21 06:00", "LATNOW": 18.6, "LONNOW": 105.7, "WINDNOW": 80.0, "DIRNOW": 5.0, "SPDNOW": 3.0, "TECH": "TRAK", "ADVNR": 13, "ATCFID": "WP192025", "NAME": "KAJIKI", "FTECH": "JTWC", "FCST_DTG": "2025-08-25 12:00:00", "RUN_DTG": "2025-08-26 06:27:15", "BASIN": "WP", "STMNR": 19, "CAT_ID": null, "CAT_DESC": null, "MSGID": "WTPN51 PGTW 251500", "VALIDTIME": "2025-08-21 06:00:00" }, "geometry": { "type": "Point", "coordinates": [ 125.5, 15.7 ] } },
{ "type": "Feature", "properties": { "ID": 26404, "LAT": 15.9, "LON": 124.5, "VMAX": 15.0, "MSLP": 1013.8515, "RMAX": 40.0, "FSPD": 4.97307, "FDIR": 275.93762, "RENV": 500.0, "PENV": 1012.0, "VALIDT": 0, "DTG": "2025-08-21 12:00", "LATNOW": 18.6, "LONNOW": 105.7, "WINDNOW": 80.0, "DIRNOW": 5.0, "SPDNOW": 3.0, "TECH": "TRAK", "ADVNR": 13, "ATCFID": "WP192025", "NAME": "KAJIKI", "FTECH": "JTWC", "FCST_DTG": "2025-08-25 12:00:00", "RUN_DTG": "2025-08-26 06:27:15", "BASIN": "WP", "STMNR": 19, "CAT_ID": null, "CAT_DESC": null, "MSGID": "WTPN51 PGTW 251500", "VALIDTIME": "2025-08-21 12:00:00" }, "geometry": { "type": "Point", "coordinates": [ 124.5, 15.9 ] } },
{ "type": "Feature", "properties": { "ID": 26405, "LAT": 16.0, "LON": 123.5, "VMAX": 20.0, "MSLP": 1012.95825, "RMAX": 45.0, "FSPD": 5.04863, "FDIR": 281.75903, "RENV": 500.0, "PENV": 1012.0, "VALIDT": 0, "DTG": "2025-08-21 18:00", "LATNOW": 18.6, "LONNOW": 105.7, "WINDNOW": 80.0, "DIRNOW": 5.0, "SPDNOW": 3.0, "TECH": "TRAK", "ADVNR": 13, "ATCFID": "WP192025", "NAME": "KAJIKI", "FTECH": "JTWC", "FCST_DTG": "2025-08-25 12:00:00", "RUN_DTG": "2025-08-26 06:27:15", "BASIN": "WP", "STMNR": 19, "CAT_ID": null, "CAT_DESC": null, "MSGID": "WTPN51 PGTW 251500", "VALIDTIME": "2025-08-21 18:00:00" }, "geometry": { "type": "Point", "coordinates": [ 123.5, 16.0 ] } },
{ "type": "Feature", "properties": { "ID": 26406, "LAT": 16.2, "LON": 122.5, "VMAX": 25.0, "MSLP": 1011.80975, "RMAX": 45.0, "FSPD": 3.13659, "FDIR": 289.149, "RENV": 500.0, "PENV": 1012.0, "VALIDT": 0, "DTG": "2025-08-22 00:00", "LATNOW": 18.6, "LONNOW": 105.7, "WINDNOW": 80.0, "DIRNOW": 5.0, "SPDNOW": 3.0, "TECH": "TRAK", "ADVNR": 13, "ATCFID": "WP192025", "NAME": "KAJIKI", "FTECH": "JTWC", "FCST_DTG": "2025-08-25 12:00:00", "RUN_DTG": "2025-08-26 06:27:15", "BASIN": "WP", "STMNR": 19, "CAT_ID": null, "CAT_DESC": null, "MSGID": "WTPN51 PGTW 251500", "VALIDTIME": "2025-08-22 00:00:00" }, "geometry": { "type": "Point", "coordinates": [ 122.5, 16.200001 ] } },
{ "type": "Feature", "properties": { "ID": 26407, "LAT": 16.34, "LON": 122.08, "VMAX": 25.0, "MSLP": 1011.80975, "RMAX": 45.0, "FSPD": 3.13518, "FDIR": 289.1579, "RENV": 500.0, "PENV": 1012.0, "VALIDT": 0, "DTG": "2025-08-22 04:00", "LATNOW": 18.6, "LONNOW": 105.7, "WINDNOW": 80.0, "DIRNOW": 5.0, "SPDNOW": 3.0, "TECH": "TRAK", "ADVNR": 13, "ATCFID": "WP192025", "NAME": "KAJIKI", "FTECH": "JTWC", "FCST_DTG": "2025-08-25 12:00:00", "RUN_DTG": "2025-08-26 06:27:15", "BASIN": "WP", "STMNR": 19, "CAT_ID": null, "CAT_DESC": null, "MSGID": "WTPN51 PGTW 251500", "VALIDTIME": "2025-08-22 04:00:00" }, "geometry": { "type": "Point", "coordinates": [ 122.080002, 16.34 ] } },
{ "type": "Feature", "properties": { "ID": 26408, "LAT": 16.4, "LON": 121.9, "VMAX": 20.0, "MSLP": 1012.95825, "RMAX": 45.0, "FSPD": 12.98221, "FDIR": 279.12024, "RENV": 500.0, "PENV": 1012.0, "VALIDT": 0, "DTG": "2025-08-22 06:00", "LATNOW": 18.6, "LONNOW": 105.7, "WINDNOW": 80.0, "DIRNOW": 5.0, "SPDNOW": 3.0, "TECH": "TRAK", "ADVNR": 13, "ATCFID": "WP192025", "NAME": "KAJIKI", "FTECH": "JTWC", "FCST_DTG": "2025-08-25 12:00:00", "RUN_DTG": "2025-08-26 06:27:15", "BASIN": "WP", "STMNR": 19, "CAT_ID": null, "CAT_DESC": null, "MSGID": "WTPN51 PGTW 251500", "VALIDTIME": "2025-08-22 06:00:00" }, "geometry": { "type": "Point", "coordinates": [ 121.900002, 16.4 ] } },
{ "type": "Feature", "properties": { "ID": 26409, "LAT": 16.8, "LON": 119.3, "VMAX": 25.0, "MSLP": 1011.80975, "RMAX": 45.0, "FSPD": 11.42298, "FDIR": 277.76486, "RENV": 500.0, "PENV": 1012.0, "VALIDT": 0, "DTG": "2025-08-22 12:00", "LATNOW": 18.6, "LONNOW": 105.7, "WINDNOW": 80.0, "DIRNOW": 5.0, "SPDNOW": 3.0, "TECH": "TRAK", "ADVNR": 13, "ATCFID": "WP192025", "NAME": "KAJIKI", "FTECH": "JTWC", "FCST_DTG": "2025-08-25 12:00:00", "RUN_DTG": "2025-08-26 06:27:15", "BASIN": "WP", "STMNR": 19, "CAT_ID": null, "CAT_DESC": null, "MSGID": "WTPN51 PGTW 251500", "VALIDTIME": "2025-08-22 12:00:00" }, "geometry": { "type": "Point", "coordinates": [ 119.300003, 16.799999 ] } },
{ "type": "Feature", "properties": { "ID": 26410, "LAT": 17.1, "LON": 117.0, "VMAX": 30.0, "MSLP": 1002.0, "RMAX": 40.0, "FSPD": 2.84508, "FDIR": 316.32562, "RENV": 175.0, "PENV": 1006.0, "VALIDT": 0, "DTG": "2025-08-22 18:00", "LATNOW": 18.6, "LONNOW": 105.7, "WINDNOW": 80.0, "DIRNOW": 5.0, "SPDNOW": 3.0, "TECH": "TRAK", "ADVNR": 13, "ATCFID": "WP192025", "NAME": "KAJIKI", "FTECH": "JTWC", "FCST_DTG": "2025-08-25 12:00:00", "RUN_DTG": "2025-08-26 06:27:15", "BASIN": "WP", "STMNR": 19, "CAT_ID": null, "CAT_DESC": null, "MSGID": "WTPN51 PGTW 251500", "VALIDTIME": "2025-08-22 18:00:00" }, "geometry": { "type": "Point", "coordinates": [ 117.0, 17.1 ] } },
{ "type": "Feature", "properties": { "ID": 26411, "LAT": 17.5, "LON": 116.6, "VMAX": 40.0, "MSLP": 1002.0, "RMAX": 40.0, "FSPD": 7.86482, "FDIR": 273.75043, "RENV": 175.0, "PENV": 1006.0, "VALIDT": 0, "DTG": "2025-08-23 00:00", "LATNOW": 18.6, "LONNOW": 105.7, "WINDNOW": 80.0, "DIRNOW": 5.0, "SPDNOW": 3.0, "TECH": "TRAK", "ADVNR": 13, "ATCFID": "WP192025", "NAME": "KAJIKI", "FTECH": "JTWC", "FCST_DTG": "2025-08-25 12:00:00", "RUN_DTG": "2025-08-26 06:27:15", "BASIN": "WP", "STMNR": 19, "CAT_ID": null, "CAT_DESC": null, "MSGID": "WTPN51 PGTW 251500", "VALIDTIME": "2025-08-23 00:00:00" }, "geometry": { "type": "Point", "coordinates": [ 116.599998, 17.5 ] } },
{ "type": "Feature", "properties": { "ID": 26412, "LAT": 17.6, "LON": 115.0, "VMAX": 50.0, "MSLP": 1000.0, "RMAX": 40.0, "FSPD": 7.03085, "FDIR": 282.6801, "RENV": 150.0, "PENV": 1006.0, "VALIDT": 0, "DTG": "2025-08-23 06:00", "LATNOW": 18.6, "LONNOW": 105.7, "WINDNOW": 80.0, "DIRNOW": 5.0, "SPDNOW": 3.0, "TECH": "TRAK", "ADVNR": 13, "ATCFID": "WP192025", "NAME": "KAJIKI", "FTECH": "JTWC", "FCST_DTG": "2025-08-25 12:00:00", "RUN_DTG": "2025-08-26 06:27:15", "BASIN": "WP", "STMNR": 19, "CAT_ID": null, "CAT_DESC": null, "MSGID": "WTPN51 PGTW 251500", "VALIDTIME": "2025-08-23 06:00:00" }, "geometry": { "type": "Point", "coordinates": [ 115.0, 17.6 ] } },
{ "type": "Feature", "properties": { "ID": 26413, "LAT": 17.9, "LON": 113.6, "VMAX": 55.0, "MSLP": 995.0, "RMAX": 40.0, "FSPD": 7.75394, "FDIR": 242.3271, "RENV": 150.0, "PENV": 1006.0, "VALIDT": 0, "DTG": "2025-08-23 12:00", "LATNOW": 18.6, "LONNOW": 105.7, "WINDNOW": 80.0, "DIRNOW": 5.0, "SPDNOW": 3.0, "TECH": "TRAK", "ADVNR": 13, "ATCFID": "WP192025", "NAME": "KAJIKI", "FTECH": "JTWC", "FCST_DTG": "2025-08-25 12:00:00", "RUN_DTG": "2025-08-26 06:27:15", "BASIN": "WP", "STMNR": 19, "CAT_ID": null, "CAT_DESC": null, "MSGID": "WTPN51 PGTW 251500", "VALIDTIME": "2025-08-23 12:00:00" }, "geometry": { "type": "Point", "coordinates": [ 113.599998, 17.9 ] } },
{ "type": "Feature", "properties": { "ID": 26414, "LAT": 17.2, "LON": 112.2, "VMAX": 60.0, "MSLP": 992.0, "RMAX": 35.0, "FSPD": 5.40581, "FDIR": 269.99997, "RENV": 150.0, "PENV": 1006.0, "VALIDT": 0, "DTG": "2025-08-23 18:00", "LATNOW": 18.6, "LONNOW": 105.7, "WINDNOW": 80.0, "DIRNOW": 5.0, "SPDNOW": 3.0, "TECH": "TRAK", "ADVNR": 13, "ATCFID": "WP192025", "NAME": "KAJIKI", "FTECH": "JTWC", "FCST_DTG": "2025-08-25 12:00:00", "RUN_DTG": "2025-08-26 06:27:15", "BASIN": "WP", "STMNR": 19, "CAT_ID": null, "CAT_DESC": null, "MSGID": "WTPN51 PGTW 251500", "VALIDTIME": "2025-08-23 18:00:00" }, "geometry": { "type": "Point", "coordinates": [ 112.199997, 17.200001 ] } },
{ "type": "Feature", "properties": { "ID": 26415, "LAT": 17.2, "LON": 111.1, "VMAX": 65.0, "MSLP": 989.0, "RMAX": 20.0, "FSPD": 4.06182, "FDIR": 284.67322, "RENV": 150.0, "PENV": 1006.0, "VALIDT": 0, "DTG": "2025-08-24 00:00", "LATNOW": 18.6, "LONNOW": 105.7, "WINDNOW": 80.0, "DIRNOW": 5.0, "SPDNOW": 3.0, "TECH": "TRAK", "ADVNR": 13, "ATCFID": "WP192025", "NAME": "KAJIKI", "FTECH": "JTWC", "FCST_DTG": "2025-08-25 12:00:00", "RUN_DTG": "2025-08-26 06:27:15", "BASIN": "WP", "STMNR": 19, "CAT_ID": null, "CAT_DESC": null, "MSGID": "WTPN51 PGTW 251500", "VALIDTIME": "2025-08-24 00:00:00" }, "geometry": { "type": "Point", "coordinates": [ 111.099998, 17.200001 ] } },
{ "type": "Feature", "properties": { "ID": 26416, "LAT": 17.4, "LON": 110.3, "VMAX": 90.0, "MSLP": 985.0, "RMAX": 20.0, "FSPD": 5.53612, "FDIR": 297.68597, "RENV": 215.0, "PENV": 1006.0, "VALIDT": 0, "DTG": "2025-08-24 06:00", "LATNOW": 18.6, "LONNOW": 105.7, "WINDNOW": 80.0, "DIRNOW": 5.0, "SPDNOW": 3.0, "TECH": "TRAK", "ADVNR": 13, "ATCFID": "WP192025", "NAME": "KAJIKI", "FTECH": "JTWC", "FCST_DTG": "2025-08-25 12:00:00", "RUN_DTG": "2025-08-26 06:27:15", "BASIN": "WP", "STMNR": 19, "CAT_ID": null, "CAT_DESC": null, "MSGID": "WTPN51 PGTW 251500", "VALIDTIME": "2025-08-24 06:00:00" }, "geometry": { "type": "Point", "coordinates": [ 110.300003, 17.4 ] } },
{ "type": "Feature", "properties": { "ID": 26417, "LAT": 17.9, "LON": 109.3, "VMAX": 95.0, "MSLP": 967.0, "RMAX": 12.0, "FSPD": 4.52201, "FDIR": 283.15167, "RENV": 215.0, "PENV": 1006.0, "VALIDT": 0, "DTG": "2025-08-24 12:00", "LATNOW": 18.6, "LONNOW": 105.7, "WINDNOW": 80.0, "DIRNOW": 5.0, "SPDNOW": 3.0, "TECH": "TRAK", "ADVNR": 13, "ATCFID": "WP192025", "NAME": "KAJIKI", "FTECH": "JTWC", "FCST_DTG": "2025-08-25 12:00:00", "RUN_DTG": "2025-08-26 06:27:15", "BASIN": "WP", "STMNR": 19, "CAT_ID": null, "CAT_DESC": null, "MSGID": "WTPN51 PGTW 251500", "VALIDTIME": "2025-08-24 12:00:00" }, "geometry": { "type": "Point", "coordinates": [ 109.300003, 17.9 ] } },
{ "type": "Feature", "properties": { "ID": 26418, "LAT": 18.1, "LON": 108.4, "VMAX": 90.0, "MSLP": 964.0, "RMAX": 12.0, "FSPD": 5.88871, "FDIR": 275.0118, "RENV": 215.0, "PENV": 1006.0, "VALIDT": 0, "DTG": "2025-08-24 18:00", "LATNOW": 18.6, "LONNOW": 105.7, "WINDNOW": 80.0, "DIRNOW": 5.0, "SPDNOW": 3.0, "TECH": "TRAK", "ADVNR": 13, "ATCFID": "WP192025", "NAME": "KAJIKI", "FTECH": "JTWC", "FCST_DTG": "2025-08-25 12:00:00", "RUN_DTG": "2025-08-26 06:27:15", "BASIN": "WP", "STMNR": 19, "CAT_ID": null, "CAT_DESC": null, "MSGID": "WTPN51 PGTW 251500", "VALIDTIME": "2025-08-24 18:00:00" }, "geometry": { "type": "Point", "coordinates": [ 108.400002, 18.1 ] } },
{ "type": "Feature", "properties": { "ID": 26419, "LAT": 18.2, "LON": 107.2, "VMAX": 90.0, "MSLP": 967.0, "RMAX": 5.0, "FSPD": 5.12095, "FDIR": 287.54022, "RENV": 255.0, "PENV": 1006.0, "VALIDT": 0, "DTG": "2025-08-25 00:00", "LATNOW": 18.6, "LONNOW": 105.7, "WINDNOW": 80.0, "DIRNOW": 5.0, "SPDNOW": 3.0, "TECH": "TRAK", "ADVNR": 13, "ATCFID": "WP192025", "NAME": "KAJIKI", "FTECH": "JTWC", "FCST_DTG": "2025-08-25 12:00:00", "RUN_DTG": "2025-08-26 06:27:15", "BASIN": "WP", "STMNR": 19, "CAT_ID": null, "CAT_DESC": null, "MSGID": "WTPN51 PGTW 251500", "VALIDTIME": "2025-08-25 00:00:00" }, "geometry": { "type": "Point", "coordinates": [ 107.199997, 18.200001 ] } },
{ "type": "Feature", "properties": { "ID": 26420, "LAT": 18.5, "LON": 106.2, "VMAX": 90.0, "MSLP": 967.0, "RMAX": 5.0, "FSPD": 2.49246, "FDIR": 281.91144, "RENV": 275.0, "PENV": 1006.0, "VALIDT": 0, "DTG": "2025-08-25 06:00", "LATNOW": 18.6, "LONNOW": 105.7, "WINDNOW": 80.0, "DIRNOW": 5.0, "SPDNOW": 3.0, "TECH": "TRAK", "ADVNR": 13, "ATCFID": "WP192025", "NAME": "KAJIKI", "FTECH": "JTWC", "FCST_DTG": "2025-08-25 12:00:00", "RUN_DTG": "2025-08-26 06:27:15", "BASIN": "WP", "STMNR": 19, "CAT_ID": null, "CAT_DESC": null, "MSGID": "WTPN51 PGTW 251500", "VALIDTIME": "2025-08-25 06:00:00" }, "geometry": { "type": "Point", "coordinates": [ 106.199997, 18.5 ] } },
{ "type": "Feature", "properties": { "ID": 26421, "LAT": 18.57, "LON": 105.85, "VMAX": 90.0, "MSLP": 967.0, "RMAX": 5.0, "FSPD": 2.4918, "FDIR": 281.91495, "RENV": 275.0, "PENV": 1006.0, "VALIDT": 0, "DTG": "2025-08-25 10:00", "LATNOW": 18.6, "LONNOW": 105.7, "WINDNOW": 80.0, "DIRNOW": 5.0, "SPDNOW": 3.0, "TECH": "TRAK", "ADVNR": 13, "ATCFID": "WP192025", "NAME": "KAJIKI", "FTECH": "JTWC", "FCST_DTG": "2025-08-25 12:00:00", "RUN_DTG": "2025-08-26 06:27:15", "BASIN": "WP", "STMNR": 19, "CAT_ID": null, "CAT_DESC": null, "MSGID": "WTPN51 PGTW 251500", "VALIDTIME": "2025-08-25 10:00:00" }, "geometry": { "type": "Point", "coordinates": [ 105.849998, 18.57 ] } },
{ "type": "Feature", "properties": { "ID": 26422, "LAT": 18.6, "LON": 105.7, "VMAX": 80.0, "MSLP": 967.0, "RMAX": 12.0, "FSPD": 5.27126, "FDIR": 284.1219, "RENV": 295.0, "PENV": 1006.0, "VALIDT": 0, "DTG": "2025-08-25 12:00", "LATNOW": 18.6, "LONNOW": 105.7, "WINDNOW": 80.0, "DIRNOW": 5.0, "SPDNOW": 3.0, "TECH": "TRAK", "ADVNR": 13, "ATCFID": "WP192025", "NAME": "KAJIKI", "FTECH": "JTWC", "FCST_DTG": "2025-08-25 12:00:00", "RUN_DTG": "2025-08-26 06:27:15", "BASIN": "WP", "STMNR": 19, "CAT_ID": null, "CAT_DESC": null, "MSGID": "WTPN51 PGTW 251500", "VALIDTIME": "2025-08-25 12:00:00" }, "geometry": { "type": "Point", "coordinates": [ 105.699997, 18.6 ] } },
{ "type": "Feature", "properties": { "ID": 26423, "LAT": 19.1, "LON": 103.6, "VMAX": 50.0, "MSLP": 1002.2391, "RMAX": 17.3224, "FSPD": 5.32359, "FDIR": 286.85223, "RENV": 180.0, "PENV": 1012.0, "VALIDT": 12, "DTG": "2025-08-26 00:00", "LATNOW": 18.6, "LONNOW": 105.7, "WINDNOW": 80.0, "DIRNOW": 5.0, "SPDNOW": 3.0, "TECH": "FCST", "ADVNR": 13, "ATCFID": "WP192025", "NAME": "KAJIKI", "FTECH": "JTWC", "FCST_DTG": "2025-08-25 12:00:00", "RUN_DTG": "2025-08-26 06:27:15", "BASIN": "WP", "STMNR": 19, "CAT_ID": null, "CAT_DESC": null, "MSGID": "WTPN51 PGTW 251500", "VALIDTIME": "2025-08-26 00:00:00" }, "geometry": { "type": "Point", "coordinates": [ 103.599998, 19.1 ] } },
{ "type": "Feature", "properties": { "ID": 26424, "LAT": 19.7, "LON": 101.5, "VMAX": 30.0, "MSLP": 1010.40607, "RMAX": 19.86025, "FSPD": 5.07458, "FDIR": 287.7058, "RENV": 250.0, "PENV": 1012.0, "VALIDT": 24, "DTG": "2025-08-26 12:00", "LATNOW": 18.6, "LONNOW": 105.7, "WINDNOW": 80.0, "DIRNOW": 5.0, "SPDNOW": 3.0, "TECH": "FCST", "ADVNR": 13, "ATCFID": "WP192025", "NAME": "KAJIKI", "FTECH": "JTWC", "FCST_DTG": "2025-08-25 12:00:00", "RUN_DTG": "2025-08-26 06:27:15", "BASIN": "WP", "STMNR": 19, "CAT_ID": null, "CAT_DESC": null, "MSGID": "WTPN51 PGTW 251500", "VALIDTIME": "2025-08-26 12:00:00" }, "geometry": { "type": "Point", "coordinates": [ 101.5, 19.700001 ] } },
{ "type": "Feature", "properties": { "ID": 26425, "LAT": 20.3, "LON": 99.5, "VMAX": 20.0, "MSLP": 1012.95825, "RMAX": 20.21065, "FSPD": 5.07458, "FDIR": 287.7058, "RENV": 250.0, "PENV": 1012.0, "VALIDT": 36, "DTG": "2025-08-27 00:00", "LATNOW": 18.6, "LONNOW": 105.7, "WINDNOW": 80.0, "DIRNOW": 5.0, "SPDNOW": 3.0, "TECH": "FCST", "ADVNR": 13, "ATCFID": "WP192025", "NAME": "KAJIKI", "FTECH": "JTWC", "FCST_DTG": "2025-08-25 12:00:00", "RUN_DTG": "2025-08-26 06:27:15", "BASIN": "WP", "STMNR": 19, "CAT_ID": null, "CAT_DESC": null, "MSGID": "WTPN51 PGTW 251500", "VALIDTIME": "2025-08-27 00:00:00" }, "geometry": { "type": "Point", "coordinates": [ 99.5, 20.299999 ] } },
{ "type": "Feature", "properties": { "ID": 26422, "LAT": 18.6, "LON": 105.7, "VMAX": 80.0, "MSLP": 967.0, "RMAX": 12.0, "FSPD": 5.27126, "FDIR": 284.1219, "RENV": 295.0, "PENV": 1006.0, "VALIDT": 0, "DTG": "2025-08-25 12:00", "LATNOW": 18.6, "LONNOW": 105.7, "WINDNOW": 80.0, "DIRNOW": 5.0, "SPDNOW": 3.0, "TECH": "TRAK", "ADVNR": 13, "ATCFID": "WP192025", "NAME": "KAJIKI", "FTECH": "JTWC", "FCST_DTG": "2025-08-25 12:00:00", "RUN_DTG": "2025-08-26 06:27:15", "BASIN": "WP", "STMNR": 19, "CAT_ID": null, "CAT_DESC": null, "MSGID": "WTPN51 PGTW 251500", "VALIDTIME": "2025-08-25 12:00:00" }, "geometry": { "type": "LineString", "coordinates": [ [ 133.8, 11.9 ], [ 132.0, 12.9 ], [ 130.7, 13.7 ], [ 129.3, 14.6 ], [ 128.0, 14.9 ], [ 126.8, 15.1 ], [ 125.5, 15.7 ], [ 124.5, 15.9 ], [ 123.5, 16.0 ], [ 122.5, 16.2 ], [ 122.08, 16.34 ], [ 121.9, 16.4 ], [ 119.3, 16.8 ], [ 117.0, 17.1 ], [ 116.6, 17.5 ], [ 115.0, 17.6 ], [ 113.6, 17.9 ], [ 112.2, 17.2 ], [ 111.1, 17.2 ], [ 110.3, 17.4 ], [ 109.3, 17.9 ], [ 108.4, 18.1 ], [ 107.2, 18.2 ], [ 106.2, 18.5 ], [ 105.85, 18.57 ], [ 105.7, 18.6 ] ] } },
{ "type": "Feature", "properties": { "ID": 26425, "LAT": 20.3, "LON": 99.5, "VMAX": 20.0, "MSLP": 1012.95825, "RMAX": 20.21065, "FSPD": 5.07458, "FDIR": 287.7058, "RENV": 250.0, "PENV": 1012.0, "VALIDT": 36, "DTG": "2025-08-27 00:00", "LATNOW": 18.6, "LONNOW": 105.7, "WINDNOW": 80.0, "DIRNOW": 5.0, "SPDNOW": 3.0, "TECH": "FCST", "ADVNR": 13, "ATCFID": "WP192025", "NAME": "KAJIKI", "FTECH": "JTWC", "FCST_DTG": "2025-08-25 12:00:00", "RUN_DTG": "2025-08-26 06:27:15", "BASIN": "WP", "STMNR": 19, "CAT_ID": null, "CAT_DESC": null, "MSGID": "WTPN51 PGTW 251500", "VALIDTIME": "2025-08-27 00:00:00" }, "geometry": { "type": "LineString", "coordinates": [ [ 105.7, 18.6 ], [ 103.6, 19.1 ], [ 101.5, 19.7 ], [ 99.5, 20.3 ] ] } }
]
}
