{
"type": "FeatureCollection",
"crs": { "type": "name", "properties": { "name": "urn:ogc:def:crs:OGC:1.3:CRS84" } },
"features": [
{ "type": "Feature", "properties": { "ID": 305834, "LAT": -11.8, "LON": 129.8, "VMAX": 15.0, "MSLP": 1013.8515, "RMAX": 40.0, "FSPD": 1.44002, "FDIR": 315.60187, "RENV": 500.0, "PENV": 1012.0, "VALIDT": 0, "DTG": "2025-02-17 00:00", "LATNOW": -26.6, "LONNOW": 104.2, "WINDNOW": 35.0, "DIRNOW": 3.0, "SPDNOW": 3.0, "TECH": "TRAK", "ADVNR": 8, "ATCFID": "SH202025", "NAME": "BIANCA", "FTECH": "JTWC", "FCST_DTG": "2025-02-26 18:00:00", "RUN_DTG": "2025-02-27 13:45:48", "BASIN": "SH", "STMNR": 20, "CAT_ID": null, "CAT_DESC": null, "MSGID": "WTXS51 PGTW 262100", "VALIDTIME": "2025-02-17 00:00:00" }, "geometry": { "type": "Point", "coordinates": [ 129.800003, -11.8 ] } },
{ "type": "Feature", "properties": { "ID": 305835, "LAT": -11.6, "LON": 129.6, "VMAX": 15.0, "MSLP": 1013.8515, "RMAX": 40.0, "FSPD": 1.54333, "FDIR": 360.0, "RENV": 500.0, "PENV": 1012.0, "VALIDT": 0, "DTG": "2025-02-17 06:00", "LATNOW": -26.6, "LONNOW": 104.2, "WINDNOW": 35.0, "DIRNOW": 3.0, "SPDNOW": 3.0, "TECH": "TRAK", "ADVNR": 8, "ATCFID": "SH202025", "NAME": "BIANCA", "FTECH": "JTWC", "FCST_DTG": "2025-02-26 18:00:00", "RUN_DTG": "2025-02-27 13:45:48", "BASIN": "SH", "STMNR": 20, "CAT_ID": null, "CAT_DESC": null, "MSGID": "WTXS51 PGTW 262100", "VALIDTIME": "2025-02-17 06:00:00" }, "geometry": { "type": "Point", "coordinates": [ 129.600006, -11.6 ] } },
{ "type": "Feature", "properties": { "ID": 305836, "LAT": -11.3, "LON": 129.6, "VMAX": 15.0, "MSLP": 1013.8515, "RMAX": 40.0, "FSPD": 1.146, "FDIR": 333.87167, "RENV": 500.0, "PENV": 1012.0, "VALIDT": 0, "DTG": "2025-02-17 12:00", "LATNOW": -26.6, "LONNOW": 104.2, "WINDNOW": 35.0, "DIRNOW": 3.0, "SPDNOW": 3.0, "TECH": "TRAK", "ADVNR": 8, "ATCFID": "SH202025", "NAME": "BIANCA", "FTECH": "JTWC", "FCST_DTG": "2025-02-26 18:00:00", "RUN_DTG": "2025-02-27 13:45:48", "BASIN": "SH", "STMNR": 20, "CAT_ID": null, "CAT_DESC": null, "MSGID": "WTXS51 PGTW 262100", "VALIDTIME": "2025-02-17 12:00:00" }, "geometry": { "type": "Point", "coordinates": [ 129.600006, -11.3 ] } },
{ "type": "Feature", "properties": { "ID": 305837, "LAT": -11.1, "LON": 129.5, "VMAX": 20.0, "MSLP": 1012.95825, "RMAX": 45.0, "FSPD": 5.07521, "FDIR": 275.81775, "RENV": 500.0, "PENV": 1012.0, "VALIDT": 0, "DTG": "2025-02-17 18:00", "LATNOW": -26.6, "LONNOW": 104.2, "WINDNOW": 35.0, "DIRNOW": 3.0, "SPDNOW": 3.0, "TECH": "TRAK", "ADVNR": 8, "ATCFID": "SH202025", "NAME": "BIANCA", "FTECH": "JTWC", "FCST_DTG": "2025-02-26 18:00:00", "RUN_DTG": "2025-02-27 13:45:48", "BASIN": "SH", "STMNR": 20, "CAT_ID": null, "CAT_DESC": null, "MSGID": "WTXS51 PGTW 262100", "VALIDTIME": "2025-02-17 18:00:00" }, "geometry": { "type": "Point", "coordinates": [ 129.5, -11.1 ] } },
{ "type": "Feature", "properties": { "ID": 305838, "LAT": -11.0, "LON": 128.5, "VMAX": 20.0, "MSLP": 1012.95825, "RMAX": 45.0, "FSPD": 4.53137, "FDIR": 242.9918, "RENV": 500.0, "PENV": 1012.0, "VALIDT": 0, "DTG": "2025-02-18 00:00", "LATNOW": -26.6, "LONNOW": 104.2, "WINDNOW": 35.0, "DIRNOW": 3.0, "SPDNOW": 3.0, "TECH": "TRAK", "ADVNR": 8, "ATCFID": "SH202025", "NAME": "BIANCA", "FTECH": "JTWC", "FCST_DTG": "2025-02-26 18:00:00", "RUN_DTG": "2025-02-27 13:45:48", "BASIN": "SH", "STMNR": 20, "CAT_ID": null, "CAT_DESC": null, "MSGID": "WTXS51 PGTW 262100", "VALIDTIME": "2025-02-18 00:00:00" }, "geometry": { "type": "Point", "coordinates": [ 128.5, -11.0 ] } },
{ "type": "Feature", "properties": { "ID": 305839, "LAT": -11.4, "LON": 127.7, "VMAX": 20.0, "MSLP": 1012.95825, "RMAX": 45.0, "FSPD": 3.02576, "FDIR": 269.99997, "RENV": 500.0, "PENV": 1012.0, "VALIDT": 0, "DTG": "2025-02-18 06:00", "LATNOW": -26.6, "LONNOW": 104.2, "WINDNOW": 35.0, "DIRNOW": 3.0, "SPDNOW": 3.0, "TECH": "TRAK", "ADVNR": 8, "ATCFID": "SH202025", "NAME": "BIANCA", "FTECH": "JTWC", "FCST_DTG": "2025-02-26 18:00:00", "RUN_DTG": "2025-02-27 13:45:48", "BASIN": "SH", "STMNR": 20, "CAT_ID": null, "CAT_DESC": null, "MSGID": "WTXS51 PGTW 262100", "VALIDTIME": "2025-02-18 06:00:00" }, "geometry": { "type": "Point", "coordinates": [ 127.699997, -11.4 ] } },
{ "type": "Feature", "properties": { "ID": 305840, "LAT": -11.4, "LON": 127.1, "VMAX": 20.0, "MSLP": 1012.95825, "RMAX": 45.0, "FSPD": 2.08141, "FDIR": 255.6903, "RENV": 500.0, "PENV": 1012.0, "VALIDT": 0, "DTG": "2025-02-18 12:00", "LATNOW": -26.6, "LONNOW": 104.2, "WINDNOW": 35.0, "DIRNOW": 3.0, "SPDNOW": 3.0, "TECH": "TRAK", "ADVNR": 8, "ATCFID": "SH202025", "NAME": "BIANCA", "FTECH": "JTWC", "FCST_DTG": "2025-02-26 18:00:00", "RUN_DTG": "2025-02-27 13:45:48", "BASIN": "SH", "STMNR": 20, "CAT_ID": null, "CAT_DESC": null, "MSGID": "WTXS51 PGTW 262100", "VALIDTIME": "2025-02-18 12:00:00" }, "geometry": { "type": "Point", "coordinates": [ 127.099998, -11.4 ] } },
{ "type": "Feature", "properties": { "ID": 305841, "LAT": -11.5, "LON": 126.7, "VMAX": 20.0, "MSLP": 1012.95825, "RMAX": 45.0, "FSPD": 3.19388, "FDIR": 251.20735, "RENV": 500.0, "PENV": 1012.0, "VALIDT": 0, "DTG": "2025-02-18 18:00", "LATNOW": -26.6, "LONNOW": 104.2, "WINDNOW": 35.0, "DIRNOW": 3.0, "SPDNOW": 3.0, "TECH": "TRAK", "ADVNR": 8, "ATCFID": "SH202025", "NAME": "BIANCA", "FTECH": "JTWC", "FCST_DTG": "2025-02-26 18:00:00", "RUN_DTG": "2025-02-27 13:45:48", "BASIN": "SH", "STMNR": 20, "CAT_ID": null, "CAT_DESC": null, "MSGID": "WTXS51 PGTW 262100", "VALIDTIME": "2025-02-18 18:00:00" }, "geometry": { "type": "Point", "coordinates": [ 126.699997, -11.5 ] } },
{ "type": "Feature", "properties": { "ID": 305842, "LAT": -11.7, "LON": 126.1, "VMAX": 20.0, "MSLP": 1012.95825, "RMAX": 45.0, "FSPD": 8.81852, "FDIR": 245.89825, "RENV": 500.0, "PENV": 1012.0, "VALIDT": 0, "DTG": "2025-02-19 00:00", "LATNOW": -26.6, "LONNOW": 104.2, "WINDNOW": 35.0, "DIRNOW": 3.0, "SPDNOW": 3.0, "TECH": "TRAK", "ADVNR": 8, "ATCFID": "SH202025", "NAME": "BIANCA", "FTECH": "JTWC", "FCST_DTG": "2025-02-26 18:00:00", "RUN_DTG": "2025-02-27 13:45:48", "BASIN": "SH", "STMNR": 20, "CAT_ID": null, "CAT_DESC": null, "MSGID": "WTXS51 PGTW 262100", "VALIDTIME": "2025-02-19 00:00:00" }, "geometry": { "type": "Point", "coordinates": [ 126.099998, -11.7 ] } },
{ "type": "Feature", "properties": { "ID": 305843, "LAT": -12.4, "LON": 124.5, "VMAX": 20.0, "MSLP": 1012.95825, "RMAX": 45.0, "FSPD": 7.67415, "FDIR": 246.28316, "RENV": 500.0, "PENV": 1012.0, "VALIDT": 0, "DTG": "2025-02-19 06:00", "LATNOW": -26.6, "LONNOW": 104.2, "WINDNOW": 35.0, "DIRNOW": 3.0, "SPDNOW": 3.0, "TECH": "TRAK", "ADVNR": 8, "ATCFID": "SH202025", "NAME": "BIANCA", "FTECH": "JTWC", "FCST_DTG": "2025-02-26 18:00:00", "RUN_DTG": "2025-02-27 13:45:48", "BASIN": "SH", "STMNR": 20, "CAT_ID": null, "CAT_DESC": null, "MSGID": "WTXS51 PGTW 262100", "VALIDTIME": "2025-02-19 06:00:00" }, "geometry": { "type": "Point", "coordinates": [ 124.5, -12.4 ] } },
{ "type": "Feature", "properties": { "ID": 305844, "LAT": -13.0, "LON": 123.1, "VMAX": 20.0, "MSLP": 1012.95825, "RMAX": 45.0, "FSPD": 4.6254, "FDIR": 257.1474, "RENV": 500.0, "PENV": 1012.0, "VALIDT": 0, "DTG": "2025-02-19 12:00", "LATNOW": -26.6, "LONNOW": 104.2, "WINDNOW": 35.0, "DIRNOW": 3.0, "SPDNOW": 3.0, "TECH": "TRAK", "ADVNR": 8, "ATCFID": "SH202025", "NAME": "BIANCA", "FTECH": "JTWC", "FCST_DTG": "2025-02-26 18:00:00", "RUN_DTG": "2025-02-27 13:45:48", "BASIN": "SH", "STMNR": 20, "CAT_ID": null, "CAT_DESC": null, "MSGID": "WTXS51 PGTW 262100", "VALIDTIME": "2025-02-19 12:00:00" }, "geometry": { "type": "Point", "coordinates": [ 123.099998, -13.0 ] } },
{ "type": "Feature", "properties": { "ID": 305845, "LAT": -13.2, "LON": 122.2, "VMAX": 20.0, "MSLP": 1012.95825, "RMAX": 45.0, "FSPD": 4.53598, "FDIR": 263.4878, "RENV": 500.0, "PENV": 1012.0, "VALIDT": 0, "DTG": "2025-02-19 18:00", "LATNOW": -26.6, "LONNOW": 104.2, "WINDNOW": 35.0, "DIRNOW": 3.0, "SPDNOW": 3.0, "TECH": "TRAK", "ADVNR": 8, "ATCFID": "SH202025", "NAME": "BIANCA", "FTECH": "JTWC", "FCST_DTG": "2025-02-26 18:00:00", "RUN_DTG": "2025-02-27 13:45:48", "BASIN": "SH", "STMNR": 20, "CAT_ID": null, "CAT_DESC": null, "MSGID": "WTXS51 PGTW 262100", "VALIDTIME": "2025-02-19 18:00:00" }, "geometry": { "type": "Point", "coordinates": [ 122.199997, -13.2 ] } },
{ "type": "Feature", "properties": { "ID": 305846, "LAT": -13.3, "LON": 121.3, "VMAX": 20.0, "MSLP": 1012.95825, "RMAX": 45.0, "FSPD": 3.04703, "FDIR": 260.27994, "RENV": 500.0, "PENV": 1012.0, "VALIDT": 0, "DTG": "2025-02-20 00:00", "LATNOW": -26.6, "LONNOW": 104.2, "WINDNOW": 35.0, "DIRNOW": 3.0, "SPDNOW": 3.0, "TECH": "TRAK", "ADVNR": 8, "ATCFID": "SH202025", "NAME": "BIANCA", "FTECH": "JTWC", "FCST_DTG": "2025-02-26 18:00:00", "RUN_DTG": "2025-02-27 13:45:48", "BASIN": "SH", "STMNR": 20, "CAT_ID": null, "CAT_DESC": null, "MSGID": "WTXS51 PGTW 262100", "VALIDTIME": "2025-02-20 00:00:00" }, "geometry": { "type": "Point", "coordinates": [ 121.300003, -13.3 ] } },
{ "type": "Feature", "properties": { "ID": 305847, "LAT": -13.4, "LON": 120.7, "VMAX": 20.0, "MSLP": 1012.95825, "RMAX": 45.0, "FSPD": 8.10767, "FDIR": 247.62231, "RENV": 500.0, "PENV": 1012.0, "VALIDT": 0, "DTG": "2025-02-20 06:00", "LATNOW": -26.6, "LONNOW": 104.2, "WINDNOW": 35.0, "DIRNOW": 3.0, "SPDNOW": 3.0, "TECH": "TRAK", "ADVNR": 8, "ATCFID": "SH202025", "NAME": "BIANCA", "FTECH": "JTWC", "FCST_DTG": "2025-02-26 18:00:00", "RUN_DTG": "2025-02-27 13:45:48", "BASIN": "SH", "STMNR": 20, "CAT_ID": null, "CAT_DESC": null, "MSGID": "WTXS51 PGTW 262100", "VALIDTIME": "2025-02-20 06:00:00" }, "geometry": { "type": "Point", "coordinates": [ 120.699997, -13.4 ] } },
{ "type": "Feature", "properties": { "ID": 305848, "LAT": -14.0, "LON": 119.2, "VMAX": 25.0, "MSLP": 1011.80975, "RMAX": 45.0, "FSPD": 5.584, "FDIR": 259.3822, "RENV": 500.0, "PENV": 1012.0, "VALIDT": 0, "DTG": "2025-02-20 12:00", "LATNOW": -26.6, "LONNOW": 104.2, "WINDNOW": 35.0, "DIRNOW": 3.0, "SPDNOW": 3.0, "TECH": "TRAK", "ADVNR": 8, "ATCFID": "SH202025", "NAME": "BIANCA", "FTECH": "JTWC", "FCST_DTG": "2025-02-26 18:00:00", "RUN_DTG": "2025-02-27 13:45:48", "BASIN": "SH", "STMNR": 20, "CAT_ID": null, "CAT_DESC": null, "MSGID": "WTXS51 PGTW 262100", "VALIDTIME": "2025-02-20 12:00:00" }, "geometry": { "type": "Point", "coordinates": [ 119.199997, -14.0 ] } },
{ "type": "Feature", "properties": { "ID": 305849, "LAT": -14.2, "LON": 118.1, "VMAX": 25.0, "MSLP": 1011.80975, "RMAX": 45.0, "FSPD": 5.21742, "FDIR": 252.79422, "RENV": 500.0, "PENV": 1012.0, "VALIDT": 0, "DTG": "2025-02-20 18:00", "LATNOW": -26.6, "LONNOW": 104.2, "WINDNOW": 35.0, "DIRNOW": 3.0, "SPDNOW": 3.0, "TECH": "TRAK", "ADVNR": 8, "ATCFID": "SH202025", "NAME": "BIANCA", "FTECH": "JTWC", "FCST_DTG": "2025-02-26 18:00:00", "RUN_DTG": "2025-02-27 13:45:48", "BASIN": "SH", "STMNR": 20, "CAT_ID": null, "CAT_DESC": null, "MSGID": "WTXS51 PGTW 262100", "VALIDTIME": "2025-02-20 18:00:00" }, "geometry": { "type": "Point", "coordinates": [ 118.099998, -14.2 ] } },
{ "type": "Feature", "properties": { "ID": 305850, "LAT": -14.5, "LON": 117.1, "VMAX": 25.0, "MSLP": 1011.80975, "RMAX": 45.0, "FSPD": 3.15923, "FDIR": 250.99336, "RENV": 500.0, "PENV": 1012.0, "VALIDT": 0, "DTG": "2025-02-21 00:00", "LATNOW": -26.6, "LONNOW": 104.2, "WINDNOW": 35.0, "DIRNOW": 3.0, "SPDNOW": 3.0, "TECH": "TRAK", "ADVNR": 8, "ATCFID": "SH202025", "NAME": "BIANCA", "FTECH": "JTWC", "FCST_DTG": "2025-02-26 18:00:00", "RUN_DTG": "2025-02-27 13:45:48", "BASIN": "SH", "STMNR": 20, "CAT_ID": null, "CAT_DESC": null, "MSGID": "WTXS51 PGTW 262100", "VALIDTIME": "2025-02-21 00:00:00" }, "geometry": { "type": "Point", "coordinates": [ 117.099998, -14.5 ] } },
{ "type": "Feature", "properties": { "ID": 305851, "LAT": -14.7, "LON": 116.5, "VMAX": 25.0, "MSLP": 1011.80975, "RMAX": 45.0, "FSPD": 6.05654, "FDIR": 260.21912, "RENV": 500.0, "PENV": 1012.0, "VALIDT": 0, "DTG": "2025-02-21 06:00", "LATNOW": -26.6, "LONNOW": 104.2, "WINDNOW": 35.0, "DIRNOW": 3.0, "SPDNOW": 3.0, "TECH": "TRAK", "ADVNR": 8, "ATCFID": "SH202025", "NAME": "BIANCA", "FTECH": "JTWC", "FCST_DTG": "2025-02-26 18:00:00", "RUN_DTG": "2025-02-27 13:45:48", "BASIN": "SH", "STMNR": 20, "CAT_ID": null, "CAT_DESC": null, "MSGID": "WTXS51 PGTW 262100", "VALIDTIME": "2025-02-21 06:00:00" }, "geometry": { "type": "Point", "coordinates": [ 116.5, -14.7 ] } },
{ "type": "Feature", "properties": { "ID": 305852, "LAT": -14.9, "LON": 115.3, "VMAX": 25.0, "MSLP": 1011.80975, "RMAX": 45.0, "FSPD": 6.97744, "FDIR": 265.77173, "RENV": 500.0, "PENV": 1012.0, "VALIDT": 0, "DTG": "2025-02-21 12:00", "LATNOW": -26.6, "LONNOW": 104.2, "WINDNOW": 35.0, "DIRNOW": 3.0, "SPDNOW": 3.0, "TECH": "TRAK", "ADVNR": 8, "ATCFID": "SH202025", "NAME": "BIANCA", "FTECH": "JTWC", "FCST_DTG": "2025-02-26 18:00:00", "RUN_DTG": "2025-02-27 13:45:48", "BASIN": "SH", "STMNR": 20, "CAT_ID": null, "CAT_DESC": null, "MSGID": "WTXS51 PGTW 262100", "VALIDTIME": "2025-02-21 12:00:00" }, "geometry": { "type": "Point", "coordinates": [ 115.300003, -14.9 ] } },
{ "type": "Feature", "properties": { "ID": 305853, "LAT": -15.0, "LON": 113.9, "VMAX": 25.0, "MSLP": 1011.80975, "RMAX": 45.0, "FSPD": 8.10449, "FDIR": 280.97784, "RENV": 500.0, "PENV": 1012.0, "VALIDT": 0, "DTG": "2025-02-21 18:00", "LATNOW": -26.6, "LONNOW": 104.2, "WINDNOW": 35.0, "DIRNOW": 3.0, "SPDNOW": 3.0, "TECH": "TRAK", "ADVNR": 8, "ATCFID": "SH202025", "NAME": "BIANCA", "FTECH": "JTWC", "FCST_DTG": "2025-02-26 18:00:00", "RUN_DTG": "2025-02-27 13:45:48", "BASIN": "SH", "STMNR": 20, "CAT_ID": null, "CAT_DESC": null, "MSGID": "WTXS51 PGTW 262100", "VALIDTIME": "2025-02-21 18:00:00" }, "geometry": { "type": "Point", "coordinates": [ 113.900002, -15.0 ] } },
{ "type": "Feature", "properties": { "ID": 305854, "LAT": -14.7, "LON": 112.3, "VMAX": 30.0, "MSLP": 1010.40607, "RMAX": 44.21983, "FSPD": 4.1099, "FDIR": 255.50212, "RENV": 500.0, "PENV": 1012.0, "VALIDT": 0, "DTG": "2025-02-22 00:00", "LATNOW": -26.6, "LONNOW": 104.2, "WINDNOW": 35.0, "DIRNOW": 3.0, "SPDNOW": 3.0, "TECH": "TRAK", "ADVNR": 8, "ATCFID": "SH202025", "NAME": "BIANCA", "FTECH": "JTWC", "FCST_DTG": "2025-02-26 18:00:00", "RUN_DTG": "2025-02-27 13:45:48", "BASIN": "SH", "STMNR": 20, "CAT_ID": null, "CAT_DESC": null, "MSGID": "WTXS51 PGTW 262100", "VALIDTIME": "2025-02-22 00:00:00" }, "geometry": { "type": "Point", "coordinates": [ 112.300003, -14.7 ] } },
{ "type": "Feature", "properties": { "ID": 305855, "LAT": -14.9, "LON": 111.5, "VMAX": 30.0, "MSLP": 1010.40607, "RMAX": 44.21983, "FSPD": 4.26354, "FDIR": 248.77786, "RENV": 500.0, "PENV": 1012.0, "VALIDT": 0, "DTG": "2025-02-22 06:00", "LATNOW": -26.6, "LONNOW": 104.2, "WINDNOW": 35.0, "DIRNOW": 3.0, "SPDNOW": 3.0, "TECH": "TRAK", "ADVNR": 8, "ATCFID": "SH202025", "NAME": "BIANCA", "FTECH": "JTWC", "FCST_DTG": "2025-02-26 18:00:00", "RUN_DTG": "2025-02-27 13:45:48", "BASIN": "SH", "STMNR": 20, "CAT_ID": null, "CAT_DESC": null, "MSGID": "WTXS51 PGTW 262100", "VALIDTIME": "2025-02-22 06:00:00" }, "geometry": { "type": "Point", "coordinates": [ 111.5, -14.9 ] } },
{ "type": "Feature", "properties": { "ID": 305856, "LAT": -15.2, "LON": 110.7, "VMAX": 30.0, "MSLP": 1010.40607, "RMAX": 44.21983, "FSPD": 5.58601, "FDIR": 242.58212, "RENV": 500.0, "PENV": 1012.0, "VALIDT": 0, "DTG": "2025-02-22 12:00", "LATNOW": -26.6, "LONNOW": 104.2, "WINDNOW": 35.0, "DIRNOW": 3.0, "SPDNOW": 3.0, "TECH": "TRAK", "ADVNR": 8, "ATCFID": "SH202025", "NAME": "BIANCA", "FTECH": "JTWC", "FCST_DTG": "2025-02-26 18:00:00", "RUN_DTG": "2025-02-27 13:45:48", "BASIN": "SH", "STMNR": 20, "CAT_ID": null, "CAT_DESC": null, "MSGID": "WTXS51 PGTW 262100", "VALIDTIME": "2025-02-22 12:00:00" }, "geometry": { "type": "Point", "coordinates": [ 110.699997, -15.2 ] } },
{ "type": "Feature", "properties": { "ID": 305857, "LAT": -15.7, "LON": 109.7, "VMAX": 30.0, "MSLP": 1010.40607, "RMAX": 44.21983, "FSPD": 6.0184, "FDIR": 244.69768, "RENV": 500.0, "PENV": 1012.0, "VALIDT": 0, "DTG": "2025-02-22 18:00", "LATNOW": -26.6, "LONNOW": 104.2, "WINDNOW": 35.0, "DIRNOW": 3.0, "SPDNOW": 3.0, "TECH": "TRAK", "ADVNR": 8, "ATCFID": "SH202025", "NAME": "BIANCA", "FTECH": "JTWC", "FCST_DTG": "2025-02-26 18:00:00", "RUN_DTG": "2025-02-27 13:45:48", "BASIN": "SH", "STMNR": 20, "CAT_ID": null, "CAT_DESC": null, "MSGID": "WTXS51 PGTW 262100", "VALIDTIME": "2025-02-22 18:00:00" }, "geometry": { "type": "Point", "coordinates": [ 109.699997, -15.7 ] } },
{ "type": "Feature", "properties": { "ID": 305858, "LAT": -16.2, "LON": 108.6, "VMAX": 30.0, "MSLP": 1010.40607, "RMAX": 44.21983, "FSPD": 6.91056, "FDIR": 248.1476, "RENV": 500.0, "PENV": 1012.0, "VALIDT": 0, "DTG": "2025-02-23 00:00", "LATNOW": -26.6, "LONNOW": 104.2, "WINDNOW": 35.0, "DIRNOW": 3.0, "SPDNOW": 3.0, "TECH": "TRAK", "ADVNR": 8, "ATCFID": "SH202025", "NAME": "BIANCA", "FTECH": "JTWC", "FCST_DTG": "2025-02-26 18:00:00", "RUN_DTG": "2025-02-27 13:45:48", "BASIN": "SH", "STMNR": 20, "CAT_ID": null, "CAT_DESC": null, "MSGID": "WTXS51 PGTW 262100", "VALIDTIME": "2025-02-23 00:00:00" }, "geometry": { "type": "Point", "coordinates": [ 108.599998, -16.200001 ] } },
{ "type": "Feature", "properties": { "ID": 305859, "LAT": -16.7, "LON": 107.3, "VMAX": 40.0, "MSLP": 998.0, "RMAX": 45.0, "FSPD": 6.89503, "FDIR": 248.09584, "RENV": 150.0, "PENV": 1008.0, "VALIDT": 0, "DTG": "2025-02-23 06:00", "LATNOW": -26.6, "LONNOW": 104.2, "WINDNOW": 35.0, "DIRNOW": 3.0, "SPDNOW": 3.0, "TECH": "TRAK", "ADVNR": 8, "ATCFID": "SH202025", "NAME": "BIANCA", "FTECH": "JTWC", "FCST_DTG": "2025-02-26 18:00:00", "RUN_DTG": "2025-02-27 13:45:48", "BASIN": "SH", "STMNR": 20, "CAT_ID": null, "CAT_DESC": null, "MSGID": "WTXS51 PGTW 262100", "VALIDTIME": "2025-02-23 06:00:00" }, "geometry": { "type": "Point", "coordinates": [ 107.300003, -16.700001 ] } },
{ "type": "Feature", "properties": { "ID": 305860, "LAT": -17.2, "LON": 106.0, "VMAX": 45.0, "MSLP": 998.0, "RMAX": 45.0, "FSPD": 6.21729, "FDIR": 240.23367, "RENV": 150.0, "PENV": 1008.0, "VALIDT": 0, "DTG": "2025-02-23 12:00", "LATNOW": -26.6, "LONNOW": 104.2, "WINDNOW": 35.0, "DIRNOW": 3.0, "SPDNOW": 3.0, "TECH": "TRAK", "ADVNR": 8, "ATCFID": "SH202025", "NAME": "BIANCA", "FTECH": "JTWC", "FCST_DTG": "2025-02-26 18:00:00", "RUN_DTG": "2025-02-27 13:45:48", "BASIN": "SH", "STMNR": 20, "CAT_ID": null, "CAT_DESC": null, "MSGID": "WTXS51 PGTW 262100", "VALIDTIME": "2025-02-23 12:00:00" }, "geometry": { "type": "Point", "coordinates": [ 106.0, -17.200001 ] } },
{ "type": "Feature", "properties": { "ID": 305861, "LAT": -17.8, "LON": 104.9, "VMAX": 45.0, "MSLP": 998.0, "RMAX": 45.0, "FSPD": 3.41754, "FDIR": 205.41997, "RENV": 150.0, "PENV": 1008.0, "VALIDT": 0, "DTG": "2025-02-23 18:00", "LATNOW": -26.6, "LONNOW": 104.2, "WINDNOW": 35.0, "DIRNOW": 3.0, "SPDNOW": 3.0, "TECH": "TRAK", "ADVNR": 8, "ATCFID": "SH202025", "NAME": "BIANCA", "FTECH": "JTWC", "FCST_DTG": "2025-02-26 18:00:00", "RUN_DTG": "2025-02-27 13:45:48", "BASIN": "SH", "STMNR": 20, "CAT_ID": null, "CAT_DESC": null, "MSGID": "WTXS51 PGTW 262100", "VALIDTIME": "2025-02-23 18:00:00" }, "geometry": { "type": "Point", "coordinates": [ 104.900002, -17.799999 ] } },
{ "type": "Feature", "properties": { "ID": 305862, "LAT": -18.4, "LON": 104.6, "VMAX": 55.0, "MSLP": 999.0, "RMAX": 45.0, "FSPD": 5.76822, "FDIR": 237.64818, "RENV": 150.0, "PENV": 1008.0, "VALIDT": 0, "DTG": "2025-02-24 00:00", "LATNOW": -26.6, "LONNOW": 104.2, "WINDNOW": 35.0, "DIRNOW": 3.0, "SPDNOW": 3.0, "TECH": "TRAK", "ADVNR": 8, "ATCFID": "SH202025", "NAME": "BIANCA", "FTECH": "JTWC", "FCST_DTG": "2025-02-26 18:00:00", "RUN_DTG": "2025-02-27 13:45:48", "BASIN": "SH", "STMNR": 20, "CAT_ID": null, "CAT_DESC": null, "MSGID": "WTXS51 PGTW 262100", "VALIDTIME": "2025-02-24 00:00:00" }, "geometry": { "type": "Point", "coordinates": [ 104.599998, -18.4 ] } },
{ "type": "Feature", "properties": { "ID": 305863, "LAT": -19.0, "LON": 103.6, "VMAX": 75.0, "MSLP": 995.0, "RMAX": 15.0, "FSPD": 3.22344, "FDIR": 217.06276, "RENV": 220.0, "PENV": 1010.0, "VALIDT": 0, "DTG": "2025-02-24 06:00", "LATNOW": -26.6, "LONNOW": 104.2, "WINDNOW": 35.0, "DIRNOW": 3.0, "SPDNOW": 3.0, "TECH": "TRAK", "ADVNR": 8, "ATCFID": "SH202025", "NAME": "BIANCA", "FTECH": "JTWC", "FCST_DTG": "2025-02-26 18:00:00", "RUN_DTG": "2025-02-27 13:45:48", "BASIN": "SH", "STMNR": 20, "CAT_ID": null, "CAT_DESC": null, "MSGID": "WTXS51 PGTW 262100", "VALIDTIME": "2025-02-24 06:00:00" }, "geometry": { "type": "Point", "coordinates": [ 103.599998, -19.0 ] } },
{ "type": "Feature", "properties": { "ID": 305864, "LAT": -19.5, "LON": 103.2, "VMAX": 75.0, "MSLP": 985.0, "RMAX": 12.0, "FSPD": 3.88268, "FDIR": 201.95439, "RENV": 225.0, "PENV": 1010.0, "VALIDT": 0, "DTG": "2025-02-24 12:00", "LATNOW": -26.6, "LONNOW": 104.2, "WINDNOW": 35.0, "DIRNOW": 3.0, "SPDNOW": 3.0, "TECH": "TRAK", "ADVNR": 8, "ATCFID": "SH202025", "NAME": "BIANCA", "FTECH": "JTWC", "FCST_DTG": "2025-02-26 18:00:00", "RUN_DTG": "2025-02-27 13:45:48", "BASIN": "SH", "STMNR": 20, "CAT_ID": null, "CAT_DESC": null, "MSGID": "WTXS51 PGTW 262100", "VALIDTIME": "2025-02-24 12:00:00" }, "geometry": { "type": "Point", "coordinates": [ 103.199997, -19.5 ] } },
{ "type": "Feature", "properties": { "ID": 305865, "LAT": -20.2, "LON": 102.9, "VMAX": 95.0, "MSLP": 985.0, "RMAX": 12.0, "FSPD": 5.01445, "FDIR": 202.58197, "RENV": 225.0, "PENV": 1010.0, "VALIDT": 0, "DTG": "2025-02-24 18:00", "LATNOW": -26.6, "LONNOW": 104.2, "WINDNOW": 35.0, "DIRNOW": 3.0, "SPDNOW": 3.0, "TECH": "TRAK", "ADVNR": 8, "ATCFID": "SH202025", "NAME": "BIANCA", "FTECH": "JTWC", "FCST_DTG": "2025-02-26 18:00:00", "RUN_DTG": "2025-02-27 13:45:48", "BASIN": "SH", "STMNR": 20, "CAT_ID": null, "CAT_DESC": null, "MSGID": "WTXS51 PGTW 262100", "VALIDTIME": "2025-02-24 18:00:00" }, "geometry": { "type": "Point", "coordinates": [ 102.900002, -20.200001 ] } },
{ "type": "Feature", "properties": { "ID": 305866, "LAT": -21.1, "LON": 102.5, "VMAX": 100.0, "MSLP": 958.0, "RMAX": 17.0, "FSPD": 4.84742, "FDIR": 197.22527, "RENV": 250.0, "PENV": 1011.0, "VALIDT": 0, "DTG": "2025-02-25 00:00", "LATNOW": -26.6, "LONNOW": 104.2, "WINDNOW": 35.0, "DIRNOW": 3.0, "SPDNOW": 3.0, "TECH": "TRAK", "ADVNR": 8, "ATCFID": "SH202025", "NAME": "BIANCA", "FTECH": "JTWC", "FCST_DTG": "2025-02-26 18:00:00", "RUN_DTG": "2025-02-27 13:45:48", "BASIN": "SH", "STMNR": 20, "CAT_ID": null, "CAT_DESC": null, "MSGID": "WTXS51 PGTW 262100", "VALIDTIME": "2025-02-25 00:00:00" }, "geometry": { "type": "Point", "coordinates": [ 102.5, -21.1 ] } },
{ "type": "Feature", "properties": { "ID": 305867, "LAT": -22.0, "LON": 102.2, "VMAX": 105.0, "MSLP": 962.0, "RMAX": 12.0, "FSPD": 4.11555, "FDIR": 179.99997, "RENV": 200.0, "PENV": 1011.0, "VALIDT": 0, "DTG": "2025-02-25 06:00", "LATNOW": -26.6, "LONNOW": 104.2, "WINDNOW": 35.0, "DIRNOW": 3.0, "SPDNOW": 3.0, "TECH": "TRAK", "ADVNR": 8, "ATCFID": "SH202025", "NAME": "BIANCA", "FTECH": "JTWC", "FCST_DTG": "2025-02-26 18:00:00", "RUN_DTG": "2025-02-27 13:45:48", "BASIN": "SH", "STMNR": 20, "CAT_ID": null, "CAT_DESC": null, "MSGID": "WTXS51 PGTW 262100", "VALIDTIME": "2025-02-25 06:00:00" }, "geometry": { "type": "Point", "coordinates": [ 102.199997, -22.0 ] } },
{ "type": "Feature", "properties": { "ID": 305868, "LAT": -22.8, "LON": 102.2, "VMAX": 95.0, "MSLP": 957.0, "RMAX": 12.0, "FSPD": 5.73719, "FDIR": 189.47665, "RENV": 190.0, "PENV": 1011.0, "VALIDT": 0, "DTG": "2025-02-25 12:00", "LATNOW": -26.6, "LONNOW": 104.2, "WINDNOW": 35.0, "DIRNOW": 3.0, "SPDNOW": 3.0, "TECH": "TRAK", "ADVNR": 8, "ATCFID": "SH202025", "NAME": "BIANCA", "FTECH": "JTWC", "FCST_DTG": "2025-02-26 18:00:00", "RUN_DTG": "2025-02-27 13:45:48", "BASIN": "SH", "STMNR": 20, "CAT_ID": null, "CAT_DESC": null, "MSGID": "WTXS51 PGTW 262100", "VALIDTIME": "2025-02-25 12:00:00" }, "geometry": { "type": "Point", "coordinates": [ 102.199997, -22.799999 ] } },
{ "type": "Feature", "properties": { "ID": 305869, "LAT": -23.9, "LON": 102.0, "VMAX": 90.0, "MSLP": 965.0, "RMAX": 12.0, "FSPD": 4.52275, "FDIR": 155.50107, "RENV": 190.0, "PENV": 1011.0, "VALIDT": 0, "DTG": "2025-02-25 18:00", "LATNOW": -26.6, "LONNOW": 104.2, "WINDNOW": 35.0, "DIRNOW": 3.0, "SPDNOW": 3.0, "TECH": "TRAK", "ADVNR": 8, "ATCFID": "SH202025", "NAME": "BIANCA", "FTECH": "JTWC", "FCST_DTG": "2025-02-26 18:00:00", "RUN_DTG": "2025-02-27 13:45:48", "BASIN": "SH", "STMNR": 20, "CAT_ID": null, "CAT_DESC": null, "MSGID": "WTXS51 PGTW 262100", "VALIDTIME": "2025-02-25 18:00:00" }, "geometry": { "type": "Point", "coordinates": [ 102.0, -23.9 ] } },
{ "type": "Feature", "properties": { "ID": 305870, "LAT": -24.7, "LON": 102.4, "VMAX": 65.0, "MSLP": 968.0, "RMAX": 15.0, "FSPD": 4.34637, "FDIR": 161.24332, "RENV": 150.0, "PENV": 1012.0, "VALIDT": 0, "DTG": "2025-02-26 00:00", "LATNOW": -26.6, "LONNOW": 104.2, "WINDNOW": 35.0, "DIRNOW": 3.0, "SPDNOW": 3.0, "TECH": "TRAK", "ADVNR": 8, "ATCFID": "SH202025", "NAME": "BIANCA", "FTECH": "JTWC", "FCST_DTG": "2025-02-26 18:00:00", "RUN_DTG": "2025-02-27 13:45:48", "BASIN": "SH", "STMNR": 20, "CAT_ID": null, "CAT_DESC": null, "MSGID": "WTXS51 PGTW 262100", "VALIDTIME": "2025-02-26 00:00:00" }, "geometry": { "type": "Point", "coordinates": [ 102.400002, -24.700001 ] } },
{ "type": "Feature", "properties": { "ID": 305871, "LAT": -25.5, "LON": 102.7, "VMAX": 45.0, "MSLP": 986.0, "RMAX": 20.0, "FSPD": 6.19303, "FDIR": 131.64743, "RENV": 125.0, "PENV": 1012.0, "VALIDT": 0, "DTG": "2025-02-26 06:00", "LATNOW": -26.6, "LONNOW": 104.2, "WINDNOW": 35.0, "DIRNOW": 3.0, "SPDNOW": 3.0, "TECH": "TRAK", "ADVNR": 8, "ATCFID": "SH202025", "NAME": "BIANCA", "FTECH": "JTWC", "FCST_DTG": "2025-02-26 18:00:00", "RUN_DTG": "2025-02-27 13:45:48", "BASIN": "SH", "STMNR": 20, "CAT_ID": null, "CAT_DESC": null, "MSGID": "WTXS51 PGTW 262100", "VALIDTIME": "2025-02-26 06:00:00" }, "geometry": { "type": "Point", "coordinates": [ 102.699997, -25.5 ] } },
{ "type": "Feature", "properties": { "ID": 305872, "LAT": -26.3, "LON": 103.7, "VMAX": 35.0, "MSLP": 999.0, "RMAX": 20.0, "FSPD": 2.77229, "FDIR": 123.82803, "RENV": 120.0, "PENV": 1013.0, "VALIDT": 0, "DTG": "2025-02-26 12:00", "LATNOW": -26.6, "LONNOW": 104.2, "WINDNOW": 35.0, "DIRNOW": 3.0, "SPDNOW": 3.0, "TECH": "TRAK", "ADVNR": 8, "ATCFID": "SH202025", "NAME": "BIANCA", "FTECH": "JTWC", "FCST_DTG": "2025-02-26 18:00:00", "RUN_DTG": "2025-02-27 13:45:48", "BASIN": "SH", "STMNR": 20, "CAT_ID": null, "CAT_DESC": null, "MSGID": "WTXS51 PGTW 262100", "VALIDTIME": "2025-02-26 12:00:00" }, "geometry": { "type": "Point", "coordinates": [ 103.699997, -26.299999 ] } },
{ "type": "Feature", "properties": { "ID": 305873, "LAT": -26.6, "LON": 104.2, "VMAX": 35.0, "MSLP": 1008.74713, "RMAX": 42.69135, "FSPD": 2.64819, "FDIR": 286.9415, "RENV": 500.0, "PENV": 1012.0, "VALIDT": 0, "DTG": "2025-02-26 18:00", "LATNOW": -26.6, "LONNOW": 104.2, "WINDNOW": 35.0, "DIRNOW": 3.0, "SPDNOW": 3.0, "TECH": "TRAK", "ADVNR": 8, "ATCFID": "SH202025", "NAME": "BIANCA", "FTECH": "JTWC", "FCST_DTG": "2025-02-26 18:00:00", "RUN_DTG": "2025-02-27 13:45:48", "BASIN": "SH", "STMNR": 20, "CAT_ID": null, "CAT_DESC": null, "MSGID": "WTXS51 PGTW 262100", "VALIDTIME": "2025-02-26 18:00:00" }, "geometry": { "type": "Point", "coordinates": [ 104.199997, -26.6 ] } },
{ "type": "Feature", "properties": { "ID": 305874, "LAT": -26.3, "LON": 103.1, "VMAX": 30.0, "MSLP": 1010.40607, "RMAX": 44.21983, "FSPD": 2.64819, "FDIR": 286.9415, "RENV": 250.0, "PENV": 1012.0, "VALIDT": 12, "DTG": "2025-02-27 06:00", "LATNOW": -26.6, "LONNOW": 104.2, "WINDNOW": 35.0, "DIRNOW": 3.0, "SPDNOW": 3.0, "TECH": "FCST", "ADVNR": 8, "ATCFID": "SH202025", "NAME": "BIANCA", "FTECH": "JTWC", "FCST_DTG": "2025-02-26 18:00:00", "RUN_DTG": "2025-02-27 13:45:48", "BASIN": "SH", "STMNR": 20, "CAT_ID": null, "CAT_DESC": null, "MSGID": "WTXS51 PGTW 262100", "VALIDTIME": "2025-02-27 06:00:00" }, "geometry": { "type": "Point", "coordinates": [ 103.099998, -26.299999 ] } },
{ "type": "Feature", "properties": { "ID": 305873, "LAT": -26.6, "LON": 104.2, "VMAX": 35.0, "MSLP": 1008.74713, "RMAX": 42.69135, "FSPD": 2.64819, "FDIR": 286.9415, "RENV": 500.0, "PENV": 1012.0, "VALIDT": 0, "DTG": "2025-02-26 18:00", "LATNOW": -26.6, "LONNOW": 104.2, "WINDNOW": 35.0, "DIRNOW": 3.0, "SPDNOW": 3.0, "TECH": "TRAK", "ADVNR": 8, "ATCFID": "SH202025", "NAME": "BIANCA", "FTECH": "JTWC", "FCST_DTG": "2025-02-26 18:00:00", "RUN_DTG": "2025-02-27 13:45:48", "BASIN": "SH", "STMNR": 20, "CAT_ID": null, "CAT_DESC": null, "MSGID": "WTXS51 PGTW 262100", "VALIDTIME": "2025-02-26 18:00:00" }, "geometry": { "type": "LineString", "coordinates": [ [ 129.8, -11.8 ], [ 129.6, -11.6 ], [ 129.6, -11.3 ], [ 129.5, -11.1 ], [ 128.5, -11.0 ], [ 127.7, -11.4 ], [ 127.1, -11.4 ], [ 126.7, -11.5 ], [ 126.1, -11.7 ], [ 124.5, -12.4 ], [ 123.1, -13.0 ], [ 122.2, -13.2 ], [ 121.3, -13.3 ], [ 120.7, -13.4 ], [ 119.2, -14.0 ], [ 118.1, -14.2 ], [ 117.1, -14.5 ], [ 116.5, -14.7 ], [ 115.3, -14.9 ], [ 113.9, -15.0 ], [ 112.3, -14.7 ], [ 111.5, -14.9 ], [ 110.7, -15.2 ], [ 109.7, -15.7 ], [ 108.6, -16.2 ], [ 107.3, -16.7 ], [ 106.0, -17.2 ], [ 104.9, -17.8 ], [ 104.6, -18.4 ], [ 103.6, -19.0 ], [ 103.2, -19.5 ], [ 102.9, -20.2 ], [ 102.5, -21.1 ], [ 102.2, -22.0 ], [ 102.2, -22.8 ], [ 102.0, -23.9 ], [ 102.4, -24.7 ], [ 102.7, -25.5 ], [ 103.7, -26.3 ], [ 104.2, -26.6 ] ] } },
{ "type": "Feature", "properties": { "ID": 305874, "LAT": -26.3, "LON": 103.1, "VMAX": 30.0, "MSLP": 1010.40607, "RMAX": 44.21983, "FSPD": 2.64819, "FDIR": 286.9415, "RENV": 250.0, "PENV": 1012.0, "VALIDT": 12, "DTG": "2025-02-27 06:00", "LATNOW": -26.6, "LONNOW": 104.2, "WINDNOW": 35.0, "DIRNOW": 3.0, "SPDNOW": 3.0, "TECH": "FCST", "ADVNR": 8, "ATCFID": "SH202025", "NAME": "BIANCA", "FTECH": "JTWC", "FCST_DTG": "2025-02-26 18:00:00", "RUN_DTG": "2025-02-27 13:45:48", "BASIN": "SH", "STMNR": 20, "CAT_ID": null, "CAT_DESC": null, "MSGID": "WTXS51 PGTW 262100", "VALIDTIME": "2025-02-27 06:00:00" }, "geometry": { "type": "LineString", "coordinates": [ [ 104.2, -26.6 ], [ 103.1, -26.3 ] ] } }
]
}
