{
"type": "FeatureCollection",
"crs": { "type": "name", "properties": { "name": "urn:ogc:def:crs:OGC:1.3:CRS84" } },
"features": [
{ "type": "Feature", "properties": { "ID": 83828, "LAT": 8.0, "LON": 135.3, "VMAX": 15.0, "MSLP": 1013.8515, "RMAX": 40.0, "FSPD": 5.11966, "FDIR": 275.76703, "RENV": 500.0, "PENV": 1012.0, "VALIDT": 0, "DTG": "2025-11-22 18:00", "LATNOW": 14.0, "LONNOW": 111.5, "WINDNOW": 25.0, "DIRNOW": 1.0, "SPDNOW": 4.0, "TECH": "TRAK", "ADVNR": 30, "ATCFID": "WP332025", "NAME": "KOTO", "FTECH": "JTWC", "FCST_DTG": "2025-12-02 00:00:00", "RUN_DTG": "2025-12-02 06:25:57", "BASIN": "WP", "STMNR": 33, "CAT_ID": null, "CAT_DESC": null, "MSGID": "WTPN51 PGTW 020300", "VALIDTIME": "2025-11-22 18:00:00" }, "geometry": { "type": "Point", "coordinates": [ 135.300003, 8.0 ] } },
{ "type": "Feature", "properties": { "ID": 83829, "LAT": 8.1, "LON": 134.3, "VMAX": 15.0, "MSLP": 1013.8515, "RMAX": 40.0, "FSPD": 6.6989, "FDIR": 278.83502, "RENV": 500.0, "PENV": 1012.0, "VALIDT": 0, "DTG": "2025-11-23 00:00", "LATNOW": 14.0, "LONNOW": 111.5, "WINDNOW": 25.0, "DIRNOW": 1.0, "SPDNOW": 4.0, "TECH": "TRAK", "ADVNR": 30, "ATCFID": "WP332025", "NAME": "KOTO", "FTECH": "JTWC", "FCST_DTG": "2025-12-02 00:00:00", "RUN_DTG": "2025-12-02 06:25:57", "BASIN": "WP", "STMNR": 33, "CAT_ID": null, "CAT_DESC": null, "MSGID": "WTPN51 PGTW 020300", "VALIDTIME": "2025-11-23 00:00:00" }, "geometry": { "type": "Point", "coordinates": [ 134.300003, 8.1 ] } },
{ "type": "Feature", "properties": { "ID": 83830, "LAT": 8.3, "LON": 133.0, "VMAX": 15.0, "MSLP": 1013.8515, "RMAX": 40.0, "FSPD": 7.65218, "FDIR": 273.85477, "RENV": 500.0, "PENV": 1012.0, "VALIDT": 0, "DTG": "2025-11-23 06:00", "LATNOW": 14.0, "LONNOW": 111.5, "WINDNOW": 25.0, "DIRNOW": 1.0, "SPDNOW": 4.0, "TECH": "TRAK", "ADVNR": 30, "ATCFID": "WP332025", "NAME": "KOTO", "FTECH": "JTWC", "FCST_DTG": "2025-12-02 00:00:00", "RUN_DTG": "2025-12-02 06:25:57", "BASIN": "WP", "STMNR": 33, "CAT_ID": null, "CAT_DESC": null, "MSGID": "WTPN51 PGTW 020300", "VALIDTIME": "2025-11-23 06:00:00" }, "geometry": { "type": "Point", "coordinates": [ 133.0, 8.3 ] } },
{ "type": "Feature", "properties": { "ID": 83831, "LAT": 8.4, "LON": 131.5, "VMAX": 20.0, "MSLP": 1012.95825, "RMAX": 45.0, "FSPD": 10.68747, "FDIR": 269.99997, "RENV": 500.0, "PENV": 1012.0, "VALIDT": 0, "DTG": "2025-11-23 12:00", "LATNOW": 14.0, "LONNOW": 111.5, "WINDNOW": 25.0, "DIRNOW": 1.0, "SPDNOW": 4.0, "TECH": "TRAK", "ADVNR": 30, "ATCFID": "WP332025", "NAME": "KOTO", "FTECH": "JTWC", "FCST_DTG": "2025-12-02 00:00:00", "RUN_DTG": "2025-12-02 06:25:57", "BASIN": "WP", "STMNR": 33, "CAT_ID": null, "CAT_DESC": null, "MSGID": "WTPN51 PGTW 020300", "VALIDTIME": "2025-11-23 12:00:00" }, "geometry": { "type": "Point", "coordinates": [ 131.5, 8.4 ] } },
{ "type": "Feature", "properties": { "ID": 83832, "LAT": 8.4, "LON": 129.4, "VMAX": 20.0, "MSLP": 1012.95825, "RMAX": 45.0, "FSPD": 9.17389, "FDIR": 273.21466, "RENV": 500.0, "PENV": 1012.0, "VALIDT": 0, "DTG": "2025-11-23 18:00", "LATNOW": 14.0, "LONNOW": 111.5, "WINDNOW": 25.0, "DIRNOW": 1.0, "SPDNOW": 4.0, "TECH": "TRAK", "ADVNR": 30, "ATCFID": "WP332025", "NAME": "KOTO", "FTECH": "JTWC", "FCST_DTG": "2025-12-02 00:00:00", "RUN_DTG": "2025-12-02 06:25:57", "BASIN": "WP", "STMNR": 33, "CAT_ID": null, "CAT_DESC": null, "MSGID": "WTPN51 PGTW 020300", "VALIDTIME": "2025-11-23 18:00:00" }, "geometry": { "type": "Point", "coordinates": [ 129.399994, 8.4 ] } },
{ "type": "Feature", "properties": { "ID": 83833, "LAT": 8.5, "LON": 127.6, "VMAX": 20.0, "MSLP": 1012.95825, "RMAX": 45.0, "FSPD": 6.4399, "FDIR": 288.63483, "RENV": 500.0, "PENV": 1012.0, "VALIDT": 0, "DTG": "2025-11-24 00:00", "LATNOW": 14.0, "LONNOW": 111.5, "WINDNOW": 25.0, "DIRNOW": 1.0, "SPDNOW": 4.0, "TECH": "TRAK", "ADVNR": 30, "ATCFID": "WP332025", "NAME": "KOTO", "FTECH": "JTWC", "FCST_DTG": "2025-12-02 00:00:00", "RUN_DTG": "2025-12-02 06:25:57", "BASIN": "WP", "STMNR": 33, "CAT_ID": null, "CAT_DESC": null, "MSGID": "WTPN51 PGTW 020300", "VALIDTIME": "2025-11-24 00:00:00" }, "geometry": { "type": "Point", "coordinates": [ 127.599998, 8.5 ] } },
{ "type": "Feature", "properties": { "ID": 83834, "LAT": 8.9, "LON": 126.4, "VMAX": 20.0, "MSLP": 1012.95825, "RMAX": 45.0, "FSPD": 7.08604, "FDIR": 291.28445, "RENV": 500.0, "PENV": 1012.0, "VALIDT": 0, "DTG": "2025-11-24 06:00", "LATNOW": 14.0, "LONNOW": 111.5, "WINDNOW": 25.0, "DIRNOW": 1.0, "SPDNOW": 4.0, "TECH": "TRAK", "ADVNR": 30, "ATCFID": "WP332025", "NAME": "KOTO", "FTECH": "JTWC", "FCST_DTG": "2025-12-02 00:00:00", "RUN_DTG": "2025-12-02 06:25:57", "BASIN": "WP", "STMNR": 33, "CAT_ID": null, "CAT_DESC": null, "MSGID": "WTPN51 PGTW 020300", "VALIDTIME": "2025-11-24 06:00:00" }, "geometry": { "type": "Point", "coordinates": [ 126.400002, 8.9 ] } },
{ "type": "Feature", "properties": { "ID": 83835, "LAT": 9.4, "LON": 125.1, "VMAX": 20.0, "MSLP": 1012.95825, "RMAX": 45.0, "FSPD": 7.39351, "FDIR": 286.1601, "RENV": 500.0, "PENV": 1012.0, "VALIDT": 0, "DTG": "2025-11-24 12:00", "LATNOW": 14.0, "LONNOW": 111.5, "WINDNOW": 25.0, "DIRNOW": 1.0, "SPDNOW": 4.0, "TECH": "TRAK", "ADVNR": 30, "ATCFID": "WP332025", "NAME": "KOTO", "FTECH": "JTWC", "FCST_DTG": "2025-12-02 00:00:00", "RUN_DTG": "2025-12-02 06:25:57", "BASIN": "WP", "STMNR": 33, "CAT_ID": null, "CAT_DESC": null, "MSGID": "WTPN51 PGTW 020300", "VALIDTIME": "2025-11-24 12:00:00" }, "geometry": { "type": "Point", "coordinates": [ 125.099998, 9.4 ] } },
{ "type": "Feature", "properties": { "ID": 83836, "LAT": 9.8, "LON": 123.7, "VMAX": 25.0, "MSLP": 1000.0, "RMAX": 60.0, "FSPD": 7.76281, "FDIR": 302.01645, "RENV": 185.0, "PENV": 1004.0, "VALIDT": 0, "DTG": "2025-11-24 18:00", "LATNOW": 14.0, "LONNOW": 111.5, "WINDNOW": 25.0, "DIRNOW": 1.0, "SPDNOW": 4.0, "TECH": "TRAK", "ADVNR": 30, "ATCFID": "WP332025", "NAME": "KOTO", "FTECH": "JTWC", "FCST_DTG": "2025-12-02 00:00:00", "RUN_DTG": "2025-12-02 06:25:57", "BASIN": "WP", "STMNR": 33, "CAT_ID": null, "CAT_DESC": null, "MSGID": "WTPN51 PGTW 020300", "VALIDTIME": "2025-11-24 18:00:00" }, "geometry": { "type": "Point", "coordinates": [ 123.699997, 9.8 ] } },
{ "type": "Feature", "properties": { "ID": 83837, "LAT": 10.6, "LON": 122.4, "VMAX": 30.0, "MSLP": 1000.0, "RMAX": 60.0, "FSPD": 6.40364, "FDIR": 288.74423, "RENV": 185.0, "PENV": 1004.0, "VALIDT": 0, "DTG": "2025-11-25 00:00", "LATNOW": 14.0, "LONNOW": 111.5, "WINDNOW": 25.0, "DIRNOW": 1.0, "SPDNOW": 4.0, "TECH": "TRAK", "ADVNR": 30, "ATCFID": "WP332025", "NAME": "KOTO", "FTECH": "JTWC", "FCST_DTG": "2025-12-02 00:00:00", "RUN_DTG": "2025-12-02 06:25:57", "BASIN": "WP", "STMNR": 33, "CAT_ID": null, "CAT_DESC": null, "MSGID": "WTPN51 PGTW 020300", "VALIDTIME": "2025-11-25 00:00:00" }, "geometry": { "type": "Point", "coordinates": [ 122.400002, 10.6 ] } },
{ "type": "Feature", "properties": { "ID": 83838, "LAT": 11.0, "LON": 121.2, "VMAX": 35.0, "MSLP": 999.0, "RMAX": 30.0, "FSPD": 5.92024, "FDIR": 290.33954, "RENV": 185.0, "PENV": 1006.0, "VALIDT": 0, "DTG": "2025-11-25 06:00", "LATNOW": 14.0, "LONNOW": 111.5, "WINDNOW": 25.0, "DIRNOW": 1.0, "SPDNOW": 4.0, "TECH": "TRAK", "ADVNR": 30, "ATCFID": "WP332025", "NAME": "KOTO", "FTECH": "JTWC", "FCST_DTG": "2025-12-02 00:00:00", "RUN_DTG": "2025-12-02 06:25:57", "BASIN": "WP", "STMNR": 33, "CAT_ID": null, "CAT_DESC": null, "MSGID": "WTPN51 PGTW 020300", "VALIDTIME": "2025-11-25 06:00:00" }, "geometry": { "type": "Point", "coordinates": [ 121.199997, 11.0 ] } },
{ "type": "Feature", "properties": { "ID": 83839, "LAT": 11.4, "LON": 120.1, "VMAX": 40.0, "MSLP": 997.0, "RMAX": 30.0, "FSPD": 5.404, "FDIR": 311.7882, "RENV": 200.0, "PENV": 1004.0, "VALIDT": 0, "DTG": "2025-11-25 12:00", "LATNOW": 14.0, "LONNOW": 111.5, "WINDNOW": 25.0, "DIRNOW": 1.0, "SPDNOW": 4.0, "TECH": "TRAK", "ADVNR": 30, "ATCFID": "WP332025", "NAME": "KOTO", "FTECH": "JTWC", "FCST_DTG": "2025-12-02 00:00:00", "RUN_DTG": "2025-12-02 06:25:57", "BASIN": "WP", "STMNR": 33, "CAT_ID": null, "CAT_DESC": null, "MSGID": "WTPN51 PGTW 020300", "VALIDTIME": "2025-11-25 12:00:00" }, "geometry": { "type": "Point", "coordinates": [ 120.099998, 11.4 ] } },
{ "type": "Feature", "properties": { "ID": 83840, "LAT": 12.1, "LON": 119.3, "VMAX": 50.0, "MSLP": 996.0, "RMAX": 30.0, "FSPD": 8.78912, "FDIR": 283.5402, "RENV": 180.0, "PENV": 1005.0, "VALIDT": 0, "DTG": "2025-11-25 18:00", "LATNOW": 14.0, "LONNOW": 111.5, "WINDNOW": 25.0, "DIRNOW": 1.0, "SPDNOW": 4.0, "TECH": "TRAK", "ADVNR": 30, "ATCFID": "WP332025", "NAME": "KOTO", "FTECH": "JTWC", "FCST_DTG": "2025-12-02 00:00:00", "RUN_DTG": "2025-12-02 06:25:57", "BASIN": "WP", "STMNR": 33, "CAT_ID": null, "CAT_DESC": null, "MSGID": "WTPN51 PGTW 020300", "VALIDTIME": "2025-11-25 18:00:00" }, "geometry": { "type": "Point", "coordinates": [ 119.300003, 12.1 ] } },
{ "type": "Feature", "properties": { "ID": 83841, "LAT": 12.5, "LON": 117.6, "VMAX": 55.0, "MSLP": 993.0, "RMAX": 30.0, "FSPD": 6.77757, "FDIR": 242.90775, "RENV": 180.0, "PENV": 1005.0, "VALIDT": 0, "DTG": "2025-11-26 00:00", "LATNOW": 14.0, "LONNOW": 111.5, "WINDNOW": 25.0, "DIRNOW": 1.0, "SPDNOW": 4.0, "TECH": "TRAK", "ADVNR": 30, "ATCFID": "WP332025", "NAME": "KOTO", "FTECH": "JTWC", "FCST_DTG": "2025-12-02 00:00:00", "RUN_DTG": "2025-12-02 06:25:57", "BASIN": "WP", "STMNR": 33, "CAT_ID": null, "CAT_DESC": null, "MSGID": "WTPN51 PGTW 020300", "VALIDTIME": "2025-11-26 00:00:00" }, "geometry": { "type": "Point", "coordinates": [ 117.599998, 12.5 ] } },
{ "type": "Feature", "properties": { "ID": 83842, "LAT": 11.9, "LON": 116.4, "VMAX": 55.0, "MSLP": 991.0, "RMAX": 30.0, "FSPD": 6.33406, "FDIR": 299.16406, "RENV": 190.0, "PENV": 1006.0, "VALIDT": 0, "DTG": "2025-11-26 06:00", "LATNOW": 14.0, "LONNOW": 111.5, "WINDNOW": 25.0, "DIRNOW": 1.0, "SPDNOW": 4.0, "TECH": "TRAK", "ADVNR": 30, "ATCFID": "WP332025", "NAME": "KOTO", "FTECH": "JTWC", "FCST_DTG": "2025-12-02 00:00:00", "RUN_DTG": "2025-12-02 06:25:57", "BASIN": "WP", "STMNR": 33, "CAT_ID": null, "CAT_DESC": null, "MSGID": "WTPN51 PGTW 020300", "VALIDTIME": "2025-11-26 06:00:00" }, "geometry": { "type": "Point", "coordinates": [ 116.400002, 11.9 ] } },
{ "type": "Feature", "properties": { "ID": 83843, "LAT": 12.5, "LON": 115.3, "VMAX": 60.0, "MSLP": 990.0, "RMAX": 25.0, "FSPD": 4.38829, "FDIR": 325.14673, "RENV": 210.0, "PENV": 1005.0, "VALIDT": 0, "DTG": "2025-11-26 12:00", "LATNOW": 14.0, "LONNOW": 111.5, "WINDNOW": 25.0, "DIRNOW": 1.0, "SPDNOW": 4.0, "TECH": "TRAK", "ADVNR": 30, "ATCFID": "WP332025", "NAME": "KOTO", "FTECH": "JTWC", "FCST_DTG": "2025-12-02 00:00:00", "RUN_DTG": "2025-12-02 06:25:57", "BASIN": "WP", "STMNR": 33, "CAT_ID": null, "CAT_DESC": null, "MSGID": "WTPN51 PGTW 020300", "VALIDTIME": "2025-11-26 12:00:00" }, "geometry": { "type": "Point", "coordinates": [ 115.300003, 12.5 ] } },
{ "type": "Feature", "properties": { "ID": 83844, "LAT": 13.2, "LON": 114.8, "VMAX": 70.0, "MSLP": 989.0, "RMAX": 25.0, "FSPD": 4.50768, "FDIR": 269.99997, "RENV": 210.0, "PENV": 1007.0, "VALIDT": 0, "DTG": "2025-11-26 18:00", "LATNOW": 14.0, "LONNOW": 111.5, "WINDNOW": 25.0, "DIRNOW": 1.0, "SPDNOW": 4.0, "TECH": "TRAK", "ADVNR": 30, "ATCFID": "WP332025", "NAME": "KOTO", "FTECH": "JTWC", "FCST_DTG": "2025-12-02 00:00:00", "RUN_DTG": "2025-12-02 06:25:57", "BASIN": "WP", "STMNR": 33, "CAT_ID": null, "CAT_DESC": null, "MSGID": "WTPN51 PGTW 020300", "VALIDTIME": "2025-11-26 18:00:00" }, "geometry": { "type": "Point", "coordinates": [ 114.800003, 13.2 ] } },
{ "type": "Feature", "properties": { "ID": 83845, "LAT": 13.2, "LON": 113.9, "VMAX": 80.0, "MSLP": 982.0, "RMAX": 25.0, "FSPD": 0.71805, "FDIR": 224.23856, "RENV": 195.0, "PENV": 1007.0, "VALIDT": 0, "DTG": "2025-11-27 00:00", "LATNOW": 14.0, "LONNOW": 111.5, "WINDNOW": 25.0, "DIRNOW": 1.0, "SPDNOW": 4.0, "TECH": "TRAK", "ADVNR": 30, "ATCFID": "WP332025", "NAME": "KOTO", "FTECH": "JTWC", "FCST_DTG": "2025-12-02 00:00:00", "RUN_DTG": "2025-12-02 06:25:57", "BASIN": "WP", "STMNR": 33, "CAT_ID": null, "CAT_DESC": null, "MSGID": "WTPN51 PGTW 020300", "VALIDTIME": "2025-11-27 00:00:00" }, "geometry": { "type": "Point", "coordinates": [ 113.900002, 13.2 ] } },
{ "type": "Feature", "properties": { "ID": 83846, "LAT": 13.1, "LON": 113.8, "VMAX": 70.0, "MSLP": 975.0, "RMAX": 25.0, "FSPD": 1.54333, "FDIR": 179.99997, "RENV": 205.0, "PENV": 1007.0, "VALIDT": 0, "DTG": "2025-11-27 06:00", "LATNOW": 14.0, "LONNOW": 111.5, "WINDNOW": 25.0, "DIRNOW": 1.0, "SPDNOW": 4.0, "TECH": "TRAK", "ADVNR": 30, "ATCFID": "WP332025", "NAME": "KOTO", "FTECH": "JTWC", "FCST_DTG": "2025-12-02 00:00:00", "RUN_DTG": "2025-12-02 06:25:57", "BASIN": "WP", "STMNR": 33, "CAT_ID": null, "CAT_DESC": null, "MSGID": "WTPN51 PGTW 020300", "VALIDTIME": "2025-11-27 06:00:00" }, "geometry": { "type": "Point", "coordinates": [ 113.800003, 13.1 ] } },
{ "type": "Feature", "properties": { "ID": 83847, "LAT": 12.8, "LON": 113.8, "VMAX": 65.0, "MSLP": 977.0, "RMAX": 25.0, "FSPD": 2.76134, "FDIR": 201.32819, "RENV": 205.0, "PENV": 1006.0, "VALIDT": 0, "DTG": "2025-11-27 12:00", "LATNOW": 14.0, "LONNOW": 111.5, "WINDNOW": 25.0, "DIRNOW": 1.0, "SPDNOW": 4.0, "TECH": "TRAK", "ADVNR": 30, "ATCFID": "WP332025", "NAME": "KOTO", "FTECH": "JTWC", "FCST_DTG": "2025-12-02 00:00:00", "RUN_DTG": "2025-12-02 06:25:57", "BASIN": "WP", "STMNR": 33, "CAT_ID": null, "CAT_DESC": null, "MSGID": "WTPN51 PGTW 020300", "VALIDTIME": "2025-11-27 12:00:00" }, "geometry": { "type": "Point", "coordinates": [ 113.800003, 12.8 ] } },
{ "type": "Feature", "properties": { "ID": 83848, "LAT": 12.3, "LON": 113.6, "VMAX": 60.0, "MSLP": 982.0, "RMAX": 25.0, "FSPD": 3.01581, "FDIR": 269.99997, "RENV": 205.0, "PENV": 1006.0, "VALIDT": 0, "DTG": "2025-11-27 18:00", "LATNOW": 14.0, "LONNOW": 111.5, "WINDNOW": 25.0, "DIRNOW": 1.0, "SPDNOW": 4.0, "TECH": "TRAK", "ADVNR": 30, "ATCFID": "WP332025", "NAME": "KOTO", "FTECH": "JTWC", "FCST_DTG": "2025-12-02 00:00:00", "RUN_DTG": "2025-12-02 06:25:57", "BASIN": "WP", "STMNR": 33, "CAT_ID": null, "CAT_DESC": null, "MSGID": "WTPN51 PGTW 020300", "VALIDTIME": "2025-11-27 18:00:00" }, "geometry": { "type": "Point", "coordinates": [ 113.599998, 12.3 ] } },
{ "type": "Feature", "properties": { "ID": 83849, "LAT": 12.3, "LON": 113.0, "VMAX": 55.0, "MSLP": 986.0, "RMAX": 25.0, "FSPD": 1.82502, "FDIR": 304.3167, "RENV": 165.0, "PENV": 1006.0, "VALIDT": 0, "DTG": "2025-11-28 00:00", "LATNOW": 14.0, "LONNOW": 111.5, "WINDNOW": 25.0, "DIRNOW": 1.0, "SPDNOW": 4.0, "TECH": "TRAK", "ADVNR": 30, "ATCFID": "WP332025", "NAME": "KOTO", "FTECH": "JTWC", "FCST_DTG": "2025-12-02 00:00:00", "RUN_DTG": "2025-12-02 06:25:57", "BASIN": "WP", "STMNR": 33, "CAT_ID": null, "CAT_DESC": null, "MSGID": "WTPN51 PGTW 020300", "VALIDTIME": "2025-11-28 00:00:00" }, "geometry": { "type": "Point", "coordinates": [ 113.0, 12.3 ] } },
{ "type": "Feature", "properties": { "ID": 83850, "LAT": 12.5, "LON": 112.7, "VMAX": 50.0, "MSLP": 990.0, "RMAX": 25.0, "FSPD": 1.82403, "FDIR": 304.33807, "RENV": 185.0, "PENV": 1008.0, "VALIDT": 0, "DTG": "2025-11-28 06:00", "LATNOW": 14.0, "LONNOW": 111.5, "WINDNOW": 25.0, "DIRNOW": 1.0, "SPDNOW": 4.0, "TECH": "TRAK", "ADVNR": 30, "ATCFID": "WP332025", "NAME": "KOTO", "FTECH": "JTWC", "FCST_DTG": "2025-12-02 00:00:00", "RUN_DTG": "2025-12-02 06:25:57", "BASIN": "WP", "STMNR": 33, "CAT_ID": null, "CAT_DESC": null, "MSGID": "WTPN51 PGTW 020300", "VALIDTIME": "2025-11-28 06:00:00" }, "geometry": { "type": "Point", "coordinates": [ 112.699997, 12.5 ] } },
{ "type": "Feature", "properties": { "ID": 83851, "LAT": 12.7, "LON": 112.4, "VMAX": 50.0, "MSLP": 993.0, "RMAX": 25.0, "FSPD": 3.08667, "FDIR": 360.0, "RENV": 185.0, "PENV": 1008.0, "VALIDT": 0, "DTG": "2025-11-28 12:00", "LATNOW": 14.0, "LONNOW": 111.5, "WINDNOW": 25.0, "DIRNOW": 1.0, "SPDNOW": 4.0, "TECH": "TRAK", "ADVNR": 30, "ATCFID": "WP332025", "NAME": "KOTO", "FTECH": "JTWC", "FCST_DTG": "2025-12-02 00:00:00", "RUN_DTG": "2025-12-02 06:25:57", "BASIN": "WP", "STMNR": 33, "CAT_ID": null, "CAT_DESC": null, "MSGID": "WTPN51 PGTW 020300", "VALIDTIME": "2025-11-28 12:00:00" }, "geometry": { "type": "Point", "coordinates": [ 112.400002, 12.7 ] } },
{ "type": "Feature", "properties": { "ID": 83852, "LAT": 13.3, "LON": 112.4, "VMAX": 50.0, "MSLP": 993.0, "RMAX": 25.0, "FSPD": 1.84004, "FDIR": 212.9916, "RENV": 185.0, "PENV": 1008.0, "VALIDT": 0, "DTG": "2025-11-28 18:00", "LATNOW": 14.0, "LONNOW": 111.5, "WINDNOW": 25.0, "DIRNOW": 1.0, "SPDNOW": 4.0, "TECH": "TRAK", "ADVNR": 30, "ATCFID": "WP332025", "NAME": "KOTO", "FTECH": "JTWC", "FCST_DTG": "2025-12-02 00:00:00", "RUN_DTG": "2025-12-02 06:25:57", "BASIN": "WP", "STMNR": 33, "CAT_ID": null, "CAT_DESC": null, "MSGID": "WTPN51 PGTW 020300", "VALIDTIME": "2025-11-28 18:00:00" }, "geometry": { "type": "Point", "coordinates": [ 112.400002, 13.3 ] } },
{ "type": "Feature", "properties": { "ID": 83853, "LAT": 13.0, "LON": 112.2, "VMAX": 45.0, "MSLP": 993.0, "RMAX": 25.0, "FSPD": 1.84002, "FDIR": 327.00934, "RENV": 200.0, "PENV": 1008.0, "VALIDT": 0, "DTG": "2025-11-29 00:00", "LATNOW": 14.0, "LONNOW": 111.5, "WINDNOW": 25.0, "DIRNOW": 1.0, "SPDNOW": 4.0, "TECH": "TRAK", "ADVNR": 30, "ATCFID": "WP332025", "NAME": "KOTO", "FTECH": "JTWC", "FCST_DTG": "2025-12-02 00:00:00", "RUN_DTG": "2025-12-02 06:25:57", "BASIN": "WP", "STMNR": 33, "CAT_ID": null, "CAT_DESC": null, "MSGID": "WTPN51 PGTW 020300", "VALIDTIME": "2025-11-29 00:00:00" }, "geometry": { "type": "Point", "coordinates": [ 112.199997, 13.0 ] } },
{ "type": "Feature", "properties": { "ID": 83854, "LAT": 13.3, "LON": 112.0, "VMAX": 45.0, "MSLP": 996.0, "RMAX": 25.0, "FSPD": 1.02889, "FDIR": 360.0, "RENV": 165.0, "PENV": 1008.0, "VALIDT": 0, "DTG": "2025-11-29 06:00", "LATNOW": 14.0, "LONNOW": 111.5, "WINDNOW": 25.0, "DIRNOW": 1.0, "SPDNOW": 4.0, "TECH": "TRAK", "ADVNR": 30, "ATCFID": "WP332025", "NAME": "KOTO", "FTECH": "JTWC", "FCST_DTG": "2025-12-02 00:00:00", "RUN_DTG": "2025-12-02 06:25:57", "BASIN": "WP", "STMNR": 33, "CAT_ID": null, "CAT_DESC": null, "MSGID": "WTPN51 PGTW 020300", "VALIDTIME": "2025-11-29 06:00:00" }, "geometry": { "type": "Point", "coordinates": [ 112.0, 13.3 ] } },
{ "type": "Feature", "properties": { "ID": 83855, "LAT": 13.5, "LON": 112.0, "VMAX": 45.0, "MSLP": 996.0, "RMAX": 25.0, "FSPD": 1.4348, "FDIR": 44.18497, "RENV": 190.0, "PENV": 1008.0, "VALIDT": 0, "DTG": "2025-11-29 12:00", "LATNOW": 14.0, "LONNOW": 111.5, "WINDNOW": 25.0, "DIRNOW": 1.0, "SPDNOW": 4.0, "TECH": "TRAK", "ADVNR": 30, "ATCFID": "WP332025", "NAME": "KOTO", "FTECH": "JTWC", "FCST_DTG": "2025-12-02 00:00:00", "RUN_DTG": "2025-12-02 06:25:57", "BASIN": "WP", "STMNR": 33, "CAT_ID": null, "CAT_DESC": null, "MSGID": "WTPN51 PGTW 020300", "VALIDTIME": "2025-11-29 12:00:00" }, "geometry": { "type": "Point", "coordinates": [ 112.0, 13.5 ] } },
{ "type": "Feature", "properties": { "ID": 83856, "LAT": 13.7, "LON": 112.2, "VMAX": 45.0, "MSLP": 996.0, "RMAX": 25.0, "FSPD": 1.83844, "FDIR": 32.91492, "RENV": 200.0, "PENV": 1010.0, "VALIDT": 0, "DTG": "2025-11-29 18:00", "LATNOW": 14.0, "LONNOW": 111.5, "WINDNOW": 25.0, "DIRNOW": 1.0, "SPDNOW": 4.0, "TECH": "TRAK", "ADVNR": 30, "ATCFID": "WP332025", "NAME": "KOTO", "FTECH": "JTWC", "FCST_DTG": "2025-12-02 00:00:00", "RUN_DTG": "2025-12-02 06:25:57", "BASIN": "WP", "STMNR": 33, "CAT_ID": null, "CAT_DESC": null, "MSGID": "WTPN51 PGTW 020300", "VALIDTIME": "2025-11-29 18:00:00" }, "geometry": { "type": "Point", "coordinates": [ 112.199997, 13.7 ] } },
{ "type": "Feature", "properties": { "ID": 83857, "LAT": 14.0, "LON": 112.4, "VMAX": 50.0, "MSLP": 998.0, "RMAX": 25.0, "FSPD": 1.62195, "FDIR": 342.0884, "RENV": 150.0, "PENV": 1008.0, "VALIDT": 0, "DTG": "2025-11-30 00:00", "LATNOW": 14.0, "LONNOW": 111.5, "WINDNOW": 25.0, "DIRNOW": 1.0, "SPDNOW": 4.0, "TECH": "TRAK", "ADVNR": 30, "ATCFID": "WP332025", "NAME": "KOTO", "FTECH": "JTWC", "FCST_DTG": "2025-12-02 00:00:00", "RUN_DTG": "2025-12-02 06:25:57", "BASIN": "WP", "STMNR": 33, "CAT_ID": null, "CAT_DESC": null, "MSGID": "WTPN51 PGTW 020300", "VALIDTIME": "2025-11-30 00:00:00" }, "geometry": { "type": "Point", "coordinates": [ 112.400002, 14.0 ] } },
{ "type": "Feature", "properties": { "ID": 83858, "LAT": 14.3, "LON": 112.3, "VMAX": 45.0, "MSLP": 996.0, "RMAX": 25.0, "FSPD": 0.71629, "FDIR": 315.90598, "RENV": 165.0, "PENV": 1010.0, "VALIDT": 0, "DTG": "2025-11-30 06:00", "LATNOW": 14.0, "LONNOW": 111.5, "WINDNOW": 25.0, "DIRNOW": 1.0, "SPDNOW": 4.0, "TECH": "TRAK", "ADVNR": 30, "ATCFID": "WP332025", "NAME": "KOTO", "FTECH": "JTWC", "FCST_DTG": "2025-12-02 00:00:00", "RUN_DTG": "2025-12-02 06:25:57", "BASIN": "WP", "STMNR": 33, "CAT_ID": null, "CAT_DESC": null, "MSGID": "WTPN51 PGTW 020300", "VALIDTIME": "2025-11-30 06:00:00" }, "geometry": { "type": "Point", "coordinates": [ 112.300003, 14.3 ] } },
{ "type": "Feature", "properties": { "ID": 83859, "LAT": 14.4, "LON": 112.2, "VMAX": 45.0, "MSLP": 996.0, "RMAX": 25.0, "FSPD": 3.25266, "FDIR": 322.26086, "RENV": 130.0, "PENV": 1008.0, "VALIDT": 0, "DTG": "2025-11-30 12:00", "LATNOW": 14.0, "LONNOW": 111.5, "WINDNOW": 25.0, "DIRNOW": 1.0, "SPDNOW": 4.0, "TECH": "TRAK", "ADVNR": 30, "ATCFID": "WP332025", "NAME": "KOTO", "FTECH": "JTWC", "FCST_DTG": "2025-12-02 00:00:00", "RUN_DTG": "2025-12-02 06:25:57", "BASIN": "WP", "STMNR": 33, "CAT_ID": null, "CAT_DESC": null, "MSGID": "WTPN51 PGTW 020300", "VALIDTIME": "2025-11-30 12:00:00" }, "geometry": { "type": "Point", "coordinates": [ 112.199997, 14.4 ] } },
{ "type": "Feature", "properties": { "ID": 83860, "LAT": 14.9, "LON": 111.8, "VMAX": 35.0, "MSLP": 998.0, "RMAX": 25.0, "FSPD": 1.43115, "FDIR": 224.03427, "RENV": 150.0, "PENV": 1011.0, "VALIDT": 0, "DTG": "2025-11-30 18:00", "LATNOW": 14.0, "LONNOW": 111.5, "WINDNOW": 25.0, "DIRNOW": 1.0, "SPDNOW": 4.0, "TECH": "TRAK", "ADVNR": 30, "ATCFID": "WP332025", "NAME": "KOTO", "FTECH": "JTWC", "FCST_DTG": "2025-12-02 00:00:00", "RUN_DTG": "2025-12-02 06:25:57", "BASIN": "WP", "STMNR": 33, "CAT_ID": null, "CAT_DESC": null, "MSGID": "WTPN51 PGTW 020300", "VALIDTIME": "2025-11-30 18:00:00" }, "geometry": { "type": "Point", "coordinates": [ 111.800003, 14.9 ] } },
{ "type": "Feature", "properties": { "ID": 83861, "LAT": 14.7, "LON": 111.6, "VMAX": 35.0, "MSLP": 1003.0, "RMAX": 25.0, "FSPD": 0.7158, "FDIR": 224.05301, "RENV": 135.0, "PENV": 1010.0, "VALIDT": 0, "DTG": "2025-12-01 00:00", "LATNOW": 14.0, "LONNOW": 111.5, "WINDNOW": 25.0, "DIRNOW": 1.0, "SPDNOW": 4.0, "TECH": "TRAK", "ADVNR": 30, "ATCFID": "WP332025", "NAME": "KOTO", "FTECH": "JTWC", "FCST_DTG": "2025-12-02 00:00:00", "RUN_DTG": "2025-12-02 06:25:57", "BASIN": "WP", "STMNR": 33, "CAT_ID": null, "CAT_DESC": null, "MSGID": "WTPN51 PGTW 020300", "VALIDTIME": "2025-12-01 00:00:00" }, "geometry": { "type": "Point", "coordinates": [ 111.599998, 14.7 ] } },
{ "type": "Feature", "properties": { "ID": 83862, "LAT": 14.6, "LON": 111.5, "VMAX": 35.0, "MSLP": 1004.0, "RMAX": 25.0, "FSPD": 0.0, "FDIR": 90.0, "RENV": 110.0, "PENV": 1010.0, "VALIDT": 0, "DTG": "2025-12-01 06:00", "LATNOW": 14.0, "LONNOW": 111.5, "WINDNOW": 25.0, "DIRNOW": 1.0, "SPDNOW": 4.0, "TECH": "TRAK", "ADVNR": 30, "ATCFID": "WP332025", "NAME": "KOTO", "FTECH": "JTWC", "FCST_DTG": "2025-12-02 00:00:00", "RUN_DTG": "2025-12-02 06:25:57", "BASIN": "WP", "STMNR": 33, "CAT_ID": null, "CAT_DESC": null, "MSGID": "WTPN51 PGTW 020300", "VALIDTIME": "2025-12-01 06:00:00" }, "geometry": { "type": "Point", "coordinates": [ 111.5, 14.6 ] } },
{ "type": "Feature", "properties": { "ID": 83863, "LAT": 14.6, "LON": 111.5, "VMAX": 30.0, "MSLP": 1001.0, "RMAX": 25.0, "FSPD": 2.14837, "FDIR": 224.0795, "RENV": 100.0, "PENV": 1008.0, "VALIDT": 0, "DTG": "2025-12-01 12:00", "LATNOW": 14.0, "LONNOW": 111.5, "WINDNOW": 25.0, "DIRNOW": 1.0, "SPDNOW": 4.0, "TECH": "TRAK", "ADVNR": 30, "ATCFID": "WP332025", "NAME": "KOTO", "FTECH": "JTWC", "FCST_DTG": "2025-12-02 00:00:00", "RUN_DTG": "2025-12-02 06:25:57", "BASIN": "WP", "STMNR": 33, "CAT_ID": null, "CAT_DESC": null, "MSGID": "WTPN51 PGTW 020300", "VALIDTIME": "2025-12-01 12:00:00" }, "geometry": { "type": "Point", "coordinates": [ 111.5, 14.6 ] } },
{ "type": "Feature", "properties": { "ID": 83864, "LAT": 14.3, "LON": 111.2, "VMAX": 30.0, "MSLP": 1004.0, "RMAX": 25.0, "FSPD": 2.14976, "FDIR": 135.8822, "RENV": 120.0, "PENV": 1010.0, "VALIDT": 0, "DTG": "2025-12-01 18:00", "LATNOW": 14.0, "LONNOW": 111.5, "WINDNOW": 25.0, "DIRNOW": 1.0, "SPDNOW": 4.0, "TECH": "TRAK", "ADVNR": 30, "ATCFID": "WP332025", "NAME": "KOTO", "FTECH": "JTWC", "FCST_DTG": "2025-12-02 00:00:00", "RUN_DTG": "2025-12-02 06:25:57", "BASIN": "WP", "STMNR": 33, "CAT_ID": null, "CAT_DESC": null, "MSGID": "WTPN51 PGTW 020300", "VALIDTIME": "2025-12-01 18:00:00" }, "geometry": { "type": "Point", "coordinates": [ 111.199997, 14.3 ] } },
{ "type": "Feature", "properties": { "ID": 83865, "LAT": 14.0, "LON": 111.5, "VMAX": 25.0, "MSLP": 1011.80975, "RMAX": 45.0, "FSPD": 1.37977, "FDIR": 201.23265, "RENV": 500.0, "PENV": 1012.0, "VALIDT": 0, "DTG": "2025-12-02 00:00", "LATNOW": 14.0, "LONNOW": 111.5, "WINDNOW": 25.0, "DIRNOW": 1.0, "SPDNOW": 4.0, "TECH": "TRAK", "ADVNR": 30, "ATCFID": "WP332025", "NAME": "KOTO", "FTECH": "JTWC", "FCST_DTG": "2025-12-02 00:00:00", "RUN_DTG": "2025-12-02 06:25:57", "BASIN": "WP", "STMNR": 33, "CAT_ID": null, "CAT_DESC": null, "MSGID": "WTPN51 PGTW 020300", "VALIDTIME": "2025-12-02 00:00:00" }, "geometry": { "type": "Point", "coordinates": [ 111.5, 14.0 ] } },
{ "type": "Feature", "properties": { "ID": 83866, "LAT": 13.5, "LON": 111.3, "VMAX": 20.0, "MSLP": 1012.95825, "RMAX": 45.0, "FSPD": 2.54834, "FDIR": 216.14769, "RENV": 250.0, "PENV": 1012.0, "VALIDT": 12, "DTG": "2025-12-02 12:00", "LATNOW": 14.0, "LONNOW": 111.5, "WINDNOW": 25.0, "DIRNOW": 1.0, "SPDNOW": 4.0, "TECH": "FCST", "ADVNR": 30, "ATCFID": "WP332025", "NAME": "KOTO", "FTECH": "JTWC", "FCST_DTG": "2025-12-02 00:00:00", "RUN_DTG": "2025-12-02 06:25:57", "BASIN": "WP", "STMNR": 33, "CAT_ID": null, "CAT_DESC": null, "MSGID": "WTPN51 PGTW 020300", "VALIDTIME": "2025-12-02 12:00:00" }, "geometry": { "type": "Point", "coordinates": [ 111.300003, 13.5 ] } },
{ "type": "Feature", "properties": { "ID": 83867, "LAT": 12.7, "LON": 110.7, "VMAX": 20.0, "MSLP": 1012.95825, "RMAX": 45.0, "FSPD": 2.54834, "FDIR": 216.14769, "RENV": 250.0, "PENV": 1012.0, "VALIDT": 24, "DTG": "2025-12-03 00:00", "LATNOW": 14.0, "LONNOW": 111.5, "WINDNOW": 25.0, "DIRNOW": 1.0, "SPDNOW": 4.0, "TECH": "FCST", "ADVNR": 30, "ATCFID": "WP332025", "NAME": "KOTO", "FTECH": "JTWC", "FCST_DTG": "2025-12-02 00:00:00", "RUN_DTG": "2025-12-02 06:25:57", "BASIN": "WP", "STMNR": 33, "CAT_ID": null, "CAT_DESC": null, "MSGID": "WTPN51 PGTW 020300", "VALIDTIME": "2025-12-03 00:00:00" }, "geometry": { "type": "Point", "coordinates": [ 110.699997, 12.7 ] } },
{ "type": "Feature", "properties": { "ID": 83865, "LAT": 14.0, "LON": 111.5, "VMAX": 25.0, "MSLP": 1011.80975, "RMAX": 45.0, "FSPD": 1.37977, "FDIR": 201.23265, "RENV": 500.0, "PENV": 1012.0, "VALIDT": 0, "DTG": "2025-12-02 00:00", "LATNOW": 14.0, "LONNOW": 111.5, "WINDNOW": 25.0, "DIRNOW": 1.0, "SPDNOW": 4.0, "TECH": "TRAK", "ADVNR": 30, "ATCFID": "WP332025", "NAME": "KOTO", "FTECH": "JTWC", "FCST_DTG": "2025-12-02 00:00:00", "RUN_DTG": "2025-12-02 06:25:57", "BASIN": "WP", "STMNR": 33, "CAT_ID": null, "CAT_DESC": null, "MSGID": "WTPN51 PGTW 020300", "VALIDTIME": "2025-12-02 00:00:00" }, "geometry": { "type": "LineString", "coordinates": [ [ 135.3, 8.0 ], [ 134.3, 8.1 ], [ 133.0, 8.3 ], [ 131.5, 8.4 ], [ 129.4, 8.4 ], [ 127.6, 8.5 ], [ 126.4, 8.9 ], [ 125.1, 9.4 ], [ 123.7, 9.8 ], [ 122.4, 10.6 ], [ 121.2, 11.0 ], [ 120.1, 11.4 ], [ 119.3, 12.1 ], [ 117.6, 12.5 ], [ 116.4, 11.9 ], [ 115.3, 12.5 ], [ 114.8, 13.2 ], [ 113.9, 13.2 ], [ 113.8, 13.1 ], [ 113.8, 12.8 ], [ 113.6, 12.3 ], [ 113.0, 12.3 ], [ 112.7, 12.5 ], [ 112.4, 12.7 ], [ 112.4, 13.3 ], [ 112.2, 13.0 ], [ 112.0, 13.3 ], [ 112.0, 13.5 ], [ 112.2, 13.7 ], [ 112.4, 14.0 ], [ 112.3, 14.3 ], [ 112.2, 14.4 ], [ 111.8, 14.9 ], [ 111.6, 14.7 ], [ 111.5, 14.6 ], [ 111.5, 14.6 ], [ 111.2, 14.3 ], [ 111.5, 14.0 ] ] } },
{ "type": "Feature", "properties": { "ID": 83867, "LAT": 12.7, "LON": 110.7, "VMAX": 20.0, "MSLP": 1012.95825, "RMAX": 45.0, "FSPD": 2.54834, "FDIR": 216.14769, "RENV": 250.0, "PENV": 1012.0, "VALIDT": 24, "DTG": "2025-12-03 00:00", "LATNOW": 14.0, "LONNOW": 111.5, "WINDNOW": 25.0, "DIRNOW": 1.0, "SPDNOW": 4.0, "TECH": "FCST", "ADVNR": 30, "ATCFID": "WP332025", "NAME": "KOTO", "FTECH": "JTWC", "FCST_DTG": "2025-12-02 00:00:00", "RUN_DTG": "2025-12-02 06:25:57", "BASIN": "WP", "STMNR": 33, "CAT_ID": null, "CAT_DESC": null, "MSGID": "WTPN51 PGTW 020300", "VALIDTIME": "2025-12-03 00:00:00" }, "geometry": { "type": "LineString", "coordinates": [ [ 111.5, 14.0 ], [ 111.3, 13.5 ], [ 110.7, 12.7 ] ] } }
]
}
