{
"type": "FeatureCollection",
"crs": { "type": "name", "properties": { "name": "urn:ogc:def:crs:OGC:1.3:CRS84" } },
"features": [
{ "type": "Feature", "properties": { "ID": 60089, "LAT": 8.0, "LON": -25.9, "VMAX": 25.0, "MSLP": 1011.0, "RMAX": 120.0, "FSPD": 7.65793, "FDIR": 273.85193, "RENV": 210.0, "PENV": 1013.0, "VALIDT": 0, "DTG": "2025-10-05 06:00", "LATNOW": 27.0, "LONNOW": -63.7, "WINDNOW": 40.0, "DIRNOW": 6.0, "SPDNOW": 1.0, "TECH": "TRAK", "ADVNR": 18, "ATCFID": "AL102025", "NAME": "JERRY", "FTECH": "OFCL", "FCST_DTG": "2025-10-11 18:00:00", "RUN_DTG": "2025-10-12 10:23:31", "BASIN": "AL", "STMNR": 10, "CAT_ID": null, "CAT_DESC": null, "MSGID": "WTNT25 KNHC 112032", "VALIDTIME": "2025-10-05 06:00:00" }, "geometry": { "type": "Point", "coordinates": [ -25.9, 8.0 ] } },
{ "type": "Feature", "properties": { "ID": 60090, "LAT": 8.1, "LON": -27.4, "VMAX": 30.0, "MSLP": 1010.0, "RMAX": 90.0, "FSPD": 11.81105, "FDIR": 277.50818, "RENV": 210.0, "PENV": 1013.0, "VALIDT": 0, "DTG": "2025-10-05 12:00", "LATNOW": 27.0, "LONNOW": -63.7, "WINDNOW": 40.0, "DIRNOW": 6.0, "SPDNOW": 1.0, "TECH": "TRAK", "ADVNR": 18, "ATCFID": "AL102025", "NAME": "JERRY", "FTECH": "OFCL", "FCST_DTG": "2025-10-11 18:00:00", "RUN_DTG": "2025-10-12 10:23:31", "BASIN": "AL", "STMNR": 10, "CAT_ID": null, "CAT_DESC": null, "MSGID": "WTNT25 KNHC 112032", "VALIDTIME": "2025-10-05 12:00:00" }, "geometry": { "type": "Point", "coordinates": [ -27.4, 8.1 ] } },
{ "type": "Feature", "properties": { "ID": 60091, "LAT": 8.4, "LON": -29.7, "VMAX": 30.0, "MSLP": 1010.0, "RMAX": 90.0, "FSPD": 15.90216, "FDIR": 277.43506, "RENV": 210.0, "PENV": 1013.0, "VALIDT": 0, "DTG": "2025-10-05 18:00", "LATNOW": 27.0, "LONNOW": -63.7, "WINDNOW": 40.0, "DIRNOW": 6.0, "SPDNOW": 1.0, "TECH": "TRAK", "ADVNR": 18, "ATCFID": "AL102025", "NAME": "JERRY", "FTECH": "OFCL", "FCST_DTG": "2025-10-11 18:00:00", "RUN_DTG": "2025-10-12 10:23:31", "BASIN": "AL", "STMNR": 10, "CAT_ID": null, "CAT_DESC": null, "MSGID": "WTNT25 KNHC 112032", "VALIDTIME": "2025-10-05 18:00:00" }, "geometry": { "type": "Point", "coordinates": [ -29.700001, 8.4 ] } },
{ "type": "Feature", "properties": { "ID": 60092, "LAT": 8.8, "LON": -32.8, "VMAX": 25.0, "MSLP": 1010.0, "RMAX": 100.0, "FSPD": 7.64213, "FDIR": 273.85986, "RENV": 210.0, "PENV": 1013.0, "VALIDT": 0, "DTG": "2025-10-06 00:00", "LATNOW": 27.0, "LONNOW": -63.7, "WINDNOW": 40.0, "DIRNOW": 6.0, "SPDNOW": 1.0, "TECH": "TRAK", "ADVNR": 18, "ATCFID": "AL102025", "NAME": "JERRY", "FTECH": "OFCL", "FCST_DTG": "2025-10-11 18:00:00", "RUN_DTG": "2025-10-12 10:23:31", "BASIN": "AL", "STMNR": 10, "CAT_ID": null, "CAT_DESC": null, "MSGID": "WTNT25 KNHC 112032", "VALIDTIME": "2025-10-06 00:00:00" }, "geometry": { "type": "Point", "coordinates": [ -32.799999, 8.8 ] } },
{ "type": "Feature", "properties": { "ID": 60093, "LAT": 8.9, "LON": -34.3, "VMAX": 25.0, "MSLP": 1010.0, "RMAX": 100.0, "FSPD": 11.22569, "FDIR": 275.2588, "RENV": 210.0, "PENV": 1013.0, "VALIDT": 0, "DTG": "2025-10-06 06:00", "LATNOW": 27.0, "LONNOW": -63.7, "WINDNOW": 40.0, "DIRNOW": 6.0, "SPDNOW": 1.0, "TECH": "TRAK", "ADVNR": 18, "ATCFID": "AL102025", "NAME": "JERRY", "FTECH": "OFCL", "FCST_DTG": "2025-10-11 18:00:00", "RUN_DTG": "2025-10-12 10:23:31", "BASIN": "AL", "STMNR": 10, "CAT_ID": null, "CAT_DESC": null, "MSGID": "WTNT25 KNHC 112032", "VALIDTIME": "2025-10-06 06:00:00" }, "geometry": { "type": "Point", "coordinates": [ -34.299999, 8.9 ] } },
{ "type": "Feature", "properties": { "ID": 60094, "LAT": 9.1, "LON": -36.5, "VMAX": 25.0, "MSLP": 1010.0, "RMAX": 100.0, "FSPD": 5.10497, "FDIR": 275.78363, "RENV": 210.0, "PENV": 1013.0, "VALIDT": 0, "DTG": "2025-10-06 12:00", "LATNOW": 27.0, "LONNOW": -63.7, "WINDNOW": 40.0, "DIRNOW": 6.0, "SPDNOW": 1.0, "TECH": "TRAK", "ADVNR": 18, "ATCFID": "AL102025", "NAME": "JERRY", "FTECH": "OFCL", "FCST_DTG": "2025-10-11 18:00:00", "RUN_DTG": "2025-10-12 10:23:31", "BASIN": "AL", "STMNR": 10, "CAT_ID": null, "CAT_DESC": null, "MSGID": "WTNT25 KNHC 112032", "VALIDTIME": "2025-10-06 12:00:00" }, "geometry": { "type": "Point", "coordinates": [ -36.5, 9.1 ] } },
{ "type": "Feature", "properties": { "ID": 60095, "LAT": 9.2, "LON": -37.5, "VMAX": 25.0, "MSLP": 1010.0, "RMAX": 100.0, "FSPD": 10.47181, "FDIR": 313.45404, "RENV": 210.0, "PENV": 1013.0, "VALIDT": 0, "DTG": "2025-10-06 18:00", "LATNOW": 27.0, "LONNOW": -63.7, "WINDNOW": 40.0, "DIRNOW": 6.0, "SPDNOW": 1.0, "TECH": "TRAK", "ADVNR": 18, "ATCFID": "AL102025", "NAME": "JERRY", "FTECH": "OFCL", "FCST_DTG": "2025-10-11 18:00:00", "RUN_DTG": "2025-10-12 10:23:31", "BASIN": "AL", "STMNR": 10, "CAT_ID": null, "CAT_DESC": null, "MSGID": "WTNT25 KNHC 112032", "VALIDTIME": "2025-10-06 18:00:00" }, "geometry": { "type": "Point", "coordinates": [ -37.5, 9.2 ] } },
{ "type": "Feature", "properties": { "ID": 60096, "LAT": 10.6, "LON": -39.0, "VMAX": 30.0, "MSLP": 1009.0, "RMAX": 20.0, "FSPD": 8.65487, "FDIR": 276.82745, "RENV": 130.0, "PENV": 1012.0, "VALIDT": 0, "DTG": "2025-10-07 00:00", "LATNOW": 27.0, "LONNOW": -63.7, "WINDNOW": 40.0, "DIRNOW": 6.0, "SPDNOW": 1.0, "TECH": "TRAK", "ADVNR": 18, "ATCFID": "AL102025", "NAME": "JERRY", "FTECH": "OFCL", "FCST_DTG": "2025-10-11 18:00:00", "RUN_DTG": "2025-10-12 10:23:31", "BASIN": "AL", "STMNR": 10, "CAT_ID": null, "CAT_DESC": null, "MSGID": "WTNT25 KNHC 112032", "VALIDTIME": "2025-10-07 00:00:00" }, "geometry": { "type": "Point", "coordinates": [ -39.0, 10.6 ] } },
{ "type": "Feature", "properties": { "ID": 60097, "LAT": 10.8, "LON": -40.7, "VMAX": 30.0, "MSLP": 1009.0, "RMAX": 20.0, "FSPD": 15.86205, "FDIR": 279.3324, "RENV": 130.0, "PENV": 1012.0, "VALIDT": 0, "DTG": "2025-10-07 06:00", "LATNOW": 27.0, "LONNOW": -63.7, "WINDNOW": 40.0, "DIRNOW": 6.0, "SPDNOW": 1.0, "TECH": "TRAK", "ADVNR": 18, "ATCFID": "AL102025", "NAME": "JERRY", "FTECH": "OFCL", "FCST_DTG": "2025-10-11 18:00:00", "RUN_DTG": "2025-10-12 10:23:31", "BASIN": "AL", "STMNR": 10, "CAT_ID": null, "CAT_DESC": null, "MSGID": "WTNT25 KNHC 112032", "VALIDTIME": "2025-10-07 06:00:00" }, "geometry": { "type": "Point", "coordinates": [ -40.700001, 10.8 ] } },
{ "type": "Feature", "properties": { "ID": 60098, "LAT": 11.3, "LON": -43.8, "VMAX": 40.0, "MSLP": 1006.0, "RMAX": 20.0, "FSPD": 8.46473, "FDIR": 287.6905, "RENV": 130.0, "PENV": 1012.0, "VALIDT": 0, "DTG": "2025-10-07 12:00", "LATNOW": 27.0, "LONNOW": -63.7, "WINDNOW": 40.0, "DIRNOW": 6.0, "SPDNOW": 1.0, "TECH": "TRAK", "ADVNR": 18, "ATCFID": "AL102025", "NAME": "JERRY", "FTECH": "OFCL", "FCST_DTG": "2025-10-11 18:00:00", "RUN_DTG": "2025-10-12 10:23:31", "BASIN": "AL", "STMNR": 10, "CAT_ID": null, "CAT_DESC": null, "MSGID": "WTNT25 KNHC 112032", "VALIDTIME": "2025-10-07 12:00:00" }, "geometry": { "type": "Point", "coordinates": [ -43.799999, 11.3 ] } },
{ "type": "Feature", "properties": { "ID": 60099, "LAT": 11.8, "LON": -45.4, "VMAX": 45.0, "MSLP": 1003.0, "RMAX": 25.0, "FSPD": 12.11477, "FDIR": 287.29248, "RENV": 120.0, "PENV": 1011.0, "VALIDT": 0, "DTG": "2025-10-07 18:00", "LATNOW": 27.0, "LONNOW": -63.7, "WINDNOW": 40.0, "DIRNOW": 6.0, "SPDNOW": 1.0, "TECH": "TRAK", "ADVNR": 18, "ATCFID": "AL102025", "NAME": "JERRY", "FTECH": "OFCL", "FCST_DTG": "2025-10-11 18:00:00", "RUN_DTG": "2025-10-12 10:23:31", "BASIN": "AL", "STMNR": 10, "CAT_ID": null, "CAT_DESC": null, "MSGID": "WTNT25 KNHC 112032", "VALIDTIME": "2025-10-07 18:00:00" }, "geometry": { "type": "Point", "coordinates": [ -45.400002, 11.8 ] } },
{ "type": "Feature", "properties": { "ID": 60100, "LAT": 12.5, "LON": -47.7, "VMAX": 45.0, "MSLP": 1003.0, "RMAX": 25.0, "FSPD": 10.84636, "FDIR": 283.71844, "RENV": 120.0, "PENV": 1011.0, "VALIDT": 0, "DTG": "2025-10-08 00:00", "LATNOW": 27.0, "LONNOW": -63.7, "WINDNOW": 40.0, "DIRNOW": 6.0, "SPDNOW": 1.0, "TECH": "TRAK", "ADVNR": 18, "ATCFID": "AL102025", "NAME": "JERRY", "FTECH": "OFCL", "FCST_DTG": "2025-10-11 18:00:00", "RUN_DTG": "2025-10-12 10:23:31", "BASIN": "AL", "STMNR": 10, "CAT_ID": null, "CAT_DESC": null, "MSGID": "WTNT25 KNHC 112032", "VALIDTIME": "2025-10-08 00:00:00" }, "geometry": { "type": "Point", "coordinates": [ -47.700001, 12.5 ] } },
{ "type": "Feature", "properties": { "ID": 60101, "LAT": 13.0, "LON": -49.8, "VMAX": 45.0, "MSLP": 1003.0, "RMAX": 40.0, "FSPD": 9.1483, "FDIR": 279.71234, "RENV": 120.0, "PENV": 1011.0, "VALIDT": 0, "DTG": "2025-10-08 06:00", "LATNOW": 27.0, "LONNOW": -63.7, "WINDNOW": 40.0, "DIRNOW": 6.0, "SPDNOW": 1.0, "TECH": "TRAK", "ADVNR": 18, "ATCFID": "AL102025", "NAME": "JERRY", "FTECH": "OFCL", "FCST_DTG": "2025-10-11 18:00:00", "RUN_DTG": "2025-10-12 10:23:31", "BASIN": "AL", "STMNR": 10, "CAT_ID": null, "CAT_DESC": null, "MSGID": "WTNT25 KNHC 112032", "VALIDTIME": "2025-10-08 06:00:00" }, "geometry": { "type": "Point", "coordinates": [ -49.799999, 13.0 ] } },
{ "type": "Feature", "properties": { "ID": 60102, "LAT": 13.3, "LON": -51.6, "VMAX": 50.0, "MSLP": 1003.0, "RMAX": 50.0, "FSPD": 12.36022, "FDIR": 297.2472, "RENV": 120.0, "PENV": 1011.0, "VALIDT": 0, "DTG": "2025-10-08 12:00", "LATNOW": 27.0, "LONNOW": -63.7, "WINDNOW": 40.0, "DIRNOW": 6.0, "SPDNOW": 1.0, "TECH": "TRAK", "ADVNR": 18, "ATCFID": "AL102025", "NAME": "JERRY", "FTECH": "OFCL", "FCST_DTG": "2025-10-11 18:00:00", "RUN_DTG": "2025-10-12 10:23:31", "BASIN": "AL", "STMNR": 10, "CAT_ID": null, "CAT_DESC": null, "MSGID": "WTNT25 KNHC 112032", "VALIDTIME": "2025-10-08 12:00:00" }, "geometry": { "type": "Point", "coordinates": [ -51.599998, 13.3 ] } },
{ "type": "Feature", "properties": { "ID": 60103, "LAT": 14.4, "LON": -53.8, "VMAX": 50.0, "MSLP": 1000.0, "RMAX": 50.0, "FSPD": 8.36863, "FDIR": 287.90045, "RENV": 120.0, "PENV": 1009.0, "VALIDT": 0, "DTG": "2025-10-08 18:00", "LATNOW": 27.0, "LONNOW": -63.7, "WINDNOW": 40.0, "DIRNOW": 6.0, "SPDNOW": 1.0, "TECH": "TRAK", "ADVNR": 18, "ATCFID": "AL102025", "NAME": "JERRY", "FTECH": "OFCL", "FCST_DTG": "2025-10-11 18:00:00", "RUN_DTG": "2025-10-12 10:23:31", "BASIN": "AL", "STMNR": 10, "CAT_ID": null, "CAT_DESC": null, "MSGID": "WTNT25 KNHC 112032", "VALIDTIME": "2025-10-08 18:00:00" }, "geometry": { "type": "Point", "coordinates": [ -53.799999, 14.4 ] } },
{ "type": "Feature", "properties": { "ID": 60104, "LAT": 14.9, "LON": -55.4, "VMAX": 55.0, "MSLP": 999.0, "RMAX": 15.0, "FSPD": 8.98633, "FDIR": 290.0893, "RENV": 120.0, "PENV": 1009.0, "VALIDT": 0, "DTG": "2025-10-09 00:00", "LATNOW": 27.0, "LONNOW": -63.7, "WINDNOW": 40.0, "DIRNOW": 6.0, "SPDNOW": 1.0, "TECH": "TRAK", "ADVNR": 18, "ATCFID": "AL102025", "NAME": "JERRY", "FTECH": "OFCL", "FCST_DTG": "2025-10-11 18:00:00", "RUN_DTG": "2025-10-12 10:23:31", "BASIN": "AL", "STMNR": 10, "CAT_ID": null, "CAT_DESC": null, "MSGID": "WTNT25 KNHC 112032", "VALIDTIME": "2025-10-09 00:00:00" }, "geometry": { "type": "Point", "coordinates": [ -55.400002, 14.9 ] } },
{ "type": "Feature", "properties": { "ID": 60105, "LAT": 15.5, "LON": -57.1, "VMAX": 55.0, "MSLP": 999.0, "RMAX": 15.0, "FSPD": 6.95765, "FDIR": 274.2403, "RENV": 120.0, "PENV": 1010.0, "VALIDT": 0, "DTG": "2025-10-09 06:00", "LATNOW": 27.0, "LONNOW": -63.7, "WINDNOW": 40.0, "DIRNOW": 6.0, "SPDNOW": 1.0, "TECH": "TRAK", "ADVNR": 18, "ATCFID": "AL102025", "NAME": "JERRY", "FTECH": "OFCL", "FCST_DTG": "2025-10-11 18:00:00", "RUN_DTG": "2025-10-12 10:23:31", "BASIN": "AL", "STMNR": 10, "CAT_ID": null, "CAT_DESC": null, "MSGID": "WTNT25 KNHC 112032", "VALIDTIME": "2025-10-09 06:00:00" }, "geometry": { "type": "Point", "coordinates": [ -57.099998, 15.5 ] } },
{ "type": "Feature", "properties": { "ID": 60106, "LAT": 15.6, "LON": -58.5, "VMAX": 55.0, "MSLP": 999.0, "RMAX": 20.0, "FSPD": 10.02934, "FDIR": 307.99023, "RENV": 120.0, "PENV": 1011.0, "VALIDT": 0, "DTG": "2025-10-09 12:00", "LATNOW": 27.0, "LONNOW": -63.7, "WINDNOW": 40.0, "DIRNOW": 6.0, "SPDNOW": 1.0, "TECH": "TRAK", "ADVNR": 18, "ATCFID": "AL102025", "NAME": "JERRY", "FTECH": "OFCL", "FCST_DTG": "2025-10-11 18:00:00", "RUN_DTG": "2025-10-12 10:23:31", "BASIN": "AL", "STMNR": 10, "CAT_ID": null, "CAT_DESC": null, "MSGID": "WTNT25 KNHC 112032", "VALIDTIME": "2025-10-09 12:00:00" }, "geometry": { "type": "Point", "coordinates": [ -58.5, 15.6 ] } },
{ "type": "Feature", "properties": { "ID": 60107, "LAT": 16.8, "LON": -60.1, "VMAX": 55.0, "MSLP": 1001.0, "RMAX": 40.0, "FSPD": 6.41007, "FDIR": 309.94458, "RENV": 120.0, "PENV": 1011.0, "VALIDT": 0, "DTG": "2025-10-09 18:00", "LATNOW": 27.0, "LONNOW": -63.7, "WINDNOW": 40.0, "DIRNOW": 6.0, "SPDNOW": 1.0, "TECH": "TRAK", "ADVNR": 18, "ATCFID": "AL102025", "NAME": "JERRY", "FTECH": "OFCL", "FCST_DTG": "2025-10-11 18:00:00", "RUN_DTG": "2025-10-12 10:23:31", "BASIN": "AL", "STMNR": 10, "CAT_ID": null, "CAT_DESC": null, "MSGID": "WTNT25 KNHC 112032", "VALIDTIME": "2025-10-09 18:00:00" }, "geometry": { "type": "Point", "coordinates": [ -60.099998, 16.799999 ] } },
{ "type": "Feature", "properties": { "ID": 60108, "LAT": 17.6, "LON": -61.1, "VMAX": 50.0, "MSLP": 1006.0, "RMAX": 50.0, "FSPD": 7.44296, "FDIR": 313.72382, "RENV": 100.0, "PENV": 1010.0, "VALIDT": 0, "DTG": "2025-10-10 00:00", "LATNOW": 27.0, "LONNOW": -63.7, "WINDNOW": 40.0, "DIRNOW": 6.0, "SPDNOW": 1.0, "TECH": "TRAK", "ADVNR": 18, "ATCFID": "AL102025", "NAME": "JERRY", "FTECH": "OFCL", "FCST_DTG": "2025-10-11 18:00:00", "RUN_DTG": "2025-10-12 10:23:31", "BASIN": "AL", "STMNR": 10, "CAT_ID": null, "CAT_DESC": null, "MSGID": "WTNT25 KNHC 112032", "VALIDTIME": "2025-10-10 00:00:00" }, "geometry": { "type": "Point", "coordinates": [ -61.099998, 17.6 ] } },
{ "type": "Feature", "properties": { "ID": 60109, "LAT": 18.6, "LON": -62.2, "VMAX": 45.0, "MSLP": 1007.0, "RMAX": 50.0, "FSPD": 7.7846, "FDIR": 316.63, "RENV": 100.0, "PENV": 1010.0, "VALIDT": 0, "DTG": "2025-10-10 06:00", "LATNOW": 27.0, "LONNOW": -63.7, "WINDNOW": 40.0, "DIRNOW": 6.0, "SPDNOW": 1.0, "TECH": "TRAK", "ADVNR": 18, "ATCFID": "AL102025", "NAME": "JERRY", "FTECH": "OFCL", "FCST_DTG": "2025-10-11 18:00:00", "RUN_DTG": "2025-10-12 10:23:31", "BASIN": "AL", "STMNR": 10, "CAT_ID": null, "CAT_DESC": null, "MSGID": "WTNT25 KNHC 112032", "VALIDTIME": "2025-10-10 06:00:00" }, "geometry": { "type": "Point", "coordinates": [ -62.200001, 18.6 ] } },
{ "type": "Feature", "properties": { "ID": 60110, "LAT": 19.7, "LON": -63.3, "VMAX": 45.0, "MSLP": 1006.0, "RMAX": 90.0, "FSPD": 6.24829, "FDIR": 351.11566, "RENV": 120.0, "PENV": 1011.0, "VALIDT": 0, "DTG": "2025-10-10 12:00", "LATNOW": 27.0, "LONNOW": -63.7, "WINDNOW": 40.0, "DIRNOW": 6.0, "SPDNOW": 1.0, "TECH": "TRAK", "ADVNR": 18, "ATCFID": "AL102025", "NAME": "JERRY", "FTECH": "OFCL", "FCST_DTG": "2025-10-11 18:00:00", "RUN_DTG": "2025-10-12 10:23:31", "BASIN": "AL", "STMNR": 10, "CAT_ID": null, "CAT_DESC": null, "MSGID": "WTNT25 KNHC 112032", "VALIDTIME": "2025-10-10 12:00:00" }, "geometry": { "type": "Point", "coordinates": [ -63.299999, 19.700001 ] } },
{ "type": "Feature", "properties": { "ID": 60111, "LAT": 20.9, "LON": -63.5, "VMAX": 45.0, "MSLP": 1006.0, "RMAX": 80.0, "FSPD": 6.24712, "FDIR": 351.18533, "RENV": 120.0, "PENV": 1010.0, "VALIDT": 0, "DTG": "2025-10-10 18:00", "LATNOW": 27.0, "LONNOW": -63.7, "WINDNOW": 40.0, "DIRNOW": 6.0, "SPDNOW": 1.0, "TECH": "TRAK", "ADVNR": 18, "ATCFID": "AL102025", "NAME": "JERRY", "FTECH": "OFCL", "FCST_DTG": "2025-10-11 18:00:00", "RUN_DTG": "2025-10-12 10:23:31", "BASIN": "AL", "STMNR": 10, "CAT_ID": null, "CAT_DESC": null, "MSGID": "WTNT25 KNHC 112032", "VALIDTIME": "2025-10-10 18:00:00" }, "geometry": { "type": "Point", "coordinates": [ -63.5, 20.9 ] } },
{ "type": "Feature", "properties": { "ID": 60112, "LAT": 22.1, "LON": -63.7, "VMAX": 50.0, "MSLP": 1004.0, "RMAX": 100.0, "FSPD": 7.20222, "FDIR": 360.0, "RENV": 120.0, "PENV": 1010.0, "VALIDT": 0, "DTG": "2025-10-11 00:00", "LATNOW": 27.0, "LONNOW": -63.7, "WINDNOW": 40.0, "DIRNOW": 6.0, "SPDNOW": 1.0, "TECH": "TRAK", "ADVNR": 18, "ATCFID": "AL102025", "NAME": "JERRY", "FTECH": "OFCL", "FCST_DTG": "2025-10-11 18:00:00", "RUN_DTG": "2025-10-12 10:23:31", "BASIN": "AL", "STMNR": 10, "CAT_ID": null, "CAT_DESC": null, "MSGID": "WTNT25 KNHC 112032", "VALIDTIME": "2025-10-11 00:00:00" }, "geometry": { "type": "Point", "coordinates": [ -63.700001, 22.1 ] } },
{ "type": "Feature", "properties": { "ID": 60113, "LAT": 23.5, "LON": -63.7, "VMAX": 50.0, "MSLP": 1004.0, "RMAX": 90.0, "FSPD": 8.44207, "FDIR": 12.83578, "RENV": 120.0, "PENV": 1010.0, "VALIDT": 0, "DTG": "2025-10-11 06:00", "LATNOW": 27.0, "LONNOW": -63.7, "WINDNOW": 40.0, "DIRNOW": 6.0, "SPDNOW": 1.0, "TECH": "TRAK", "ADVNR": 18, "ATCFID": "AL102025", "NAME": "JERRY", "FTECH": "OFCL", "FCST_DTG": "2025-10-11 18:00:00", "RUN_DTG": "2025-10-12 10:23:31", "BASIN": "AL", "STMNR": 10, "CAT_ID": null, "CAT_DESC": null, "MSGID": "WTNT25 KNHC 112032", "VALIDTIME": "2025-10-11 06:00:00" }, "geometry": { "type": "Point", "coordinates": [ -63.700001, 23.5 ] } },
{ "type": "Feature", "properties": { "ID": 60114, "LAT": 25.1, "LON": -63.3, "VMAX": 45.0, "MSLP": 1005.0, "RMAX": 90.0, "FSPD": 9.94774, "FDIR": 349.28958, "RENV": 120.0, "PENV": 1009.0, "VALIDT": 0, "DTG": "2025-10-11 12:00", "LATNOW": 27.0, "LONNOW": -63.7, "WINDNOW": 40.0, "DIRNOW": 6.0, "SPDNOW": 1.0, "TECH": "TRAK", "ADVNR": 18, "ATCFID": "AL102025", "NAME": "JERRY", "FTECH": "OFCL", "FCST_DTG": "2025-10-11 18:00:00", "RUN_DTG": "2025-10-12 10:23:31", "BASIN": "AL", "STMNR": 10, "CAT_ID": null, "CAT_DESC": null, "MSGID": "WTNT25 KNHC 112032", "VALIDTIME": "2025-10-11 12:00:00" }, "geometry": { "type": "Point", "coordinates": [ -63.299999, 25.1 ] } },
{ "type": "Feature", "properties": { "ID": 60115, "LAT": 27.0, "LON": -63.7, "VMAX": 40.0, "MSLP": 1006.0, "RMAX": 90.0, "FSPD": 6.24068, "FDIR": 8.42462, "RENV": 120.0, "PENV": 1008.0, "VALIDT": 0, "DTG": "2025-10-11 18:00", "LATNOW": 27.0, "LONNOW": -63.7, "WINDNOW": 40.0, "DIRNOW": 6.0, "SPDNOW": 1.0, "TECH": "TRAK", "ADVNR": 18, "ATCFID": "AL102025", "NAME": "JERRY", "FTECH": "OFCL", "FCST_DTG": "2025-10-11 18:00:00", "RUN_DTG": "2025-10-12 10:23:31", "BASIN": "AL", "STMNR": 10, "CAT_ID": null, "CAT_DESC": null, "MSGID": "WTNT25 KNHC 112032", "VALIDTIME": "2025-10-11 18:00:00" }, "geometry": { "type": "Point", "coordinates": [ -63.700001, 27.0 ] } },
{ "type": "Feature", "properties": { "ID": 60116, "LAT": 27.6, "LON": -63.6, "VMAX": 40.0, "MSLP": 1005.0, "RMAX": 92.08763, "FSPD": 6.24068, "FDIR": 8.42462, "RENV": 180.0, "PENV": 1012.0, "VALIDT": 3, "DTG": "2025-10-11 21:00", "LATNOW": 27.0, "LONNOW": -63.7, "WINDNOW": 40.0, "DIRNOW": 6.0, "SPDNOW": 1.0, "TECH": "FCST", "ADVNR": 18, "ATCFID": "AL102025", "NAME": "JERRY", "FTECH": "OFCL", "FCST_DTG": "2025-10-11 18:00:00", "RUN_DTG": "2025-10-12 10:23:31", "BASIN": "AL", "STMNR": 10, "CAT_ID": null, "CAT_DESC": null, "MSGID": "WTNT25 KNHC 112032", "VALIDTIME": "2025-10-11 21:00:00" }, "geometry": { "type": "Point", "coordinates": [ -63.599998, 27.6 ] } },
{ "type": "Feature", "properties": { "ID": 60115, "LAT": 27.0, "LON": -63.7, "VMAX": 40.0, "MSLP": 1006.0, "RMAX": 90.0, "FSPD": 6.24068, "FDIR": 8.42462, "RENV": 120.0, "PENV": 1008.0, "VALIDT": 0, "DTG": "2025-10-11 18:00", "LATNOW": 27.0, "LONNOW": -63.7, "WINDNOW": 40.0, "DIRNOW": 6.0, "SPDNOW": 1.0, "TECH": "TRAK", "ADVNR": 18, "ATCFID": "AL102025", "NAME": "JERRY", "FTECH": "OFCL", "FCST_DTG": "2025-10-11 18:00:00", "RUN_DTG": "2025-10-12 10:23:31", "BASIN": "AL", "STMNR": 10, "CAT_ID": null, "CAT_DESC": null, "MSGID": "WTNT25 KNHC 112032", "VALIDTIME": "2025-10-11 18:00:00" }, "geometry": { "type": "LineString", "coordinates": [ [ -25.9, 8.0 ], [ -27.4, 8.1 ], [ -29.7, 8.4 ], [ -32.8, 8.8 ], [ -34.3, 8.9 ], [ -36.5, 9.1 ], [ -37.5, 9.2 ], [ -39.0, 10.6 ], [ -40.7, 10.8 ], [ -43.8, 11.3 ], [ -45.4, 11.8 ], [ -47.7, 12.5 ], [ -49.8, 13.0 ], [ -51.6, 13.3 ], [ -53.8, 14.4 ], [ -55.4, 14.9 ], [ -57.1, 15.5 ], [ -58.5, 15.6 ], [ -60.1, 16.8 ], [ -61.1, 17.6 ], [ -62.2, 18.6 ], [ -63.3, 19.7 ], [ -63.5, 20.9 ], [ -63.7, 22.1 ], [ -63.7, 23.5 ], [ -63.3, 25.1 ], [ -63.7, 27.0 ] ] } },
{ "type": "Feature", "properties": { "ID": 60116, "LAT": 27.6, "LON": -63.6, "VMAX": 40.0, "MSLP": 1005.0, "RMAX": 92.08763, "FSPD": 6.24068, "FDIR": 8.42462, "RENV": 180.0, "PENV": 1012.0, "VALIDT": 3, "DTG": "2025-10-11 21:00", "LATNOW": 27.0, "LONNOW": -63.7, "WINDNOW": 40.0, "DIRNOW": 6.0, "SPDNOW": 1.0, "TECH": "FCST", "ADVNR": 18, "ATCFID": "AL102025", "NAME": "JERRY", "FTECH": "OFCL", "FCST_DTG": "2025-10-11 18:00:00", "RUN_DTG": "2025-10-12 10:23:31", "BASIN": "AL", "STMNR": 10, "CAT_ID": null, "CAT_DESC": null, "MSGID": "WTNT25 KNHC 112032", "VALIDTIME": "2025-10-11 21:00:00" }, "geometry": { "type": "LineString", "coordinates": [ [ -63.7, 27.0 ], [ -63.6, 27.6 ] ] } }
]
}
