{
"type": "FeatureCollection",
"crs": { "type": "name", "properties": { "name": "urn:ogc:def:crs:OGC:1.3:CRS84" } },
"features": [
{ "type": "Feature", "properties": { "ID": 247706, "LAT": 24.2, "LON": 71.5, "VMAX": 25.0, "MSLP": 1011.80975, "RMAX": 45.0, "FSPD": 0.0, "FDIR": 90.0, "RENV": 500.0, "PENV": 1012.0, "VALIDT": 0, "DTG": "2024-08-27 00:00", "LATNOW": 22.1, "LONNOW": 61.8, "WINDNOW": 35.0, "DIRNOW": 3.0, "SPDNOW": 4.0, "TECH": "TRAK", "ADVNR": 11, "ATCFID": "IO022024", "NAME": "ASNA", "FTECH": "JTWC", "FCST_DTG": "2024-09-01 12:00:00", "RUN_DTG": "2024-09-02 02:42:44", "BASIN": "IO", "STMNR": 2, "CAT_ID": null, "CAT_DESC": null, "MSGID": "WTIO51 PGTW 011500", "VALIDTIME": "2024-08-27 00:00:00" }, "geometry": { "type": "Point", "coordinates": [ 71.5, 24.200001 ] } },
{ "type": "Feature", "properties": { "ID": 247707, "LAT": 24.2, "LON": 71.5, "VMAX": 25.0, "MSLP": 1011.80975, "RMAX": 45.0, "FSPD": 2.40101, "FDIR": 282.372, "RENV": 500.0, "PENV": 1012.0, "VALIDT": 0, "DTG": "2024-08-27 00:00", "LATNOW": 22.1, "LONNOW": 61.8, "WINDNOW": 35.0, "DIRNOW": 3.0, "SPDNOW": 4.0, "TECH": "TRAK", "ADVNR": 11, "ATCFID": "IO022024", "NAME": "ASNA", "FTECH": "JTWC", "FCST_DTG": "2024-09-01 12:00:00", "RUN_DTG": "2024-09-02 02:42:44", "BASIN": "IO", "STMNR": 2, "CAT_ID": null, "CAT_DESC": null, "MSGID": "WTIO51 PGTW 011500", "VALIDTIME": "2024-08-27 00:00:00" }, "geometry": { "type": "Point", "coordinates": [ 71.5, 24.200001 ] } },
{ "type": "Feature", "properties": { "ID": 247708, "LAT": 24.3, "LON": 71.0, "VMAX": 25.0, "MSLP": 1011.80975, "RMAX": 45.0, "FSPD": 2.34433, "FDIR": 269.99997, "RENV": 500.0, "PENV": 1012.0, "VALIDT": 0, "DTG": "2024-08-27 06:00", "LATNOW": 22.1, "LONNOW": 61.8, "WINDNOW": 35.0, "DIRNOW": 3.0, "SPDNOW": 4.0, "TECH": "TRAK", "ADVNR": 11, "ATCFID": "IO022024", "NAME": "ASNA", "FTECH": "JTWC", "FCST_DTG": "2024-09-01 12:00:00", "RUN_DTG": "2024-09-02 02:42:44", "BASIN": "IO", "STMNR": 2, "CAT_ID": null, "CAT_DESC": null, "MSGID": "WTIO51 PGTW 011500", "VALIDTIME": "2024-08-27 06:00:00" }, "geometry": { "type": "Point", "coordinates": [ 71.0, 24.299999 ] } },
{ "type": "Feature", "properties": { "ID": 247709, "LAT": 24.3, "LON": 70.5, "VMAX": 30.0, "MSLP": 1010.40607, "RMAX": 44.21983, "FSPD": 2.39921, "FDIR": 282.38165, "RENV": 500.0, "PENV": 1012.0, "VALIDT": 0, "DTG": "2024-08-27 12:00", "LATNOW": 22.1, "LONNOW": 61.8, "WINDNOW": 35.0, "DIRNOW": 3.0, "SPDNOW": 4.0, "TECH": "TRAK", "ADVNR": 11, "ATCFID": "IO022024", "NAME": "ASNA", "FTECH": "JTWC", "FCST_DTG": "2024-09-01 12:00:00", "RUN_DTG": "2024-09-02 02:42:44", "BASIN": "IO", "STMNR": 2, "CAT_ID": null, "CAT_DESC": null, "MSGID": "WTIO51 PGTW 011500", "VALIDTIME": "2024-08-27 12:00:00" }, "geometry": { "type": "Point", "coordinates": [ 70.5, 24.299999 ] } },
{ "type": "Feature", "properties": { "ID": 247710, "LAT": 24.4, "LON": 70.0, "VMAX": 30.0, "MSLP": 1010.40607, "RMAX": 44.21983, "FSPD": 1.06924, "FDIR": 241.2406, "RENV": 500.0, "PENV": 1012.0, "VALIDT": 0, "DTG": "2024-08-27 18:00", "LATNOW": 22.1, "LONNOW": 61.8, "WINDNOW": 35.0, "DIRNOW": 3.0, "SPDNOW": 4.0, "TECH": "TRAK", "ADVNR": 11, "ATCFID": "IO022024", "NAME": "ASNA", "FTECH": "JTWC", "FCST_DTG": "2024-09-01 12:00:00", "RUN_DTG": "2024-09-02 02:42:44", "BASIN": "IO", "STMNR": 2, "CAT_ID": null, "CAT_DESC": null, "MSGID": "WTIO51 PGTW 011500", "VALIDTIME": "2024-08-27 18:00:00" }, "geometry": { "type": "Point", "coordinates": [ 70.0, 24.4 ] } },
{ "type": "Feature", "properties": { "ID": 247711, "LAT": 24.3, "LON": 69.8, "VMAX": 30.0, "MSLP": 1010.40607, "RMAX": 44.21983, "FSPD": 1.13083, "FDIR": 155.48434, "RENV": 500.0, "PENV": 1012.0, "VALIDT": 0, "DTG": "2024-08-28 00:00", "LATNOW": 22.1, "LONNOW": 61.8, "WINDNOW": 35.0, "DIRNOW": 3.0, "SPDNOW": 4.0, "TECH": "TRAK", "ADVNR": 11, "ATCFID": "IO022024", "NAME": "ASNA", "FTECH": "JTWC", "FCST_DTG": "2024-09-01 12:00:00", "RUN_DTG": "2024-09-02 02:42:44", "BASIN": "IO", "STMNR": 2, "CAT_ID": null, "CAT_DESC": null, "MSGID": "WTIO51 PGTW 011500", "VALIDTIME": "2024-08-28 00:00:00" }, "geometry": { "type": "Point", "coordinates": [ 69.800003, 24.299999 ] } },
{ "type": "Feature", "properties": { "ID": 247712, "LAT": 24.1, "LON": 69.9, "VMAX": 30.0, "MSLP": 1010.40607, "RMAX": 44.21983, "FSPD": 1.02889, "FDIR": 179.99997, "RENV": 500.0, "PENV": 1012.0, "VALIDT": 0, "DTG": "2024-08-28 06:00", "LATNOW": 22.1, "LONNOW": 61.8, "WINDNOW": 35.0, "DIRNOW": 3.0, "SPDNOW": 4.0, "TECH": "TRAK", "ADVNR": 11, "ATCFID": "IO022024", "NAME": "ASNA", "FTECH": "JTWC", "FCST_DTG": "2024-09-01 12:00:00", "RUN_DTG": "2024-09-02 02:42:44", "BASIN": "IO", "STMNR": 2, "CAT_ID": null, "CAT_DESC": null, "MSGID": "WTIO51 PGTW 011500", "VALIDTIME": "2024-08-28 06:00:00" }, "geometry": { "type": "Point", "coordinates": [ 69.900002, 24.1 ] } },
{ "type": "Feature", "properties": { "ID": 247713, "LAT": 23.9, "LON": 69.9, "VMAX": 30.0, "MSLP": 1010.40607, "RMAX": 44.21983, "FSPD": 2.40816, "FDIR": 257.66504, "RENV": 500.0, "PENV": 1012.0, "VALIDT": 0, "DTG": "2024-08-28 12:00", "LATNOW": 22.1, "LONNOW": 61.8, "WINDNOW": 35.0, "DIRNOW": 3.0, "SPDNOW": 4.0, "TECH": "TRAK", "ADVNR": 11, "ATCFID": "IO022024", "NAME": "ASNA", "FTECH": "JTWC", "FCST_DTG": "2024-09-01 12:00:00", "RUN_DTG": "2024-09-02 02:42:44", "BASIN": "IO", "STMNR": 2, "CAT_ID": null, "CAT_DESC": null, "MSGID": "WTIO51 PGTW 011500", "VALIDTIME": "2024-08-28 12:00:00" }, "geometry": { "type": "Point", "coordinates": [ 69.900002, 23.9 ] } },
{ "type": "Feature", "properties": { "ID": 247714, "LAT": 23.8, "LON": 69.4, "VMAX": 30.0, "MSLP": 1010.40607, "RMAX": 44.21983, "FSPD": 0.6974, "FDIR": 137.53174, "RENV": 500.0, "PENV": 1012.0, "VALIDT": 0, "DTG": "2024-08-28 18:00", "LATNOW": 22.1, "LONNOW": 61.8, "WINDNOW": 35.0, "DIRNOW": 3.0, "SPDNOW": 4.0, "TECH": "TRAK", "ADVNR": 11, "ATCFID": "IO022024", "NAME": "ASNA", "FTECH": "JTWC", "FCST_DTG": "2024-09-01 12:00:00", "RUN_DTG": "2024-09-02 02:42:44", "BASIN": "IO", "STMNR": 2, "CAT_ID": null, "CAT_DESC": null, "MSGID": "WTIO51 PGTW 011500", "VALIDTIME": "2024-08-28 18:00:00" }, "geometry": { "type": "Point", "coordinates": [ 69.400002, 23.799999 ] } },
{ "type": "Feature", "properties": { "ID": 247715, "LAT": 23.7, "LON": 69.5, "VMAX": 30.0, "MSLP": 1010.40607, "RMAX": 44.21983, "FSPD": 1.50442, "FDIR": 250.00386, "RENV": 500.0, "PENV": 1012.0, "VALIDT": 0, "DTG": "2024-08-29 00:00", "LATNOW": 22.1, "LONNOW": 61.8, "WINDNOW": 35.0, "DIRNOW": 3.0, "SPDNOW": 4.0, "TECH": "TRAK", "ADVNR": 11, "ATCFID": "IO022024", "NAME": "ASNA", "FTECH": "JTWC", "FCST_DTG": "2024-09-01 12:00:00", "RUN_DTG": "2024-09-02 02:42:44", "BASIN": "IO", "STMNR": 2, "CAT_ID": null, "CAT_DESC": null, "MSGID": "WTIO51 PGTW 011500", "VALIDTIME": "2024-08-29 00:00:00" }, "geometry": { "type": "Point", "coordinates": [ 69.5, 23.700001 ] } },
{ "type": "Feature", "properties": { "ID": 247716, "LAT": 23.6, "LON": 69.2, "VMAX": 30.0, "MSLP": 1010.40607, "RMAX": 44.21983, "FSPD": 1.74803, "FDIR": 306.0575, "RENV": 500.0, "PENV": 1012.0, "VALIDT": 0, "DTG": "2024-08-29 06:00", "LATNOW": 22.1, "LONNOW": 61.8, "WINDNOW": 35.0, "DIRNOW": 3.0, "SPDNOW": 4.0, "TECH": "TRAK", "ADVNR": 11, "ATCFID": "IO022024", "NAME": "ASNA", "FTECH": "JTWC", "FCST_DTG": "2024-09-01 12:00:00", "RUN_DTG": "2024-09-02 02:42:44", "BASIN": "IO", "STMNR": 2, "CAT_ID": null, "CAT_DESC": null, "MSGID": "WTIO51 PGTW 011500", "VALIDTIME": "2024-08-29 06:00:00" }, "geometry": { "type": "Point", "coordinates": [ 69.199997, 23.6 ] } },
{ "type": "Feature", "properties": { "ID": 247717, "LAT": 23.8, "LON": 68.9, "VMAX": 35.0, "MSLP": 1008.74713, "RMAX": 42.69135, "FSPD": 2.14431, "FDIR": 298.67395, "RENV": 500.0, "PENV": 1012.0, "VALIDT": 0, "DTG": "2024-08-29 12:00", "LATNOW": 22.1, "LONNOW": 61.8, "WINDNOW": 35.0, "DIRNOW": 3.0, "SPDNOW": 4.0, "TECH": "TRAK", "ADVNR": 11, "ATCFID": "IO022024", "NAME": "ASNA", "FTECH": "JTWC", "FCST_DTG": "2024-09-01 12:00:00", "RUN_DTG": "2024-09-02 02:42:44", "BASIN": "IO", "STMNR": 2, "CAT_ID": null, "CAT_DESC": null, "MSGID": "WTIO51 PGTW 011500", "VALIDTIME": "2024-08-29 12:00:00" }, "geometry": { "type": "Point", "coordinates": [ 68.900002, 23.799999 ] } },
{ "type": "Feature", "properties": { "ID": 247718, "LAT": 24.0, "LON": 68.5, "VMAX": 35.0, "MSLP": 1008.74713, "RMAX": 42.69135, "FSPD": 3.22724, "FDIR": 196.97299, "RENV": 500.0, "PENV": 1012.0, "VALIDT": 0, "DTG": "2024-08-29 18:00", "LATNOW": 22.1, "LONNOW": 61.8, "WINDNOW": 35.0, "DIRNOW": 3.0, "SPDNOW": 4.0, "TECH": "TRAK", "ADVNR": 11, "ATCFID": "IO022024", "NAME": "ASNA", "FTECH": "JTWC", "FCST_DTG": "2024-09-01 12:00:00", "RUN_DTG": "2024-09-02 02:42:44", "BASIN": "IO", "STMNR": 2, "CAT_ID": null, "CAT_DESC": null, "MSGID": "WTIO51 PGTW 011500", "VALIDTIME": "2024-08-29 18:00:00" }, "geometry": { "type": "Point", "coordinates": [ 68.5, 24.0 ] } },
{ "type": "Feature", "properties": { "ID": 247719, "LAT": 23.4, "LON": 68.3, "VMAX": 35.0, "MSLP": 990.0, "RMAX": 50.0, "FSPD": 3.30496, "FDIR": 269.99997, "RENV": 130.0, "PENV": 998.0, "VALIDT": 0, "DTG": "2024-08-30 00:00", "LATNOW": 22.1, "LONNOW": 61.8, "WINDNOW": 35.0, "DIRNOW": 3.0, "SPDNOW": 4.0, "TECH": "TRAK", "ADVNR": 11, "ATCFID": "IO022024", "NAME": "ASNA", "FTECH": "JTWC", "FCST_DTG": "2024-09-01 12:00:00", "RUN_DTG": "2024-09-02 02:42:44", "BASIN": "IO", "STMNR": 2, "CAT_ID": null, "CAT_DESC": null, "MSGID": "WTIO51 PGTW 011500", "VALIDTIME": "2024-08-30 00:00:00" }, "geometry": { "type": "Point", "coordinates": [ 68.300003, 23.4 ] } },
{ "type": "Feature", "properties": { "ID": 247720, "LAT": 23.4, "LON": 67.6, "VMAX": 35.0, "MSLP": 990.0, "RMAX": 50.0, "FSPD": 4.56381, "FDIR": 304.30603, "RENV": 130.0, "PENV": 998.0, "VALIDT": 0, "DTG": "2024-08-30 06:00", "LATNOW": 22.1, "LONNOW": 61.8, "WINDNOW": 35.0, "DIRNOW": 3.0, "SPDNOW": 4.0, "TECH": "TRAK", "ADVNR": 11, "ATCFID": "IO022024", "NAME": "ASNA", "FTECH": "JTWC", "FCST_DTG": "2024-09-01 12:00:00", "RUN_DTG": "2024-09-02 02:42:44", "BASIN": "IO", "STMNR": 2, "CAT_ID": null, "CAT_DESC": null, "MSGID": "WTIO51 PGTW 011500", "VALIDTIME": "2024-08-30 06:00:00" }, "geometry": { "type": "Point", "coordinates": [ 67.599998, 23.4 ] } },
{ "type": "Feature", "properties": { "ID": 247721, "LAT": 23.9, "LON": 66.8, "VMAX": 35.0, "MSLP": 990.0, "RMAX": 50.0, "FSPD": 3.18895, "FDIR": 216.2344, "RENV": 130.0, "PENV": 998.0, "VALIDT": 0, "DTG": "2024-08-30 12:00", "LATNOW": 22.1, "LONNOW": 61.8, "WINDNOW": 35.0, "DIRNOW": 3.0, "SPDNOW": 4.0, "TECH": "TRAK", "ADVNR": 11, "ATCFID": "IO022024", "NAME": "ASNA", "FTECH": "JTWC", "FCST_DTG": "2024-09-01 12:00:00", "RUN_DTG": "2024-09-02 02:42:44", "BASIN": "IO", "STMNR": 2, "CAT_ID": null, "CAT_DESC": null, "MSGID": "WTIO51 PGTW 011500", "VALIDTIME": "2024-08-30 12:00:00" }, "geometry": { "type": "Point", "coordinates": [ 66.800003, 23.9 ] } },
{ "type": "Feature", "properties": { "ID": 247722, "LAT": 23.4, "LON": 66.4, "VMAX": 40.0, "MSLP": 990.0, "RMAX": 50.0, "FSPD": 3.45902, "FDIR": 287.3046, "RENV": 110.0, "PENV": 998.0, "VALIDT": 0, "DTG": "2024-08-30 18:00", "LATNOW": 22.1, "LONNOW": 61.8, "WINDNOW": 35.0, "DIRNOW": 3.0, "SPDNOW": 4.0, "TECH": "TRAK", "ADVNR": 11, "ATCFID": "IO022024", "NAME": "ASNA", "FTECH": "JTWC", "FCST_DTG": "2024-09-01 12:00:00", "RUN_DTG": "2024-09-02 02:42:44", "BASIN": "IO", "STMNR": 2, "CAT_ID": null, "CAT_DESC": null, "MSGID": "WTIO51 PGTW 011500", "VALIDTIME": "2024-08-30 18:00:00" }, "geometry": { "type": "Point", "coordinates": [ 66.400002, 23.4 ] } },
{ "type": "Feature", "properties": { "ID": 247723, "LAT": 23.6, "LON": 65.7, "VMAX": 40.0, "MSLP": 989.0, "RMAX": 30.0, "FSPD": 4.07887, "FDIR": 247.76697, "RENV": 110.0, "PENV": 1001.0, "VALIDT": 0, "DTG": "2024-08-31 00:00", "LATNOW": 22.1, "LONNOW": 61.8, "WINDNOW": 35.0, "DIRNOW": 3.0, "SPDNOW": 4.0, "TECH": "TRAK", "ADVNR": 11, "ATCFID": "IO022024", "NAME": "ASNA", "FTECH": "JTWC", "FCST_DTG": "2024-09-01 12:00:00", "RUN_DTG": "2024-09-02 02:42:44", "BASIN": "IO", "STMNR": 2, "CAT_ID": null, "CAT_DESC": null, "MSGID": "WTIO51 PGTW 011500", "VALIDTIME": "2024-08-31 00:00:00" }, "geometry": { "type": "Point", "coordinates": [ 65.699997, 23.6 ] } },
{ "type": "Feature", "properties": { "ID": 247724, "LAT": 23.3, "LON": 64.9, "VMAX": 40.0, "MSLP": 988.0, "RMAX": 30.0, "FSPD": 3.77993, "FDIR": 269.99997, "RENV": 120.0, "PENV": 1000.0, "VALIDT": 0, "DTG": "2024-08-31 06:00", "LATNOW": 22.1, "LONNOW": 61.8, "WINDNOW": 35.0, "DIRNOW": 3.0, "SPDNOW": 4.0, "TECH": "TRAK", "ADVNR": 11, "ATCFID": "IO022024", "NAME": "ASNA", "FTECH": "JTWC", "FCST_DTG": "2024-09-01 12:00:00", "RUN_DTG": "2024-09-02 02:42:44", "BASIN": "IO", "STMNR": 2, "CAT_ID": null, "CAT_DESC": null, "MSGID": "WTIO51 PGTW 011500", "VALIDTIME": "2024-08-31 06:00:00" }, "geometry": { "type": "Point", "coordinates": [ 64.900002, 23.299999 ] } },
{ "type": "Feature", "properties": { "ID": 247725, "LAT": 23.3, "LON": 64.1, "VMAX": 45.0, "MSLP": 990.0, "RMAX": 35.0, "FSPD": 4.2524, "FDIR": 269.99997, "RENV": 120.0, "PENV": 1002.0, "VALIDT": 0, "DTG": "2024-08-31 12:00", "LATNOW": 22.1, "LONNOW": 61.8, "WINDNOW": 35.0, "DIRNOW": 3.0, "SPDNOW": 4.0, "TECH": "TRAK", "ADVNR": 11, "ATCFID": "IO022024", "NAME": "ASNA", "FTECH": "JTWC", "FCST_DTG": "2024-09-01 12:00:00", "RUN_DTG": "2024-09-02 02:42:44", "BASIN": "IO", "STMNR": 2, "CAT_ID": null, "CAT_DESC": null, "MSGID": "WTIO51 PGTW 011500", "VALIDTIME": "2024-08-31 12:00:00" }, "geometry": { "type": "Point", "coordinates": [ 64.099998, 23.299999 ] } },
{ "type": "Feature", "properties": { "ID": 247726, "LAT": 23.3, "LON": 63.2, "VMAX": 45.0, "MSLP": 989.0, "RMAX": 35.0, "FSPD": 3.50649, "FDIR": 234.06631, "RENV": 120.0, "PENV": 1002.0, "VALIDT": 0, "DTG": "2024-08-31 18:00", "LATNOW": 22.1, "LONNOW": 61.8, "WINDNOW": 35.0, "DIRNOW": 3.0, "SPDNOW": 4.0, "TECH": "TRAK", "ADVNR": 11, "ATCFID": "IO022024", "NAME": "ASNA", "FTECH": "JTWC", "FCST_DTG": "2024-09-01 12:00:00", "RUN_DTG": "2024-09-02 02:42:44", "BASIN": "IO", "STMNR": 2, "CAT_ID": null, "CAT_DESC": null, "MSGID": "WTIO51 PGTW 011500", "VALIDTIME": "2024-08-31 18:00:00" }, "geometry": { "type": "Point", "coordinates": [ 63.200001, 23.299999 ] } },
{ "type": "Feature", "properties": { "ID": 247727, "LAT": 22.9, "LON": 62.6, "VMAX": 40.0, "MSLP": 989.0, "RMAX": 35.0, "FSPD": 3.66203, "FDIR": 245.07437, "RENV": 125.0, "PENV": 1003.0, "VALIDT": 0, "DTG": "2024-09-01 00:00", "LATNOW": 22.1, "LONNOW": 61.8, "WINDNOW": 35.0, "DIRNOW": 3.0, "SPDNOW": 4.0, "TECH": "TRAK", "ADVNR": 11, "ATCFID": "IO022024", "NAME": "ASNA", "FTECH": "JTWC", "FCST_DTG": "2024-09-01 12:00:00", "RUN_DTG": "2024-09-02 02:42:44", "BASIN": "IO", "STMNR": 2, "CAT_ID": null, "CAT_DESC": null, "MSGID": "WTIO51 PGTW 011500", "VALIDTIME": "2024-09-01 00:00:00" }, "geometry": { "type": "Point", "coordinates": [ 62.599998, 22.9 ] } },
{ "type": "Feature", "properties": { "ID": 247728, "LAT": 22.6, "LON": 61.9, "VMAX": 35.0, "MSLP": 990.0, "RMAX": 35.0, "FSPD": 2.61586, "FDIR": 190.48004, "RENV": 140.0, "PENV": 1002.0, "VALIDT": 0, "DTG": "2024-09-01 06:00", "LATNOW": 22.1, "LONNOW": 61.8, "WINDNOW": 35.0, "DIRNOW": 3.0, "SPDNOW": 4.0, "TECH": "TRAK", "ADVNR": 11, "ATCFID": "IO022024", "NAME": "ASNA", "FTECH": "JTWC", "FCST_DTG": "2024-09-01 12:00:00", "RUN_DTG": "2024-09-02 02:42:44", "BASIN": "IO", "STMNR": 2, "CAT_ID": null, "CAT_DESC": null, "MSGID": "WTIO51 PGTW 011500", "VALIDTIME": "2024-09-01 06:00:00" }, "geometry": { "type": "Point", "coordinates": [ 61.900002, 22.6 ] } },
{ "type": "Feature", "properties": { "ID": 247729, "LAT": 22.1, "LON": 61.8, "VMAX": 35.0, "MSLP": 1008.74713, "RMAX": 42.69135, "FSPD": 2.50474, "FDIR": 202.44493, "RENV": 500.0, "PENV": 1012.0, "VALIDT": 0, "DTG": "2024-09-01 12:00", "LATNOW": 22.1, "LONNOW": 61.8, "WINDNOW": 35.0, "DIRNOW": 3.0, "SPDNOW": 4.0, "TECH": "TRAK", "ADVNR": 11, "ATCFID": "IO022024", "NAME": "ASNA", "FTECH": "JTWC", "FCST_DTG": "2024-09-01 12:00:00", "RUN_DTG": "2024-09-02 02:42:44", "BASIN": "IO", "STMNR": 2, "CAT_ID": null, "CAT_DESC": null, "MSGID": "WTIO51 PGTW 011500", "VALIDTIME": "2024-09-01 12:00:00" }, "geometry": { "type": "Point", "coordinates": [ 61.799999, 22.1 ] } },
{ "type": "Feature", "properties": { "ID": 247730, "LAT": 21.2, "LON": 61.4, "VMAX": 30.0, "MSLP": 1010.40607, "RMAX": 44.21983, "FSPD": 2.50474, "FDIR": 202.44493, "RENV": 250.0, "PENV": 1012.0, "VALIDT": 12, "DTG": "2024-09-02 00:00", "LATNOW": 22.1, "LONNOW": 61.8, "WINDNOW": 35.0, "DIRNOW": 3.0, "SPDNOW": 4.0, "TECH": "FCST", "ADVNR": 11, "ATCFID": "IO022024", "NAME": "ASNA", "FTECH": "JTWC", "FCST_DTG": "2024-09-01 12:00:00", "RUN_DTG": "2024-09-02 02:42:44", "BASIN": "IO", "STMNR": 2, "CAT_ID": null, "CAT_DESC": null, "MSGID": "WTIO51 PGTW 011500", "VALIDTIME": "2024-09-02 00:00:00" }, "geometry": { "type": "Point", "coordinates": [ 61.400002, 21.200001 ] } },
{ "type": "Feature", "properties": { "ID": 247729, "LAT": 22.1, "LON": 61.8, "VMAX": 35.0, "MSLP": 1008.74713, "RMAX": 42.69135, "FSPD": 2.50474, "FDIR": 202.44493, "RENV": 500.0, "PENV": 1012.0, "VALIDT": 0, "DTG": "2024-09-01 12:00", "LATNOW": 22.1, "LONNOW": 61.8, "WINDNOW": 35.0, "DIRNOW": 3.0, "SPDNOW": 4.0, "TECH": "TRAK", "ADVNR": 11, "ATCFID": "IO022024", "NAME": "ASNA", "FTECH": "JTWC", "FCST_DTG": "2024-09-01 12:00:00", "RUN_DTG": "2024-09-02 02:42:44", "BASIN": "IO", "STMNR": 2, "CAT_ID": null, "CAT_DESC": null, "MSGID": "WTIO51 PGTW 011500", "VALIDTIME": "2024-09-01 12:00:00" }, "geometry": { "type": "LineString", "coordinates": [ [ 71.5, 24.2 ], [ 71.5, 24.2 ], [ 71.0, 24.3 ], [ 70.5, 24.3 ], [ 70.0, 24.4 ], [ 69.8, 24.3 ], [ 69.9, 24.1 ], [ 69.9, 23.9 ], [ 69.4, 23.8 ], [ 69.5, 23.7 ], [ 69.2, 23.6 ], [ 68.9, 23.8 ], [ 68.5, 24.0 ], [ 68.3, 23.4 ], [ 67.6, 23.4 ], [ 66.8, 23.9 ], [ 66.4, 23.4 ], [ 65.7, 23.6 ], [ 64.9, 23.3 ], [ 64.1, 23.3 ], [ 63.2, 23.3 ], [ 62.6, 22.9 ], [ 61.9, 22.6 ], [ 61.8, 22.1 ] ] } },
{ "type": "Feature", "properties": { "ID": 247730, "LAT": 21.2, "LON": 61.4, "VMAX": 30.0, "MSLP": 1010.40607, "RMAX": 44.21983, "FSPD": 2.50474, "FDIR": 202.44493, "RENV": 250.0, "PENV": 1012.0, "VALIDT": 12, "DTG": "2024-09-02 00:00", "LATNOW": 22.1, "LONNOW": 61.8, "WINDNOW": 35.0, "DIRNOW": 3.0, "SPDNOW": 4.0, "TECH": "FCST", "ADVNR": 11, "ATCFID": "IO022024", "NAME": "ASNA", "FTECH": "JTWC", "FCST_DTG": "2024-09-01 12:00:00", "RUN_DTG": "2024-09-02 02:42:44", "BASIN": "IO", "STMNR": 2, "CAT_ID": null, "CAT_DESC": null, "MSGID": "WTIO51 PGTW 011500", "VALIDTIME": "2024-09-02 00:00:00" }, "geometry": { "type": "LineString", "coordinates": [ [ 61.8, 22.1 ], [ 61.4, 21.2 ] ] } }
]
}
