{
"type": "FeatureCollection",
"crs": { "type": "name", "properties": { "name": "urn:ogc:def:crs:OGC:1.3:CRS84" } },
"features": [
{ "type": "Feature", "properties": { "ID": 248135, "LAT": 21.8, "LON": -175.3, "VMAX": 30.0, "MSLP": 1008.0, "RMAX": 30.0, "FSPD": 2.9107, "FDIR": 280.18008, "RENV": 100.0, "PENV": 1013.0, "VALIDT": 0, "DTG": "2024-08-30 18:00", "LATNOW": 26.1, "LONNOW": -179.8, "WINDNOW": 35.0, "DIRNOW": 9.0, "SPDNOW": 3.0, "TECH": "TRAK", "ADVNR": null, "ATCFID": "CP012024", "NAME": "HONE", "FTECH": "OFCL", "FCST_DTG": "2024-09-01 18:00:00", "RUN_DTG": "2024-09-02 08:13:57", "BASIN": "CP", "STMNR": 1, "CAT_ID": null, "CAT_DESC": null, "MSGID": null, "VALIDTIME": "2024-08-30 18:00:00" }, "geometry": { "type": "Point", "coordinates": [ -175.300003, 21.799999 ] } },
{ "type": "Feature", "properties": { "ID": 248136, "LAT": 21.9, "LON": -175.9, "VMAX": 30.0, "MSLP": 1009.0, "RMAX": 30.0, "FSPD": 1.81419, "FDIR": 31.71161, "RENV": 90.0, "PENV": 1013.0, "VALIDT": 0, "DTG": "2024-08-31 00:00", "LATNOW": 26.1, "LONNOW": -179.8, "WINDNOW": 35.0, "DIRNOW": 9.0, "SPDNOW": 3.0, "TECH": "TRAK", "ADVNR": null, "ATCFID": "CP012024", "NAME": "HONE", "FTECH": "OFCL", "FCST_DTG": "2024-09-01 18:00:00", "RUN_DTG": "2024-09-02 08:13:57", "BASIN": "CP", "STMNR": 1, "CAT_ID": null, "CAT_DESC": null, "MSGID": null, "VALIDTIME": "2024-08-31 00:00:00" }, "geometry": { "type": "Point", "coordinates": [ -175.899994, 21.9 ] } },
{ "type": "Feature", "properties": { "ID": 248137, "LAT": 22.2, "LON": -175.7, "VMAX": 30.0, "MSLP": 1009.0, "RMAX": 30.0, "FSPD": 0.70099, "FDIR": 317.21228, "RENV": 90.0, "PENV": 1013.0, "VALIDT": 0, "DTG": "2024-08-31 06:00", "LATNOW": 26.1, "LONNOW": -179.8, "WINDNOW": 35.0, "DIRNOW": 9.0, "SPDNOW": 3.0, "TECH": "TRAK", "ADVNR": null, "ATCFID": "CP012024", "NAME": "HONE", "FTECH": "OFCL", "FCST_DTG": "2024-09-01 18:00:00", "RUN_DTG": "2024-09-02 08:13:57", "BASIN": "CP", "STMNR": 1, "CAT_ID": null, "CAT_DESC": null, "MSGID": null, "VALIDTIME": "2024-08-31 06:00:00" }, "geometry": { "type": "Point", "coordinates": [ -175.699997, 22.200001 ] } },
{ "type": "Feature", "properties": { "ID": 248138, "LAT": 22.3, "LON": -175.8, "VMAX": 35.0, "MSLP": 1007.0, "RMAX": 30.0, "FSPD": 1.97147, "FDIR": 285.12616, "RENV": 90.0, "PENV": 1013.0, "VALIDT": 0, "DTG": "2024-08-31 12:00", "LATNOW": 26.1, "LONNOW": -179.8, "WINDNOW": 35.0, "DIRNOW": 9.0, "SPDNOW": 3.0, "TECH": "TRAK", "ADVNR": null, "ATCFID": "CP012024", "NAME": "HONE", "FTECH": "OFCL", "FCST_DTG": "2024-09-01 18:00:00", "RUN_DTG": "2024-09-02 08:13:57", "BASIN": "CP", "STMNR": 1, "CAT_ID": null, "CAT_DESC": null, "MSGID": null, "VALIDTIME": "2024-08-31 12:00:00" }, "geometry": { "type": "Point", "coordinates": [ -175.800003, 22.299999 ] } },
{ "type": "Feature", "properties": { "ID": 248139, "LAT": 22.4, "LON": -176.2, "VMAX": 35.0, "MSLP": 1007.0, "RMAX": 30.0, "FSPD": 5.33728, "FDIR": 344.5514, "RENV": 100.0, "PENV": 1013.0, "VALIDT": 0, "DTG": "2024-08-31 18:00", "LATNOW": 26.1, "LONNOW": -179.8, "WINDNOW": 35.0, "DIRNOW": 9.0, "SPDNOW": 3.0, "TECH": "TRAK", "ADVNR": null, "ATCFID": "CP012024", "NAME": "HONE", "FTECH": "OFCL", "FCST_DTG": "2024-09-01 18:00:00", "RUN_DTG": "2024-09-02 08:13:57", "BASIN": "CP", "STMNR": 1, "CAT_ID": null, "CAT_DESC": null, "MSGID": null, "VALIDTIME": "2024-08-31 18:00:00" }, "geometry": { "type": "Point", "coordinates": [ -176.199997, 22.4 ] } },
{ "type": "Feature", "properties": { "ID": 248140, "LAT": 23.4, "LON": -176.5, "VMAX": 35.0, "MSLP": 1007.0, "RMAX": 30.0, "FSPD": 2.57222, "FDIR": 360.0, "RENV": 100.0, "PENV": 1013.0, "VALIDT": 0, "DTG": "2024-09-01 00:00", "LATNOW": 26.1, "LONNOW": -179.8, "WINDNOW": 35.0, "DIRNOW": 9.0, "SPDNOW": 3.0, "TECH": "TRAK", "ADVNR": null, "ATCFID": "CP012024", "NAME": "HONE", "FTECH": "OFCL", "FCST_DTG": "2024-09-01 18:00:00", "RUN_DTG": "2024-09-02 08:13:57", "BASIN": "CP", "STMNR": 1, "CAT_ID": null, "CAT_DESC": null, "MSGID": null, "VALIDTIME": "2024-09-01 00:00:00" }, "geometry": { "type": "Point", "coordinates": [ -176.5, 23.4 ] } },
{ "type": "Feature", "properties": { "ID": 248141, "LAT": 23.9, "LON": -176.5, "VMAX": 35.0, "MSLP": 1007.0, "RMAX": 30.0, "FSPD": 4.83879, "FDIR": 343.10727, "RENV": 100.0, "PENV": 1013.0, "VALIDT": 0, "DTG": "2024-09-01 06:00", "LATNOW": 26.1, "LONNOW": -179.8, "WINDNOW": 35.0, "DIRNOW": 9.0, "SPDNOW": 3.0, "TECH": "TRAK", "ADVNR": null, "ATCFID": "CP012024", "NAME": "HONE", "FTECH": "OFCL", "FCST_DTG": "2024-09-01 18:00:00", "RUN_DTG": "2024-09-02 08:13:57", "BASIN": "CP", "STMNR": 1, "CAT_ID": null, "CAT_DESC": null, "MSGID": null, "VALIDTIME": "2024-09-01 06:00:00" }, "geometry": { "type": "Point", "coordinates": [ -176.5, 23.9 ] } },
{ "type": "Feature", "properties": { "ID": 248142, "LAT": 24.8, "LON": -176.8, "VMAX": 35.0, "MSLP": 1007.0, "RMAX": 30.0, "FSPD": 15.45736, "FDIR": 295.63647, "RENV": 100.0, "PENV": 1012.0, "VALIDT": 0, "DTG": "2024-09-01 12:00", "LATNOW": 26.1, "LONNOW": -179.8, "WINDNOW": 35.0, "DIRNOW": 9.0, "SPDNOW": 3.0, "TECH": "TRAK", "ADVNR": null, "ATCFID": "CP012024", "NAME": "HONE", "FTECH": "OFCL", "FCST_DTG": "2024-09-01 18:00:00", "RUN_DTG": "2024-09-02 08:13:57", "BASIN": "CP", "STMNR": 1, "CAT_ID": null, "CAT_DESC": null, "MSGID": null, "VALIDTIME": "2024-09-01 12:00:00" }, "geometry": { "type": "Point", "coordinates": [ -176.800003, 24.799999 ] } },
{ "type": "Feature", "properties": { "ID": 248143, "LAT": 26.1, "LON": -179.8, "VMAX": 35.0, "MSLP": 1007.0, "RMAX": 60.0, "FSPD": 8.55959, "FDIR": 283.9104, "RENV": 150.0, "PENV": 1012.0, "VALIDT": 0, "DTG": "2024-09-01 18:00", "LATNOW": 26.1, "LONNOW": -179.8, "WINDNOW": 35.0, "DIRNOW": 9.0, "SPDNOW": 3.0, "TECH": "TRAK", "ADVNR": null, "ATCFID": "CP012024", "NAME": "HONE", "FTECH": "OFCL", "FCST_DTG": "2024-09-01 18:00:00", "RUN_DTG": "2024-09-02 08:13:57", "BASIN": "CP", "STMNR": 1, "CAT_ID": null, "CAT_DESC": null, "MSGID": null, "VALIDTIME": "2024-09-01 18:00:00" }, "geometry": { "type": "Point", "coordinates": [ -179.800003, 26.1 ] } },
{ "type": "Feature", "properties": { "ID": 248144, "LAT": 26.3, "LON": 179.3, "VMAX": 35.0, "MSLP": 1007.0, "RMAX": 60.0, "FSPD": 1.84819, "FDIR": 303.82806, "RENV": 180.0, "PENV": 1012.0, "VALIDT": 3, "DTG": "2024-09-01 21:00", "LATNOW": 26.1, "LONNOW": -179.8, "WINDNOW": 35.0, "DIRNOW": 9.0, "SPDNOW": 3.0, "TECH": "FCST", "ADVNR": null, "ATCFID": "CP012024", "NAME": "HONE", "FTECH": "OFCL", "FCST_DTG": "2024-09-01 18:00:00", "RUN_DTG": "2024-09-02 08:13:57", "BASIN": "CP", "STMNR": 1, "CAT_ID": null, "CAT_DESC": null, "MSGID": null, "VALIDTIME": "2024-09-01 21:00:00" }, "geometry": { "type": "Point", "coordinates": [ 179.300003, 26.299999 ] } },
{ "type": "Feature", "properties": { "ID": 248145, "LAT": 26.6, "LON": 178.8, "VMAX": 35.0, "MSLP": 1008.74713, "RMAX": 61.90004, "FSPD": 1.4588, "FDIR": 331.83893, "RENV": 180.0, "PENV": 1012.0, "VALIDT": 12, "DTG": "2024-09-02 06:00", "LATNOW": 26.1, "LONNOW": -179.8, "WINDNOW": 35.0, "DIRNOW": 9.0, "SPDNOW": 3.0, "TECH": "FCST", "ADVNR": null, "ATCFID": "CP012024", "NAME": "HONE", "FTECH": "OFCL", "FCST_DTG": "2024-09-01 18:00:00", "RUN_DTG": "2024-09-02 08:13:57", "BASIN": "CP", "STMNR": 1, "CAT_ID": null, "CAT_DESC": null, "MSGID": null, "VALIDTIME": "2024-09-02 06:00:00" }, "geometry": { "type": "Point", "coordinates": [ 178.800003, 26.6 ] } },
{ "type": "Feature", "properties": { "ID": 248146, "LAT": 27.1, "LON": 178.5, "VMAX": 35.0, "MSLP": 1008.74713, "RMAX": 61.90004, "FSPD": 3.93761, "FDIR": 23.85925, "RENV": 180.0, "PENV": 1012.0, "VALIDT": 24, "DTG": "2024-09-02 18:00", "LATNOW": 26.1, "LONNOW": -179.8, "WINDNOW": 35.0, "DIRNOW": 9.0, "SPDNOW": 3.0, "TECH": "FCST", "ADVNR": null, "ATCFID": "CP012024", "NAME": "HONE", "FTECH": "OFCL", "FCST_DTG": "2024-09-01 18:00:00", "RUN_DTG": "2024-09-02 08:13:57", "BASIN": "CP", "STMNR": 1, "CAT_ID": null, "CAT_DESC": null, "MSGID": null, "VALIDTIME": "2024-09-02 18:00:00" }, "geometry": { "type": "Point", "coordinates": [ 178.5, 27.1 ] } },
{ "type": "Feature", "properties": { "ID": 248147, "LAT": 28.5, "LON": 179.2, "VMAX": 35.0, "MSLP": 1008.74713, "RMAX": 61.90004, "FSPD": 3.69518, "FDIR": 25.18582, "RENV": 180.0, "PENV": 1012.0, "VALIDT": 36, "DTG": "2024-09-03 06:00", "LATNOW": 26.1, "LONNOW": -179.8, "WINDNOW": 35.0, "DIRNOW": 9.0, "SPDNOW": 3.0, "TECH": "FCST", "ADVNR": null, "ATCFID": "CP012024", "NAME": "HONE", "FTECH": "OFCL", "FCST_DTG": "2024-09-01 18:00:00", "RUN_DTG": "2024-09-02 08:13:57", "BASIN": "CP", "STMNR": 1, "CAT_ID": null, "CAT_DESC": null, "MSGID": null, "VALIDTIME": "2024-09-03 06:00:00" }, "geometry": { "type": "Point", "coordinates": [ 179.199997, 28.5 ] } },
{ "type": "Feature", "properties": { "ID": 248148, "LAT": 29.8, "LON": 179.9, "VMAX": 30.0, "MSLP": 1010.40607, "RMAX": 64.11626, "FSPD": 3.89414, "FDIR": 329.17062, "RENV": 250.0, "PENV": 1012.0, "VALIDT": 48, "DTG": "2024-09-03 18:00", "LATNOW": 26.1, "LONNOW": -179.8, "WINDNOW": 35.0, "DIRNOW": 9.0, "SPDNOW": 3.0, "TECH": "FCST", "ADVNR": null, "ATCFID": "CP012024", "NAME": "HONE", "FTECH": "OFCL", "FCST_DTG": "2024-09-01 18:00:00", "RUN_DTG": "2024-09-02 08:13:57", "BASIN": "CP", "STMNR": 1, "CAT_ID": null, "CAT_DESC": null, "MSGID": null, "VALIDTIME": "2024-09-03 18:00:00" }, "geometry": { "type": "Point", "coordinates": [ 179.899994, 29.799999 ] } },
{ "type": "Feature", "properties": { "ID": 248149, "LAT": 31.1, "LON": 179.0, "VMAX": 25.0, "MSLP": 1011.80975, "RMAX": 65.24745, "FSPD": 3.67803, "FDIR": 314.37463, "RENV": 250.0, "PENV": 1012.0, "VALIDT": 60, "DTG": "2024-09-04 06:00", "LATNOW": 26.1, "LONNOW": -179.8, "WINDNOW": 35.0, "DIRNOW": 9.0, "SPDNOW": 3.0, "TECH": "FCST", "ADVNR": null, "ATCFID": "CP012024", "NAME": "HONE", "FTECH": "OFCL", "FCST_DTG": "2024-09-01 18:00:00", "RUN_DTG": "2024-09-02 08:13:57", "BASIN": "CP", "STMNR": 1, "CAT_ID": null, "CAT_DESC": null, "MSGID": null, "VALIDTIME": "2024-09-04 06:00:00" }, "geometry": { "type": "Point", "coordinates": [ 179.0, 31.1 ] } },
{ "type": "Feature", "properties": { "ID": 248150, "LAT": 32.1, "LON": 177.8, "VMAX": 25.0, "MSLP": 1011.80975, "RMAX": 65.24745, "FSPD": 2.9866, "FDIR": 311.87238, "RENV": 250.0, "PENV": 1012.0, "VALIDT": 72, "DTG": "2024-09-04 18:00", "LATNOW": 26.1, "LONNOW": -179.8, "WINDNOW": 35.0, "DIRNOW": 9.0, "SPDNOW": 3.0, "TECH": "FCST", "ADVNR": null, "ATCFID": "CP012024", "NAME": "HONE", "FTECH": "OFCL", "FCST_DTG": "2024-09-01 18:00:00", "RUN_DTG": "2024-09-02 08:13:57", "BASIN": "CP", "STMNR": 1, "CAT_ID": null, "CAT_DESC": null, "MSGID": null, "VALIDTIME": "2024-09-04 18:00:00" }, "geometry": { "type": "Point", "coordinates": [ 177.800003, 32.099998 ] } },
{ "type": "Feature", "properties": { "ID": 248151, "LAT": 32.875, "LON": 176.77501, "VMAX": 22.5, "MSLP": 1012.38403, "RMAX": 65.24745, "FSPD": 1.67852, "FDIR": 299.8706, "RENV": 250.0, "PENV": 1012.0, "VALIDT": 84, "DTG": "2024-09-05 06:00", "LATNOW": 26.1, "LONNOW": -179.8, "WINDNOW": 35.0, "DIRNOW": 9.0, "SPDNOW": 3.0, "TECH": "FCST", "ADVNR": null, "ATCFID": "CP012024", "NAME": "HONE", "FTECH": "OFCL", "FCST_DTG": "2024-09-01 18:00:00", "RUN_DTG": "2024-09-02 08:13:57", "BASIN": "CP", "STMNR": 1, "CAT_ID": null, "CAT_DESC": null, "MSGID": null, "VALIDTIME": "2024-09-05 06:00:00" }, "geometry": { "type": "Point", "coordinates": [ 176.775009, 32.875 ] } },
{ "type": "Feature", "properties": { "ID": 248152, "LAT": 33.2, "LON": 176.1, "VMAX": 20.0, "MSLP": 1012.95825, "RMAX": 65.24745, "FSPD": 1.67852, "FDIR": 299.8706, "RENV": 250.0, "PENV": 1012.0, "VALIDT": 96, "DTG": "2024-09-05 18:00", "LATNOW": 26.1, "LONNOW": -179.8, "WINDNOW": 35.0, "DIRNOW": 9.0, "SPDNOW": 3.0, "TECH": "FCST", "ADVNR": null, "ATCFID": "CP012024", "NAME": "HONE", "FTECH": "OFCL", "FCST_DTG": "2024-09-01 18:00:00", "RUN_DTG": "2024-09-02 08:13:57", "BASIN": "CP", "STMNR": 1, "CAT_ID": null, "CAT_DESC": null, "MSGID": null, "VALIDTIME": "2024-09-05 18:00:00" }, "geometry": { "type": "Point", "coordinates": [ 176.100006, 33.200001 ] } },
{ "type": "Feature", "properties": { "ID": 248093, "LAT": 13.7, "LON": -131.7, "VMAX": 25.0, "MSLP": 1008.0, "RMAX": 80.0, "FSPD": 1.81797, "FDIR": 304.4686, "RENV": 120.0, "PENV": 1010.0, "VALIDT": 0, "DTG": "2024-08-20 06:00", "LATNOW": 26.1, "LONNOW": -179.8, "WINDNOW": 35.0, "DIRNOW": 9.0, "SPDNOW": 3.0, "TECH": "TRAK", "ADVNR": null, "ATCFID": "CP012024", "NAME": "HONE", "FTECH": "OFCL", "FCST_DTG": "2024-09-01 18:00:00", "RUN_DTG": "2024-09-02 08:13:57", "BASIN": "CP", "STMNR": 1, "CAT_ID": null, "CAT_DESC": null, "MSGID": null, "VALIDTIME": "2024-08-20 06:00:00" }, "geometry": { "type": "Point", "coordinates": [ -131.699997, 13.7 ] } },
{ "type": "Feature", "properties": { "ID": 248094, "LAT": 13.9, "LON": -132.0, "VMAX": 25.0, "MSLP": 1007.0, "RMAX": 80.0, "FSPD": 3.58291, "FDIR": 315.8825, "RENV": 120.0, "PENV": 1010.0, "VALIDT": 0, "DTG": "2024-08-20 12:00", "LATNOW": 26.1, "LONNOW": -179.8, "WINDNOW": 35.0, "DIRNOW": 9.0, "SPDNOW": 3.0, "TECH": "TRAK", "ADVNR": null, "ATCFID": "CP012024", "NAME": "HONE", "FTECH": "OFCL", "FCST_DTG": "2024-09-01 18:00:00", "RUN_DTG": "2024-09-02 08:13:57", "BASIN": "CP", "STMNR": 1, "CAT_ID": null, "CAT_DESC": null, "MSGID": null, "VALIDTIME": "2024-08-20 12:00:00" }, "geometry": { "type": "Point", "coordinates": [ -132.0, 13.9 ] } },
{ "type": "Feature", "properties": { "ID": 248095, "LAT": 14.4, "LON": -132.5, "VMAX": 30.0, "MSLP": 1007.0, "RMAX": 80.0, "FSPD": 2.54264, "FDIR": 324.0283, "RENV": 120.0, "PENV": 1010.0, "VALIDT": 0, "DTG": "2024-08-20 18:00", "LATNOW": 26.1, "LONNOW": -179.8, "WINDNOW": 35.0, "DIRNOW": 9.0, "SPDNOW": 3.0, "TECH": "TRAK", "ADVNR": null, "ATCFID": "CP012024", "NAME": "HONE", "FTECH": "OFCL", "FCST_DTG": "2024-09-01 18:00:00", "RUN_DTG": "2024-09-02 08:13:57", "BASIN": "CP", "STMNR": 1, "CAT_ID": null, "CAT_DESC": null, "MSGID": null, "VALIDTIME": "2024-08-20 18:00:00" }, "geometry": { "type": "Point", "coordinates": [ -132.5, 14.4 ] } },
{ "type": "Feature", "properties": { "ID": 248096, "LAT": 14.8, "LON": -132.8, "VMAX": 30.0, "MSLP": 1006.0, "RMAX": 80.0, "FSPD": 3.02755, "FDIR": 279.78314, "RENV": 120.0, "PENV": 1010.0, "VALIDT": 0, "DTG": "2024-08-21 00:00", "LATNOW": 26.1, "LONNOW": -179.8, "WINDNOW": 35.0, "DIRNOW": 9.0, "SPDNOW": 3.0, "TECH": "TRAK", "ADVNR": null, "ATCFID": "CP012024", "NAME": "HONE", "FTECH": "OFCL", "FCST_DTG": "2024-09-01 18:00:00", "RUN_DTG": "2024-09-02 08:13:57", "BASIN": "CP", "STMNR": 1, "CAT_ID": null, "CAT_DESC": null, "MSGID": null, "VALIDTIME": "2024-08-21 00:00:00" }, "geometry": { "type": "Point", "coordinates": [ -132.800003, 14.8 ] } },
{ "type": "Feature", "properties": { "ID": 248097, "LAT": 14.9, "LON": -133.4, "VMAX": 30.0, "MSLP": 1006.0, "RMAX": 80.0, "FSPD": 6.49031, "FDIR": 293.34814, "RENV": 130.0, "PENV": 1011.0, "VALIDT": 0, "DTG": "2024-08-21 06:00", "LATNOW": 26.1, "LONNOW": -179.8, "WINDNOW": 35.0, "DIRNOW": 9.0, "SPDNOW": 3.0, "TECH": "TRAK", "ADVNR": null, "ATCFID": "CP012024", "NAME": "HONE", "FTECH": "OFCL", "FCST_DTG": "2024-09-01 18:00:00", "RUN_DTG": "2024-09-02 08:13:57", "BASIN": "CP", "STMNR": 1, "CAT_ID": null, "CAT_DESC": null, "MSGID": null, "VALIDTIME": "2024-08-21 06:00:00" }, "geometry": { "type": "Point", "coordinates": [ -133.399994, 14.9 ] } },
{ "type": "Feature", "properties": { "ID": 248098, "LAT": 15.4, "LON": -134.6, "VMAX": 30.0, "MSLP": 1006.0, "RMAX": 80.0, "FSPD": 6.96096, "FDIR": 274.23825, "RENV": 180.0, "PENV": 1011.0, "VALIDT": 0, "DTG": "2024-08-21 12:00", "LATNOW": 26.1, "LONNOW": -179.8, "WINDNOW": 35.0, "DIRNOW": 9.0, "SPDNOW": 3.0, "TECH": "TRAK", "ADVNR": null, "ATCFID": "CP012024", "NAME": "HONE", "FTECH": "OFCL", "FCST_DTG": "2024-09-01 18:00:00", "RUN_DTG": "2024-09-02 08:13:57", "BASIN": "CP", "STMNR": 1, "CAT_ID": null, "CAT_DESC": null, "MSGID": null, "VALIDTIME": "2024-08-21 12:00:00" }, "geometry": { "type": "Point", "coordinates": [ -134.600006, 15.4 ] } },
{ "type": "Feature", "properties": { "ID": 248099, "LAT": 15.5, "LON": -136.0, "VMAX": 30.0, "MSLP": 1006.0, "RMAX": 80.0, "FSPD": 7.43602, "FDIR": 269.99997, "RENV": 180.0, "PENV": 1011.0, "VALIDT": 0, "DTG": "2024-08-21 18:00", "LATNOW": 26.1, "LONNOW": -179.8, "WINDNOW": 35.0, "DIRNOW": 9.0, "SPDNOW": 3.0, "TECH": "TRAK", "ADVNR": null, "ATCFID": "CP012024", "NAME": "HONE", "FTECH": "OFCL", "FCST_DTG": "2024-09-01 18:00:00", "RUN_DTG": "2024-09-02 08:13:57", "BASIN": "CP", "STMNR": 1, "CAT_ID": null, "CAT_DESC": null, "MSGID": null, "VALIDTIME": "2024-08-21 18:00:00" }, "geometry": { "type": "Point", "coordinates": [ -136.0, 15.5 ] } },
{ "type": "Feature", "properties": { "ID": 248100, "LAT": 15.5, "LON": -137.5, "VMAX": 30.0, "MSLP": 1006.0, "RMAX": 80.0, "FSPD": 6.46661, "FDIR": 265.437, "RENV": 180.0, "PENV": 1011.0, "VALIDT": 0, "DTG": "2024-08-22 00:00", "LATNOW": 26.1, "LONNOW": -179.8, "WINDNOW": 35.0, "DIRNOW": 9.0, "SPDNOW": 3.0, "TECH": "TRAK", "ADVNR": null, "ATCFID": "CP012024", "NAME": "HONE", "FTECH": "OFCL", "FCST_DTG": "2024-09-01 18:00:00", "RUN_DTG": "2024-09-02 08:13:57", "BASIN": "CP", "STMNR": 1, "CAT_ID": null, "CAT_DESC": null, "MSGID": null, "VALIDTIME": "2024-08-22 00:00:00" }, "geometry": { "type": "Point", "coordinates": [ -137.5, 15.5 ] } },
{ "type": "Feature", "properties": { "ID": 248101, "LAT": 15.4, "LON": -138.8, "VMAX": 30.0, "MSLP": 1006.0, "RMAX": 70.0, "FSPD": 7.4396, "FDIR": 269.99997, "RENV": 180.0, "PENV": 1011.0, "VALIDT": 0, "DTG": "2024-08-22 06:00", "LATNOW": 26.1, "LONNOW": -179.8, "WINDNOW": 35.0, "DIRNOW": 9.0, "SPDNOW": 3.0, "TECH": "TRAK", "ADVNR": null, "ATCFID": "CP012024", "NAME": "HONE", "FTECH": "OFCL", "FCST_DTG": "2024-09-01 18:00:00", "RUN_DTG": "2024-09-02 08:13:57", "BASIN": "CP", "STMNR": 1, "CAT_ID": null, "CAT_DESC": null, "MSGID": null, "VALIDTIME": "2024-08-22 06:00:00" }, "geometry": { "type": "Point", "coordinates": [ -138.800003, 15.4 ] } },
{ "type": "Feature", "properties": { "ID": 248102, "LAT": 15.4, "LON": -140.3, "VMAX": 30.0, "MSLP": 1005.0, "RMAX": 30.0, "FSPD": 6.62526, "FDIR": 283.4706, "RENV": 150.0, "PENV": 1011.0, "VALIDT": 0, "DTG": "2024-08-22 12:00", "LATNOW": 26.1, "LONNOW": -179.8, "WINDNOW": 35.0, "DIRNOW": 9.0, "SPDNOW": 3.0, "TECH": "TRAK", "ADVNR": null, "ATCFID": "CP012024", "NAME": "HONE", "FTECH": "OFCL", "FCST_DTG": "2024-09-01 18:00:00", "RUN_DTG": "2024-09-02 08:13:57", "BASIN": "CP", "STMNR": 1, "CAT_ID": null, "CAT_DESC": null, "MSGID": null, "VALIDTIME": "2024-08-22 12:00:00" }, "geometry": { "type": "Point", "coordinates": [ -140.300003, 15.4 ] } },
{ "type": "Feature", "properties": { "ID": 248103, "LAT": 15.7, "LON": -141.6, "VMAX": 35.0, "MSLP": 1005.0, "RMAX": 15.0, "FSPD": 5.943, "FDIR": 269.99997, "RENV": 150.0, "PENV": 1011.0, "VALIDT": 0, "DTG": "2024-08-22 18:00", "LATNOW": 26.1, "LONNOW": -179.8, "WINDNOW": 35.0, "DIRNOW": 9.0, "SPDNOW": 3.0, "TECH": "TRAK", "ADVNR": null, "ATCFID": "CP012024", "NAME": "HONE", "FTECH": "OFCL", "FCST_DTG": "2024-09-01 18:00:00", "RUN_DTG": "2024-09-02 08:13:57", "BASIN": "CP", "STMNR": 1, "CAT_ID": null, "CAT_DESC": null, "MSGID": null, "VALIDTIME": "2024-08-22 18:00:00" }, "geometry": { "type": "Point", "coordinates": [ -141.600006, 15.7 ] } },
{ "type": "Feature", "properties": { "ID": 248104, "LAT": 15.7, "LON": -142.8, "VMAX": 35.0, "MSLP": 1004.0, "RMAX": 25.0, "FSPD": 6.51685, "FDIR": 279.08392, "RENV": 150.0, "PENV": 1010.0, "VALIDT": 0, "DTG": "2024-08-23 00:00", "LATNOW": 26.1, "LONNOW": -179.8, "WINDNOW": 35.0, "DIRNOW": 9.0, "SPDNOW": 3.0, "TECH": "TRAK", "ADVNR": null, "ATCFID": "CP012024", "NAME": "HONE", "FTECH": "OFCL", "FCST_DTG": "2024-09-01 18:00:00", "RUN_DTG": "2024-09-02 08:13:57", "BASIN": "CP", "STMNR": 1, "CAT_ID": null, "CAT_DESC": null, "MSGID": null, "VALIDTIME": "2024-08-23 00:00:00" }, "geometry": { "type": "Point", "coordinates": [ -142.800003, 15.7 ] } },
{ "type": "Feature", "properties": { "ID": 248105, "LAT": 15.9, "LON": -144.1, "VMAX": 40.0, "MSLP": 1003.0, "RMAX": 30.0, "FSPD": 7.09143, "FDIR": 282.5701, "RENV": 180.0, "PENV": 1012.0, "VALIDT": 0, "DTG": "2024-08-23 06:00", "LATNOW": 26.1, "LONNOW": -179.8, "WINDNOW": 35.0, "DIRNOW": 9.0, "SPDNOW": 3.0, "TECH": "TRAK", "ADVNR": null, "ATCFID": "CP012024", "NAME": "HONE", "FTECH": "OFCL", "FCST_DTG": "2024-09-01 18:00:00", "RUN_DTG": "2024-09-02 08:13:57", "BASIN": "CP", "STMNR": 1, "CAT_ID": null, "CAT_DESC": null, "MSGID": null, "VALIDTIME": "2024-08-23 06:00:00" }, "geometry": { "type": "Point", "coordinates": [ -144.100006, 15.9 ] } },
{ "type": "Feature", "properties": { "ID": 248106, "LAT": 16.2, "LON": -145.5, "VMAX": 40.0, "MSLP": 1002.0, "RMAX": 30.0, "FSPD": 7.68339, "FDIR": 285.53464, "RENV": 200.0, "PENV": 1011.0, "VALIDT": 0, "DTG": "2024-08-23 12:00", "LATNOW": 26.1, "LONNOW": -179.8, "WINDNOW": 35.0, "DIRNOW": 9.0, "SPDNOW": 3.0, "TECH": "TRAK", "ADVNR": null, "ATCFID": "CP012024", "NAME": "HONE", "FTECH": "OFCL", "FCST_DTG": "2024-09-01 18:00:00", "RUN_DTG": "2024-09-02 08:13:57", "BASIN": "CP", "STMNR": 1, "CAT_ID": null, "CAT_DESC": null, "MSGID": null, "VALIDTIME": "2024-08-23 12:00:00" }, "geometry": { "type": "Point", "coordinates": [ -145.5, 16.200001 ] } },
{ "type": "Feature", "properties": { "ID": 248107, "LAT": 16.6, "LON": -147.0, "VMAX": 40.0, "MSLP": 1002.0, "RMAX": 30.0, "FSPD": 7.95083, "FDIR": 277.43524, "RENV": 175.0, "PENV": 1011.0, "VALIDT": 0, "DTG": "2024-08-23 18:00", "LATNOW": 26.1, "LONNOW": -179.8, "WINDNOW": 35.0, "DIRNOW": 9.0, "SPDNOW": 3.0, "TECH": "TRAK", "ADVNR": null, "ATCFID": "CP012024", "NAME": "HONE", "FTECH": "OFCL", "FCST_DTG": "2024-09-01 18:00:00", "RUN_DTG": "2024-09-02 08:13:57", "BASIN": "CP", "STMNR": 1, "CAT_ID": null, "CAT_DESC": null, "MSGID": null, "VALIDTIME": "2024-08-23 18:00:00" }, "geometry": { "type": "Point", "coordinates": [ -147.0, 16.6 ] } },
{ "type": "Feature", "properties": { "ID": 248108, "LAT": 16.8, "LON": -148.6, "VMAX": 45.0, "MSLP": 1000.0, "RMAX": 30.0, "FSPD": 6.71839, "FDIR": 287.83588, "RENV": 175.0, "PENV": 1011.0, "VALIDT": 0, "DTG": "2024-08-24 00:00", "LATNOW": 26.1, "LONNOW": -179.8, "WINDNOW": 35.0, "DIRNOW": 9.0, "SPDNOW": 3.0, "TECH": "TRAK", "ADVNR": null, "ATCFID": "CP012024", "NAME": "HONE", "FTECH": "OFCL", "FCST_DTG": "2024-09-01 18:00:00", "RUN_DTG": "2024-09-02 08:13:57", "BASIN": "CP", "STMNR": 1, "CAT_ID": null, "CAT_DESC": null, "MSGID": null, "VALIDTIME": "2024-08-24 00:00:00" }, "geometry": { "type": "Point", "coordinates": [ -148.600006, 16.799999 ] } },
{ "type": "Feature", "properties": { "ID": 248109, "LAT": 17.2, "LON": -149.9, "VMAX": 50.0, "MSLP": 998.0, "RMAX": 40.0, "FSPD": 6.95299, "FDIR": 278.5097, "RENV": 175.0, "PENV": 1012.0, "VALIDT": 0, "DTG": "2024-08-24 06:00", "LATNOW": 26.1, "LONNOW": -179.8, "WINDNOW": 35.0, "DIRNOW": 9.0, "SPDNOW": 3.0, "TECH": "TRAK", "ADVNR": null, "ATCFID": "CP012024", "NAME": "HONE", "FTECH": "OFCL", "FCST_DTG": "2024-09-01 18:00:00", "RUN_DTG": "2024-09-02 08:13:57", "BASIN": "CP", "STMNR": 1, "CAT_ID": null, "CAT_DESC": null, "MSGID": null, "VALIDTIME": "2024-08-24 06:00:00" }, "geometry": { "type": "Point", "coordinates": [ -149.899994, 17.200001 ] } },
{ "type": "Feature", "properties": { "ID": 248110, "LAT": 17.4, "LON": -151.3, "VMAX": 55.0, "MSLP": 998.0, "RMAX": 40.0, "FSPD": 6.46072, "FDIR": 279.16357, "RENV": 160.0, "PENV": 1011.0, "VALIDT": 0, "DTG": "2024-08-24 12:00", "LATNOW": 26.1, "LONNOW": -179.8, "WINDNOW": 35.0, "DIRNOW": 9.0, "SPDNOW": 3.0, "TECH": "TRAK", "ADVNR": null, "ATCFID": "CP012024", "NAME": "HONE", "FTECH": "OFCL", "FCST_DTG": "2024-09-01 18:00:00", "RUN_DTG": "2024-09-02 08:13:57", "BASIN": "CP", "STMNR": 1, "CAT_ID": null, "CAT_DESC": null, "MSGID": null, "VALIDTIME": "2024-08-24 12:00:00" }, "geometry": { "type": "Point", "coordinates": [ -151.300003, 17.4 ] } },
{ "type": "Feature", "properties": { "ID": 248111, "LAT": 17.6, "LON": -152.6, "VMAX": 55.0, "MSLP": 1000.0, "RMAX": 40.0, "FSPD": 6.07863, "FDIR": 284.70807, "RENV": 160.0, "PENV": 1011.0, "VALIDT": 0, "DTG": "2024-08-24 18:00", "LATNOW": 26.1, "LONNOW": -179.8, "WINDNOW": 35.0, "DIRNOW": 9.0, "SPDNOW": 3.0, "TECH": "TRAK", "ADVNR": null, "ATCFID": "CP012024", "NAME": "HONE", "FTECH": "OFCL", "FCST_DTG": "2024-09-01 18:00:00", "RUN_DTG": "2024-09-02 08:13:57", "BASIN": "CP", "STMNR": 1, "CAT_ID": null, "CAT_DESC": null, "MSGID": null, "VALIDTIME": "2024-08-24 18:00:00" }, "geometry": { "type": "Point", "coordinates": [ -152.600006, 17.6 ] } },
{ "type": "Feature", "properties": { "ID": 248112, "LAT": 17.9, "LON": -153.8, "VMAX": 55.0, "MSLP": 1000.0, "RMAX": 40.0, "FSPD": 4.99967, "FDIR": 281.87585, "RENV": 160.0, "PENV": 1011.0, "VALIDT": 0, "DTG": "2024-08-25 00:00", "LATNOW": 26.1, "LONNOW": -179.8, "WINDNOW": 35.0, "DIRNOW": 9.0, "SPDNOW": 3.0, "TECH": "TRAK", "ADVNR": null, "ATCFID": "CP012024", "NAME": "HONE", "FTECH": "OFCL", "FCST_DTG": "2024-09-01 18:00:00", "RUN_DTG": "2024-09-02 08:13:57", "BASIN": "CP", "STMNR": 1, "CAT_ID": null, "CAT_DESC": null, "MSGID": null, "VALIDTIME": "2024-08-25 00:00:00" }, "geometry": { "type": "Point", "coordinates": [ -153.800003, 17.9 ] } },
{ "type": "Feature", "properties": { "ID": 248113, "LAT": 18.1, "LON": -154.8, "VMAX": 65.0, "MSLP": 991.0, "RMAX": 15.0, "FSPD": 4.40086, "FDIR": 269.99997, "RENV": 160.0, "PENV": 1012.0, "VALIDT": 0, "DTG": "2024-08-25 06:00", "LATNOW": 26.1, "LONNOW": -179.8, "WINDNOW": 35.0, "DIRNOW": 9.0, "SPDNOW": 3.0, "TECH": "TRAK", "ADVNR": null, "ATCFID": "CP012024", "NAME": "HONE", "FTECH": "OFCL", "FCST_DTG": "2024-09-01 18:00:00", "RUN_DTG": "2024-09-02 08:13:57", "BASIN": "CP", "STMNR": 1, "CAT_ID": null, "CAT_DESC": null, "MSGID": null, "VALIDTIME": "2024-08-25 06:00:00" }, "geometry": { "type": "Point", "coordinates": [ -154.800003, 18.1 ] } },
{ "type": "Feature", "properties": { "ID": 248114, "LAT": 18.1, "LON": -155.7, "VMAX": 75.0, "MSLP": 988.0, "RMAX": 15.0, "FSPD": 5.95532, "FDIR": 295.58948, "RENV": 160.0, "PENV": 1012.0, "VALIDT": 0, "DTG": "2024-08-25 12:00", "LATNOW": 26.1, "LONNOW": -179.8, "WINDNOW": 35.0, "DIRNOW": 9.0, "SPDNOW": 3.0, "TECH": "TRAK", "ADVNR": null, "ATCFID": "CP012024", "NAME": "HONE", "FTECH": "OFCL", "FCST_DTG": "2024-09-01 18:00:00", "RUN_DTG": "2024-09-02 08:13:57", "BASIN": "CP", "STMNR": 1, "CAT_ID": null, "CAT_DESC": null, "MSGID": null, "VALIDTIME": "2024-08-25 12:00:00" }, "geometry": { "type": "Point", "coordinates": [ -155.699997, 18.1 ] } },
{ "type": "Feature", "properties": { "ID": 248115, "LAT": 18.6, "LON": -156.8, "VMAX": 70.0, "MSLP": 991.0, "RMAX": 10.0, "FSPD": 5.57635, "FDIR": 286.0671, "RENV": 130.0, "PENV": 1013.0, "VALIDT": 0, "DTG": "2024-08-25 18:00", "LATNOW": 26.1, "LONNOW": -179.8, "WINDNOW": 35.0, "DIRNOW": 9.0, "SPDNOW": 3.0, "TECH": "TRAK", "ADVNR": null, "ATCFID": "CP012024", "NAME": "HONE", "FTECH": "OFCL", "FCST_DTG": "2024-09-01 18:00:00", "RUN_DTG": "2024-09-02 08:13:57", "BASIN": "CP", "STMNR": 1, "CAT_ID": null, "CAT_DESC": null, "MSGID": null, "VALIDTIME": "2024-08-25 18:00:00" }, "geometry": { "type": "Point", "coordinates": [ -156.800003, 18.6 ] } },
{ "type": "Feature", "properties": { "ID": 248116, "LAT": 18.9, "LON": -157.9, "VMAX": 65.0, "MSLP": 994.0, "RMAX": 10.0, "FSPD": 6.03595, "FDIR": 284.8145, "RENV": 120.0, "PENV": 1011.0, "VALIDT": 0, "DTG": "2024-08-26 00:00", "LATNOW": 26.1, "LONNOW": -179.8, "WINDNOW": 35.0, "DIRNOW": 9.0, "SPDNOW": 3.0, "TECH": "TRAK", "ADVNR": null, "ATCFID": "CP012024", "NAME": "HONE", "FTECH": "OFCL", "FCST_DTG": "2024-09-01 18:00:00", "RUN_DTG": "2024-09-02 08:13:57", "BASIN": "CP", "STMNR": 1, "CAT_ID": null, "CAT_DESC": null, "MSGID": null, "VALIDTIME": "2024-08-26 00:00:00" }, "geometry": { "type": "Point", "coordinates": [ -157.899994, 18.9 ] } },
{ "type": "Feature", "properties": { "ID": 248117, "LAT": 19.2, "LON": -159.1, "VMAX": 60.0, "MSLP": 996.0, "RMAX": 10.0, "FSPD": 6.33472, "FDIR": 274.65802, "RENV": 140.0, "PENV": 1012.0, "VALIDT": 0, "DTG": "2024-08-26 06:00", "LATNOW": 26.1, "LONNOW": -179.8, "WINDNOW": 35.0, "DIRNOW": 9.0, "SPDNOW": 3.0, "TECH": "TRAK", "ADVNR": null, "ATCFID": "CP012024", "NAME": "HONE", "FTECH": "OFCL", "FCST_DTG": "2024-09-01 18:00:00", "RUN_DTG": "2024-09-02 08:13:57", "BASIN": "CP", "STMNR": 1, "CAT_ID": null, "CAT_DESC": null, "MSGID": null, "VALIDTIME": "2024-08-26 06:00:00" }, "geometry": { "type": "Point", "coordinates": [ -159.100006, 19.200001 ] } },
{ "type": "Feature", "properties": { "ID": 248118, "LAT": 19.3, "LON": -160.4, "VMAX": 55.0, "MSLP": 998.0, "RMAX": 10.0, "FSPD": 3.55309, "FDIR": 253.16751, "RENV": 140.0, "PENV": 1012.0, "VALIDT": 0, "DTG": "2024-08-26 12:00", "LATNOW": 26.1, "LONNOW": -179.8, "WINDNOW": 35.0, "DIRNOW": 9.0, "SPDNOW": 3.0, "TECH": "TRAK", "ADVNR": null, "ATCFID": "CP012024", "NAME": "HONE", "FTECH": "OFCL", "FCST_DTG": "2024-09-01 18:00:00", "RUN_DTG": "2024-09-02 08:13:57", "BASIN": "CP", "STMNR": 1, "CAT_ID": null, "CAT_DESC": null, "MSGID": null, "VALIDTIME": "2024-08-26 12:00:00" }, "geometry": { "type": "Point", "coordinates": [ -160.399994, 19.299999 ] } },
{ "type": "Feature", "properties": { "ID": 248119, "LAT": 19.1, "LON": -161.1, "VMAX": 55.0, "MSLP": 998.0, "RMAX": 10.0, "FSPD": 6.02904, "FDIR": 284.8318, "RENV": 110.0, "PENV": 1013.0, "VALIDT": 0, "DTG": "2024-08-26 18:00", "LATNOW": 26.1, "LONNOW": -179.8, "WINDNOW": 35.0, "DIRNOW": 9.0, "SPDNOW": 3.0, "TECH": "TRAK", "ADVNR": null, "ATCFID": "CP012024", "NAME": "HONE", "FTECH": "OFCL", "FCST_DTG": "2024-09-01 18:00:00", "RUN_DTG": "2024-09-02 08:13:57", "BASIN": "CP", "STMNR": 1, "CAT_ID": null, "CAT_DESC": null, "MSGID": null, "VALIDTIME": "2024-08-26 18:00:00" }, "geometry": { "type": "Point", "coordinates": [ -161.100006, 19.1 ] } },
{ "type": "Feature", "properties": { "ID": 248120, "LAT": 19.4, "LON": -162.3, "VMAX": 50.0, "MSLP": 1000.0, "RMAX": 10.0, "FSPD": 6.48846, "FDIR": 283.7602, "RENV": 90.0, "PENV": 1012.0, "VALIDT": 0, "DTG": "2024-08-27 00:00", "LATNOW": 26.1, "LONNOW": -179.8, "WINDNOW": 35.0, "DIRNOW": 9.0, "SPDNOW": 3.0, "TECH": "TRAK", "ADVNR": null, "ATCFID": "CP012024", "NAME": "HONE", "FTECH": "OFCL", "FCST_DTG": "2024-09-01 18:00:00", "RUN_DTG": "2024-09-02 08:13:57", "BASIN": "CP", "STMNR": 1, "CAT_ID": null, "CAT_DESC": null, "MSGID": null, "VALIDTIME": "2024-08-27 00:00:00" }, "geometry": { "type": "Point", "coordinates": [ -162.300003, 19.4 ] } },
{ "type": "Feature", "properties": { "ID": 248121, "LAT": 19.7, "LON": -163.6, "VMAX": 50.0, "MSLP": 1000.0, "RMAX": 10.0, "FSPD": 6.3153, "FDIR": 274.6724, "RENV": 90.0, "PENV": 1012.0, "VALIDT": 0, "DTG": "2024-08-27 06:00", "LATNOW": 26.1, "LONNOW": -179.8, "WINDNOW": 35.0, "DIRNOW": 9.0, "SPDNOW": 3.0, "TECH": "TRAK", "ADVNR": null, "ATCFID": "CP012024", "NAME": "HONE", "FTECH": "OFCL", "FCST_DTG": "2024-09-01 18:00:00", "RUN_DTG": "2024-09-02 08:13:57", "BASIN": "CP", "STMNR": 1, "CAT_ID": null, "CAT_DESC": null, "MSGID": null, "VALIDTIME": "2024-08-27 06:00:00" }, "geometry": { "type": "Point", "coordinates": [ -163.600006, 19.700001 ] } },
{ "type": "Feature", "properties": { "ID": 248122, "LAT": 19.8, "LON": -164.9, "VMAX": 45.0, "MSLP": 1002.0, "RMAX": 15.0, "FSPD": 4.00427, "FDIR": 284.8891, "RENV": 100.0, "PENV": 1012.0, "VALIDT": 0, "DTG": "2024-08-27 12:00", "LATNOW": 26.1, "LONNOW": -179.8, "WINDNOW": 35.0, "DIRNOW": 9.0, "SPDNOW": 3.0, "TECH": "TRAK", "ADVNR": null, "ATCFID": "CP012024", "NAME": "HONE", "FTECH": "OFCL", "FCST_DTG": "2024-09-01 18:00:00", "RUN_DTG": "2024-09-02 08:13:57", "BASIN": "CP", "STMNR": 1, "CAT_ID": null, "CAT_DESC": null, "MSGID": null, "VALIDTIME": "2024-08-27 12:00:00" }, "geometry": { "type": "Point", "coordinates": [ -164.899994, 19.799999 ] } },
{ "type": "Feature", "properties": { "ID": 248123, "LAT": 20.0, "LON": -165.7, "VMAX": 45.0, "MSLP": 1002.0, "RMAX": 15.0, "FSPD": 3.99952, "FDIR": 284.90717, "RENV": 90.0, "PENV": 1012.0, "VALIDT": 0, "DTG": "2024-08-27 18:00", "LATNOW": 26.1, "LONNOW": -179.8, "WINDNOW": 35.0, "DIRNOW": 9.0, "SPDNOW": 3.0, "TECH": "TRAK", "ADVNR": null, "ATCFID": "CP012024", "NAME": "HONE", "FTECH": "OFCL", "FCST_DTG": "2024-09-01 18:00:00", "RUN_DTG": "2024-09-02 08:13:57", "BASIN": "CP", "STMNR": 1, "CAT_ID": null, "CAT_DESC": null, "MSGID": null, "VALIDTIME": "2024-08-27 18:00:00" }, "geometry": { "type": "Point", "coordinates": [ -165.699997, 20.0 ] } },
{ "type": "Feature", "properties": { "ID": 248124, "LAT": 20.2, "LON": -166.5, "VMAX": 45.0, "MSLP": 1002.0, "RMAX": 15.0, "FSPD": 3.89531, "FDIR": 277.58893, "RENV": 90.0, "PENV": 1012.0, "VALIDT": 0, "DTG": "2024-08-28 00:00", "LATNOW": 26.1, "LONNOW": -179.8, "WINDNOW": 35.0, "DIRNOW": 9.0, "SPDNOW": 3.0, "TECH": "TRAK", "ADVNR": null, "ATCFID": "CP012024", "NAME": "HONE", "FTECH": "OFCL", "FCST_DTG": "2024-09-01 18:00:00", "RUN_DTG": "2024-09-02 08:13:57", "BASIN": "CP", "STMNR": 1, "CAT_ID": null, "CAT_DESC": null, "MSGID": null, "VALIDTIME": "2024-08-28 00:00:00" }, "geometry": { "type": "Point", "coordinates": [ -166.5, 20.200001 ] } },
{ "type": "Feature", "properties": { "ID": 248125, "LAT": 20.3, "LON": -167.3, "VMAX": 45.0, "MSLP": 1002.0, "RMAX": 30.0, "FSPD": 4.37137, "FDIR": 276.7585, "RENV": 120.0, "PENV": 1013.0, "VALIDT": 0, "DTG": "2024-08-28 06:00", "LATNOW": 26.1, "LONNOW": -179.8, "WINDNOW": 35.0, "DIRNOW": 9.0, "SPDNOW": 3.0, "TECH": "TRAK", "ADVNR": null, "ATCFID": "CP012024", "NAME": "HONE", "FTECH": "OFCL", "FCST_DTG": "2024-09-01 18:00:00", "RUN_DTG": "2024-09-02 08:13:57", "BASIN": "CP", "STMNR": 1, "CAT_ID": null, "CAT_DESC": null, "MSGID": null, "VALIDTIME": "2024-08-28 06:00:00" }, "geometry": { "type": "Point", "coordinates": [ -167.300003, 20.299999 ] } },
{ "type": "Feature", "properties": { "ID": 248126, "LAT": 20.4, "LON": -168.2, "VMAX": 45.0, "MSLP": 1002.0, "RMAX": 40.0, "FSPD": 2.61983, "FDIR": 293.12466, "RENV": 120.0, "PENV": 1012.0, "VALIDT": 0, "DTG": "2024-08-28 12:00", "LATNOW": 26.1, "LONNOW": -179.8, "WINDNOW": 35.0, "DIRNOW": 9.0, "SPDNOW": 3.0, "TECH": "TRAK", "ADVNR": null, "ATCFID": "CP012024", "NAME": "HONE", "FTECH": "OFCL", "FCST_DTG": "2024-09-01 18:00:00", "RUN_DTG": "2024-09-02 08:13:57", "BASIN": "CP", "STMNR": 1, "CAT_ID": null, "CAT_DESC": null, "MSGID": null, "VALIDTIME": "2024-08-28 12:00:00" }, "geometry": { "type": "Point", "coordinates": [ -168.199997, 20.4 ] } },
{ "type": "Feature", "properties": { "ID": 248127, "LAT": 20.6, "LON": -168.7, "VMAX": 45.0, "MSLP": 1002.0, "RMAX": 40.0, "FSPD": 4.84134, "FDIR": 276.0998, "RENV": 120.0, "PENV": 1012.0, "VALIDT": 0, "DTG": "2024-08-28 18:00", "LATNOW": 26.1, "LONNOW": -179.8, "WINDNOW": 35.0, "DIRNOW": 9.0, "SPDNOW": 3.0, "TECH": "TRAK", "ADVNR": null, "ATCFID": "CP012024", "NAME": "HONE", "FTECH": "OFCL", "FCST_DTG": "2024-09-01 18:00:00", "RUN_DTG": "2024-09-02 08:13:57", "BASIN": "CP", "STMNR": 1, "CAT_ID": null, "CAT_DESC": null, "MSGID": null, "VALIDTIME": "2024-08-28 18:00:00" }, "geometry": { "type": "Point", "coordinates": [ -168.699997, 20.6 ] } },
{ "type": "Feature", "properties": { "ID": 248128, "LAT": 20.7, "LON": -169.7, "VMAX": 45.0, "MSLP": 1002.0, "RMAX": 30.0, "FSPD": 4.81234, "FDIR": 269.99997, "RENV": 120.0, "PENV": 1012.0, "VALIDT": 0, "DTG": "2024-08-29 00:00", "LATNOW": 26.1, "LONNOW": -179.8, "WINDNOW": 35.0, "DIRNOW": 9.0, "SPDNOW": 3.0, "TECH": "TRAK", "ADVNR": null, "ATCFID": "CP012024", "NAME": "HONE", "FTECH": "OFCL", "FCST_DTG": "2024-09-01 18:00:00", "RUN_DTG": "2024-09-02 08:13:57", "BASIN": "CP", "STMNR": 1, "CAT_ID": null, "CAT_DESC": null, "MSGID": null, "VALIDTIME": "2024-08-29 00:00:00" }, "geometry": { "type": "Point", "coordinates": [ -169.699997, 20.700001 ] } },
{ "type": "Feature", "properties": { "ID": 248129, "LAT": 20.7, "LON": -170.7, "VMAX": 40.0, "MSLP": 1004.0, "RMAX": 30.0, "FSPD": 4.4489, "FDIR": 283.37164, "RENV": 100.0, "PENV": 1012.0, "VALIDT": 0, "DTG": "2024-08-29 06:00", "LATNOW": 26.1, "LONNOW": -179.8, "WINDNOW": 35.0, "DIRNOW": 9.0, "SPDNOW": 3.0, "TECH": "TRAK", "ADVNR": null, "ATCFID": "CP012024", "NAME": "HONE", "FTECH": "OFCL", "FCST_DTG": "2024-09-01 18:00:00", "RUN_DTG": "2024-09-02 08:13:57", "BASIN": "CP", "STMNR": 1, "CAT_ID": null, "CAT_DESC": null, "MSGID": null, "VALIDTIME": "2024-08-29 06:00:00" }, "geometry": { "type": "Point", "coordinates": [ -170.699997, 20.700001 ] } },
{ "type": "Feature", "properties": { "ID": 248130, "LAT": 20.9, "LON": -171.6, "VMAX": 35.0, "MSLP": 1006.0, "RMAX": 30.0, "FSPD": 3.16122, "FDIR": 310.6128, "RENV": 100.0, "PENV": 1013.0, "VALIDT": 0, "DTG": "2024-08-29 12:00", "LATNOW": 26.1, "LONNOW": -179.8, "WINDNOW": 35.0, "DIRNOW": 9.0, "SPDNOW": 3.0, "TECH": "TRAK", "ADVNR": null, "ATCFID": "CP012024", "NAME": "HONE", "FTECH": "OFCL", "FCST_DTG": "2024-09-01 18:00:00", "RUN_DTG": "2024-09-02 08:13:57", "BASIN": "CP", "STMNR": 1, "CAT_ID": null, "CAT_DESC": null, "MSGID": null, "VALIDTIME": "2024-08-29 12:00:00" }, "geometry": { "type": "Point", "coordinates": [ -171.600006, 20.9 ] } },
{ "type": "Feature", "properties": { "ID": 248131, "LAT": 21.3, "LON": -172.1, "VMAX": 35.0, "MSLP": 1006.0, "RMAX": 30.0, "FSPD": 4.34281, "FDIR": 276.80316, "RENV": 110.0, "PENV": 1013.0, "VALIDT": 0, "DTG": "2024-08-29 18:00", "LATNOW": 26.1, "LONNOW": -179.8, "WINDNOW": 35.0, "DIRNOW": 9.0, "SPDNOW": 3.0, "TECH": "TRAK", "ADVNR": null, "ATCFID": "CP012024", "NAME": "HONE", "FTECH": "OFCL", "FCST_DTG": "2024-09-01 18:00:00", "RUN_DTG": "2024-09-02 08:13:57", "BASIN": "CP", "STMNR": 1, "CAT_ID": null, "CAT_DESC": null, "MSGID": null, "VALIDTIME": "2024-08-29 18:00:00" }, "geometry": { "type": "Point", "coordinates": [ -172.100006, 21.299999 ] } },
{ "type": "Feature", "properties": { "ID": 248132, "LAT": 21.4, "LON": -173.0, "VMAX": 30.0, "MSLP": 1008.0, "RMAX": 30.0, "FSPD": 3.39092, "FDIR": 278.72617, "RENV": 100.0, "PENV": 1013.0, "VALIDT": 0, "DTG": "2024-08-30 00:00", "LATNOW": 26.1, "LONNOW": -179.8, "WINDNOW": 35.0, "DIRNOW": 9.0, "SPDNOW": 3.0, "TECH": "TRAK", "ADVNR": null, "ATCFID": "CP012024", "NAME": "HONE", "FTECH": "OFCL", "FCST_DTG": "2024-09-01 18:00:00", "RUN_DTG": "2024-09-02 08:13:57", "BASIN": "CP", "STMNR": 1, "CAT_ID": null, "CAT_DESC": null, "MSGID": null, "VALIDTIME": "2024-08-30 00:00:00" }, "geometry": { "type": "Point", "coordinates": [ -173.0, 21.4 ] } },
{ "type": "Feature", "properties": { "ID": 248133, "LAT": 21.5, "LON": -173.7, "VMAX": 30.0, "MSLP": 1008.0, "RMAX": 30.0, "FSPD": 3.50274, "FDIR": 287.08197, "RENV": 100.0, "PENV": 1013.0, "VALIDT": 0, "DTG": "2024-08-30 06:00", "LATNOW": 26.1, "LONNOW": -179.8, "WINDNOW": 35.0, "DIRNOW": 9.0, "SPDNOW": 3.0, "TECH": "TRAK", "ADVNR": null, "ATCFID": "CP012024", "NAME": "HONE", "FTECH": "OFCL", "FCST_DTG": "2024-09-01 18:00:00", "RUN_DTG": "2024-09-02 08:13:57", "BASIN": "CP", "STMNR": 1, "CAT_ID": null, "CAT_DESC": null, "MSGID": null, "VALIDTIME": "2024-08-30 06:00:00" }, "geometry": { "type": "Point", "coordinates": [ -173.699997, 21.5 ] } },
{ "type": "Feature", "properties": { "ID": 248134, "LAT": 21.7, "LON": -174.4, "VMAX": 30.0, "MSLP": 1008.0, "RMAX": 30.0, "FSPD": 4.33109, "FDIR": 276.82153, "RENV": 100.0, "PENV": 1013.0, "VALIDT": 0, "DTG": "2024-08-30 12:00", "LATNOW": 26.1, "LONNOW": -179.8, "WINDNOW": 35.0, "DIRNOW": 9.0, "SPDNOW": 3.0, "TECH": "TRAK", "ADVNR": null, "ATCFID": "CP012024", "NAME": "HONE", "FTECH": "OFCL", "FCST_DTG": "2024-09-01 18:00:00", "RUN_DTG": "2024-09-02 08:13:57", "BASIN": "CP", "STMNR": 1, "CAT_ID": null, "CAT_DESC": null, "MSGID": null, "VALIDTIME": "2024-08-30 12:00:00" }, "geometry": { "type": "Point", "coordinates": [ -174.399994, 21.700001 ] } },
{ "type": "Feature", "properties": { "ID": 248143, "LAT": 26.1, "LON": -179.8, "VMAX": 35.0, "MSLP": 1007.0, "RMAX": 60.0, "FSPD": 8.55959, "FDIR": 283.9104, "RENV": 150.0, "PENV": 1012.0, "VALIDT": 0, "DTG": "2024-09-01 18:00", "LATNOW": 26.1, "LONNOW": -179.8, "WINDNOW": 35.0, "DIRNOW": 9.0, "SPDNOW": 3.0, "TECH": "TRAK", "ADVNR": null, "ATCFID": "CP012024", "NAME": "HONE", "FTECH": "OFCL", "FCST_DTG": "2024-09-01 18:00:00", "RUN_DTG": "2024-09-02 08:13:57", "BASIN": "CP", "STMNR": 1, "CAT_ID": null, "CAT_DESC": null, "MSGID": null, "VALIDTIME": "2024-09-01 18:00:00" }, "geometry": { "type": "LineString", "coordinates": [ [ -131.7, 13.7 ], [ -132.0, 13.9 ], [ -132.5, 14.4 ], [ -132.8, 14.8 ], [ -133.4, 14.9 ], [ -134.6, 15.4 ], [ -136.0, 15.5 ], [ -137.5, 15.5 ], [ -138.8, 15.4 ], [ -140.3, 15.4 ], [ -141.6, 15.7 ], [ -142.8, 15.7 ], [ -144.1, 15.9 ], [ -145.5, 16.2 ], [ -147.0, 16.6 ], [ -148.6, 16.8 ], [ -149.9, 17.2 ], [ -151.3, 17.4 ], [ -152.6, 17.6 ], [ -153.8, 17.9 ], [ -154.8, 18.1 ], [ -155.7, 18.1 ], [ -156.8, 18.6 ], [ -157.9, 18.9 ], [ -159.1, 19.2 ], [ -160.4, 19.3 ], [ -161.1, 19.1 ], [ -162.3, 19.4 ], [ -163.6, 19.7 ], [ -164.9, 19.8 ], [ -165.7, 20.0 ], [ -166.5, 20.2 ], [ -167.3, 20.3 ], [ -168.2, 20.4 ], [ -168.7, 20.6 ], [ -169.7, 20.7 ], [ -170.7, 20.7 ], [ -171.6, 20.9 ], [ -172.1, 21.3 ], [ -173.0, 21.4 ], [ -173.7, 21.5 ], [ -174.4, 21.7 ], [ -175.3, 21.8 ], [ -175.9, 21.9 ], [ -175.7, 22.2 ], [ -175.8, 22.3 ], [ -176.2, 22.4 ], [ -176.5, 23.4 ], [ -176.5, 23.9 ], [ -176.8, 24.8 ], [ -179.8, 26.1 ] ] } },
{ "type": "Feature", "properties": { "ID": 248152, "LAT": 33.2, "LON": 176.1, "VMAX": 20.0, "MSLP": 1012.95825, "RMAX": 65.24745, "FSPD": 1.67852, "FDIR": 299.8706, "RENV": 250.0, "PENV": 1012.0, "VALIDT": 96, "DTG": "2024-09-05 18:00", "LATNOW": 26.1, "LONNOW": -179.8, "WINDNOW": 35.0, "DIRNOW": 9.0, "SPDNOW": 3.0, "TECH": "FCST", "ADVNR": null, "ATCFID": "CP012024", "NAME": "HONE", "FTECH": "OFCL", "FCST_DTG": "2024-09-01 18:00:00", "RUN_DTG": "2024-09-02 08:13:57", "BASIN": "CP", "STMNR": 1, "CAT_ID": null, "CAT_DESC": null, "MSGID": null, "VALIDTIME": "2024-09-05 18:00:00" }, "geometry": { "type": "LineString", "coordinates": [ [ -179.8, 26.1 ], [ 179.3, 26.3 ], [ 178.8, 26.6 ], [ 178.5, 27.1 ], [ 179.2, 28.5 ], [ 179.9, 29.8 ], [ 179.0, 31.1 ], [ 177.8, 32.1 ], [ 176.77501, 32.875 ], [ 176.1, 33.2 ] ] } }
]
}
