{
"type": "FeatureCollection",
"crs": { "type": "name", "properties": { "name": "urn:ogc:def:crs:OGC:1.3:CRS84" } },
"features": [
{ "type": "Feature", "properties": { "ID": 37834, "LAT": 12.6, "LON": 126.2, "VMAX": 15.0, "MSLP": 1013.8515, "RMAX": 40.0, "FSPD": 1.43737, "FDIR": 315.7099, "RENV": 500.0, "PENV": 1012.0, "VALIDT": 0, "DTG": "2025-09-14 18:00", "LATNOW": 23.4, "LONNOW": 114.7, "WINDNOW": 30.0, "DIRNOW": 3.0, "SPDNOW": 3.0, "TECH": "TRAK", "ADVNR": 12, "ATCFID": "WP232025", "NAME": "MITAG", "FTECH": "JTWC", "FCST_DTG": "2025-09-19 00:00:00", "RUN_DTG": "2025-09-19 21:36:31", "BASIN": "WP", "STMNR": 23, "CAT_ID": null, "CAT_DESC": null, "MSGID": "WTPN51 PGTW 190300", "VALIDTIME": "2025-09-14 18:00:00" }, "geometry": { "type": "Point", "coordinates": [ 126.199997, 12.6 ] } },
{ "type": "Feature", "properties": { "ID": 37835, "LAT": 12.8, "LON": 126.0, "VMAX": 15.0, "MSLP": 1013.8515, "RMAX": 40.0, "FSPD": 1.43681, "FDIR": 315.73264, "RENV": 500.0, "PENV": 1012.0, "VALIDT": 0, "DTG": "2025-09-15 00:00", "LATNOW": 23.4, "LONNOW": 114.7, "WINDNOW": 30.0, "DIRNOW": 3.0, "SPDNOW": 3.0, "TECH": "TRAK", "ADVNR": 12, "ATCFID": "WP232025", "NAME": "MITAG", "FTECH": "JTWC", "FCST_DTG": "2025-09-19 00:00:00", "RUN_DTG": "2025-09-19 21:36:31", "BASIN": "WP", "STMNR": 23, "CAT_ID": null, "CAT_DESC": null, "MSGID": "WTPN51 PGTW 190300", "VALIDTIME": "2025-09-15 00:00:00" }, "geometry": { "type": "Point", "coordinates": [ 126.0, 12.8 ] } },
{ "type": "Feature", "properties": { "ID": 37836, "LAT": 13.0, "LON": 125.8, "VMAX": 15.0, "MSLP": 1013.8515, "RMAX": 40.0, "FSPD": 1.43628, "FDIR": 315.75464, "RENV": 500.0, "PENV": 1012.0, "VALIDT": 0, "DTG": "2025-09-15 06:00", "LATNOW": 23.4, "LONNOW": 114.7, "WINDNOW": 30.0, "DIRNOW": 3.0, "SPDNOW": 3.0, "TECH": "TRAK", "ADVNR": 12, "ATCFID": "WP232025", "NAME": "MITAG", "FTECH": "JTWC", "FCST_DTG": "2025-09-19 00:00:00", "RUN_DTG": "2025-09-19 21:36:31", "BASIN": "WP", "STMNR": 23, "CAT_ID": null, "CAT_DESC": null, "MSGID": "WTPN51 PGTW 190300", "VALIDTIME": "2025-09-15 06:00:00" }, "geometry": { "type": "Point", "coordinates": [ 125.800003, 13.0 ] } },
{ "type": "Feature", "properties": { "ID": 37837, "LAT": 13.2, "LON": 125.6, "VMAX": 15.0, "MSLP": 1013.8515, "RMAX": 40.0, "FSPD": 3.58813, "FDIR": 315.79657, "RENV": 500.0, "PENV": 1012.0, "VALIDT": 0, "DTG": "2025-09-15 12:00", "LATNOW": 23.4, "LONNOW": 114.7, "WINDNOW": 30.0, "DIRNOW": 3.0, "SPDNOW": 3.0, "TECH": "TRAK", "ADVNR": 12, "ATCFID": "WP232025", "NAME": "MITAG", "FTECH": "JTWC", "FCST_DTG": "2025-09-19 00:00:00", "RUN_DTG": "2025-09-19 21:36:31", "BASIN": "WP", "STMNR": 23, "CAT_ID": null, "CAT_DESC": null, "MSGID": "WTPN51 PGTW 190300", "VALIDTIME": "2025-09-15 12:00:00" }, "geometry": { "type": "Point", "coordinates": [ 125.599998, 13.2 ] } },
{ "type": "Feature", "properties": { "ID": 37838, "LAT": 13.7, "LON": 125.1, "VMAX": 20.0, "MSLP": 1012.95825, "RMAX": 45.0, "FSPD": 5.51317, "FDIR": 327.11987, "RENV": 500.0, "PENV": 1012.0, "VALIDT": 0, "DTG": "2025-09-15 18:00", "LATNOW": 23.4, "LONNOW": 114.7, "WINDNOW": 30.0, "DIRNOW": 3.0, "SPDNOW": 3.0, "TECH": "TRAK", "ADVNR": 12, "ATCFID": "WP232025", "NAME": "MITAG", "FTECH": "JTWC", "FCST_DTG": "2025-09-19 00:00:00", "RUN_DTG": "2025-09-19 21:36:31", "BASIN": "WP", "STMNR": 23, "CAT_ID": null, "CAT_DESC": null, "MSGID": "WTPN51 PGTW 190300", "VALIDTIME": "2025-09-15 18:00:00" }, "geometry": { "type": "Point", "coordinates": [ 125.099998, 13.7 ] } },
{ "type": "Feature", "properties": { "ID": 37839, "LAT": 14.6, "LON": 124.5, "VMAX": 20.0, "MSLP": 1012.95825, "RMAX": 45.0, "FSPD": 6.79101, "FDIR": 312.98315, "RENV": 500.0, "PENV": 1012.0, "VALIDT": 0, "DTG": "2025-09-16 00:00", "LATNOW": 23.4, "LONNOW": 114.7, "WINDNOW": 30.0, "DIRNOW": 3.0, "SPDNOW": 3.0, "TECH": "TRAK", "ADVNR": 12, "ATCFID": "WP232025", "NAME": "MITAG", "FTECH": "JTWC", "FCST_DTG": "2025-09-19 00:00:00", "RUN_DTG": "2025-09-19 21:36:31", "BASIN": "WP", "STMNR": 23, "CAT_ID": null, "CAT_DESC": null, "MSGID": "WTPN51 PGTW 190300", "VALIDTIME": "2025-09-16 00:00:00" }, "geometry": { "type": "Point", "coordinates": [ 124.5, 14.6 ] } },
{ "type": "Feature", "properties": { "ID": 37840, "LAT": 15.5, "LON": 123.5, "VMAX": 25.0, "MSLP": 1008.0, "RMAX": 20.0, "FSPD": 3.61445, "FDIR": 304.70273, "RENV": 150.0, "PENV": 1010.0, "VALIDT": 0, "DTG": "2025-09-16 06:00", "LATNOW": 23.4, "LONNOW": 114.7, "WINDNOW": 30.0, "DIRNOW": 3.0, "SPDNOW": 3.0, "TECH": "TRAK", "ADVNR": 12, "ATCFID": "WP232025", "NAME": "MITAG", "FTECH": "JTWC", "FCST_DTG": "2025-09-19 00:00:00", "RUN_DTG": "2025-09-19 21:36:31", "BASIN": "WP", "STMNR": 23, "CAT_ID": null, "CAT_DESC": null, "MSGID": "WTPN51 PGTW 190300", "VALIDTIME": "2025-09-16 06:00:00" }, "geometry": { "type": "Point", "coordinates": [ 123.5, 15.5 ] } },
{ "type": "Feature", "properties": { "ID": 37841, "LAT": 15.9, "LON": 122.9, "VMAX": 30.0, "MSLP": 1008.0, "RMAX": 20.0, "FSPD": 3.6113, "FDIR": 286.55338, "RENV": 150.0, "PENV": 1010.0, "VALIDT": 0, "DTG": "2025-09-16 12:00", "LATNOW": 23.4, "LONNOW": 114.7, "WINDNOW": 30.0, "DIRNOW": 3.0, "SPDNOW": 3.0, "TECH": "TRAK", "ADVNR": 12, "ATCFID": "WP232025", "NAME": "MITAG", "FTECH": "JTWC", "FCST_DTG": "2025-09-19 00:00:00", "RUN_DTG": "2025-09-19 21:36:31", "BASIN": "WP", "STMNR": 23, "CAT_ID": null, "CAT_DESC": null, "MSGID": "WTPN51 PGTW 190300", "VALIDTIME": "2025-09-16 12:00:00" }, "geometry": { "type": "Point", "coordinates": [ 122.900002, 15.9 ] } },
{ "type": "Feature", "properties": { "ID": 37842, "LAT": 16.1, "LON": 122.2, "VMAX": 45.0, "MSLP": 1006.0, "RMAX": 20.0, "FSPD": 4.56525, "FDIR": 334.3553, "RENV": 90.0, "PENV": 1009.0, "VALIDT": 0, "DTG": "2025-09-16 18:00", "LATNOW": 23.4, "LONNOW": 114.7, "WINDNOW": 30.0, "DIRNOW": 3.0, "SPDNOW": 3.0, "TECH": "TRAK", "ADVNR": 12, "ATCFID": "WP232025", "NAME": "MITAG", "FTECH": "JTWC", "FCST_DTG": "2025-09-19 00:00:00", "RUN_DTG": "2025-09-19 21:36:31", "BASIN": "WP", "STMNR": 23, "CAT_ID": null, "CAT_DESC": null, "MSGID": "WTPN51 PGTW 190300", "VALIDTIME": "2025-09-16 18:00:00" }, "geometry": { "type": "Point", "coordinates": [ 122.199997, 16.1 ] } },
{ "type": "Feature", "properties": { "ID": 37843, "LAT": 16.34, "LON": 122.08, "VMAX": 45.0, "MSLP": 1006.0, "RMAX": 20.0, "FSPD": 4.56353, "FDIR": 334.40045, "RENV": 90.0, "PENV": 1009.0, "VALIDT": 0, "DTG": "2025-09-16 19:00", "LATNOW": 23.4, "LONNOW": 114.7, "WINDNOW": 30.0, "DIRNOW": 3.0, "SPDNOW": 3.0, "TECH": "TRAK", "ADVNR": 12, "ATCFID": "WP232025", "NAME": "MITAG", "FTECH": "JTWC", "FCST_DTG": "2025-09-19 00:00:00", "RUN_DTG": "2025-09-19 21:36:31", "BASIN": "WP", "STMNR": 23, "CAT_ID": null, "CAT_DESC": null, "MSGID": "WTPN51 PGTW 190300", "VALIDTIME": "2025-09-16 19:00:00" }, "geometry": { "type": "Point", "coordinates": [ 122.080002, 16.34 ] } },
{ "type": "Feature", "properties": { "ID": 37844, "LAT": 16.9, "LON": 121.8, "VMAX": 30.0, "MSLP": 999.0, "RMAX": 15.0, "FSPD": 5.92798, "FDIR": 330.2067, "RENV": 90.0, "PENV": 1009.0, "VALIDT": 0, "DTG": "2025-09-17 00:00", "LATNOW": 23.4, "LONNOW": 114.7, "WINDNOW": 30.0, "DIRNOW": 3.0, "SPDNOW": 3.0, "TECH": "TRAK", "ADVNR": 12, "ATCFID": "WP232025", "NAME": "MITAG", "FTECH": "JTWC", "FCST_DTG": "2025-09-19 00:00:00", "RUN_DTG": "2025-09-19 21:36:31", "BASIN": "WP", "STMNR": 23, "CAT_ID": null, "CAT_DESC": null, "MSGID": "WTPN51 PGTW 190300", "VALIDTIME": "2025-09-17 00:00:00" }, "geometry": { "type": "Point", "coordinates": [ 121.800003, 16.9 ] } },
{ "type": "Feature", "properties": { "ID": 37845, "LAT": 17.9, "LON": 121.2, "VMAX": 30.0, "MSLP": 1003.0, "RMAX": 15.0, "FSPD": 4.9663, "FDIR": 316.478, "RENV": 110.0, "PENV": 1007.0, "VALIDT": 0, "DTG": "2025-09-17 06:00", "LATNOW": 23.4, "LONNOW": 114.7, "WINDNOW": 30.0, "DIRNOW": 3.0, "SPDNOW": 3.0, "TECH": "TRAK", "ADVNR": 12, "ATCFID": "WP232025", "NAME": "MITAG", "FTECH": "JTWC", "FCST_DTG": "2025-09-19 00:00:00", "RUN_DTG": "2025-09-19 21:36:31", "BASIN": "WP", "STMNR": 23, "CAT_ID": null, "CAT_DESC": null, "MSGID": "WTPN51 PGTW 190300", "VALIDTIME": "2025-09-17 06:00:00" }, "geometry": { "type": "Point", "coordinates": [ 121.199997, 17.9 ] } },
{ "type": "Feature", "properties": { "ID": 37846, "LAT": 18.6, "LON": 120.5, "VMAX": 25.0, "MSLP": 1003.0, "RMAX": 15.0, "FSPD": 3.09947, "FDIR": 289.38745, "RENV": 100.0, "PENV": 1006.0, "VALIDT": 0, "DTG": "2025-09-17 12:00", "LATNOW": 23.4, "LONNOW": 114.7, "WINDNOW": 30.0, "DIRNOW": 3.0, "SPDNOW": 3.0, "TECH": "TRAK", "ADVNR": 12, "ATCFID": "WP232025", "NAME": "MITAG", "FTECH": "JTWC", "FCST_DTG": "2025-09-19 00:00:00", "RUN_DTG": "2025-09-19 21:36:31", "BASIN": "WP", "STMNR": 23, "CAT_ID": null, "CAT_DESC": null, "MSGID": "WTPN51 PGTW 190300", "VALIDTIME": "2025-09-17 12:00:00" }, "geometry": { "type": "Point", "coordinates": [ 120.5, 18.6 ] } },
{ "type": "Feature", "properties": { "ID": 37847, "LAT": 18.8, "LON": 119.9, "VMAX": 25.0, "MSLP": 1003.0, "RMAX": 15.0, "FSPD": 7.07386, "FDIR": 316.65607, "RENV": 100.0, "PENV": 1006.0, "VALIDT": 0, "DTG": "2025-09-17 18:00", "LATNOW": 23.4, "LONNOW": 114.7, "WINDNOW": 30.0, "DIRNOW": 3.0, "SPDNOW": 3.0, "TECH": "TRAK", "ADVNR": 12, "ATCFID": "WP232025", "NAME": "MITAG", "FTECH": "JTWC", "FCST_DTG": "2025-09-19 00:00:00", "RUN_DTG": "2025-09-19 21:36:31", "BASIN": "WP", "STMNR": 23, "CAT_ID": null, "CAT_DESC": null, "MSGID": "WTPN51 PGTW 190300", "VALIDTIME": "2025-09-17 18:00:00" }, "geometry": { "type": "Point", "coordinates": [ 119.900002, 18.799999 ] } },
{ "type": "Feature", "properties": { "ID": 37848, "LAT": 19.8, "LON": 118.9, "VMAX": 30.0, "MSLP": 1003.0, "RMAX": 35.0, "FSPD": 7.27639, "FDIR": 274.05423, "RENV": 120.0, "PENV": 1006.0, "VALIDT": 0, "DTG": "2025-09-18 00:00", "LATNOW": 23.4, "LONNOW": 114.7, "WINDNOW": 30.0, "DIRNOW": 3.0, "SPDNOW": 3.0, "TECH": "TRAK", "ADVNR": 12, "ATCFID": "WP232025", "NAME": "MITAG", "FTECH": "JTWC", "FCST_DTG": "2025-09-19 00:00:00", "RUN_DTG": "2025-09-19 21:36:31", "BASIN": "WP", "STMNR": 23, "CAT_ID": null, "CAT_DESC": null, "MSGID": "WTPN51 PGTW 190300", "VALIDTIME": "2025-09-18 00:00:00" }, "geometry": { "type": "Point", "coordinates": [ 118.900002, 19.799999 ] } },
{ "type": "Feature", "properties": { "ID": 37849, "LAT": 19.9, "LON": 117.4, "VMAX": 30.0, "MSLP": 1003.0, "RMAX": 35.0, "FSPD": 3.07759, "FDIR": 289.531, "RENV": 115.0, "PENV": 1006.0, "VALIDT": 0, "DTG": "2025-09-18 06:00", "LATNOW": 23.4, "LONNOW": 114.7, "WINDNOW": 30.0, "DIRNOW": 3.0, "SPDNOW": 3.0, "TECH": "TRAK", "ADVNR": 12, "ATCFID": "WP232025", "NAME": "MITAG", "FTECH": "JTWC", "FCST_DTG": "2025-09-19 00:00:00", "RUN_DTG": "2025-09-19 21:36:31", "BASIN": "WP", "STMNR": 23, "CAT_ID": null, "CAT_DESC": null, "MSGID": "WTPN51 PGTW 190300", "VALIDTIME": "2025-09-18 06:00:00" }, "geometry": { "type": "Point", "coordinates": [ 117.400002, 19.9 ] } },
{ "type": "Feature", "properties": { "ID": 37850, "LAT": 20.1, "LON": 116.8, "VMAX": 35.0, "MSLP": 1002.0, "RMAX": 35.0, "FSPD": 6.3399, "FDIR": 346.83716, "RENV": 90.0, "PENV": 1006.0, "VALIDT": 0, "DTG": "2025-09-18 12:00", "LATNOW": 23.4, "LONNOW": 114.7, "WINDNOW": 30.0, "DIRNOW": 3.0, "SPDNOW": 3.0, "TECH": "TRAK", "ADVNR": 12, "ATCFID": "WP232025", "NAME": "MITAG", "FTECH": "JTWC", "FCST_DTG": "2025-09-19 00:00:00", "RUN_DTG": "2025-09-19 21:36:31", "BASIN": "WP", "STMNR": 23, "CAT_ID": null, "CAT_DESC": null, "MSGID": "WTPN51 PGTW 190300", "VALIDTIME": "2025-09-18 12:00:00" }, "geometry": { "type": "Point", "coordinates": [ 116.800003, 20.1 ] } },
{ "type": "Feature", "properties": { "ID": 37851, "LAT": 21.3, "LON": 116.5, "VMAX": 40.0, "MSLP": 1002.0, "RMAX": 35.0, "FSPD": 6.13553, "FDIR": 326.97864, "RENV": 90.0, "PENV": 1006.0, "VALIDT": 0, "DTG": "2025-09-18 18:00", "LATNOW": 23.4, "LONNOW": 114.7, "WINDNOW": 30.0, "DIRNOW": 3.0, "SPDNOW": 3.0, "TECH": "TRAK", "ADVNR": 12, "ATCFID": "WP232025", "NAME": "MITAG", "FTECH": "JTWC", "FCST_DTG": "2025-09-19 00:00:00", "RUN_DTG": "2025-09-19 21:36:31", "BASIN": "WP", "STMNR": 23, "CAT_ID": null, "CAT_DESC": null, "MSGID": "WTPN51 PGTW 190300", "VALIDTIME": "2025-09-18 18:00:00" }, "geometry": { "type": "Point", "coordinates": [ 116.5, 21.299999 ] } },
{ "type": "Feature", "properties": { "ID": 37852, "LAT": 22.3, "LON": 115.8, "VMAX": 45.0, "MSLP": 997.0, "RMAX": 40.0, "FSPD": 3.19814, "FDIR": 323.54156, "RENV": 90.0, "PENV": 1006.0, "VALIDT": 0, "DTG": "2025-09-19 00:00", "LATNOW": 23.4, "LONNOW": 114.7, "WINDNOW": 30.0, "DIRNOW": 3.0, "SPDNOW": 3.0, "TECH": "TRAK", "ADVNR": 12, "ATCFID": "WP232025", "NAME": "MITAG", "FTECH": "JTWC", "FCST_DTG": "2025-09-19 00:00:00", "RUN_DTG": "2025-09-19 21:36:31", "BASIN": "WP", "STMNR": 23, "CAT_ID": null, "CAT_DESC": null, "MSGID": "WTPN51 PGTW 190300", "VALIDTIME": "2025-09-19 00:00:00" }, "geometry": { "type": "Point", "coordinates": [ 115.800003, 22.299999 ] } },
{ "type": "Feature", "properties": { "ID": 37853, "LAT": 22.8, "LON": 115.4, "VMAX": 40.0, "MSLP": 994.0, "RMAX": 35.0, "FSPD": 4.53244, "FDIR": 312.92267, "RENV": 90.0, "PENV": 1006.0, "VALIDT": 0, "DTG": "2025-09-19 06:00", "LATNOW": 23.4, "LONNOW": 114.7, "WINDNOW": 30.0, "DIRNOW": 3.0, "SPDNOW": 3.0, "TECH": "TRAK", "ADVNR": 12, "ATCFID": "WP232025", "NAME": "MITAG", "FTECH": "JTWC", "FCST_DTG": "2025-09-19 00:00:00", "RUN_DTG": "2025-09-19 21:36:31", "BASIN": "WP", "STMNR": 23, "CAT_ID": null, "CAT_DESC": null, "MSGID": "WTPN51 PGTW 190300", "VALIDTIME": "2025-09-19 06:00:00" }, "geometry": { "type": "Point", "coordinates": [ 115.400002, 22.799999 ] } },
{ "type": "Feature", "properties": { "ID": 37854, "LAT": 22.86, "LON": 115.33, "VMAX": 40.0, "MSLP": 994.0, "RMAX": 35.0, "FSPD": 4.5271, "FDIR": 312.98605, "RENV": 90.0, "PENV": 1006.0, "VALIDT": 0, "DTG": "2025-09-19 06:00", "LATNOW": 23.4, "LONNOW": 114.7, "WINDNOW": 30.0, "DIRNOW": 3.0, "SPDNOW": 3.0, "TECH": "TRAK", "ADVNR": 12, "ATCFID": "WP232025", "NAME": "MITAG", "FTECH": "JTWC", "FCST_DTG": "2025-09-19 00:00:00", "RUN_DTG": "2025-09-19 21:36:31", "BASIN": "WP", "STMNR": 23, "CAT_ID": null, "CAT_DESC": null, "MSGID": "WTPN51 PGTW 190300", "VALIDTIME": "2025-09-19 06:00:00" }, "geometry": { "type": "Point", "coordinates": [ 115.330002, 22.859999 ] } },
{ "type": "Feature", "properties": { "ID": 37855, "LAT": 23.4, "LON": 114.7, "VMAX": 30.0, "MSLP": 997.0, "RMAX": 30.0, "FSPD": 2.60846, "FDIR": 275.65918, "RENV": 130.0, "PENV": 1006.0, "VALIDT": 0, "DTG": "2025-09-19 12:00", "LATNOW": 23.4, "LONNOW": 114.7, "WINDNOW": 30.0, "DIRNOW": 3.0, "SPDNOW": 3.0, "TECH": "TRAK", "ADVNR": 12, "ATCFID": "WP232025", "NAME": "MITAG", "FTECH": "JTWC", "FCST_DTG": "2025-09-19 00:00:00", "RUN_DTG": "2025-09-19 21:36:31", "BASIN": "WP", "STMNR": 23, "CAT_ID": null, "CAT_DESC": null, "MSGID": "WTPN51 PGTW 190300", "VALIDTIME": "2025-09-19 12:00:00" }, "geometry": { "type": "Point", "coordinates": [ 114.699997, 23.4 ] } },
{ "type": "Feature", "properties": { "ID": 37856, "LAT": 23.5, "LON": 113.6, "VMAX": 30.0, "MSLP": 1010.40607, "RMAX": 36.71321, "FSPD": 2.6065, "FDIR": 275.66345, "RENV": 250.0, "PENV": 1012.0, "VALIDT": 24, "DTG": "2025-09-20 00:00", "LATNOW": 23.4, "LONNOW": 114.7, "WINDNOW": 30.0, "DIRNOW": 3.0, "SPDNOW": 3.0, "TECH": "FCST", "ADVNR": 12, "ATCFID": "WP232025", "NAME": "MITAG", "FTECH": "JTWC", "FCST_DTG": "2025-09-19 00:00:00", "RUN_DTG": "2025-09-19 21:36:31", "BASIN": "WP", "STMNR": 23, "CAT_ID": null, "CAT_DESC": null, "MSGID": "WTPN51 PGTW 190300", "VALIDTIME": "2025-09-20 00:00:00" }, "geometry": { "type": "Point", "coordinates": [ 113.599998, 23.5 ] } },
{ "type": "Feature", "properties": { "ID": 37857, "LAT": 23.6, "LON": 112.5, "VMAX": 25.0, "MSLP": 1011.80975, "RMAX": 37.36094, "FSPD": 2.6065, "FDIR": 264.3365, "RENV": 250.0, "PENV": 1012.0, "VALIDT": 36, "DTG": "2025-09-20 12:00", "LATNOW": 23.4, "LONNOW": 114.7, "WINDNOW": 30.0, "DIRNOW": 3.0, "SPDNOW": 3.0, "TECH": "FCST", "ADVNR": 12, "ATCFID": "WP232025", "NAME": "MITAG", "FTECH": "JTWC", "FCST_DTG": "2025-09-19 00:00:00", "RUN_DTG": "2025-09-19 21:36:31", "BASIN": "WP", "STMNR": 23, "CAT_ID": null, "CAT_DESC": null, "MSGID": "WTPN51 PGTW 190300", "VALIDTIME": "2025-09-20 12:00:00" }, "geometry": { "type": "Point", "coordinates": [ 112.5, 23.6 ] } },
{ "type": "Feature", "properties": { "ID": 37858, "LAT": 23.5, "LON": 111.4, "VMAX": 20.0, "MSLP": 1012.95825, "RMAX": 37.36094, "FSPD": 2.6065, "FDIR": 264.3365, "RENV": 250.0, "PENV": 1012.0, "VALIDT": 48, "DTG": "2025-09-21 00:00", "LATNOW": 23.4, "LONNOW": 114.7, "WINDNOW": 30.0, "DIRNOW": 3.0, "SPDNOW": 3.0, "TECH": "FCST", "ADVNR": 12, "ATCFID": "WP232025", "NAME": "MITAG", "FTECH": "JTWC", "FCST_DTG": "2025-09-19 00:00:00", "RUN_DTG": "2025-09-19 21:36:31", "BASIN": "WP", "STMNR": 23, "CAT_ID": null, "CAT_DESC": null, "MSGID": "WTPN51 PGTW 190300", "VALIDTIME": "2025-09-21 00:00:00" }, "geometry": { "type": "Point", "coordinates": [ 111.400002, 23.5 ] } },
{ "type": "Feature", "properties": { "ID": 37855, "LAT": 23.4, "LON": 114.7, "VMAX": 30.0, "MSLP": 997.0, "RMAX": 30.0, "FSPD": 2.60846, "FDIR": 275.65918, "RENV": 130.0, "PENV": 1006.0, "VALIDT": 0, "DTG": "2025-09-19 12:00", "LATNOW": 23.4, "LONNOW": 114.7, "WINDNOW": 30.0, "DIRNOW": 3.0, "SPDNOW": 3.0, "TECH": "TRAK", "ADVNR": 12, "ATCFID": "WP232025", "NAME": "MITAG", "FTECH": "JTWC", "FCST_DTG": "2025-09-19 00:00:00", "RUN_DTG": "2025-09-19 21:36:31", "BASIN": "WP", "STMNR": 23, "CAT_ID": null, "CAT_DESC": null, "MSGID": "WTPN51 PGTW 190300", "VALIDTIME": "2025-09-19 12:00:00" }, "geometry": { "type": "LineString", "coordinates": [ [ 126.2, 12.6 ], [ 126.0, 12.8 ], [ 125.8, 13.0 ], [ 125.6, 13.2 ], [ 125.1, 13.7 ], [ 124.5, 14.6 ], [ 123.5, 15.5 ], [ 122.9, 15.9 ], [ 122.2, 16.1 ], [ 122.08, 16.34 ], [ 121.8, 16.9 ], [ 121.2, 17.9 ], [ 120.5, 18.6 ], [ 119.9, 18.8 ], [ 118.9, 19.8 ], [ 117.4, 19.9 ], [ 116.8, 20.1 ], [ 116.5, 21.3 ], [ 115.8, 22.3 ], [ 115.4, 22.8 ], [ 115.33, 22.86 ], [ 114.7, 23.4 ] ] } },
{ "type": "Feature", "properties": { "ID": 37858, "LAT": 23.5, "LON": 111.4, "VMAX": 20.0, "MSLP": 1012.95825, "RMAX": 37.36094, "FSPD": 2.6065, "FDIR": 264.3365, "RENV": 250.0, "PENV": 1012.0, "VALIDT": 48, "DTG": "2025-09-21 00:00", "LATNOW": 23.4, "LONNOW": 114.7, "WINDNOW": 30.0, "DIRNOW": 3.0, "SPDNOW": 3.0, "TECH": "FCST", "ADVNR": 12, "ATCFID": "WP232025", "NAME": "MITAG", "FTECH": "JTWC", "FCST_DTG": "2025-09-19 00:00:00", "RUN_DTG": "2025-09-19 21:36:31", "BASIN": "WP", "STMNR": 23, "CAT_ID": null, "CAT_DESC": null, "MSGID": "WTPN51 PGTW 190300", "VALIDTIME": "2025-09-21 00:00:00" }, "geometry": { "type": "LineString", "coordinates": [ [ 114.7, 23.4 ], [ 113.6, 23.5 ], [ 112.5, 23.6 ], [ 111.4, 23.5 ] ] } }
]
}
