{
"type": "FeatureCollection",
"crs": { "type": "name", "properties": { "name": "urn:ogc:def:crs:OGC:1.3:CRS84" } },
"features": [
{ "type": "Feature", "properties": { "ID": 69920, "LAT": 10.3, "LON": 92.0, "VMAX": 15.0, "MSLP": 1013.8515, "RMAX": 40.0, "FSPD": 3.20556, "FDIR": 288.72156, "RENV": 500.0, "PENV": 1012.0, "VALIDT": 0, "DTG": "2025-10-23 12:00", "LATNOW": 16.9, "LONNOW": 81.4, "WINDNOW": 35.0, "DIRNOW": 5.0, "SPDNOW": 2.0, "TECH": "TRAK", "ADVNR": 11, "ATCFID": "IO032025", "NAME": "MONTHA", "FTECH": "JTWC", "FCST_DTG": "2025-10-29 00:00:00", "RUN_DTG": "2025-10-29 16:45:48", "BASIN": "IO", "STMNR": 3, "CAT_ID": null, "CAT_DESC": null, "MSGID": "WTIO31 PGTW 290300", "VALIDTIME": "2025-10-23 12:00:00" }, "geometry": { "type": "Point", "coordinates": [ 92.0, 10.3 ] } },
{ "type": "Feature", "properties": { "ID": 69921, "LAT": 10.5, "LON": 91.4, "VMAX": 15.0, "MSLP": 1013.8515, "RMAX": 40.0, "FSPD": 4.07857, "FDIR": 277.24622, "RENV": 500.0, "PENV": 1012.0, "VALIDT": 0, "DTG": "2025-10-23 18:00", "LATNOW": 16.9, "LONNOW": 81.4, "WINDNOW": 35.0, "DIRNOW": 5.0, "SPDNOW": 2.0, "TECH": "TRAK", "ADVNR": 11, "ATCFID": "IO032025", "NAME": "MONTHA", "FTECH": "JTWC", "FCST_DTG": "2025-10-29 00:00:00", "RUN_DTG": "2025-10-29 16:45:48", "BASIN": "IO", "STMNR": 3, "CAT_ID": null, "CAT_DESC": null, "MSGID": "WTIO31 PGTW 290300", "VALIDTIME": "2025-10-23 18:00:00" }, "geometry": { "type": "Point", "coordinates": [ 91.400002, 10.5 ] } },
{ "type": "Feature", "properties": { "ID": 69922, "LAT": 10.6, "LON": 90.6, "VMAX": 20.0, "MSLP": 1012.95825, "RMAX": 45.0, "FSPD": 2.02267, "FDIR": 269.99997, "RENV": 500.0, "PENV": 1012.0, "VALIDT": 0, "DTG": "2025-10-24 00:00", "LATNOW": 16.9, "LONNOW": 81.4, "WINDNOW": 35.0, "DIRNOW": 5.0, "SPDNOW": 2.0, "TECH": "TRAK", "ADVNR": 11, "ATCFID": "IO032025", "NAME": "MONTHA", "FTECH": "JTWC", "FCST_DTG": "2025-10-29 00:00:00", "RUN_DTG": "2025-10-29 16:45:48", "BASIN": "IO", "STMNR": 3, "CAT_ID": null, "CAT_DESC": null, "MSGID": "WTIO31 PGTW 290300", "VALIDTIME": "2025-10-24 00:00:00" }, "geometry": { "type": "Point", "coordinates": [ 90.599998, 10.6 ] } },
{ "type": "Feature", "properties": { "ID": 69923, "LAT": 10.6, "LON": 90.2, "VMAX": 25.0, "MSLP": 1011.80975, "RMAX": 45.0, "FSPD": 1.51697, "FDIR": 269.99997, "RENV": 500.0, "PENV": 1012.0, "VALIDT": 0, "DTG": "2025-10-24 06:00", "LATNOW": 16.9, "LONNOW": 81.4, "WINDNOW": 35.0, "DIRNOW": 5.0, "SPDNOW": 2.0, "TECH": "TRAK", "ADVNR": 11, "ATCFID": "IO032025", "NAME": "MONTHA", "FTECH": "JTWC", "FCST_DTG": "2025-10-29 00:00:00", "RUN_DTG": "2025-10-29 16:45:48", "BASIN": "IO", "STMNR": 3, "CAT_ID": null, "CAT_DESC": null, "MSGID": "WTIO31 PGTW 290300", "VALIDTIME": "2025-10-24 06:00:00" }, "geometry": { "type": "Point", "coordinates": [ 90.199997, 10.6 ] } },
{ "type": "Feature", "properties": { "ID": 69924, "LAT": 10.6, "LON": 89.9, "VMAX": 25.0, "MSLP": 1011.80975, "RMAX": 45.0, "FSPD": 2.58054, "FDIR": 258.50067, "RENV": 500.0, "PENV": 1012.0, "VALIDT": 0, "DTG": "2025-10-24 12:00", "LATNOW": 16.9, "LONNOW": 81.4, "WINDNOW": 35.0, "DIRNOW": 5.0, "SPDNOW": 2.0, "TECH": "TRAK", "ADVNR": 11, "ATCFID": "IO032025", "NAME": "MONTHA", "FTECH": "JTWC", "FCST_DTG": "2025-10-29 00:00:00", "RUN_DTG": "2025-10-29 16:45:48", "BASIN": "IO", "STMNR": 3, "CAT_ID": null, "CAT_DESC": null, "MSGID": "WTIO31 PGTW 290300", "VALIDTIME": "2025-10-24 12:00:00" }, "geometry": { "type": "Point", "coordinates": [ 89.900002, 10.6 ] } },
{ "type": "Feature", "properties": { "ID": 69925, "LAT": 10.5, "LON": 89.4, "VMAX": 25.0, "MSLP": 1011.80975, "RMAX": 45.0, "FSPD": 2.1639, "FDIR": 315.49744, "RENV": 500.0, "PENV": 1012.0, "VALIDT": 0, "DTG": "2025-10-24 18:00", "LATNOW": 16.9, "LONNOW": 81.4, "WINDNOW": 35.0, "DIRNOW": 5.0, "SPDNOW": 2.0, "TECH": "TRAK", "ADVNR": 11, "ATCFID": "IO032025", "NAME": "MONTHA", "FTECH": "JTWC", "FCST_DTG": "2025-10-29 00:00:00", "RUN_DTG": "2025-10-29 16:45:48", "BASIN": "IO", "STMNR": 3, "CAT_ID": null, "CAT_DESC": null, "MSGID": "WTIO31 PGTW 290300", "VALIDTIME": "2025-10-24 18:00:00" }, "geometry": { "type": "Point", "coordinates": [ 89.400002, 10.5 ] } },
{ "type": "Feature", "properties": { "ID": 69926, "LAT": 10.8, "LON": 89.1, "VMAX": 25.0, "MSLP": 1011.80975, "RMAX": 45.0, "FSPD": 2.95964, "FDIR": 301.4302, "RENV": 500.0, "PENV": 1012.0, "VALIDT": 0, "DTG": "2025-10-25 00:00", "LATNOW": 16.9, "LONNOW": 81.4, "WINDNOW": 35.0, "DIRNOW": 5.0, "SPDNOW": 2.0, "TECH": "TRAK", "ADVNR": 11, "ATCFID": "IO032025", "NAME": "MONTHA", "FTECH": "JTWC", "FCST_DTG": "2025-10-29 00:00:00", "RUN_DTG": "2025-10-29 16:45:48", "BASIN": "IO", "STMNR": 3, "CAT_ID": null, "CAT_DESC": null, "MSGID": "WTIO31 PGTW 290300", "VALIDTIME": "2025-10-25 00:00:00" }, "geometry": { "type": "Point", "coordinates": [ 89.099998, 10.8 ] } },
{ "type": "Feature", "properties": { "ID": 69927, "LAT": 11.1, "LON": 88.6, "VMAX": 25.0, "MSLP": 1011.80975, "RMAX": 45.0, "FSPD": 5.41446, "FDIR": 228.31055, "RENV": 500.0, "PENV": 1012.0, "VALIDT": 0, "DTG": "2025-10-25 06:00", "LATNOW": 16.9, "LONNOW": 81.4, "WINDNOW": 35.0, "DIRNOW": 5.0, "SPDNOW": 2.0, "TECH": "TRAK", "ADVNR": 11, "ATCFID": "IO032025", "NAME": "MONTHA", "FTECH": "JTWC", "FCST_DTG": "2025-10-29 00:00:00", "RUN_DTG": "2025-10-29 16:45:48", "BASIN": "IO", "STMNR": 3, "CAT_ID": null, "CAT_DESC": null, "MSGID": "WTIO31 PGTW 290300", "VALIDTIME": "2025-10-25 06:00:00" }, "geometry": { "type": "Point", "coordinates": [ 88.599998, 11.1 ] } },
{ "type": "Feature", "properties": { "ID": 69928, "LAT": 10.4, "LON": 87.8, "VMAX": 30.0, "MSLP": 1010.40607, "RMAX": 44.21983, "FSPD": 1.84528, "FDIR": 326.7587, "RENV": 500.0, "PENV": 1012.0, "VALIDT": 0, "DTG": "2025-10-25 12:00", "LATNOW": 16.9, "LONNOW": 81.4, "WINDNOW": 35.0, "DIRNOW": 5.0, "SPDNOW": 2.0, "TECH": "TRAK", "ADVNR": 11, "ATCFID": "IO032025", "NAME": "MONTHA", "FTECH": "JTWC", "FCST_DTG": "2025-10-29 00:00:00", "RUN_DTG": "2025-10-29 16:45:48", "BASIN": "IO", "STMNR": 3, "CAT_ID": null, "CAT_DESC": null, "MSGID": "WTIO31 PGTW 290300", "VALIDTIME": "2025-10-25 12:00:00" }, "geometry": { "type": "Point", "coordinates": [ 87.800003, 10.4 ] } },
{ "type": "Feature", "properties": { "ID": 69929, "LAT": 10.7, "LON": 87.6, "VMAX": 30.0, "MSLP": 1010.40607, "RMAX": 44.21983, "FSPD": 1.62393, "FDIR": 341.87314, "RENV": 500.0, "PENV": 1012.0, "VALIDT": 0, "DTG": "2025-10-25 18:00", "LATNOW": 16.9, "LONNOW": 81.4, "WINDNOW": 35.0, "DIRNOW": 5.0, "SPDNOW": 2.0, "TECH": "TRAK", "ADVNR": 11, "ATCFID": "IO032025", "NAME": "MONTHA", "FTECH": "JTWC", "FCST_DTG": "2025-10-29 00:00:00", "RUN_DTG": "2025-10-29 16:45:48", "BASIN": "IO", "STMNR": 3, "CAT_ID": null, "CAT_DESC": null, "MSGID": "WTIO31 PGTW 290300", "VALIDTIME": "2025-10-25 18:00:00" }, "geometry": { "type": "Point", "coordinates": [ 87.599998, 10.7 ] } },
{ "type": "Feature", "properties": { "ID": 69930, "LAT": 11.0, "LON": 87.5, "VMAX": 30.0, "MSLP": 1010.40607, "RMAX": 44.21983, "FSPD": 2.54126, "FDIR": 307.39526, "RENV": 500.0, "PENV": 1012.0, "VALIDT": 0, "DTG": "2025-10-26 00:00", "LATNOW": 16.9, "LONNOW": 81.4, "WINDNOW": 35.0, "DIRNOW": 5.0, "SPDNOW": 2.0, "TECH": "TRAK", "ADVNR": 11, "ATCFID": "IO032025", "NAME": "MONTHA", "FTECH": "JTWC", "FCST_DTG": "2025-10-29 00:00:00", "RUN_DTG": "2025-10-29 16:45:48", "BASIN": "IO", "STMNR": 3, "CAT_ID": null, "CAT_DESC": null, "MSGID": "WTIO31 PGTW 290300", "VALIDTIME": "2025-10-26 00:00:00" }, "geometry": { "type": "Point", "coordinates": [ 87.5, 11.0 ] } },
{ "type": "Feature", "properties": { "ID": 69931, "LAT": 11.3, "LON": 87.1, "VMAX": 30.0, "MSLP": 1010.40607, "RMAX": 44.21983, "FSPD": 5.04472, "FDIR": 269.99997, "RENV": 500.0, "PENV": 1012.0, "VALIDT": 0, "DTG": "2025-10-26 06:00", "LATNOW": 16.9, "LONNOW": 81.4, "WINDNOW": 35.0, "DIRNOW": 5.0, "SPDNOW": 2.0, "TECH": "TRAK", "ADVNR": 11, "ATCFID": "IO032025", "NAME": "MONTHA", "FTECH": "JTWC", "FCST_DTG": "2025-10-29 00:00:00", "RUN_DTG": "2025-10-29 16:45:48", "BASIN": "IO", "STMNR": 3, "CAT_ID": null, "CAT_DESC": null, "MSGID": "WTIO31 PGTW 290300", "VALIDTIME": "2025-10-26 06:00:00" }, "geometry": { "type": "Point", "coordinates": [ 87.099998, 11.3 ] } },
{ "type": "Feature", "properties": { "ID": 69932, "LAT": 11.3, "LON": 86.1, "VMAX": 35.0, "MSLP": 998.0, "RMAX": 100.0, "FSPD": 3.53129, "FDIR": 269.99997, "RENV": 320.0, "PENV": 1006.0, "VALIDT": 0, "DTG": "2025-10-26 12:00", "LATNOW": 16.9, "LONNOW": 81.4, "WINDNOW": 35.0, "DIRNOW": 5.0, "SPDNOW": 2.0, "TECH": "TRAK", "ADVNR": 11, "ATCFID": "IO032025", "NAME": "MONTHA", "FTECH": "JTWC", "FCST_DTG": "2025-10-29 00:00:00", "RUN_DTG": "2025-10-29 16:45:48", "BASIN": "IO", "STMNR": 3, "CAT_ID": null, "CAT_DESC": null, "MSGID": "WTIO31 PGTW 290300", "VALIDTIME": "2025-10-26 12:00:00" }, "geometry": { "type": "Point", "coordinates": [ 86.099998, 11.3 ] } },
{ "type": "Feature", "properties": { "ID": 69933, "LAT": 11.3, "LON": 85.4, "VMAX": 40.0, "MSLP": 998.0, "RMAX": 100.0, "FSPD": 6.19382, "FDIR": 355.33832, "RENV": 320.0, "PENV": 1006.0, "VALIDT": 0, "DTG": "2025-10-26 18:00", "LATNOW": 16.9, "LONNOW": 81.4, "WINDNOW": 35.0, "DIRNOW": 5.0, "SPDNOW": 2.0, "TECH": "TRAK", "ADVNR": 11, "ATCFID": "IO032025", "NAME": "MONTHA", "FTECH": "JTWC", "FCST_DTG": "2025-10-29 00:00:00", "RUN_DTG": "2025-10-29 16:45:48", "BASIN": "IO", "STMNR": 3, "CAT_ID": null, "CAT_DESC": null, "MSGID": "WTIO31 PGTW 290300", "VALIDTIME": "2025-10-26 18:00:00" }, "geometry": { "type": "Point", "coordinates": [ 85.400002, 11.3 ] } },
{ "type": "Feature", "properties": { "ID": 69934, "LAT": 12.5, "LON": 85.3, "VMAX": 40.0, "MSLP": 998.0, "RMAX": 40.0, "FSPD": 5.12489, "FDIR": 281.58154, "RENV": 450.0, "PENV": 1009.0, "VALIDT": 0, "DTG": "2025-10-27 00:00", "LATNOW": 16.9, "LONNOW": 81.4, "WINDNOW": 35.0, "DIRNOW": 5.0, "SPDNOW": 2.0, "TECH": "TRAK", "ADVNR": 11, "ATCFID": "IO032025", "NAME": "MONTHA", "FTECH": "JTWC", "FCST_DTG": "2025-10-29 00:00:00", "RUN_DTG": "2025-10-29 16:45:48", "BASIN": "IO", "STMNR": 3, "CAT_ID": null, "CAT_DESC": null, "MSGID": "WTIO31 PGTW 290300", "VALIDTIME": "2025-10-27 00:00:00" }, "geometry": { "type": "Point", "coordinates": [ 85.300003, 12.5 ] } },
{ "type": "Feature", "properties": { "ID": 69935, "LAT": 12.7, "LON": 84.3, "VMAX": 40.0, "MSLP": 999.0, "RMAX": 55.0, "FSPD": 3.4335, "FDIR": 334.02512, "RENV": 450.0, "PENV": 1009.0, "VALIDT": 0, "DTG": "2025-10-27 06:00", "LATNOW": 16.9, "LONNOW": 81.4, "WINDNOW": 35.0, "DIRNOW": 5.0, "SPDNOW": 2.0, "TECH": "TRAK", "ADVNR": 11, "ATCFID": "IO032025", "NAME": "MONTHA", "FTECH": "JTWC", "FCST_DTG": "2025-10-29 00:00:00", "RUN_DTG": "2025-10-29 16:45:48", "BASIN": "IO", "STMNR": 3, "CAT_ID": null, "CAT_DESC": null, "MSGID": "WTIO31 PGTW 290300", "VALIDTIME": "2025-10-27 06:00:00" }, "geometry": { "type": "Point", "coordinates": [ 84.300003, 12.7 ] } },
{ "type": "Feature", "properties": { "ID": 69936, "LAT": 13.3, "LON": 84.0, "VMAX": 45.0, "MSLP": 999.0, "RMAX": 55.0, "FSPD": 5.26112, "FDIR": 331.64716, "RENV": 375.0, "PENV": 1009.0, "VALIDT": 0, "DTG": "2025-10-27 12:00", "LATNOW": 16.9, "LONNOW": 81.4, "WINDNOW": 35.0, "DIRNOW": 5.0, "SPDNOW": 2.0, "TECH": "TRAK", "ADVNR": 11, "ATCFID": "IO032025", "NAME": "MONTHA", "FTECH": "JTWC", "FCST_DTG": "2025-10-29 00:00:00", "RUN_DTG": "2025-10-29 16:45:48", "BASIN": "IO", "STMNR": 3, "CAT_ID": null, "CAT_DESC": null, "MSGID": "WTIO31 PGTW 290300", "VALIDTIME": "2025-10-27 12:00:00" }, "geometry": { "type": "Point", "coordinates": [ 84.0, 13.3 ] } },
{ "type": "Feature", "properties": { "ID": 69937, "LAT": 14.2, "LON": 83.5, "VMAX": 45.0, "MSLP": 996.0, "RMAX": 75.0, "FSPD": 2.52116, "FDIR": 307.74527, "RENV": 300.0, "PENV": 1006.0, "VALIDT": 0, "DTG": "2025-10-27 18:00", "LATNOW": 16.9, "LONNOW": 81.4, "WINDNOW": 35.0, "DIRNOW": 5.0, "SPDNOW": 2.0, "TECH": "TRAK", "ADVNR": 11, "ATCFID": "IO032025", "NAME": "MONTHA", "FTECH": "JTWC", "FCST_DTG": "2025-10-29 00:00:00", "RUN_DTG": "2025-10-29 16:45:48", "BASIN": "IO", "STMNR": 3, "CAT_ID": null, "CAT_DESC": null, "MSGID": "WTIO31 PGTW 290300", "VALIDTIME": "2025-10-27 18:00:00" }, "geometry": { "type": "Point", "coordinates": [ 83.5, 14.2 ] } },
{ "type": "Feature", "properties": { "ID": 69938, "LAT": 14.5, "LON": 83.1, "VMAX": 45.0, "MSLP": 995.0, "RMAX": 55.0, "FSPD": 4.37604, "FDIR": 325.37766, "RENV": 285.0, "PENV": 1008.0, "VALIDT": 0, "DTG": "2025-10-28 00:00", "LATNOW": 16.9, "LONNOW": 81.4, "WINDNOW": 35.0, "DIRNOW": 5.0, "SPDNOW": 2.0, "TECH": "TRAK", "ADVNR": 11, "ATCFID": "IO032025", "NAME": "MONTHA", "FTECH": "JTWC", "FCST_DTG": "2025-10-29 00:00:00", "RUN_DTG": "2025-10-29 16:45:48", "BASIN": "IO", "STMNR": 3, "CAT_ID": null, "CAT_DESC": null, "MSGID": "WTIO31 PGTW 290300", "VALIDTIME": "2025-10-28 00:00:00" }, "geometry": { "type": "Point", "coordinates": [ 83.099998, 14.5 ] } },
{ "type": "Feature", "properties": { "ID": 69939, "LAT": 15.2, "LON": 82.6, "VMAX": 45.0, "MSLP": 997.0, "RMAX": 55.0, "FSPD": 4.37136, "FDIR": 325.46655, "RENV": 285.0, "PENV": 1008.0, "VALIDT": 0, "DTG": "2025-10-28 06:00", "LATNOW": 16.9, "LONNOW": 81.4, "WINDNOW": 35.0, "DIRNOW": 5.0, "SPDNOW": 2.0, "TECH": "TRAK", "ADVNR": 11, "ATCFID": "IO032025", "NAME": "MONTHA", "FTECH": "JTWC", "FCST_DTG": "2025-10-29 00:00:00", "RUN_DTG": "2025-10-29 16:45:48", "BASIN": "IO", "STMNR": 3, "CAT_ID": null, "CAT_DESC": null, "MSGID": "WTIO31 PGTW 290300", "VALIDTIME": "2025-10-28 06:00:00" }, "geometry": { "type": "Point", "coordinates": [ 82.599998, 15.2 ] } },
{ "type": "Feature", "properties": { "ID": 69940, "LAT": 15.9, "LON": 82.1, "VMAX": 45.0, "MSLP": 997.0, "RMAX": 50.0, "FSPD": 3.99039, "FDIR": 277.40723, "RENV": 280.0, "PENV": 1008.0, "VALIDT": 0, "DTG": "2025-10-28 12:00", "LATNOW": 16.9, "LONNOW": 81.4, "WINDNOW": 35.0, "DIRNOW": 5.0, "SPDNOW": 2.0, "TECH": "TRAK", "ADVNR": 11, "ATCFID": "IO032025", "NAME": "MONTHA", "FTECH": "JTWC", "FCST_DTG": "2025-10-29 00:00:00", "RUN_DTG": "2025-10-29 16:45:48", "BASIN": "IO", "STMNR": 3, "CAT_ID": null, "CAT_DESC": null, "MSGID": "WTIO31 PGTW 290300", "VALIDTIME": "2025-10-28 12:00:00" }, "geometry": { "type": "Point", "coordinates": [ 82.099998, 15.9 ] } },
{ "type": "Feature", "properties": { "ID": 69941, "LAT": 16.0, "LON": 81.3, "VMAX": 40.0, "MSLP": 995.0, "RMAX": 40.0, "FSPD": 4.65629, "FDIR": 6.08997, "RENV": 270.0, "PENV": 1006.0, "VALIDT": 0, "DTG": "2025-10-28 18:00", "LATNOW": 16.9, "LONNOW": 81.4, "WINDNOW": 35.0, "DIRNOW": 5.0, "SPDNOW": 2.0, "TECH": "TRAK", "ADVNR": 11, "ATCFID": "IO032025", "NAME": "MONTHA", "FTECH": "JTWC", "FCST_DTG": "2025-10-29 00:00:00", "RUN_DTG": "2025-10-29 16:45:48", "BASIN": "IO", "STMNR": 3, "CAT_ID": null, "CAT_DESC": null, "MSGID": "WTIO31 PGTW 290300", "VALIDTIME": "2025-10-28 18:00:00" }, "geometry": { "type": "Point", "coordinates": [ 81.300003, 16.0 ] } },
{ "type": "Feature", "properties": { "ID": 69942, "LAT": 16.45, "LON": 81.35001, "VMAX": 40.0, "MSLP": 995.0, "RMAX": 40.0, "FSPD": 4.65614, "FDIR": 6.07507, "RENV": 270.0, "PENV": 1006.0, "VALIDT": 0, "DTG": "2025-10-28 21:00", "LATNOW": 16.9, "LONNOW": 81.4, "WINDNOW": 35.0, "DIRNOW": 5.0, "SPDNOW": 2.0, "TECH": "TRAK", "ADVNR": 11, "ATCFID": "IO032025", "NAME": "MONTHA", "FTECH": "JTWC", "FCST_DTG": "2025-10-29 00:00:00", "RUN_DTG": "2025-10-29 16:45:48", "BASIN": "IO", "STMNR": 3, "CAT_ID": null, "CAT_DESC": null, "MSGID": "WTIO31 PGTW 290300", "VALIDTIME": "2025-10-28 21:00:00" }, "geometry": { "type": "Point", "coordinates": [ 81.350006, 16.450001 ] } },
{ "type": "Feature", "properties": { "ID": 69943, "LAT": 16.9, "LON": 81.4, "VMAX": 35.0, "MSLP": 998.0, "RMAX": 40.0, "FSPD": 4.66923, "FDIR": 331.81433, "RENV": 270.0, "PENV": 1006.0, "VALIDT": 0, "DTG": "2025-10-29 00:00", "LATNOW": 16.9, "LONNOW": 81.4, "WINDNOW": 35.0, "DIRNOW": 5.0, "SPDNOW": 2.0, "TECH": "TRAK", "ADVNR": 11, "ATCFID": "IO032025", "NAME": "MONTHA", "FTECH": "JTWC", "FCST_DTG": "2025-10-29 00:00:00", "RUN_DTG": "2025-10-29 16:45:48", "BASIN": "IO", "STMNR": 3, "CAT_ID": null, "CAT_DESC": null, "MSGID": "WTIO31 PGTW 290300", "VALIDTIME": "2025-10-29 00:00:00" }, "geometry": { "type": "Point", "coordinates": [ 81.400002, 16.9 ] } },
{ "type": "Feature", "properties": { "ID": 69944, "LAT": 18.5, "LON": 80.5, "VMAX": 25.0, "MSLP": 1011.80975, "RMAX": 49.22899, "FSPD": 4.66923, "FDIR": 331.81433, "RENV": 250.0, "PENV": 1012.0, "VALIDT": 12, "DTG": "2025-10-29 12:00", "LATNOW": 16.9, "LONNOW": 81.4, "WINDNOW": 35.0, "DIRNOW": 5.0, "SPDNOW": 2.0, "TECH": "FCST", "ADVNR": 11, "ATCFID": "IO032025", "NAME": "MONTHA", "FTECH": "JTWC", "FCST_DTG": "2025-10-29 00:00:00", "RUN_DTG": "2025-10-29 16:45:48", "BASIN": "IO", "STMNR": 3, "CAT_ID": null, "CAT_DESC": null, "MSGID": "WTIO31 PGTW 290300", "VALIDTIME": "2025-10-29 12:00:00" }, "geometry": { "type": "Point", "coordinates": [ 80.5, 18.5 ] } },
{ "type": "Feature", "properties": { "ID": 69943, "LAT": 16.9, "LON": 81.4, "VMAX": 35.0, "MSLP": 998.0, "RMAX": 40.0, "FSPD": 4.66923, "FDIR": 331.81433, "RENV": 270.0, "PENV": 1006.0, "VALIDT": 0, "DTG": "2025-10-29 00:00", "LATNOW": 16.9, "LONNOW": 81.4, "WINDNOW": 35.0, "DIRNOW": 5.0, "SPDNOW": 2.0, "TECH": "TRAK", "ADVNR": 11, "ATCFID": "IO032025", "NAME": "MONTHA", "FTECH": "JTWC", "FCST_DTG": "2025-10-29 00:00:00", "RUN_DTG": "2025-10-29 16:45:48", "BASIN": "IO", "STMNR": 3, "CAT_ID": null, "CAT_DESC": null, "MSGID": "WTIO31 PGTW 290300", "VALIDTIME": "2025-10-29 00:00:00" }, "geometry": { "type": "LineString", "coordinates": [ [ 92.0, 10.3 ], [ 91.4, 10.5 ], [ 90.6, 10.6 ], [ 90.2, 10.6 ], [ 89.9, 10.6 ], [ 89.4, 10.5 ], [ 89.1, 10.8 ], [ 88.6, 11.1 ], [ 87.8, 10.4 ], [ 87.6, 10.7 ], [ 87.5, 11.0 ], [ 87.1, 11.3 ], [ 86.1, 11.3 ], [ 85.4, 11.3 ], [ 85.3, 12.5 ], [ 84.3, 12.7 ], [ 84.0, 13.3 ], [ 83.5, 14.2 ], [ 83.1, 14.5 ], [ 82.6, 15.2 ], [ 82.1, 15.9 ], [ 81.3, 16.0 ], [ 81.35001, 16.45 ], [ 81.4, 16.9 ] ] } },
{ "type": "Feature", "properties": { "ID": 69944, "LAT": 18.5, "LON": 80.5, "VMAX": 25.0, "MSLP": 1011.80975, "RMAX": 49.22899, "FSPD": 4.66923, "FDIR": 331.81433, "RENV": 250.0, "PENV": 1012.0, "VALIDT": 12, "DTG": "2025-10-29 12:00", "LATNOW": 16.9, "LONNOW": 81.4, "WINDNOW": 35.0, "DIRNOW": 5.0, "SPDNOW": 2.0, "TECH": "FCST", "ADVNR": 11, "ATCFID": "IO032025", "NAME": "MONTHA", "FTECH": "JTWC", "FCST_DTG": "2025-10-29 00:00:00", "RUN_DTG": "2025-10-29 16:45:48", "BASIN": "IO", "STMNR": 3, "CAT_ID": null, "CAT_DESC": null, "MSGID": "WTIO31 PGTW 290300", "VALIDTIME": "2025-10-29 12:00:00" }, "geometry": { "type": "LineString", "coordinates": [ [ 81.4, 16.9 ], [ 80.5, 18.5 ] ] } }
]
}
