{
"type": "FeatureCollection",
"crs": { "type": "name", "properties": { "name": "urn:ogc:def:crs:OGC:1.3:CRS84" } },
"features": [
{ "type": "Feature", "properties": { "ID": 67842, "LAT": 9.0, "LON": -136.0, "VMAX": 25.0, "MSLP": 1009.0, "RMAX": 90.0, "FSPD": 5.01229, "FDIR": 294.2391, "RENV": 150.0, "PENV": 1011.0, "VALIDT": 0, "DTG": "2026-08-19 06:00", "LATNOW": 16.2, "LONNOW": -163.5, "WINDNOW": 30.0, "DIRNOW": 6.0, "SPDNOW": 3.0, "TECH": "TRAK", "ADVNR": null, "ATCFID": "CP022026", "NAME": "MOKE", "FTECH": "OFCL", "FCST_DTG": "2026-08-25 06:00:00", "RUN_DTG": "2026-08-26 00:32:58", "BASIN": "CP", "STMNR": 2, "CAT_ID": null, "CAT_DESC": null, "MSGID": null, "VALIDTIME": "2026-08-19 06:00:00" }, "geometry": { "type": "Point", "coordinates": [ -136.0, 9.0 ] } },
{ "type": "Feature", "properties": { "ID": 67843, "LAT": 9.4, "LON": -136.9, "VMAX": 30.0, "MSLP": 1008.0, "RMAX": 100.0, "FSPD": 9.48445, "FDIR": 285.7359, "RENV": 150.0, "PENV": 1011.0, "VALIDT": 0, "DTG": "2026-08-19 12:00", "LATNOW": 16.2, "LONNOW": -163.5, "WINDNOW": 30.0, "DIRNOW": 6.0, "SPDNOW": 3.0, "TECH": "TRAK", "ADVNR": null, "ATCFID": "CP022026", "NAME": "MOKE", "FTECH": "OFCL", "FCST_DTG": "2026-08-25 06:00:00", "RUN_DTG": "2026-08-26 00:32:58", "BASIN": "CP", "STMNR": 2, "CAT_ID": null, "CAT_DESC": null, "MSGID": null, "VALIDTIME": "2026-08-19 12:00:00" }, "geometry": { "type": "Point", "coordinates": [ -136.899994, 9.4 ] } },
{ "type": "Feature", "properties": { "ID": 67844, "LAT": 9.9, "LON": -138.7, "VMAX": 30.0, "MSLP": 1007.0, "RMAX": 100.0, "FSPD": 7.06781, "FDIR": 291.34204, "RENV": 150.0, "PENV": 1011.0, "VALIDT": 0, "DTG": "2026-08-19 18:00", "LATNOW": 16.2, "LONNOW": -163.5, "WINDNOW": 30.0, "DIRNOW": 6.0, "SPDNOW": 3.0, "TECH": "TRAK", "ADVNR": null, "ATCFID": "CP022026", "NAME": "MOKE", "FTECH": "OFCL", "FCST_DTG": "2026-08-25 06:00:00", "RUN_DTG": "2026-08-26 00:32:58", "BASIN": "CP", "STMNR": 2, "CAT_ID": null, "CAT_DESC": null, "MSGID": null, "VALIDTIME": "2026-08-19 18:00:00" }, "geometry": { "type": "Point", "coordinates": [ -138.699997, 9.9 ] } },
{ "type": "Feature", "properties": { "ID": 67845, "LAT": 10.4, "LON": -140.0, "VMAX": 30.0, "MSLP": 1007.0, "RMAX": 100.0, "FSPD": 6.12748, "FDIR": 294.82098, "RENV": 150.0, "PENV": 1011.0, "VALIDT": 0, "DTG": "2026-08-20 00:00", "LATNOW": 16.2, "LONNOW": -163.5, "WINDNOW": 30.0, "DIRNOW": 6.0, "SPDNOW": 3.0, "TECH": "TRAK", "ADVNR": null, "ATCFID": "CP022026", "NAME": "MOKE", "FTECH": "OFCL", "FCST_DTG": "2026-08-25 06:00:00", "RUN_DTG": "2026-08-26 00:32:58", "BASIN": "CP", "STMNR": 2, "CAT_ID": null, "CAT_DESC": null, "MSGID": null, "VALIDTIME": "2026-08-20 00:00:00" }, "geometry": { "type": "Point", "coordinates": [ -140.0, 10.4 ] } },
{ "type": "Feature", "properties": { "ID": 67846, "LAT": 10.9, "LON": -141.1, "VMAX": 30.0, "MSLP": 1007.0, "RMAX": 100.0, "FSPD": 8.61385, "FDIR": 298.5407, "RENV": 150.0, "PENV": 1011.0, "VALIDT": 0, "DTG": "2026-08-20 06:00", "LATNOW": 16.2, "LONNOW": -163.5, "WINDNOW": 30.0, "DIRNOW": 6.0, "SPDNOW": 3.0, "TECH": "TRAK", "ADVNR": null, "ATCFID": "CP022026", "NAME": "MOKE", "FTECH": "OFCL", "FCST_DTG": "2026-08-25 06:00:00", "RUN_DTG": "2026-08-26 00:32:58", "BASIN": "CP", "STMNR": 2, "CAT_ID": null, "CAT_DESC": null, "MSGID": null, "VALIDTIME": "2026-08-20 06:00:00" }, "geometry": { "type": "Point", "coordinates": [ -141.100006, 10.9 ] } },
{ "type": "Feature", "properties": { "ID": 67847, "LAT": 11.7, "LON": -142.6, "VMAX": 30.0, "MSLP": 1006.0, "RMAX": 90.0, "FSPD": 5.07274, "FDIR": 307.4798, "RENV": 300.0, "PENV": 1010.0, "VALIDT": 0, "DTG": "2026-08-20 12:00", "LATNOW": 16.2, "LONNOW": -163.5, "WINDNOW": 30.0, "DIRNOW": 6.0, "SPDNOW": 3.0, "TECH": "TRAK", "ADVNR": null, "ATCFID": "CP022026", "NAME": "MOKE", "FTECH": "OFCL", "FCST_DTG": "2026-08-25 06:00:00", "RUN_DTG": "2026-08-26 00:32:58", "BASIN": "CP", "STMNR": 2, "CAT_ID": null, "CAT_DESC": null, "MSGID": null, "VALIDTIME": "2026-08-20 12:00:00" }, "geometry": { "type": "Point", "coordinates": [ -142.600006, 11.7 ] } },
{ "type": "Feature", "properties": { "ID": 67848, "LAT": 12.3, "LON": -143.4, "VMAX": 30.0, "MSLP": 1006.0, "RMAX": 90.0, "FSPD": 6.55193, "FDIR": 293.11575, "RENV": 300.0, "PENV": 1010.0, "VALIDT": 0, "DTG": "2026-08-20 18:00", "LATNOW": 16.2, "LONNOW": -163.5, "WINDNOW": 30.0, "DIRNOW": 6.0, "SPDNOW": 3.0, "TECH": "TRAK", "ADVNR": null, "ATCFID": "CP022026", "NAME": "MOKE", "FTECH": "OFCL", "FCST_DTG": "2026-08-25 06:00:00", "RUN_DTG": "2026-08-26 00:32:58", "BASIN": "CP", "STMNR": 2, "CAT_ID": null, "CAT_DESC": null, "MSGID": null, "VALIDTIME": "2026-08-20 18:00:00" }, "geometry": { "type": "Point", "coordinates": [ -143.399994, 12.3 ] } },
{ "type": "Feature", "properties": { "ID": 67849, "LAT": 12.8, "LON": -144.6, "VMAX": 30.0, "MSLP": 1006.0, "RMAX": 90.0, "FSPD": 3.05297, "FDIR": 279.7009, "RENV": 250.0, "PENV": 1009.0, "VALIDT": 0, "DTG": "2026-08-21 00:00", "LATNOW": 16.2, "LONNOW": -163.5, "WINDNOW": 30.0, "DIRNOW": 6.0, "SPDNOW": 3.0, "TECH": "TRAK", "ADVNR": null, "ATCFID": "CP022026", "NAME": "MOKE", "FTECH": "OFCL", "FCST_DTG": "2026-08-25 06:00:00", "RUN_DTG": "2026-08-26 00:32:58", "BASIN": "CP", "STMNR": 2, "CAT_ID": null, "CAT_DESC": null, "MSGID": null, "VALIDTIME": "2026-08-21 00:00:00" }, "geometry": { "type": "Point", "coordinates": [ -144.600006, 12.8 ] } },
{ "type": "Feature", "properties": { "ID": 67850, "LAT": 12.9, "LON": -145.2, "VMAX": 30.0, "MSLP": 1006.0, "RMAX": 90.0, "FSPD": 2.52994, "FDIR": 307.59143, "RENV": 250.0, "PENV": 1010.0, "VALIDT": 0, "DTG": "2026-08-21 06:00", "LATNOW": 16.2, "LONNOW": -163.5, "WINDNOW": 30.0, "DIRNOW": 6.0, "SPDNOW": 3.0, "TECH": "TRAK", "ADVNR": null, "ATCFID": "CP022026", "NAME": "MOKE", "FTECH": "OFCL", "FCST_DTG": "2026-08-25 06:00:00", "RUN_DTG": "2026-08-26 00:32:58", "BASIN": "CP", "STMNR": 2, "CAT_ID": null, "CAT_DESC": null, "MSGID": null, "VALIDTIME": "2026-08-21 06:00:00" }, "geometry": { "type": "Point", "coordinates": [ -145.199997, 12.9 ] } },
{ "type": "Feature", "properties": { "ID": 67851, "LAT": 13.2, "LON": -145.6, "VMAX": 30.0, "MSLP": 1005.0, "RMAX": 90.0, "FSPD": 6.07506, "FDIR": 295.04987, "RENV": 250.0, "PENV": 1009.0, "VALIDT": 0, "DTG": "2026-08-21 12:00", "LATNOW": 16.2, "LONNOW": -163.5, "WINDNOW": 30.0, "DIRNOW": 6.0, "SPDNOW": 3.0, "TECH": "TRAK", "ADVNR": null, "ATCFID": "CP022026", "NAME": "MOKE", "FTECH": "OFCL", "FCST_DTG": "2026-08-25 06:00:00", "RUN_DTG": "2026-08-26 00:32:58", "BASIN": "CP", "STMNR": 2, "CAT_ID": null, "CAT_DESC": null, "MSGID": null, "VALIDTIME": "2026-08-21 12:00:00" }, "geometry": { "type": "Point", "coordinates": [ -145.600006, 13.2 ] } },
{ "type": "Feature", "properties": { "ID": 67852, "LAT": 13.7, "LON": -146.7, "VMAX": 35.0, "MSLP": 1002.0, "RMAX": 50.0, "FSPD": 5.52077, "FDIR": 275.3468, "RENV": 250.0, "PENV": 1009.0, "VALIDT": 0, "DTG": "2026-08-21 18:00", "LATNOW": 16.2, "LONNOW": -163.5, "WINDNOW": 30.0, "DIRNOW": 6.0, "SPDNOW": 3.0, "TECH": "TRAK", "ADVNR": null, "ATCFID": "CP022026", "NAME": "MOKE", "FTECH": "OFCL", "FCST_DTG": "2026-08-25 06:00:00", "RUN_DTG": "2026-08-26 00:32:58", "BASIN": "CP", "STMNR": 2, "CAT_ID": null, "CAT_DESC": null, "MSGID": null, "VALIDTIME": "2026-08-21 18:00:00" }, "geometry": { "type": "Point", "coordinates": [ -146.699997, 13.7 ] } },
{ "type": "Feature", "properties": { "ID": 67853, "LAT": 13.8, "LON": -147.8, "VMAX": 40.0, "MSLP": 1002.0, "RMAX": 60.0, "FSPD": 4.75107, "FDIR": 288.9558, "RENV": 250.0, "PENV": 1009.0, "VALIDT": 0, "DTG": "2026-08-22 00:00", "LATNOW": 16.2, "LONNOW": -163.5, "WINDNOW": 30.0, "DIRNOW": 6.0, "SPDNOW": 3.0, "TECH": "TRAK", "ADVNR": null, "ATCFID": "CP022026", "NAME": "MOKE", "FTECH": "OFCL", "FCST_DTG": "2026-08-25 06:00:00", "RUN_DTG": "2026-08-26 00:32:58", "BASIN": "CP", "STMNR": 2, "CAT_ID": null, "CAT_DESC": null, "MSGID": null, "VALIDTIME": "2026-08-22 00:00:00" }, "geometry": { "type": "Point", "coordinates": [ -147.800003, 13.8 ] } },
{ "type": "Feature", "properties": { "ID": 67854, "LAT": 14.1, "LON": -148.7, "VMAX": 40.0, "MSLP": 1002.0, "RMAX": 40.0, "FSPD": 5.60856, "FDIR": 297.29834, "RENV": 250.0, "PENV": 1009.0, "VALIDT": 0, "DTG": "2026-08-22 06:00", "LATNOW": 16.2, "LONNOW": -163.5, "WINDNOW": 30.0, "DIRNOW": 6.0, "SPDNOW": 3.0, "TECH": "TRAK", "ADVNR": null, "ATCFID": "CP022026", "NAME": "MOKE", "FTECH": "OFCL", "FCST_DTG": "2026-08-25 06:00:00", "RUN_DTG": "2026-08-26 00:32:58", "BASIN": "CP", "STMNR": 2, "CAT_ID": null, "CAT_DESC": null, "MSGID": null, "VALIDTIME": "2026-08-22 06:00:00" }, "geometry": { "type": "Point", "coordinates": [ -148.699997, 14.1 ] } },
{ "type": "Feature", "properties": { "ID": 67855, "LAT": 14.6, "LON": -149.7, "VMAX": 45.0, "MSLP": 994.0, "RMAX": 20.0, "FSPD": 4.59516, "FDIR": 282.9386, "RENV": 200.0, "PENV": 1009.0, "VALIDT": 0, "DTG": "2026-08-22 12:00", "LATNOW": 16.2, "LONNOW": -163.5, "WINDNOW": 30.0, "DIRNOW": 6.0, "SPDNOW": 3.0, "TECH": "TRAK", "ADVNR": null, "ATCFID": "CP022026", "NAME": "MOKE", "FTECH": "OFCL", "FCST_DTG": "2026-08-25 06:00:00", "RUN_DTG": "2026-08-26 00:32:58", "BASIN": "CP", "STMNR": 2, "CAT_ID": null, "CAT_DESC": null, "MSGID": null, "VALIDTIME": "2026-08-22 12:00:00" }, "geometry": { "type": "Point", "coordinates": [ -149.699997, 14.6 ] } },
{ "type": "Feature", "properties": { "ID": 67856, "LAT": 14.8, "LON": -150.6, "VMAX": 45.0, "MSLP": 996.0, "RMAX": 20.0, "FSPD": 4.92291, "FDIR": 294.70834, "RENV": 200.0, "PENV": 1009.0, "VALIDT": 0, "DTG": "2026-08-22 18:00", "LATNOW": 16.2, "LONNOW": -163.5, "WINDNOW": 30.0, "DIRNOW": 6.0, "SPDNOW": 3.0, "TECH": "TRAK", "ADVNR": null, "ATCFID": "CP022026", "NAME": "MOKE", "FTECH": "OFCL", "FCST_DTG": "2026-08-25 06:00:00", "RUN_DTG": "2026-08-26 00:32:58", "BASIN": "CP", "STMNR": 2, "CAT_ID": null, "CAT_DESC": null, "MSGID": null, "VALIDTIME": "2026-08-22 18:00:00" }, "geometry": { "type": "Point", "coordinates": [ -150.600006, 14.8 ] } },
{ "type": "Feature", "properties": { "ID": 67857, "LAT": 15.2, "LON": -151.5, "VMAX": 45.0, "MSLP": 998.0, "RMAX": 20.0, "FSPD": 5.95735, "FDIR": 269.99997, "RENV": 200.0, "PENV": 1009.0, "VALIDT": 0, "DTG": "2026-08-23 00:00", "LATNOW": 16.2, "LONNOW": -163.5, "WINDNOW": 30.0, "DIRNOW": 6.0, "SPDNOW": 3.0, "TECH": "TRAK", "ADVNR": null, "ATCFID": "CP022026", "NAME": "MOKE", "FTECH": "OFCL", "FCST_DTG": "2026-08-25 06:00:00", "RUN_DTG": "2026-08-26 00:32:58", "BASIN": "CP", "STMNR": 2, "CAT_ID": null, "CAT_DESC": null, "MSGID": null, "VALIDTIME": "2026-08-23 00:00:00" }, "geometry": { "type": "Point", "coordinates": [ -151.5, 15.2 ] } },
{ "type": "Feature", "properties": { "ID": 67858, "LAT": 15.2, "LON": -152.7, "VMAX": 40.0, "MSLP": 1001.0, "RMAX": 30.0, "FSPD": 8.01327, "FDIR": 262.62292, "RENV": 200.0, "PENV": 1009.0, "VALIDT": 0, "DTG": "2026-08-23 06:00", "LATNOW": 16.2, "LONNOW": -163.5, "WINDNOW": 30.0, "DIRNOW": 6.0, "SPDNOW": 3.0, "TECH": "TRAK", "ADVNR": null, "ATCFID": "CP022026", "NAME": "MOKE", "FTECH": "OFCL", "FCST_DTG": "2026-08-25 06:00:00", "RUN_DTG": "2026-08-26 00:32:58", "BASIN": "CP", "STMNR": 2, "CAT_ID": null, "CAT_DESC": null, "MSGID": null, "VALIDTIME": "2026-08-23 06:00:00" }, "geometry": { "type": "Point", "coordinates": [ -152.699997, 15.2 ] } },
{ "type": "Feature", "properties": { "ID": 67859, "LAT": 15.0, "LON": -154.3, "VMAX": 40.0, "MSLP": 1002.0, "RMAX": 50.0, "FSPD": 7.02923, "FDIR": 278.41675, "RENV": 150.0, "PENV": 1009.0, "VALIDT": 0, "DTG": "2026-08-23 12:00", "LATNOW": 16.2, "LONNOW": -163.5, "WINDNOW": 30.0, "DIRNOW": 6.0, "SPDNOW": 3.0, "TECH": "TRAK", "ADVNR": null, "ATCFID": "CP022026", "NAME": "MOKE", "FTECH": "OFCL", "FCST_DTG": "2026-08-25 06:00:00", "RUN_DTG": "2026-08-26 00:32:58", "BASIN": "CP", "STMNR": 2, "CAT_ID": null, "CAT_DESC": null, "MSGID": null, "VALIDTIME": "2026-08-23 12:00:00" }, "geometry": { "type": "Point", "coordinates": [ -154.300003, 15.0 ] } },
{ "type": "Feature", "properties": { "ID": 67860, "LAT": 15.2, "LON": -155.7, "VMAX": 40.0, "MSLP": 1002.0, "RMAX": 50.0, "FSPD": 4.96447, "FDIR": 269.99997, "RENV": 150.0, "PENV": 1009.0, "VALIDT": 0, "DTG": "2026-08-23 18:00", "LATNOW": 16.2, "LONNOW": -163.5, "WINDNOW": 30.0, "DIRNOW": 6.0, "SPDNOW": 3.0, "TECH": "TRAK", "ADVNR": null, "ATCFID": "CP022026", "NAME": "MOKE", "FTECH": "OFCL", "FCST_DTG": "2026-08-25 06:00:00", "RUN_DTG": "2026-08-26 00:32:58", "BASIN": "CP", "STMNR": 2, "CAT_ID": null, "CAT_DESC": null, "MSGID": null, "VALIDTIME": "2026-08-23 18:00:00" }, "geometry": { "type": "Point", "coordinates": [ -155.699997, 15.2 ] } },
{ "type": "Feature", "properties": { "ID": 67861, "LAT": 15.2, "LON": -156.7, "VMAX": 35.0, "MSLP": 1003.0, "RMAX": 40.0, "FSPD": 5.48384, "FDIR": 275.38287, "RENV": 150.0, "PENV": 1009.0, "VALIDT": 0, "DTG": "2026-08-24 00:00", "LATNOW": 16.2, "LONNOW": -163.5, "WINDNOW": 30.0, "DIRNOW": 6.0, "SPDNOW": 3.0, "TECH": "TRAK", "ADVNR": null, "ATCFID": "CP022026", "NAME": "MOKE", "FTECH": "OFCL", "FCST_DTG": "2026-08-25 06:00:00", "RUN_DTG": "2026-08-26 00:32:58", "BASIN": "CP", "STMNR": 2, "CAT_ID": null, "CAT_DESC": null, "MSGID": null, "VALIDTIME": "2026-08-24 00:00:00" }, "geometry": { "type": "Point", "coordinates": [ -156.699997, 15.2 ] } },
{ "type": "Feature", "properties": { "ID": 67862, "LAT": 15.3, "LON": -157.8, "VMAX": 30.0, "MSLP": 1004.0, "RMAX": 35.0, "FSPD": 8.44923, "FDIR": 273.49066, "RENV": 120.0, "PENV": 1009.0, "VALIDT": 0, "DTG": "2026-08-24 06:00", "LATNOW": 16.2, "LONNOW": -163.5, "WINDNOW": 30.0, "DIRNOW": 6.0, "SPDNOW": 3.0, "TECH": "TRAK", "ADVNR": null, "ATCFID": "CP022026", "NAME": "MOKE", "FTECH": "OFCL", "FCST_DTG": "2026-08-25 06:00:00", "RUN_DTG": "2026-08-26 00:32:58", "BASIN": "CP", "STMNR": 2, "CAT_ID": null, "CAT_DESC": null, "MSGID": null, "VALIDTIME": "2026-08-24 06:00:00" }, "geometry": { "type": "Point", "coordinates": [ -157.800003, 15.3 ] } },
{ "type": "Feature", "properties": { "ID": 67863, "LAT": 15.4, "LON": -159.5, "VMAX": 30.0, "MSLP": 1004.0, "RMAX": 35.0, "FSPD": 7.99823, "FDIR": 277.391, "RENV": 120.0, "PENV": 1009.0, "VALIDT": 0, "DTG": "2026-08-24 12:00", "LATNOW": 16.2, "LONNOW": -163.5, "WINDNOW": 30.0, "DIRNOW": 6.0, "SPDNOW": 3.0, "TECH": "TRAK", "ADVNR": null, "ATCFID": "CP022026", "NAME": "MOKE", "FTECH": "OFCL", "FCST_DTG": "2026-08-25 06:00:00", "RUN_DTG": "2026-08-26 00:32:58", "BASIN": "CP", "STMNR": 2, "CAT_ID": null, "CAT_DESC": null, "MSGID": null, "VALIDTIME": "2026-08-24 12:00:00" }, "geometry": { "type": "Point", "coordinates": [ -159.5, 15.4 ] } },
{ "type": "Feature", "properties": { "ID": 67864, "LAT": 15.6, "LON": -161.1, "VMAX": 30.0, "MSLP": 1005.0, "RMAX": 30.0, "FSPD": 6.95424, "FDIR": 274.2423, "RENV": 90.0, "PENV": 1010.0, "VALIDT": 0, "DTG": "2026-08-24 18:00", "LATNOW": 16.2, "LONNOW": -163.5, "WINDNOW": 30.0, "DIRNOW": 6.0, "SPDNOW": 3.0, "TECH": "TRAK", "ADVNR": null, "ATCFID": "CP022026", "NAME": "MOKE", "FTECH": "OFCL", "FCST_DTG": "2026-08-25 06:00:00", "RUN_DTG": "2026-08-26 00:32:58", "BASIN": "CP", "STMNR": 2, "CAT_ID": null, "CAT_DESC": null, "MSGID": null, "VALIDTIME": "2026-08-24 18:00:00" }, "geometry": { "type": "Point", "coordinates": [ -161.100006, 15.6 ] } },
{ "type": "Feature", "properties": { "ID": 67865, "LAT": 15.7, "LON": -162.5, "VMAX": 30.0, "MSLP": 1005.0, "RMAX": 30.0, "FSPD": 5.57523, "FDIR": 297.47534, "RENV": 80.0, "PENV": 1009.0, "VALIDT": 0, "DTG": "2026-08-25 00:00", "LATNOW": 16.2, "LONNOW": -163.5, "WINDNOW": 30.0, "DIRNOW": 6.0, "SPDNOW": 3.0, "TECH": "TRAK", "ADVNR": null, "ATCFID": "CP022026", "NAME": "MOKE", "FTECH": "OFCL", "FCST_DTG": "2026-08-25 06:00:00", "RUN_DTG": "2026-08-26 00:32:58", "BASIN": "CP", "STMNR": 2, "CAT_ID": null, "CAT_DESC": null, "MSGID": null, "VALIDTIME": "2026-08-25 00:00:00" }, "geometry": { "type": "Point", "coordinates": [ -162.5, 15.7 ] } },
{ "type": "Feature", "properties": { "ID": 67866, "LAT": 16.2, "LON": -163.5, "VMAX": 30.0, "MSLP": 1006.0, "RMAX": 40.0, "FSPD": 6.01541, "FDIR": 279.84827, "RENV": 80.0, "PENV": 1009.0, "VALIDT": 0, "DTG": "2026-08-25 06:00", "LATNOW": 16.2, "LONNOW": -163.5, "WINDNOW": 30.0, "DIRNOW": 6.0, "SPDNOW": 3.0, "TECH": "TRAK", "ADVNR": null, "ATCFID": "CP022026", "NAME": "MOKE", "FTECH": "OFCL", "FCST_DTG": "2026-08-25 06:00:00", "RUN_DTG": "2026-08-26 00:32:58", "BASIN": "CP", "STMNR": 2, "CAT_ID": null, "CAT_DESC": null, "MSGID": null, "VALIDTIME": "2026-08-25 06:00:00" }, "geometry": { "type": "Point", "coordinates": [ -163.5, 16.200001 ] } },
{ "type": "Feature", "properties": { "ID": 67867, "LAT": 16.3, "LON": -164.1, "VMAX": 30.0, "MSLP": 1006.0, "RMAX": 40.0, "FSPD": 6.01541, "FDIR": 279.84827, "RENV": 250.0, "PENV": 1012.0, "VALIDT": 3, "DTG": "2026-08-25 09:00", "LATNOW": 16.2, "LONNOW": -163.5, "WINDNOW": 30.0, "DIRNOW": 6.0, "SPDNOW": 3.0, "TECH": "FCST", "ADVNR": null, "ATCFID": "CP022026", "NAME": "MOKE", "FTECH": "OFCL", "FCST_DTG": "2026-08-25 06:00:00", "RUN_DTG": "2026-08-26 00:32:58", "BASIN": "CP", "STMNR": 2, "CAT_ID": null, "CAT_DESC": null, "MSGID": null, "VALIDTIME": "2026-08-25 09:00:00" }, "geometry": { "type": "Point", "coordinates": [ -164.100006, 16.299999 ] } },
{ "type": "Feature", "properties": { "ID": 67866, "LAT": 16.2, "LON": -163.5, "VMAX": 30.0, "MSLP": 1006.0, "RMAX": 40.0, "FSPD": 6.01541, "FDIR": 279.84827, "RENV": 80.0, "PENV": 1009.0, "VALIDT": 0, "DTG": "2026-08-25 06:00", "LATNOW": 16.2, "LONNOW": -163.5, "WINDNOW": 30.0, "DIRNOW": 6.0, "SPDNOW": 3.0, "TECH": "TRAK", "ADVNR": null, "ATCFID": "CP022026", "NAME": "MOKE", "FTECH": "OFCL", "FCST_DTG": "2026-08-25 06:00:00", "RUN_DTG": "2026-08-26 00:32:58", "BASIN": "CP", "STMNR": 2, "CAT_ID": null, "CAT_DESC": null, "MSGID": null, "VALIDTIME": "2026-08-25 06:00:00" }, "geometry": { "type": "LineString", "coordinates": [ [ -136.0, 9.0 ], [ -136.9, 9.4 ], [ -138.7, 9.9 ], [ -140.0, 10.4 ], [ -141.1, 10.9 ], [ -142.6, 11.7 ], [ -143.4, 12.3 ], [ -144.6, 12.8 ], [ -145.2, 12.9 ], [ -145.6, 13.2 ], [ -146.7, 13.7 ], [ -147.8, 13.8 ], [ -148.7, 14.1 ], [ -149.7, 14.6 ], [ -150.6, 14.8 ], [ -151.5, 15.2 ], [ -152.7, 15.2 ], [ -154.3, 15.0 ], [ -155.7, 15.2 ], [ -156.7, 15.2 ], [ -157.8, 15.3 ], [ -159.5, 15.4 ], [ -161.1, 15.6 ], [ -162.5, 15.7 ], [ -163.5, 16.2 ] ] } },
{ "type": "Feature", "properties": { "ID": 67867, "LAT": 16.3, "LON": -164.1, "VMAX": 30.0, "MSLP": 1006.0, "RMAX": 40.0, "FSPD": 6.01541, "FDIR": 279.84827, "RENV": 250.0, "PENV": 1012.0, "VALIDT": 3, "DTG": "2026-08-25 09:00", "LATNOW": 16.2, "LONNOW": -163.5, "WINDNOW": 30.0, "DIRNOW": 6.0, "SPDNOW": 3.0, "TECH": "FCST", "ADVNR": null, "ATCFID": "CP022026", "NAME": "MOKE", "FTECH": "OFCL", "FCST_DTG": "2026-08-25 06:00:00", "RUN_DTG": "2026-08-26 00:32:58", "BASIN": "CP", "STMNR": 2, "CAT_ID": null, "CAT_DESC": null, "MSGID": null, "VALIDTIME": "2026-08-25 09:00:00" }, "geometry": { "type": "LineString", "coordinates": [ [ -163.5, 16.2 ], [ -164.1, 16.3 ] ] } }
]
}
