{
"type": "FeatureCollection",
"crs": { "type": "name", "properties": { "name": "urn:ogc:def:crs:OGC:1.3:CRS84" } },
"features": [
{ "type": "Feature", "properties": { "ID": 50461, "LAT": 14.2, "LON": -47.6, "VMAX": 20.0, "MSLP": 1011.0, "RMAX": 120.0, "FSPD": 4.57201, "FDIR": 334.1797, "RENV": 150.0, "PENV": 1013.0, "VALIDT": 0, "DTG": "2025-09-23 06:00", "LATNOW": 36.5, "LONNOW": -64.0, "WINDNOW": 60.0, "DIRNOW": 10.0, "SPDNOW": 1.0, "TECH": "TRAK", "ADVNR": 28, "ATCFID": "AL082025", "NAME": "HUMBERTO", "FTECH": "OFCL", "FCST_DTG": "2025-10-01 12:00:00", "RUN_DTG": "2025-10-02 10:41:41", "BASIN": "AL", "STMNR": 8, "CAT_ID": null, "CAT_DESC": null, "MSGID": "WTNT23 KNHC 011505", "VALIDTIME": "2025-09-23 06:00:00" }, "geometry": { "type": "Point", "coordinates": [ -47.599998, 14.2 ] } },
{ "type": "Feature", "properties": { "ID": 50462, "LAT": 15.0, "LON": -48.0, "VMAX": 20.0, "MSLP": 1011.0, "RMAX": 120.0, "FSPD": 8.74067, "FDIR": 325.48615, "RENV": 150.0, "PENV": 1013.0, "VALIDT": 0, "DTG": "2025-09-23 12:00", "LATNOW": 36.5, "LONNOW": -64.0, "WINDNOW": 60.0, "DIRNOW": 10.0, "SPDNOW": 1.0, "TECH": "TRAK", "ADVNR": 28, "ATCFID": "AL082025", "NAME": "HUMBERTO", "FTECH": "OFCL", "FCST_DTG": "2025-10-01 12:00:00", "RUN_DTG": "2025-10-02 10:41:41", "BASIN": "AL", "STMNR": 8, "CAT_ID": null, "CAT_DESC": null, "MSGID": "WTNT23 KNHC 011505", "VALIDTIME": "2025-09-23 12:00:00" }, "geometry": { "type": "Point", "coordinates": [ -48.0, 15.0 ] } },
{ "type": "Feature", "properties": { "ID": 50463, "LAT": 16.4, "LON": -49.0, "VMAX": 25.0, "MSLP": 1010.0, "RMAX": 100.0, "FSPD": 7.20168, "FDIR": 304.85294, "RENV": 150.0, "PENV": 1013.0, "VALIDT": 0, "DTG": "2025-09-23 18:00", "LATNOW": 36.5, "LONNOW": -64.0, "WINDNOW": 60.0, "DIRNOW": 10.0, "SPDNOW": 1.0, "TECH": "TRAK", "ADVNR": 28, "ATCFID": "AL082025", "NAME": "HUMBERTO", "FTECH": "OFCL", "FCST_DTG": "2025-10-01 12:00:00", "RUN_DTG": "2025-10-02 10:41:41", "BASIN": "AL", "STMNR": 8, "CAT_ID": null, "CAT_DESC": null, "MSGID": "WTNT23 KNHC 011505", "VALIDTIME": "2025-09-23 18:00:00" }, "geometry": { "type": "Point", "coordinates": [ -49.0, 16.4 ] } },
{ "type": "Feature", "properties": { "ID": 50464, "LAT": 17.2, "LON": -50.2, "VMAX": 25.0, "MSLP": 1010.0, "RMAX": 75.0, "FSPD": 12.05448, "FDIR": 313.06482, "RENV": 150.0, "PENV": 1013.0, "VALIDT": 0, "DTG": "2025-09-24 00:00", "LATNOW": 36.5, "LONNOW": -64.0, "WINDNOW": 60.0, "DIRNOW": 10.0, "SPDNOW": 1.0, "TECH": "TRAK", "ADVNR": 28, "ATCFID": "AL082025", "NAME": "HUMBERTO", "FTECH": "OFCL", "FCST_DTG": "2025-10-01 12:00:00", "RUN_DTG": "2025-10-02 10:41:41", "BASIN": "AL", "STMNR": 8, "CAT_ID": null, "CAT_DESC": null, "MSGID": "WTNT23 KNHC 011505", "VALIDTIME": "2025-09-24 00:00:00" }, "geometry": { "type": "Point", "coordinates": [ -50.200001, 17.200001 ] } },
{ "type": "Feature", "properties": { "ID": 50465, "LAT": 18.8, "LON": -52.0, "VMAX": 30.0, "MSLP": 1010.0, "RMAX": 75.0, "FSPD": 8.41432, "FDIR": 280.5689, "RENV": 150.0, "PENV": 1013.0, "VALIDT": 0, "DTG": "2025-09-24 06:00", "LATNOW": 36.5, "LONNOW": -64.0, "WINDNOW": 60.0, "DIRNOW": 10.0, "SPDNOW": 1.0, "TECH": "TRAK", "ADVNR": 28, "ATCFID": "AL082025", "NAME": "HUMBERTO", "FTECH": "OFCL", "FCST_DTG": "2025-10-01 12:00:00", "RUN_DTG": "2025-10-02 10:41:41", "BASIN": "AL", "STMNR": 8, "CAT_ID": null, "CAT_DESC": null, "MSGID": "WTNT23 KNHC 011505", "VALIDTIME": "2025-09-24 06:00:00" }, "geometry": { "type": "Point", "coordinates": [ -52.0, 18.799999 ] } },
{ "type": "Feature", "properties": { "ID": 50466, "LAT": 19.1, "LON": -53.7, "VMAX": 30.0, "MSLP": 1010.0, "RMAX": 75.0, "FSPD": 5.29412, "FDIR": 312.85992, "RENV": 150.0, "PENV": 1013.0, "VALIDT": 0, "DTG": "2025-09-24 12:00", "LATNOW": 36.5, "LONNOW": -64.0, "WINDNOW": 60.0, "DIRNOW": 10.0, "SPDNOW": 1.0, "TECH": "TRAK", "ADVNR": 28, "ATCFID": "AL082025", "NAME": "HUMBERTO", "FTECH": "OFCL", "FCST_DTG": "2025-10-01 12:00:00", "RUN_DTG": "2025-10-02 10:41:41", "BASIN": "AL", "STMNR": 8, "CAT_ID": null, "CAT_DESC": null, "MSGID": "WTNT23 KNHC 011505", "VALIDTIME": "2025-09-24 12:00:00" }, "geometry": { "type": "Point", "coordinates": [ -53.700001, 19.1 ] } },
{ "type": "Feature", "properties": { "ID": 50467, "LAT": 19.8, "LON": -54.5, "VMAX": 35.0, "MSLP": 1008.0, "RMAX": 40.0, "FSPD": 5.64457, "FDIR": 309.64124, "RENV": 150.0, "PENV": 1013.0, "VALIDT": 0, "DTG": "2025-09-24 18:00", "LATNOW": 36.5, "LONNOW": -64.0, "WINDNOW": 60.0, "DIRNOW": 10.0, "SPDNOW": 1.0, "TECH": "TRAK", "ADVNR": 28, "ATCFID": "AL082025", "NAME": "HUMBERTO", "FTECH": "OFCL", "FCST_DTG": "2025-10-01 12:00:00", "RUN_DTG": "2025-10-02 10:41:41", "BASIN": "AL", "STMNR": 8, "CAT_ID": null, "CAT_DESC": null, "MSGID": "WTNT23 KNHC 011505", "VALIDTIME": "2025-09-24 18:00:00" }, "geometry": { "type": "Point", "coordinates": [ -54.5, 19.799999 ] } },
{ "type": "Feature", "properties": { "ID": 50468, "LAT": 20.5, "LON": -55.4, "VMAX": 40.0, "MSLP": 1007.0, "RMAX": 60.0, "FSPD": 4.62904, "FDIR": 303.7569, "RENV": 110.0, "PENV": 1014.0, "VALIDT": 0, "DTG": "2025-09-25 00:00", "LATNOW": 36.5, "LONNOW": -64.0, "WINDNOW": 60.0, "DIRNOW": 10.0, "SPDNOW": 1.0, "TECH": "TRAK", "ADVNR": 28, "ATCFID": "AL082025", "NAME": "HUMBERTO", "FTECH": "OFCL", "FCST_DTG": "2025-10-01 12:00:00", "RUN_DTG": "2025-10-02 10:41:41", "BASIN": "AL", "STMNR": 8, "CAT_ID": null, "CAT_DESC": null, "MSGID": "WTNT23 KNHC 011505", "VALIDTIME": "2025-09-25 00:00:00" }, "geometry": { "type": "Point", "coordinates": [ -55.400002, 20.5 ] } },
{ "type": "Feature", "properties": { "ID": 50469, "LAT": 21.0, "LON": -56.2, "VMAX": 40.0, "MSLP": 1007.0, "RMAX": 60.0, "FSPD": 2.85252, "FDIR": 302.75452, "RENV": 110.0, "PENV": 1014.0, "VALIDT": 0, "DTG": "2025-09-25 06:00", "LATNOW": 36.5, "LONNOW": -64.0, "WINDNOW": 60.0, "DIRNOW": 10.0, "SPDNOW": 1.0, "TECH": "TRAK", "ADVNR": 28, "ATCFID": "AL082025", "NAME": "HUMBERTO", "FTECH": "OFCL", "FCST_DTG": "2025-10-01 12:00:00", "RUN_DTG": "2025-10-02 10:41:41", "BASIN": "AL", "STMNR": 8, "CAT_ID": null, "CAT_DESC": null, "MSGID": "WTNT23 KNHC 011505", "VALIDTIME": "2025-09-25 06:00:00" }, "geometry": { "type": "Point", "coordinates": [ -56.200001, 21.0 ] } },
{ "type": "Feature", "properties": { "ID": 50470, "LAT": 21.3, "LON": -56.7, "VMAX": 40.0, "MSLP": 1006.0, "RMAX": 60.0, "FSPD": 2.74447, "FDIR": 339.59274, "RENV": 110.0, "PENV": 1014.0, "VALIDT": 0, "DTG": "2025-09-25 12:00", "LATNOW": 36.5, "LONNOW": -64.0, "WINDNOW": 60.0, "DIRNOW": 10.0, "SPDNOW": 1.0, "TECH": "TRAK", "ADVNR": 28, "ATCFID": "AL082025", "NAME": "HUMBERTO", "FTECH": "OFCL", "FCST_DTG": "2025-10-01 12:00:00", "RUN_DTG": "2025-10-02 10:41:41", "BASIN": "AL", "STMNR": 8, "CAT_ID": null, "CAT_DESC": null, "MSGID": "WTNT23 KNHC 011505", "VALIDTIME": "2025-09-25 12:00:00" }, "geometry": { "type": "Point", "coordinates": [ -56.700001, 21.299999 ] } },
{ "type": "Feature", "properties": { "ID": 50471, "LAT": 21.8, "LON": -56.9, "VMAX": 50.0, "MSLP": 1000.0, "RMAX": 20.0, "FSPD": 1.61541, "FDIR": 342.82025, "RENV": 150.0, "PENV": 1014.0, "VALIDT": 0, "DTG": "2025-09-25 18:00", "LATNOW": 36.5, "LONNOW": -64.0, "WINDNOW": 60.0, "DIRNOW": 10.0, "SPDNOW": 1.0, "TECH": "TRAK", "ADVNR": 28, "ATCFID": "AL082025", "NAME": "HUMBERTO", "FTECH": "OFCL", "FCST_DTG": "2025-10-01 12:00:00", "RUN_DTG": "2025-10-02 10:41:41", "BASIN": "AL", "STMNR": 8, "CAT_ID": null, "CAT_DESC": null, "MSGID": "WTNT23 KNHC 011505", "VALIDTIME": "2025-09-25 18:00:00" }, "geometry": { "type": "Point", "coordinates": [ -56.900002, 21.799999 ] } },
{ "type": "Feature", "properties": { "ID": 50472, "LAT": 22.1, "LON": -57.0, "VMAX": 55.0, "MSLP": 998.0, "RMAX": 20.0, "FSPD": 0.47664, "FDIR": 269.99997, "RENV": 150.0, "PENV": 1015.0, "VALIDT": 0, "DTG": "2025-09-26 00:00", "LATNOW": 36.5, "LONNOW": -64.0, "WINDNOW": 60.0, "DIRNOW": 10.0, "SPDNOW": 1.0, "TECH": "TRAK", "ADVNR": 28, "ATCFID": "AL082025", "NAME": "HUMBERTO", "FTECH": "OFCL", "FCST_DTG": "2025-10-01 12:00:00", "RUN_DTG": "2025-10-02 10:41:41", "BASIN": "AL", "STMNR": 8, "CAT_ID": null, "CAT_DESC": null, "MSGID": "WTNT23 KNHC 011505", "VALIDTIME": "2025-09-26 00:00:00" }, "geometry": { "type": "Point", "coordinates": [ -57.0, 22.1 ] } },
{ "type": "Feature", "properties": { "ID": 50473, "LAT": 22.1, "LON": -57.1, "VMAX": 65.0, "MSLP": 990.0, "RMAX": 10.0, "FSPD": 1.40217, "FDIR": 317.20404, "RENV": 150.0, "PENV": 1012.0, "VALIDT": 0, "DTG": "2025-09-26 06:00", "LATNOW": 36.5, "LONNOW": -64.0, "WINDNOW": 60.0, "DIRNOW": 10.0, "SPDNOW": 1.0, "TECH": "TRAK", "ADVNR": 28, "ATCFID": "AL082025", "NAME": "HUMBERTO", "FTECH": "OFCL", "FCST_DTG": "2025-10-01 12:00:00", "RUN_DTG": "2025-10-02 10:41:41", "BASIN": "AL", "STMNR": 8, "CAT_ID": null, "CAT_DESC": null, "MSGID": "WTNT23 KNHC 011505", "VALIDTIME": "2025-09-26 06:00:00" }, "geometry": { "type": "Point", "coordinates": [ -57.099998, 22.1 ] } },
{ "type": "Feature", "properties": { "ID": 50474, "LAT": 22.3, "LON": -57.3, "VMAX": 75.0, "MSLP": 982.0, "RMAX": 10.0, "FSPD": 2.37985, "FDIR": 269.99997, "RENV": 150.0, "PENV": 1012.0, "VALIDT": 0, "DTG": "2025-09-26 12:00", "LATNOW": 36.5, "LONNOW": -64.0, "WINDNOW": 60.0, "DIRNOW": 10.0, "SPDNOW": 1.0, "TECH": "TRAK", "ADVNR": 28, "ATCFID": "AL082025", "NAME": "HUMBERTO", "FTECH": "OFCL", "FCST_DTG": "2025-10-01 12:00:00", "RUN_DTG": "2025-10-02 10:41:41", "BASIN": "AL", "STMNR": 8, "CAT_ID": null, "CAT_DESC": null, "MSGID": "WTNT23 KNHC 011505", "VALIDTIME": "2025-09-26 12:00:00" }, "geometry": { "type": "Point", "coordinates": [ -57.299999, 22.299999 ] } },
{ "type": "Feature", "properties": { "ID": 50475, "LAT": 22.3, "LON": -57.8, "VMAX": 95.0, "MSLP": 966.0, "RMAX": 10.0, "FSPD": 3.03743, "FDIR": 250.20016, "RENV": 150.0, "PENV": 1012.0, "VALIDT": 0, "DTG": "2025-09-26 18:00", "LATNOW": 36.5, "LONNOW": -64.0, "WINDNOW": 60.0, "DIRNOW": 10.0, "SPDNOW": 1.0, "TECH": "TRAK", "ADVNR": 28, "ATCFID": "AL082025", "NAME": "HUMBERTO", "FTECH": "OFCL", "FCST_DTG": "2025-10-01 12:00:00", "RUN_DTG": "2025-10-02 10:41:41", "BASIN": "AL", "STMNR": 8, "CAT_ID": null, "CAT_DESC": null, "MSGID": "WTNT23 KNHC 011505", "VALIDTIME": "2025-09-26 18:00:00" }, "geometry": { "type": "Point", "coordinates": [ -57.799999, 22.299999 ] } },
{ "type": "Feature", "properties": { "ID": 50476, "LAT": 22.1, "LON": -58.4, "VMAX": 120.0, "MSLP": 942.0, "RMAX": 10.0, "FSPD": 2.4373, "FDIR": 282.18515, "RENV": 150.0, "PENV": 1012.0, "VALIDT": 0, "DTG": "2025-09-27 00:00", "LATNOW": 36.5, "LONNOW": -64.0, "WINDNOW": 60.0, "DIRNOW": 10.0, "SPDNOW": 1.0, "TECH": "TRAK", "ADVNR": 28, "ATCFID": "AL082025", "NAME": "HUMBERTO", "FTECH": "OFCL", "FCST_DTG": "2025-10-01 12:00:00", "RUN_DTG": "2025-10-02 10:41:41", "BASIN": "AL", "STMNR": 8, "CAT_ID": null, "CAT_DESC": null, "MSGID": "WTNT23 KNHC 011505", "VALIDTIME": "2025-09-27 00:00:00" }, "geometry": { "type": "Point", "coordinates": [ -58.400002, 22.1 ] } },
{ "type": "Feature", "properties": { "ID": 50477, "LAT": 22.2, "LON": -58.9, "VMAX": 125.0, "MSLP": 938.0, "RMAX": 10.0, "FSPD": 4.10736, "FDIR": 292.0705, "RENV": 160.0, "PENV": 1011.0, "VALIDT": 0, "DTG": "2025-09-27 06:00", "LATNOW": 36.5, "LONNOW": -64.0, "WINDNOW": 60.0, "DIRNOW": 10.0, "SPDNOW": 1.0, "TECH": "TRAK", "ADVNR": 28, "ATCFID": "AL082025", "NAME": "HUMBERTO", "FTECH": "OFCL", "FCST_DTG": "2025-10-01 12:00:00", "RUN_DTG": "2025-10-02 10:41:41", "BASIN": "AL", "STMNR": 8, "CAT_ID": null, "CAT_DESC": null, "MSGID": "WTNT23 KNHC 011505", "VALIDTIME": "2025-09-27 06:00:00" }, "geometry": { "type": "Point", "coordinates": [ -58.900002, 22.200001 ] } },
{ "type": "Feature", "properties": { "ID": 50478, "LAT": 22.5, "LON": -59.7, "VMAX": 125.0, "MSLP": 938.0, "RMAX": 10.0, "FSPD": 4.85957, "FDIR": 282.22345, "RENV": 160.0, "PENV": 1011.0, "VALIDT": 0, "DTG": "2025-09-27 12:00", "LATNOW": 36.5, "LONNOW": -64.0, "WINDNOW": 60.0, "DIRNOW": 10.0, "SPDNOW": 1.0, "TECH": "TRAK", "ADVNR": 28, "ATCFID": "AL082025", "NAME": "HUMBERTO", "FTECH": "OFCL", "FCST_DTG": "2025-10-01 12:00:00", "RUN_DTG": "2025-10-02 10:41:41", "BASIN": "AL", "STMNR": 8, "CAT_ID": null, "CAT_DESC": null, "MSGID": "WTNT23 KNHC 011505", "VALIDTIME": "2025-09-27 12:00:00" }, "geometry": { "type": "Point", "coordinates": [ -59.700001, 22.5 ] } },
{ "type": "Feature", "properties": { "ID": 50479, "LAT": 22.7, "LON": -60.7, "VMAX": 135.0, "MSLP": 929.0, "RMAX": 10.0, "FSPD": 4.73554, "FDIR": 295.75592, "RENV": 170.0, "PENV": 1011.0, "VALIDT": 0, "DTG": "2025-09-27 18:00", "LATNOW": 36.5, "LONNOW": -64.0, "WINDNOW": 60.0, "DIRNOW": 10.0, "SPDNOW": 1.0, "TECH": "TRAK", "ADVNR": 28, "ATCFID": "AL082025", "NAME": "HUMBERTO", "FTECH": "OFCL", "FCST_DTG": "2025-10-01 12:00:00", "RUN_DTG": "2025-10-02 10:41:41", "BASIN": "AL", "STMNR": 8, "CAT_ID": null, "CAT_DESC": null, "MSGID": "WTNT23 KNHC 011505", "VALIDTIME": "2025-09-27 18:00:00" }, "geometry": { "type": "Point", "coordinates": [ -60.700001, 22.700001 ] } },
{ "type": "Feature", "properties": { "ID": 50480, "LAT": 23.1, "LON": -61.6, "VMAX": 140.0, "MSLP": 924.0, "RMAX": 10.0, "FSPD": 6.45187, "FDIR": 298.58188, "RENV": 170.0, "PENV": 1011.0, "VALIDT": 0, "DTG": "2025-09-28 00:00", "LATNOW": 36.5, "LONNOW": -64.0, "WINDNOW": 60.0, "DIRNOW": 10.0, "SPDNOW": 1.0, "TECH": "TRAK", "ADVNR": 28, "ATCFID": "AL082025", "NAME": "HUMBERTO", "FTECH": "OFCL", "FCST_DTG": "2025-10-01 12:00:00", "RUN_DTG": "2025-10-02 10:41:41", "BASIN": "AL", "STMNR": 8, "CAT_ID": null, "CAT_DESC": null, "MSGID": "WTNT23 KNHC 011505", "VALIDTIME": "2025-09-28 00:00:00" }, "geometry": { "type": "Point", "coordinates": [ -61.599998, 23.1 ] } },
{ "type": "Feature", "properties": { "ID": 50481, "LAT": 23.7, "LON": -62.8, "VMAX": 135.0, "MSLP": 929.0, "RMAX": 10.0, "FSPD": 5.35915, "FDIR": 298.6833, "RENV": 170.0, "PENV": 1011.0, "VALIDT": 0, "DTG": "2025-09-28 06:00", "LATNOW": 36.5, "LONNOW": -64.0, "WINDNOW": 60.0, "DIRNOW": 10.0, "SPDNOW": 1.0, "TECH": "TRAK", "ADVNR": 28, "ATCFID": "AL082025", "NAME": "HUMBERTO", "FTECH": "OFCL", "FCST_DTG": "2025-10-01 12:00:00", "RUN_DTG": "2025-10-02 10:41:41", "BASIN": "AL", "STMNR": 8, "CAT_ID": null, "CAT_DESC": null, "MSGID": "WTNT23 KNHC 011505", "VALIDTIME": "2025-09-28 06:00:00" }, "geometry": { "type": "Point", "coordinates": [ -62.799999, 23.700001 ] } },
{ "type": "Feature", "properties": { "ID": 50482, "LAT": 24.2, "LON": -63.8, "VMAX": 130.0, "MSLP": 934.0, "RMAX": 10.0, "FSPD": 6.58017, "FDIR": 314.7188, "RENV": 170.0, "PENV": 1011.0, "VALIDT": 0, "DTG": "2025-09-28 12:00", "LATNOW": 36.5, "LONNOW": -64.0, "WINDNOW": 60.0, "DIRNOW": 10.0, "SPDNOW": 1.0, "TECH": "TRAK", "ADVNR": 28, "ATCFID": "AL082025", "NAME": "HUMBERTO", "FTECH": "OFCL", "FCST_DTG": "2025-10-01 12:00:00", "RUN_DTG": "2025-10-02 10:41:41", "BASIN": "AL", "STMNR": 8, "CAT_ID": null, "CAT_DESC": null, "MSGID": "WTNT23 KNHC 011505", "VALIDTIME": "2025-09-28 12:00:00" }, "geometry": { "type": "Point", "coordinates": [ -63.799999, 24.200001 ] } },
{ "type": "Feature", "properties": { "ID": 50483, "LAT": 25.1, "LON": -64.8, "VMAX": 125.0, "MSLP": 937.0, "RMAX": 10.0, "FSPD": 5.8776, "FDIR": 307.78375, "RENV": 160.0, "PENV": 1011.0, "VALIDT": 0, "DTG": "2025-09-28 18:00", "LATNOW": 36.5, "LONNOW": -64.0, "WINDNOW": 60.0, "DIRNOW": 10.0, "SPDNOW": 1.0, "TECH": "TRAK", "ADVNR": 28, "ATCFID": "AL082025", "NAME": "HUMBERTO", "FTECH": "OFCL", "FCST_DTG": "2025-10-01 12:00:00", "RUN_DTG": "2025-10-02 10:41:41", "BASIN": "AL", "STMNR": 8, "CAT_ID": null, "CAT_DESC": null, "MSGID": "WTNT23 KNHC 011505", "VALIDTIME": "2025-09-28 18:00:00" }, "geometry": { "type": "Point", "coordinates": [ -64.800003, 25.1 ] } },
{ "type": "Feature", "properties": { "ID": 50484, "LAT": 25.8, "LON": -65.8, "VMAX": 120.0, "MSLP": 928.0, "RMAX": 10.0, "FSPD": 5.92125, "FDIR": 321.43762, "RENV": 200.0, "PENV": 1012.0, "VALIDT": 0, "DTG": "2025-09-29 00:00", "LATNOW": 36.5, "LONNOW": -64.0, "WINDNOW": 60.0, "DIRNOW": 10.0, "SPDNOW": 1.0, "TECH": "TRAK", "ADVNR": 28, "ATCFID": "AL082025", "NAME": "HUMBERTO", "FTECH": "OFCL", "FCST_DTG": "2025-10-01 12:00:00", "RUN_DTG": "2025-10-02 10:41:41", "BASIN": "AL", "STMNR": 8, "CAT_ID": null, "CAT_DESC": null, "MSGID": "WTNT23 KNHC 011505", "VALIDTIME": "2025-09-29 00:00:00" }, "geometry": { "type": "Point", "coordinates": [ -65.800003, 25.799999 ] } },
{ "type": "Feature", "properties": { "ID": 50485, "LAT": 26.7, "LON": -66.6, "VMAX": 115.0, "MSLP": 933.0, "RMAX": 10.0, "FSPD": 5.21678, "FDIR": 322.08347, "RENV": 170.0, "PENV": 1011.0, "VALIDT": 0, "DTG": "2025-09-29 06:00", "LATNOW": 36.5, "LONNOW": -64.0, "WINDNOW": 60.0, "DIRNOW": 10.0, "SPDNOW": 1.0, "TECH": "TRAK", "ADVNR": 28, "ATCFID": "AL082025", "NAME": "HUMBERTO", "FTECH": "OFCL", "FCST_DTG": "2025-10-01 12:00:00", "RUN_DTG": "2025-10-02 10:41:41", "BASIN": "AL", "STMNR": 8, "CAT_ID": null, "CAT_DESC": null, "MSGID": "WTNT23 KNHC 011505", "VALIDTIME": "2025-09-29 06:00:00" }, "geometry": { "type": "Point", "coordinates": [ -66.599998, 26.700001 ] } },
{ "type": "Feature", "properties": { "ID": 50486, "LAT": 27.5, "LON": -67.3, "VMAX": 125.0, "MSLP": 938.0, "RMAX": 10.0, "FSPD": 5.82176, "FDIR": 332.0868, "RENV": 170.0, "PENV": 1011.0, "VALIDT": 0, "DTG": "2025-09-29 12:00", "LATNOW": 36.5, "LONNOW": -64.0, "WINDNOW": 60.0, "DIRNOW": 10.0, "SPDNOW": 1.0, "TECH": "TRAK", "ADVNR": 28, "ATCFID": "AL082025", "NAME": "HUMBERTO", "FTECH": "OFCL", "FCST_DTG": "2025-10-01 12:00:00", "RUN_DTG": "2025-10-02 10:41:41", "BASIN": "AL", "STMNR": 8, "CAT_ID": null, "CAT_DESC": null, "MSGID": "WTNT23 KNHC 011505", "VALIDTIME": "2025-09-29 12:00:00" }, "geometry": { "type": "Point", "coordinates": [ -67.300003, 27.5 ] } },
{ "type": "Feature", "properties": { "ID": 50487, "LAT": 28.5, "LON": -67.9, "VMAX": 120.0, "MSLP": 942.0, "RMAX": 20.0, "FSPD": 5.61485, "FDIR": 336.37976, "RENV": 170.0, "PENV": 1010.0, "VALIDT": 0, "DTG": "2025-09-29 18:00", "LATNOW": 36.5, "LONNOW": -64.0, "WINDNOW": 60.0, "DIRNOW": 10.0, "SPDNOW": 1.0, "TECH": "TRAK", "ADVNR": 28, "ATCFID": "AL082025", "NAME": "HUMBERTO", "FTECH": "OFCL", "FCST_DTG": "2025-10-01 12:00:00", "RUN_DTG": "2025-10-02 10:41:41", "BASIN": "AL", "STMNR": 8, "CAT_ID": null, "CAT_DESC": null, "MSGID": "WTNT23 KNHC 011505", "VALIDTIME": "2025-09-29 18:00:00" }, "geometry": { "type": "Point", "coordinates": [ -67.900002, 28.5 ] } },
{ "type": "Feature", "properties": { "ID": 50488, "LAT": 29.5, "LON": -68.4, "VMAX": 105.0, "MSLP": 958.0, "RMAX": 20.0, "FSPD": 8.69157, "FDIR": 332.60217, "RENV": 150.0, "PENV": 1009.0, "VALIDT": 0, "DTG": "2025-09-30 00:00", "LATNOW": 36.5, "LONNOW": -64.0, "WINDNOW": 60.0, "DIRNOW": 10.0, "SPDNOW": 1.0, "TECH": "TRAK", "ADVNR": 28, "ATCFID": "AL082025", "NAME": "HUMBERTO", "FTECH": "OFCL", "FCST_DTG": "2025-10-01 12:00:00", "RUN_DTG": "2025-10-02 10:41:41", "BASIN": "AL", "STMNR": 8, "CAT_ID": null, "CAT_DESC": null, "MSGID": "WTNT23 KNHC 011505", "VALIDTIME": "2025-09-30 00:00:00" }, "geometry": { "type": "Point", "coordinates": [ -68.400002, 29.5 ] } },
{ "type": "Feature", "properties": { "ID": 50489, "LAT": 31.0, "LON": -69.3, "VMAX": 90.0, "MSLP": 970.0, "RMAX": 20.0, "FSPD": 8.02067, "FDIR": 344.17456, "RENV": 140.0, "PENV": 1006.0, "VALIDT": 0, "DTG": "2025-09-30 06:00", "LATNOW": 36.5, "LONNOW": -64.0, "WINDNOW": 60.0, "DIRNOW": 10.0, "SPDNOW": 1.0, "TECH": "TRAK", "ADVNR": 28, "ATCFID": "AL082025", "NAME": "HUMBERTO", "FTECH": "OFCL", "FCST_DTG": "2025-10-01 12:00:00", "RUN_DTG": "2025-10-02 10:41:41", "BASIN": "AL", "STMNR": 8, "CAT_ID": null, "CAT_DESC": null, "MSGID": "WTNT23 KNHC 011505", "VALIDTIME": "2025-09-30 06:00:00" }, "geometry": { "type": "Point", "coordinates": [ -69.300003, 31.0 ] } },
{ "type": "Feature", "properties": { "ID": 50490, "LAT": 32.5, "LON": -69.8, "VMAX": 75.0, "MSLP": 977.0, "RMAX": 20.0, "FSPD": 5.1625, "FDIR": 355.20605, "RENV": 120.0, "PENV": 1004.0, "VALIDT": 0, "DTG": "2025-09-30 12:00", "LATNOW": 36.5, "LONNOW": -64.0, "WINDNOW": 60.0, "DIRNOW": 10.0, "SPDNOW": 1.0, "TECH": "TRAK", "ADVNR": 28, "ATCFID": "AL082025", "NAME": "HUMBERTO", "FTECH": "OFCL", "FCST_DTG": "2025-10-01 12:00:00", "RUN_DTG": "2025-10-02 10:41:41", "BASIN": "AL", "STMNR": 8, "CAT_ID": null, "CAT_DESC": null, "MSGID": "WTNT23 KNHC 011505", "VALIDTIME": "2025-09-30 12:00:00" }, "geometry": { "type": "Point", "coordinates": [ -69.800003, 32.5 ] } },
{ "type": "Feature", "properties": { "ID": 50491, "LAT": 33.5, "LON": -69.9, "VMAX": 70.0, "MSLP": 979.0, "RMAX": 20.0, "FSPD": 6.83661, "FDIR": 34.13358, "RENV": 120.0, "PENV": 1004.0, "VALIDT": 0, "DTG": "2025-09-30 18:00", "LATNOW": 36.5, "LONNOW": -64.0, "WINDNOW": 60.0, "DIRNOW": 10.0, "SPDNOW": 1.0, "TECH": "TRAK", "ADVNR": 28, "ATCFID": "AL082025", "NAME": "HUMBERTO", "FTECH": "OFCL", "FCST_DTG": "2025-10-01 12:00:00", "RUN_DTG": "2025-10-02 10:41:41", "BASIN": "AL", "STMNR": 8, "CAT_ID": null, "CAT_DESC": null, "MSGID": "WTNT23 KNHC 011505", "VALIDTIME": "2025-09-30 18:00:00" }, "geometry": { "type": "Point", "coordinates": [ -69.900002, 33.5 ] } },
{ "type": "Feature", "properties": { "ID": 50492, "LAT": 34.6, "LON": -69.0, "VMAX": 70.0, "MSLP": 979.0, "RMAX": 30.0, "FSPD": 5.3201, "FDIR": 39.32269, "RENV": 120.0, "PENV": 1002.0, "VALIDT": 0, "DTG": "2025-10-01 00:00", "LATNOW": 36.5, "LONNOW": -64.0, "WINDNOW": 60.0, "DIRNOW": 10.0, "SPDNOW": 1.0, "TECH": "TRAK", "ADVNR": 28, "ATCFID": "AL082025", "NAME": "HUMBERTO", "FTECH": "OFCL", "FCST_DTG": "2025-10-01 12:00:00", "RUN_DTG": "2025-10-02 10:41:41", "BASIN": "AL", "STMNR": 8, "CAT_ID": null, "CAT_DESC": null, "MSGID": "WTNT23 KNHC 011505", "VALIDTIME": "2025-10-01 00:00:00" }, "geometry": { "type": "Point", "coordinates": [ -69.0, 34.599998 ] } },
{ "type": "Feature", "properties": { "ID": 50493, "LAT": 35.4, "LON": -68.2, "VMAX": 70.0, "MSLP": 979.0, "RMAX": 30.0, "FSPD": 18.38385, "FDIR": 72.0722, "RENV": 140.0, "PENV": 1003.0, "VALIDT": 0, "DTG": "2025-10-01 06:00", "LATNOW": 36.5, "LONNOW": -64.0, "WINDNOW": 60.0, "DIRNOW": 10.0, "SPDNOW": 1.0, "TECH": "TRAK", "ADVNR": 28, "ATCFID": "AL082025", "NAME": "HUMBERTO", "FTECH": "OFCL", "FCST_DTG": "2025-10-01 12:00:00", "RUN_DTG": "2025-10-02 10:41:41", "BASIN": "AL", "STMNR": 8, "CAT_ID": null, "CAT_DESC": null, "MSGID": "WTNT23 KNHC 011505", "VALIDTIME": "2025-10-01 06:00:00" }, "geometry": { "type": "Point", "coordinates": [ -68.199997, 35.400002 ] } },
{ "type": "Feature", "properties": { "ID": 50494, "LAT": 36.5, "LON": -64.0, "VMAX": 60.0, "MSLP": 980.0, "RMAX": 30.0, "FSPD": 9.71746, "FDIR": 58.03491, "RENV": 140.0, "PENV": 1004.0, "VALIDT": 0, "DTG": "2025-10-01 12:00", "LATNOW": 36.5, "LONNOW": -64.0, "WINDNOW": 60.0, "DIRNOW": 10.0, "SPDNOW": 1.0, "TECH": "TRAK", "ADVNR": 28, "ATCFID": "AL082025", "NAME": "HUMBERTO", "FTECH": "OFCL", "FCST_DTG": "2025-10-01 12:00:00", "RUN_DTG": "2025-10-02 10:41:41", "BASIN": "AL", "STMNR": 8, "CAT_ID": null, "CAT_DESC": null, "MSGID": "WTNT23 KNHC 011505", "VALIDTIME": "2025-10-01 12:00:00" }, "geometry": { "type": "Point", "coordinates": [ -64.0, 36.5 ] } },
{ "type": "Feature", "properties": { "ID": 50495, "LAT": 37.0, "LON": -63.0, "VMAX": 60.0, "MSLP": 980.0, "RMAX": 30.59823, "FSPD": 11.7778, "FDIR": 90.0, "RENV": 243.0, "PENV": 1012.0, "VALIDT": 3, "DTG": "2025-10-01 15:00", "LATNOW": 36.5, "LONNOW": -64.0, "WINDNOW": 60.0, "DIRNOW": 10.0, "SPDNOW": 1.0, "TECH": "FCST", "ADVNR": 28, "ATCFID": "AL082025", "NAME": "HUMBERTO", "FTECH": "OFCL", "FCST_DTG": "2025-10-01 12:00:00", "RUN_DTG": "2025-10-02 10:41:41", "BASIN": "AL", "STMNR": 8, "CAT_ID": null, "CAT_DESC": null, "MSGID": "WTNT23 KNHC 011505", "VALIDTIME": "2025-10-01 15:00:00" }, "geometry": { "type": "Point", "coordinates": [ -63.0, 37.0 ] } },
{ "type": "Feature", "properties": { "ID": 50496, "LAT": 37.0, "LON": -58.7, "VMAX": 50.0, "MSLP": 1002.2391, "RMAX": 32.15086, "FSPD": 11.7778, "FDIR": 90.0, "RENV": 265.0, "PENV": 1012.0, "VALIDT": 12, "DTG": "2025-10-02 00:00", "LATNOW": 36.5, "LONNOW": -64.0, "WINDNOW": 60.0, "DIRNOW": 10.0, "SPDNOW": 1.0, "TECH": "FCST", "ADVNR": 28, "ATCFID": "AL082025", "NAME": "HUMBERTO", "FTECH": "OFCL", "FCST_DTG": "2025-10-01 12:00:00", "RUN_DTG": "2025-10-02 10:41:41", "BASIN": "AL", "STMNR": 8, "CAT_ID": null, "CAT_DESC": null, "MSGID": "WTNT23 KNHC 011505", "VALIDTIME": "2025-10-02 00:00:00" }, "geometry": { "type": "Point", "coordinates": [ -58.700001, 37.0 ] } },
{ "type": "Feature", "properties": { "ID": 50494, "LAT": 36.5, "LON": -64.0, "VMAX": 60.0, "MSLP": 980.0, "RMAX": 30.0, "FSPD": 9.71746, "FDIR": 58.03491, "RENV": 140.0, "PENV": 1004.0, "VALIDT": 0, "DTG": "2025-10-01 12:00", "LATNOW": 36.5, "LONNOW": -64.0, "WINDNOW": 60.0, "DIRNOW": 10.0, "SPDNOW": 1.0, "TECH": "TRAK", "ADVNR": 28, "ATCFID": "AL082025", "NAME": "HUMBERTO", "FTECH": "OFCL", "FCST_DTG": "2025-10-01 12:00:00", "RUN_DTG": "2025-10-02 10:41:41", "BASIN": "AL", "STMNR": 8, "CAT_ID": null, "CAT_DESC": null, "MSGID": "WTNT23 KNHC 011505", "VALIDTIME": "2025-10-01 12:00:00" }, "geometry": { "type": "LineString", "coordinates": [ [ -47.6, 14.2 ], [ -48.0, 15.0 ], [ -49.0, 16.4 ], [ -50.2, 17.2 ], [ -52.0, 18.8 ], [ -53.7, 19.1 ], [ -54.5, 19.8 ], [ -55.4, 20.5 ], [ -56.2, 21.0 ], [ -56.7, 21.3 ], [ -56.9, 21.8 ], [ -57.0, 22.1 ], [ -57.1, 22.1 ], [ -57.3, 22.3 ], [ -57.8, 22.3 ], [ -58.4, 22.1 ], [ -58.9, 22.2 ], [ -59.7, 22.5 ], [ -60.7, 22.7 ], [ -61.6, 23.1 ], [ -62.8, 23.7 ], [ -63.8, 24.2 ], [ -64.8, 25.1 ], [ -65.8, 25.8 ], [ -66.6, 26.7 ], [ -67.3, 27.5 ], [ -67.9, 28.5 ], [ -68.4, 29.5 ], [ -69.3, 31.0 ], [ -69.8, 32.5 ], [ -69.9, 33.5 ], [ -69.0, 34.6 ], [ -68.2, 35.4 ], [ -64.0, 36.5 ] ] } },
{ "type": "Feature", "properties": { "ID": 50496, "LAT": 37.0, "LON": -58.7, "VMAX": 50.0, "MSLP": 1002.2391, "RMAX": 32.15086, "FSPD": 11.7778, "FDIR": 90.0, "RENV": 265.0, "PENV": 1012.0, "VALIDT": 12, "DTG": "2025-10-02 00:00", "LATNOW": 36.5, "LONNOW": -64.0, "WINDNOW": 60.0, "DIRNOW": 10.0, "SPDNOW": 1.0, "TECH": "FCST", "ADVNR": 28, "ATCFID": "AL082025", "NAME": "HUMBERTO", "FTECH": "OFCL", "FCST_DTG": "2025-10-01 12:00:00", "RUN_DTG": "2025-10-02 10:41:41", "BASIN": "AL", "STMNR": 8, "CAT_ID": null, "CAT_DESC": null, "MSGID": "WTNT23 KNHC 011505", "VALIDTIME": "2025-10-02 00:00:00" }, "geometry": { "type": "LineString", "coordinates": [ [ -64.0, 36.5 ], [ -63.0, 37.0 ], [ -58.7, 37.0 ] ] } }
]
}
