{
"type": "FeatureCollection",
"crs": { "type": "name", "properties": { "name": "urn:ogc:def:crs:OGC:1.3:CRS84" } },
"features": [
{ "type": "Feature", "properties": { "ID": 103605, "LAT": -15.4, "LON": 136.3, "VMAX": 15.0, "MSLP": 1013.8515, "RMAX": 40.0, "FSPD": 1.98386, "FDIR": 90.0, "RENV": 500.0, "PENV": 1012.0, "VALIDT": 0, "DTG": "2026-01-28 18:00", "LATNOW": -25.3, "LONNOW": 113.8, "WINDNOW": 45.0, "DIRNOW": 6.0, "SPDNOW": 5.0, "TECH": "TRAK", "ADVNR": 15, "ATCFID": "SH202026", "NAME": "MITCHELL", "FTECH": "JTWC", "FCST_DTG": "2026-02-09 12:00:00", "RUN_DTG": "2026-02-10 06:28:01", "BASIN": "SH", "STMNR": 20, "CAT_ID": null, "CAT_DESC": null, "MSGID": "WTXS51 PGTW 091500", "VALIDTIME": "2026-01-28 18:00:00" }, "geometry": { "type": "Point", "coordinates": [ 136.300003, -15.4 ] } },
{ "type": "Feature", "properties": { "ID": 103606, "LAT": -15.4, "LON": 136.7, "VMAX": 15.0, "MSLP": 1013.8515, "RMAX": 40.0, "FSPD": 1.98394, "FDIR": 90.0, "RENV": 500.0, "PENV": 1012.0, "VALIDT": 0, "DTG": "2026-01-29 00:00", "LATNOW": -25.3, "LONNOW": 113.8, "WINDNOW": 45.0, "DIRNOW": 6.0, "SPDNOW": 5.0, "TECH": "TRAK", "ADVNR": 15, "ATCFID": "SH202026", "NAME": "MITCHELL", "FTECH": "JTWC", "FCST_DTG": "2026-02-09 12:00:00", "RUN_DTG": "2026-02-10 06:28:01", "BASIN": "SH", "STMNR": 20, "CAT_ID": null, "CAT_DESC": null, "MSGID": "WTXS51 PGTW 091500", "VALIDTIME": "2026-01-29 00:00:00" }, "geometry": { "type": "Point", "coordinates": [ 136.699997, -15.4 ] } },
{ "type": "Feature", "properties": { "ID": 103607, "LAT": -15.4, "LON": 137.1, "VMAX": 20.0, "MSLP": 1012.95825, "RMAX": 45.0, "FSPD": 1.57395, "FDIR": 109.07767, "RENV": 500.0, "PENV": 1012.0, "VALIDT": 0, "DTG": "2026-01-29 06:00", "LATNOW": -25.3, "LONNOW": 113.8, "WINDNOW": 45.0, "DIRNOW": 6.0, "SPDNOW": 5.0, "TECH": "TRAK", "ADVNR": 15, "ATCFID": "SH202026", "NAME": "MITCHELL", "FTECH": "JTWC", "FCST_DTG": "2026-02-09 12:00:00", "RUN_DTG": "2026-02-10 06:28:01", "BASIN": "SH", "STMNR": 20, "CAT_ID": null, "CAT_DESC": null, "MSGID": "WTXS51 PGTW 091500", "VALIDTIME": "2026-01-29 06:00:00" }, "geometry": { "type": "Point", "coordinates": [ 137.100006, -15.4 ] } },
{ "type": "Feature", "properties": { "ID": 103608, "LAT": -15.5, "LON": 137.4, "VMAX": 25.0, "MSLP": 1011.80975, "RMAX": 45.0, "FSPD": 1.42856, "FDIR": 136.07315, "RENV": 500.0, "PENV": 1012.0, "VALIDT": 0, "DTG": "2026-01-29 12:00", "LATNOW": -25.3, "LONNOW": 113.8, "WINDNOW": 45.0, "DIRNOW": 6.0, "SPDNOW": 5.0, "TECH": "TRAK", "ADVNR": 15, "ATCFID": "SH202026", "NAME": "MITCHELL", "FTECH": "JTWC", "FCST_DTG": "2026-02-09 12:00:00", "RUN_DTG": "2026-02-10 06:28:01", "BASIN": "SH", "STMNR": 20, "CAT_ID": null, "CAT_DESC": null, "MSGID": "WTXS51 PGTW 091500", "VALIDTIME": "2026-01-29 12:00:00" }, "geometry": { "type": "Point", "coordinates": [ 137.399994, -15.5 ] } },
{ "type": "Feature", "properties": { "ID": 103609, "LAT": -15.7, "LON": 137.6, "VMAX": 25.0, "MSLP": 1011.80975, "RMAX": 45.0, "FSPD": 2.75593, "FDIR": 201.03789, "RENV": 500.0, "PENV": 1012.0, "VALIDT": 0, "DTG": "2026-01-29 18:00", "LATNOW": -25.3, "LONNOW": 113.8, "WINDNOW": 45.0, "DIRNOW": 6.0, "SPDNOW": 5.0, "TECH": "TRAK", "ADVNR": 15, "ATCFID": "SH202026", "NAME": "MITCHELL", "FTECH": "JTWC", "FCST_DTG": "2026-02-09 12:00:00", "RUN_DTG": "2026-02-10 06:28:01", "BASIN": "SH", "STMNR": 20, "CAT_ID": null, "CAT_DESC": null, "MSGID": "WTXS51 PGTW 091500", "VALIDTIME": "2026-01-29 18:00:00" }, "geometry": { "type": "Point", "coordinates": [ 137.600006, -15.7 ] } },
{ "type": "Feature", "properties": { "ID": 103610, "LAT": -16.2, "LON": 137.4, "VMAX": 25.0, "MSLP": 1011.80975, "RMAX": 45.0, "FSPD": 3.92168, "FDIR": 229.01216, "RENV": 500.0, "PENV": 1012.0, "VALIDT": 0, "DTG": "2026-01-30 00:00", "LATNOW": -25.3, "LONNOW": 113.8, "WINDNOW": 45.0, "DIRNOW": 6.0, "SPDNOW": 5.0, "TECH": "TRAK", "ADVNR": 15, "ATCFID": "SH202026", "NAME": "MITCHELL", "FTECH": "JTWC", "FCST_DTG": "2026-02-09 12:00:00", "RUN_DTG": "2026-02-10 06:28:01", "BASIN": "SH", "STMNR": 20, "CAT_ID": null, "CAT_DESC": null, "MSGID": "WTXS51 PGTW 091500", "VALIDTIME": "2026-01-30 00:00:00" }, "geometry": { "type": "Point", "coordinates": [ 137.399994, -16.200001 ] } },
{ "type": "Feature", "properties": { "ID": 103611, "LAT": -16.7, "LON": 136.8, "VMAX": 25.0, "MSLP": 1011.80975, "RMAX": 45.0, "FSPD": 3.97439, "FDIR": 262.56287, "RENV": 500.0, "PENV": 1012.0, "VALIDT": 0, "DTG": "2026-01-30 06:00", "LATNOW": -25.3, "LONNOW": 113.8, "WINDNOW": 45.0, "DIRNOW": 6.0, "SPDNOW": 5.0, "TECH": "TRAK", "ADVNR": 15, "ATCFID": "SH202026", "NAME": "MITCHELL", "FTECH": "JTWC", "FCST_DTG": "2026-02-09 12:00:00", "RUN_DTG": "2026-02-10 06:28:01", "BASIN": "SH", "STMNR": 20, "CAT_ID": null, "CAT_DESC": null, "MSGID": "WTXS51 PGTW 091500", "VALIDTIME": "2026-01-30 06:00:00" }, "geometry": { "type": "Point", "coordinates": [ 136.800003, -16.700001 ] } },
{ "type": "Feature", "properties": { "ID": 103612, "LAT": -16.8, "LON": 136.0, "VMAX": 25.0, "MSLP": 1011.80975, "RMAX": 45.0, "FSPD": 4.54793, "FDIR": 256.92456, "RENV": 500.0, "PENV": 1012.0, "VALIDT": 0, "DTG": "2026-01-30 12:00", "LATNOW": -25.3, "LONNOW": 113.8, "WINDNOW": 45.0, "DIRNOW": 6.0, "SPDNOW": 5.0, "TECH": "TRAK", "ADVNR": 15, "ATCFID": "SH202026", "NAME": "MITCHELL", "FTECH": "JTWC", "FCST_DTG": "2026-02-09 12:00:00", "RUN_DTG": "2026-02-10 06:28:01", "BASIN": "SH", "STMNR": 20, "CAT_ID": null, "CAT_DESC": null, "MSGID": "WTXS51 PGTW 091500", "VALIDTIME": "2026-01-30 12:00:00" }, "geometry": { "type": "Point", "coordinates": [ 136.0, -16.799999 ] } },
{ "type": "Feature", "properties": { "ID": 103613, "LAT": -17.0, "LON": 135.1, "VMAX": 20.0, "MSLP": 1012.95825, "RMAX": 45.0, "FSPD": 4.91966, "FDIR": 269.99997, "RENV": 500.0, "PENV": 1012.0, "VALIDT": 0, "DTG": "2026-01-30 18:00", "LATNOW": -25.3, "LONNOW": 113.8, "WINDNOW": 45.0, "DIRNOW": 6.0, "SPDNOW": 5.0, "TECH": "TRAK", "ADVNR": 15, "ATCFID": "SH202026", "NAME": "MITCHELL", "FTECH": "JTWC", "FCST_DTG": "2026-02-09 12:00:00", "RUN_DTG": "2026-02-10 06:28:01", "BASIN": "SH", "STMNR": 20, "CAT_ID": null, "CAT_DESC": null, "MSGID": "WTXS51 PGTW 091500", "VALIDTIME": "2026-01-30 18:00:00" }, "geometry": { "type": "Point", "coordinates": [ 135.100006, -17.0 ] } },
{ "type": "Feature", "properties": { "ID": 103614, "LAT": -17.0, "LON": 134.1, "VMAX": 20.0, "MSLP": 1012.95825, "RMAX": 45.0, "FSPD": 4.45635, "FDIR": 263.3709, "RENV": 500.0, "PENV": 1012.0, "VALIDT": 0, "DTG": "2026-01-31 00:00", "LATNOW": -25.3, "LONNOW": 113.8, "WINDNOW": 45.0, "DIRNOW": 6.0, "SPDNOW": 5.0, "TECH": "TRAK", "ADVNR": 15, "ATCFID": "SH202026", "NAME": "MITCHELL", "FTECH": "JTWC", "FCST_DTG": "2026-02-09 12:00:00", "RUN_DTG": "2026-02-10 06:28:01", "BASIN": "SH", "STMNR": 20, "CAT_ID": null, "CAT_DESC": null, "MSGID": "WTXS51 PGTW 091500", "VALIDTIME": "2026-01-31 00:00:00" }, "geometry": { "type": "Point", "coordinates": [ 134.100006, -17.0 ] } },
{ "type": "Feature", "properties": { "ID": 103615, "LAT": -17.1, "LON": 133.2, "VMAX": 20.0, "MSLP": 1012.95825, "RMAX": 45.0, "FSPD": 4.45627, "FDIR": 276.62915, "RENV": 500.0, "PENV": 1012.0, "VALIDT": 0, "DTG": "2026-01-31 06:00", "LATNOW": -25.3, "LONNOW": 113.8, "WINDNOW": 45.0, "DIRNOW": 6.0, "SPDNOW": 5.0, "TECH": "TRAK", "ADVNR": 15, "ATCFID": "SH202026", "NAME": "MITCHELL", "FTECH": "JTWC", "FCST_DTG": "2026-02-09 12:00:00", "RUN_DTG": "2026-02-10 06:28:01", "BASIN": "SH", "STMNR": 20, "CAT_ID": null, "CAT_DESC": null, "MSGID": "WTXS51 PGTW 091500", "VALIDTIME": "2026-01-31 06:00:00" }, "geometry": { "type": "Point", "coordinates": [ 133.199997, -17.1 ] } },
{ "type": "Feature", "properties": { "ID": 103616, "LAT": -17.0, "LON": 132.3, "VMAX": 15.0, "MSLP": 1013.8515, "RMAX": 40.0, "FSPD": 3.91825, "FDIR": 311.03134, "RENV": 500.0, "PENV": 1012.0, "VALIDT": 0, "DTG": "2026-01-31 12:00", "LATNOW": -25.3, "LONNOW": 113.8, "WINDNOW": 45.0, "DIRNOW": 6.0, "SPDNOW": 5.0, "TECH": "TRAK", "ADVNR": 15, "ATCFID": "SH202026", "NAME": "MITCHELL", "FTECH": "JTWC", "FCST_DTG": "2026-02-09 12:00:00", "RUN_DTG": "2026-02-10 06:28:01", "BASIN": "SH", "STMNR": 20, "CAT_ID": null, "CAT_DESC": null, "MSGID": "WTXS51 PGTW 091500", "VALIDTIME": "2026-01-31 12:00:00" }, "geometry": { "type": "Point", "coordinates": [ 132.300003, -17.0 ] } },
{ "type": "Feature", "properties": { "ID": 103617, "LAT": -16.5, "LON": 131.7, "VMAX": 15.0, "MSLP": 1013.8515, "RMAX": 40.0, "FSPD": 3.92397, "FDIR": 310.95874, "RENV": 500.0, "PENV": 1012.0, "VALIDT": 0, "DTG": "2026-01-31 18:00", "LATNOW": -25.3, "LONNOW": 113.8, "WINDNOW": 45.0, "DIRNOW": 6.0, "SPDNOW": 5.0, "TECH": "TRAK", "ADVNR": 15, "ATCFID": "SH202026", "NAME": "MITCHELL", "FTECH": "JTWC", "FCST_DTG": "2026-02-09 12:00:00", "RUN_DTG": "2026-02-10 06:28:01", "BASIN": "SH", "STMNR": 20, "CAT_ID": null, "CAT_DESC": null, "MSGID": "WTXS51 PGTW 091500", "VALIDTIME": "2026-01-31 18:00:00" }, "geometry": { "type": "Point", "coordinates": [ 131.699997, -16.5 ] } },
{ "type": "Feature", "properties": { "ID": 103618, "LAT": -16.0, "LON": 131.1, "VMAX": 15.0, "MSLP": 1013.8515, "RMAX": 40.0, "FSPD": 4.57016, "FDIR": 76.98935, "RENV": 500.0, "PENV": 1012.0, "VALIDT": 0, "DTG": "2026-02-01 00:00", "LATNOW": -25.3, "LONNOW": 113.8, "WINDNOW": 45.0, "DIRNOW": 6.0, "SPDNOW": 5.0, "TECH": "TRAK", "ADVNR": 15, "ATCFID": "SH202026", "NAME": "MITCHELL", "FTECH": "JTWC", "FCST_DTG": "2026-02-09 12:00:00", "RUN_DTG": "2026-02-10 06:28:01", "BASIN": "SH", "STMNR": 20, "CAT_ID": null, "CAT_DESC": null, "MSGID": "WTXS51 PGTW 091500", "VALIDTIME": "2026-02-01 00:00:00" }, "geometry": { "type": "Point", "coordinates": [ 131.100006, -16.0 ] } },
{ "type": "Feature", "properties": { "ID": 103619, "LAT": -15.8, "LON": 132.0, "VMAX": 15.0, "MSLP": 1013.8515, "RMAX": 40.0, "FSPD": 3.08666, "FDIR": 179.99997, "RENV": 500.0, "PENV": 1012.0, "VALIDT": 0, "DTG": "2026-02-01 06:00", "LATNOW": -25.3, "LONNOW": 113.8, "WINDNOW": 45.0, "DIRNOW": 6.0, "SPDNOW": 5.0, "TECH": "TRAK", "ADVNR": 15, "ATCFID": "SH202026", "NAME": "MITCHELL", "FTECH": "JTWC", "FCST_DTG": "2026-02-09 12:00:00", "RUN_DTG": "2026-02-10 06:28:01", "BASIN": "SH", "STMNR": 20, "CAT_ID": null, "CAT_DESC": null, "MSGID": "WTXS51 PGTW 091500", "VALIDTIME": "2026-02-01 06:00:00" }, "geometry": { "type": "Point", "coordinates": [ 132.0, -15.8 ] } },
{ "type": "Feature", "properties": { "ID": 103620, "LAT": -16.4, "LON": 132.0, "VMAX": 15.0, "MSLP": 1013.8515, "RMAX": 40.0, "FSPD": 1.02889, "FDIR": 179.99997, "RENV": 500.0, "PENV": 1012.0, "VALIDT": 0, "DTG": "2026-02-01 12:00", "LATNOW": -25.3, "LONNOW": 113.8, "WINDNOW": 45.0, "DIRNOW": 6.0, "SPDNOW": 5.0, "TECH": "TRAK", "ADVNR": 15, "ATCFID": "SH202026", "NAME": "MITCHELL", "FTECH": "JTWC", "FCST_DTG": "2026-02-09 12:00:00", "RUN_DTG": "2026-02-10 06:28:01", "BASIN": "SH", "STMNR": 20, "CAT_ID": null, "CAT_DESC": null, "MSGID": "WTXS51 PGTW 091500", "VALIDTIME": "2026-02-01 12:00:00" }, "geometry": { "type": "Point", "coordinates": [ 132.0, -16.4 ] } },
{ "type": "Feature", "properties": { "ID": 103621, "LAT": -16.6, "LON": 132.0, "VMAX": 15.0, "MSLP": 1013.8515, "RMAX": 40.0, "FSPD": 2.66994, "FDIR": 247.33398, "RENV": 500.0, "PENV": 1012.0, "VALIDT": 0, "DTG": "2026-02-01 18:00", "LATNOW": -25.3, "LONNOW": 113.8, "WINDNOW": 45.0, "DIRNOW": 6.0, "SPDNOW": 5.0, "TECH": "TRAK", "ADVNR": 15, "ATCFID": "SH202026", "NAME": "MITCHELL", "FTECH": "JTWC", "FCST_DTG": "2026-02-09 12:00:00", "RUN_DTG": "2026-02-10 06:28:01", "BASIN": "SH", "STMNR": 20, "CAT_ID": null, "CAT_DESC": null, "MSGID": "WTXS51 PGTW 091500", "VALIDTIME": "2026-02-01 18:00:00" }, "geometry": { "type": "Point", "coordinates": [ 132.0, -16.6 ] } },
{ "type": "Feature", "properties": { "ID": 103622, "LAT": -16.8, "LON": 131.5, "VMAX": 20.0, "MSLP": 1012.95825, "RMAX": 45.0, "FSPD": 0.51445, "FDIR": 179.99997, "RENV": 500.0, "PENV": 1012.0, "VALIDT": 0, "DTG": "2026-02-02 00:00", "LATNOW": -25.3, "LONNOW": 113.8, "WINDNOW": 45.0, "DIRNOW": 6.0, "SPDNOW": 5.0, "TECH": "TRAK", "ADVNR": 15, "ATCFID": "SH202026", "NAME": "MITCHELL", "FTECH": "JTWC", "FCST_DTG": "2026-02-09 12:00:00", "RUN_DTG": "2026-02-10 06:28:01", "BASIN": "SH", "STMNR": 20, "CAT_ID": null, "CAT_DESC": null, "MSGID": "WTXS51 PGTW 091500", "VALIDTIME": "2026-02-02 00:00:00" }, "geometry": { "type": "Point", "coordinates": [ 131.5, -16.799999 ] } },
{ "type": "Feature", "properties": { "ID": 103623, "LAT": -16.9, "LON": 131.5, "VMAX": 20.0, "MSLP": 1012.95825, "RMAX": 45.0, "FSPD": 1.11052, "FDIR": 242.40315, "RENV": 500.0, "PENV": 1012.0, "VALIDT": 0, "DTG": "2026-02-02 06:00", "LATNOW": -25.3, "LONNOW": 113.8, "WINDNOW": 45.0, "DIRNOW": 6.0, "SPDNOW": 5.0, "TECH": "TRAK", "ADVNR": 15, "ATCFID": "SH202026", "NAME": "MITCHELL", "FTECH": "JTWC", "FCST_DTG": "2026-02-09 12:00:00", "RUN_DTG": "2026-02-10 06:28:01", "BASIN": "SH", "STMNR": 20, "CAT_ID": null, "CAT_DESC": null, "MSGID": "WTXS51 PGTW 091500", "VALIDTIME": "2026-02-02 06:00:00" }, "geometry": { "type": "Point", "coordinates": [ 131.5, -16.9 ] } },
{ "type": "Feature", "properties": { "ID": 103624, "LAT": -17.0, "LON": 131.3, "VMAX": 20.0, "MSLP": 1012.95825, "RMAX": 45.0, "FSPD": 0.71175, "FDIR": 223.71443, "RENV": 500.0, "PENV": 1012.0, "VALIDT": 0, "DTG": "2026-02-02 12:00", "LATNOW": -25.3, "LONNOW": 113.8, "WINDNOW": 45.0, "DIRNOW": 6.0, "SPDNOW": 5.0, "TECH": "TRAK", "ADVNR": 15, "ATCFID": "SH202026", "NAME": "MITCHELL", "FTECH": "JTWC", "FCST_DTG": "2026-02-09 12:00:00", "RUN_DTG": "2026-02-10 06:28:01", "BASIN": "SH", "STMNR": 20, "CAT_ID": null, "CAT_DESC": null, "MSGID": "WTXS51 PGTW 091500", "VALIDTIME": "2026-02-02 12:00:00" }, "geometry": { "type": "Point", "coordinates": [ 131.300003, -17.0 ] } },
{ "type": "Feature", "properties": { "ID": 103625, "LAT": -17.1, "LON": 131.2, "VMAX": 25.0, "MSLP": 1011.80975, "RMAX": 45.0, "FSPD": 0.7117, "FDIR": 316.2899, "RENV": 500.0, "PENV": 1012.0, "VALIDT": 0, "DTG": "2026-02-02 18:00", "LATNOW": -25.3, "LONNOW": 113.8, "WINDNOW": 45.0, "DIRNOW": 6.0, "SPDNOW": 5.0, "TECH": "TRAK", "ADVNR": 15, "ATCFID": "SH202026", "NAME": "MITCHELL", "FTECH": "JTWC", "FCST_DTG": "2026-02-09 12:00:00", "RUN_DTG": "2026-02-10 06:28:01", "BASIN": "SH", "STMNR": 20, "CAT_ID": null, "CAT_DESC": null, "MSGID": "WTXS51 PGTW 091500", "VALIDTIME": "2026-02-02 18:00:00" }, "geometry": { "type": "Point", "coordinates": [ 131.199997, -17.1 ] } },
{ "type": "Feature", "properties": { "ID": 103626, "LAT": -17.0, "LON": 131.1, "VMAX": 25.0, "MSLP": 1011.80975, "RMAX": 45.0, "FSPD": 1.11052, "FDIR": 62.40317, "RENV": 500.0, "PENV": 1012.0, "VALIDT": 0, "DTG": "2026-02-03 00:00", "LATNOW": -25.3, "LONNOW": 113.8, "WINDNOW": 45.0, "DIRNOW": 6.0, "SPDNOW": 5.0, "TECH": "TRAK", "ADVNR": 15, "ATCFID": "SH202026", "NAME": "MITCHELL", "FTECH": "JTWC", "FCST_DTG": "2026-02-09 12:00:00", "RUN_DTG": "2026-02-10 06:28:01", "BASIN": "SH", "STMNR": 20, "CAT_ID": null, "CAT_DESC": null, "MSGID": "WTXS51 PGTW 091500", "VALIDTIME": "2026-02-03 00:00:00" }, "geometry": { "type": "Point", "coordinates": [ 131.100006, -17.0 ] } },
{ "type": "Feature", "properties": { "ID": 103627, "LAT": -16.9, "LON": 131.3, "VMAX": 25.0, "MSLP": 1011.80975, "RMAX": 45.0, "FSPD": 0.49226, "FDIR": 269.99997, "RENV": 500.0, "PENV": 1012.0, "VALIDT": 0, "DTG": "2026-02-03 06:00", "LATNOW": -25.3, "LONNOW": 113.8, "WINDNOW": 45.0, "DIRNOW": 6.0, "SPDNOW": 5.0, "TECH": "TRAK", "ADVNR": 15, "ATCFID": "SH202026", "NAME": "MITCHELL", "FTECH": "JTWC", "FCST_DTG": "2026-02-09 12:00:00", "RUN_DTG": "2026-02-10 06:28:01", "BASIN": "SH", "STMNR": 20, "CAT_ID": null, "CAT_DESC": null, "MSGID": "WTXS51 PGTW 091500", "VALIDTIME": "2026-02-03 06:00:00" }, "geometry": { "type": "Point", "coordinates": [ 131.300003, -16.9 ] } },
{ "type": "Feature", "properties": { "ID": 103628, "LAT": -16.9, "LON": 131.2, "VMAX": 25.0, "MSLP": 1011.80975, "RMAX": 45.0, "FSPD": 3.48287, "FDIR": 261.50586, "RENV": 500.0, "PENV": 1012.0, "VALIDT": 0, "DTG": "2026-02-03 12:00", "LATNOW": -25.3, "LONNOW": 113.8, "WINDNOW": 45.0, "DIRNOW": 6.0, "SPDNOW": 5.0, "TECH": "TRAK", "ADVNR": 15, "ATCFID": "SH202026", "NAME": "MITCHELL", "FTECH": "JTWC", "FCST_DTG": "2026-02-09 12:00:00", "RUN_DTG": "2026-02-10 06:28:01", "BASIN": "SH", "STMNR": 20, "CAT_ID": null, "CAT_DESC": null, "MSGID": "WTXS51 PGTW 091500", "VALIDTIME": "2026-02-03 12:00:00" }, "geometry": { "type": "Point", "coordinates": [ 131.199997, -16.9 ] } },
{ "type": "Feature", "properties": { "ID": 103629, "LAT": -17.0, "LON": 130.5, "VMAX": 20.0, "MSLP": 1012.95825, "RMAX": 45.0, "FSPD": 4.91966, "FDIR": 269.99997, "RENV": 500.0, "PENV": 1012.0, "VALIDT": 0, "DTG": "2026-02-03 18:00", "LATNOW": -25.3, "LONNOW": 113.8, "WINDNOW": 45.0, "DIRNOW": 6.0, "SPDNOW": 5.0, "TECH": "TRAK", "ADVNR": 15, "ATCFID": "SH202026", "NAME": "MITCHELL", "FTECH": "JTWC", "FCST_DTG": "2026-02-09 12:00:00", "RUN_DTG": "2026-02-10 06:28:01", "BASIN": "SH", "STMNR": 20, "CAT_ID": null, "CAT_DESC": null, "MSGID": "WTXS51 PGTW 091500", "VALIDTIME": "2026-02-03 18:00:00" }, "geometry": { "type": "Point", "coordinates": [ 130.5, -17.0 ] } },
{ "type": "Feature", "properties": { "ID": 103630, "LAT": -17.0, "LON": 129.5, "VMAX": 20.0, "MSLP": 1012.95825, "RMAX": 45.0, "FSPD": 3.33302, "FDIR": 297.58356, "RENV": 500.0, "PENV": 1012.0, "VALIDT": 0, "DTG": "2026-02-04 00:00", "LATNOW": -25.3, "LONNOW": 113.8, "WINDNOW": 45.0, "DIRNOW": 6.0, "SPDNOW": 5.0, "TECH": "TRAK", "ADVNR": 15, "ATCFID": "SH202026", "NAME": "MITCHELL", "FTECH": "JTWC", "FCST_DTG": "2026-02-09 12:00:00", "RUN_DTG": "2026-02-10 06:28:01", "BASIN": "SH", "STMNR": 20, "CAT_ID": null, "CAT_DESC": null, "MSGID": "WTXS51 PGTW 091500", "VALIDTIME": "2026-02-04 00:00:00" }, "geometry": { "type": "Point", "coordinates": [ 129.5, -17.0 ] } },
{ "type": "Feature", "properties": { "ID": 103631, "LAT": -16.7, "LON": 128.9, "VMAX": 20.0, "MSLP": 1012.95825, "RMAX": 45.0, "FSPD": 2.03749, "FDIR": 284.62494, "RENV": 500.0, "PENV": 1012.0, "VALIDT": 0, "DTG": "2026-02-04 06:00", "LATNOW": -25.3, "LONNOW": 113.8, "WINDNOW": 45.0, "DIRNOW": 6.0, "SPDNOW": 5.0, "TECH": "TRAK", "ADVNR": 15, "ATCFID": "SH202026", "NAME": "MITCHELL", "FTECH": "JTWC", "FCST_DTG": "2026-02-09 12:00:00", "RUN_DTG": "2026-02-10 06:28:01", "BASIN": "SH", "STMNR": 20, "CAT_ID": null, "CAT_DESC": null, "MSGID": "WTXS51 PGTW 091500", "VALIDTIME": "2026-02-04 06:00:00" }, "geometry": { "type": "Point", "coordinates": [ 128.899994, -16.700001 ] } },
{ "type": "Feature", "properties": { "ID": 103632, "LAT": -16.6, "LON": 128.5, "VMAX": 20.0, "MSLP": 1012.95825, "RMAX": 45.0, "FSPD": 1.47903, "FDIR": 269.99997, "RENV": 500.0, "PENV": 1012.0, "VALIDT": 0, "DTG": "2026-02-04 12:00", "LATNOW": -25.3, "LONNOW": 113.8, "WINDNOW": 45.0, "DIRNOW": 6.0, "SPDNOW": 5.0, "TECH": "TRAK", "ADVNR": 15, "ATCFID": "SH202026", "NAME": "MITCHELL", "FTECH": "JTWC", "FCST_DTG": "2026-02-09 12:00:00", "RUN_DTG": "2026-02-10 06:28:01", "BASIN": "SH", "STMNR": 20, "CAT_ID": null, "CAT_DESC": null, "MSGID": "WTXS51 PGTW 091500", "VALIDTIME": "2026-02-04 12:00:00" }, "geometry": { "type": "Point", "coordinates": [ 128.5, -16.6 ] } },
{ "type": "Feature", "properties": { "ID": 103633, "LAT": -16.6, "LON": 128.2, "VMAX": 20.0, "MSLP": 1012.95825, "RMAX": 45.0, "FSPD": 13.38989, "FDIR": 263.3813, "RENV": 500.0, "PENV": 1012.0, "VALIDT": 0, "DTG": "2026-02-04 18:00", "LATNOW": -25.3, "LONNOW": 113.8, "WINDNOW": 45.0, "DIRNOW": 6.0, "SPDNOW": 5.0, "TECH": "TRAK", "ADVNR": 15, "ATCFID": "SH202026", "NAME": "MITCHELL", "FTECH": "JTWC", "FCST_DTG": "2026-02-09 12:00:00", "RUN_DTG": "2026-02-10 06:28:01", "BASIN": "SH", "STMNR": 20, "CAT_ID": null, "CAT_DESC": null, "MSGID": "WTXS51 PGTW 091500", "VALIDTIME": "2026-02-04 18:00:00" }, "geometry": { "type": "Point", "coordinates": [ 128.199997, -16.6 ] } },
{ "type": "Feature", "properties": { "ID": 103634, "LAT": -16.9, "LON": 125.5, "VMAX": 20.0, "MSLP": 1012.95825, "RMAX": 45.0, "FSPD": 3.77292, "FDIR": 245.85437, "RENV": 500.0, "PENV": 1012.0, "VALIDT": 0, "DTG": "2026-02-05 00:00", "LATNOW": -25.3, "LONNOW": 113.8, "WINDNOW": 45.0, "DIRNOW": 6.0, "SPDNOW": 5.0, "TECH": "TRAK", "ADVNR": 15, "ATCFID": "SH202026", "NAME": "MITCHELL", "FTECH": "JTWC", "FCST_DTG": "2026-02-09 12:00:00", "RUN_DTG": "2026-02-10 06:28:01", "BASIN": "SH", "STMNR": 20, "CAT_ID": null, "CAT_DESC": null, "MSGID": "WTXS51 PGTW 091500", "VALIDTIME": "2026-02-05 00:00:00" }, "geometry": { "type": "Point", "coordinates": [ 125.5, -16.9 ] } },
{ "type": "Feature", "properties": { "ID": 103635, "LAT": -17.2, "LON": 124.8, "VMAX": 20.0, "MSLP": 1012.95825, "RMAX": 45.0, "FSPD": 5.697, "FDIR": 230.7943, "RENV": 500.0, "PENV": 1012.0, "VALIDT": 0, "DTG": "2026-02-05 06:00", "LATNOW": -25.3, "LONNOW": 113.8, "WINDNOW": 45.0, "DIRNOW": 6.0, "SPDNOW": 5.0, "TECH": "TRAK", "ADVNR": 15, "ATCFID": "SH202026", "NAME": "MITCHELL", "FTECH": "JTWC", "FCST_DTG": "2026-02-09 12:00:00", "RUN_DTG": "2026-02-10 06:28:01", "BASIN": "SH", "STMNR": 20, "CAT_ID": null, "CAT_DESC": null, "MSGID": "WTXS51 PGTW 091500", "VALIDTIME": "2026-02-05 06:00:00" }, "geometry": { "type": "Point", "coordinates": [ 124.800003, -17.200001 ] } },
{ "type": "Feature", "properties": { "ID": 103636, "LAT": -17.9, "LON": 123.9, "VMAX": 20.0, "MSLP": 1012.95825, "RMAX": 45.0, "FSPD": 6.38661, "FDIR": 274.6202, "RENV": 500.0, "PENV": 1012.0, "VALIDT": 0, "DTG": "2026-02-05 12:00", "LATNOW": -25.3, "LONNOW": 113.8, "WINDNOW": 45.0, "DIRNOW": 6.0, "SPDNOW": 5.0, "TECH": "TRAK", "ADVNR": 15, "ATCFID": "SH202026", "NAME": "MITCHELL", "FTECH": "JTWC", "FCST_DTG": "2026-02-09 12:00:00", "RUN_DTG": "2026-02-10 06:28:01", "BASIN": "SH", "STMNR": 20, "CAT_ID": null, "CAT_DESC": null, "MSGID": "WTXS51 PGTW 091500", "VALIDTIME": "2026-02-05 12:00:00" }, "geometry": { "type": "Point", "coordinates": [ 123.900002, -17.9 ] } },
{ "type": "Feature", "properties": { "ID": 103637, "LAT": -17.8, "LON": 122.6, "VMAX": 20.0, "MSLP": 1012.95825, "RMAX": 45.0, "FSPD": 3.42871, "FDIR": 269.99997, "RENV": 500.0, "PENV": 1012.0, "VALIDT": 0, "DTG": "2026-02-05 18:00", "LATNOW": -25.3, "LONNOW": 113.8, "WINDNOW": 45.0, "DIRNOW": 6.0, "SPDNOW": 5.0, "TECH": "TRAK", "ADVNR": 15, "ATCFID": "SH202026", "NAME": "MITCHELL", "FTECH": "JTWC", "FCST_DTG": "2026-02-09 12:00:00", "RUN_DTG": "2026-02-10 06:28:01", "BASIN": "SH", "STMNR": 20, "CAT_ID": null, "CAT_DESC": null, "MSGID": "WTXS51 PGTW 091500", "VALIDTIME": "2026-02-05 18:00:00" }, "geometry": { "type": "Point", "coordinates": [ 122.599998, -17.799999 ] } },
{ "type": "Feature", "properties": { "ID": 103638, "LAT": -17.8, "LON": 121.9, "VMAX": 30.0, "MSLP": 1010.40607, "RMAX": 44.21983, "FSPD": 7.09376, "FDIR": 223.51385, "RENV": 500.0, "PENV": 1012.0, "VALIDT": 0, "DTG": "2026-02-06 00:00", "LATNOW": -25.3, "LONNOW": 113.8, "WINDNOW": 45.0, "DIRNOW": 6.0, "SPDNOW": 5.0, "TECH": "TRAK", "ADVNR": 15, "ATCFID": "SH202026", "NAME": "MITCHELL", "FTECH": "JTWC", "FCST_DTG": "2026-02-09 12:00:00", "RUN_DTG": "2026-02-10 06:28:01", "BASIN": "SH", "STMNR": 20, "CAT_ID": null, "CAT_DESC": null, "MSGID": "WTXS51 PGTW 091500", "VALIDTIME": "2026-02-06 00:00:00" }, "geometry": { "type": "Point", "coordinates": [ 121.900002, -17.799999 ] } },
{ "type": "Feature", "properties": { "ID": 103639, "LAT": -18.8, "LON": 120.9, "VMAX": 35.0, "MSLP": 1008.74713, "RMAX": 42.69135, "FSPD": 5.57943, "FDIR": 286.05798, "RENV": 500.0, "PENV": 1012.0, "VALIDT": 0, "DTG": "2026-02-06 06:00", "LATNOW": -25.3, "LONNOW": 113.8, "WINDNOW": 45.0, "DIRNOW": 6.0, "SPDNOW": 5.0, "TECH": "TRAK", "ADVNR": 15, "ATCFID": "SH202026", "NAME": "MITCHELL", "FTECH": "JTWC", "FCST_DTG": "2026-02-09 12:00:00", "RUN_DTG": "2026-02-10 06:28:01", "BASIN": "SH", "STMNR": 20, "CAT_ID": null, "CAT_DESC": null, "MSGID": "WTXS51 PGTW 091500", "VALIDTIME": "2026-02-06 06:00:00" }, "geometry": { "type": "Point", "coordinates": [ 120.900002, -18.799999 ] } },
{ "type": "Feature", "properties": { "ID": 103640, "LAT": -18.5, "LON": 119.8, "VMAX": 40.0, "MSLP": 1006.833, "RMAX": 41.26637, "FSPD": 4.40809, "FDIR": 242.17203, "RENV": 500.0, "PENV": 1012.0, "VALIDT": 0, "DTG": "2026-02-06 12:00", "LATNOW": -25.3, "LONNOW": 113.8, "WINDNOW": 45.0, "DIRNOW": 6.0, "SPDNOW": 5.0, "TECH": "TRAK", "ADVNR": 15, "ATCFID": "SH202026", "NAME": "MITCHELL", "FTECH": "JTWC", "FCST_DTG": "2026-02-09 12:00:00", "RUN_DTG": "2026-02-10 06:28:01", "BASIN": "SH", "STMNR": 20, "CAT_ID": null, "CAT_DESC": null, "MSGID": "WTXS51 PGTW 091500", "VALIDTIME": "2026-02-06 12:00:00" }, "geometry": { "type": "Point", "coordinates": [ 119.800003, -18.5 ] } },
{ "type": "Feature", "properties": { "ID": 103641, "LAT": -18.9, "LON": 119.0, "VMAX": 50.0, "MSLP": 989.0, "RMAX": 20.0, "FSPD": 2.96435, "FDIR": 260.00598, "RENV": 140.0, "PENV": 1002.0, "VALIDT": 0, "DTG": "2026-02-06 18:00", "LATNOW": -25.3, "LONNOW": 113.8, "WINDNOW": 45.0, "DIRNOW": 6.0, "SPDNOW": 5.0, "TECH": "TRAK", "ADVNR": 15, "ATCFID": "SH202026", "NAME": "MITCHELL", "FTECH": "JTWC", "FCST_DTG": "2026-02-09 12:00:00", "RUN_DTG": "2026-02-10 06:28:01", "BASIN": "SH", "STMNR": 20, "CAT_ID": null, "CAT_DESC": null, "MSGID": "WTXS51 PGTW 091500", "VALIDTIME": "2026-02-06 18:00:00" }, "geometry": { "type": "Point", "coordinates": [ 119.0, -18.9 ] } },
{ "type": "Feature", "properties": { "ID": 103642, "LAT": -19.0, "LON": 118.4, "VMAX": 60.0, "MSLP": 989.0, "RMAX": 20.0, "FSPD": 4.39778, "FDIR": 242.1011, "RENV": 140.0, "PENV": 1002.0, "VALIDT": 0, "DTG": "2026-02-07 00:00", "LATNOW": -25.3, "LONNOW": 113.8, "WINDNOW": 45.0, "DIRNOW": 6.0, "SPDNOW": 5.0, "TECH": "TRAK", "ADVNR": 15, "ATCFID": "SH202026", "NAME": "MITCHELL", "FTECH": "JTWC", "FCST_DTG": "2026-02-09 12:00:00", "RUN_DTG": "2026-02-10 06:28:01", "BASIN": "SH", "STMNR": 20, "CAT_ID": null, "CAT_DESC": null, "MSGID": "WTXS51 PGTW 091500", "VALIDTIME": "2026-02-07 00:00:00" }, "geometry": { "type": "Point", "coordinates": [ 118.400002, -19.0 ] } },
{ "type": "Feature", "properties": { "ID": 103643, "LAT": -19.4, "LON": 117.6, "VMAX": 65.0, "MSLP": 983.0, "RMAX": 20.0, "FSPD": 5.34121, "FDIR": 234.69722, "RENV": 130.0, "PENV": 1002.0, "VALIDT": 0, "DTG": "2026-02-07 06:00", "LATNOW": -25.3, "LONNOW": 113.8, "WINDNOW": 45.0, "DIRNOW": 6.0, "SPDNOW": 5.0, "TECH": "TRAK", "ADVNR": 15, "ATCFID": "SH202026", "NAME": "MITCHELL", "FTECH": "JTWC", "FCST_DTG": "2026-02-09 12:00:00", "RUN_DTG": "2026-02-10 06:28:01", "BASIN": "SH", "STMNR": 20, "CAT_ID": null, "CAT_DESC": null, "MSGID": "WTXS51 PGTW 091500", "VALIDTIME": "2026-02-07 06:00:00" }, "geometry": { "type": "Point", "coordinates": [ 117.599998, -19.4 ] } },
{ "type": "Feature", "properties": { "ID": 103644, "LAT": -20.0, "LON": 116.7, "VMAX": 75.0, "MSLP": 979.0, "RMAX": 20.0, "FSPD": 2.86584, "FDIR": 237.41666, "RENV": 135.0, "PENV": 1001.0, "VALIDT": 0, "DTG": "2026-02-07 12:00", "LATNOW": -25.3, "LONNOW": 113.8, "WINDNOW": 45.0, "DIRNOW": 6.0, "SPDNOW": 5.0, "TECH": "TRAK", "ADVNR": 15, "ATCFID": "SH202026", "NAME": "MITCHELL", "FTECH": "JTWC", "FCST_DTG": "2026-02-09 12:00:00", "RUN_DTG": "2026-02-10 06:28:01", "BASIN": "SH", "STMNR": 20, "CAT_ID": null, "CAT_DESC": null, "MSGID": "WTXS51 PGTW 091500", "VALIDTIME": "2026-02-07 12:00:00" }, "geometry": { "type": "Point", "coordinates": [ 116.699997, -20.0 ] } },
{ "type": "Feature", "properties": { "ID": 103645, "LAT": -20.3, "LON": 116.2, "VMAX": 80.0, "MSLP": 973.0, "RMAX": 20.0, "FSPD": 3.54872, "FDIR": 234.55882, "RENV": 155.0, "PENV": 1002.0, "VALIDT": 0, "DTG": "2026-02-07 18:00", "LATNOW": -25.3, "LONNOW": 113.8, "WINDNOW": 45.0, "DIRNOW": 6.0, "SPDNOW": 5.0, "TECH": "TRAK", "ADVNR": 15, "ATCFID": "SH202026", "NAME": "MITCHELL", "FTECH": "JTWC", "FCST_DTG": "2026-02-09 12:00:00", "RUN_DTG": "2026-02-10 06:28:01", "BASIN": "SH", "STMNR": 20, "CAT_ID": null, "CAT_DESC": null, "MSGID": "WTXS51 PGTW 091500", "VALIDTIME": "2026-02-07 18:00:00" }, "geometry": { "type": "Point", "coordinates": [ 116.199997, -20.299999 ] } },
{ "type": "Feature", "properties": { "ID": 103646, "LAT": -20.7, "LON": 115.6, "VMAX": 75.0, "MSLP": 968.0, "RMAX": 15.0, "FSPD": 5.70911, "FDIR": 237.27171, "RENV": 150.0, "PENV": 1001.0, "VALIDT": 0, "DTG": "2026-02-08 00:00", "LATNOW": -25.3, "LONNOW": 113.8, "WINDNOW": 45.0, "DIRNOW": 6.0, "SPDNOW": 5.0, "TECH": "TRAK", "ADVNR": 15, "ATCFID": "SH202026", "NAME": "MITCHELL", "FTECH": "JTWC", "FCST_DTG": "2026-02-09 12:00:00", "RUN_DTG": "2026-02-10 06:28:01", "BASIN": "SH", "STMNR": 20, "CAT_ID": null, "CAT_DESC": null, "MSGID": "WTXS51 PGTW 091500", "VALIDTIME": "2026-02-08 00:00:00" }, "geometry": { "type": "Point", "coordinates": [ 115.599998, -20.700001 ] } },
{ "type": "Feature", "properties": { "ID": 103647, "LAT": -21.3, "LON": 114.6, "VMAX": 70.0, "MSLP": 972.0, "RMAX": 15.0, "FSPD": 3.26118, "FDIR": 241.75473, "RENV": 150.0, "PENV": 1002.0, "VALIDT": 0, "DTG": "2026-02-08 06:00", "LATNOW": -25.3, "LONNOW": 113.8, "WINDNOW": 45.0, "DIRNOW": 6.0, "SPDNOW": 5.0, "TECH": "TRAK", "ADVNR": 15, "ATCFID": "SH202026", "NAME": "MITCHELL", "FTECH": "JTWC", "FCST_DTG": "2026-02-09 12:00:00", "RUN_DTG": "2026-02-10 06:28:01", "BASIN": "SH", "STMNR": 20, "CAT_ID": null, "CAT_DESC": null, "MSGID": "WTXS51 PGTW 091500", "VALIDTIME": "2026-02-08 06:00:00" }, "geometry": { "type": "Point", "coordinates": [ 114.599998, -21.299999 ] } },
{ "type": "Feature", "properties": { "ID": 103648, "LAT": -21.6, "LON": 114.0, "VMAX": 60.0, "MSLP": 975.0, "RMAX": 15.0, "FSPD": 2.74377, "FDIR": 200.36787, "RENV": 155.0, "PENV": 1002.0, "VALIDT": 0, "DTG": "2026-02-08 12:00", "LATNOW": -25.3, "LONNOW": 113.8, "WINDNOW": 45.0, "DIRNOW": 6.0, "SPDNOW": 5.0, "TECH": "TRAK", "ADVNR": 15, "ATCFID": "SH202026", "NAME": "MITCHELL", "FTECH": "JTWC", "FCST_DTG": "2026-02-09 12:00:00", "RUN_DTG": "2026-02-10 06:28:01", "BASIN": "SH", "STMNR": 20, "CAT_ID": null, "CAT_DESC": null, "MSGID": "WTXS51 PGTW 091500", "VALIDTIME": "2026-02-08 12:00:00" }, "geometry": { "type": "Point", "coordinates": [ 114.0, -21.6 ] } },
{ "type": "Feature", "properties": { "ID": 103649, "LAT": -22.1, "LON": 113.8, "VMAX": 60.0, "MSLP": 983.0, "RMAX": 15.0, "FSPD": 5.23141, "FDIR": 190.46158, "RENV": 150.0, "PENV": 1003.0, "VALIDT": 0, "DTG": "2026-02-08 18:00", "LATNOW": -25.3, "LONNOW": 113.8, "WINDNOW": 45.0, "DIRNOW": 6.0, "SPDNOW": 5.0, "TECH": "TRAK", "ADVNR": 15, "ATCFID": "SH202026", "NAME": "MITCHELL", "FTECH": "JTWC", "FCST_DTG": "2026-02-09 12:00:00", "RUN_DTG": "2026-02-10 06:28:01", "BASIN": "SH", "STMNR": 20, "CAT_ID": null, "CAT_DESC": null, "MSGID": "WTXS51 PGTW 091500", "VALIDTIME": "2026-02-08 18:00:00" }, "geometry": { "type": "Point", "coordinates": [ 113.800003, -22.1 ] } },
{ "type": "Feature", "properties": { "ID": 103650, "LAT": -23.1, "LON": 113.6, "VMAX": 55.0, "MSLP": 982.0, "RMAX": 20.0, "FSPD": 7.26348, "FDIR": 187.44669, "RENV": 160.0, "PENV": 1003.0, "VALIDT": 0, "DTG": "2026-02-09 00:00", "LATNOW": -25.3, "LONNOW": 113.8, "WINDNOW": 45.0, "DIRNOW": 6.0, "SPDNOW": 5.0, "TECH": "TRAK", "ADVNR": 15, "ATCFID": "SH202026", "NAME": "MITCHELL", "FTECH": "JTWC", "FCST_DTG": "2026-02-09 12:00:00", "RUN_DTG": "2026-02-10 06:28:01", "BASIN": "SH", "STMNR": 20, "CAT_ID": null, "CAT_DESC": null, "MSGID": "WTXS51 PGTW 091500", "VALIDTIME": "2026-02-09 00:00:00" }, "geometry": { "type": "Point", "coordinates": [ 113.599998, -23.1 ] } },
{ "type": "Feature", "properties": { "ID": 103651, "LAT": -24.5, "LON": 113.4, "VMAX": 50.0, "MSLP": 985.0, "RMAX": 20.0, "FSPD": 4.51903, "FDIR": 155.60452, "RENV": 170.0, "PENV": 1004.0, "VALIDT": 0, "DTG": "2026-02-09 06:00", "LATNOW": -25.3, "LONNOW": 113.8, "WINDNOW": 45.0, "DIRNOW": 6.0, "SPDNOW": 5.0, "TECH": "TRAK", "ADVNR": 15, "ATCFID": "SH202026", "NAME": "MITCHELL", "FTECH": "JTWC", "FCST_DTG": "2026-02-09 12:00:00", "RUN_DTG": "2026-02-10 06:28:01", "BASIN": "SH", "STMNR": 20, "CAT_ID": null, "CAT_DESC": null, "MSGID": "WTXS51 PGTW 091500", "VALIDTIME": "2026-02-09 06:00:00" }, "geometry": { "type": "Point", "coordinates": [ 113.400002, -24.5 ] } },
{ "type": "Feature", "properties": { "ID": 103652, "LAT": -25.3, "LON": 113.8, "VMAX": 45.0, "MSLP": 986.0, "RMAX": 20.0, "FSPD": 6.13711, "FDIR": 142.78189, "RENV": 145.0, "PENV": 1002.0, "VALIDT": 0, "DTG": "2026-02-09 12:00", "LATNOW": -25.3, "LONNOW": 113.8, "WINDNOW": 45.0, "DIRNOW": 6.0, "SPDNOW": 5.0, "TECH": "TRAK", "ADVNR": 15, "ATCFID": "SH202026", "NAME": "MITCHELL", "FTECH": "JTWC", "FCST_DTG": "2026-02-09 12:00:00", "RUN_DTG": "2026-02-10 06:28:01", "BASIN": "SH", "STMNR": 20, "CAT_ID": null, "CAT_DESC": null, "MSGID": "WTXS51 PGTW 091500", "VALIDTIME": "2026-02-09 12:00:00" }, "geometry": { "type": "Point", "coordinates": [ 113.800003, -25.299999 ] } },
{ "type": "Feature", "properties": { "ID": 103653, "LAT": -25.87, "LON": 114.28001, "VMAX": 45.0, "MSLP": 986.0, "RMAX": 20.0, "FSPD": 6.11901, "FDIR": 143.00577, "RENV": 145.0, "PENV": 1002.0, "VALIDT": 3, "DTG": "2026-02-09 15:00", "LATNOW": -25.3, "LONNOW": 113.8, "WINDNOW": 45.0, "DIRNOW": 6.0, "SPDNOW": 5.0, "TECH": "FCST", "ADVNR": 15, "ATCFID": "SH202026", "NAME": "MITCHELL", "FTECH": "JTWC", "FCST_DTG": "2026-02-09 12:00:00", "RUN_DTG": "2026-02-10 06:28:01", "BASIN": "SH", "STMNR": 20, "CAT_ID": null, "CAT_DESC": null, "MSGID": "WTXS51 PGTW 091500", "VALIDTIME": "2026-02-09 15:00:00" }, "geometry": { "type": "Point", "coordinates": [ 114.280006, -25.869999 ] } },
{ "type": "Feature", "properties": { "ID": 103654, "LAT": -27.2, "LON": 115.4, "VMAX": 30.0, "MSLP": 1010.40607, "RMAX": 27.56313, "FSPD": 6.11901, "FDIR": 143.00577, "RENV": 250.0, "PENV": 1012.0, "VALIDT": 12, "DTG": "2026-02-10 00:00", "LATNOW": -25.3, "LONNOW": 113.8, "WINDNOW": 45.0, "DIRNOW": 6.0, "SPDNOW": 5.0, "TECH": "FCST", "ADVNR": 15, "ATCFID": "SH202026", "NAME": "MITCHELL", "FTECH": "JTWC", "FCST_DTG": "2026-02-09 12:00:00", "RUN_DTG": "2026-02-10 06:28:01", "BASIN": "SH", "STMNR": 20, "CAT_ID": null, "CAT_DESC": null, "MSGID": "WTXS51 PGTW 091500", "VALIDTIME": "2026-02-10 00:00:00" }, "geometry": { "type": "Point", "coordinates": [ 115.400002, -27.200001 ] } },
{ "type": "Feature", "properties": { "ID": 103652, "LAT": -25.3, "LON": 113.8, "VMAX": 45.0, "MSLP": 986.0, "RMAX": 20.0, "FSPD": 6.13711, "FDIR": 142.78189, "RENV": 145.0, "PENV": 1002.0, "VALIDT": 0, "DTG": "2026-02-09 12:00", "LATNOW": -25.3, "LONNOW": 113.8, "WINDNOW": 45.0, "DIRNOW": 6.0, "SPDNOW": 5.0, "TECH": "TRAK", "ADVNR": 15, "ATCFID": "SH202026", "NAME": "MITCHELL", "FTECH": "JTWC", "FCST_DTG": "2026-02-09 12:00:00", "RUN_DTG": "2026-02-10 06:28:01", "BASIN": "SH", "STMNR": 20, "CAT_ID": null, "CAT_DESC": null, "MSGID": "WTXS51 PGTW 091500", "VALIDTIME": "2026-02-09 12:00:00" }, "geometry": { "type": "LineString", "coordinates": [ [ 136.3, -15.4 ], [ 136.7, -15.4 ], [ 137.1, -15.4 ], [ 137.4, -15.5 ], [ 137.6, -15.7 ], [ 137.4, -16.2 ], [ 136.8, -16.7 ], [ 136.0, -16.8 ], [ 135.1, -17.0 ], [ 134.1, -17.0 ], [ 133.2, -17.1 ], [ 132.3, -17.0 ], [ 131.7, -16.5 ], [ 131.1, -16.0 ], [ 132.0, -15.8 ], [ 132.0, -16.4 ], [ 132.0, -16.6 ], [ 131.5, -16.8 ], [ 131.5, -16.9 ], [ 131.3, -17.0 ], [ 131.2, -17.1 ], [ 131.1, -17.0 ], [ 131.3, -16.9 ], [ 131.2, -16.9 ], [ 130.5, -17.0 ], [ 129.5, -17.0 ], [ 128.9, -16.7 ], [ 128.5, -16.6 ], [ 128.2, -16.6 ], [ 125.5, -16.9 ], [ 124.8, -17.2 ], [ 123.9, -17.9 ], [ 122.6, -17.8 ], [ 121.9, -17.8 ], [ 120.9, -18.8 ], [ 119.8, -18.5 ], [ 119.0, -18.9 ], [ 118.4, -19.0 ], [ 117.6, -19.4 ], [ 116.7, -20.0 ], [ 116.2, -20.3 ], [ 115.6, -20.7 ], [ 114.6, -21.3 ], [ 114.0, -21.6 ], [ 113.8, -22.1 ], [ 113.6, -23.1 ], [ 113.4, -24.5 ], [ 113.8, -25.3 ] ] } },
{ "type": "Feature", "properties": { "ID": 103654, "LAT": -27.2, "LON": 115.4, "VMAX": 30.0, "MSLP": 1010.40607, "RMAX": 27.56313, "FSPD": 6.11901, "FDIR": 143.00577, "RENV": 250.0, "PENV": 1012.0, "VALIDT": 12, "DTG": "2026-02-10 00:00", "LATNOW": -25.3, "LONNOW": 113.8, "WINDNOW": 45.0, "DIRNOW": 6.0, "SPDNOW": 5.0, "TECH": "FCST", "ADVNR": 15, "ATCFID": "SH202026", "NAME": "MITCHELL", "FTECH": "JTWC", "FCST_DTG": "2026-02-09 12:00:00", "RUN_DTG": "2026-02-10 06:28:01", "BASIN": "SH", "STMNR": 20, "CAT_ID": null, "CAT_DESC": null, "MSGID": "WTXS51 PGTW 091500", "VALIDTIME": "2026-02-10 00:00:00" }, "geometry": { "type": "LineString", "coordinates": [ [ 113.8, -25.3 ], [ 114.28001, -25.87 ], [ 115.4, -27.2 ] ] } }
]
}
