{
"type": "FeatureCollection",
"crs": { "type": "name", "properties": { "name": "urn:ogc:def:crs:OGC:1.3:CRS84" } },
"features": [
{ "type": "Feature", "properties": { "ID": 48017, "LAT": 9.2, "LON": 140.8, "VMAX": 15.0, "MSLP": 1013.8515, "RMAX": 40.0, "FSPD": 2.0952, "FDIR": 284.21344, "RENV": 500.0, "PENV": 1012.0, "VALIDT": 0, "DTG": "2025-09-21 12:00", "LATNOW": 18.2, "LONNOW": 106.2, "WINDNOW": 80.0, "DIRNOW": 7.0, "SPDNOW": 3.0, "TECH": "TRAK", "ADVNR": 22, "ATCFID": "WP262025", "NAME": "BUALOI", "FTECH": "JTWC", "FCST_DTG": "2025-09-28 18:00:00", "RUN_DTG": "2025-09-29 10:25:32", "BASIN": "WP", "STMNR": 26, "CAT_ID": null, "CAT_DESC": null, "MSGID": "WTPN51 PGTW 282100", "VALIDTIME": "2025-09-21 12:00:00" }, "geometry": { "type": "Point", "coordinates": [ 140.800003, 9.2 ] } },
{ "type": "Feature", "properties": { "ID": 48018, "LAT": 9.3, "LON": 140.4, "VMAX": 15.0, "MSLP": 1013.8515, "RMAX": 40.0, "FSPD": 2.27596, "FDIR": 296.87646, "RENV": 500.0, "PENV": 1012.0, "VALIDT": 0, "DTG": "2025-09-21 18:00", "LATNOW": 18.2, "LONNOW": 106.2, "WINDNOW": 80.0, "DIRNOW": 7.0, "SPDNOW": 3.0, "TECH": "TRAK", "ADVNR": 22, "ATCFID": "WP262025", "NAME": "BUALOI", "FTECH": "JTWC", "FCST_DTG": "2025-09-28 18:00:00", "RUN_DTG": "2025-09-29 10:25:32", "BASIN": "WP", "STMNR": 26, "CAT_ID": null, "CAT_DESC": null, "MSGID": "WTPN51 PGTW 282100", "VALIDTIME": "2025-09-21 18:00:00" }, "geometry": { "type": "Point", "coordinates": [ 140.399994, 9.3 ] } },
{ "type": "Feature", "properties": { "ID": 48019, "LAT": 9.5, "LON": 140.0, "VMAX": 15.0, "MSLP": 1013.8515, "RMAX": 40.0, "FSPD": 4.67964, "FDIR": 282.70105, "RENV": 500.0, "PENV": 1012.0, "VALIDT": 0, "DTG": "2025-09-22 00:00", "LATNOW": 18.2, "LONNOW": 106.2, "WINDNOW": 80.0, "DIRNOW": 7.0, "SPDNOW": 3.0, "TECH": "TRAK", "ADVNR": 22, "ATCFID": "WP262025", "NAME": "BUALOI", "FTECH": "JTWC", "FCST_DTG": "2025-09-28 18:00:00", "RUN_DTG": "2025-09-29 10:25:32", "BASIN": "WP", "STMNR": 26, "CAT_ID": null, "CAT_DESC": null, "MSGID": "WTPN51 PGTW 282100", "VALIDTIME": "2025-09-22 00:00:00" }, "geometry": { "type": "Point", "coordinates": [ 140.0, 9.5 ] } },
{ "type": "Feature", "properties": { "ID": 48020, "LAT": 9.7, "LON": 139.1, "VMAX": 15.0, "MSLP": 1013.8515, "RMAX": 40.0, "FSPD": 4.08862, "FDIR": 277.22833, "RENV": 500.0, "PENV": 1012.0, "VALIDT": 0, "DTG": "2025-09-22 06:00", "LATNOW": 18.2, "LONNOW": 106.2, "WINDNOW": 80.0, "DIRNOW": 7.0, "SPDNOW": 3.0, "TECH": "TRAK", "ADVNR": 22, "ATCFID": "WP262025", "NAME": "BUALOI", "FTECH": "JTWC", "FCST_DTG": "2025-09-28 18:00:00", "RUN_DTG": "2025-09-29 10:25:32", "BASIN": "WP", "STMNR": 26, "CAT_ID": null, "CAT_DESC": null, "MSGID": "WTPN51 PGTW 282100", "VALIDTIME": "2025-09-22 06:00:00" }, "geometry": { "type": "Point", "coordinates": [ 139.100006, 9.7 ] } },
{ "type": "Feature", "properties": { "ID": 48021, "LAT": 9.8, "LON": 138.3, "VMAX": 15.0, "MSLP": 1013.8515, "RMAX": 40.0, "FSPD": 4.08741, "FDIR": 277.2304, "RENV": 500.0, "PENV": 1012.0, "VALIDT": 0, "DTG": "2025-09-22 12:00", "LATNOW": 18.2, "LONNOW": 106.2, "WINDNOW": 80.0, "DIRNOW": 7.0, "SPDNOW": 3.0, "TECH": "TRAK", "ADVNR": 22, "ATCFID": "WP262025", "NAME": "BUALOI", "FTECH": "JTWC", "FCST_DTG": "2025-09-28 18:00:00", "RUN_DTG": "2025-09-29 10:25:32", "BASIN": "WP", "STMNR": 26, "CAT_ID": null, "CAT_DESC": null, "MSGID": "WTPN51 PGTW 282100", "VALIDTIME": "2025-09-22 12:00:00" }, "geometry": { "type": "Point", "coordinates": [ 138.300003, 9.8 ] } },
{ "type": "Feature", "properties": { "ID": 48022, "LAT": 9.9, "LON": 137.5, "VMAX": 20.0, "MSLP": 1012.95825, "RMAX": 45.0, "FSPD": 4.58925, "FDIR": 276.43625, "RENV": 500.0, "PENV": 1012.0, "VALIDT": 0, "DTG": "2025-09-22 18:00", "LATNOW": 18.2, "LONNOW": 106.2, "WINDNOW": 80.0, "DIRNOW": 7.0, "SPDNOW": 3.0, "TECH": "TRAK", "ADVNR": 22, "ATCFID": "WP262025", "NAME": "BUALOI", "FTECH": "JTWC", "FCST_DTG": "2025-09-28 18:00:00", "RUN_DTG": "2025-09-29 10:25:32", "BASIN": "WP", "STMNR": 26, "CAT_ID": null, "CAT_DESC": null, "MSGID": "WTPN51 PGTW 282100", "VALIDTIME": "2025-09-22 18:00:00" }, "geometry": { "type": "Point", "coordinates": [ 137.5, 9.9 ] } },
{ "type": "Feature", "properties": { "ID": 48023, "LAT": 10.0, "LON": 136.6, "VMAX": 20.0, "MSLP": 1012.95825, "RMAX": 45.0, "FSPD": 5.59579, "FDIR": 275.2749, "RENV": 500.0, "PENV": 1012.0, "VALIDT": 0, "DTG": "2025-09-23 00:00", "LATNOW": 18.2, "LONNOW": 106.2, "WINDNOW": 80.0, "DIRNOW": 7.0, "SPDNOW": 3.0, "TECH": "TRAK", "ADVNR": 22, "ATCFID": "WP262025", "NAME": "BUALOI", "FTECH": "JTWC", "FCST_DTG": "2025-09-28 18:00:00", "RUN_DTG": "2025-09-29 10:25:32", "BASIN": "WP", "STMNR": 26, "CAT_ID": null, "CAT_DESC": null, "MSGID": "WTPN51 PGTW 282100", "VALIDTIME": "2025-09-23 00:00:00" }, "geometry": { "type": "Point", "coordinates": [ 136.600006, 10.0 ] } },
{ "type": "Feature", "properties": { "ID": 48024, "LAT": 10.1, "LON": 135.5, "VMAX": 20.0, "MSLP": 1012.95825, "RMAX": 45.0, "FSPD": 5.66713, "FDIR": 259.53964, "RENV": 500.0, "PENV": 1012.0, "VALIDT": 0, "DTG": "2025-09-23 06:00", "LATNOW": 18.2, "LONNOW": 106.2, "WINDNOW": 80.0, "DIRNOW": 7.0, "SPDNOW": 3.0, "TECH": "TRAK", "ADVNR": 22, "ATCFID": "WP262025", "NAME": "BUALOI", "FTECH": "JTWC", "FCST_DTG": "2025-09-28 18:00:00", "RUN_DTG": "2025-09-29 10:25:32", "BASIN": "WP", "STMNR": 26, "CAT_ID": null, "CAT_DESC": null, "MSGID": "WTPN51 PGTW 282100", "VALIDTIME": "2025-09-23 06:00:00" }, "geometry": { "type": "Point", "coordinates": [ 135.5, 10.1 ] } },
{ "type": "Feature", "properties": { "ID": 48025, "LAT": 9.9, "LON": 134.4, "VMAX": 25.0, "MSLP": 1003.0, "RMAX": 60.0, "FSPD": 4.10295, "FDIR": 239.8983, "RENV": 200.0, "PENV": 1008.0, "VALIDT": 0, "DTG": "2025-09-23 12:00", "LATNOW": 18.2, "LONNOW": 106.2, "WINDNOW": 80.0, "DIRNOW": 7.0, "SPDNOW": 3.0, "TECH": "TRAK", "ADVNR": 22, "ATCFID": "WP262025", "NAME": "BUALOI", "FTECH": "JTWC", "FCST_DTG": "2025-09-28 18:00:00", "RUN_DTG": "2025-09-29 10:25:32", "BASIN": "WP", "STMNR": 26, "CAT_ID": null, "CAT_DESC": null, "MSGID": "WTPN51 PGTW 282100", "VALIDTIME": "2025-09-23 12:00:00" }, "geometry": { "type": "Point", "coordinates": [ 134.399994, 9.9 ] } },
{ "type": "Feature", "properties": { "ID": 48026, "LAT": 9.5, "LON": 133.7, "VMAX": 30.0, "MSLP": 1003.0, "RMAX": 60.0, "FSPD": 3.55171, "FDIR": 269.99997, "RENV": 200.0, "PENV": 1008.0, "VALIDT": 0, "DTG": "2025-09-23 18:00", "LATNOW": 18.2, "LONNOW": 106.2, "WINDNOW": 80.0, "DIRNOW": 7.0, "SPDNOW": 3.0, "TECH": "TRAK", "ADVNR": 22, "ATCFID": "WP262025", "NAME": "BUALOI", "FTECH": "JTWC", "FCST_DTG": "2025-09-28 18:00:00", "RUN_DTG": "2025-09-29 10:25:32", "BASIN": "WP", "STMNR": 26, "CAT_ID": null, "CAT_DESC": null, "MSGID": "WTPN51 PGTW 282100", "VALIDTIME": "2025-09-23 18:00:00" }, "geometry": { "type": "Point", "coordinates": [ 133.699997, 9.5 ] } },
{ "type": "Feature", "properties": { "ID": 48027, "LAT": 9.5, "LON": 133.0, "VMAX": 40.0, "MSLP": 1002.0, "RMAX": 55.0, "FSPD": 6.60554, "FDIR": 292.91736, "RENV": 190.0, "PENV": 1009.0, "VALIDT": 0, "DTG": "2025-09-24 00:00", "LATNOW": 18.2, "LONNOW": 106.2, "WINDNOW": 80.0, "DIRNOW": 7.0, "SPDNOW": 3.0, "TECH": "TRAK", "ADVNR": 22, "ATCFID": "WP262025", "NAME": "BUALOI", "FTECH": "JTWC", "FCST_DTG": "2025-09-28 18:00:00", "RUN_DTG": "2025-09-29 10:25:32", "BASIN": "WP", "STMNR": 26, "CAT_ID": null, "CAT_DESC": null, "MSGID": "WTPN51 PGTW 282100", "VALIDTIME": "2025-09-24 00:00:00" }, "geometry": { "type": "Point", "coordinates": [ 133.0, 9.5 ] } },
{ "type": "Feature", "properties": { "ID": 48028, "LAT": 10.0, "LON": 131.8, "VMAX": 45.0, "MSLP": 997.0, "RMAX": 40.0, "FSPD": 4.54326, "FDIR": 296.93176, "RENV": 235.0, "PENV": 1006.0, "VALIDT": 0, "DTG": "2025-09-24 06:00", "LATNOW": 18.2, "LONNOW": 106.2, "WINDNOW": 80.0, "DIRNOW": 7.0, "SPDNOW": 3.0, "TECH": "TRAK", "ADVNR": 22, "ATCFID": "WP262025", "NAME": "BUALOI", "FTECH": "JTWC", "FCST_DTG": "2025-09-28 18:00:00", "RUN_DTG": "2025-09-29 10:25:32", "BASIN": "WP", "STMNR": 26, "CAT_ID": null, "CAT_DESC": null, "MSGID": "WTPN51 PGTW 282100", "VALIDTIME": "2025-09-24 06:00:00" }, "geometry": { "type": "Point", "coordinates": [ 131.800003, 10.0 ] } },
{ "type": "Feature", "properties": { "ID": 48029, "LAT": 10.4, "LON": 131.0, "VMAX": 50.0, "MSLP": 997.0, "RMAX": 40.0, "FSPD": 4.80623, "FDIR": 288.7301, "RENV": 235.0, "PENV": 1008.0, "VALIDT": 0, "DTG": "2025-09-24 12:00", "LATNOW": 18.2, "LONNOW": 106.2, "WINDNOW": 80.0, "DIRNOW": 7.0, "SPDNOW": 3.0, "TECH": "TRAK", "ADVNR": 22, "ATCFID": "WP262025", "NAME": "BUALOI", "FTECH": "JTWC", "FCST_DTG": "2025-09-28 18:00:00", "RUN_DTG": "2025-09-29 10:25:32", "BASIN": "WP", "STMNR": 26, "CAT_ID": null, "CAT_DESC": null, "MSGID": "WTPN51 PGTW 282100", "VALIDTIME": "2025-09-24 12:00:00" }, "geometry": { "type": "Point", "coordinates": [ 131.0, 10.4 ] } },
{ "type": "Feature", "properties": { "ID": 48030, "LAT": 10.7, "LON": 130.1, "VMAX": 55.0, "MSLP": 994.0, "RMAX": 35.0, "FSPD": 5.22304, "FDIR": 299.50342, "RENV": 230.0, "PENV": 1007.0, "VALIDT": 0, "DTG": "2025-09-24 18:00", "LATNOW": 18.2, "LONNOW": 106.2, "WINDNOW": 80.0, "DIRNOW": 7.0, "SPDNOW": 3.0, "TECH": "TRAK", "ADVNR": 22, "ATCFID": "WP262025", "NAME": "BUALOI", "FTECH": "JTWC", "FCST_DTG": "2025-09-28 18:00:00", "RUN_DTG": "2025-09-29 10:25:32", "BASIN": "WP", "STMNR": 26, "CAT_ID": null, "CAT_DESC": null, "MSGID": "WTPN51 PGTW 282100", "VALIDTIME": "2025-09-24 18:00:00" }, "geometry": { "type": "Point", "coordinates": [ 130.100006, 10.7 ] } },
{ "type": "Feature", "properties": { "ID": 48031, "LAT": 11.2, "LON": 129.2, "VMAX": 55.0, "MSLP": 991.0, "RMAX": 35.0, "FSPD": 5.5739, "FDIR": 275.29565, "RENV": 230.0, "PENV": 1007.0, "VALIDT": 0, "DTG": "2025-09-25 00:00", "LATNOW": 18.2, "LONNOW": 106.2, "WINDNOW": 80.0, "DIRNOW": 7.0, "SPDNOW": 3.0, "TECH": "TRAK", "ADVNR": 22, "ATCFID": "WP262025", "NAME": "BUALOI", "FTECH": "JTWC", "FCST_DTG": "2025-09-28 18:00:00", "RUN_DTG": "2025-09-29 10:25:32", "BASIN": "WP", "STMNR": 26, "CAT_ID": null, "CAT_DESC": null, "MSGID": "WTPN51 PGTW 282100", "VALIDTIME": "2025-09-25 00:00:00" }, "geometry": { "type": "Point", "coordinates": [ 129.199997, 11.2 ] } },
{ "type": "Feature", "properties": { "ID": 48032, "LAT": 11.3, "LON": 128.1, "VMAX": 55.0, "MSLP": 991.0, "RMAX": 35.0, "FSPD": 7.47468, "FDIR": 298.8014, "RENV": 230.0, "PENV": 1007.0, "VALIDT": 0, "DTG": "2025-09-25 06:00", "LATNOW": 18.2, "LONNOW": 106.2, "WINDNOW": 80.0, "DIRNOW": 7.0, "SPDNOW": 3.0, "TECH": "TRAK", "ADVNR": 22, "ATCFID": "WP262025", "NAME": "BUALOI", "FTECH": "JTWC", "FCST_DTG": "2025-09-28 18:00:00", "RUN_DTG": "2025-09-29 10:25:32", "BASIN": "WP", "STMNR": 26, "CAT_ID": null, "CAT_DESC": null, "MSGID": "WTPN51 PGTW 282100", "VALIDTIME": "2025-09-25 06:00:00" }, "geometry": { "type": "Point", "coordinates": [ 128.100006, 11.3 ] } },
{ "type": "Feature", "properties": { "ID": 48033, "LAT": 12.0, "LON": 126.8, "VMAX": 55.0, "MSLP": 991.0, "RMAX": 30.0, "FSPD": 6.56063, "FDIR": 274.49738, "RENV": 260.0, "PENV": 1006.0, "VALIDT": 0, "DTG": "2025-09-25 12:00", "LATNOW": 18.2, "LONNOW": 106.2, "WINDNOW": 80.0, "DIRNOW": 7.0, "SPDNOW": 3.0, "TECH": "TRAK", "ADVNR": 22, "ATCFID": "WP262025", "NAME": "BUALOI", "FTECH": "JTWC", "FCST_DTG": "2025-09-28 18:00:00", "RUN_DTG": "2025-09-29 10:25:32", "BASIN": "WP", "STMNR": 26, "CAT_ID": null, "CAT_DESC": null, "MSGID": "WTPN51 PGTW 282100", "VALIDTIME": "2025-09-25 12:00:00" }, "geometry": { "type": "Point", "coordinates": [ 126.800003, 12.0 ] } },
{ "type": "Feature", "properties": { "ID": 48034, "LAT": 12.1, "LON": 125.5, "VMAX": 55.0, "MSLP": 993.0, "RMAX": 25.0, "FSPD": 11.10991, "FDIR": 275.31375, "RENV": 240.0, "PENV": 1008.0, "VALIDT": 0, "DTG": "2025-09-25 18:00", "LATNOW": 18.2, "LONNOW": 106.2, "WINDNOW": 80.0, "DIRNOW": 7.0, "SPDNOW": 3.0, "TECH": "TRAK", "ADVNR": 22, "ATCFID": "WP262025", "NAME": "BUALOI", "FTECH": "JTWC", "FCST_DTG": "2025-09-28 18:00:00", "RUN_DTG": "2025-09-29 10:25:32", "BASIN": "WP", "STMNR": 26, "CAT_ID": null, "CAT_DESC": null, "MSGID": "WTPN51 PGTW 282100", "VALIDTIME": "2025-09-25 18:00:00" }, "geometry": { "type": "Point", "coordinates": [ 125.5, 12.1 ] } },
{ "type": "Feature", "properties": { "ID": 48035, "LAT": 12.3, "LON": 123.3, "VMAX": 60.0, "MSLP": 993.0, "RMAX": 25.0, "FSPD": 13.71601, "FDIR": 278.62848, "RENV": 240.0, "PENV": 1008.0, "VALIDT": 0, "DTG": "2025-09-26 00:00", "LATNOW": 18.2, "LONNOW": 106.2, "WINDNOW": 80.0, "DIRNOW": 7.0, "SPDNOW": 3.0, "TECH": "TRAK", "ADVNR": 22, "ATCFID": "WP262025", "NAME": "BUALOI", "FTECH": "JTWC", "FCST_DTG": "2025-09-28 18:00:00", "RUN_DTG": "2025-09-29 10:25:32", "BASIN": "WP", "STMNR": 26, "CAT_ID": null, "CAT_DESC": null, "MSGID": "WTPN51 PGTW 282100", "VALIDTIME": "2025-09-26 00:00:00" }, "geometry": { "type": "Point", "coordinates": [ 123.300003, 12.3 ] } },
{ "type": "Feature", "properties": { "ID": 48036, "LAT": 12.7, "LON": 120.6, "VMAX": 60.0, "MSLP": 991.0, "RMAX": 25.0, "FSPD": 7.31582, "FDIR": 286.3365, "RENV": 240.0, "PENV": 1008.0, "VALIDT": 0, "DTG": "2025-09-26 06:00", "LATNOW": 18.2, "LONNOW": 106.2, "WINDNOW": 80.0, "DIRNOW": 7.0, "SPDNOW": 3.0, "TECH": "TRAK", "ADVNR": 22, "ATCFID": "WP262025", "NAME": "BUALOI", "FTECH": "JTWC", "FCST_DTG": "2025-09-28 18:00:00", "RUN_DTG": "2025-09-29 10:25:32", "BASIN": "WP", "STMNR": 26, "CAT_ID": null, "CAT_DESC": null, "MSGID": "WTPN51 PGTW 282100", "VALIDTIME": "2025-09-26 06:00:00" }, "geometry": { "type": "Point", "coordinates": [ 120.599998, 12.7 ] } },
{ "type": "Feature", "properties": { "ID": 48037, "LAT": 13.1, "LON": 119.2, "VMAX": 60.0, "MSLP": 992.0, "RMAX": 25.0, "FSPD": 10.16555, "FDIR": 290.74725, "RENV": 230.0, "PENV": 1006.0, "VALIDT": 0, "DTG": "2025-09-26 12:00", "LATNOW": 18.2, "LONNOW": 106.2, "WINDNOW": 80.0, "DIRNOW": 7.0, "SPDNOW": 3.0, "TECH": "TRAK", "ADVNR": 22, "ATCFID": "WP262025", "NAME": "BUALOI", "FTECH": "JTWC", "FCST_DTG": "2025-09-28 18:00:00", "RUN_DTG": "2025-09-29 10:25:32", "BASIN": "WP", "STMNR": 26, "CAT_ID": null, "CAT_DESC": null, "MSGID": "WTPN51 PGTW 282100", "VALIDTIME": "2025-09-26 12:00:00" }, "geometry": { "type": "Point", "coordinates": [ 119.199997, 13.1 ] } },
{ "type": "Feature", "properties": { "ID": 48038, "LAT": 13.8, "LON": 117.3, "VMAX": 70.0, "MSLP": 990.0, "RMAX": 25.0, "FSPD": 12.11376, "FDIR": 295.13025, "RENV": 180.0, "PENV": 1006.0, "VALIDT": 0, "DTG": "2025-09-26 18:00", "LATNOW": 18.2, "LONNOW": 106.2, "WINDNOW": 80.0, "DIRNOW": 7.0, "SPDNOW": 3.0, "TECH": "TRAK", "ADVNR": 22, "ATCFID": "WP262025", "NAME": "BUALOI", "FTECH": "JTWC", "FCST_DTG": "2025-09-28 18:00:00", "RUN_DTG": "2025-09-29 10:25:32", "BASIN": "WP", "STMNR": 26, "CAT_ID": null, "CAT_DESC": null, "MSGID": "WTPN51 PGTW 282100", "VALIDTIME": "2025-09-26 18:00:00" }, "geometry": { "type": "Point", "coordinates": [ 117.300003, 13.8 ] } },
{ "type": "Feature", "properties": { "ID": 48039, "LAT": 14.8, "LON": 115.1, "VMAX": 75.0, "MSLP": 984.0, "RMAX": 20.0, "FSPD": 6.77971, "FDIR": 287.66913, "RENV": 200.0, "PENV": 1006.0, "VALIDT": 0, "DTG": "2025-09-27 00:00", "LATNOW": 18.2, "LONNOW": 106.2, "WINDNOW": 80.0, "DIRNOW": 7.0, "SPDNOW": 3.0, "TECH": "TRAK", "ADVNR": 22, "ATCFID": "WP262025", "NAME": "BUALOI", "FTECH": "JTWC", "FCST_DTG": "2025-09-28 18:00:00", "RUN_DTG": "2025-09-29 10:25:32", "BASIN": "WP", "STMNR": 26, "CAT_ID": null, "CAT_DESC": null, "MSGID": "WTPN51 PGTW 282100", "VALIDTIME": "2025-09-27 00:00:00" }, "geometry": { "type": "Point", "coordinates": [ 115.099998, 14.8 ] } },
{ "type": "Feature", "properties": { "ID": 48040, "LAT": 15.2, "LON": 113.8, "VMAX": 75.0, "MSLP": 982.0, "RMAX": 25.0, "FSPD": 8.97499, "FDIR": 290.11578, "RENV": 200.0, "PENV": 1007.0, "VALIDT": 0, "DTG": "2025-09-27 06:00", "LATNOW": 18.2, "LONNOW": 106.2, "WINDNOW": 80.0, "DIRNOW": 7.0, "SPDNOW": 3.0, "TECH": "TRAK", "ADVNR": 22, "ATCFID": "WP262025", "NAME": "BUALOI", "FTECH": "JTWC", "FCST_DTG": "2025-09-28 18:00:00", "RUN_DTG": "2025-09-29 10:25:32", "BASIN": "WP", "STMNR": 26, "CAT_ID": null, "CAT_DESC": null, "MSGID": "WTPN51 PGTW 282100", "VALIDTIME": "2025-09-27 06:00:00" }, "geometry": { "type": "Point", "coordinates": [ 113.800003, 15.2 ] } },
{ "type": "Feature", "properties": { "ID": 48041, "LAT": 15.8, "LON": 112.1, "VMAX": 75.0, "MSLP": 981.0, "RMAX": 25.0, "FSPD": 7.42512, "FDIR": 269.99997, "RENV": 225.0, "PENV": 1007.0, "VALIDT": 0, "DTG": "2025-09-27 12:00", "LATNOW": 18.2, "LONNOW": 106.2, "WINDNOW": 80.0, "DIRNOW": 7.0, "SPDNOW": 3.0, "TECH": "TRAK", "ADVNR": 22, "ATCFID": "WP262025", "NAME": "BUALOI", "FTECH": "JTWC", "FCST_DTG": "2025-09-28 18:00:00", "RUN_DTG": "2025-09-29 10:25:32", "BASIN": "WP", "STMNR": 26, "CAT_ID": null, "CAT_DESC": null, "MSGID": "WTPN51 PGTW 282100", "VALIDTIME": "2025-09-27 12:00:00" }, "geometry": { "type": "Point", "coordinates": [ 112.099998, 15.8 ] } },
{ "type": "Feature", "properties": { "ID": 48042, "LAT": 15.8, "LON": 110.6, "VMAX": 65.0, "MSLP": 980.0, "RMAX": 25.0, "FSPD": 6.6863, "FDIR": 297.49298, "RENV": 245.0, "PENV": 1006.0, "VALIDT": 0, "DTG": "2025-09-27 18:00", "LATNOW": 18.2, "LONNOW": 106.2, "WINDNOW": 80.0, "DIRNOW": 7.0, "SPDNOW": 3.0, "TECH": "TRAK", "ADVNR": 22, "ATCFID": "WP262025", "NAME": "BUALOI", "FTECH": "JTWC", "FCST_DTG": "2025-09-28 18:00:00", "RUN_DTG": "2025-09-29 10:25:32", "BASIN": "WP", "STMNR": 26, "CAT_ID": null, "CAT_DESC": null, "MSGID": "WTPN51 PGTW 282100", "VALIDTIME": "2025-09-27 18:00:00" }, "geometry": { "type": "Point", "coordinates": [ 110.599998, 15.8 ] } },
{ "type": "Feature", "properties": { "ID": 48043, "LAT": 16.4, "LON": 109.4, "VMAX": 70.0, "MSLP": 986.0, "RMAX": 25.0, "FSPD": 7.11061, "FDIR": 295.7276, "RENV": 275.0, "PENV": 1006.0, "VALIDT": 0, "DTG": "2025-09-28 00:00", "LATNOW": 18.2, "LONNOW": 106.2, "WINDNOW": 80.0, "DIRNOW": 7.0, "SPDNOW": 3.0, "TECH": "TRAK", "ADVNR": 22, "ATCFID": "WP262025", "NAME": "BUALOI", "FTECH": "JTWC", "FCST_DTG": "2025-09-28 18:00:00", "RUN_DTG": "2025-09-29 10:25:32", "BASIN": "WP", "STMNR": 26, "CAT_ID": null, "CAT_DESC": null, "MSGID": "WTPN51 PGTW 282100", "VALIDTIME": "2025-09-28 00:00:00" }, "geometry": { "type": "Point", "coordinates": [ 109.400002, 16.4 ] } },
{ "type": "Feature", "properties": { "ID": 48044, "LAT": 17.0, "LON": 108.1, "VMAX": 70.0, "MSLP": 982.0, "RMAX": 25.0, "FSPD": 6.08932, "FDIR": 306.25513, "RENV": 250.0, "PENV": 1005.0, "VALIDT": 0, "DTG": "2025-09-28 06:00", "LATNOW": 18.2, "LONNOW": 106.2, "WINDNOW": 80.0, "DIRNOW": 7.0, "SPDNOW": 3.0, "TECH": "TRAK", "ADVNR": 22, "ATCFID": "WP262025", "NAME": "BUALOI", "FTECH": "JTWC", "FCST_DTG": "2025-09-28 18:00:00", "RUN_DTG": "2025-09-29 10:25:32", "BASIN": "WP", "STMNR": 26, "CAT_ID": null, "CAT_DESC": null, "MSGID": "WTPN51 PGTW 282100", "VALIDTIME": "2025-09-28 06:00:00" }, "geometry": { "type": "Point", "coordinates": [ 108.099998, 17.0 ] } },
{ "type": "Feature", "properties": { "ID": 48045, "LAT": 17.7, "LON": 107.1, "VMAX": 70.0, "MSLP": 980.0, "RMAX": 20.0, "FSPD": 5.10071, "FDIR": 300.28403, "RENV": 220.0, "PENV": 1003.0, "VALIDT": 0, "DTG": "2025-09-28 12:00", "LATNOW": 18.2, "LONNOW": 106.2, "WINDNOW": 80.0, "DIRNOW": 7.0, "SPDNOW": 3.0, "TECH": "TRAK", "ADVNR": 22, "ATCFID": "WP262025", "NAME": "BUALOI", "FTECH": "JTWC", "FCST_DTG": "2025-09-28 18:00:00", "RUN_DTG": "2025-09-29 10:25:32", "BASIN": "WP", "STMNR": 26, "CAT_ID": null, "CAT_DESC": null, "MSGID": "WTPN51 PGTW 282100", "VALIDTIME": "2025-09-28 12:00:00" }, "geometry": { "type": "Point", "coordinates": [ 107.099998, 17.700001 ] } },
{ "type": "Feature", "properties": { "ID": 48046, "LAT": 18.2, "LON": 106.2, "VMAX": 80.0, "MSLP": 977.0, "RMAX": 30.0, "FSPD": 6.62535, "FDIR": 297.76736, "RENV": 130.0, "PENV": 1001.0, "VALIDT": 0, "DTG": "2025-09-28 18:00", "LATNOW": 18.2, "LONNOW": 106.2, "WINDNOW": 80.0, "DIRNOW": 7.0, "SPDNOW": 3.0, "TECH": "TRAK", "ADVNR": 22, "ATCFID": "WP262025", "NAME": "BUALOI", "FTECH": "JTWC", "FCST_DTG": "2025-09-28 18:00:00", "RUN_DTG": "2025-09-29 10:25:32", "BASIN": "WP", "STMNR": 26, "CAT_ID": null, "CAT_DESC": null, "MSGID": "WTPN51 PGTW 282100", "VALIDTIME": "2025-09-28 18:00:00" }, "geometry": { "type": "Point", "coordinates": [ 106.199997, 18.200001 ] } },
{ "type": "Feature", "properties": { "ID": 48047, "LAT": 18.32, "LON": 105.96, "VMAX": 80.0, "MSLP": 977.0, "RMAX": 30.0, "FSPD": 6.6072, "FDIR": 297.85052, "RENV": 130.0, "PENV": 1001.0, "VALIDT": 1, "DTG": "2025-09-28 19:00", "LATNOW": 18.2, "LONNOW": 106.2, "WINDNOW": 80.0, "DIRNOW": 7.0, "SPDNOW": 3.0, "TECH": "FCST", "ADVNR": 22, "ATCFID": "WP262025", "NAME": "BUALOI", "FTECH": "JTWC", "FCST_DTG": "2025-09-28 18:00:00", "RUN_DTG": "2025-09-29 10:25:32", "BASIN": "WP", "STMNR": 26, "CAT_ID": null, "CAT_DESC": null, "MSGID": "WTPN51 PGTW 282100", "VALIDTIME": "2025-09-28 19:00:00" }, "geometry": { "type": "Point", "coordinates": [ 105.959999, 18.32 ] } },
{ "type": "Feature", "properties": { "ID": 48048, "LAT": 19.4, "LON": 103.8, "VMAX": 50.0, "MSLP": 1002.2391, "RMAX": 39.40187, "FSPD": 6.3491, "FDIR": 293.89935, "RENV": 180.0, "PENV": 1012.0, "VALIDT": 12, "DTG": "2025-09-29 06:00", "LATNOW": 18.2, "LONNOW": 106.2, "WINDNOW": 80.0, "DIRNOW": 7.0, "SPDNOW": 3.0, "TECH": "FCST", "ADVNR": 22, "ATCFID": "WP262025", "NAME": "BUALOI", "FTECH": "JTWC", "FCST_DTG": "2025-09-28 18:00:00", "RUN_DTG": "2025-09-29 10:25:32", "BASIN": "WP", "STMNR": 26, "CAT_ID": null, "CAT_DESC": null, "MSGID": "WTPN51 PGTW 282100", "VALIDTIME": "2025-09-29 06:00:00" }, "geometry": { "type": "Point", "coordinates": [ 103.800003, 19.4 ] } },
{ "type": "Feature", "properties": { "ID": 48049, "LAT": 20.4, "LON": 101.4, "VMAX": 30.0, "MSLP": 1010.40607, "RMAX": 45.17452, "FSPD": 7.0762, "FDIR": 293.56903, "RENV": 250.0, "PENV": 1012.0, "VALIDT": 24, "DTG": "2025-09-29 18:00", "LATNOW": 18.2, "LONNOW": 106.2, "WINDNOW": 80.0, "DIRNOW": 7.0, "SPDNOW": 3.0, "TECH": "FCST", "ADVNR": 22, "ATCFID": "WP262025", "NAME": "BUALOI", "FTECH": "JTWC", "FCST_DTG": "2025-09-28 18:00:00", "RUN_DTG": "2025-09-29 10:25:32", "BASIN": "WP", "STMNR": 26, "CAT_ID": null, "CAT_DESC": null, "MSGID": "WTPN51 PGTW 282100", "VALIDTIME": "2025-09-29 18:00:00" }, "geometry": { "type": "Point", "coordinates": [ 101.400002, 20.4 ] } },
{ "type": "Feature", "properties": { "ID": 48050, "LAT": 21.5, "LON": 98.7, "VMAX": 20.0, "MSLP": 1012.95825, "RMAX": 45.97153, "FSPD": 7.0762, "FDIR": 293.56903, "RENV": 250.0, "PENV": 1012.0, "VALIDT": 36, "DTG": "2025-09-30 06:00", "LATNOW": 18.2, "LONNOW": 106.2, "WINDNOW": 80.0, "DIRNOW": 7.0, "SPDNOW": 3.0, "TECH": "FCST", "ADVNR": 22, "ATCFID": "WP262025", "NAME": "BUALOI", "FTECH": "JTWC", "FCST_DTG": "2025-09-28 18:00:00", "RUN_DTG": "2025-09-29 10:25:32", "BASIN": "WP", "STMNR": 26, "CAT_ID": null, "CAT_DESC": null, "MSGID": "WTPN51 PGTW 282100", "VALIDTIME": "2025-09-30 06:00:00" }, "geometry": { "type": "Point", "coordinates": [ 98.699997, 21.5 ] } },
{ "type": "Feature", "properties": { "ID": 48046, "LAT": 18.2, "LON": 106.2, "VMAX": 80.0, "MSLP": 977.0, "RMAX": 30.0, "FSPD": 6.62535, "FDIR": 297.76736, "RENV": 130.0, "PENV": 1001.0, "VALIDT": 0, "DTG": "2025-09-28 18:00", "LATNOW": 18.2, "LONNOW": 106.2, "WINDNOW": 80.0, "DIRNOW": 7.0, "SPDNOW": 3.0, "TECH": "TRAK", "ADVNR": 22, "ATCFID": "WP262025", "NAME": "BUALOI", "FTECH": "JTWC", "FCST_DTG": "2025-09-28 18:00:00", "RUN_DTG": "2025-09-29 10:25:32", "BASIN": "WP", "STMNR": 26, "CAT_ID": null, "CAT_DESC": null, "MSGID": "WTPN51 PGTW 282100", "VALIDTIME": "2025-09-28 18:00:00" }, "geometry": { "type": "LineString", "coordinates": [ [ 140.8, 9.2 ], [ 140.4, 9.3 ], [ 140.0, 9.5 ], [ 139.1, 9.7 ], [ 138.3, 9.8 ], [ 137.5, 9.9 ], [ 136.6, 10.0 ], [ 135.5, 10.1 ], [ 134.4, 9.9 ], [ 133.7, 9.5 ], [ 133.0, 9.5 ], [ 131.8, 10.0 ], [ 131.0, 10.4 ], [ 130.1, 10.7 ], [ 129.2, 11.2 ], [ 128.1, 11.3 ], [ 126.8, 12.0 ], [ 125.5, 12.1 ], [ 123.3, 12.3 ], [ 120.6, 12.7 ], [ 119.2, 13.1 ], [ 117.3, 13.8 ], [ 115.1, 14.8 ], [ 113.8, 15.2 ], [ 112.1, 15.8 ], [ 110.6, 15.8 ], [ 109.4, 16.4 ], [ 108.1, 17.0 ], [ 107.1, 17.7 ], [ 106.2, 18.2 ] ] } },
{ "type": "Feature", "properties": { "ID": 48050, "LAT": 21.5, "LON": 98.7, "VMAX": 20.0, "MSLP": 1012.95825, "RMAX": 45.97153, "FSPD": 7.0762, "FDIR": 293.56903, "RENV": 250.0, "PENV": 1012.0, "VALIDT": 36, "DTG": "2025-09-30 06:00", "LATNOW": 18.2, "LONNOW": 106.2, "WINDNOW": 80.0, "DIRNOW": 7.0, "SPDNOW": 3.0, "TECH": "FCST", "ADVNR": 22, "ATCFID": "WP262025", "NAME": "BUALOI", "FTECH": "JTWC", "FCST_DTG": "2025-09-28 18:00:00", "RUN_DTG": "2025-09-29 10:25:32", "BASIN": "WP", "STMNR": 26, "CAT_ID": null, "CAT_DESC": null, "MSGID": "WTPN51 PGTW 282100", "VALIDTIME": "2025-09-30 06:00:00" }, "geometry": { "type": "LineString", "coordinates": [ [ 106.2, 18.2 ], [ 105.96, 18.32 ], [ 103.8, 19.4 ], [ 101.4, 20.4 ], [ 98.7, 21.5 ] ] } }
]
}
