{
"type": "FeatureCollection",
"crs": { "type": "name", "properties": { "name": "urn:ogc:def:crs:OGC:1.3:CRS84" } },
"features": [
{ "type": "Feature", "properties": { "ID": 39296, "LAT": 26.9, "LON": -84.0, "VMAX": 20.0, "MSLP": 1015.0, "RMAX": 100.0, "FSPD": 2.76727, "FDIR": 236.10255, "RENV": 150.0, "PENV": 1017.0, "VALIDT": 0, "DTG": "2026-07-18 12:00", "LATNOW": 30.0, "LONNOW": -95.2, "WINDNOW": 30.0, "DIRNOW": 7.0, "SPDNOW": 3.0, "TECH": "TRAK", "ADVNR": 19, "ATCFID": "AL022026", "NAME": "BERTHA", "FTECH": "OFCL", "FCST_DTG": "2026-07-24 00:00:00", "RUN_DTG": "2026-07-24 16:01:19", "BASIN": "AL", "STMNR": 2, "CAT_ID": null, "CAT_DESC": null, "MSGID": "WTNT22 KNHC 240233", "VALIDTIME": "2026-07-18 12:00:00" }, "geometry": { "type": "Point", "coordinates": [ -84.0, 26.9 ] } },
{ "type": "Feature", "properties": { "ID": 39297, "LAT": 26.6, "LON": -84.5, "VMAX": 20.0, "MSLP": 1015.0, "RMAX": 100.0, "FSPD": 2.73111, "FDIR": 340.35995, "RENV": 150.0, "PENV": 1017.0, "VALIDT": 0, "DTG": "2026-07-18 18:00", "LATNOW": 30.0, "LONNOW": -95.2, "WINDNOW": 30.0, "DIRNOW": 7.0, "SPDNOW": 3.0, "TECH": "TRAK", "ADVNR": 19, "ATCFID": "AL022026", "NAME": "BERTHA", "FTECH": "OFCL", "FCST_DTG": "2026-07-24 00:00:00", "RUN_DTG": "2026-07-24 16:01:19", "BASIN": "AL", "STMNR": 2, "CAT_ID": null, "CAT_DESC": null, "MSGID": "WTNT22 KNHC 240233", "VALIDTIME": "2026-07-18 18:00:00" }, "geometry": { "type": "Point", "coordinates": [ -84.5, 26.6 ] } },
{ "type": "Feature", "properties": { "ID": 39298, "LAT": 27.1, "LON": -84.7, "VMAX": 20.0, "MSLP": 1013.0, "RMAX": 100.0, "FSPD": 4.52449, "FDIR": 322.74158, "RENV": 150.0, "PENV": 1016.0, "VALIDT": 0, "DTG": "2026-07-19 00:00", "LATNOW": 30.0, "LONNOW": -95.2, "WINDNOW": 30.0, "DIRNOW": 7.0, "SPDNOW": 3.0, "TECH": "TRAK", "ADVNR": 19, "ATCFID": "AL022026", "NAME": "BERTHA", "FTECH": "OFCL", "FCST_DTG": "2026-07-24 00:00:00", "RUN_DTG": "2026-07-24 16:01:19", "BASIN": "AL", "STMNR": 2, "CAT_ID": null, "CAT_DESC": null, "MSGID": "WTNT22 KNHC 240233", "VALIDTIME": "2026-07-19 00:00:00" }, "geometry": { "type": "Point", "coordinates": [ -84.699997, 27.1 ] } },
{ "type": "Feature", "properties": { "ID": 39299, "LAT": 27.8, "LON": -85.3, "VMAX": 30.0, "MSLP": 1012.0, "RMAX": 40.0, "FSPD": 0.51445, "FDIR": 360.0, "RENV": 150.0, "PENV": 1015.0, "VALIDT": 0, "DTG": "2026-07-19 06:00", "LATNOW": 30.0, "LONNOW": -95.2, "WINDNOW": 30.0, "DIRNOW": 7.0, "SPDNOW": 3.0, "TECH": "TRAK", "ADVNR": 19, "ATCFID": "AL022026", "NAME": "BERTHA", "FTECH": "OFCL", "FCST_DTG": "2026-07-24 00:00:00", "RUN_DTG": "2026-07-24 16:01:19", "BASIN": "AL", "STMNR": 2, "CAT_ID": null, "CAT_DESC": null, "MSGID": "WTNT22 KNHC 240233", "VALIDTIME": "2026-07-19 06:00:00" }, "geometry": { "type": "Point", "coordinates": [ -85.300003, 27.799999 ] } },
{ "type": "Feature", "properties": { "ID": 39300, "LAT": 27.9, "LON": -85.3, "VMAX": 25.0, "MSLP": 1011.0, "RMAX": 40.0, "FSPD": 2.47016, "FDIR": 146.4137, "RENV": 150.0, "PENV": 1015.0, "VALIDT": 0, "DTG": "2026-07-19 12:00", "LATNOW": 30.0, "LONNOW": -95.2, "WINDNOW": 30.0, "DIRNOW": 7.0, "SPDNOW": 3.0, "TECH": "TRAK", "ADVNR": 19, "ATCFID": "AL022026", "NAME": "BERTHA", "FTECH": "OFCL", "FCST_DTG": "2026-07-24 00:00:00", "RUN_DTG": "2026-07-24 16:01:19", "BASIN": "AL", "STMNR": 2, "CAT_ID": null, "CAT_DESC": null, "MSGID": "WTNT22 KNHC 240233", "VALIDTIME": "2026-07-19 12:00:00" }, "geometry": { "type": "Point", "coordinates": [ -85.300003, 27.9 ] } },
{ "type": "Feature", "properties": { "ID": 39301, "LAT": 27.5, "LON": -85.0, "VMAX": 25.0, "MSLP": 1010.0, "RMAX": 40.0, "FSPD": 1.02889, "FDIR": 360.0, "RENV": 150.0, "PENV": 1014.0, "VALIDT": 0, "DTG": "2026-07-19 18:00", "LATNOW": 30.0, "LONNOW": -95.2, "WINDNOW": 30.0, "DIRNOW": 7.0, "SPDNOW": 3.0, "TECH": "TRAK", "ADVNR": 19, "ATCFID": "AL022026", "NAME": "BERTHA", "FTECH": "OFCL", "FCST_DTG": "2026-07-24 00:00:00", "RUN_DTG": "2026-07-24 16:01:19", "BASIN": "AL", "STMNR": 2, "CAT_ID": null, "CAT_DESC": null, "MSGID": "WTNT22 KNHC 240233", "VALIDTIME": "2026-07-19 18:00:00" }, "geometry": { "type": "Point", "coordinates": [ -85.0, 27.5 ] } },
{ "type": "Feature", "properties": { "ID": 39302, "LAT": 27.7, "LON": -85.0, "VMAX": 25.0, "MSLP": 1008.0, "RMAX": 60.0, "FSPD": 3.85009, "FDIR": 339.28162, "RENV": 150.0, "PENV": 1012.0, "VALIDT": 0, "DTG": "2026-07-20 00:00", "LATNOW": 30.0, "LONNOW": -95.2, "WINDNOW": 30.0, "DIRNOW": 7.0, "SPDNOW": 3.0, "TECH": "TRAK", "ADVNR": 19, "ATCFID": "AL022026", "NAME": "BERTHA", "FTECH": "OFCL", "FCST_DTG": "2026-07-24 00:00:00", "RUN_DTG": "2026-07-24 16:01:19", "BASIN": "AL", "STMNR": 2, "CAT_ID": null, "CAT_DESC": null, "MSGID": "WTNT22 KNHC 240233", "VALIDTIME": "2026-07-20 00:00:00" }, "geometry": { "type": "Point", "coordinates": [ -85.0, 27.700001 ] } },
{ "type": "Feature", "properties": { "ID": 39303, "LAT": 28.4, "LON": -85.3, "VMAX": 30.0, "MSLP": 1007.0, "RMAX": 60.0, "FSPD": 0.90505, "FDIR": 269.99997, "RENV": 140.0, "PENV": 1012.0, "VALIDT": 0, "DTG": "2026-07-20 06:00", "LATNOW": 30.0, "LONNOW": -95.2, "WINDNOW": 30.0, "DIRNOW": 7.0, "SPDNOW": 3.0, "TECH": "TRAK", "ADVNR": 19, "ATCFID": "AL022026", "NAME": "BERTHA", "FTECH": "OFCL", "FCST_DTG": "2026-07-24 00:00:00", "RUN_DTG": "2026-07-24 16:01:19", "BASIN": "AL", "STMNR": 2, "CAT_ID": null, "CAT_DESC": null, "MSGID": "WTNT22 KNHC 240233", "VALIDTIME": "2026-07-20 06:00:00" }, "geometry": { "type": "Point", "coordinates": [ -85.300003, 28.4 ] } },
{ "type": "Feature", "properties": { "ID": 39304, "LAT": 28.4, "LON": -85.5, "VMAX": 30.0, "MSLP": 1006.0, "RMAX": 45.0, "FSPD": 1.78849, "FDIR": 329.64722, "RENV": 140.0, "PENV": 1013.0, "VALIDT": 0, "DTG": "2026-07-20 12:00", "LATNOW": 30.0, "LONNOW": -95.2, "WINDNOW": 30.0, "DIRNOW": 7.0, "SPDNOW": 3.0, "TECH": "TRAK", "ADVNR": 19, "ATCFID": "AL022026", "NAME": "BERTHA", "FTECH": "OFCL", "FCST_DTG": "2026-07-24 00:00:00", "RUN_DTG": "2026-07-24 16:01:19", "BASIN": "AL", "STMNR": 2, "CAT_ID": null, "CAT_DESC": null, "MSGID": "WTNT22 KNHC 240233", "VALIDTIME": "2026-07-20 12:00:00" }, "geometry": { "type": "Point", "coordinates": [ -85.5, 28.4 ] } },
{ "type": "Feature", "properties": { "ID": 39305, "LAT": 28.7, "LON": -85.7, "VMAX": 30.0, "MSLP": 1005.0, "RMAX": 45.0, "FSPD": 1.70139, "FDIR": 232.79015, "RENV": 140.0, "PENV": 1013.0, "VALIDT": 0, "DTG": "2026-07-20 18:00", "LATNOW": 30.0, "LONNOW": -95.2, "WINDNOW": 30.0, "DIRNOW": 7.0, "SPDNOW": 3.0, "TECH": "TRAK", "ADVNR": 19, "ATCFID": "AL022026", "NAME": "BERTHA", "FTECH": "OFCL", "FCST_DTG": "2026-07-24 00:00:00", "RUN_DTG": "2026-07-24 16:01:19", "BASIN": "AL", "STMNR": 2, "CAT_ID": null, "CAT_DESC": null, "MSGID": "WTNT22 KNHC 240233", "VALIDTIME": "2026-07-20 18:00:00" }, "geometry": { "type": "Point", "coordinates": [ -85.699997, 28.700001 ] } },
{ "type": "Feature", "properties": { "ID": 39306, "LAT": 28.5, "LON": -86.0, "VMAX": 35.0, "MSLP": 1003.0, "RMAX": 40.0, "FSPD": 0.4521, "FDIR": 269.99997, "RENV": 100.0, "PENV": 1010.0, "VALIDT": 0, "DTG": "2026-07-21 00:00", "LATNOW": 30.0, "LONNOW": -95.2, "WINDNOW": 30.0, "DIRNOW": 7.0, "SPDNOW": 3.0, "TECH": "TRAK", "ADVNR": 19, "ATCFID": "AL022026", "NAME": "BERTHA", "FTECH": "OFCL", "FCST_DTG": "2026-07-24 00:00:00", "RUN_DTG": "2026-07-24 16:01:19", "BASIN": "AL", "STMNR": 2, "CAT_ID": null, "CAT_DESC": null, "MSGID": "WTNT22 KNHC 240233", "VALIDTIME": "2026-07-21 00:00:00" }, "geometry": { "type": "Point", "coordinates": [ -86.0, 28.5 ] } },
{ "type": "Feature", "properties": { "ID": 39307, "LAT": 28.5, "LON": -86.1, "VMAX": 45.0, "MSLP": 998.0, "RMAX": 40.0, "FSPD": 1.608, "FDIR": 343.69482, "RENV": 100.0, "PENV": 1010.0, "VALIDT": 0, "DTG": "2026-07-21 06:00", "LATNOW": 30.0, "LONNOW": -95.2, "WINDNOW": 30.0, "DIRNOW": 7.0, "SPDNOW": 3.0, "TECH": "TRAK", "ADVNR": 19, "ATCFID": "AL022026", "NAME": "BERTHA", "FTECH": "OFCL", "FCST_DTG": "2026-07-24 00:00:00", "RUN_DTG": "2026-07-24 16:01:19", "BASIN": "AL", "STMNR": 2, "CAT_ID": null, "CAT_DESC": null, "MSGID": "WTNT22 KNHC 240233", "VALIDTIME": "2026-07-21 06:00:00" }, "geometry": { "type": "Point", "coordinates": [ -86.099998, 28.5 ] } },
{ "type": "Feature", "properties": { "ID": 39308, "LAT": 28.8, "LON": -86.2, "VMAX": 50.0, "MSLP": 996.0, "RMAX": 40.0, "FSPD": 3.72795, "FDIR": 313.6288, "RENV": 100.0, "PENV": 1010.0, "VALIDT": 0, "DTG": "2026-07-21 12:00", "LATNOW": 30.0, "LONNOW": -95.2, "WINDNOW": 30.0, "DIRNOW": 7.0, "SPDNOW": 3.0, "TECH": "TRAK", "ADVNR": 19, "ATCFID": "AL022026", "NAME": "BERTHA", "FTECH": "OFCL", "FCST_DTG": "2026-07-24 00:00:00", "RUN_DTG": "2026-07-24 16:01:19", "BASIN": "AL", "STMNR": 2, "CAT_ID": null, "CAT_DESC": null, "MSGID": "WTNT22 KNHC 240233", "VALIDTIME": "2026-07-21 12:00:00" }, "geometry": { "type": "Point", "coordinates": [ -86.199997, 28.799999 ] } },
{ "type": "Feature", "properties": { "ID": 39309, "LAT": 29.3, "LON": -86.8, "VMAX": 50.0, "MSLP": 995.0, "RMAX": 40.0, "FSPD": 2.7392, "FDIR": 280.8249, "RENV": 100.0, "PENV": 1010.0, "VALIDT": 0, "DTG": "2026-07-21 18:00", "LATNOW": 30.0, "LONNOW": -95.2, "WINDNOW": 30.0, "DIRNOW": 7.0, "SPDNOW": 3.0, "TECH": "TRAK", "ADVNR": 19, "ATCFID": "AL022026", "NAME": "BERTHA", "FTECH": "OFCL", "FCST_DTG": "2026-07-24 00:00:00", "RUN_DTG": "2026-07-24 16:01:19", "BASIN": "AL", "STMNR": 2, "CAT_ID": null, "CAT_DESC": null, "MSGID": "WTNT22 KNHC 240233", "VALIDTIME": "2026-07-21 18:00:00" }, "geometry": { "type": "Point", "coordinates": [ -86.800003, 29.299999 ] } },
{ "type": "Feature", "properties": { "ID": 39310, "LAT": 29.4, "LON": -87.4, "VMAX": 50.0, "MSLP": 996.0, "RMAX": 40.0, "FSPD": 2.24096, "FDIR": 269.99997, "RENV": 100.0, "PENV": 1010.0, "VALIDT": 0, "DTG": "2026-07-22 00:00", "LATNOW": 30.0, "LONNOW": -95.2, "WINDNOW": 30.0, "DIRNOW": 7.0, "SPDNOW": 3.0, "TECH": "TRAK", "ADVNR": 19, "ATCFID": "AL022026", "NAME": "BERTHA", "FTECH": "OFCL", "FCST_DTG": "2026-07-24 00:00:00", "RUN_DTG": "2026-07-24 16:01:19", "BASIN": "AL", "STMNR": 2, "CAT_ID": null, "CAT_DESC": null, "MSGID": "WTNT22 KNHC 240233", "VALIDTIME": "2026-07-22 00:00:00" }, "geometry": { "type": "Point", "coordinates": [ -87.400002, 29.4 ] } },
{ "type": "Feature", "properties": { "ID": 39311, "LAT": 29.4, "LON": -87.9, "VMAX": 45.0, "MSLP": 998.0, "RMAX": 40.0, "FSPD": 2.87678, "FDIR": 290.95618, "RENV": 130.0, "PENV": 1010.0, "VALIDT": 0, "DTG": "2026-07-22 06:00", "LATNOW": 30.0, "LONNOW": -95.2, "WINDNOW": 30.0, "DIRNOW": 7.0, "SPDNOW": 3.0, "TECH": "TRAK", "ADVNR": 19, "ATCFID": "AL022026", "NAME": "BERTHA", "FTECH": "OFCL", "FCST_DTG": "2026-07-24 00:00:00", "RUN_DTG": "2026-07-24 16:01:19", "BASIN": "AL", "STMNR": 2, "CAT_ID": null, "CAT_DESC": null, "MSGID": "WTNT22 KNHC 240233", "VALIDTIME": "2026-07-22 06:00:00" }, "geometry": { "type": "Point", "coordinates": [ -87.900002, 29.4 ] } },
{ "type": "Feature", "properties": { "ID": 39312, "LAT": 29.6, "LON": -88.5, "VMAX": 45.0, "MSLP": 998.0, "RMAX": 40.0, "FSPD": 3.48664, "FDIR": 296.27246, "RENV": 180.0, "PENV": 1011.0, "VALIDT": 0, "DTG": "2026-07-22 12:00", "LATNOW": 30.0, "LONNOW": -95.2, "WINDNOW": 30.0, "DIRNOW": 7.0, "SPDNOW": 3.0, "TECH": "TRAK", "ADVNR": 19, "ATCFID": "AL022026", "NAME": "BERTHA", "FTECH": "OFCL", "FCST_DTG": "2026-07-24 00:00:00", "RUN_DTG": "2026-07-24 16:01:19", "BASIN": "AL", "STMNR": 2, "CAT_ID": null, "CAT_DESC": null, "MSGID": "WTNT22 KNHC 240233", "VALIDTIME": "2026-07-22 12:00:00" }, "geometry": { "type": "Point", "coordinates": [ -88.5, 29.6 ] } },
{ "type": "Feature", "properties": { "ID": 39313, "LAT": 29.9, "LON": -89.2, "VMAX": 40.0, "MSLP": 1000.0, "RMAX": 90.0, "FSPD": 6.35587, "FDIR": 246.12761, "RENV": 180.0, "PENV": 1009.0, "VALIDT": 0, "DTG": "2026-07-22 18:00", "LATNOW": 30.0, "LONNOW": -95.2, "WINDNOW": 30.0, "DIRNOW": 7.0, "SPDNOW": 3.0, "TECH": "TRAK", "ADVNR": 19, "ATCFID": "AL022026", "NAME": "BERTHA", "FTECH": "OFCL", "FCST_DTG": "2026-07-24 00:00:00", "RUN_DTG": "2026-07-24 16:01:19", "BASIN": "AL", "STMNR": 2, "CAT_ID": null, "CAT_DESC": null, "MSGID": "WTNT22 KNHC 240233", "VALIDTIME": "2026-07-22 18:00:00" }, "geometry": { "type": "Point", "coordinates": [ -89.199997, 29.9 ] } },
{ "type": "Feature", "properties": { "ID": 39314, "LAT": 29.4, "LON": -90.5, "VMAX": 40.0, "MSLP": 1002.0, "RMAX": 90.0, "FSPD": 5.97362, "FDIR": 244.4945, "RENV": 120.0, "PENV": 1010.0, "VALIDT": 0, "DTG": "2026-07-23 00:00", "LATNOW": 30.0, "LONNOW": -95.2, "WINDNOW": 30.0, "DIRNOW": 7.0, "SPDNOW": 3.0, "TECH": "TRAK", "ADVNR": 19, "ATCFID": "AL022026", "NAME": "BERTHA", "FTECH": "OFCL", "FCST_DTG": "2026-07-24 00:00:00", "RUN_DTG": "2026-07-24 16:01:19", "BASIN": "AL", "STMNR": 2, "CAT_ID": null, "CAT_DESC": null, "MSGID": "WTNT22 KNHC 240233", "VALIDTIME": "2026-07-23 00:00:00" }, "geometry": { "type": "Point", "coordinates": [ -90.5, 29.4 ] } },
{ "type": "Feature", "properties": { "ID": 39315, "LAT": 28.9, "LON": -91.7, "VMAX": 40.0, "MSLP": 1003.0, "RMAX": 90.0, "FSPD": 5.0855, "FDIR": 307.3696, "RENV": 120.0, "PENV": 1010.0, "VALIDT": 0, "DTG": "2026-07-23 06:00", "LATNOW": 30.0, "LONNOW": -95.2, "WINDNOW": 30.0, "DIRNOW": 7.0, "SPDNOW": 3.0, "TECH": "TRAK", "ADVNR": 19, "ATCFID": "AL022026", "NAME": "BERTHA", "FTECH": "OFCL", "FCST_DTG": "2026-07-24 00:00:00", "RUN_DTG": "2026-07-24 16:01:19", "BASIN": "AL", "STMNR": 2, "CAT_ID": null, "CAT_DESC": null, "MSGID": "WTNT22 KNHC 240233", "VALIDTIME": "2026-07-23 06:00:00" }, "geometry": { "type": "Point", "coordinates": [ -91.699997, 28.9 ] } },
{ "type": "Feature", "properties": { "ID": 39316, "LAT": 29.5, "LON": -92.6, "VMAX": 40.0, "MSLP": 1003.0, "RMAX": 90.0, "FSPD": 6.01353, "FDIR": 284.8709, "RENV": 120.0, "PENV": 1010.0, "VALIDT": 0, "DTG": "2026-07-23 12:00", "LATNOW": 30.0, "LONNOW": -95.2, "WINDNOW": 30.0, "DIRNOW": 7.0, "SPDNOW": 3.0, "TECH": "TRAK", "ADVNR": 19, "ATCFID": "AL022026", "NAME": "BERTHA", "FTECH": "OFCL", "FCST_DTG": "2026-07-24 00:00:00", "RUN_DTG": "2026-07-24 16:01:19", "BASIN": "AL", "STMNR": 2, "CAT_ID": null, "CAT_DESC": null, "MSGID": "WTNT22 KNHC 240233", "VALIDTIME": "2026-07-23 12:00:00" }, "geometry": { "type": "Point", "coordinates": [ -92.599998, 29.5 ] } },
{ "type": "Feature", "properties": { "ID": 39317, "LAT": 29.8, "LON": -93.9, "VMAX": 35.0, "MSLP": 1006.0, "RMAX": 80.0, "FSPD": 5.89324, "FDIR": 280.0549, "RENV": 120.0, "PENV": 1011.0, "VALIDT": 0, "DTG": "2026-07-23 18:00", "LATNOW": 30.0, "LONNOW": -95.2, "WINDNOW": 30.0, "DIRNOW": 7.0, "SPDNOW": 3.0, "TECH": "TRAK", "ADVNR": 19, "ATCFID": "AL022026", "NAME": "BERTHA", "FTECH": "OFCL", "FCST_DTG": "2026-07-24 00:00:00", "RUN_DTG": "2026-07-24 16:01:19", "BASIN": "AL", "STMNR": 2, "CAT_ID": null, "CAT_DESC": null, "MSGID": "WTNT22 KNHC 240233", "VALIDTIME": "2026-07-23 18:00:00" }, "geometry": { "type": "Point", "coordinates": [ -93.900002, 29.799999 ] } },
{ "type": "Feature", "properties": { "ID": 39318, "LAT": 29.82, "LON": -94.03, "VMAX": 35.0, "MSLP": 1006.0, "RMAX": 80.0, "FSPD": 5.88762, "FDIR": 280.0644, "RENV": 120.0, "PENV": 1011.0, "VALIDT": 0, "DTG": "2026-07-23 18:00", "LATNOW": 30.0, "LONNOW": -95.2, "WINDNOW": 30.0, "DIRNOW": 7.0, "SPDNOW": 3.0, "TECH": "TRAK", "ADVNR": 19, "ATCFID": "AL022026", "NAME": "BERTHA", "FTECH": "OFCL", "FCST_DTG": "2026-07-24 00:00:00", "RUN_DTG": "2026-07-24 16:01:19", "BASIN": "AL", "STMNR": 2, "CAT_ID": null, "CAT_DESC": null, "MSGID": "WTNT22 KNHC 240233", "VALIDTIME": "2026-07-23 18:00:00" }, "geometry": { "type": "Point", "coordinates": [ -94.029999, 29.82 ] } },
{ "type": "Feature", "properties": { "ID": 39319, "LAT": 30.0, "LON": -95.2, "VMAX": 30.0, "MSLP": 1008.0, "RMAX": 80.0, "FSPD": 7.12838, "FDIR": 269.99997, "RENV": 120.0, "PENV": 1011.0, "VALIDT": 0, "DTG": "2026-07-24 00:00", "LATNOW": 30.0, "LONNOW": -95.2, "WINDNOW": 30.0, "DIRNOW": 7.0, "SPDNOW": 3.0, "TECH": "TRAK", "ADVNR": 19, "ATCFID": "AL022026", "NAME": "BERTHA", "FTECH": "OFCL", "FCST_DTG": "2026-07-24 00:00:00", "RUN_DTG": "2026-07-24 16:01:19", "BASIN": "AL", "STMNR": 2, "CAT_ID": null, "CAT_DESC": null, "MSGID": "WTNT22 KNHC 240233", "VALIDTIME": "2026-07-24 00:00:00" }, "geometry": { "type": "Point", "coordinates": [ -95.199997, 30.0 ] } },
{ "type": "Feature", "properties": { "ID": 39320, "LAT": 30.0, "LON": -96.0, "VMAX": 30.0, "MSLP": 1008.0, "RMAX": 80.0, "FSPD": 7.12838, "FDIR": 269.99997, "RENV": 250.0, "PENV": 1012.0, "VALIDT": 3, "DTG": "2026-07-24 03:00", "LATNOW": 30.0, "LONNOW": -95.2, "WINDNOW": 30.0, "DIRNOW": 7.0, "SPDNOW": 3.0, "TECH": "FCST", "ADVNR": 19, "ATCFID": "AL022026", "NAME": "BERTHA", "FTECH": "OFCL", "FCST_DTG": "2026-07-24 00:00:00", "RUN_DTG": "2026-07-24 16:01:19", "BASIN": "AL", "STMNR": 2, "CAT_ID": null, "CAT_DESC": null, "MSGID": "WTNT22 KNHC 240233", "VALIDTIME": "2026-07-24 03:00:00" }, "geometry": { "type": "Point", "coordinates": [ -96.0, 30.0 ] } },
{ "type": "Feature", "properties": { "ID": 39319, "LAT": 30.0, "LON": -95.2, "VMAX": 30.0, "MSLP": 1008.0, "RMAX": 80.0, "FSPD": 7.12838, "FDIR": 269.99997, "RENV": 120.0, "PENV": 1011.0, "VALIDT": 0, "DTG": "2026-07-24 00:00", "LATNOW": 30.0, "LONNOW": -95.2, "WINDNOW": 30.0, "DIRNOW": 7.0, "SPDNOW": 3.0, "TECH": "TRAK", "ADVNR": 19, "ATCFID": "AL022026", "NAME": "BERTHA", "FTECH": "OFCL", "FCST_DTG": "2026-07-24 00:00:00", "RUN_DTG": "2026-07-24 16:01:19", "BASIN": "AL", "STMNR": 2, "CAT_ID": null, "CAT_DESC": null, "MSGID": "WTNT22 KNHC 240233", "VALIDTIME": "2026-07-24 00:00:00" }, "geometry": { "type": "LineString", "coordinates": [ [ -84.0, 26.9 ], [ -84.5, 26.6 ], [ -84.7, 27.1 ], [ -85.3, 27.8 ], [ -85.3, 27.9 ], [ -85.0, 27.5 ], [ -85.0, 27.7 ], [ -85.3, 28.4 ], [ -85.5, 28.4 ], [ -85.7, 28.7 ], [ -86.0, 28.5 ], [ -86.1, 28.5 ], [ -86.2, 28.8 ], [ -86.8, 29.3 ], [ -87.4, 29.4 ], [ -87.9, 29.4 ], [ -88.5, 29.6 ], [ -89.2, 29.9 ], [ -90.5, 29.4 ], [ -91.7, 28.9 ], [ -92.6, 29.5 ], [ -93.9, 29.8 ], [ -94.03, 29.82 ], [ -95.2, 30.0 ] ] } },
{ "type": "Feature", "properties": { "ID": 39320, "LAT": 30.0, "LON": -96.0, "VMAX": 30.0, "MSLP": 1008.0, "RMAX": 80.0, "FSPD": 7.12838, "FDIR": 269.99997, "RENV": 250.0, "PENV": 1012.0, "VALIDT": 3, "DTG": "2026-07-24 03:00", "LATNOW": 30.0, "LONNOW": -95.2, "WINDNOW": 30.0, "DIRNOW": 7.0, "SPDNOW": 3.0, "TECH": "FCST", "ADVNR": 19, "ATCFID": "AL022026", "NAME": "BERTHA", "FTECH": "OFCL", "FCST_DTG": "2026-07-24 00:00:00", "RUN_DTG": "2026-07-24 16:01:19", "BASIN": "AL", "STMNR": 2, "CAT_ID": null, "CAT_DESC": null, "MSGID": "WTNT22 KNHC 240233", "VALIDTIME": "2026-07-24 03:00:00" }, "geometry": { "type": "LineString", "coordinates": [ [ -95.2, 30.0 ], [ -96.0, 30.0 ] ] } }
]
}
