{
"type": "FeatureCollection",
"crs": { "type": "name", "properties": { "name": "urn:ogc:def:crs:OGC:1.3:CRS84" } },
"features": [
{ "type": "Feature", "properties": { "ID": 40812, "LAT": 14.5, "LON": 133.2, "VMAX": 15.0, "MSLP": 1013.8515, "RMAX": 40.0, "FSPD": 4.11343, "FDIR": 284.4851, "RENV": 500.0, "PENV": 1012.0, "VALIDT": 0, "DTG": "2026-07-22 00:00", "LATNOW": 22.4, "LONNOW": 115.1, "WINDNOW": 85.0, "DIRNOW": 4.0, "SPDNOW": 2.0, "TECH": "TRAK", "ADVNR": 11, "ATCFID": "WP112026", "NAME": "NOUL", "FTECH": "JTWC", "FCST_DTG": "2026-07-25 18:00:00", "RUN_DTG": "2026-07-26 09:37:00", "BASIN": "WP", "STMNR": 11, "CAT_ID": null, "CAT_DESC": null, "MSGID": "WTPN51 PGTW 252100", "VALIDTIME": "2026-07-22 00:00:00" }, "geometry": { "type": "Point", "coordinates": [ 133.199997, 14.5 ] } },
{ "type": "Feature", "properties": { "ID": 40813, "LAT": 14.7, "LON": 132.4, "VMAX": 20.0, "MSLP": 1012.95825, "RMAX": 45.0, "FSPD": 4.01298, "FDIR": 277.3653, "RENV": 500.0, "PENV": 1012.0, "VALIDT": 0, "DTG": "2026-07-22 06:00", "LATNOW": 22.4, "LONNOW": 115.1, "WINDNOW": 85.0, "DIRNOW": 4.0, "SPDNOW": 2.0, "TECH": "TRAK", "ADVNR": 11, "ATCFID": "WP112026", "NAME": "NOUL", "FTECH": "JTWC", "FCST_DTG": "2026-07-25 18:00:00", "RUN_DTG": "2026-07-26 09:37:00", "BASIN": "WP", "STMNR": 11, "CAT_ID": null, "CAT_DESC": null, "MSGID": "WTPN51 PGTW 252100", "VALIDTIME": "2026-07-22 06:00:00" }, "geometry": { "type": "Point", "coordinates": [ 132.399994, 14.7 ] } },
{ "type": "Feature", "properties": { "ID": 40814, "LAT": 14.8, "LON": 131.6, "VMAX": 20.0, "MSLP": 1012.95825, "RMAX": 45.0, "FSPD": 3.80621, "FDIR": 293.92102, "RENV": 500.0, "PENV": 1012.0, "VALIDT": 0, "DTG": "2026-07-22 12:00", "LATNOW": 22.4, "LONNOW": 115.1, "WINDNOW": 85.0, "DIRNOW": 4.0, "SPDNOW": 2.0, "TECH": "TRAK", "ADVNR": 11, "ATCFID": "WP112026", "NAME": "NOUL", "FTECH": "JTWC", "FCST_DTG": "2026-07-25 18:00:00", "RUN_DTG": "2026-07-26 09:37:00", "BASIN": "WP", "STMNR": 11, "CAT_ID": null, "CAT_DESC": null, "MSGID": "WTPN51 PGTW 252100", "VALIDTIME": "2026-07-22 12:00:00" }, "geometry": { "type": "Point", "coordinates": [ 131.600006, 14.8 ] } },
{ "type": "Feature", "properties": { "ID": 40815, "LAT": 15.1, "LON": 130.9, "VMAX": 20.0, "MSLP": 1012.95825, "RMAX": 45.0, "FSPD": 7.5371, "FDIR": 307.90063, "RENV": 500.0, "PENV": 1012.0, "VALIDT": 0, "DTG": "2026-07-22 18:00", "LATNOW": 22.4, "LONNOW": 115.1, "WINDNOW": 85.0, "DIRNOW": 4.0, "SPDNOW": 2.0, "TECH": "TRAK", "ADVNR": 11, "ATCFID": "WP112026", "NAME": "NOUL", "FTECH": "JTWC", "FCST_DTG": "2026-07-25 18:00:00", "RUN_DTG": "2026-07-26 09:37:00", "BASIN": "WP", "STMNR": 11, "CAT_ID": null, "CAT_DESC": null, "MSGID": "WTPN51 PGTW 252100", "VALIDTIME": "2026-07-22 18:00:00" }, "geometry": { "type": "Point", "coordinates": [ 130.899994, 15.1 ] } },
{ "type": "Feature", "properties": { "ID": 40816, "LAT": 16.0, "LON": 129.7, "VMAX": 20.0, "MSLP": 1012.95825, "RMAX": 45.0, "FSPD": 9.63873, "FDIR": 318.3498, "RENV": 500.0, "PENV": 1012.0, "VALIDT": 0, "DTG": "2026-07-23 00:00", "LATNOW": 22.4, "LONNOW": 115.1, "WINDNOW": 85.0, "DIRNOW": 4.0, "SPDNOW": 2.0, "TECH": "TRAK", "ADVNR": 11, "ATCFID": "WP112026", "NAME": "NOUL", "FTECH": "JTWC", "FCST_DTG": "2026-07-25 18:00:00", "RUN_DTG": "2026-07-26 09:37:00", "BASIN": "WP", "STMNR": 11, "CAT_ID": null, "CAT_DESC": null, "MSGID": "WTPN51 PGTW 252100", "VALIDTIME": "2026-07-23 00:00:00" }, "geometry": { "type": "Point", "coordinates": [ 129.699997, 16.0 ] } },
{ "type": "Feature", "properties": { "ID": 40817, "LAT": 17.4, "LON": 128.4, "VMAX": 25.0, "MSLP": 1002.0, "RMAX": 50.0, "FSPD": 7.97306, "FDIR": 292.7765, "RENV": 290.0, "PENV": 1005.0, "VALIDT": 0, "DTG": "2026-07-23 06:00", "LATNOW": 22.4, "LONNOW": 115.1, "WINDNOW": 85.0, "DIRNOW": 4.0, "SPDNOW": 2.0, "TECH": "TRAK", "ADVNR": 11, "ATCFID": "WP112026", "NAME": "NOUL", "FTECH": "JTWC", "FCST_DTG": "2026-07-25 18:00:00", "RUN_DTG": "2026-07-26 09:37:00", "BASIN": "WP", "STMNR": 11, "CAT_ID": null, "CAT_DESC": null, "MSGID": "WTPN51 PGTW 252100", "VALIDTIME": "2026-07-23 06:00:00" }, "geometry": { "type": "Point", "coordinates": [ 128.399994, 17.4 ] } },
{ "type": "Feature", "properties": { "ID": 40818, "LAT": 18.0, "LON": 126.9, "VMAX": 30.0, "MSLP": 1002.0, "RMAX": 50.0, "FSPD": 8.9336, "FDIR": 279.94806, "RENV": 290.0, "PENV": 1005.0, "VALIDT": 0, "DTG": "2026-07-23 12:00", "LATNOW": 22.4, "LONNOW": 115.1, "WINDNOW": 85.0, "DIRNOW": 4.0, "SPDNOW": 2.0, "TECH": "TRAK", "ADVNR": 11, "ATCFID": "WP112026", "NAME": "NOUL", "FTECH": "JTWC", "FCST_DTG": "2026-07-25 18:00:00", "RUN_DTG": "2026-07-26 09:37:00", "BASIN": "WP", "STMNR": 11, "CAT_ID": null, "CAT_DESC": null, "MSGID": "WTPN51 PGTW 252100", "VALIDTIME": "2026-07-23 12:00:00" }, "geometry": { "type": "Point", "coordinates": [ 126.900002, 18.0 ] } },
{ "type": "Feature", "properties": { "ID": 40819, "LAT": 18.3, "LON": 125.1, "VMAX": 35.0, "MSLP": 1002.0, "RMAX": 50.0, "FSPD": 8.07244, "FDIR": 284.76855, "RENV": 250.0, "PENV": 1006.0, "VALIDT": 0, "DTG": "2026-07-23 18:00", "LATNOW": 22.4, "LONNOW": 115.1, "WINDNOW": 85.0, "DIRNOW": 4.0, "SPDNOW": 2.0, "TECH": "TRAK", "ADVNR": 11, "ATCFID": "WP112026", "NAME": "NOUL", "FTECH": "JTWC", "FCST_DTG": "2026-07-25 18:00:00", "RUN_DTG": "2026-07-26 09:37:00", "BASIN": "WP", "STMNR": 11, "CAT_ID": null, "CAT_DESC": null, "MSGID": "WTPN51 PGTW 252100", "VALIDTIME": "2026-07-23 18:00:00" }, "geometry": { "type": "Point", "coordinates": [ 125.099998, 18.299999 ] } },
{ "type": "Feature", "properties": { "ID": 40820, "LAT": 18.7, "LON": 123.5, "VMAX": 40.0, "MSLP": 998.0, "RMAX": 40.0, "FSPD": 8.29738, "FDIR": 273.5546, "RENV": 300.0, "PENV": 1006.0, "VALIDT": 0, "DTG": "2026-07-24 00:00", "LATNOW": 22.4, "LONNOW": 115.1, "WINDNOW": 85.0, "DIRNOW": 4.0, "SPDNOW": 2.0, "TECH": "TRAK", "ADVNR": 11, "ATCFID": "WP112026", "NAME": "NOUL", "FTECH": "JTWC", "FCST_DTG": "2026-07-25 18:00:00", "RUN_DTG": "2026-07-26 09:37:00", "BASIN": "WP", "STMNR": 11, "CAT_ID": null, "CAT_DESC": null, "MSGID": "WTPN51 PGTW 252100", "VALIDTIME": "2026-07-24 00:00:00" }, "geometry": { "type": "Point", "coordinates": [ 123.5, 18.700001 ] } },
{ "type": "Feature", "properties": { "ID": 40821, "LAT": 18.8, "LON": 121.8, "VMAX": 45.0, "MSLP": 996.0, "RMAX": 40.0, "FSPD": 8.22623, "FDIR": 304.25208, "RENV": 210.0, "PENV": 1006.0, "VALIDT": 0, "DTG": "2026-07-24 06:00", "LATNOW": 22.4, "LONNOW": 115.1, "WINDNOW": 85.0, "DIRNOW": 4.0, "SPDNOW": 2.0, "TECH": "TRAK", "ADVNR": 11, "ATCFID": "WP112026", "NAME": "NOUL", "FTECH": "JTWC", "FCST_DTG": "2026-07-25 18:00:00", "RUN_DTG": "2026-07-26 09:37:00", "BASIN": "WP", "STMNR": 11, "CAT_ID": null, "CAT_DESC": null, "MSGID": "WTPN51 PGTW 252100", "VALIDTIME": "2026-07-24 06:00:00" }, "geometry": { "type": "Point", "coordinates": [ 121.800003, 18.799999 ] } },
{ "type": "Feature", "properties": { "ID": 40822, "LAT": 19.7, "LON": 120.4, "VMAX": 60.0, "MSLP": 997.0, "RMAX": 30.0, "FSPD": 5.54189, "FDIR": 286.16974, "RENV": 210.0, "PENV": 1006.0, "VALIDT": 0, "DTG": "2026-07-24 12:00", "LATNOW": 22.4, "LONNOW": 115.1, "WINDNOW": 85.0, "DIRNOW": 4.0, "SPDNOW": 2.0, "TECH": "TRAK", "ADVNR": 11, "ATCFID": "WP112026", "NAME": "NOUL", "FTECH": "JTWC", "FCST_DTG": "2026-07-25 18:00:00", "RUN_DTG": "2026-07-26 09:37:00", "BASIN": "WP", "STMNR": 11, "CAT_ID": null, "CAT_DESC": null, "MSGID": "WTPN51 PGTW 252100", "VALIDTIME": "2026-07-24 12:00:00" }, "geometry": { "type": "Point", "coordinates": [ 120.400002, 19.700001 ] } },
{ "type": "Feature", "properties": { "ID": 40823, "LAT": 20.0, "LON": 119.3, "VMAX": 65.0, "MSLP": 991.0, "RMAX": 20.0, "FSPD": 6.33936, "FDIR": 310.48175, "RENV": 210.0, "PENV": 1006.0, "VALIDT": 0, "DTG": "2026-07-24 18:00", "LATNOW": 22.4, "LONNOW": 115.1, "WINDNOW": 85.0, "DIRNOW": 4.0, "SPDNOW": 2.0, "TECH": "TRAK", "ADVNR": 11, "ATCFID": "WP112026", "NAME": "NOUL", "FTECH": "JTWC", "FCST_DTG": "2026-07-25 18:00:00", "RUN_DTG": "2026-07-26 09:37:00", "BASIN": "WP", "STMNR": 11, "CAT_ID": null, "CAT_DESC": null, "MSGID": "WTPN51 PGTW 252100", "VALIDTIME": "2026-07-24 18:00:00" }, "geometry": { "type": "Point", "coordinates": [ 119.300003, 20.0 ] } },
{ "type": "Feature", "properties": { "ID": 40824, "LAT": 20.8, "LON": 118.3, "VMAX": 70.0, "MSLP": 983.0, "RMAX": 17.0, "FSPD": 8.55769, "FDIR": 287.4921, "RENV": 205.0, "PENV": 1004.0, "VALIDT": 0, "DTG": "2026-07-25 00:00", "LATNOW": 22.4, "LONNOW": 115.1, "WINDNOW": 85.0, "DIRNOW": 4.0, "SPDNOW": 2.0, "TECH": "TRAK", "ADVNR": 11, "ATCFID": "WP112026", "NAME": "NOUL", "FTECH": "JTWC", "FCST_DTG": "2026-07-25 18:00:00", "RUN_DTG": "2026-07-26 09:37:00", "BASIN": "WP", "STMNR": 11, "CAT_ID": null, "CAT_DESC": null, "MSGID": "WTPN51 PGTW 252100", "VALIDTIME": "2026-07-25 00:00:00" }, "geometry": { "type": "Point", "coordinates": [ 118.300003, 20.799999 ] } },
{ "type": "Feature", "properties": { "ID": 40825, "LAT": 21.3, "LON": 116.6, "VMAX": 75.0, "MSLP": 980.0, "RMAX": 17.0, "FSPD": 4.2231, "FDIR": 307.52325, "RENV": 180.0, "PENV": 1005.0, "VALIDT": 0, "DTG": "2026-07-25 06:00", "LATNOW": 22.4, "LONNOW": 115.1, "WINDNOW": 85.0, "DIRNOW": 4.0, "SPDNOW": 2.0, "TECH": "TRAK", "ADVNR": 11, "ATCFID": "WP112026", "NAME": "NOUL", "FTECH": "JTWC", "FCST_DTG": "2026-07-25 18:00:00", "RUN_DTG": "2026-07-26 09:37:00", "BASIN": "WP", "STMNR": 11, "CAT_ID": null, "CAT_DESC": null, "MSGID": "WTPN51 PGTW 252100", "VALIDTIME": "2026-07-25 06:00:00" }, "geometry": { "type": "Point", "coordinates": [ 116.599998, 21.299999 ] } },
{ "type": "Feature", "properties": { "ID": 40826, "LAT": 21.8, "LON": 115.9, "VMAX": 80.0, "MSLP": 975.0, "RMAX": 17.0, "FSPD": 4.90591, "FDIR": 308.98914, "RENV": 175.0, "PENV": 1004.0, "VALIDT": 0, "DTG": "2026-07-25 12:00", "LATNOW": 22.4, "LONNOW": 115.1, "WINDNOW": 85.0, "DIRNOW": 4.0, "SPDNOW": 2.0, "TECH": "TRAK", "ADVNR": 11, "ATCFID": "WP112026", "NAME": "NOUL", "FTECH": "JTWC", "FCST_DTG": "2026-07-25 18:00:00", "RUN_DTG": "2026-07-26 09:37:00", "BASIN": "WP", "STMNR": 11, "CAT_ID": null, "CAT_DESC": null, "MSGID": "WTPN51 PGTW 252100", "VALIDTIME": "2026-07-25 12:00:00" }, "geometry": { "type": "Point", "coordinates": [ 115.900002, 21.799999 ] } },
{ "type": "Feature", "properties": { "ID": 40827, "LAT": 22.4, "LON": 115.1, "VMAX": 85.0, "MSLP": 970.0, "RMAX": 15.0, "FSPD": 3.89468, "FDIR": 322.42316, "RENV": 170.0, "PENV": 1003.0, "VALIDT": 0, "DTG": "2026-07-25 18:00", "LATNOW": 22.4, "LONNOW": 115.1, "WINDNOW": 85.0, "DIRNOW": 4.0, "SPDNOW": 2.0, "TECH": "TRAK", "ADVNR": 11, "ATCFID": "WP112026", "NAME": "NOUL", "FTECH": "JTWC", "FCST_DTG": "2026-07-25 18:00:00", "RUN_DTG": "2026-07-26 09:37:00", "BASIN": "WP", "STMNR": 11, "CAT_ID": null, "CAT_DESC": null, "MSGID": "WTPN51 PGTW 252100", "VALIDTIME": "2026-07-25 18:00:00" }, "geometry": { "type": "Point", "coordinates": [ 115.099998, 22.4 ] } },
{ "type": "Feature", "properties": { "ID": 40828, "LAT": 22.76, "LON": 114.8, "VMAX": 85.0, "MSLP": 970.0, "RMAX": 15.0, "FSPD": 3.88827, "FDIR": 322.5458, "RENV": 170.0, "PENV": 1003.0, "VALIDT": 3, "DTG": "2026-07-25 21:00", "LATNOW": 22.4, "LONNOW": 115.1, "WINDNOW": 85.0, "DIRNOW": 4.0, "SPDNOW": 2.0, "TECH": "FCST", "ADVNR": 11, "ATCFID": "WP112026", "NAME": "NOUL", "FTECH": "JTWC", "FCST_DTG": "2026-07-25 18:00:00", "RUN_DTG": "2026-07-26 09:37:00", "BASIN": "WP", "STMNR": 11, "CAT_ID": null, "CAT_DESC": null, "MSGID": "WTPN51 PGTW 252100", "VALIDTIME": "2026-07-25 21:00:00" }, "geometry": { "type": "Point", "coordinates": [ 114.799995, 22.76 ] } },
{ "type": "Feature", "properties": { "ID": 40829, "LAT": 23.6, "LON": 114.1, "VMAX": 60.0, "MSLP": 996.62427, "RMAX": 19.63782, "FSPD": 4.34893, "FDIR": 341.14468, "RENV": 180.0, "PENV": 1012.0, "VALIDT": 12, "DTG": "2026-07-26 06:00", "LATNOW": 22.4, "LONNOW": 115.1, "WINDNOW": 85.0, "DIRNOW": 4.0, "SPDNOW": 2.0, "TECH": "FCST", "ADVNR": 11, "ATCFID": "WP112026", "NAME": "NOUL", "FTECH": "JTWC", "FCST_DTG": "2026-07-25 18:00:00", "RUN_DTG": "2026-07-26 09:37:00", "BASIN": "WP", "STMNR": 11, "CAT_ID": null, "CAT_DESC": null, "MSGID": "WTPN51 PGTW 252100", "VALIDTIME": "2026-07-26 06:00:00" }, "geometry": { "type": "Point", "coordinates": [ 114.099998, 23.6 ] } },
{ "type": "Feature", "properties": { "ID": 40830, "LAT": 25.2, "LON": 113.5, "VMAX": 40.0, "MSLP": 1006.833, "RMAX": 22.52562, "FSPD": 4.77188, "FDIR": 345.9933, "RENV": 250.0, "PENV": 1012.0, "VALIDT": 24, "DTG": "2026-07-26 18:00", "LATNOW": 22.4, "LONNOW": 115.1, "WINDNOW": 85.0, "DIRNOW": 4.0, "SPDNOW": 2.0, "TECH": "FCST", "ADVNR": 11, "ATCFID": "WP112026", "NAME": "NOUL", "FTECH": "JTWC", "FCST_DTG": "2026-07-25 18:00:00", "RUN_DTG": "2026-07-26 09:37:00", "BASIN": "WP", "STMNR": 11, "CAT_ID": null, "CAT_DESC": null, "MSGID": "WTPN51 PGTW 252100", "VALIDTIME": "2026-07-26 18:00:00" }, "geometry": { "type": "Point", "coordinates": [ 113.5, 25.200001 ] } },
{ "type": "Feature", "properties": { "ID": 40831, "LAT": 27.0, "LON": 113.0, "VMAX": 30.0, "MSLP": 1010.40607, "RMAX": 24.13779, "FSPD": 4.26991, "FDIR": 344.54752, "RENV": 250.0, "PENV": 1012.0, "VALIDT": 36, "DTG": "2026-07-27 06:00", "LATNOW": 22.4, "LONNOW": 115.1, "WINDNOW": 85.0, "DIRNOW": 4.0, "SPDNOW": 2.0, "TECH": "FCST", "ADVNR": 11, "ATCFID": "WP112026", "NAME": "NOUL", "FTECH": "JTWC", "FCST_DTG": "2026-07-25 18:00:00", "RUN_DTG": "2026-07-26 09:37:00", "BASIN": "WP", "STMNR": 11, "CAT_ID": null, "CAT_DESC": null, "MSGID": "WTPN51 PGTW 252100", "VALIDTIME": "2026-07-27 06:00:00" }, "geometry": { "type": "Point", "coordinates": [ 113.0, 27.0 ] } },
{ "type": "Feature", "properties": { "ID": 40832, "LAT": 28.6, "LON": 112.5, "VMAX": 20.0, "MSLP": 1012.95825, "RMAX": 24.56365, "FSPD": 4.26991, "FDIR": 344.54752, "RENV": 250.0, "PENV": 1012.0, "VALIDT": 48, "DTG": "2026-07-27 18:00", "LATNOW": 22.4, "LONNOW": 115.1, "WINDNOW": 85.0, "DIRNOW": 4.0, "SPDNOW": 2.0, "TECH": "FCST", "ADVNR": 11, "ATCFID": "WP112026", "NAME": "NOUL", "FTECH": "JTWC", "FCST_DTG": "2026-07-25 18:00:00", "RUN_DTG": "2026-07-26 09:37:00", "BASIN": "WP", "STMNR": 11, "CAT_ID": null, "CAT_DESC": null, "MSGID": "WTPN51 PGTW 252100", "VALIDTIME": "2026-07-27 18:00:00" }, "geometry": { "type": "Point", "coordinates": [ 112.5, 28.6 ] } },
{ "type": "Feature", "properties": { "ID": 40827, "LAT": 22.4, "LON": 115.1, "VMAX": 85.0, "MSLP": 970.0, "RMAX": 15.0, "FSPD": 3.89468, "FDIR": 322.42316, "RENV": 170.0, "PENV": 1003.0, "VALIDT": 0, "DTG": "2026-07-25 18:00", "LATNOW": 22.4, "LONNOW": 115.1, "WINDNOW": 85.0, "DIRNOW": 4.0, "SPDNOW": 2.0, "TECH": "TRAK", "ADVNR": 11, "ATCFID": "WP112026", "NAME": "NOUL", "FTECH": "JTWC", "FCST_DTG": "2026-07-25 18:00:00", "RUN_DTG": "2026-07-26 09:37:00", "BASIN": "WP", "STMNR": 11, "CAT_ID": null, "CAT_DESC": null, "MSGID": "WTPN51 PGTW 252100", "VALIDTIME": "2026-07-25 18:00:00" }, "geometry": { "type": "LineString", "coordinates": [ [ 133.2, 14.5 ], [ 132.4, 14.7 ], [ 131.6, 14.8 ], [ 130.9, 15.1 ], [ 129.7, 16.0 ], [ 128.4, 17.4 ], [ 126.9, 18.0 ], [ 125.1, 18.3 ], [ 123.5, 18.7 ], [ 121.8, 18.8 ], [ 120.4, 19.7 ], [ 119.3, 20.0 ], [ 118.3, 20.8 ], [ 116.6, 21.3 ], [ 115.9, 21.8 ], [ 115.1, 22.4 ] ] } },
{ "type": "Feature", "properties": { "ID": 40832, "LAT": 28.6, "LON": 112.5, "VMAX": 20.0, "MSLP": 1012.95825, "RMAX": 24.56365, "FSPD": 4.26991, "FDIR": 344.54752, "RENV": 250.0, "PENV": 1012.0, "VALIDT": 48, "DTG": "2026-07-27 18:00", "LATNOW": 22.4, "LONNOW": 115.1, "WINDNOW": 85.0, "DIRNOW": 4.0, "SPDNOW": 2.0, "TECH": "FCST", "ADVNR": 11, "ATCFID": "WP112026", "NAME": "NOUL", "FTECH": "JTWC", "FCST_DTG": "2026-07-25 18:00:00", "RUN_DTG": "2026-07-26 09:37:00", "BASIN": "WP", "STMNR": 11, "CAT_ID": null, "CAT_DESC": null, "MSGID": "WTPN51 PGTW 252100", "VALIDTIME": "2026-07-27 18:00:00" }, "geometry": { "type": "LineString", "coordinates": [ [ 115.1, 22.4 ], [ 114.8, 22.76 ], [ 114.1, 23.6 ], [ 113.5, 25.2 ], [ 113.0, 27.0 ], [ 112.5, 28.6 ] ] } }
]
}
