{
"type": "FeatureCollection",
"crs": { "type": "name", "properties": { "name": "urn:ogc:def:crs:OGC:1.3:CRS84" } },
"features": [
{ "type": "Feature", "properties": { "ID": 269339, "LAT": 22.0, "LON": -95.5, "VMAX": 25.0, "MSLP": 1009.0, "RMAX": 60.0, "FSPD": 4.84742, "FDIR": 162.77466, "RENV": 200.0, "PENV": 1011.0, "VALIDT": 0, "DTG": "2024-10-05 00:00", "LATNOW": 29.5, "LONNOW": -77.5, "WINDNOW": 60.0, "DIRNOW": 11.0, "SPDNOW": 0.0, "TECH": "TRAK", "ADVNR": 23, "ATCFID": "AL142024", "NAME": "MILTON", "FTECH": "OFCL", "FCST_DTG": "2024-10-10 18:00:00", "RUN_DTG": "2024-10-11 09:12:15", "BASIN": "AL", "STMNR": 14, "CAT_ID": null, "CAT_DESC": null, "MSGID": "WTNT24 KNHC 102034", "VALIDTIME": "2024-10-05 00:00:00" }, "geometry": { "type": "Point", "coordinates": [ -95.5, 22.0 ] } },
{ "type": "Feature", "properties": { "ID": 269340, "LAT": 21.1, "LON": -95.2, "VMAX": 30.0, "MSLP": 1009.0, "RMAX": 50.0, "FSPD": 4.11555, "FDIR": 360.0, "RENV": 150.0, "PENV": 1011.0, "VALIDT": 0, "DTG": "2024-10-05 06:00", "LATNOW": 29.5, "LONNOW": -77.5, "WINDNOW": 60.0, "DIRNOW": 11.0, "SPDNOW": 0.0, "TECH": "TRAK", "ADVNR": 23, "ATCFID": "AL142024", "NAME": "MILTON", "FTECH": "OFCL", "FCST_DTG": "2024-10-10 18:00:00", "RUN_DTG": "2024-10-11 09:12:15", "BASIN": "AL", "STMNR": 14, "CAT_ID": null, "CAT_DESC": null, "MSGID": "WTNT24 KNHC 102034", "VALIDTIME": "2024-10-05 06:00:00" }, "geometry": { "type": "Point", "coordinates": [ -95.199997, 21.1 ] } },
{ "type": "Feature", "properties": { "ID": 269341, "LAT": 21.9, "LON": -95.2, "VMAX": 30.0, "MSLP": 1007.0, "RMAX": 50.0, "FSPD": 3.40138, "FDIR": 335.1587, "RENV": 150.0, "PENV": 1010.0, "VALIDT": 0, "DTG": "2024-10-05 12:00", "LATNOW": 29.5, "LONNOW": -77.5, "WINDNOW": 60.0, "DIRNOW": 11.0, "SPDNOW": 0.0, "TECH": "TRAK", "ADVNR": 23, "ATCFID": "AL142024", "NAME": "MILTON", "FTECH": "OFCL", "FCST_DTG": "2024-10-10 18:00:00", "RUN_DTG": "2024-10-11 09:12:15", "BASIN": "AL", "STMNR": 14, "CAT_ID": null, "CAT_DESC": null, "MSGID": "WTNT24 KNHC 102034", "VALIDTIME": "2024-10-05 12:00:00" }, "geometry": { "type": "Point", "coordinates": [ -95.199997, 21.9 ] } },
{ "type": "Feature", "properties": { "ID": 269342, "LAT": 22.5, "LON": -95.5, "VMAX": 35.0, "MSLP": 1006.0, "RMAX": 20.0, "FSPD": 2.26614, "FDIR": 24.76208, "RENV": 140.0, "PENV": 1011.0, "VALIDT": 0, "DTG": "2024-10-05 18:00", "LATNOW": 29.5, "LONNOW": -77.5, "WINDNOW": 60.0, "DIRNOW": 11.0, "SPDNOW": 0.0, "TECH": "TRAK", "ADVNR": 23, "ATCFID": "AL142024", "NAME": "MILTON", "FTECH": "OFCL", "FCST_DTG": "2024-10-10 18:00:00", "RUN_DTG": "2024-10-11 09:12:15", "BASIN": "AL", "STMNR": 14, "CAT_ID": null, "CAT_DESC": null, "MSGID": "WTNT24 KNHC 102034", "VALIDTIME": "2024-10-05 18:00:00" }, "geometry": { "type": "Point", "coordinates": [ -95.5, 22.5 ] } },
{ "type": "Feature", "properties": { "ID": 269343, "LAT": 22.9, "LON": -95.3, "VMAX": 35.0, "MSLP": 1006.0, "RMAX": 20.0, "FSPD": 1.07812, "FDIR": 61.49942, "RENV": 140.0, "PENV": 1010.0, "VALIDT": 0, "DTG": "2024-10-06 00:00", "LATNOW": 29.5, "LONNOW": -77.5, "WINDNOW": 60.0, "DIRNOW": 11.0, "SPDNOW": 0.0, "TECH": "TRAK", "ADVNR": 23, "ATCFID": "AL142024", "NAME": "MILTON", "FTECH": "OFCL", "FCST_DTG": "2024-10-10 18:00:00", "RUN_DTG": "2024-10-11 09:12:15", "BASIN": "AL", "STMNR": 14, "CAT_ID": null, "CAT_DESC": null, "MSGID": "WTNT24 KNHC 102034", "VALIDTIME": "2024-10-06 00:00:00" }, "geometry": { "type": "Point", "coordinates": [ -95.300003, 22.9 ] } },
{ "type": "Feature", "properties": { "ID": 269344, "LAT": 23.0, "LON": -95.1, "VMAX": 40.0, "MSLP": 1005.0, "RMAX": 20.0, "FSPD": 2.93972, "FDIR": 151.04367, "RENV": 140.0, "PENV": 1010.0, "VALIDT": 0, "DTG": "2024-10-06 06:00", "LATNOW": 29.5, "LONNOW": -77.5, "WINDNOW": 60.0, "DIRNOW": 11.0, "SPDNOW": 0.0, "TECH": "TRAK", "ADVNR": 23, "ATCFID": "AL142024", "NAME": "MILTON", "FTECH": "OFCL", "FCST_DTG": "2024-10-10 18:00:00", "RUN_DTG": "2024-10-11 09:12:15", "BASIN": "AL", "STMNR": 14, "CAT_ID": null, "CAT_DESC": null, "MSGID": "WTNT24 KNHC 102034", "VALIDTIME": "2024-10-06 06:00:00" }, "geometry": { "type": "Point", "coordinates": [ -95.099998, 23.0 ] } },
{ "type": "Feature", "properties": { "ID": 269345, "LAT": 22.5, "LON": -94.8, "VMAX": 50.0, "MSLP": 991.0, "RMAX": 20.0, "FSPD": 3.32701, "FDIR": 90.0, "RENV": 150.0, "PENV": 1010.0, "VALIDT": 0, "DTG": "2024-10-06 12:00", "LATNOW": 29.5, "LONNOW": -77.5, "WINDNOW": 60.0, "DIRNOW": 11.0, "SPDNOW": 0.0, "TECH": "TRAK", "ADVNR": 23, "ATCFID": "AL142024", "NAME": "MILTON", "FTECH": "OFCL", "FCST_DTG": "2024-10-10 18:00:00", "RUN_DTG": "2024-10-11 09:12:15", "BASIN": "AL", "STMNR": 14, "CAT_ID": null, "CAT_DESC": null, "MSGID": "WTNT24 KNHC 102034", "VALIDTIME": "2024-10-06 12:00:00" }, "geometry": { "type": "Point", "coordinates": [ -94.800003, 22.5 ] } },
{ "type": "Feature", "properties": { "ID": 269346, "LAT": 22.5, "LON": -94.1, "VMAX": 70.0, "MSLP": 987.0, "RMAX": 15.0, "FSPD": 3.32698, "FDIR": 90.0, "RENV": 150.0, "PENV": 1010.0, "VALIDT": 0, "DTG": "2024-10-06 18:00", "LATNOW": 29.5, "LONNOW": -77.5, "WINDNOW": 60.0, "DIRNOW": 11.0, "SPDNOW": 0.0, "TECH": "TRAK", "ADVNR": 23, "ATCFID": "AL142024", "NAME": "MILTON", "FTECH": "OFCL", "FCST_DTG": "2024-10-10 18:00:00", "RUN_DTG": "2024-10-11 09:12:15", "BASIN": "AL", "STMNR": 14, "CAT_ID": null, "CAT_DESC": null, "MSGID": "WTNT24 KNHC 102034", "VALIDTIME": "2024-10-06 18:00:00" }, "geometry": { "type": "Point", "coordinates": [ -94.099998, 22.5 ] } },
{ "type": "Feature", "properties": { "ID": 269347, "LAT": 22.5, "LON": -93.4, "VMAX": 75.0, "MSLP": 981.0, "RMAX": 15.0, "FSPD": 2.83575, "FDIR": 122.97275, "RENV": 150.0, "PENV": 1009.0, "VALIDT": 0, "DTG": "2024-10-07 00:00", "LATNOW": 29.5, "LONNOW": -77.5, "WINDNOW": 60.0, "DIRNOW": 11.0, "SPDNOW": 0.0, "TECH": "TRAK", "ADVNR": 23, "ATCFID": "AL142024", "NAME": "MILTON", "FTECH": "OFCL", "FCST_DTG": "2024-10-10 18:00:00", "RUN_DTG": "2024-10-11 09:12:15", "BASIN": "AL", "STMNR": 14, "CAT_ID": null, "CAT_DESC": null, "MSGID": "WTNT24 KNHC 102034", "VALIDTIME": "2024-10-07 00:00:00" }, "geometry": { "type": "Point", "coordinates": [ -93.400002, 22.5 ] } },
{ "type": "Feature", "properties": { "ID": 269348, "LAT": 22.2, "LON": -92.9, "VMAX": 90.0, "MSLP": 972.0, "RMAX": 15.0, "FSPD": 3.92209, "FDIR": 121.64563, "RENV": 150.0, "PENV": 1009.0, "VALIDT": 0, "DTG": "2024-10-07 06:00", "LATNOW": 29.5, "LONNOW": -77.5, "WINDNOW": 60.0, "DIRNOW": 11.0, "SPDNOW": 0.0, "TECH": "TRAK", "ADVNR": 23, "ATCFID": "AL142024", "NAME": "MILTON", "FTECH": "OFCL", "FCST_DTG": "2024-10-10 18:00:00", "RUN_DTG": "2024-10-11 09:12:15", "BASIN": "AL", "STMNR": 14, "CAT_ID": null, "CAT_DESC": null, "MSGID": "WTNT24 KNHC 102034", "VALIDTIME": "2024-10-07 06:00:00" }, "geometry": { "type": "Point", "coordinates": [ -92.900002, 22.200001 ] } },
{ "type": "Feature", "properties": { "ID": 269349, "LAT": 21.8, "LON": -92.2, "VMAX": 120.0, "MSLP": 943.0, "RMAX": 10.0, "FSPD": 4.33102, "FDIR": 96.82162, "RENV": 150.0, "PENV": 1009.0, "VALIDT": 0, "DTG": "2024-10-07 12:00", "LATNOW": 29.5, "LONNOW": -77.5, "WINDNOW": 60.0, "DIRNOW": 11.0, "SPDNOW": 0.0, "TECH": "TRAK", "ADVNR": 23, "ATCFID": "AL142024", "NAME": "MILTON", "FTECH": "OFCL", "FCST_DTG": "2024-10-10 18:00:00", "RUN_DTG": "2024-10-11 09:12:15", "BASIN": "AL", "STMNR": 14, "CAT_ID": null, "CAT_DESC": null, "MSGID": "WTNT24 KNHC 102034", "VALIDTIME": "2024-10-07 12:00:00" }, "geometry": { "type": "Point", "coordinates": [ -92.199997, 21.799999 ] } },
{ "type": "Feature", "properties": { "ID": 269350, "LAT": 21.7, "LON": -91.3, "VMAX": 150.0, "MSLP": 909.0, "RMAX": 5.0, "FSPD": 4.33106, "FDIR": 83.17838, "RENV": 150.0, "PENV": 1006.0, "VALIDT": 0, "DTG": "2024-10-07 18:00", "LATNOW": 29.5, "LONNOW": -77.5, "WINDNOW": 60.0, "DIRNOW": 11.0, "SPDNOW": 0.0, "TECH": "TRAK", "ADVNR": 23, "ATCFID": "AL142024", "NAME": "MILTON", "FTECH": "OFCL", "FCST_DTG": "2024-10-10 18:00:00", "RUN_DTG": "2024-10-11 09:12:15", "BASIN": "AL", "STMNR": 14, "CAT_ID": null, "CAT_DESC": null, "MSGID": "WTNT24 KNHC 102034", "VALIDTIME": "2024-10-07 18:00:00" }, "geometry": { "type": "Point", "coordinates": [ -91.300003, 21.700001 ] } },
{ "type": "Feature", "properties": { "ID": 269351, "LAT": 21.8, "LON": -90.4, "VMAX": 150.0, "MSLP": 901.0, "RMAX": 5.0, "FSPD": 5.47087, "FDIR": 73.61435, "RENV": 140.0, "PENV": 1005.0, "VALIDT": 0, "DTG": "2024-10-08 00:00", "LATNOW": 29.5, "LONNOW": -77.5, "WINDNOW": 60.0, "DIRNOW": 11.0, "SPDNOW": 0.0, "TECH": "TRAK", "ADVNR": 23, "ATCFID": "AL142024", "NAME": "MILTON", "FTECH": "OFCL", "FCST_DTG": "2024-10-10 18:00:00", "RUN_DTG": "2024-10-11 09:12:15", "BASIN": "AL", "STMNR": 14, "CAT_ID": null, "CAT_DESC": null, "MSGID": "WTNT24 KNHC 102034", "VALIDTIME": "2024-10-08 00:00:00" }, "geometry": { "type": "Point", "coordinates": [ -90.400002, 21.799999 ] } },
{ "type": "Feature", "properties": { "ID": 269352, "LAT": 22.1, "LON": -89.3, "VMAX": 135.0, "MSLP": 924.0, "RMAX": 10.0, "FSPD": 3.14613, "FDIR": 49.15106, "RENV": 200.0, "PENV": 1004.0, "VALIDT": 0, "DTG": "2024-10-08 06:00", "LATNOW": 29.5, "LONNOW": -77.5, "WINDNOW": 60.0, "DIRNOW": 11.0, "SPDNOW": 0.0, "TECH": "TRAK", "ADVNR": 23, "ATCFID": "AL142024", "NAME": "MILTON", "FTECH": "OFCL", "FCST_DTG": "2024-10-10 18:00:00", "RUN_DTG": "2024-10-11 09:12:15", "BASIN": "AL", "STMNR": 14, "CAT_ID": null, "CAT_DESC": null, "MSGID": "WTNT24 KNHC 102034", "VALIDTIME": "2024-10-08 06:00:00" }, "geometry": { "type": "Point", "coordinates": [ -89.300003, 22.1 ] } },
{ "type": "Feature", "properties": { "ID": 269353, "LAT": 22.5, "LON": -88.8, "VMAX": 130.0, "MSLP": 929.0, "RMAX": 10.0, "FSPD": 3.32701, "FDIR": 90.0, "RENV": 240.0, "PENV": 1004.0, "VALIDT": 0, "DTG": "2024-10-08 12:00", "LATNOW": 29.5, "LONNOW": -77.5, "WINDNOW": 60.0, "DIRNOW": 11.0, "SPDNOW": 0.0, "TECH": "TRAK", "ADVNR": 23, "ATCFID": "AL142024", "NAME": "MILTON", "FTECH": "OFCL", "FCST_DTG": "2024-10-10 18:00:00", "RUN_DTG": "2024-10-11 09:12:15", "BASIN": "AL", "STMNR": 14, "CAT_ID": null, "CAT_DESC": null, "MSGID": "WTNT24 KNHC 102034", "VALIDTIME": "2024-10-08 12:00:00" }, "geometry": { "type": "Point", "coordinates": [ -88.800003, 22.5 ] } },
{ "type": "Feature", "properties": { "ID": 269354, "LAT": 22.5, "LON": -88.1, "VMAX": 140.0, "MSLP": 920.0, "RMAX": 10.0, "FSPD": 6.24716, "FDIR": 65.68564, "RENV": 240.0, "PENV": 1005.0, "VALIDT": 0, "DTG": "2024-10-08 18:00", "LATNOW": 29.5, "LONNOW": -77.5, "WINDNOW": 60.0, "DIRNOW": 11.0, "SPDNOW": 0.0, "TECH": "TRAK", "ADVNR": 23, "ATCFID": "AL142024", "NAME": "MILTON", "FTECH": "OFCL", "FCST_DTG": "2024-10-10 18:00:00", "RUN_DTG": "2024-10-11 09:12:15", "BASIN": "AL", "STMNR": 14, "CAT_ID": null, "CAT_DESC": null, "MSGID": "WTNT24 KNHC 102034", "VALIDTIME": "2024-10-08 18:00:00" }, "geometry": { "type": "Point", "coordinates": [ -88.099998, 22.5 ] } },
{ "type": "Feature", "properties": { "ID": 269355, "LAT": 23.0, "LON": -86.9, "VMAX": 145.0, "MSLP": 908.0, "RMAX": 10.0, "FSPD": 6.26329, "FDIR": 48.9216, "RENV": 300.0, "PENV": 1006.0, "VALIDT": 0, "DTG": "2024-10-09 00:00", "LATNOW": 29.5, "LONNOW": -77.5, "WINDNOW": 60.0, "DIRNOW": 11.0, "SPDNOW": 0.0, "TECH": "TRAK", "ADVNR": 23, "ATCFID": "AL142024", "NAME": "MILTON", "FTECH": "OFCL", "FCST_DTG": "2024-10-10 18:00:00", "RUN_DTG": "2024-10-11 09:12:15", "BASIN": "AL", "STMNR": 14, "CAT_ID": null, "CAT_DESC": null, "MSGID": "WTNT24 KNHC 102034", "VALIDTIME": "2024-10-09 00:00:00" }, "geometry": { "type": "Point", "coordinates": [ -86.900002, 23.0 ] } },
{ "type": "Feature", "properties": { "ID": 269356, "LAT": 23.8, "LON": -85.9, "VMAX": 140.0, "MSLP": 908.0, "RMAX": 10.0, "FSPD": 8.04165, "FDIR": 39.85486, "RENV": 300.0, "PENV": 1006.0, "VALIDT": 0, "DTG": "2024-10-09 06:00", "LATNOW": 29.5, "LONNOW": -77.5, "WINDNOW": 60.0, "DIRNOW": 11.0, "SPDNOW": 0.0, "TECH": "TRAK", "ADVNR": 23, "ATCFID": "AL142024", "NAME": "MILTON", "FTECH": "OFCL", "FCST_DTG": "2024-10-10 18:00:00", "RUN_DTG": "2024-10-11 09:12:15", "BASIN": "AL", "STMNR": 14, "CAT_ID": null, "CAT_DESC": null, "MSGID": "WTNT24 KNHC 102034", "VALIDTIME": "2024-10-09 06:00:00" }, "geometry": { "type": "Point", "coordinates": [ -85.900002, 23.799999 ] } },
{ "type": "Feature", "properties": { "ID": 269357, "LAT": 25.0, "LON": -84.8, "VMAX": 135.0, "MSLP": 920.0, "RMAX": 10.0, "FSPD": 7.8833, "FDIR": 31.96768, "RENV": 350.0, "PENV": 1009.0, "VALIDT": 0, "DTG": "2024-10-09 12:00", "LATNOW": 29.5, "LONNOW": -77.5, "WINDNOW": 60.0, "DIRNOW": 11.0, "SPDNOW": 0.0, "TECH": "TRAK", "ADVNR": 23, "ATCFID": "AL142024", "NAME": "MILTON", "FTECH": "OFCL", "FCST_DTG": "2024-10-10 18:00:00", "RUN_DTG": "2024-10-11 09:12:15", "BASIN": "AL", "STMNR": 14, "CAT_ID": null, "CAT_DESC": null, "MSGID": "WTNT24 KNHC 102034", "VALIDTIME": "2024-10-09 12:00:00" }, "geometry": { "type": "Point", "coordinates": [ -84.800003, 25.0 ] } },
{ "type": "Feature", "properties": { "ID": 269358, "LAT": 26.3, "LON": -83.9, "VMAX": 115.0, "MSLP": 944.0, "RMAX": 10.0, "FSPD": 7.19907, "FDIR": 49.97363, "RENV": 340.0, "PENV": 1009.0, "VALIDT": 0, "DTG": "2024-10-09 18:00", "LATNOW": 29.5, "LONNOW": -77.5, "WINDNOW": 60.0, "DIRNOW": 11.0, "SPDNOW": 0.0, "TECH": "TRAK", "ADVNR": 23, "ATCFID": "AL142024", "NAME": "MILTON", "FTECH": "OFCL", "FCST_DTG": "2024-10-10 18:00:00", "RUN_DTG": "2024-10-11 09:12:15", "BASIN": "AL", "STMNR": 14, "CAT_ID": null, "CAT_DESC": null, "MSGID": "WTNT24 KNHC 102034", "VALIDTIME": "2024-10-09 18:00:00" }, "geometry": { "type": "Point", "coordinates": [ -83.900002, 26.299999 ] } },
{ "type": "Feature", "properties": { "ID": 269359, "LAT": 27.2, "LON": -82.7, "VMAX": 105.0, "MSLP": 954.0, "RMAX": 10.0, "FSPD": 8.2113, "FDIR": 51.20685, "RENV": 310.0, "PENV": 1008.0, "VALIDT": 0, "DTG": "2024-10-10 00:00", "LATNOW": 29.5, "LONNOW": -77.5, "WINDNOW": 60.0, "DIRNOW": 11.0, "SPDNOW": 0.0, "TECH": "TRAK", "ADVNR": 23, "ATCFID": "AL142024", "NAME": "MILTON", "FTECH": "OFCL", "FCST_DTG": "2024-10-10 18:00:00", "RUN_DTG": "2024-10-11 09:12:15", "BASIN": "AL", "STMNR": 14, "CAT_ID": null, "CAT_DESC": null, "MSGID": "WTNT24 KNHC 102034", "VALIDTIME": "2024-10-10 00:00:00" }, "geometry": { "type": "Point", "coordinates": [ -82.699997, 27.200001 ] } },
{ "type": "Feature", "properties": { "ID": 269360, "LAT": 27.4, "LON": -82.42, "VMAX": 105.0, "MSLP": 954.0, "RMAX": 10.0, "FSPD": 8.18864, "FDIR": 51.07956, "RENV": 310.0, "PENV": 1008.0, "VALIDT": 0, "DTG": "2024-10-10 01:00", "LATNOW": 29.5, "LONNOW": -77.5, "WINDNOW": 60.0, "DIRNOW": 11.0, "SPDNOW": 0.0, "TECH": "TRAK", "ADVNR": 23, "ATCFID": "AL142024", "NAME": "MILTON", "FTECH": "OFCL", "FCST_DTG": "2024-10-10 18:00:00", "RUN_DTG": "2024-10-11 09:12:15", "BASIN": "AL", "STMNR": 14, "CAT_ID": null, "CAT_DESC": null, "MSGID": "WTNT24 KNHC 102034", "VALIDTIME": "2024-10-10 01:00:00" }, "geometry": { "type": "Point", "coordinates": [ -82.419998, 27.400002 ] } },
{ "type": "Feature", "properties": { "ID": 269361, "LAT": 28.2, "LON": -81.3, "VMAX": 80.0, "MSLP": 975.0, "RMAX": 30.0, "FSPD": 8.8955, "FDIR": 66.11993, "RENV": 300.0, "PENV": 1008.0, "VALIDT": 0, "DTG": "2024-10-10 06:00", "LATNOW": 29.5, "LONNOW": -77.5, "WINDNOW": 60.0, "DIRNOW": 11.0, "SPDNOW": 0.0, "TECH": "TRAK", "ADVNR": 23, "ATCFID": "AL142024", "NAME": "MILTON", "FTECH": "OFCL", "FCST_DTG": "2024-10-10 18:00:00", "RUN_DTG": "2024-10-11 09:12:15", "BASIN": "AL", "STMNR": 14, "CAT_ID": null, "CAT_DESC": null, "MSGID": "WTNT24 KNHC 102034", "VALIDTIME": "2024-10-10 06:00:00" }, "geometry": { "type": "Point", "coordinates": [ -81.300003, 28.200001 ] } },
{ "type": "Feature", "properties": { "ID": 269362, "LAT": 28.9, "LON": -79.5, "VMAX": 70.0, "MSLP": 983.0, "RMAX": 60.0, "FSPD": 9.497, "FDIR": 71.03351, "RENV": 310.0, "PENV": 1010.0, "VALIDT": 0, "DTG": "2024-10-10 12:00", "LATNOW": 29.5, "LONNOW": -77.5, "WINDNOW": 60.0, "DIRNOW": 11.0, "SPDNOW": 0.0, "TECH": "TRAK", "ADVNR": 23, "ATCFID": "AL142024", "NAME": "MILTON", "FTECH": "OFCL", "FCST_DTG": "2024-10-10 18:00:00", "RUN_DTG": "2024-10-11 09:12:15", "BASIN": "AL", "STMNR": 14, "CAT_ID": null, "CAT_DESC": null, "MSGID": "WTNT24 KNHC 102034", "VALIDTIME": "2024-10-10 12:00:00" }, "geometry": { "type": "Point", "coordinates": [ -79.5, 28.9 ] } },
{ "type": "Feature", "properties": { "ID": 269363, "LAT": 29.5, "LON": -77.5, "VMAX": 60.0, "MSLP": 983.0, "RMAX": 50.0, "FSPD": 10.74596, "FDIR": 90.0, "RENV": 360.0, "PENV": 1010.0, "VALIDT": 0, "DTG": "2024-10-10 18:00", "LATNOW": 29.5, "LONNOW": -77.5, "WINDNOW": 60.0, "DIRNOW": 11.0, "SPDNOW": 0.0, "TECH": "TRAK", "ADVNR": 23, "ATCFID": "AL142024", "NAME": "MILTON", "FTECH": "OFCL", "FCST_DTG": "2024-10-10 18:00:00", "RUN_DTG": "2024-10-11 09:12:15", "BASIN": "AL", "STMNR": 14, "CAT_ID": null, "CAT_DESC": null, "MSGID": "WTNT24 KNHC 102034", "VALIDTIME": "2024-10-10 18:00:00" }, "geometry": { "type": "Point", "coordinates": [ -77.5, 29.5 ] } },
{ "type": "Feature", "properties": { "ID": 269364, "LAT": 29.5, "LON": -76.3, "VMAX": 60.0, "MSLP": 983.0, "RMAX": 50.0, "FSPD": 10.44796, "FDIR": 88.11887, "RENV": 253.0, "PENV": 1012.0, "VALIDT": 3, "DTG": "2024-10-10 21:00", "LATNOW": 29.5, "LONNOW": -77.5, "WINDNOW": 60.0, "DIRNOW": 11.0, "SPDNOW": 0.0, "TECH": "FCST", "ADVNR": 23, "ATCFID": "AL142024", "NAME": "MILTON", "FTECH": "OFCL", "FCST_DTG": "2024-10-10 18:00:00", "RUN_DTG": "2024-10-11 09:12:15", "BASIN": "AL", "STMNR": 14, "CAT_ID": null, "CAT_DESC": null, "MSGID": "WTNT24 KNHC 102034", "VALIDTIME": "2024-10-10 21:00:00" }, "geometry": { "type": "Point", "coordinates": [ -76.300003, 29.5 ] } },
{ "type": "Feature", "properties": { "ID": 269365, "LAT": 29.6, "LON": -72.8, "VMAX": 60.0, "MSLP": 996.62427, "RMAX": 51.83716, "FSPD": 12.07626, "FDIR": 87.5585, "RENV": 250.0, "PENV": 1012.0, "VALIDT": 12, "DTG": "2024-10-11 06:00", "LATNOW": 29.5, "LONNOW": -77.5, "WINDNOW": 60.0, "DIRNOW": 11.0, "SPDNOW": 0.0, "TECH": "FCST", "ADVNR": 23, "ATCFID": "AL142024", "NAME": "MILTON", "FTECH": "OFCL", "FCST_DTG": "2024-10-10 18:00:00", "RUN_DTG": "2024-10-11 09:12:15", "BASIN": "AL", "STMNR": 14, "CAT_ID": null, "CAT_DESC": null, "MSGID": "WTNT24 KNHC 102034", "VALIDTIME": "2024-10-11 06:00:00" }, "geometry": { "type": "Point", "coordinates": [ -72.800003, 29.6 ] } },
{ "type": "Feature", "properties": { "ID": 269366, "LAT": 29.8, "LON": -67.4, "VMAX": 50.0, "MSLP": 1002.2391, "RMAX": 52.65465, "FSPD": 11.4538, "FDIR": 82.25616, "RENV": 250.0, "PENV": 1012.0, "VALIDT": 24, "DTG": "2024-10-11 18:00", "LATNOW": 29.5, "LONNOW": -77.5, "WINDNOW": 60.0, "DIRNOW": 11.0, "SPDNOW": 0.0, "TECH": "FCST", "ADVNR": 23, "ATCFID": "AL142024", "NAME": "MILTON", "FTECH": "OFCL", "FCST_DTG": "2024-10-10 18:00:00", "RUN_DTG": "2024-10-11 09:12:15", "BASIN": "AL", "STMNR": 14, "CAT_ID": null, "CAT_DESC": null, "MSGID": "WTNT24 KNHC 102034", "VALIDTIME": "2024-10-11 18:00:00" }, "geometry": { "type": "Point", "coordinates": [ -67.400002, 29.799999 ] } },
{ "type": "Feature", "properties": { "ID": 269367, "LAT": 30.4, "LON": -62.3, "VMAX": 40.0, "MSLP": 1006.833, "RMAX": 54.13081, "FSPD": 8.5451, "FDIR": 79.5947, "RENV": 250.0, "PENV": 1012.0, "VALIDT": 36, "DTG": "2024-10-12 06:00", "LATNOW": 29.5, "LONNOW": -77.5, "WINDNOW": 60.0, "DIRNOW": 11.0, "SPDNOW": 0.0, "TECH": "FCST", "ADVNR": 23, "ATCFID": "AL142024", "NAME": "MILTON", "FTECH": "OFCL", "FCST_DTG": "2024-10-10 18:00:00", "RUN_DTG": "2024-10-11 09:12:15", "BASIN": "AL", "STMNR": 14, "CAT_ID": null, "CAT_DESC": null, "MSGID": "WTNT24 KNHC 102034", "VALIDTIME": "2024-10-12 06:00:00" }, "geometry": { "type": "Point", "coordinates": [ -62.299999, 30.4 ] } },
{ "type": "Feature", "properties": { "ID": 269368, "LAT": 31.0, "LON": -58.5, "VMAX": 35.0, "MSLP": 1008.74713, "RMAX": 55.48496, "FSPD": 9.0049, "FDIR": 71.6868, "RENV": 250.0, "PENV": 1012.0, "VALIDT": 48, "DTG": "2024-10-12 18:00", "LATNOW": 29.5, "LONNOW": -77.5, "WINDNOW": 60.0, "DIRNOW": 11.0, "SPDNOW": 0.0, "TECH": "FCST", "ADVNR": 23, "ATCFID": "AL142024", "NAME": "MILTON", "FTECH": "OFCL", "FCST_DTG": "2024-10-10 18:00:00", "RUN_DTG": "2024-10-11 09:12:15", "BASIN": "AL", "STMNR": 14, "CAT_ID": null, "CAT_DESC": null, "MSGID": "WTNT24 KNHC 102034", "VALIDTIME": "2024-10-12 18:00:00" }, "geometry": { "type": "Point", "coordinates": [ -58.5, 31.0 ] } },
{ "type": "Feature", "properties": { "ID": 269369, "LAT": 32.1, "LON": -54.6, "VMAX": 30.0, "MSLP": 1010.40607, "RMAX": 57.98177, "FSPD": 11.55614, "FDIR": 69.13687, "RENV": 250.0, "PENV": 1012.0, "VALIDT": 60, "DTG": "2024-10-13 06:00", "LATNOW": 29.5, "LONNOW": -77.5, "WINDNOW": 60.0, "DIRNOW": 11.0, "SPDNOW": 0.0, "TECH": "FCST", "ADVNR": 23, "ATCFID": "AL142024", "NAME": "MILTON", "FTECH": "OFCL", "FCST_DTG": "2024-10-10 18:00:00", "RUN_DTG": "2024-10-11 09:12:15", "BASIN": "AL", "STMNR": 14, "CAT_ID": null, "CAT_DESC": null, "MSGID": "WTNT24 KNHC 102034", "VALIDTIME": "2024-10-13 06:00:00" }, "geometry": { "type": "Point", "coordinates": [ -54.599998, 32.099998 ] } },
{ "type": "Feature", "properties": { "ID": 269370, "LAT": 33.7, "LON": -49.6, "VMAX": 25.0, "MSLP": 1011.80975, "RMAX": 61.78018, "FSPD": 11.55614, "FDIR": 69.13687, "RENV": 250.0, "PENV": 1012.0, "VALIDT": 72, "DTG": "2024-10-13 18:00", "LATNOW": 29.5, "LONNOW": -77.5, "WINDNOW": 60.0, "DIRNOW": 11.0, "SPDNOW": 0.0, "TECH": "FCST", "ADVNR": 23, "ATCFID": "AL142024", "NAME": "MILTON", "FTECH": "OFCL", "FCST_DTG": "2024-10-10 18:00:00", "RUN_DTG": "2024-10-11 09:12:15", "BASIN": "AL", "STMNR": 14, "CAT_ID": null, "CAT_DESC": null, "MSGID": "WTNT24 KNHC 102034", "VALIDTIME": "2024-10-13 18:00:00" }, "geometry": { "type": "Point", "coordinates": [ -49.599998, 33.700001 ] } },
{ "type": "Feature", "properties": { "ID": 269363, "LAT": 29.5, "LON": -77.5, "VMAX": 60.0, "MSLP": 983.0, "RMAX": 50.0, "FSPD": 10.74596, "FDIR": 90.0, "RENV": 360.0, "PENV": 1010.0, "VALIDT": 0, "DTG": "2024-10-10 18:00", "LATNOW": 29.5, "LONNOW": -77.5, "WINDNOW": 60.0, "DIRNOW": 11.0, "SPDNOW": 0.0, "TECH": "TRAK", "ADVNR": 23, "ATCFID": "AL142024", "NAME": "MILTON", "FTECH": "OFCL", "FCST_DTG": "2024-10-10 18:00:00", "RUN_DTG": "2024-10-11 09:12:15", "BASIN": "AL", "STMNR": 14, "CAT_ID": null, "CAT_DESC": null, "MSGID": "WTNT24 KNHC 102034", "VALIDTIME": "2024-10-10 18:00:00" }, "geometry": { "type": "LineString", "coordinates": [ [ -95.5, 22.0 ], [ -95.2, 21.1 ], [ -95.2, 21.9 ], [ -95.5, 22.5 ], [ -95.3, 22.9 ], [ -95.1, 23.0 ], [ -94.8, 22.5 ], [ -94.1, 22.5 ], [ -93.4, 22.5 ], [ -92.9, 22.2 ], [ -92.2, 21.8 ], [ -91.3, 21.7 ], [ -90.4, 21.8 ], [ -89.3, 22.1 ], [ -88.8, 22.5 ], [ -88.1, 22.5 ], [ -86.9, 23.0 ], [ -85.9, 23.8 ], [ -84.8, 25.0 ], [ -83.9, 26.3 ], [ -82.7, 27.2 ], [ -82.42, 27.4 ], [ -81.3, 28.2 ], [ -79.5, 28.9 ], [ -77.5, 29.5 ] ] } },
{ "type": "Feature", "properties": { "ID": 269370, "LAT": 33.7, "LON": -49.6, "VMAX": 25.0, "MSLP": 1011.80975, "RMAX": 61.78018, "FSPD": 11.55614, "FDIR": 69.13687, "RENV": 250.0, "PENV": 1012.0, "VALIDT": 72, "DTG": "2024-10-13 18:00", "LATNOW": 29.5, "LONNOW": -77.5, "WINDNOW": 60.0, "DIRNOW": 11.0, "SPDNOW": 0.0, "TECH": "FCST", "ADVNR": 23, "ATCFID": "AL142024", "NAME": "MILTON", "FTECH": "OFCL", "FCST_DTG": "2024-10-10 18:00:00", "RUN_DTG": "2024-10-11 09:12:15", "BASIN": "AL", "STMNR": 14, "CAT_ID": null, "CAT_DESC": null, "MSGID": "WTNT24 KNHC 102034", "VALIDTIME": "2024-10-13 18:00:00" }, "geometry": { "type": "LineString", "coordinates": [ [ -77.5, 29.5 ], [ -76.3, 29.5 ], [ -72.8, 29.6 ], [ -67.4, 29.8 ], [ -62.3, 30.4 ], [ -58.5, 31.0 ], [ -54.6, 32.1 ], [ -49.6, 33.7 ] ] } }
]
}
