{
"type": "FeatureCollection",
"crs": { "type": "name", "properties": { "name": "urn:ogc:def:crs:OGC:1.3:CRS84" } },
"features": [
{ "type": "Feature", "properties": { "ID": 74014, "LAT": 13.2, "LON": 161.8, "VMAX": 15.0, "MSLP": 1013.8515, "RMAX": 40.0, "FSPD": 2.15333, "FDIR": 44.21558, "RENV": 500.0, "PENV": 1012.0, "VALIDT": 0, "DTG": "2026-08-24 12:00", "LATNOW": 34.1, "LONNOW": 165.9, "WINDNOW": 35.0, "DIRNOW": 6.0, "SPDNOW": 2.0, "TECH": "TRAK", "ADVNR": 18, "ATCFID": "WP202026", "NAME": "BANG-LANG", "FTECH": "JTWC", "FCST_DTG": "2026-08-30 12:00:00", "RUN_DTG": "2026-08-31 06:26:47", "BASIN": "WP", "STMNR": 20, "CAT_ID": null, "CAT_DESC": null, "MSGID": "WTPN53 PGTW 301500", "VALIDTIME": "2026-08-24 12:00:00" }, "geometry": { "type": "Point", "coordinates": [ 161.800003, 13.2 ] } },
{ "type": "Feature", "properties": { "ID": 74015, "LAT": 13.5, "LON": 162.1, "VMAX": 15.0, "MSLP": 1013.8515, "RMAX": 40.0, "FSPD": 2.54608, "FDIR": 36.07831, "RENV": 500.0, "PENV": 1012.0, "VALIDT": 0, "DTG": "2026-08-24 18:00", "LATNOW": 34.1, "LONNOW": 165.9, "WINDNOW": 35.0, "DIRNOW": 6.0, "SPDNOW": 2.0, "TECH": "TRAK", "ADVNR": 18, "ATCFID": "WP202026", "NAME": "BANG-LANG", "FTECH": "JTWC", "FCST_DTG": "2026-08-30 12:00:00", "RUN_DTG": "2026-08-31 06:26:47", "BASIN": "WP", "STMNR": 20, "CAT_ID": null, "CAT_DESC": null, "MSGID": "WTPN53 PGTW 301500", "VALIDTIME": "2026-08-24 18:00:00" }, "geometry": { "type": "Point", "coordinates": [ 162.100006, 13.5 ] } },
{ "type": "Feature", "properties": { "ID": 74016, "LAT": 13.9, "LON": 162.4, "VMAX": 15.0, "MSLP": 1013.8515, "RMAX": 40.0, "FSPD": 2.75895, "FDIR": 21.20062, "RENV": 500.0, "PENV": 1012.0, "VALIDT": 0, "DTG": "2026-08-25 00:00", "LATNOW": 34.1, "LONNOW": 165.9, "WINDNOW": 35.0, "DIRNOW": 6.0, "SPDNOW": 2.0, "TECH": "TRAK", "ADVNR": 18, "ATCFID": "WP202026", "NAME": "BANG-LANG", "FTECH": "JTWC", "FCST_DTG": "2026-08-30 12:00:00", "RUN_DTG": "2026-08-31 06:26:47", "BASIN": "WP", "STMNR": 20, "CAT_ID": null, "CAT_DESC": null, "MSGID": "WTPN53 PGTW 301500", "VALIDTIME": "2026-08-25 00:00:00" }, "geometry": { "type": "Point", "coordinates": [ 162.399994, 13.9 ] } },
{ "type": "Feature", "properties": { "ID": 74017, "LAT": 14.4, "LON": 162.6, "VMAX": 15.0, "MSLP": 1013.8515, "RMAX": 40.0, "FSPD": 4.8644, "FDIR": 342.14087, "RENV": 500.0, "PENV": 1012.0, "VALIDT": 0, "DTG": "2026-08-25 06:00", "LATNOW": 34.1, "LONNOW": 165.9, "WINDNOW": 35.0, "DIRNOW": 6.0, "SPDNOW": 2.0, "TECH": "TRAK", "ADVNR": 18, "ATCFID": "WP202026", "NAME": "BANG-LANG", "FTECH": "JTWC", "FCST_DTG": "2026-08-30 12:00:00", "RUN_DTG": "2026-08-31 06:26:47", "BASIN": "WP", "STMNR": 20, "CAT_ID": null, "CAT_DESC": null, "MSGID": "WTPN53 PGTW 301500", "VALIDTIME": "2026-08-25 06:00:00" }, "geometry": { "type": "Point", "coordinates": [ 162.600006, 14.4 ] } },
{ "type": "Feature", "properties": { "ID": 74018, "LAT": 15.3, "LON": 162.3, "VMAX": 20.0, "MSLP": 1012.95825, "RMAX": 45.0, "FSPD": 3.89571, "FDIR": 337.57465, "RENV": 500.0, "PENV": 1012.0, "VALIDT": 0, "DTG": "2026-08-25 12:00", "LATNOW": 34.1, "LONNOW": 165.9, "WINDNOW": 35.0, "DIRNOW": 6.0, "SPDNOW": 2.0, "TECH": "TRAK", "ADVNR": 18, "ATCFID": "WP202026", "NAME": "BANG-LANG", "FTECH": "JTWC", "FCST_DTG": "2026-08-30 12:00:00", "RUN_DTG": "2026-08-31 06:26:47", "BASIN": "WP", "STMNR": 20, "CAT_ID": null, "CAT_DESC": null, "MSGID": "WTPN53 PGTW 301500", "VALIDTIME": "2026-08-25 12:00:00" }, "geometry": { "type": "Point", "coordinates": [ 162.300003, 15.3 ] } },
{ "type": "Feature", "properties": { "ID": 74019, "LAT": 16.0, "LON": 162.0, "VMAX": 20.0, "MSLP": 1012.95825, "RMAX": 45.0, "FSPD": 4.79861, "FDIR": 329.05426, "RENV": 500.0, "PENV": 1012.0, "VALIDT": 0, "DTG": "2026-08-25 18:00", "LATNOW": 34.1, "LONNOW": 165.9, "WINDNOW": 35.0, "DIRNOW": 6.0, "SPDNOW": 2.0, "TECH": "TRAK", "ADVNR": 18, "ATCFID": "WP202026", "NAME": "BANG-LANG", "FTECH": "JTWC", "FCST_DTG": "2026-08-30 12:00:00", "RUN_DTG": "2026-08-31 06:26:47", "BASIN": "WP", "STMNR": 20, "CAT_ID": null, "CAT_DESC": null, "MSGID": "WTPN53 PGTW 301500", "VALIDTIME": "2026-08-25 18:00:00" }, "geometry": { "type": "Point", "coordinates": [ 162.0, 16.0 ] } },
{ "type": "Feature", "properties": { "ID": 74020, "LAT": 16.8, "LON": 161.5, "VMAX": 25.0, "MSLP": 1011.80975, "RMAX": 45.0, "FSPD": 2.28091, "FDIR": 334.4455, "RENV": 500.0, "PENV": 1012.0, "VALIDT": 0, "DTG": "2026-08-26 00:00", "LATNOW": 34.1, "LONNOW": 165.9, "WINDNOW": 35.0, "DIRNOW": 6.0, "SPDNOW": 2.0, "TECH": "TRAK", "ADVNR": 18, "ATCFID": "WP202026", "NAME": "BANG-LANG", "FTECH": "JTWC", "FCST_DTG": "2026-08-30 12:00:00", "RUN_DTG": "2026-08-31 06:26:47", "BASIN": "WP", "STMNR": 20, "CAT_ID": null, "CAT_DESC": null, "MSGID": "WTPN53 PGTW 301500", "VALIDTIME": "2026-08-26 00:00:00" }, "geometry": { "type": "Point", "coordinates": [ 161.5, 16.799999 ] } },
{ "type": "Feature", "properties": { "ID": 74021, "LAT": 17.2, "LON": 161.3, "VMAX": 25.0, "MSLP": 1006.0, "RMAX": 20.0, "FSPD": 1.47433, "FDIR": 269.99997, "RENV": 190.0, "PENV": 1008.0, "VALIDT": 0, "DTG": "2026-08-26 06:00", "LATNOW": 34.1, "LONNOW": 165.9, "WINDNOW": 35.0, "DIRNOW": 6.0, "SPDNOW": 2.0, "TECH": "TRAK", "ADVNR": 18, "ATCFID": "WP202026", "NAME": "BANG-LANG", "FTECH": "JTWC", "FCST_DTG": "2026-08-30 12:00:00", "RUN_DTG": "2026-08-31 06:26:47", "BASIN": "WP", "STMNR": 20, "CAT_ID": null, "CAT_DESC": null, "MSGID": "WTPN53 PGTW 301500", "VALIDTIME": "2026-08-26 06:00:00" }, "geometry": { "type": "Point", "coordinates": [ 161.300003, 17.200001 ] } },
{ "type": "Feature", "properties": { "ID": 74022, "LAT": 17.2, "LON": 161.0, "VMAX": 30.0, "MSLP": 1006.0, "RMAX": 20.0, "FSPD": 0.0, "FDIR": 90.0, "RENV": 190.0, "PENV": 1008.0, "VALIDT": 0, "DTG": "2026-08-26 12:00", "LATNOW": 34.1, "LONNOW": 165.9, "WINDNOW": 35.0, "DIRNOW": 6.0, "SPDNOW": 2.0, "TECH": "TRAK", "ADVNR": 18, "ATCFID": "WP202026", "NAME": "BANG-LANG", "FTECH": "JTWC", "FCST_DTG": "2026-08-30 12:00:00", "RUN_DTG": "2026-08-31 06:26:47", "BASIN": "WP", "STMNR": 20, "CAT_ID": null, "CAT_DESC": null, "MSGID": "WTPN53 PGTW 301500", "VALIDTIME": "2026-08-26 12:00:00" }, "geometry": { "type": "Point", "coordinates": [ 161.0, 17.200001 ] } },
{ "type": "Feature", "properties": { "ID": 74023, "LAT": 17.2, "LON": 161.0, "VMAX": 30.0, "MSLP": 1005.0, "RMAX": 15.0, "FSPD": 3.23894, "FDIR": 142.57544, "RENV": 80.0, "PENV": 1009.0, "VALIDT": 0, "DTG": "2026-08-26 18:00", "LATNOW": 34.1, "LONNOW": 165.9, "WINDNOW": 35.0, "DIRNOW": 6.0, "SPDNOW": 2.0, "TECH": "TRAK", "ADVNR": 18, "ATCFID": "WP202026", "NAME": "BANG-LANG", "FTECH": "JTWC", "FCST_DTG": "2026-08-30 12:00:00", "RUN_DTG": "2026-08-31 06:26:47", "BASIN": "WP", "STMNR": 20, "CAT_ID": null, "CAT_DESC": null, "MSGID": "WTPN53 PGTW 301500", "VALIDTIME": "2026-08-26 18:00:00" }, "geometry": { "type": "Point", "coordinates": [ 161.0, 17.200001 ] } },
{ "type": "Feature", "properties": { "ID": 74024, "LAT": 16.7, "LON": 161.4, "VMAX": 30.0, "MSLP": 1002.0, "RMAX": 15.0, "FSPD": 4.43476, "FDIR": 90.0, "RENV": 85.0, "PENV": 1008.0, "VALIDT": 0, "DTG": "2026-08-27 00:00", "LATNOW": 34.1, "LONNOW": 165.9, "WINDNOW": 35.0, "DIRNOW": 6.0, "SPDNOW": 2.0, "TECH": "TRAK", "ADVNR": 18, "ATCFID": "WP202026", "NAME": "BANG-LANG", "FTECH": "JTWC", "FCST_DTG": "2026-08-30 12:00:00", "RUN_DTG": "2026-08-31 06:26:47", "BASIN": "WP", "STMNR": 20, "CAT_ID": null, "CAT_DESC": null, "MSGID": "WTPN53 PGTW 301500", "VALIDTIME": "2026-08-27 00:00:00" }, "geometry": { "type": "Point", "coordinates": [ 161.399994, 16.700001 ] } },
{ "type": "Feature", "properties": { "ID": 74025, "LAT": 16.7, "LON": 162.3, "VMAX": 35.0, "MSLP": 1002.0, "RMAX": 15.0, "FSPD": 5.33509, "FDIR": 67.31244, "RENV": 85.0, "PENV": 1008.0, "VALIDT": 0, "DTG": "2026-08-27 06:00", "LATNOW": 34.1, "LONNOW": 165.9, "WINDNOW": 35.0, "DIRNOW": 6.0, "SPDNOW": 2.0, "TECH": "TRAK", "ADVNR": 18, "ATCFID": "WP202026", "NAME": "BANG-LANG", "FTECH": "JTWC", "FCST_DTG": "2026-08-30 12:00:00", "RUN_DTG": "2026-08-31 06:26:47", "BASIN": "WP", "STMNR": 20, "CAT_ID": null, "CAT_DESC": null, "MSGID": "WTPN53 PGTW 301500", "VALIDTIME": "2026-08-27 06:00:00" }, "geometry": { "type": "Point", "coordinates": [ 162.300003, 16.700001 ] } },
{ "type": "Feature", "properties": { "ID": 74026, "LAT": 17.1, "LON": 163.3, "VMAX": 45.0, "MSLP": 1000.0, "RMAX": 15.0, "FSPD": 4.4356, "FDIR": 62.35944, "RENV": 110.0, "PENV": 1007.0, "VALIDT": 0, "DTG": "2026-08-27 12:00", "LATNOW": 34.1, "LONNOW": 165.9, "WINDNOW": 35.0, "DIRNOW": 6.0, "SPDNOW": 2.0, "TECH": "TRAK", "ADVNR": 18, "ATCFID": "WP202026", "NAME": "BANG-LANG", "FTECH": "JTWC", "FCST_DTG": "2026-08-30 12:00:00", "RUN_DTG": "2026-08-31 06:26:47", "BASIN": "WP", "STMNR": 20, "CAT_ID": null, "CAT_DESC": null, "MSGID": "WTPN53 PGTW 301500", "VALIDTIME": "2026-08-27 12:00:00" }, "geometry": { "type": "Point", "coordinates": [ 163.300003, 17.1 ] } },
{ "type": "Feature", "properties": { "ID": 74027, "LAT": 17.5, "LON": 164.1, "VMAX": 55.0, "MSLP": 997.0, "RMAX": 10.0, "FSPD": 5.32108, "FDIR": 47.40872, "RENV": 90.0, "PENV": 1008.0, "VALIDT": 0, "DTG": "2026-08-27 18:00", "LATNOW": 34.1, "LONNOW": 165.9, "WINDNOW": 35.0, "DIRNOW": 6.0, "SPDNOW": 2.0, "TECH": "TRAK", "ADVNR": 18, "ATCFID": "WP202026", "NAME": "BANG-LANG", "FTECH": "JTWC", "FCST_DTG": "2026-08-30 12:00:00", "RUN_DTG": "2026-08-31 06:26:47", "BASIN": "WP", "STMNR": 20, "CAT_ID": null, "CAT_DESC": null, "MSGID": "WTPN53 PGTW 301500", "VALIDTIME": "2026-08-27 18:00:00" }, "geometry": { "type": "Point", "coordinates": [ 164.100006, 17.5 ] } },
{ "type": "Feature", "properties": { "ID": 74028, "LAT": 18.2, "LON": 164.9, "VMAX": 60.0, "MSLP": 990.0, "RMAX": 10.0, "FSPD": 3.65181, "FDIR": 32.30237, "RENV": 90.0, "PENV": 1006.0, "VALIDT": 0, "DTG": "2026-08-28 00:00", "LATNOW": 34.1, "LONNOW": 165.9, "WINDNOW": 35.0, "DIRNOW": 6.0, "SPDNOW": 2.0, "TECH": "TRAK", "ADVNR": 18, "ATCFID": "WP202026", "NAME": "BANG-LANG", "FTECH": "JTWC", "FCST_DTG": "2026-08-30 12:00:00", "RUN_DTG": "2026-08-31 06:26:47", "BASIN": "WP", "STMNR": 20, "CAT_ID": null, "CAT_DESC": null, "MSGID": "WTPN53 PGTW 301500", "VALIDTIME": "2026-08-28 00:00:00" }, "geometry": { "type": "Point", "coordinates": [ 164.899994, 18.200001 ] } },
{ "type": "Feature", "properties": { "ID": 74029, "LAT": 18.8, "LON": 165.3, "VMAX": 60.0, "MSLP": 989.0, "RMAX": 10.0, "FSPD": 6.85396, "FDIR": 58.30441, "RENV": 110.0, "PENV": 1007.0, "VALIDT": 0, "DTG": "2026-08-28 06:00", "LATNOW": 34.1, "LONNOW": 165.9, "WINDNOW": 35.0, "DIRNOW": 6.0, "SPDNOW": 2.0, "TECH": "TRAK", "ADVNR": 18, "ATCFID": "WP202026", "NAME": "BANG-LANG", "FTECH": "JTWC", "FCST_DTG": "2026-08-30 12:00:00", "RUN_DTG": "2026-08-31 06:26:47", "BASIN": "WP", "STMNR": 20, "CAT_ID": null, "CAT_DESC": null, "MSGID": "WTPN53 PGTW 301500", "VALIDTIME": "2026-08-28 06:00:00" }, "geometry": { "type": "Point", "coordinates": [ 165.300003, 18.799999 ] } },
{ "type": "Feature", "properties": { "ID": 74030, "LAT": 19.5, "LON": 166.5, "VMAX": 65.0, "MSLP": 986.0, "RMAX": 10.0, "FSPD": 5.68398, "FDIR": 25.16629, "RENV": 110.0, "PENV": 1005.0, "VALIDT": 0, "DTG": "2026-08-28 12:00", "LATNOW": 34.1, "LONNOW": 165.9, "WINDNOW": 35.0, "DIRNOW": 6.0, "SPDNOW": 2.0, "TECH": "TRAK", "ADVNR": 18, "ATCFID": "WP202026", "NAME": "BANG-LANG", "FTECH": "JTWC", "FCST_DTG": "2026-08-30 12:00:00", "RUN_DTG": "2026-08-31 06:26:47", "BASIN": "WP", "STMNR": 20, "CAT_ID": null, "CAT_DESC": null, "MSGID": "WTPN53 PGTW 301500", "VALIDTIME": "2026-08-28 12:00:00" }, "geometry": { "type": "Point", "coordinates": [ 166.5, 19.5 ] } },
{ "type": "Feature", "properties": { "ID": 74031, "LAT": 20.5, "LON": 167.0, "VMAX": 65.0, "MSLP": 984.0, "RMAX": 5.0, "FSPD": 9.5487, "FDIR": 23.6676, "RENV": 110.0, "PENV": 1006.0, "VALIDT": 0, "DTG": "2026-08-28 18:00", "LATNOW": 34.1, "LONNOW": 165.9, "WINDNOW": 35.0, "DIRNOW": 6.0, "SPDNOW": 2.0, "TECH": "TRAK", "ADVNR": 18, "ATCFID": "WP202026", "NAME": "BANG-LANG", "FTECH": "JTWC", "FCST_DTG": "2026-08-30 12:00:00", "RUN_DTG": "2026-08-31 06:26:47", "BASIN": "WP", "STMNR": 20, "CAT_ID": null, "CAT_DESC": null, "MSGID": "WTPN53 PGTW 301500", "VALIDTIME": "2026-08-28 18:00:00" }, "geometry": { "type": "Point", "coordinates": [ 167.0, 20.5 ] } },
{ "type": "Feature", "properties": { "ID": 74032, "LAT": 22.2, "LON": 167.8, "VMAX": 65.0, "MSLP": 980.0, "RMAX": 5.0, "FSPD": 8.94818, "FDIR": 12.21631, "RENV": 110.0, "PENV": 1004.0, "VALIDT": 0, "DTG": "2026-08-29 00:00", "LATNOW": 34.1, "LONNOW": 165.9, "WINDNOW": 35.0, "DIRNOW": 6.0, "SPDNOW": 2.0, "TECH": "TRAK", "ADVNR": 18, "ATCFID": "WP202026", "NAME": "BANG-LANG", "FTECH": "JTWC", "FCST_DTG": "2026-08-30 12:00:00", "RUN_DTG": "2026-08-31 06:26:47", "BASIN": "WP", "STMNR": 20, "CAT_ID": null, "CAT_DESC": null, "MSGID": "WTPN53 PGTW 301500", "VALIDTIME": "2026-08-29 00:00:00" }, "geometry": { "type": "Point", "coordinates": [ 167.800003, 22.200001 ] } },
{ "type": "Feature", "properties": { "ID": 74033, "LAT": 23.9, "LON": 168.2, "VMAX": 75.0, "MSLP": 981.0, "RMAX": 10.0, "FSPD": 7.44129, "FDIR": 14.56281, "RENV": 110.0, "PENV": 1004.0, "VALIDT": 0, "DTG": "2026-08-29 06:00", "LATNOW": 34.1, "LONNOW": 165.9, "WINDNOW": 35.0, "DIRNOW": 6.0, "SPDNOW": 2.0, "TECH": "TRAK", "ADVNR": 18, "ATCFID": "WP202026", "NAME": "BANG-LANG", "FTECH": "JTWC", "FCST_DTG": "2026-08-30 12:00:00", "RUN_DTG": "2026-08-31 06:26:47", "BASIN": "WP", "STMNR": 20, "CAT_ID": null, "CAT_DESC": null, "MSGID": "WTPN53 PGTW 301500", "VALIDTIME": "2026-08-29 06:00:00" }, "geometry": { "type": "Point", "coordinates": [ 168.199997, 23.9 ] } },
{ "type": "Feature", "properties": { "ID": 74034, "LAT": 25.3, "LON": 168.6, "VMAX": 75.0, "MSLP": 971.0, "RMAX": 10.0, "FSPD": 12.65191, "FDIR": 12.61108, "RENV": 70.0, "PENV": 1002.0, "VALIDT": 0, "DTG": "2026-08-29 12:00", "LATNOW": 34.1, "LONNOW": 165.9, "WINDNOW": 35.0, "DIRNOW": 6.0, "SPDNOW": 2.0, "TECH": "TRAK", "ADVNR": 18, "ATCFID": "WP202026", "NAME": "BANG-LANG", "FTECH": "JTWC", "FCST_DTG": "2026-08-30 12:00:00", "RUN_DTG": "2026-08-31 06:26:47", "BASIN": "WP", "STMNR": 20, "CAT_ID": null, "CAT_DESC": null, "MSGID": "WTPN53 PGTW 301500", "VALIDTIME": "2026-08-29 12:00:00" }, "geometry": { "type": "Point", "coordinates": [ 168.600006, 25.299999 ] } },
{ "type": "Feature", "properties": { "ID": 74035, "LAT": 27.7, "LON": 169.2, "VMAX": 65.0, "MSLP": 970.0, "RMAX": 10.0, "FSPD": 19.41318, "FDIR": 342.55225, "RENV": 75.0, "PENV": 1002.0, "VALIDT": 0, "DTG": "2026-08-29 18:00", "LATNOW": 34.1, "LONNOW": 165.9, "WINDNOW": 35.0, "DIRNOW": 6.0, "SPDNOW": 2.0, "TECH": "TRAK", "ADVNR": 18, "ATCFID": "WP202026", "NAME": "BANG-LANG", "FTECH": "JTWC", "FCST_DTG": "2026-08-30 12:00:00", "RUN_DTG": "2026-08-31 06:26:47", "BASIN": "WP", "STMNR": 20, "CAT_ID": null, "CAT_DESC": null, "MSGID": "WTPN53 PGTW 301500", "VALIDTIME": "2026-08-29 18:00:00" }, "geometry": { "type": "Point", "coordinates": [ 169.199997, 27.700001 ] } },
{ "type": "Feature", "properties": { "ID": 74036, "LAT": 31.3, "LON": 167.9, "VMAX": 60.0, "MSLP": 973.0, "RMAX": 10.0, "FSPD": 10.61452, "FDIR": 345.77115, "RENV": 75.0, "PENV": 1002.0, "VALIDT": 0, "DTG": "2026-08-30 00:00", "LATNOW": 34.1, "LONNOW": 165.9, "WINDNOW": 35.0, "DIRNOW": 6.0, "SPDNOW": 2.0, "TECH": "TRAK", "ADVNR": 18, "ATCFID": "WP202026", "NAME": "BANG-LANG", "FTECH": "JTWC", "FCST_DTG": "2026-08-30 12:00:00", "RUN_DTG": "2026-08-31 06:26:47", "BASIN": "WP", "STMNR": 20, "CAT_ID": null, "CAT_DESC": null, "MSGID": "WTPN53 PGTW 301500", "VALIDTIME": "2026-08-30 00:00:00" }, "geometry": { "type": "Point", "coordinates": [ 167.899994, 31.299999 ] } },
{ "type": "Feature", "properties": { "ID": 74037, "LAT": 33.3, "LON": 167.3, "VMAX": 45.0, "MSLP": 979.0, "RMAX": 10.0, "FSPD": 7.2692, "FDIR": 304.48303, "RENV": 75.0, "PENV": 1002.0, "VALIDT": 0, "DTG": "2026-08-30 06:00", "LATNOW": 34.1, "LONNOW": 165.9, "WINDNOW": 35.0, "DIRNOW": 6.0, "SPDNOW": 2.0, "TECH": "TRAK", "ADVNR": 18, "ATCFID": "WP202026", "NAME": "BANG-LANG", "FTECH": "JTWC", "FCST_DTG": "2026-08-30 12:00:00", "RUN_DTG": "2026-08-31 06:26:47", "BASIN": "WP", "STMNR": 20, "CAT_ID": null, "CAT_DESC": null, "MSGID": "WTPN53 PGTW 301500", "VALIDTIME": "2026-08-30 06:00:00" }, "geometry": { "type": "Point", "coordinates": [ 167.300003, 33.299999 ] } },
{ "type": "Feature", "properties": { "ID": 74038, "LAT": 34.1, "LON": 165.9, "VMAX": 35.0, "MSLP": 986.0, "RMAX": 10.0, "FSPD": 5.54711, "FDIR": 346.85095, "RENV": 50.0, "PENV": 1000.0, "VALIDT": 0, "DTG": "2026-08-30 12:00", "LATNOW": 34.1, "LONNOW": 165.9, "WINDNOW": 35.0, "DIRNOW": 6.0, "SPDNOW": 2.0, "TECH": "TRAK", "ADVNR": 18, "ATCFID": "WP202026", "NAME": "BANG-LANG", "FTECH": "JTWC", "FCST_DTG": "2026-08-30 12:00:00", "RUN_DTG": "2026-08-31 06:26:47", "BASIN": "WP", "STMNR": 20, "CAT_ID": null, "CAT_DESC": null, "MSGID": "WTPN53 PGTW 301500", "VALIDTIME": "2026-08-30 12:00:00" }, "geometry": { "type": "Point", "coordinates": [ 165.899994, 34.099998 ] } },
{ "type": "Feature", "properties": { "ID": 74039, "LAT": 36.2, "LON": 165.3, "VMAX": 35.0, "MSLP": 1008.74713, "RMAX": 13.3052, "FSPD": 8.47833, "FDIR": 13.87021, "RENV": 250.0, "PENV": 1012.0, "VALIDT": 12, "DTG": "2026-08-31 00:00", "LATNOW": 34.1, "LONNOW": 165.9, "WINDNOW": 35.0, "DIRNOW": 6.0, "SPDNOW": 2.0, "TECH": "FCST", "ADVNR": 18, "ATCFID": "WP202026", "NAME": "BANG-LANG", "FTECH": "JTWC", "FCST_DTG": "2026-08-30 12:00:00", "RUN_DTG": "2026-08-31 06:26:47", "BASIN": "WP", "STMNR": 20, "CAT_ID": null, "CAT_DESC": null, "MSGID": "WTPN53 PGTW 301500", "VALIDTIME": "2026-08-31 00:00:00" }, "geometry": { "type": "Point", "coordinates": [ 165.300003, 36.200001 ] } },
{ "type": "Feature", "properties": { "ID": 74040, "LAT": 39.4, "LON": 166.3, "VMAX": 30.0, "MSLP": 1010.40607, "RMAX": 13.78156, "FSPD": 8.47833, "FDIR": 13.87021, "RENV": 250.0, "PENV": 1012.0, "VALIDT": 24, "DTG": "2026-08-31 12:00", "LATNOW": 34.1, "LONNOW": 165.9, "WINDNOW": 35.0, "DIRNOW": 6.0, "SPDNOW": 2.0, "TECH": "FCST", "ADVNR": 18, "ATCFID": "WP202026", "NAME": "BANG-LANG", "FTECH": "JTWC", "FCST_DTG": "2026-08-30 12:00:00", "RUN_DTG": "2026-08-31 06:26:47", "BASIN": "WP", "STMNR": 20, "CAT_ID": null, "CAT_DESC": null, "MSGID": "WTPN53 PGTW 301500", "VALIDTIME": "2026-08-31 12:00:00" }, "geometry": { "type": "Point", "coordinates": [ 166.300003, 39.400002 ] } },
{ "type": "Feature", "properties": { "ID": 74038, "LAT": 34.1, "LON": 165.9, "VMAX": 35.0, "MSLP": 986.0, "RMAX": 10.0, "FSPD": 5.54711, "FDIR": 346.85095, "RENV": 50.0, "PENV": 1000.0, "VALIDT": 0, "DTG": "2026-08-30 12:00", "LATNOW": 34.1, "LONNOW": 165.9, "WINDNOW": 35.0, "DIRNOW": 6.0, "SPDNOW": 2.0, "TECH": "TRAK", "ADVNR": 18, "ATCFID": "WP202026", "NAME": "BANG-LANG", "FTECH": "JTWC", "FCST_DTG": "2026-08-30 12:00:00", "RUN_DTG": "2026-08-31 06:26:47", "BASIN": "WP", "STMNR": 20, "CAT_ID": null, "CAT_DESC": null, "MSGID": "WTPN53 PGTW 301500", "VALIDTIME": "2026-08-30 12:00:00" }, "geometry": { "type": "LineString", "coordinates": [ [ 161.8, 13.2 ], [ 162.1, 13.5 ], [ 162.4, 13.9 ], [ 162.6, 14.4 ], [ 162.3, 15.3 ], [ 162.0, 16.0 ], [ 161.5, 16.8 ], [ 161.3, 17.2 ], [ 161.0, 17.2 ], [ 161.0, 17.2 ], [ 161.4, 16.7 ], [ 162.3, 16.7 ], [ 163.3, 17.1 ], [ 164.1, 17.5 ], [ 164.9, 18.2 ], [ 165.3, 18.8 ], [ 166.5, 19.5 ], [ 167.0, 20.5 ], [ 167.8, 22.2 ], [ 168.2, 23.9 ], [ 168.6, 25.3 ], [ 169.2, 27.7 ], [ 167.9, 31.3 ], [ 167.3, 33.3 ], [ 165.9, 34.1 ] ] } },
{ "type": "Feature", "properties": { "ID": 74040, "LAT": 39.4, "LON": 166.3, "VMAX": 30.0, "MSLP": 1010.40607, "RMAX": 13.78156, "FSPD": 8.47833, "FDIR": 13.87021, "RENV": 250.0, "PENV": 1012.0, "VALIDT": 24, "DTG": "2026-08-31 12:00", "LATNOW": 34.1, "LONNOW": 165.9, "WINDNOW": 35.0, "DIRNOW": 6.0, "SPDNOW": 2.0, "TECH": "FCST", "ADVNR": 18, "ATCFID": "WP202026", "NAME": "BANG-LANG", "FTECH": "JTWC", "FCST_DTG": "2026-08-30 12:00:00", "RUN_DTG": "2026-08-31 06:26:47", "BASIN": "WP", "STMNR": 20, "CAT_ID": null, "CAT_DESC": null, "MSGID": "WTPN53 PGTW 301500", "VALIDTIME": "2026-08-31 12:00:00" }, "geometry": { "type": "LineString", "coordinates": [ [ 165.9, 34.1 ], [ 165.3, 36.2 ], [ 166.3, 39.4 ] ] } }
]
}
