{
"type": "FeatureCollection",
"crs": { "type": "name", "properties": { "name": "urn:ogc:def:crs:OGC:1.3:CRS84" } },
"features": [
{ "type": "Feature", "properties": { "ID": 314087, "LAT": -17.0, "LON": 122.2, "VMAX": 15.0, "MSLP": 1013.8515, "RMAX": 40.0, "FSPD": 1.47587, "FDIR": 269.99997, "RENV": 500.0, "PENV": 1012.0, "VALIDT": 0, "DTG": "2025-03-24 06:00", "LATNOW": -16.2, "LONNOW": 123.8, "WINDNOW": 45.0, "DIRNOW": 4.0, "SPDNOW": 5.0, "TECH": "TRAK", "ADVNR": 4, "ATCFID": "SH282025", "NAME": "DIANNE", "FTECH": "JTWC", "FCST_DTG": "2025-03-28 18:00:00", "RUN_DTG": "2025-03-29 08:08:35", "BASIN": "SH", "STMNR": 28, "CAT_ID": null, "CAT_DESC": null, "MSGID": "WTXS52 PGTW 282100", "VALIDTIME": "2025-03-24 06:00:00" }, "geometry": { "type": "Point", "coordinates": [ 122.199997, -17.0 ] } },
{ "type": "Feature", "properties": { "ID": 314088, "LAT": -17.0, "LON": 121.9, "VMAX": 15.0, "MSLP": 1013.8515, "RMAX": 40.0, "FSPD": 1.56337, "FDIR": 289.21185, "RENV": 500.0, "PENV": 1012.0, "VALIDT": 0, "DTG": "2025-03-24 12:00", "LATNOW": -16.2, "LONNOW": 123.8, "WINDNOW": 45.0, "DIRNOW": 4.0, "SPDNOW": 5.0, "TECH": "TRAK", "ADVNR": 4, "ATCFID": "SH282025", "NAME": "DIANNE", "FTECH": "JTWC", "FCST_DTG": "2025-03-28 18:00:00", "RUN_DTG": "2025-03-29 08:08:35", "BASIN": "SH", "STMNR": 28, "CAT_ID": null, "CAT_DESC": null, "MSGID": "WTXS52 PGTW 282100", "VALIDTIME": "2025-03-24 12:00:00" }, "geometry": { "type": "Point", "coordinates": [ 121.900002, -17.0 ] } },
{ "type": "Feature", "properties": { "ID": 314089, "LAT": -16.9, "LON": 121.6, "VMAX": 15.0, "MSLP": 1013.8515, "RMAX": 40.0, "FSPD": 1.8004, "FDIR": 304.85315, "RENV": 500.0, "PENV": 1012.0, "VALIDT": 0, "DTG": "2025-03-24 18:00", "LATNOW": -16.2, "LONNOW": 123.8, "WINDNOW": 45.0, "DIRNOW": 4.0, "SPDNOW": 5.0, "TECH": "TRAK", "ADVNR": 4, "ATCFID": "SH282025", "NAME": "DIANNE", "FTECH": "JTWC", "FCST_DTG": "2025-03-28 18:00:00", "RUN_DTG": "2025-03-29 08:08:35", "BASIN": "SH", "STMNR": 28, "CAT_ID": null, "CAT_DESC": null, "MSGID": "WTXS52 PGTW 282100", "VALIDTIME": "2025-03-24 18:00:00" }, "geometry": { "type": "Point", "coordinates": [ 121.599998, -16.9 ] } },
{ "type": "Feature", "properties": { "ID": 314090, "LAT": -16.7, "LON": 121.3, "VMAX": 15.0, "MSLP": 1013.8515, "RMAX": 40.0, "FSPD": 1.14092, "FDIR": 334.39676, "RENV": 500.0, "PENV": 1012.0, "VALIDT": 0, "DTG": "2025-03-25 00:00", "LATNOW": -16.2, "LONNOW": 123.8, "WINDNOW": 45.0, "DIRNOW": 4.0, "SPDNOW": 5.0, "TECH": "TRAK", "ADVNR": 4, "ATCFID": "SH282025", "NAME": "DIANNE", "FTECH": "JTWC", "FCST_DTG": "2025-03-28 18:00:00", "RUN_DTG": "2025-03-29 08:08:35", "BASIN": "SH", "STMNR": 28, "CAT_ID": null, "CAT_DESC": null, "MSGID": "WTXS52 PGTW 282100", "VALIDTIME": "2025-03-25 00:00:00" }, "geometry": { "type": "Point", "coordinates": [ 121.300003, -16.700001 ] } },
{ "type": "Feature", "properties": { "ID": 314091, "LAT": -16.5, "LON": 121.2, "VMAX": 15.0, "MSLP": 1013.8515, "RMAX": 40.0, "FSPD": 2.05778, "FDIR": 360.0, "RENV": 500.0, "PENV": 1012.0, "VALIDT": 0, "DTG": "2025-03-25 06:00", "LATNOW": -16.2, "LONNOW": 123.8, "WINDNOW": 45.0, "DIRNOW": 4.0, "SPDNOW": 5.0, "TECH": "TRAK", "ADVNR": 4, "ATCFID": "SH282025", "NAME": "DIANNE", "FTECH": "JTWC", "FCST_DTG": "2025-03-28 18:00:00", "RUN_DTG": "2025-03-29 08:08:35", "BASIN": "SH", "STMNR": 28, "CAT_ID": null, "CAT_DESC": null, "MSGID": "WTXS52 PGTW 282100", "VALIDTIME": "2025-03-25 06:00:00" }, "geometry": { "type": "Point", "coordinates": [ 121.199997, -16.5 ] } },
{ "type": "Feature", "properties": { "ID": 314092, "LAT": -16.1, "LON": 121.2, "VMAX": 15.0, "MSLP": 1013.8515, "RMAX": 40.0, "FSPD": 1.02889, "FDIR": 360.0, "RENV": 500.0, "PENV": 1012.0, "VALIDT": 0, "DTG": "2025-03-25 12:00", "LATNOW": -16.2, "LONNOW": 123.8, "WINDNOW": 45.0, "DIRNOW": 4.0, "SPDNOW": 5.0, "TECH": "TRAK", "ADVNR": 4, "ATCFID": "SH282025", "NAME": "DIANNE", "FTECH": "JTWC", "FCST_DTG": "2025-03-28 18:00:00", "RUN_DTG": "2025-03-29 08:08:35", "BASIN": "SH", "STMNR": 28, "CAT_ID": null, "CAT_DESC": null, "MSGID": "WTXS52 PGTW 282100", "VALIDTIME": "2025-03-25 12:00:00" }, "geometry": { "type": "Point", "coordinates": [ 121.199997, -16.1 ] } },
{ "type": "Feature", "properties": { "ID": 314093, "LAT": -15.9, "LON": 121.2, "VMAX": 25.0, "MSLP": 1011.80975, "RMAX": 45.0, "FSPD": 1.14178, "FDIR": 25.694, "RENV": 500.0, "PENV": 1012.0, "VALIDT": 0, "DTG": "2025-03-25 18:00", "LATNOW": -16.2, "LONNOW": 123.8, "WINDNOW": 45.0, "DIRNOW": 4.0, "SPDNOW": 5.0, "TECH": "TRAK", "ADVNR": 4, "ATCFID": "SH282025", "NAME": "DIANNE", "FTECH": "JTWC", "FCST_DTG": "2025-03-28 18:00:00", "RUN_DTG": "2025-03-29 08:08:35", "BASIN": "SH", "STMNR": 28, "CAT_ID": null, "CAT_DESC": null, "MSGID": "WTXS52 PGTW 282100", "VALIDTIME": "2025-03-25 18:00:00" }, "geometry": { "type": "Point", "coordinates": [ 121.199997, -15.9 ] } },
{ "type": "Feature", "properties": { "ID": 314094, "LAT": -15.7, "LON": 121.3, "VMAX": 25.0, "MSLP": 1011.80975, "RMAX": 45.0, "FSPD": 3.66925, "FDIR": 327.26978, "RENV": 500.0, "PENV": 1012.0, "VALIDT": 0, "DTG": "2025-03-26 00:00", "LATNOW": -16.2, "LONNOW": 123.8, "WINDNOW": 45.0, "DIRNOW": 4.0, "SPDNOW": 5.0, "TECH": "TRAK", "ADVNR": 4, "ATCFID": "SH282025", "NAME": "DIANNE", "FTECH": "JTWC", "FCST_DTG": "2025-03-28 18:00:00", "RUN_DTG": "2025-03-29 08:08:35", "BASIN": "SH", "STMNR": 28, "CAT_ID": null, "CAT_DESC": null, "MSGID": "WTXS52 PGTW 282100", "VALIDTIME": "2025-03-26 00:00:00" }, "geometry": { "type": "Point", "coordinates": [ 121.300003, -15.7 ] } },
{ "type": "Feature", "properties": { "ID": 314095, "LAT": -15.1, "LON": 120.9, "VMAX": 25.0, "MSLP": 1011.80975, "RMAX": 45.0, "FSPD": 2.11698, "FDIR": 346.41815, "RENV": 500.0, "PENV": 1012.0, "VALIDT": 0, "DTG": "2025-03-26 06:00", "LATNOW": -16.2, "LONNOW": 123.8, "WINDNOW": 45.0, "DIRNOW": 4.0, "SPDNOW": 5.0, "TECH": "TRAK", "ADVNR": 4, "ATCFID": "SH282025", "NAME": "DIANNE", "FTECH": "JTWC", "FCST_DTG": "2025-03-28 18:00:00", "RUN_DTG": "2025-03-29 08:08:35", "BASIN": "SH", "STMNR": 28, "CAT_ID": null, "CAT_DESC": null, "MSGID": "WTXS52 PGTW 282100", "VALIDTIME": "2025-03-26 06:00:00" }, "geometry": { "type": "Point", "coordinates": [ 120.900002, -15.1 ] } },
{ "type": "Feature", "properties": { "ID": 314096, "LAT": -14.7, "LON": 120.8, "VMAX": 25.0, "MSLP": 1011.80975, "RMAX": 45.0, "FSPD": 2.75844, "FDIR": 21.1734, "RENV": 500.0, "PENV": 1012.0, "VALIDT": 0, "DTG": "2025-03-26 12:00", "LATNOW": -16.2, "LONNOW": 123.8, "WINDNOW": 45.0, "DIRNOW": 4.0, "SPDNOW": 5.0, "TECH": "TRAK", "ADVNR": 4, "ATCFID": "SH282025", "NAME": "DIANNE", "FTECH": "JTWC", "FCST_DTG": "2025-03-28 18:00:00", "RUN_DTG": "2025-03-29 08:08:35", "BASIN": "SH", "STMNR": 28, "CAT_ID": null, "CAT_DESC": null, "MSGID": "WTXS52 PGTW 282100", "VALIDTIME": "2025-03-26 12:00:00" }, "geometry": { "type": "Point", "coordinates": [ 120.800003, -14.7 ] } },
{ "type": "Feature", "properties": { "ID": 314097, "LAT": -14.2, "LON": 121.0, "VMAX": 25.0, "MSLP": 1011.80975, "RMAX": 45.0, "FSPD": 2.86725, "FDIR": 44.13641, "RENV": 500.0, "PENV": 1012.0, "VALIDT": 0, "DTG": "2025-03-26 18:00", "LATNOW": -16.2, "LONNOW": 123.8, "WINDNOW": 45.0, "DIRNOW": 4.0, "SPDNOW": 5.0, "TECH": "TRAK", "ADVNR": 4, "ATCFID": "SH282025", "NAME": "DIANNE", "FTECH": "JTWC", "FCST_DTG": "2025-03-28 18:00:00", "RUN_DTG": "2025-03-29 08:08:35", "BASIN": "SH", "STMNR": 28, "CAT_ID": null, "CAT_DESC": null, "MSGID": "WTXS52 PGTW 282100", "VALIDTIME": "2025-03-26 18:00:00" }, "geometry": { "type": "Point", "coordinates": [ 121.0, -14.2 ] } },
{ "type": "Feature", "properties": { "ID": 314098, "LAT": -13.8, "LON": 121.4, "VMAX": 30.0, "MSLP": 1010.40607, "RMAX": 44.21983, "FSPD": 2.55092, "FDIR": 78.36533, "RENV": 500.0, "PENV": 1012.0, "VALIDT": 0, "DTG": "2025-03-27 00:00", "LATNOW": -16.2, "LONNOW": 123.8, "WINDNOW": 45.0, "DIRNOW": 4.0, "SPDNOW": 5.0, "TECH": "TRAK", "ADVNR": 4, "ATCFID": "SH282025", "NAME": "DIANNE", "FTECH": "JTWC", "FCST_DTG": "2025-03-28 18:00:00", "RUN_DTG": "2025-03-29 08:08:35", "BASIN": "SH", "STMNR": 28, "CAT_ID": null, "CAT_DESC": null, "MSGID": "WTXS52 PGTW 282100", "VALIDTIME": "2025-03-27 00:00:00" }, "geometry": { "type": "Point", "coordinates": [ 121.400002, -13.8 ] } },
{ "type": "Feature", "properties": { "ID": 314099, "LAT": -13.7, "LON": 121.9, "VMAX": 30.0, "MSLP": 1010.40607, "RMAX": 44.21983, "FSPD": 2.99884, "FDIR": 90.0, "RENV": 500.0, "PENV": 1012.0, "VALIDT": 0, "DTG": "2025-03-27 06:00", "LATNOW": -16.2, "LONNOW": 123.8, "WINDNOW": 45.0, "DIRNOW": 4.0, "SPDNOW": 5.0, "TECH": "TRAK", "ADVNR": 4, "ATCFID": "SH282025", "NAME": "DIANNE", "FTECH": "JTWC", "FCST_DTG": "2025-03-28 18:00:00", "RUN_DTG": "2025-03-29 08:08:35", "BASIN": "SH", "STMNR": 28, "CAT_ID": null, "CAT_DESC": null, "MSGID": "WTXS52 PGTW 282100", "VALIDTIME": "2025-03-27 06:00:00" }, "geometry": { "type": "Point", "coordinates": [ 121.900002, -13.7 ] } },
{ "type": "Feature", "properties": { "ID": 314100, "LAT": -13.7, "LON": 122.5, "VMAX": 30.0, "MSLP": 1010.40607, "RMAX": 44.21983, "FSPD": 3.37096, "FDIR": 117.24725, "RENV": 500.0, "PENV": 1012.0, "VALIDT": 0, "DTG": "2025-03-27 12:00", "LATNOW": -16.2, "LONNOW": 123.8, "WINDNOW": 45.0, "DIRNOW": 4.0, "SPDNOW": 5.0, "TECH": "TRAK", "ADVNR": 4, "ATCFID": "SH282025", "NAME": "DIANNE", "FTECH": "JTWC", "FCST_DTG": "2025-03-28 18:00:00", "RUN_DTG": "2025-03-29 08:08:35", "BASIN": "SH", "STMNR": 28, "CAT_ID": null, "CAT_DESC": null, "MSGID": "WTXS52 PGTW 282100", "VALIDTIME": "2025-03-27 12:00:00" }, "geometry": { "type": "Point", "coordinates": [ 122.5, -13.7 ] } },
{ "type": "Feature", "properties": { "ID": 314101, "LAT": -14.0, "LON": 123.1, "VMAX": 30.0, "MSLP": 1010.40607, "RMAX": 44.21983, "FSPD": 2.54775, "FDIR": 101.64929, "RENV": 500.0, "PENV": 1012.0, "VALIDT": 0, "DTG": "2025-03-27 18:00", "LATNOW": -16.2, "LONNOW": 123.8, "WINDNOW": 45.0, "DIRNOW": 4.0, "SPDNOW": 5.0, "TECH": "TRAK", "ADVNR": 4, "ATCFID": "SH282025", "NAME": "DIANNE", "FTECH": "JTWC", "FCST_DTG": "2025-03-28 18:00:00", "RUN_DTG": "2025-03-29 08:08:35", "BASIN": "SH", "STMNR": 28, "CAT_ID": null, "CAT_DESC": null, "MSGID": "WTXS52 PGTW 282100", "VALIDTIME": "2025-03-27 18:00:00" }, "geometry": { "type": "Point", "coordinates": [ 123.099998, -14.0 ] } },
{ "type": "Feature", "properties": { "ID": 314102, "LAT": -14.1, "LON": 123.6, "VMAX": 35.0, "MSLP": 995.0, "RMAX": 35.0, "FSPD": 3.6354, "FDIR": 172.12387, "RENV": 120.0, "PENV": 1003.0, "VALIDT": 0, "DTG": "2025-03-28 00:00", "LATNOW": -16.2, "LONNOW": 123.8, "WINDNOW": 45.0, "DIRNOW": 4.0, "SPDNOW": 5.0, "TECH": "TRAK", "ADVNR": 4, "ATCFID": "SH282025", "NAME": "DIANNE", "FTECH": "JTWC", "FCST_DTG": "2025-03-28 18:00:00", "RUN_DTG": "2025-03-29 08:08:35", "BASIN": "SH", "STMNR": 28, "CAT_ID": null, "CAT_DESC": null, "MSGID": "WTXS52 PGTW 282100", "VALIDTIME": "2025-03-28 00:00:00" }, "geometry": { "type": "Point", "coordinates": [ 123.599998, -14.1 ] } },
{ "type": "Feature", "properties": { "ID": 314103, "LAT": -14.8, "LON": 123.7, "VMAX": 40.0, "MSLP": 995.0, "RMAX": 35.0, "FSPD": 4.14539, "FDIR": 173.12137, "RENV": 120.0, "PENV": 1003.0, "VALIDT": 0, "DTG": "2025-03-28 06:00", "LATNOW": -16.2, "LONNOW": 123.8, "WINDNOW": 45.0, "DIRNOW": 4.0, "SPDNOW": 5.0, "TECH": "TRAK", "ADVNR": 4, "ATCFID": "SH282025", "NAME": "DIANNE", "FTECH": "JTWC", "FCST_DTG": "2025-03-28 18:00:00", "RUN_DTG": "2025-03-29 08:08:35", "BASIN": "SH", "STMNR": 28, "CAT_ID": null, "CAT_DESC": null, "MSGID": "WTXS52 PGTW 282100", "VALIDTIME": "2025-03-28 06:00:00" }, "geometry": { "type": "Point", "coordinates": [ 123.699997, -14.8 ] } },
{ "type": "Feature", "properties": { "ID": 314104, "LAT": -15.6, "LON": 123.8, "VMAX": 40.0, "MSLP": 991.0, "RMAX": 25.0, "FSPD": 3.08667, "FDIR": 179.99997, "RENV": 125.0, "PENV": 1000.0, "VALIDT": 0, "DTG": "2025-03-28 12:00", "LATNOW": -16.2, "LONNOW": 123.8, "WINDNOW": 45.0, "DIRNOW": 4.0, "SPDNOW": 5.0, "TECH": "TRAK", "ADVNR": 4, "ATCFID": "SH282025", "NAME": "DIANNE", "FTECH": "JTWC", "FCST_DTG": "2025-03-28 18:00:00", "RUN_DTG": "2025-03-29 08:08:35", "BASIN": "SH", "STMNR": 28, "CAT_ID": null, "CAT_DESC": null, "MSGID": "WTXS52 PGTW 282100", "VALIDTIME": "2025-03-28 12:00:00" }, "geometry": { "type": "Point", "coordinates": [ 123.800003, -15.6 ] } },
{ "type": "Feature", "properties": { "ID": 314105, "LAT": -16.2, "LON": 123.8, "VMAX": 45.0, "MSLP": 992.0, "RMAX": 25.0, "FSPD": 4.37975, "FDIR": 176.76761, "RENV": 115.0, "PENV": 1003.0, "VALIDT": 0, "DTG": "2025-03-28 18:00", "LATNOW": -16.2, "LONNOW": 123.8, "WINDNOW": 45.0, "DIRNOW": 4.0, "SPDNOW": 5.0, "TECH": "TRAK", "ADVNR": 4, "ATCFID": "SH282025", "NAME": "DIANNE", "FTECH": "JTWC", "FCST_DTG": "2025-03-28 18:00:00", "RUN_DTG": "2025-03-29 08:08:35", "BASIN": "SH", "STMNR": 28, "CAT_ID": null, "CAT_DESC": null, "MSGID": "WTXS52 PGTW 282100", "VALIDTIME": "2025-03-28 18:00:00" }, "geometry": { "type": "Point", "coordinates": [ 123.800003, -16.200001 ] } },
{ "type": "Feature", "properties": { "ID": 314106, "LAT": -16.37, "LON": 123.81001, "VMAX": 45.0, "MSLP": 992.0, "RMAX": 25.0, "FSPD": 4.37968, "FDIR": 176.78275, "RENV": 115.0, "PENV": 1003.0, "VALIDT": 1, "DTG": "2025-03-28 19:00", "LATNOW": -16.2, "LONNOW": 123.8, "WINDNOW": 45.0, "DIRNOW": 4.0, "SPDNOW": 5.0, "TECH": "FCST", "ADVNR": 4, "ATCFID": "SH282025", "NAME": "DIANNE", "FTECH": "JTWC", "FCST_DTG": "2025-03-28 18:00:00", "RUN_DTG": "2025-03-29 08:08:35", "BASIN": "SH", "STMNR": 28, "CAT_ID": null, "CAT_DESC": null, "MSGID": "WTXS52 PGTW 282100", "VALIDTIME": "2025-03-28 19:00:00" }, "geometry": { "type": "Point", "coordinates": [ 123.810005, -16.370001 ] } },
{ "type": "Feature", "properties": { "ID": 314107, "LAT": -17.9, "LON": 123.9, "VMAX": 35.0, "MSLP": 1008.74713, "RMAX": 31.24132, "FSPD": 3.34389, "FDIR": 179.99997, "RENV": 180.0, "PENV": 1012.0, "VALIDT": 12, "DTG": "2025-03-29 06:00", "LATNOW": -16.2, "LONNOW": 123.8, "WINDNOW": 45.0, "DIRNOW": 4.0, "SPDNOW": 5.0, "TECH": "FCST", "ADVNR": 4, "ATCFID": "SH282025", "NAME": "DIANNE", "FTECH": "JTWC", "FCST_DTG": "2025-03-28 18:00:00", "RUN_DTG": "2025-03-29 08:08:35", "BASIN": "SH", "STMNR": 28, "CAT_ID": null, "CAT_DESC": null, "MSGID": "WTXS52 PGTW 282100", "VALIDTIME": "2025-03-29 06:00:00" }, "geometry": { "type": "Point", "coordinates": [ 123.900002, -17.9 ] } },
{ "type": "Feature", "properties": { "ID": 314108, "LAT": -19.2, "LON": 123.9, "VMAX": 30.0, "MSLP": 1010.40607, "RMAX": 32.35986, "FSPD": 3.07749, "FDIR": 156.83832, "RENV": 250.0, "PENV": 1012.0, "VALIDT": 24, "DTG": "2025-03-29 18:00", "LATNOW": -16.2, "LONNOW": 123.8, "WINDNOW": 45.0, "DIRNOW": 4.0, "SPDNOW": 5.0, "TECH": "FCST", "ADVNR": 4, "ATCFID": "SH282025", "NAME": "DIANNE", "FTECH": "JTWC", "FCST_DTG": "2025-03-28 18:00:00", "RUN_DTG": "2025-03-29 08:08:35", "BASIN": "SH", "STMNR": 28, "CAT_ID": null, "CAT_DESC": null, "MSGID": "WTXS52 PGTW 282100", "VALIDTIME": "2025-03-29 18:00:00" }, "geometry": { "type": "Point", "coordinates": [ 123.900002, -19.200001 ] } },
{ "type": "Feature", "properties": { "ID": 314109, "LAT": -20.3, "LON": 124.4, "VMAX": 25.0, "MSLP": 1011.80975, "RMAX": 32.93078, "FSPD": 3.07749, "FDIR": 156.83832, "RENV": 250.0, "PENV": 1012.0, "VALIDT": 36, "DTG": "2025-03-30 06:00", "LATNOW": -16.2, "LONNOW": 123.8, "WINDNOW": 45.0, "DIRNOW": 4.0, "SPDNOW": 5.0, "TECH": "FCST", "ADVNR": 4, "ATCFID": "SH282025", "NAME": "DIANNE", "FTECH": "JTWC", "FCST_DTG": "2025-03-28 18:00:00", "RUN_DTG": "2025-03-29 08:08:35", "BASIN": "SH", "STMNR": 28, "CAT_ID": null, "CAT_DESC": null, "MSGID": "WTXS52 PGTW 282100", "VALIDTIME": "2025-03-30 06:00:00" }, "geometry": { "type": "Point", "coordinates": [ 124.400002, -20.299999 ] } },
{ "type": "Feature", "properties": { "ID": 314105, "LAT": -16.2, "LON": 123.8, "VMAX": 45.0, "MSLP": 992.0, "RMAX": 25.0, "FSPD": 4.37975, "FDIR": 176.76761, "RENV": 115.0, "PENV": 1003.0, "VALIDT": 0, "DTG": "2025-03-28 18:00", "LATNOW": -16.2, "LONNOW": 123.8, "WINDNOW": 45.0, "DIRNOW": 4.0, "SPDNOW": 5.0, "TECH": "TRAK", "ADVNR": 4, "ATCFID": "SH282025", "NAME": "DIANNE", "FTECH": "JTWC", "FCST_DTG": "2025-03-28 18:00:00", "RUN_DTG": "2025-03-29 08:08:35", "BASIN": "SH", "STMNR": 28, "CAT_ID": null, "CAT_DESC": null, "MSGID": "WTXS52 PGTW 282100", "VALIDTIME": "2025-03-28 18:00:00" }, "geometry": { "type": "LineString", "coordinates": [ [ 122.2, -17.0 ], [ 121.9, -17.0 ], [ 121.6, -16.9 ], [ 121.3, -16.7 ], [ 121.2, -16.5 ], [ 121.2, -16.1 ], [ 121.2, -15.9 ], [ 121.3, -15.7 ], [ 120.9, -15.1 ], [ 120.8, -14.7 ], [ 121.0, -14.2 ], [ 121.4, -13.8 ], [ 121.9, -13.7 ], [ 122.5, -13.7 ], [ 123.1, -14.0 ], [ 123.6, -14.1 ], [ 123.7, -14.8 ], [ 123.8, -15.6 ], [ 123.8, -16.2 ] ] } },
{ "type": "Feature", "properties": { "ID": 314109, "LAT": -20.3, "LON": 124.4, "VMAX": 25.0, "MSLP": 1011.80975, "RMAX": 32.93078, "FSPD": 3.07749, "FDIR": 156.83832, "RENV": 250.0, "PENV": 1012.0, "VALIDT": 36, "DTG": "2025-03-30 06:00", "LATNOW": -16.2, "LONNOW": 123.8, "WINDNOW": 45.0, "DIRNOW": 4.0, "SPDNOW": 5.0, "TECH": "FCST", "ADVNR": 4, "ATCFID": "SH282025", "NAME": "DIANNE", "FTECH": "JTWC", "FCST_DTG": "2025-03-28 18:00:00", "RUN_DTG": "2025-03-29 08:08:35", "BASIN": "SH", "STMNR": 28, "CAT_ID": null, "CAT_DESC": null, "MSGID": "WTXS52 PGTW 282100", "VALIDTIME": "2025-03-30 06:00:00" }, "geometry": { "type": "LineString", "coordinates": [ [ 123.8, -16.2 ], [ 123.81001, -16.37 ], [ 123.9, -17.9 ], [ 123.9, -19.2 ], [ 124.4, -20.3 ] ] } }
]
}
