{
"type": "FeatureCollection",
"crs": { "type": "name", "properties": { "name": "urn:ogc:def:crs:OGC:1.3:CRS84" } },
"features": [
{ "type": "Feature", "properties": { "ID": 87004, "LAT": 20.3, "LON": 134.9, "VMAX": 20.0, "MSLP": 1012.95825, "RMAX": 45.0, "FSPD": 1.92994, "FDIR": 269.99997, "RENV": 500.0, "PENV": 1012.0, "VALIDT": 0, "DTG": "2026-08-29 06:00", "LATNOW": 34.3, "LONNOW": 135.9, "WINDNOW": 25.0, "DIRNOW": 8.0, "SPDNOW": 0.0, "TECH": "TRAK", "ADVNR": 33, "ATCFID": "WP222026", "NAME": "KROVANH", "FTECH": "JTWC", "FCST_DTG": "2026-09-09 06:00:00", "RUN_DTG": "2026-09-09 21:59:14", "BASIN": "WP", "STMNR": 22, "CAT_ID": null, "CAT_DESC": null, "MSGID": "WTPN51 PGTW 090900", "VALIDTIME": "2026-08-29 06:00:00" }, "geometry": { "type": "Point", "coordinates": [ 134.899994, 20.299999 ] } },
{ "type": "Feature", "properties": { "ID": 87005, "LAT": 20.3, "LON": 134.5, "VMAX": 20.0, "MSLP": 1012.95825, "RMAX": 45.0, "FSPD": 1.92994, "FDIR": 269.99997, "RENV": 500.0, "PENV": 1012.0, "VALIDT": 0, "DTG": "2026-08-29 12:00", "LATNOW": 34.3, "LONNOW": 135.9, "WINDNOW": 25.0, "DIRNOW": 8.0, "SPDNOW": 0.0, "TECH": "TRAK", "ADVNR": 33, "ATCFID": "WP222026", "NAME": "KROVANH", "FTECH": "JTWC", "FCST_DTG": "2026-09-09 06:00:00", "RUN_DTG": "2026-09-09 21:59:14", "BASIN": "WP", "STMNR": 22, "CAT_ID": null, "CAT_DESC": null, "MSGID": "WTPN51 PGTW 090900", "VALIDTIME": "2026-08-29 12:00:00" }, "geometry": { "type": "Point", "coordinates": [ 134.5, 20.299999 ] } },
{ "type": "Feature", "properties": { "ID": 87006, "LAT": 20.3, "LON": 134.1, "VMAX": 20.0, "MSLP": 1012.95825, "RMAX": 45.0, "FSPD": 1.93001, "FDIR": 269.99997, "RENV": 500.0, "PENV": 1012.0, "VALIDT": 0, "DTG": "2026-08-29 18:00", "LATNOW": 34.3, "LONNOW": 135.9, "WINDNOW": 25.0, "DIRNOW": 8.0, "SPDNOW": 0.0, "TECH": "TRAK", "ADVNR": 33, "ATCFID": "WP222026", "NAME": "KROVANH", "FTECH": "JTWC", "FCST_DTG": "2026-09-09 06:00:00", "RUN_DTG": "2026-09-09 21:59:14", "BASIN": "WP", "STMNR": 22, "CAT_ID": null, "CAT_DESC": null, "MSGID": "WTPN51 PGTW 090900", "VALIDTIME": "2026-08-29 18:00:00" }, "geometry": { "type": "Point", "coordinates": [ 134.100006, 20.299999 ] } },
{ "type": "Feature", "properties": { "ID": 87007, "LAT": 20.3, "LON": 133.7, "VMAX": 25.0, "MSLP": 1011.80975, "RMAX": 45.0, "FSPD": 2.46968, "FDIR": 308.6759, "RENV": 500.0, "PENV": 1012.0, "VALIDT": 0, "DTG": "2026-08-30 00:00", "LATNOW": 34.3, "LONNOW": 135.9, "WINDNOW": 25.0, "DIRNOW": 8.0, "SPDNOW": 0.0, "TECH": "TRAK", "ADVNR": 33, "ATCFID": "WP222026", "NAME": "KROVANH", "FTECH": "JTWC", "FCST_DTG": "2026-09-09 06:00:00", "RUN_DTG": "2026-09-09 21:59:14", "BASIN": "WP", "STMNR": 22, "CAT_ID": null, "CAT_DESC": null, "MSGID": "WTPN51 PGTW 090900", "VALIDTIME": "2026-08-30 00:00:00" }, "geometry": { "type": "Point", "coordinates": [ 133.699997, 20.299999 ] } },
{ "type": "Feature", "properties": { "ID": 87008, "LAT": 20.6, "LON": 133.3, "VMAX": 25.0, "MSLP": 1011.80975, "RMAX": 45.0, "FSPD": 2.40775, "FDIR": 269.99997, "RENV": 500.0, "PENV": 1012.0, "VALIDT": 0, "DTG": "2026-08-30 06:00", "LATNOW": 34.3, "LONNOW": 135.9, "WINDNOW": 25.0, "DIRNOW": 8.0, "SPDNOW": 0.0, "TECH": "TRAK", "ADVNR": 33, "ATCFID": "WP222026", "NAME": "KROVANH", "FTECH": "JTWC", "FCST_DTG": "2026-09-09 06:00:00", "RUN_DTG": "2026-09-09 21:59:14", "BASIN": "WP", "STMNR": 22, "CAT_ID": null, "CAT_DESC": null, "MSGID": "WTPN51 PGTW 090900", "VALIDTIME": "2026-08-30 06:00:00" }, "geometry": { "type": "Point", "coordinates": [ 133.300003, 20.6 ] } },
{ "type": "Feature", "properties": { "ID": 87009, "LAT": 20.6, "LON": 132.8, "VMAX": 25.0, "MSLP": 1011.80975, "RMAX": 45.0, "FSPD": 1.0916, "FDIR": 61.88263, "RENV": 500.0, "PENV": 1012.0, "VALIDT": 0, "DTG": "2026-08-30 12:00", "LATNOW": 34.3, "LONNOW": 135.9, "WINDNOW": 25.0, "DIRNOW": 8.0, "SPDNOW": 0.0, "TECH": "TRAK", "ADVNR": 33, "ATCFID": "WP222026", "NAME": "KROVANH", "FTECH": "JTWC", "FCST_DTG": "2026-09-09 06:00:00", "RUN_DTG": "2026-09-09 21:59:14", "BASIN": "WP", "STMNR": 22, "CAT_ID": null, "CAT_DESC": null, "MSGID": "WTPN51 PGTW 090900", "VALIDTIME": "2026-08-30 12:00:00" }, "geometry": { "type": "Point", "coordinates": [ 132.800003, 20.6 ] } },
{ "type": "Feature", "properties": { "ID": 87010, "LAT": 20.7, "LON": 133.0, "VMAX": 25.0, "MSLP": 1011.80975, "RMAX": 45.0, "FSPD": 2.11316, "FDIR": 346.85333, "RENV": 500.0, "PENV": 1012.0, "VALIDT": 0, "DTG": "2026-08-30 18:00", "LATNOW": 34.3, "LONNOW": 135.9, "WINDNOW": 25.0, "DIRNOW": 8.0, "SPDNOW": 0.0, "TECH": "TRAK", "ADVNR": 33, "ATCFID": "WP222026", "NAME": "KROVANH", "FTECH": "JTWC", "FCST_DTG": "2026-09-09 06:00:00", "RUN_DTG": "2026-09-09 21:59:14", "BASIN": "WP", "STMNR": 22, "CAT_ID": null, "CAT_DESC": null, "MSGID": "WTPN51 PGTW 090900", "VALIDTIME": "2026-08-30 18:00:00" }, "geometry": { "type": "Point", "coordinates": [ 133.0, 20.700001 ] } },
{ "type": "Feature", "properties": { "ID": 87011, "LAT": 21.1, "LON": 132.9, "VMAX": 25.0, "MSLP": 1011.80975, "RMAX": 45.0, "FSPD": 3.93589, "FDIR": 301.52185, "RENV": 500.0, "PENV": 1012.0, "VALIDT": 0, "DTG": "2026-08-31 00:00", "LATNOW": 34.3, "LONNOW": 135.9, "WINDNOW": 25.0, "DIRNOW": 8.0, "SPDNOW": 0.0, "TECH": "TRAK", "ADVNR": 33, "ATCFID": "WP222026", "NAME": "KROVANH", "FTECH": "JTWC", "FCST_DTG": "2026-09-09 06:00:00", "RUN_DTG": "2026-09-09 21:59:14", "BASIN": "WP", "STMNR": 22, "CAT_ID": null, "CAT_DESC": null, "MSGID": "WTPN51 PGTW 090900", "VALIDTIME": "2026-08-31 00:00:00" }, "geometry": { "type": "Point", "coordinates": [ 132.899994, 21.1 ] } },
{ "type": "Feature", "properties": { "ID": 87012, "LAT": 21.5, "LON": 132.2, "VMAX": 25.0, "MSLP": 1011.80975, "RMAX": 45.0, "FSPD": 4.21943, "FDIR": 307.56158, "RENV": 500.0, "PENV": 1012.0, "VALIDT": 0, "DTG": "2026-08-31 06:00", "LATNOW": 34.3, "LONNOW": 135.9, "WINDNOW": 25.0, "DIRNOW": 8.0, "SPDNOW": 0.0, "TECH": "TRAK", "ADVNR": 33, "ATCFID": "WP222026", "NAME": "KROVANH", "FTECH": "JTWC", "FCST_DTG": "2026-09-09 06:00:00", "RUN_DTG": "2026-09-09 21:59:14", "BASIN": "WP", "STMNR": 22, "CAT_ID": null, "CAT_DESC": null, "MSGID": "WTPN51 PGTW 090900", "VALIDTIME": "2026-08-31 06:00:00" }, "geometry": { "type": "Point", "coordinates": [ 132.199997, 21.5 ] } },
{ "type": "Feature", "properties": { "ID": 87013, "LAT": 22.0, "LON": 131.5, "VMAX": 30.0, "MSLP": 1010.40607, "RMAX": 44.21983, "FSPD": 1.02889, "FDIR": 360.0, "RENV": 500.0, "PENV": 1012.0, "VALIDT": 0, "DTG": "2026-08-31 12:00", "LATNOW": 34.3, "LONNOW": 135.9, "WINDNOW": 25.0, "DIRNOW": 8.0, "SPDNOW": 0.0, "TECH": "TRAK", "ADVNR": 33, "ATCFID": "WP222026", "NAME": "KROVANH", "FTECH": "JTWC", "FCST_DTG": "2026-09-09 06:00:00", "RUN_DTG": "2026-09-09 21:59:14", "BASIN": "WP", "STMNR": 22, "CAT_ID": null, "CAT_DESC": null, "MSGID": "WTPN51 PGTW 090900", "VALIDTIME": "2026-08-31 12:00:00" }, "geometry": { "type": "Point", "coordinates": [ 131.5, 22.0 ] } },
{ "type": "Feature", "properties": { "ID": 87014, "LAT": 22.2, "LON": 131.5, "VMAX": 30.0, "MSLP": 1010.40607, "RMAX": 44.21983, "FSPD": 1.02888, "FDIR": 360.0, "RENV": 500.0, "PENV": 1012.0, "VALIDT": 0, "DTG": "2026-08-31 18:00", "LATNOW": 34.3, "LONNOW": 135.9, "WINDNOW": 25.0, "DIRNOW": 8.0, "SPDNOW": 0.0, "TECH": "TRAK", "ADVNR": 33, "ATCFID": "WP222026", "NAME": "KROVANH", "FTECH": "JTWC", "FCST_DTG": "2026-09-09 06:00:00", "RUN_DTG": "2026-09-09 21:59:14", "BASIN": "WP", "STMNR": 22, "CAT_ID": null, "CAT_DESC": null, "MSGID": "WTPN51 PGTW 090900", "VALIDTIME": "2026-08-31 18:00:00" }, "geometry": { "type": "Point", "coordinates": [ 131.5, 22.200001 ] } },
{ "type": "Feature", "properties": { "ID": 87015, "LAT": 22.4, "LON": 131.5, "VMAX": 35.0, "MSLP": 1008.74713, "RMAX": 42.69135, "FSPD": 0.51445, "FDIR": 360.0, "RENV": 500.0, "PENV": 1012.0, "VALIDT": 0, "DTG": "2026-09-01 00:00", "LATNOW": 34.3, "LONNOW": 135.9, "WINDNOW": 25.0, "DIRNOW": 8.0, "SPDNOW": 0.0, "TECH": "TRAK", "ADVNR": 33, "ATCFID": "WP222026", "NAME": "KROVANH", "FTECH": "JTWC", "FCST_DTG": "2026-09-09 06:00:00", "RUN_DTG": "2026-09-09 21:59:14", "BASIN": "WP", "STMNR": 22, "CAT_ID": null, "CAT_DESC": null, "MSGID": "WTPN51 PGTW 090900", "VALIDTIME": "2026-09-01 00:00:00" }, "geometry": { "type": "Point", "coordinates": [ 131.5, 22.4 ] } },
{ "type": "Feature", "properties": { "ID": 87016, "LAT": 22.5, "LON": 131.5, "VMAX": 35.0, "MSLP": 995.0, "RMAX": 60.0, "FSPD": 6.26595, "FDIR": 114.23669, "RENV": 180.0, "PENV": 1002.0, "VALIDT": 0, "DTG": "2026-09-01 06:00", "LATNOW": 34.3, "LONNOW": 135.9, "WINDNOW": 25.0, "DIRNOW": 8.0, "SPDNOW": 0.0, "TECH": "TRAK", "ADVNR": 33, "ATCFID": "WP222026", "NAME": "KROVANH", "FTECH": "JTWC", "FCST_DTG": "2026-09-09 06:00:00", "RUN_DTG": "2026-09-09 21:59:14", "BASIN": "WP", "STMNR": 22, "CAT_ID": null, "CAT_DESC": null, "MSGID": "WTPN51 PGTW 090900", "VALIDTIME": "2026-09-01 06:00:00" }, "geometry": { "type": "Point", "coordinates": [ 131.5, 22.5 ] } },
{ "type": "Feature", "properties": { "ID": 87017, "LAT": 22.0, "LON": 132.7, "VMAX": 35.0, "MSLP": 995.0, "RMAX": 60.0, "FSPD": 3.33888, "FDIR": 90.0, "RENV": 180.0, "PENV": 1002.0, "VALIDT": 0, "DTG": "2026-09-01 12:00", "LATNOW": 34.3, "LONNOW": 135.9, "WINDNOW": 25.0, "DIRNOW": 8.0, "SPDNOW": 0.0, "TECH": "TRAK", "ADVNR": 33, "ATCFID": "WP222026", "NAME": "KROVANH", "FTECH": "JTWC", "FCST_DTG": "2026-09-09 06:00:00", "RUN_DTG": "2026-09-09 21:59:14", "BASIN": "WP", "STMNR": 22, "CAT_ID": null, "CAT_DESC": null, "MSGID": "WTPN51 PGTW 090900", "VALIDTIME": "2026-09-01 12:00:00" }, "geometry": { "type": "Point", "coordinates": [ 132.699997, 22.0 ] } },
{ "type": "Feature", "properties": { "ID": 87018, "LAT": 22.0, "LON": 133.4, "VMAX": 35.0, "MSLP": 993.0, "RMAX": 60.0, "FSPD": 3.89759, "FDIR": 322.3675, "RENV": 160.0, "PENV": 1003.0, "VALIDT": 0, "DTG": "2026-09-01 18:00", "LATNOW": 34.3, "LONNOW": 135.9, "WINDNOW": 25.0, "DIRNOW": 8.0, "SPDNOW": 0.0, "TECH": "TRAK", "ADVNR": 33, "ATCFID": "WP222026", "NAME": "KROVANH", "FTECH": "JTWC", "FCST_DTG": "2026-09-09 06:00:00", "RUN_DTG": "2026-09-09 21:59:14", "BASIN": "WP", "STMNR": 22, "CAT_ID": null, "CAT_DESC": null, "MSGID": "WTPN51 PGTW 090900", "VALIDTIME": "2026-09-01 18:00:00" }, "geometry": { "type": "Point", "coordinates": [ 133.399994, 22.0 ] } },
{ "type": "Feature", "properties": { "ID": 87034, "LAT": 25.4, "LON": 129.4, "VMAX": 30.0, "MSLP": 993.0, "RMAX": 60.0, "FSPD": 2.92437, "FDIR": 28.40799, "RENV": 190.0, "PENV": 1000.0, "VALIDT": 0, "DTG": "2026-09-05 18:00", "LATNOW": 34.3, "LONNOW": 135.9, "WINDNOW": 25.0, "DIRNOW": 8.0, "SPDNOW": 0.0, "TECH": "TRAK", "ADVNR": 33, "ATCFID": "WP222026", "NAME": "KROVANH", "FTECH": "JTWC", "FCST_DTG": "2026-09-09 06:00:00", "RUN_DTG": "2026-09-09 21:59:14", "BASIN": "WP", "STMNR": 22, "CAT_ID": null, "CAT_DESC": null, "MSGID": "WTPN51 PGTW 090900", "VALIDTIME": "2026-09-05 18:00:00" }, "geometry": { "type": "Point", "coordinates": [ 129.399994, 25.4 ] } },
{ "type": "Feature", "properties": { "ID": 87035, "LAT": 25.9, "LON": 129.7, "VMAX": 30.0, "MSLP": 992.0, "RMAX": 60.0, "FSPD": 3.09944, "FDIR": 131.59943, "RENV": 170.0, "PENV": 998.0, "VALIDT": 0, "DTG": "2026-09-06 00:00", "LATNOW": 34.3, "LONNOW": 135.9, "WINDNOW": 25.0, "DIRNOW": 8.0, "SPDNOW": 0.0, "TECH": "TRAK", "ADVNR": 33, "ATCFID": "WP222026", "NAME": "KROVANH", "FTECH": "JTWC", "FCST_DTG": "2026-09-09 06:00:00", "RUN_DTG": "2026-09-09 21:59:14", "BASIN": "WP", "STMNR": 22, "CAT_ID": null, "CAT_DESC": null, "MSGID": "WTPN51 PGTW 090900", "VALIDTIME": "2026-09-06 00:00:00" }, "geometry": { "type": "Point", "coordinates": [ 129.699997, 25.9 ] } },
{ "type": "Feature", "properties": { "ID": 87036, "LAT": 25.5, "LON": 130.2, "VMAX": 30.0, "MSLP": 992.0, "RMAX": 60.0, "FSPD": 3.85153, "FDIR": 74.50592, "RENV": 160.0, "PENV": 998.0, "VALIDT": 0, "DTG": "2026-09-06 06:00", "LATNOW": 34.3, "LONNOW": 135.9, "WINDNOW": 25.0, "DIRNOW": 8.0, "SPDNOW": 0.0, "TECH": "TRAK", "ADVNR": 33, "ATCFID": "WP222026", "NAME": "KROVANH", "FTECH": "JTWC", "FCST_DTG": "2026-09-09 06:00:00", "RUN_DTG": "2026-09-09 21:59:14", "BASIN": "WP", "STMNR": 22, "CAT_ID": null, "CAT_DESC": null, "MSGID": "WTPN51 PGTW 090900", "VALIDTIME": "2026-09-06 06:00:00" }, "geometry": { "type": "Point", "coordinates": [ 130.199997, 25.5 ] } },
{ "type": "Feature", "properties": { "ID": 87037, "LAT": 25.7, "LON": 131.0, "VMAX": 30.0, "MSLP": 989.0, "RMAX": 40.0, "FSPD": 2.82738, "FDIR": 79.51672, "RENV": 210.0, "PENV": 998.0, "VALIDT": 0, "DTG": "2026-09-06 12:00", "LATNOW": 34.3, "LONNOW": 135.9, "WINDNOW": 25.0, "DIRNOW": 8.0, "SPDNOW": 0.0, "TECH": "TRAK", "ADVNR": 33, "ATCFID": "WP222026", "NAME": "KROVANH", "FTECH": "JTWC", "FCST_DTG": "2026-09-09 06:00:00", "RUN_DTG": "2026-09-09 21:59:14", "BASIN": "WP", "STMNR": 22, "CAT_ID": null, "CAT_DESC": null, "MSGID": "WTPN51 PGTW 090900", "VALIDTIME": "2026-09-06 12:00:00" }, "geometry": { "type": "Point", "coordinates": [ 131.0, 25.700001 ] } },
{ "type": "Feature", "properties": { "ID": 87038, "LAT": 25.8, "LON": 131.6, "VMAX": 30.0, "MSLP": 989.0, "RMAX": 40.0, "FSPD": 3.09505, "FDIR": 48.32819, "RENV": 190.0, "PENV": 999.0, "VALIDT": 0, "DTG": "2026-09-06 18:00", "LATNOW": 34.3, "LONNOW": 135.9, "WINDNOW": 25.0, "DIRNOW": 8.0, "SPDNOW": 0.0, "TECH": "TRAK", "ADVNR": 33, "ATCFID": "WP222026", "NAME": "KROVANH", "FTECH": "JTWC", "FCST_DTG": "2026-09-09 06:00:00", "RUN_DTG": "2026-09-09 21:59:14", "BASIN": "WP", "STMNR": 22, "CAT_ID": null, "CAT_DESC": null, "MSGID": "WTPN51 PGTW 090900", "VALIDTIME": "2026-09-06 18:00:00" }, "geometry": { "type": "Point", "coordinates": [ 131.600006, 25.799999 ] } },
{ "type": "Feature", "properties": { "ID": 87039, "LAT": 26.2, "LON": 132.1, "VMAX": 30.0, "MSLP": 988.0, "RMAX": 40.0, "FSPD": 5.16934, "FDIR": 26.40601, "RENV": 190.0, "PENV": 997.0, "VALIDT": 0, "DTG": "2026-09-07 00:00", "LATNOW": 34.3, "LONNOW": 135.9, "WINDNOW": 25.0, "DIRNOW": 8.0, "SPDNOW": 0.0, "TECH": "TRAK", "ADVNR": 33, "ATCFID": "WP222026", "NAME": "KROVANH", "FTECH": "JTWC", "FCST_DTG": "2026-09-09 06:00:00", "RUN_DTG": "2026-09-09 21:59:14", "BASIN": "WP", "STMNR": 22, "CAT_ID": null, "CAT_DESC": null, "MSGID": "WTPN51 PGTW 090900", "VALIDTIME": "2026-09-07 00:00:00" }, "geometry": { "type": "Point", "coordinates": [ 132.100006, 26.200001 ] } },
{ "type": "Feature", "properties": { "ID": 87040, "LAT": 27.1, "LON": 132.6, "VMAX": 30.0, "MSLP": 989.0, "RMAX": 40.0, "FSPD": 5.82167, "FDIR": 13.58084, "RENV": 180.0, "PENV": 999.0, "VALIDT": 0, "DTG": "2026-09-07 06:00", "LATNOW": 34.3, "LONNOW": 135.9, "WINDNOW": 25.0, "DIRNOW": 8.0, "SPDNOW": 0.0, "TECH": "TRAK", "ADVNR": 33, "ATCFID": "WP222026", "NAME": "KROVANH", "FTECH": "JTWC", "FCST_DTG": "2026-09-09 06:00:00", "RUN_DTG": "2026-09-09 21:59:14", "BASIN": "WP", "STMNR": 22, "CAT_ID": null, "CAT_DESC": null, "MSGID": "WTPN51 PGTW 090900", "VALIDTIME": "2026-09-07 06:00:00" }, "geometry": { "type": "Point", "coordinates": [ 132.600006, 27.1 ] } },
{ "type": "Feature", "properties": { "ID": 87041, "LAT": 28.2, "LON": 132.9, "VMAX": 30.0, "MSLP": 991.0, "RMAX": 40.0, "FSPD": 4.65196, "FDIR": 5.56946, "RENV": 230.0, "PENV": 1000.0, "VALIDT": 0, "DTG": "2026-09-07 12:00", "LATNOW": 34.3, "LONNOW": 135.9, "WINDNOW": 25.0, "DIRNOW": 8.0, "SPDNOW": 0.0, "TECH": "TRAK", "ADVNR": 33, "ATCFID": "WP222026", "NAME": "KROVANH", "FTECH": "JTWC", "FCST_DTG": "2026-09-09 06:00:00", "RUN_DTG": "2026-09-09 21:59:14", "BASIN": "WP", "STMNR": 22, "CAT_ID": null, "CAT_DESC": null, "MSGID": "WTPN51 PGTW 090900", "VALIDTIME": "2026-09-07 12:00:00" }, "geometry": { "type": "Point", "coordinates": [ 132.899994, 28.200001 ] } },
{ "type": "Feature", "properties": { "ID": 87042, "LAT": 29.1, "LON": 133.0, "VMAX": 30.0, "MSLP": 992.0, "RMAX": 40.0, "FSPD": 6.42689, "FDIR": 343.85217, "RENV": 230.0, "PENV": 1000.0, "VALIDT": 0, "DTG": "2026-09-07 18:00", "LATNOW": 34.3, "LONNOW": 135.9, "WINDNOW": 25.0, "DIRNOW": 8.0, "SPDNOW": 0.0, "TECH": "TRAK", "ADVNR": 33, "ATCFID": "WP222026", "NAME": "KROVANH", "FTECH": "JTWC", "FCST_DTG": "2026-09-09 06:00:00", "RUN_DTG": "2026-09-09 21:59:14", "BASIN": "WP", "STMNR": 22, "CAT_ID": null, "CAT_DESC": null, "MSGID": "WTPN51 PGTW 090900", "VALIDTIME": "2026-09-07 18:00:00" }, "geometry": { "type": "Point", "coordinates": [ 133.0, 29.1 ] } },
{ "type": "Feature", "properties": { "ID": 87043, "LAT": 30.3, "LON": 132.6, "VMAX": 30.0, "MSLP": 992.0, "RMAX": 40.0, "FSPD": 4.20957, "FDIR": 12.13165, "RENV": 190.0, "PENV": 1000.0, "VALIDT": 0, "DTG": "2026-09-08 00:00", "LATNOW": 34.3, "LONNOW": 135.9, "WINDNOW": 25.0, "DIRNOW": 8.0, "SPDNOW": 0.0, "TECH": "TRAK", "ADVNR": 33, "ATCFID": "WP222026", "NAME": "KROVANH", "FTECH": "JTWC", "FCST_DTG": "2026-09-09 06:00:00", "RUN_DTG": "2026-09-09 21:59:14", "BASIN": "WP", "STMNR": 22, "CAT_ID": null, "CAT_DESC": null, "MSGID": "WTPN51 PGTW 090900", "VALIDTIME": "2026-09-08 00:00:00" }, "geometry": { "type": "Point", "coordinates": [ 132.600006, 30.299999 ] } },
{ "type": "Feature", "properties": { "ID": 87044, "LAT": 31.1, "LON": 132.8, "VMAX": 30.0, "MSLP": 993.0, "RMAX": 40.0, "FSPD": 4.32081, "FDIR": 17.73132, "RENV": 110.0, "PENV": 1000.0, "VALIDT": 0, "DTG": "2026-09-08 06:00", "LATNOW": 34.3, "LONNOW": 135.9, "WINDNOW": 25.0, "DIRNOW": 8.0, "SPDNOW": 0.0, "TECH": "TRAK", "ADVNR": 33, "ATCFID": "WP222026", "NAME": "KROVANH", "FTECH": "JTWC", "FCST_DTG": "2026-09-09 06:00:00", "RUN_DTG": "2026-09-09 21:59:14", "BASIN": "WP", "STMNR": 22, "CAT_ID": null, "CAT_DESC": null, "MSGID": "WTPN51 PGTW 090900", "VALIDTIME": "2026-09-08 06:00:00" }, "geometry": { "type": "Point", "coordinates": [ 132.800003, 31.1 ] } },
{ "type": "Feature", "properties": { "ID": 87045, "LAT": 31.9, "LON": 133.1, "VMAX": 30.0, "MSLP": 992.0, "RMAX": 50.0, "FSPD": 6.41263, "FDIR": 15.70206, "RENV": 150.0, "PENV": 1001.0, "VALIDT": 0, "DTG": "2026-09-08 12:00", "LATNOW": 34.3, "LONNOW": 135.9, "WINDNOW": 25.0, "DIRNOW": 8.0, "SPDNOW": 0.0, "TECH": "TRAK", "ADVNR": 33, "ATCFID": "WP222026", "NAME": "KROVANH", "FTECH": "JTWC", "FCST_DTG": "2026-09-09 06:00:00", "RUN_DTG": "2026-09-09 21:59:14", "BASIN": "WP", "STMNR": 22, "CAT_ID": null, "CAT_DESC": null, "MSGID": "WTPN51 PGTW 090900", "VALIDTIME": "2026-09-08 12:00:00" }, "geometry": { "type": "Point", "coordinates": [ 133.100006, 31.9 ] } },
{ "type": "Feature", "properties": { "ID": 87019, "LAT": 22.6, "LON": 132.9, "VMAX": 30.0, "MSLP": 994.0, "RMAX": 60.0, "FSPD": 3.49785, "FDIR": 317.33865, "RENV": 190.0, "PENV": 1003.0, "VALIDT": 0, "DTG": "2026-09-02 00:00", "LATNOW": 34.3, "LONNOW": 135.9, "WINDNOW": 25.0, "DIRNOW": 8.0, "SPDNOW": 0.0, "TECH": "TRAK", "ADVNR": 33, "ATCFID": "WP222026", "NAME": "KROVANH", "FTECH": "JTWC", "FCST_DTG": "2026-09-09 06:00:00", "RUN_DTG": "2026-09-09 21:59:14", "BASIN": "WP", "STMNR": 22, "CAT_ID": null, "CAT_DESC": null, "MSGID": "WTPN51 PGTW 090900", "VALIDTIME": "2026-09-02 00:00:00" }, "geometry": { "type": "Point", "coordinates": [ 132.899994, 22.6 ] } },
{ "type": "Feature", "properties": { "ID": 87020, "LAT": 23.1, "LON": 132.4, "VMAX": 35.0, "MSLP": 994.0, "RMAX": 60.0, "FSPD": 5.27672, "FDIR": 321.25555, "RENV": 220.0, "PENV": 1004.0, "VALIDT": 0, "DTG": "2026-09-02 06:00", "LATNOW": 34.3, "LONNOW": 135.9, "WINDNOW": 25.0, "DIRNOW": 8.0, "SPDNOW": 0.0, "TECH": "TRAK", "ADVNR": 33, "ATCFID": "WP222026", "NAME": "KROVANH", "FTECH": "JTWC", "FCST_DTG": "2026-09-09 06:00:00", "RUN_DTG": "2026-09-09 21:59:14", "BASIN": "WP", "STMNR": 22, "CAT_ID": null, "CAT_DESC": null, "MSGID": "WTPN51 PGTW 090900", "VALIDTIME": "2026-09-02 06:00:00" }, "geometry": { "type": "Point", "coordinates": [ 132.399994, 23.1 ] } },
{ "type": "Feature", "properties": { "ID": 87021, "LAT": 23.9, "LON": 131.7, "VMAX": 35.0, "MSLP": 994.0, "RMAX": 60.0, "FSPD": 5.9578, "FDIR": 320.99872, "RENV": 210.0, "PENV": 1002.0, "VALIDT": 0, "DTG": "2026-09-02 12:00", "LATNOW": 34.3, "LONNOW": 135.9, "WINDNOW": 25.0, "DIRNOW": 8.0, "SPDNOW": 0.0, "TECH": "TRAK", "ADVNR": 33, "ATCFID": "WP222026", "NAME": "KROVANH", "FTECH": "JTWC", "FCST_DTG": "2026-09-09 06:00:00", "RUN_DTG": "2026-09-09 21:59:14", "BASIN": "WP", "STMNR": 22, "CAT_ID": null, "CAT_DESC": null, "MSGID": "WTPN51 PGTW 090900", "VALIDTIME": "2026-09-02 12:00:00" }, "geometry": { "type": "Point", "coordinates": [ 131.699997, 23.9 ] } },
{ "type": "Feature", "properties": { "ID": 87022, "LAT": 24.8, "LON": 130.9, "VMAX": 40.0, "MSLP": 993.0, "RMAX": 60.0, "FSPD": 7.43637, "FDIR": 334.07065, "RENV": 210.0, "PENV": 1003.0, "VALIDT": 0, "DTG": "2026-09-02 18:00", "LATNOW": 34.3, "LONNOW": 135.9, "WINDNOW": 25.0, "DIRNOW": 8.0, "SPDNOW": 0.0, "TECH": "TRAK", "ADVNR": 33, "ATCFID": "WP222026", "NAME": "KROVANH", "FTECH": "JTWC", "FCST_DTG": "2026-09-09 06:00:00", "RUN_DTG": "2026-09-09 21:59:14", "BASIN": "WP", "STMNR": 22, "CAT_ID": null, "CAT_DESC": null, "MSGID": "WTPN51 PGTW 090900", "VALIDTIME": "2026-09-02 18:00:00" }, "geometry": { "type": "Point", "coordinates": [ 130.899994, 24.799999 ] } },
{ "type": "Feature", "properties": { "ID": 87023, "LAT": 26.1, "LON": 130.2, "VMAX": 40.0, "MSLP": 988.0, "RMAX": 60.0, "FSPD": 7.20644, "FDIR": 309.97705, "RENV": 170.0, "PENV": 1000.0, "VALIDT": 0, "DTG": "2026-09-03 00:00", "LATNOW": 34.3, "LONNOW": 135.9, "WINDNOW": 25.0, "DIRNOW": 8.0, "SPDNOW": 0.0, "TECH": "TRAK", "ADVNR": 33, "ATCFID": "WP222026", "NAME": "KROVANH", "FTECH": "JTWC", "FCST_DTG": "2026-09-09 06:00:00", "RUN_DTG": "2026-09-09 21:59:14", "BASIN": "WP", "STMNR": 22, "CAT_ID": null, "CAT_DESC": null, "MSGID": "WTPN51 PGTW 090900", "VALIDTIME": "2026-09-03 00:00:00" }, "geometry": { "type": "Point", "coordinates": [ 130.199997, 26.1 ] } },
{ "type": "Feature", "properties": { "ID": 87024, "LAT": 27.0, "LON": 129.0, "VMAX": 40.0, "MSLP": 989.0, "RMAX": 60.0, "FSPD": 5.16465, "FDIR": 354.93076, "RENV": 170.0, "PENV": 1000.0, "VALIDT": 0, "DTG": "2026-09-03 06:00", "LATNOW": 34.3, "LONNOW": 135.9, "WINDNOW": 25.0, "DIRNOW": 8.0, "SPDNOW": 0.0, "TECH": "TRAK", "ADVNR": 33, "ATCFID": "WP222026", "NAME": "KROVANH", "FTECH": "JTWC", "FCST_DTG": "2026-09-09 06:00:00", "RUN_DTG": "2026-09-09 21:59:14", "BASIN": "WP", "STMNR": 22, "CAT_ID": null, "CAT_DESC": null, "MSGID": "WTPN51 PGTW 090900", "VALIDTIME": "2026-09-03 06:00:00" }, "geometry": { "type": "Point", "coordinates": [ 129.0, 27.0 ] } },
{ "type": "Feature", "properties": { "ID": 87025, "LAT": 28.0, "LON": 128.9, "VMAX": 40.0, "MSLP": 989.0, "RMAX": 40.0, "FSPD": 6.03992, "FDIR": 328.40143, "RENV": 160.0, "PENV": 1000.0, "VALIDT": 0, "DTG": "2026-09-03 12:00", "LATNOW": 34.3, "LONNOW": 135.9, "WINDNOW": 25.0, "DIRNOW": 8.0, "SPDNOW": 0.0, "TECH": "TRAK", "ADVNR": 33, "ATCFID": "WP222026", "NAME": "KROVANH", "FTECH": "JTWC", "FCST_DTG": "2026-09-09 06:00:00", "RUN_DTG": "2026-09-09 21:59:14", "BASIN": "WP", "STMNR": 22, "CAT_ID": null, "CAT_DESC": null, "MSGID": "WTPN51 PGTW 090900", "VALIDTIME": "2026-09-03 12:00:00" }, "geometry": { "type": "Point", "coordinates": [ 128.899994, 28.0 ] } },
{ "type": "Feature", "properties": { "ID": 87026, "LAT": 29.0, "LON": 128.2, "VMAX": 40.0, "MSLP": 988.0, "RMAX": 40.0, "FSPD": 2.72437, "FDIR": 340.76135, "RENV": 170.0, "PENV": 1001.0, "VALIDT": 0, "DTG": "2026-09-03 18:00", "LATNOW": 34.3, "LONNOW": 135.9, "WINDNOW": 25.0, "DIRNOW": 8.0, "SPDNOW": 0.0, "TECH": "TRAK", "ADVNR": 33, "ATCFID": "WP222026", "NAME": "KROVANH", "FTECH": "JTWC", "FCST_DTG": "2026-09-09 06:00:00", "RUN_DTG": "2026-09-09 21:59:14", "BASIN": "WP", "STMNR": 22, "CAT_ID": null, "CAT_DESC": null, "MSGID": "WTPN51 PGTW 090900", "VALIDTIME": "2026-09-03 18:00:00" }, "geometry": { "type": "Point", "coordinates": [ 128.199997, 29.0 ] } },
{ "type": "Feature", "properties": { "ID": 87027, "LAT": 29.5, "LON": 128.0, "VMAX": 40.0, "MSLP": 988.0, "RMAX": 40.0, "FSPD": 2.71643, "FDIR": 304.62103, "RENV": 170.0, "PENV": 1000.0, "VALIDT": 0, "DTG": "2026-09-04 00:00", "LATNOW": 34.3, "LONNOW": 135.9, "WINDNOW": 25.0, "DIRNOW": 8.0, "SPDNOW": 0.0, "TECH": "TRAK", "ADVNR": 33, "ATCFID": "WP222026", "NAME": "KROVANH", "FTECH": "JTWC", "FCST_DTG": "2026-09-09 06:00:00", "RUN_DTG": "2026-09-09 21:59:14", "BASIN": "WP", "STMNR": 22, "CAT_ID": null, "CAT_DESC": null, "MSGID": "WTPN51 PGTW 090900", "VALIDTIME": "2026-09-04 00:00:00" }, "geometry": { "type": "Point", "coordinates": [ 128.0, 29.5 ] } },
{ "type": "Feature", "properties": { "ID": 87028, "LAT": 29.8, "LON": 127.5, "VMAX": 40.0, "MSLP": 988.0, "RMAX": 60.0, "FSPD": 5.67665, "FDIR": 184.53497, "RENV": 170.0, "PENV": 1000.0, "VALIDT": 0, "DTG": "2026-09-04 06:00", "LATNOW": 34.3, "LONNOW": 135.9, "WINDNOW": 25.0, "DIRNOW": 8.0, "SPDNOW": 0.0, "TECH": "TRAK", "ADVNR": 33, "ATCFID": "WP222026", "NAME": "KROVANH", "FTECH": "JTWC", "FCST_DTG": "2026-09-09 06:00:00", "RUN_DTG": "2026-09-09 21:59:14", "BASIN": "WP", "STMNR": 22, "CAT_ID": null, "CAT_DESC": null, "MSGID": "WTPN51 PGTW 090900", "VALIDTIME": "2026-09-04 06:00:00" }, "geometry": { "type": "Point", "coordinates": [ 127.5, 29.799999 ] } },
{ "type": "Feature", "properties": { "ID": 87029, "LAT": 28.7, "LON": 127.4, "VMAX": 40.0, "MSLP": 988.0, "RMAX": 60.0, "FSPD": 2.05421, "FDIR": 221.29622, "RENV": 170.0, "PENV": 1000.0, "VALIDT": 0, "DTG": "2026-09-04 12:00", "LATNOW": 34.3, "LONNOW": 135.9, "WINDNOW": 25.0, "DIRNOW": 8.0, "SPDNOW": 0.0, "TECH": "TRAK", "ADVNR": 33, "ATCFID": "WP222026", "NAME": "KROVANH", "FTECH": "JTWC", "FCST_DTG": "2026-09-09 06:00:00", "RUN_DTG": "2026-09-09 21:59:14", "BASIN": "WP", "STMNR": 22, "CAT_ID": null, "CAT_DESC": null, "MSGID": "WTPN51 PGTW 090900", "VALIDTIME": "2026-09-04 12:00:00" }, "geometry": { "type": "Point", "coordinates": [ 127.400002, 28.700001 ] } },
{ "type": "Feature", "properties": { "ID": 87030, "LAT": 28.4, "LON": 127.1, "VMAX": 45.0, "MSLP": 989.0, "RMAX": 60.0, "FSPD": 3.58086, "FDIR": 210.45917, "RENV": 240.0, "PENV": 1004.0, "VALIDT": 0, "DTG": "2026-09-04 18:00", "LATNOW": 34.3, "LONNOW": 135.9, "WINDNOW": 25.0, "DIRNOW": 8.0, "SPDNOW": 0.0, "TECH": "TRAK", "ADVNR": 33, "ATCFID": "WP222026", "NAME": "KROVANH", "FTECH": "JTWC", "FCST_DTG": "2026-09-09 06:00:00", "RUN_DTG": "2026-09-09 21:59:14", "BASIN": "WP", "STMNR": 22, "CAT_ID": null, "CAT_DESC": null, "MSGID": "WTPN51 PGTW 090900", "VALIDTIME": "2026-09-04 18:00:00" }, "geometry": { "type": "Point", "coordinates": [ 127.099998, 28.4 ] } },
{ "type": "Feature", "properties": { "ID": 87031, "LAT": 27.8, "LON": 126.7, "VMAX": 40.0, "MSLP": 982.0, "RMAX": 60.0, "FSPD": 9.01099, "FDIR": 155.98672, "RENV": 225.0, "PENV": 1001.0, "VALIDT": 0, "DTG": "2026-09-05 00:00", "LATNOW": 34.3, "LONNOW": 135.9, "WINDNOW": 25.0, "DIRNOW": 8.0, "SPDNOW": 0.0, "TECH": "TRAK", "ADVNR": 33, "ATCFID": "WP222026", "NAME": "KROVANH", "FTECH": "JTWC", "FCST_DTG": "2026-09-09 06:00:00", "RUN_DTG": "2026-09-09 21:59:14", "BASIN": "WP", "STMNR": 22, "CAT_ID": null, "CAT_DESC": null, "MSGID": "WTPN51 PGTW 090900", "VALIDTIME": "2026-09-05 00:00:00" }, "geometry": { "type": "Point", "coordinates": [ 126.699997, 27.799999 ] } },
{ "type": "Feature", "properties": { "ID": 87032, "LAT": 26.2, "LON": 127.5, "VMAX": 35.0, "MSLP": 985.0, "RMAX": 60.0, "FSPD": 4.84465, "FDIR": 138.01483, "RENV": 220.0, "PENV": 1001.0, "VALIDT": 0, "DTG": "2026-09-05 06:00", "LATNOW": 34.3, "LONNOW": 135.9, "WINDNOW": 25.0, "DIRNOW": 8.0, "SPDNOW": 0.0, "TECH": "TRAK", "ADVNR": 33, "ATCFID": "WP222026", "NAME": "KROVANH", "FTECH": "JTWC", "FCST_DTG": "2026-09-09 06:00:00", "RUN_DTG": "2026-09-09 21:59:14", "BASIN": "WP", "STMNR": 22, "CAT_ID": null, "CAT_DESC": null, "MSGID": "WTPN51 PGTW 090900", "VALIDTIME": "2026-09-05 06:00:00" }, "geometry": { "type": "Point", "coordinates": [ 127.5, 26.200001 ] } },
{ "type": "Feature", "properties": { "ID": 87033, "LAT": 25.5, "LON": 128.2, "VMAX": 30.0, "MSLP": 988.0, "RMAX": 90.0, "FSPD": 5.59795, "FDIR": 95.27283, "RENV": 220.0, "PENV": 1000.0, "VALIDT": 0, "DTG": "2026-09-05 12:00", "LATNOW": 34.3, "LONNOW": 135.9, "WINDNOW": 25.0, "DIRNOW": 8.0, "SPDNOW": 0.0, "TECH": "TRAK", "ADVNR": 33, "ATCFID": "WP222026", "NAME": "KROVANH", "FTECH": "JTWC", "FCST_DTG": "2026-09-09 06:00:00", "RUN_DTG": "2026-09-09 21:59:14", "BASIN": "WP", "STMNR": 22, "CAT_ID": null, "CAT_DESC": null, "MSGID": "WTPN51 PGTW 090900", "VALIDTIME": "2026-09-05 12:00:00" }, "geometry": { "type": "Point", "coordinates": [ 128.199997, 25.5 ] } },
{ "type": "Feature", "properties": { "ID": 87046, "LAT": 33.1, "LON": 133.5, "VMAX": 30.0, "MSLP": 993.0, "RMAX": 40.0, "FSPD": 4.6448, "FDIR": 56.37292, "RENV": 100.0, "PENV": 1002.0, "VALIDT": 0, "DTG": "2026-09-08 18:00", "LATNOW": 34.3, "LONNOW": 135.9, "WINDNOW": 25.0, "DIRNOW": 8.0, "SPDNOW": 0.0, "TECH": "TRAK", "ADVNR": 33, "ATCFID": "WP222026", "NAME": "KROVANH", "FTECH": "JTWC", "FCST_DTG": "2026-09-09 06:00:00", "RUN_DTG": "2026-09-09 21:59:14", "BASIN": "WP", "STMNR": 22, "CAT_ID": null, "CAT_DESC": null, "MSGID": "WTPN51 PGTW 090900", "VALIDTIME": "2026-09-08 18:00:00" }, "geometry": { "type": "Point", "coordinates": [ 133.5, 33.099998 ] } },
{ "type": "Feature", "properties": { "ID": 87047, "LAT": 33.6, "LON": 134.4, "VMAX": 30.0, "MSLP": 996.0, "RMAX": 30.0, "FSPD": 7.35372, "FDIR": 60.67905, "RENV": 80.0, "PENV": 1002.0, "VALIDT": 0, "DTG": "2026-09-09 00:00", "LATNOW": 34.3, "LONNOW": 135.9, "WINDNOW": 25.0, "DIRNOW": 8.0, "SPDNOW": 0.0, "TECH": "TRAK", "ADVNR": 33, "ATCFID": "WP222026", "NAME": "KROVANH", "FTECH": "JTWC", "FCST_DTG": "2026-09-09 06:00:00", "RUN_DTG": "2026-09-09 21:59:14", "BASIN": "WP", "STMNR": 22, "CAT_ID": null, "CAT_DESC": null, "MSGID": "WTPN51 PGTW 090900", "VALIDTIME": "2026-09-09 00:00:00" }, "geometry": { "type": "Point", "coordinates": [ 134.399994, 33.599998 ] } },
{ "type": "Feature", "properties": { "ID": 87048, "LAT": 34.02, "LON": 135.29999, "VMAX": 30.0, "MSLP": 996.0, "RMAX": 30.0, "FSPD": 7.33084, "FDIR": 60.57883, "RENV": 80.0, "PENV": 1002.0, "VALIDT": 0, "DTG": "2026-09-09 03:00", "LATNOW": 34.3, "LONNOW": 135.9, "WINDNOW": 25.0, "DIRNOW": 8.0, "SPDNOW": 0.0, "TECH": "TRAK", "ADVNR": 33, "ATCFID": "WP222026", "NAME": "KROVANH", "FTECH": "JTWC", "FCST_DTG": "2026-09-09 06:00:00", "RUN_DTG": "2026-09-09 21:59:14", "BASIN": "WP", "STMNR": 22, "CAT_ID": null, "CAT_DESC": null, "MSGID": "WTPN51 PGTW 090900", "VALIDTIME": "2026-09-09 03:00:00" }, "geometry": { "type": "Point", "coordinates": [ 135.299988, 34.02 ] } },
{ "type": "Feature", "properties": { "ID": 87049, "LAT": 34.3, "LON": 135.9, "VMAX": 25.0, "MSLP": 999.0, "RMAX": 30.0, "FSPD": 8.30706, "FDIR": 70.08609, "RENV": 70.0, "PENV": 1004.0, "VALIDT": 0, "DTG": "2026-09-09 06:00", "LATNOW": 34.3, "LONNOW": 135.9, "WINDNOW": 25.0, "DIRNOW": 8.0, "SPDNOW": 0.0, "TECH": "TRAK", "ADVNR": 33, "ATCFID": "WP222026", "NAME": "KROVANH", "FTECH": "JTWC", "FCST_DTG": "2026-09-09 06:00:00", "RUN_DTG": "2026-09-09 21:59:14", "BASIN": "WP", "STMNR": 22, "CAT_ID": null, "CAT_DESC": null, "MSGID": "WTPN51 PGTW 090900", "VALIDTIME": "2026-09-09 06:00:00" }, "geometry": { "type": "Point", "coordinates": [ 135.899994, 34.299999 ] } },
{ "type": "Feature", "properties": { "ID": 87050, "LAT": 35.4, "LON": 139.6, "VMAX": 20.0, "MSLP": 1012.95825, "RMAX": 36.47837, "FSPD": 7.58625, "FDIR": 74.26129, "RENV": 250.0, "PENV": 1012.0, "VALIDT": 12, "DTG": "2026-09-09 18:00", "LATNOW": 34.3, "LONNOW": 135.9, "WINDNOW": 25.0, "DIRNOW": 8.0, "SPDNOW": 0.0, "TECH": "FCST", "ADVNR": 33, "ATCFID": "WP222026", "NAME": "KROVANH", "FTECH": "JTWC", "FCST_DTG": "2026-09-09 06:00:00", "RUN_DTG": "2026-09-09 21:59:14", "BASIN": "WP", "STMNR": 22, "CAT_ID": null, "CAT_DESC": null, "MSGID": "WTPN51 PGTW 090900", "VALIDTIME": "2026-09-09 18:00:00" }, "geometry": { "type": "Point", "coordinates": [ 139.600006, 35.400002 ] } },
{ "type": "Feature", "properties": { "ID": 87051, "LAT": 36.2, "LON": 143.1, "VMAX": 20.0, "MSLP": 1012.95825, "RMAX": 36.47837, "FSPD": 7.58625, "FDIR": 74.26129, "RENV": 250.0, "PENV": 1012.0, "VALIDT": 24, "DTG": "2026-09-10 06:00", "LATNOW": 34.3, "LONNOW": 135.9, "WINDNOW": 25.0, "DIRNOW": 8.0, "SPDNOW": 0.0, "TECH": "FCST", "ADVNR": 33, "ATCFID": "WP222026", "NAME": "KROVANH", "FTECH": "JTWC", "FCST_DTG": "2026-09-09 06:00:00", "RUN_DTG": "2026-09-09 21:59:14", "BASIN": "WP", "STMNR": 22, "CAT_ID": null, "CAT_DESC": null, "MSGID": "WTPN51 PGTW 090900", "VALIDTIME": "2026-09-10 06:00:00" }, "geometry": { "type": "Point", "coordinates": [ 143.100006, 36.200001 ] } },
{ "type": "Feature", "properties": { "ID": 87049, "LAT": 34.3, "LON": 135.9, "VMAX": 25.0, "MSLP": 999.0, "RMAX": 30.0, "FSPD": 8.30706, "FDIR": 70.08609, "RENV": 70.0, "PENV": 1004.0, "VALIDT": 0, "DTG": "2026-09-09 06:00", "LATNOW": 34.3, "LONNOW": 135.9, "WINDNOW": 25.0, "DIRNOW": 8.0, "SPDNOW": 0.0, "TECH": "TRAK", "ADVNR": 33, "ATCFID": "WP222026", "NAME": "KROVANH", "FTECH": "JTWC", "FCST_DTG": "2026-09-09 06:00:00", "RUN_DTG": "2026-09-09 21:59:14", "BASIN": "WP", "STMNR": 22, "CAT_ID": null, "CAT_DESC": null, "MSGID": "WTPN51 PGTW 090900", "VALIDTIME": "2026-09-09 06:00:00" }, "geometry": { "type": "LineString", "coordinates": [ [ 134.9, 20.3 ], [ 134.5, 20.3 ], [ 134.1, 20.3 ], [ 133.7, 20.3 ], [ 133.3, 20.6 ], [ 132.8, 20.6 ], [ 133.0, 20.7 ], [ 132.9, 21.1 ], [ 132.2, 21.5 ], [ 131.5, 22.0 ], [ 131.5, 22.2 ], [ 131.5, 22.4 ], [ 131.5, 22.5 ], [ 132.7, 22.0 ], [ 133.4, 22.0 ], [ 132.9, 22.6 ], [ 132.4, 23.1 ], [ 131.7, 23.9 ], [ 130.9, 24.8 ], [ 130.2, 26.1 ], [ 129.0, 27.0 ], [ 128.9, 28.0 ], [ 128.2, 29.0 ], [ 128.0, 29.5 ], [ 127.5, 29.8 ], [ 127.4, 28.7 ], [ 127.1, 28.4 ], [ 126.7, 27.8 ], [ 127.5, 26.2 ], [ 128.2, 25.5 ], [ 129.4, 25.4 ], [ 129.7, 25.9 ], [ 130.2, 25.5 ], [ 131.0, 25.7 ], [ 131.6, 25.8 ], [ 132.1, 26.2 ], [ 132.6, 27.1 ], [ 132.9, 28.2 ], [ 133.0, 29.1 ], [ 132.6, 30.3 ], [ 132.8, 31.1 ], [ 133.1, 31.9 ], [ 133.5, 33.1 ], [ 134.4, 33.6 ], [ 135.29999, 34.02 ], [ 135.9, 34.3 ] ] } },
{ "type": "Feature", "properties": { "ID": 87051, "LAT": 36.2, "LON": 143.1, "VMAX": 20.0, "MSLP": 1012.95825, "RMAX": 36.47837, "FSPD": 7.58625, "FDIR": 74.26129, "RENV": 250.0, "PENV": 1012.0, "VALIDT": 24, "DTG": "2026-09-10 06:00", "LATNOW": 34.3, "LONNOW": 135.9, "WINDNOW": 25.0, "DIRNOW": 8.0, "SPDNOW": 0.0, "TECH": "FCST", "ADVNR": 33, "ATCFID": "WP222026", "NAME": "KROVANH", "FTECH": "JTWC", "FCST_DTG": "2026-09-09 06:00:00", "RUN_DTG": "2026-09-09 21:59:14", "BASIN": "WP", "STMNR": 22, "CAT_ID": null, "CAT_DESC": null, "MSGID": "WTPN51 PGTW 090900", "VALIDTIME": "2026-09-10 06:00:00" }, "geometry": { "type": "LineString", "coordinates": [ [ 135.9, 34.3 ], [ 139.6, 35.4 ], [ 143.1, 36.2 ] ] } }
]
}
