{
"type": "FeatureCollection",
"crs": { "type": "name", "properties": { "name": "urn:ogc:def:crs:OGC:1.3:CRS84" } },
"features": [
{ "type": "Feature", "properties": { "ID": 48400, "LAT": 22.1, "LON": 169.3, "VMAX": 15.0, "MSLP": 1013.8515, "RMAX": 40.0, "FSPD": 4.55474, "FDIR": 289.8062, "RENV": 500.0, "PENV": 1012.0, "VALIDT": 0, "DTG": "2025-09-16 06:00", "LATNOW": 42.4, "LONNOW": 172.4, "WINDNOW": 90.0, "DIRNOW": 12.0, "SPDNOW": 0.0, "TECH": "TRAK", "ADVNR": 43, "ATCFID": "WP252025", "NAME": "NEOGURI", "FTECH": "JTWC", "FCST_DTG": "2025-09-29 00:00:00", "RUN_DTG": "2025-09-29 15:35:10", "BASIN": "WP", "STMNR": 25, "CAT_ID": null, "CAT_DESC": null, "MSGID": "WTPN53 PGTW 290300", "VALIDTIME": "2025-09-16 06:00:00" }, "geometry": { "type": "Point", "coordinates": [ 169.300003, 22.1 ] } },
{ "type": "Feature", "properties": { "ID": 48401, "LAT": 22.4, "LON": 168.4, "VMAX": 15.0, "MSLP": 1013.8515, "RMAX": 40.0, "FSPD": 3.90988, "FDIR": 301.75586, "RENV": 500.0, "PENV": 1012.0, "VALIDT": 0, "DTG": "2025-09-16 12:00", "LATNOW": 42.4, "LONNOW": 172.4, "WINDNOW": 90.0, "DIRNOW": 12.0, "SPDNOW": 0.0, "TECH": "TRAK", "ADVNR": 43, "ATCFID": "WP252025", "NAME": "NEOGURI", "FTECH": "JTWC", "FCST_DTG": "2025-09-29 00:00:00", "RUN_DTG": "2025-09-29 15:35:10", "BASIN": "WP", "STMNR": 25, "CAT_ID": null, "CAT_DESC": null, "MSGID": "WTPN53 PGTW 290300", "VALIDTIME": "2025-09-16 12:00:00" }, "geometry": { "type": "Point", "coordinates": [ 168.399994, 22.4 ] } },
{ "type": "Feature", "properties": { "ID": 48402, "LAT": 22.8, "LON": 167.7, "VMAX": 15.0, "MSLP": 1013.8515, "RMAX": 40.0, "FSPD": 2.89054, "FDIR": 280.25183, "RENV": 500.0, "PENV": 1012.0, "VALIDT": 0, "DTG": "2025-09-16 18:00", "LATNOW": 42.4, "LONNOW": 172.4, "WINDNOW": 90.0, "DIRNOW": 12.0, "SPDNOW": 0.0, "TECH": "TRAK", "ADVNR": 43, "ATCFID": "WP252025", "NAME": "NEOGURI", "FTECH": "JTWC", "FCST_DTG": "2025-09-29 00:00:00", "RUN_DTG": "2025-09-29 15:35:10", "BASIN": "WP", "STMNR": 25, "CAT_ID": null, "CAT_DESC": null, "MSGID": "WTPN53 PGTW 290300", "VALIDTIME": "2025-09-16 18:00:00" }, "geometry": { "type": "Point", "coordinates": [ 167.699997, 22.799999 ] } },
{ "type": "Feature", "properties": { "ID": 48403, "LAT": 22.9, "LON": 167.1, "VMAX": 15.0, "MSLP": 1013.8515, "RMAX": 40.0, "FSPD": 2.0973, "FDIR": 317.38068, "RENV": 500.0, "PENV": 1012.0, "VALIDT": 0, "DTG": "2025-09-17 00:00", "LATNOW": 42.4, "LONNOW": 172.4, "WINDNOW": 90.0, "DIRNOW": 12.0, "SPDNOW": 0.0, "TECH": "TRAK", "ADVNR": 43, "ATCFID": "WP252025", "NAME": "NEOGURI", "FTECH": "JTWC", "FCST_DTG": "2025-09-29 00:00:00", "RUN_DTG": "2025-09-29 15:35:10", "BASIN": "WP", "STMNR": 25, "CAT_ID": null, "CAT_DESC": null, "MSGID": "WTPN53 PGTW 290300", "VALIDTIME": "2025-09-17 00:00:00" }, "geometry": { "type": "Point", "coordinates": [ 167.100006, 22.9 ] } },
{ "type": "Feature", "properties": { "ID": 48404, "LAT": 23.2, "LON": 166.8, "VMAX": 15.0, "MSLP": 1013.8515, "RMAX": 40.0, "FSPD": 1.95945, "FDIR": 285.2209, "RENV": 500.0, "PENV": 1012.0, "VALIDT": 0, "DTG": "2025-09-17 06:00", "LATNOW": 42.4, "LONNOW": 172.4, "WINDNOW": 90.0, "DIRNOW": 12.0, "SPDNOW": 0.0, "TECH": "TRAK", "ADVNR": 43, "ATCFID": "WP252025", "NAME": "NEOGURI", "FTECH": "JTWC", "FCST_DTG": "2025-09-29 00:00:00", "RUN_DTG": "2025-09-29 15:35:10", "BASIN": "WP", "STMNR": 25, "CAT_ID": null, "CAT_DESC": null, "MSGID": "WTPN53 PGTW 290300", "VALIDTIME": "2025-09-17 06:00:00" }, "geometry": { "type": "Point", "coordinates": [ 166.800003, 23.200001 ] } },
{ "type": "Feature", "properties": { "ID": 48405, "LAT": 23.3, "LON": 166.4, "VMAX": 20.0, "MSLP": 1012.95825, "RMAX": 45.0, "FSPD": 3.77986, "FDIR": 269.99997, "RENV": 500.0, "PENV": 1012.0, "VALIDT": 0, "DTG": "2025-09-17 12:00", "LATNOW": 42.4, "LONNOW": 172.4, "WINDNOW": 90.0, "DIRNOW": 12.0, "SPDNOW": 0.0, "TECH": "TRAK", "ADVNR": 43, "ATCFID": "WP252025", "NAME": "NEOGURI", "FTECH": "JTWC", "FCST_DTG": "2025-09-29 00:00:00", "RUN_DTG": "2025-09-29 15:35:10", "BASIN": "WP", "STMNR": 25, "CAT_ID": null, "CAT_DESC": null, "MSGID": "WTPN53 PGTW 290300", "VALIDTIME": "2025-09-17 12:00:00" }, "geometry": { "type": "Point", "coordinates": [ 166.399994, 23.299999 ] } },
{ "type": "Feature", "properties": { "ID": 48406, "LAT": 23.3, "LON": 165.6, "VMAX": 20.0, "MSLP": 1012.95825, "RMAX": 45.0, "FSPD": 4.7249, "FDIR": 269.99997, "RENV": 500.0, "PENV": 1012.0, "VALIDT": 0, "DTG": "2025-09-17 18:00", "LATNOW": 42.4, "LONNOW": 172.4, "WINDNOW": 90.0, "DIRNOW": 12.0, "SPDNOW": 0.0, "TECH": "TRAK", "ADVNR": 43, "ATCFID": "WP252025", "NAME": "NEOGURI", "FTECH": "JTWC", "FCST_DTG": "2025-09-29 00:00:00", "RUN_DTG": "2025-09-29 15:35:10", "BASIN": "WP", "STMNR": 25, "CAT_ID": null, "CAT_DESC": null, "MSGID": "WTPN53 PGTW 290300", "VALIDTIME": "2025-09-17 18:00:00" }, "geometry": { "type": "Point", "coordinates": [ 165.600006, 23.299999 ] } },
{ "type": "Feature", "properties": { "ID": 48407, "LAT": 23.3, "LON": 164.6, "VMAX": 25.0, "MSLP": 1011.80975, "RMAX": 45.0, "FSPD": 3.5065, "FDIR": 234.06648, "RENV": 500.0, "PENV": 1012.0, "VALIDT": 0, "DTG": "2025-09-18 00:00", "LATNOW": 42.4, "LONNOW": 172.4, "WINDNOW": 90.0, "DIRNOW": 12.0, "SPDNOW": 0.0, "TECH": "TRAK", "ADVNR": 43, "ATCFID": "WP252025", "NAME": "NEOGURI", "FTECH": "JTWC", "FCST_DTG": "2025-09-29 00:00:00", "RUN_DTG": "2025-09-29 15:35:10", "BASIN": "WP", "STMNR": 25, "CAT_ID": null, "CAT_DESC": null, "MSGID": "WTPN53 PGTW 290300", "VALIDTIME": "2025-09-18 00:00:00" }, "geometry": { "type": "Point", "coordinates": [ 164.600006, 23.299999 ] } },
{ "type": "Feature", "properties": { "ID": 48408, "LAT": 22.9, "LON": 164.0, "VMAX": 25.0, "MSLP": 1011.80975, "RMAX": 45.0, "FSPD": 5.23632, "FDIR": 275.63815, "RENV": 500.0, "PENV": 1012.0, "VALIDT": 0, "DTG": "2025-09-18 06:00", "LATNOW": 42.4, "LONNOW": 172.4, "WINDNOW": 90.0, "DIRNOW": 12.0, "SPDNOW": 0.0, "TECH": "TRAK", "ADVNR": 43, "ATCFID": "WP252025", "NAME": "NEOGURI", "FTECH": "JTWC", "FCST_DTG": "2025-09-29 00:00:00", "RUN_DTG": "2025-09-29 15:35:10", "BASIN": "WP", "STMNR": 25, "CAT_ID": null, "CAT_DESC": null, "MSGID": "WTPN53 PGTW 290300", "VALIDTIME": "2025-09-18 06:00:00" }, "geometry": { "type": "Point", "coordinates": [ 164.0, 22.9 ] } },
{ "type": "Feature", "properties": { "ID": 48409, "LAT": 23.0, "LON": 162.9, "VMAX": 30.0, "MSLP": 1009.0, "RMAX": 50.0, "FSPD": 3.82871, "FDIR": 312.20807, "RENV": 110.0, "PENV": 1012.0, "VALIDT": 0, "DTG": "2025-09-18 12:00", "LATNOW": 42.4, "LONNOW": 172.4, "WINDNOW": 90.0, "DIRNOW": 12.0, "SPDNOW": 0.0, "TECH": "TRAK", "ADVNR": 43, "ATCFID": "WP252025", "NAME": "NEOGURI", "FTECH": "JTWC", "FCST_DTG": "2025-09-29 00:00:00", "RUN_DTG": "2025-09-29 15:35:10", "BASIN": "WP", "STMNR": 25, "CAT_ID": null, "CAT_DESC": null, "MSGID": "WTPN53 PGTW 290300", "VALIDTIME": "2025-09-18 12:00:00" }, "geometry": { "type": "Point", "coordinates": [ 162.899994, 23.0 ] } },
{ "type": "Feature", "properties": { "ID": 48410, "LAT": 23.5, "LON": 162.3, "VMAX": 35.0, "MSLP": 1009.0, "RMAX": 50.0, "FSPD": 4.36578, "FDIR": 283.63123, "RENV": 110.0, "PENV": 1012.0, "VALIDT": 0, "DTG": "2025-09-18 18:00", "LATNOW": 42.4, "LONNOW": 172.4, "WINDNOW": 90.0, "DIRNOW": 12.0, "SPDNOW": 0.0, "TECH": "TRAK", "ADVNR": 43, "ATCFID": "WP252025", "NAME": "NEOGURI", "FTECH": "JTWC", "FCST_DTG": "2025-09-29 00:00:00", "RUN_DTG": "2025-09-29 15:35:10", "BASIN": "WP", "STMNR": 25, "CAT_ID": null, "CAT_DESC": null, "MSGID": "WTPN53 PGTW 290300", "VALIDTIME": "2025-09-18 18:00:00" }, "geometry": { "type": "Point", "coordinates": [ 162.300003, 23.5 ] } },
{ "type": "Feature", "properties": { "ID": 48411, "LAT": 23.7, "LON": 161.4, "VMAX": 40.0, "MSLP": 1005.0, "RMAX": 45.0, "FSPD": 5.56783, "FDIR": 291.68988, "RENV": 110.0, "PENV": 1012.0, "VALIDT": 0, "DTG": "2025-09-19 00:00", "LATNOW": 42.4, "LONNOW": 172.4, "WINDNOW": 90.0, "DIRNOW": 12.0, "SPDNOW": 0.0, "TECH": "TRAK", "ADVNR": 43, "ATCFID": "WP252025", "NAME": "NEOGURI", "FTECH": "JTWC", "FCST_DTG": "2025-09-29 00:00:00", "RUN_DTG": "2025-09-29 15:35:10", "BASIN": "WP", "STMNR": 25, "CAT_ID": null, "CAT_DESC": null, "MSGID": "WTPN53 PGTW 290300", "VALIDTIME": "2025-09-19 00:00:00" }, "geometry": { "type": "Point", "coordinates": [ 161.399994, 23.700001 ] } },
{ "type": "Feature", "properties": { "ID": 48412, "LAT": 24.1, "LON": 160.3, "VMAX": 50.0, "MSLP": 1001.0, "RMAX": 45.0, "FSPD": 6.82798, "FDIR": 296.87604, "RENV": 110.0, "PENV": 1011.0, "VALIDT": 0, "DTG": "2025-09-19 06:00", "LATNOW": 42.4, "LONNOW": 172.4, "WINDNOW": 90.0, "DIRNOW": 12.0, "SPDNOW": 0.0, "TECH": "TRAK", "ADVNR": 43, "ATCFID": "WP252025", "NAME": "NEOGURI", "FTECH": "JTWC", "FCST_DTG": "2025-09-29 00:00:00", "RUN_DTG": "2025-09-29 15:35:10", "BASIN": "WP", "STMNR": 25, "CAT_ID": null, "CAT_DESC": null, "MSGID": "WTPN53 PGTW 290300", "VALIDTIME": "2025-09-19 06:00:00" }, "geometry": { "type": "Point", "coordinates": [ 160.300003, 24.1 ] } },
{ "type": "Feature", "properties": { "ID": 48413, "LAT": 24.7, "LON": 159.0, "VMAX": 60.0, "MSLP": 994.0, "RMAX": 30.0, "FSPD": 5.09982, "FDIR": 293.79712, "RENV": 120.0, "PENV": 1010.0, "VALIDT": 0, "DTG": "2025-09-19 12:00", "LATNOW": 42.4, "LONNOW": 172.4, "WINDNOW": 90.0, "DIRNOW": 12.0, "SPDNOW": 0.0, "TECH": "TRAK", "ADVNR": 43, "ATCFID": "WP252025", "NAME": "NEOGURI", "FTECH": "JTWC", "FCST_DTG": "2025-09-29 00:00:00", "RUN_DTG": "2025-09-29 15:35:10", "BASIN": "WP", "STMNR": 25, "CAT_ID": null, "CAT_DESC": null, "MSGID": "WTPN53 PGTW 290300", "VALIDTIME": "2025-09-19 12:00:00" }, "geometry": { "type": "Point", "coordinates": [ 159.0, 24.700001 ] } },
{ "type": "Feature", "properties": { "ID": 48414, "LAT": 25.1, "LON": 158.0, "VMAX": 65.0, "MSLP": 990.0, "RMAX": 20.0, "FSPD": 5.51446, "FDIR": 291.91064, "RENV": 160.0, "PENV": 1012.0, "VALIDT": 0, "DTG": "2025-09-19 18:00", "LATNOW": 42.4, "LONNOW": 172.4, "WINDNOW": 90.0, "DIRNOW": 12.0, "SPDNOW": 0.0, "TECH": "TRAK", "ADVNR": 43, "ATCFID": "WP252025", "NAME": "NEOGURI", "FTECH": "JTWC", "FCST_DTG": "2025-09-29 00:00:00", "RUN_DTG": "2025-09-29 15:35:10", "BASIN": "WP", "STMNR": 25, "CAT_ID": null, "CAT_DESC": null, "MSGID": "WTPN53 PGTW 290300", "VALIDTIME": "2025-09-19 18:00:00" }, "geometry": { "type": "Point", "coordinates": [ 158.0, 25.1 ] } },
{ "type": "Feature", "properties": { "ID": 48415, "LAT": 25.5, "LON": 156.9, "VMAX": 70.0, "MSLP": 986.0, "RMAX": 20.0, "FSPD": 4.24105, "FDIR": 299.02585, "RENV": 160.0, "PENV": 1010.0, "VALIDT": 0, "DTG": "2025-09-20 00:00", "LATNOW": 42.4, "LONNOW": 172.4, "WINDNOW": 90.0, "DIRNOW": 12.0, "SPDNOW": 0.0, "TECH": "TRAK", "ADVNR": 43, "ATCFID": "WP252025", "NAME": "NEOGURI", "FTECH": "JTWC", "FCST_DTG": "2025-09-29 00:00:00", "RUN_DTG": "2025-09-29 15:35:10", "BASIN": "WP", "STMNR": 25, "CAT_ID": null, "CAT_DESC": null, "MSGID": "WTPN53 PGTW 290300", "VALIDTIME": "2025-09-20 00:00:00" }, "geometry": { "type": "Point", "coordinates": [ 156.899994, 25.5 ] } },
{ "type": "Feature", "properties": { "ID": 48416, "LAT": 25.9, "LON": 156.1, "VMAX": 85.0, "MSLP": 980.0, "RMAX": 35.0, "FSPD": 5.31313, "FDIR": 286.88647, "RENV": 160.0, "PENV": 1010.0, "VALIDT": 0, "DTG": "2025-09-20 06:00", "LATNOW": 42.4, "LONNOW": 172.4, "WINDNOW": 90.0, "DIRNOW": 12.0, "SPDNOW": 0.0, "TECH": "TRAK", "ADVNR": 43, "ATCFID": "WP252025", "NAME": "NEOGURI", "FTECH": "JTWC", "FCST_DTG": "2025-09-29 00:00:00", "RUN_DTG": "2025-09-29 15:35:10", "BASIN": "WP", "STMNR": 25, "CAT_ID": null, "CAT_DESC": null, "MSGID": "WTPN53 PGTW 290300", "VALIDTIME": "2025-09-20 06:00:00" }, "geometry": { "type": "Point", "coordinates": [ 156.100006, 25.9 ] } },
{ "type": "Feature", "properties": { "ID": 48417, "LAT": 26.2, "LON": 155.0, "VMAX": 85.0, "MSLP": 970.0, "RMAX": 20.0, "FSPD": 6.3285, "FDIR": 299.19208, "RENV": 160.0, "PENV": 1008.0, "VALIDT": 0, "DTG": "2025-09-20 12:00", "LATNOW": 42.4, "LONNOW": 172.4, "WINDNOW": 90.0, "DIRNOW": 12.0, "SPDNOW": 0.0, "TECH": "TRAK", "ADVNR": 43, "ATCFID": "WP252025", "NAME": "NEOGURI", "FTECH": "JTWC", "FCST_DTG": "2025-09-29 00:00:00", "RUN_DTG": "2025-09-29 15:35:10", "BASIN": "WP", "STMNR": 25, "CAT_ID": null, "CAT_DESC": null, "MSGID": "WTPN53 PGTW 290300", "VALIDTIME": "2025-09-20 12:00:00" }, "geometry": { "type": "Point", "coordinates": [ 155.0, 26.200001 ] } },
{ "type": "Feature", "properties": { "ID": 48418, "LAT": 26.8, "LON": 153.8, "VMAX": 120.0, "MSLP": 973.0, "RMAX": 5.0, "FSPD": 5.44588, "FDIR": 292.20123, "RENV": 340.0, "PENV": 1008.0, "VALIDT": 0, "DTG": "2025-09-20 18:00", "LATNOW": 42.4, "LONNOW": 172.4, "WINDNOW": 90.0, "DIRNOW": 12.0, "SPDNOW": 0.0, "TECH": "TRAK", "ADVNR": 43, "ATCFID": "WP252025", "NAME": "NEOGURI", "FTECH": "JTWC", "FCST_DTG": "2025-09-29 00:00:00", "RUN_DTG": "2025-09-29 15:35:10", "BASIN": "WP", "STMNR": 25, "CAT_ID": null, "CAT_DESC": null, "MSGID": "WTPN53 PGTW 290300", "VALIDTIME": "2025-09-20 18:00:00" }, "geometry": { "type": "Point", "coordinates": [ 153.800003, 26.799999 ] } },
{ "type": "Feature", "properties": { "ID": 48419, "LAT": 27.2, "LON": 152.7, "VMAX": 125.0, "MSLP": 937.0, "RMAX": 12.0, "FSPD": 4.84744, "FDIR": 302.04834, "RENV": 170.0, "PENV": 1007.0, "VALIDT": 0, "DTG": "2025-09-21 00:00", "LATNOW": 42.4, "LONNOW": 172.4, "WINDNOW": 90.0, "DIRNOW": 12.0, "SPDNOW": 0.0, "TECH": "TRAK", "ADVNR": 43, "ATCFID": "WP252025", "NAME": "NEOGURI", "FTECH": "JTWC", "FCST_DTG": "2025-09-29 00:00:00", "RUN_DTG": "2025-09-29 15:35:10", "BASIN": "WP", "STMNR": 25, "CAT_ID": null, "CAT_DESC": null, "MSGID": "WTPN53 PGTW 290300", "VALIDTIME": "2025-09-21 00:00:00" }, "geometry": { "type": "Point", "coordinates": [ 152.699997, 27.200001 ] } },
{ "type": "Feature", "properties": { "ID": 48420, "LAT": 27.7, "LON": 151.8, "VMAX": 125.0, "MSLP": 936.0, "RMAX": 12.0, "FSPD": 4.4981, "FDIR": 336.19897, "RENV": 210.0, "PENV": 1011.0, "VALIDT": 0, "DTG": "2025-09-21 06:00", "LATNOW": 42.4, "LONNOW": 172.4, "WINDNOW": 90.0, "DIRNOW": 12.0, "SPDNOW": 0.0, "TECH": "TRAK", "ADVNR": 43, "ATCFID": "WP252025", "NAME": "NEOGURI", "FTECH": "JTWC", "FCST_DTG": "2025-09-29 00:00:00", "RUN_DTG": "2025-09-29 15:35:10", "BASIN": "WP", "STMNR": 25, "CAT_ID": null, "CAT_DESC": null, "MSGID": "WTPN53 PGTW 290300", "VALIDTIME": "2025-09-21 06:00:00" }, "geometry": { "type": "Point", "coordinates": [ 151.800003, 27.700001 ] } },
{ "type": "Feature", "properties": { "ID": 48421, "LAT": 28.5, "LON": 151.4, "VMAX": 120.0, "MSLP": 936.0, "RMAX": 12.0, "FSPD": 4.69135, "FDIR": 331.31403, "RENV": 240.0, "PENV": 1010.0, "VALIDT": 0, "DTG": "2025-09-21 12:00", "LATNOW": 42.4, "LONNOW": 172.4, "WINDNOW": 90.0, "DIRNOW": 12.0, "SPDNOW": 0.0, "TECH": "TRAK", "ADVNR": 43, "ATCFID": "WP252025", "NAME": "NEOGURI", "FTECH": "JTWC", "FCST_DTG": "2025-09-29 00:00:00", "RUN_DTG": "2025-09-29 15:35:10", "BASIN": "WP", "STMNR": 25, "CAT_ID": null, "CAT_DESC": null, "MSGID": "WTPN53 PGTW 290300", "VALIDTIME": "2025-09-21 12:00:00" }, "geometry": { "type": "Point", "coordinates": [ 151.399994, 28.5 ] } },
{ "type": "Feature", "properties": { "ID": 48422, "LAT": 29.3, "LON": 150.9, "VMAX": 110.0, "MSLP": 939.0, "RMAX": 12.0, "FSPD": 2.10594, "FDIR": 12.27625, "RENV": 280.0, "PENV": 1010.0, "VALIDT": 0, "DTG": "2025-09-21 18:00", "LATNOW": 42.4, "LONNOW": 172.4, "WINDNOW": 90.0, "DIRNOW": 12.0, "SPDNOW": 0.0, "TECH": "TRAK", "ADVNR": 43, "ATCFID": "WP252025", "NAME": "NEOGURI", "FTECH": "JTWC", "FCST_DTG": "2025-09-29 00:00:00", "RUN_DTG": "2025-09-29 15:35:10", "BASIN": "WP", "STMNR": 25, "CAT_ID": null, "CAT_DESC": null, "MSGID": "WTPN53 PGTW 290300", "VALIDTIME": "2025-09-21 18:00:00" }, "geometry": { "type": "Point", "coordinates": [ 150.899994, 29.299999 ] } },
{ "type": "Feature", "properties": { "ID": 48423, "LAT": 29.7, "LON": 151.0, "VMAX": 105.0, "MSLP": 947.0, "RMAX": 5.0, "FSPD": 4.39688, "FDIR": 54.19626, "RENV": 220.0, "PENV": 1010.0, "VALIDT": 0, "DTG": "2025-09-22 00:00", "LATNOW": 42.4, "LONNOW": 172.4, "WINDNOW": 90.0, "DIRNOW": 12.0, "SPDNOW": 0.0, "TECH": "TRAK", "ADVNR": 43, "ATCFID": "WP252025", "NAME": "NEOGURI", "FTECH": "JTWC", "FCST_DTG": "2025-09-29 00:00:00", "RUN_DTG": "2025-09-29 15:35:10", "BASIN": "WP", "STMNR": 25, "CAT_ID": null, "CAT_DESC": null, "MSGID": "WTPN53 PGTW 290300", "VALIDTIME": "2025-09-22 00:00:00" }, "geometry": { "type": "Point", "coordinates": [ 151.0, 29.700001 ] } },
{ "type": "Feature", "properties": { "ID": 48424, "LAT": 30.2, "LON": 151.8, "VMAX": 105.0, "MSLP": 950.0, "RMAX": 5.0, "FSPD": 3.5922, "FDIR": 81.76642, "RENV": 220.0, "PENV": 1010.0, "VALIDT": 0, "DTG": "2025-09-22 06:00", "LATNOW": 42.4, "LONNOW": 172.4, "WINDNOW": 90.0, "DIRNOW": 12.0, "SPDNOW": 0.0, "TECH": "TRAK", "ADVNR": 43, "ATCFID": "WP252025", "NAME": "NEOGURI", "FTECH": "JTWC", "FCST_DTG": "2025-09-29 00:00:00", "RUN_DTG": "2025-09-29 15:35:10", "BASIN": "WP", "STMNR": 25, "CAT_ID": null, "CAT_DESC": null, "MSGID": "WTPN53 PGTW 290300", "VALIDTIME": "2025-09-22 06:00:00" }, "geometry": { "type": "Point", "coordinates": [ 151.800003, 30.200001 ] } },
{ "type": "Feature", "properties": { "ID": 48425, "LAT": 30.3, "LON": 152.6, "VMAX": 90.0, "MSLP": 950.0, "RMAX": 5.0, "FSPD": 1.35872, "FDIR": 40.77768, "RENV": 270.0, "PENV": 1012.0, "VALIDT": 0, "DTG": "2025-09-22 12:00", "LATNOW": 42.4, "LONNOW": 172.4, "WINDNOW": 90.0, "DIRNOW": 12.0, "SPDNOW": 0.0, "TECH": "TRAK", "ADVNR": 43, "ATCFID": "WP252025", "NAME": "NEOGURI", "FTECH": "JTWC", "FCST_DTG": "2025-09-29 00:00:00", "RUN_DTG": "2025-09-29 15:35:10", "BASIN": "WP", "STMNR": 25, "CAT_ID": null, "CAT_DESC": null, "MSGID": "WTPN53 PGTW 290300", "VALIDTIME": "2025-09-22 12:00:00" }, "geometry": { "type": "Point", "coordinates": [ 152.600006, 30.299999 ] } },
{ "type": "Feature", "properties": { "ID": 48426, "LAT": 30.5, "LON": 152.8, "VMAX": 80.0, "MSLP": 963.0, "RMAX": 15.0, "FSPD": 1.32979, "FDIR": 90.0, "RENV": 270.0, "PENV": 1012.0, "VALIDT": 0, "DTG": "2025-09-22 18:00", "LATNOW": 42.4, "LONNOW": 172.4, "WINDNOW": 90.0, "DIRNOW": 12.0, "SPDNOW": 0.0, "TECH": "TRAK", "ADVNR": 43, "ATCFID": "WP252025", "NAME": "NEOGURI", "FTECH": "JTWC", "FCST_DTG": "2025-09-29 00:00:00", "RUN_DTG": "2025-09-29 15:35:10", "BASIN": "WP", "STMNR": 25, "CAT_ID": null, "CAT_DESC": null, "MSGID": "WTPN53 PGTW 290300", "VALIDTIME": "2025-09-22 18:00:00" }, "geometry": { "type": "Point", "coordinates": [ 152.800003, 30.5 ] } },
{ "type": "Feature", "properties": { "ID": 48427, "LAT": 30.5, "LON": 153.1, "VMAX": 85.0, "MSLP": 970.0, "RMAX": 15.0, "FSPD": 1.35753, "FDIR": 40.71942, "RENV": 180.0, "PENV": 1006.0, "VALIDT": 0, "DTG": "2025-09-23 00:00", "LATNOW": 42.4, "LONNOW": 172.4, "WINDNOW": 90.0, "DIRNOW": 12.0, "SPDNOW": 0.0, "TECH": "TRAK", "ADVNR": 43, "ATCFID": "WP252025", "NAME": "NEOGURI", "FTECH": "JTWC", "FCST_DTG": "2025-09-29 00:00:00", "RUN_DTG": "2025-09-29 15:35:10", "BASIN": "WP", "STMNR": 25, "CAT_ID": null, "CAT_DESC": null, "MSGID": "WTPN53 PGTW 290300", "VALIDTIME": "2025-09-23 00:00:00" }, "geometry": { "type": "Point", "coordinates": [ 153.100006, 30.5 ] } },
{ "type": "Feature", "properties": { "ID": 48428, "LAT": 30.7, "LON": 153.3, "VMAX": 75.0, "MSLP": 963.0, "RMAX": 15.0, "FSPD": 0.51445, "FDIR": 179.99997, "RENV": 200.0, "PENV": 1010.0, "VALIDT": 0, "DTG": "2025-09-23 06:00", "LATNOW": 42.4, "LONNOW": 172.4, "WINDNOW": 90.0, "DIRNOW": 12.0, "SPDNOW": 0.0, "TECH": "TRAK", "ADVNR": 43, "ATCFID": "WP252025", "NAME": "NEOGURI", "FTECH": "JTWC", "FCST_DTG": "2025-09-29 00:00:00", "RUN_DTG": "2025-09-29 15:35:10", "BASIN": "WP", "STMNR": 25, "CAT_ID": null, "CAT_DESC": null, "MSGID": "WTPN53 PGTW 290300", "VALIDTIME": "2025-09-23 06:00:00" }, "geometry": { "type": "Point", "coordinates": [ 153.300003, 30.700001 ] } },
{ "type": "Feature", "properties": { "ID": 48429, "LAT": 30.6, "LON": 153.3, "VMAX": 75.0, "MSLP": 970.0, "RMAX": 25.0, "FSPD": 2.04993, "FDIR": 120.12686, "RENV": 300.0, "PENV": 1010.0, "VALIDT": 0, "DTG": "2025-09-23 12:00", "LATNOW": 42.4, "LONNOW": 172.4, "WINDNOW": 90.0, "DIRNOW": 12.0, "SPDNOW": 0.0, "TECH": "TRAK", "ADVNR": 43, "ATCFID": "WP252025", "NAME": "NEOGURI", "FTECH": "JTWC", "FCST_DTG": "2025-09-29 00:00:00", "RUN_DTG": "2025-09-29 15:35:10", "BASIN": "WP", "STMNR": 25, "CAT_ID": null, "CAT_DESC": null, "MSGID": "WTPN53 PGTW 290300", "VALIDTIME": "2025-09-23 12:00:00" }, "geometry": { "type": "Point", "coordinates": [ 153.300003, 30.6 ] } },
{ "type": "Feature", "properties": { "ID": 48430, "LAT": 30.4, "LON": 153.7, "VMAX": 65.0, "MSLP": 969.0, "RMAX": 30.0, "FSPD": 2.66232, "FDIR": 90.0, "RENV": 300.0, "PENV": 1010.0, "VALIDT": 0, "DTG": "2025-09-23 18:00", "LATNOW": 42.4, "LONNOW": 172.4, "WINDNOW": 90.0, "DIRNOW": 12.0, "SPDNOW": 0.0, "TECH": "TRAK", "ADVNR": 43, "ATCFID": "WP252025", "NAME": "NEOGURI", "FTECH": "JTWC", "FCST_DTG": "2025-09-29 00:00:00", "RUN_DTG": "2025-09-29 15:35:10", "BASIN": "WP", "STMNR": 25, "CAT_ID": null, "CAT_DESC": null, "MSGID": "WTPN53 PGTW 290300", "VALIDTIME": "2025-09-23 18:00:00" }, "geometry": { "type": "Point", "coordinates": [ 153.699997, 30.4 ] } },
{ "type": "Feature", "properties": { "ID": 48431, "LAT": 30.4, "LON": 154.3, "VMAX": 60.0, "MSLP": 976.0, "RMAX": 35.0, "FSPD": 4.90538, "FDIR": 83.9801, "RENV": 280.0, "PENV": 1010.0, "VALIDT": 0, "DTG": "2025-09-24 00:00", "LATNOW": 42.4, "LONNOW": 172.4, "WINDNOW": 90.0, "DIRNOW": 12.0, "SPDNOW": 0.0, "TECH": "TRAK", "ADVNR": 43, "ATCFID": "WP252025", "NAME": "NEOGURI", "FTECH": "JTWC", "FCST_DTG": "2025-09-29 00:00:00", "RUN_DTG": "2025-09-29 15:35:10", "BASIN": "WP", "STMNR": 25, "CAT_ID": null, "CAT_DESC": null, "MSGID": "WTPN53 PGTW 290300", "VALIDTIME": "2025-09-24 00:00:00" }, "geometry": { "type": "Point", "coordinates": [ 154.300003, 30.4 ] } },
{ "type": "Feature", "properties": { "ID": 48432, "LAT": 30.5, "LON": 155.4, "VMAX": 50.0, "MSLP": 978.0, "RMAX": 40.0, "FSPD": 7.15545, "FDIR": 59.78351, "RENV": 300.0, "PENV": 1009.0, "VALIDT": 0, "DTG": "2025-09-24 06:00", "LATNOW": 42.4, "LONNOW": 172.4, "WINDNOW": 90.0, "DIRNOW": 12.0, "SPDNOW": 0.0, "TECH": "TRAK", "ADVNR": 43, "ATCFID": "WP252025", "NAME": "NEOGURI", "FTECH": "JTWC", "FCST_DTG": "2025-09-29 00:00:00", "RUN_DTG": "2025-09-29 15:35:10", "BASIN": "WP", "STMNR": 25, "CAT_ID": null, "CAT_DESC": null, "MSGID": "WTPN53 PGTW 290300", "VALIDTIME": "2025-09-24 06:00:00" }, "geometry": { "type": "Point", "coordinates": [ 155.399994, 30.5 ] } },
{ "type": "Feature", "properties": { "ID": 48433, "LAT": 31.2, "LON": 156.8, "VMAX": 60.0, "MSLP": 987.0, "RMAX": 40.0, "FSPD": 6.06689, "FDIR": 21.13272, "RENV": 300.0, "PENV": 1009.0, "VALIDT": 0, "DTG": "2025-09-24 12:00", "LATNOW": 42.4, "LONNOW": 172.4, "WINDNOW": 90.0, "DIRNOW": 12.0, "SPDNOW": 0.0, "TECH": "TRAK", "ADVNR": 43, "ATCFID": "WP252025", "NAME": "NEOGURI", "FTECH": "JTWC", "FCST_DTG": "2025-09-29 00:00:00", "RUN_DTG": "2025-09-29 15:35:10", "BASIN": "WP", "STMNR": 25, "CAT_ID": null, "CAT_DESC": null, "MSGID": "WTPN53 PGTW 290300", "VALIDTIME": "2025-09-24 12:00:00" }, "geometry": { "type": "Point", "coordinates": [ 156.800003, 31.200001 ] } },
{ "type": "Feature", "properties": { "ID": 48434, "LAT": 32.3, "LON": 157.3, "VMAX": 65.0, "MSLP": 980.0, "RMAX": 30.0, "FSPD": 2.60852, "FDIR": 350.4302, "RENV": 265.0, "PENV": 1008.0, "VALIDT": 0, "DTG": "2025-09-24 18:00", "LATNOW": 42.4, "LONNOW": 172.4, "WINDNOW": 90.0, "DIRNOW": 12.0, "SPDNOW": 0.0, "TECH": "TRAK", "ADVNR": 43, "ATCFID": "WP252025", "NAME": "NEOGURI", "FTECH": "JTWC", "FCST_DTG": "2025-09-29 00:00:00", "RUN_DTG": "2025-09-29 15:35:10", "BASIN": "WP", "STMNR": 25, "CAT_ID": null, "CAT_DESC": null, "MSGID": "WTPN53 PGTW 290300", "VALIDTIME": "2025-09-24 18:00:00" }, "geometry": { "type": "Point", "coordinates": [ 157.300003, 32.299999 ] } },
{ "type": "Feature", "properties": { "ID": 48435, "LAT": 32.8, "LON": 157.2, "VMAX": 65.0, "MSLP": 976.0, "RMAX": 30.0, "FSPD": 4.8614, "FDIR": 282.21875, "RENV": 265.0, "PENV": 1008.0, "VALIDT": 0, "DTG": "2025-09-25 00:00", "LATNOW": 42.4, "LONNOW": 172.4, "WINDNOW": 90.0, "DIRNOW": 12.0, "SPDNOW": 0.0, "TECH": "TRAK", "ADVNR": 43, "ATCFID": "WP252025", "NAME": "NEOGURI", "FTECH": "JTWC", "FCST_DTG": "2025-09-29 00:00:00", "RUN_DTG": "2025-09-29 15:35:10", "BASIN": "WP", "STMNR": 25, "CAT_ID": null, "CAT_DESC": null, "MSGID": "WTPN53 PGTW 290300", "VALIDTIME": "2025-09-25 00:00:00" }, "geometry": { "type": "Point", "coordinates": [ 157.199997, 32.799999 ] } },
{ "type": "Feature", "properties": { "ID": 48436, "LAT": 33.0, "LON": 156.1, "VMAX": 70.0, "MSLP": 975.0, "RMAX": 25.0, "FSPD": 6.04279, "FDIR": 239.28279, "RENV": 315.0, "PENV": 1008.0, "VALIDT": 0, "DTG": "2025-09-25 06:00", "LATNOW": 42.4, "LONNOW": 172.4, "WINDNOW": 90.0, "DIRNOW": 12.0, "SPDNOW": 0.0, "TECH": "TRAK", "ADVNR": 43, "ATCFID": "WP252025", "NAME": "NEOGURI", "FTECH": "JTWC", "FCST_DTG": "2025-09-29 00:00:00", "RUN_DTG": "2025-09-29 15:35:10", "BASIN": "WP", "STMNR": 25, "CAT_ID": null, "CAT_DESC": null, "MSGID": "WTPN53 PGTW 290300", "VALIDTIME": "2025-09-25 06:00:00" }, "geometry": { "type": "Point", "coordinates": [ 156.100006, 33.0 ] } },
{ "type": "Feature", "properties": { "ID": 48437, "LAT": 32.4, "LON": 154.9, "VMAX": 60.0, "MSLP": 969.0, "RMAX": 30.0, "FSPD": 3.41428, "FDIR": 243.12608, "RENV": 290.0, "PENV": 1008.0, "VALIDT": 0, "DTG": "2025-09-25 12:00", "LATNOW": 42.4, "LONNOW": 172.4, "WINDNOW": 90.0, "DIRNOW": 12.0, "SPDNOW": 0.0, "TECH": "TRAK", "ADVNR": 43, "ATCFID": "WP252025", "NAME": "NEOGURI", "FTECH": "JTWC", "FCST_DTG": "2025-09-29 00:00:00", "RUN_DTG": "2025-09-29 15:35:10", "BASIN": "WP", "STMNR": 25, "CAT_ID": null, "CAT_DESC": null, "MSGID": "WTPN53 PGTW 290300", "VALIDTIME": "2025-09-25 12:00:00" }, "geometry": { "type": "Point", "coordinates": [ 154.899994, 32.400002 ] } },
{ "type": "Feature", "properties": { "ID": 48438, "LAT": 32.1, "LON": 154.2, "VMAX": 60.0, "MSLP": 979.0, "RMAX": 30.0, "FSPD": 2.24005, "FDIR": 256.72327, "RENV": 290.0, "PENV": 1010.0, "VALIDT": 0, "DTG": "2025-09-25 18:00", "LATNOW": 42.4, "LONNOW": 172.4, "WINDNOW": 90.0, "DIRNOW": 12.0, "SPDNOW": 0.0, "TECH": "TRAK", "ADVNR": 43, "ATCFID": "WP252025", "NAME": "NEOGURI", "FTECH": "JTWC", "FCST_DTG": "2025-09-29 00:00:00", "RUN_DTG": "2025-09-29 15:35:10", "BASIN": "WP", "STMNR": 25, "CAT_ID": null, "CAT_DESC": null, "MSGID": "WTPN53 PGTW 290300", "VALIDTIME": "2025-09-25 18:00:00" }, "geometry": { "type": "Point", "coordinates": [ 154.199997, 32.099998 ] } },
{ "type": "Feature", "properties": { "ID": 48439, "LAT": 32.0, "LON": 153.7, "VMAX": 60.0, "MSLP": 982.0, "RMAX": 25.0, "FSPD": 0.67434, "FDIR": 319.71802, "RENV": 290.0, "PENV": 1010.0, "VALIDT": 0, "DTG": "2025-09-26 00:00", "LATNOW": 42.4, "LONNOW": 172.4, "WINDNOW": 90.0, "DIRNOW": 12.0, "SPDNOW": 0.0, "TECH": "TRAK", "ADVNR": 43, "ATCFID": "WP252025", "NAME": "NEOGURI", "FTECH": "JTWC", "FCST_DTG": "2025-09-29 00:00:00", "RUN_DTG": "2025-09-29 15:35:10", "BASIN": "WP", "STMNR": 25, "CAT_ID": null, "CAT_DESC": null, "MSGID": "WTPN53 PGTW 290300", "VALIDTIME": "2025-09-26 00:00:00" }, "geometry": { "type": "Point", "coordinates": [ 153.699997, 32.0 ] } },
{ "type": "Feature", "properties": { "ID": 48440, "LAT": 32.1, "LON": 153.6, "VMAX": 55.0, "MSLP": 982.0, "RMAX": 20.0, "FSPD": 1.11754, "FDIR": 157.02362, "RENV": 290.0, "PENV": 1010.0, "VALIDT": 0, "DTG": "2025-09-26 06:00", "LATNOW": 42.4, "LONNOW": 172.4, "WINDNOW": 90.0, "DIRNOW": 12.0, "SPDNOW": 0.0, "TECH": "TRAK", "ADVNR": 43, "ATCFID": "WP252025", "NAME": "NEOGURI", "FTECH": "JTWC", "FCST_DTG": "2025-09-29 00:00:00", "RUN_DTG": "2025-09-29 15:35:10", "BASIN": "WP", "STMNR": 25, "CAT_ID": null, "CAT_DESC": null, "MSGID": "WTPN53 PGTW 290300", "VALIDTIME": "2025-09-26 06:00:00" }, "geometry": { "type": "Point", "coordinates": [ 153.600006, 32.099998 ] } },
{ "type": "Feature", "properties": { "ID": 48441, "LAT": 31.9, "LON": 153.7, "VMAX": 55.0, "MSLP": 984.0, "RMAX": 30.0, "FSPD": 3.42913, "FDIR": 116.74777, "RENV": 290.0, "PENV": 1010.0, "VALIDT": 0, "DTG": "2025-09-26 12:00", "LATNOW": 42.4, "LONNOW": 172.4, "WINDNOW": 90.0, "DIRNOW": 12.0, "SPDNOW": 0.0, "TECH": "TRAK", "ADVNR": 43, "ATCFID": "WP252025", "NAME": "NEOGURI", "FTECH": "JTWC", "FCST_DTG": "2025-09-29 00:00:00", "RUN_DTG": "2025-09-29 15:35:10", "BASIN": "WP", "STMNR": 25, "CAT_ID": null, "CAT_DESC": null, "MSGID": "WTPN53 PGTW 290300", "VALIDTIME": "2025-09-26 12:00:00" }, "geometry": { "type": "Point", "coordinates": [ 153.699997, 31.9 ] } },
{ "type": "Feature", "properties": { "ID": 48442, "LAT": 31.6, "LON": 154.4, "VMAX": 50.0, "MSLP": 984.0, "RMAX": 25.0, "FSPD": 4.8498, "FDIR": 96.08908, "RENV": 290.0, "PENV": 1010.0, "VALIDT": 0, "DTG": "2025-09-26 18:00", "LATNOW": 42.4, "LONNOW": 172.4, "WINDNOW": 90.0, "DIRNOW": 12.0, "SPDNOW": 0.0, "TECH": "TRAK", "ADVNR": 43, "ATCFID": "WP252025", "NAME": "NEOGURI", "FTECH": "JTWC", "FCST_DTG": "2025-09-29 00:00:00", "RUN_DTG": "2025-09-29 15:35:10", "BASIN": "WP", "STMNR": 25, "CAT_ID": null, "CAT_DESC": null, "MSGID": "WTPN53 PGTW 290300", "VALIDTIME": "2025-09-26 18:00:00" }, "geometry": { "type": "Point", "coordinates": [ 154.399994, 31.6 ] } },
{ "type": "Feature", "properties": { "ID": 48443, "LAT": 31.5, "LON": 155.5, "VMAX": 60.0, "MSLP": 986.0, "RMAX": 25.0, "FSPD": 7.29921, "FDIR": 73.62531, "RENV": 240.0, "PENV": 1008.0, "VALIDT": 0, "DTG": "2025-09-27 00:00", "LATNOW": 42.4, "LONNOW": 172.4, "WINDNOW": 90.0, "DIRNOW": 12.0, "SPDNOW": 0.0, "TECH": "TRAK", "ADVNR": 43, "ATCFID": "WP252025", "NAME": "NEOGURI", "FTECH": "JTWC", "FCST_DTG": "2025-09-29 00:00:00", "RUN_DTG": "2025-09-29 15:35:10", "BASIN": "WP", "STMNR": 25, "CAT_ID": null, "CAT_DESC": null, "MSGID": "WTPN53 PGTW 290300", "VALIDTIME": "2025-09-27 00:00:00" }, "geometry": { "type": "Point", "coordinates": [ 155.5, 31.5 ] } },
{ "type": "Feature", "properties": { "ID": 48444, "LAT": 31.9, "LON": 157.1, "VMAX": 60.0, "MSLP": 981.0, "RMAX": 25.0, "FSPD": 7.68901, "FDIR": 74.47699, "RENV": 200.0, "PENV": 1007.0, "VALIDT": 0, "DTG": "2025-09-27 06:00", "LATNOW": 42.4, "LONNOW": 172.4, "WINDNOW": 90.0, "DIRNOW": 12.0, "SPDNOW": 0.0, "TECH": "TRAK", "ADVNR": 43, "ATCFID": "WP252025", "NAME": "NEOGURI", "FTECH": "JTWC", "FCST_DTG": "2025-09-29 00:00:00", "RUN_DTG": "2025-09-29 15:35:10", "BASIN": "WP", "STMNR": 25, "CAT_ID": null, "CAT_DESC": null, "MSGID": "WTPN53 PGTW 290300", "VALIDTIME": "2025-09-27 06:00:00" }, "geometry": { "type": "Point", "coordinates": [ 157.100006, 31.9 ] } },
{ "type": "Feature", "properties": { "ID": 48445, "LAT": 32.3, "LON": 158.8, "VMAX": 65.0, "MSLP": 982.0, "RMAX": 25.0, "FSPD": 8.69126, "FDIR": 57.81058, "RENV": 200.0, "PENV": 1008.0, "VALIDT": 0, "DTG": "2025-09-27 12:00", "LATNOW": 42.4, "LONNOW": 172.4, "WINDNOW": 90.0, "DIRNOW": 12.0, "SPDNOW": 0.0, "TECH": "TRAK", "ADVNR": 43, "ATCFID": "WP252025", "NAME": "NEOGURI", "FTECH": "JTWC", "FCST_DTG": "2025-09-29 00:00:00", "RUN_DTG": "2025-09-29 15:35:10", "BASIN": "WP", "STMNR": 25, "CAT_ID": null, "CAT_DESC": null, "MSGID": "WTPN53 PGTW 290300", "VALIDTIME": "2025-09-27 12:00:00" }, "geometry": { "type": "Point", "coordinates": [ 158.800003, 32.299999 ] } },
{ "type": "Feature", "properties": { "ID": 48446, "LAT": 33.2, "LON": 160.5, "VMAX": 75.0, "MSLP": 979.0, "RMAX": 20.0, "FSPD": 9.90319, "FDIR": 55.1507, "RENV": 170.0, "PENV": 1008.0, "VALIDT": 0, "DTG": "2025-09-27 18:00", "LATNOW": 42.4, "LONNOW": 172.4, "WINDNOW": 90.0, "DIRNOW": 12.0, "SPDNOW": 0.0, "TECH": "TRAK", "ADVNR": 43, "ATCFID": "WP252025", "NAME": "NEOGURI", "FTECH": "JTWC", "FCST_DTG": "2025-09-29 00:00:00", "RUN_DTG": "2025-09-29 15:35:10", "BASIN": "WP", "STMNR": 25, "CAT_ID": null, "CAT_DESC": null, "MSGID": "WTPN53 PGTW 290300", "VALIDTIME": "2025-09-27 18:00:00" }, "geometry": { "type": "Point", "coordinates": [ 160.5, 33.200001 ] } },
{ "type": "Feature", "properties": { "ID": 48447, "LAT": 34.3, "LON": 162.4, "VMAX": 95.0, "MSLP": 972.0, "RMAX": 20.0, "FSPD": 12.71659, "FDIR": 52.64014, "RENV": 155.0, "PENV": 1008.0, "VALIDT": 0, "DTG": "2025-09-28 00:00", "LATNOW": 42.4, "LONNOW": 172.4, "WINDNOW": 90.0, "DIRNOW": 12.0, "SPDNOW": 0.0, "TECH": "TRAK", "ADVNR": 43, "ATCFID": "WP252025", "NAME": "NEOGURI", "FTECH": "JTWC", "FCST_DTG": "2025-09-29 00:00:00", "RUN_DTG": "2025-09-29 15:35:10", "BASIN": "WP", "STMNR": 25, "CAT_ID": null, "CAT_DESC": null, "MSGID": "WTPN53 PGTW 290300", "VALIDTIME": "2025-09-28 00:00:00" }, "geometry": { "type": "Point", "coordinates": [ 162.399994, 34.299999 ] } },
{ "type": "Feature", "properties": { "ID": 48448, "LAT": 35.8, "LON": 164.8, "VMAX": 110.0, "MSLP": 957.0, "RMAX": 12.0, "FSPD": 15.29281, "FDIR": 42.26242, "RENV": 135.0, "PENV": 1008.0, "VALIDT": 0, "DTG": "2025-09-28 06:00", "LATNOW": 42.4, "LONNOW": 172.4, "WINDNOW": 90.0, "DIRNOW": 12.0, "SPDNOW": 0.0, "TECH": "TRAK", "ADVNR": 43, "ATCFID": "WP252025", "NAME": "NEOGURI", "FTECH": "JTWC", "FCST_DTG": "2025-09-29 00:00:00", "RUN_DTG": "2025-09-29 15:35:10", "BASIN": "WP", "STMNR": 25, "CAT_ID": null, "CAT_DESC": null, "MSGID": "WTPN53 PGTW 290300", "VALIDTIME": "2025-09-28 06:00:00" }, "geometry": { "type": "Point", "coordinates": [ 164.800003, 35.799999 ] } },
{ "type": "Feature", "properties": { "ID": 48449, "LAT": 38.0, "LON": 167.3, "VMAX": 105.0, "MSLP": 947.0, "RMAX": 15.0, "FSPD": 15.22095, "FDIR": 38.98016, "RENV": 215.0, "PENV": 1010.0, "VALIDT": 0, "DTG": "2025-09-28 12:00", "LATNOW": 42.4, "LONNOW": 172.4, "WINDNOW": 90.0, "DIRNOW": 12.0, "SPDNOW": 0.0, "TECH": "TRAK", "ADVNR": 43, "ATCFID": "WP252025", "NAME": "NEOGURI", "FTECH": "JTWC", "FCST_DTG": "2025-09-29 00:00:00", "RUN_DTG": "2025-09-29 15:35:10", "BASIN": "WP", "STMNR": 25, "CAT_ID": null, "CAT_DESC": null, "MSGID": "WTPN53 PGTW 290300", "VALIDTIME": "2025-09-28 12:00:00" }, "geometry": { "type": "Point", "coordinates": [ 167.300003, 38.0 ] } },
{ "type": "Feature", "properties": { "ID": 48450, "LAT": 40.3, "LON": 169.7, "VMAX": 95.0, "MSLP": 953.0, "RMAX": 15.0, "FSPD": 15.01451, "FDIR": 43.98456, "RENV": 215.0, "PENV": 1012.0, "VALIDT": 0, "DTG": "2025-09-28 18:00", "LATNOW": 42.4, "LONNOW": 172.4, "WINDNOW": 90.0, "DIRNOW": 12.0, "SPDNOW": 0.0, "TECH": "TRAK", "ADVNR": 43, "ATCFID": "WP252025", "NAME": "NEOGURI", "FTECH": "JTWC", "FCST_DTG": "2025-09-29 00:00:00", "RUN_DTG": "2025-09-29 15:35:10", "BASIN": "WP", "STMNR": 25, "CAT_ID": null, "CAT_DESC": null, "MSGID": "WTPN53 PGTW 290300", "VALIDTIME": "2025-09-28 18:00:00" }, "geometry": { "type": "Point", "coordinates": [ 169.699997, 40.299999 ] } },
{ "type": "Feature", "properties": { "ID": 48451, "LAT": 42.4, "LON": 172.4, "VMAX": 90.0, "MSLP": 961.0, "RMAX": 15.0, "FSPD": 12.21204, "FDIR": 62.39423, "RENV": 265.0, "PENV": 1010.0, "VALIDT": 0, "DTG": "2025-09-29 00:00", "LATNOW": 42.4, "LONNOW": 172.4, "WINDNOW": 90.0, "DIRNOW": 12.0, "SPDNOW": 0.0, "TECH": "TRAK", "ADVNR": 43, "ATCFID": "WP252025", "NAME": "NEOGURI", "FTECH": "JTWC", "FCST_DTG": "2025-09-29 00:00:00", "RUN_DTG": "2025-09-29 15:35:10", "BASIN": "WP", "STMNR": 25, "CAT_ID": null, "CAT_DESC": null, "MSGID": "WTPN53 PGTW 290300", "VALIDTIME": "2025-09-29 00:00:00" }, "geometry": { "type": "Point", "coordinates": [ 172.399994, 42.400002 ] } },
{ "type": "Feature", "properties": { "ID": 48452, "LAT": 44.6, "LON": 178.2, "VMAX": 70.0, "MSLP": 989.9886, "RMAX": 19.84963, "FSPD": 11.60915, "FDIR": 81.07751, "RENV": 180.0, "PENV": 1012.0, "VALIDT": 12, "DTG": "2025-09-29 12:00", "LATNOW": 42.4, "LONNOW": 172.4, "WINDNOW": 90.0, "DIRNOW": 12.0, "SPDNOW": 0.0, "TECH": "FCST", "ADVNR": 43, "ATCFID": "WP252025", "NAME": "NEOGURI", "FTECH": "JTWC", "FCST_DTG": "2025-09-29 00:00:00", "RUN_DTG": "2025-09-29 15:35:10", "BASIN": "WP", "STMNR": 25, "CAT_ID": null, "CAT_DESC": null, "MSGID": "WTPN53 PGTW 290300", "VALIDTIME": "2025-09-29 12:00:00" }, "geometry": { "type": "Point", "coordinates": [ 178.199997, 44.599998 ] } },
{ "type": "Feature", "properties": { "ID": 48453, "LAT": 45.3, "LON": -175.5, "VMAX": 50.0, "MSLP": 1002.2391, "RMAX": 22.8964, "FSPD": 11.60915, "FDIR": 81.07751, "RENV": 250.0, "PENV": 1012.0, "VALIDT": 24, "DTG": "2025-09-30 00:00", "LATNOW": 42.4, "LONNOW": 172.4, "WINDNOW": 90.0, "DIRNOW": 12.0, "SPDNOW": 0.0, "TECH": "FCST", "ADVNR": 43, "ATCFID": "WP252025", "NAME": "NEOGURI", "FTECH": "JTWC", "FCST_DTG": "2025-09-29 00:00:00", "RUN_DTG": "2025-09-29 15:35:10", "BASIN": "WP", "STMNR": 25, "CAT_ID": null, "CAT_DESC": null, "MSGID": "WTPN53 PGTW 290300", "VALIDTIME": "2025-09-30 00:00:00" }, "geometry": { "type": "Point", "coordinates": [ -175.5, 45.299999 ] } },
{ "type": "Feature", "properties": { "ID": 48451, "LAT": 42.4, "LON": 172.4, "VMAX": 90.0, "MSLP": 961.0, "RMAX": 15.0, "FSPD": 12.21204, "FDIR": 62.39423, "RENV": 265.0, "PENV": 1010.0, "VALIDT": 0, "DTG": "2025-09-29 00:00", "LATNOW": 42.4, "LONNOW": 172.4, "WINDNOW": 90.0, "DIRNOW": 12.0, "SPDNOW": 0.0, "TECH": "TRAK", "ADVNR": 43, "ATCFID": "WP252025", "NAME": "NEOGURI", "FTECH": "JTWC", "FCST_DTG": "2025-09-29 00:00:00", "RUN_DTG": "2025-09-29 15:35:10", "BASIN": "WP", "STMNR": 25, "CAT_ID": null, "CAT_DESC": null, "MSGID": "WTPN53 PGTW 290300", "VALIDTIME": "2025-09-29 00:00:00" }, "geometry": { "type": "LineString", "coordinates": [ [ 169.3, 22.1 ], [ 168.4, 22.4 ], [ 167.7, 22.8 ], [ 167.1, 22.9 ], [ 166.8, 23.2 ], [ 166.4, 23.3 ], [ 165.6, 23.3 ], [ 164.6, 23.3 ], [ 164.0, 22.9 ], [ 162.9, 23.0 ], [ 162.3, 23.5 ], [ 161.4, 23.7 ], [ 160.3, 24.1 ], [ 159.0, 24.7 ], [ 158.0, 25.1 ], [ 156.9, 25.5 ], [ 156.1, 25.9 ], [ 155.0, 26.2 ], [ 153.8, 26.8 ], [ 152.7, 27.2 ], [ 151.8, 27.7 ], [ 151.4, 28.5 ], [ 150.9, 29.3 ], [ 151.0, 29.7 ], [ 151.8, 30.2 ], [ 152.6, 30.3 ], [ 152.8, 30.5 ], [ 153.1, 30.5 ], [ 153.3, 30.7 ], [ 153.3, 30.6 ], [ 153.7, 30.4 ], [ 154.3, 30.4 ], [ 155.4, 30.5 ], [ 156.8, 31.2 ], [ 157.3, 32.3 ], [ 157.2, 32.8 ], [ 156.1, 33.0 ], [ 154.9, 32.4 ], [ 154.2, 32.1 ], [ 153.7, 32.0 ], [ 153.6, 32.1 ], [ 153.7, 31.9 ], [ 154.4, 31.6 ], [ 155.5, 31.5 ], [ 157.1, 31.9 ], [ 158.8, 32.3 ], [ 160.5, 33.2 ], [ 162.4, 34.3 ], [ 164.8, 35.8 ], [ 167.3, 38.0 ], [ 169.7, 40.3 ], [ 172.4, 42.4 ] ] } },
{ "type": "Feature", "properties": { "ID": 48453, "LAT": 45.3, "LON": -175.5, "VMAX": 50.0, "MSLP": 1002.2391, "RMAX": 22.8964, "FSPD": 11.60915, "FDIR": 81.07751, "RENV": 250.0, "PENV": 1012.0, "VALIDT": 24, "DTG": "2025-09-30 00:00", "LATNOW": 42.4, "LONNOW": 172.4, "WINDNOW": 90.0, "DIRNOW": 12.0, "SPDNOW": 0.0, "TECH": "FCST", "ADVNR": 43, "ATCFID": "WP252025", "NAME": "NEOGURI", "FTECH": "JTWC", "FCST_DTG": "2025-09-29 00:00:00", "RUN_DTG": "2025-09-29 15:35:10", "BASIN": "WP", "STMNR": 25, "CAT_ID": null, "CAT_DESC": null, "MSGID": "WTPN53 PGTW 290300", "VALIDTIME": "2025-09-30 00:00:00" }, "geometry": { "type": "LineString", "coordinates": [ [ 172.4, 42.4 ], [ 178.2, 44.6 ], [ -175.5, 45.3 ] ] } }
]
}
