{
"type": "FeatureCollection",
"crs": { "type": "name", "properties": { "name": "urn:ogc:def:crs:OGC:1.3:CRS84" } },
"features": [
{ "type": "Feature", "properties": { "ID": 313027, "LAT": -10.3, "LON": 101.2, "VMAX": 20.0, "MSLP": 1012.95825, "RMAX": 45.0, "FSPD": 5.41545, "FDIR": 228.31998, "RENV": 500.0, "PENV": 1012.0, "VALIDT": 0, "DTG": "2025-03-17 06:00", "LATNOW": -14.4, "LONNOW": 96.3, "WINDNOW": 35.0, "DIRNOW": 3.0, "SPDNOW": 5.0, "TECH": "TRAK", "ADVNR": 5, "ATCFID": "SH262025", "NAME": "TWENTY-SI", "FTECH": "JTWC", "FCST_DTG": "2025-03-20 18:00:00", "RUN_DTG": "2025-03-21 06:25:26", "BASIN": "SH", "STMNR": 26, "CAT_ID": null, "CAT_DESC": null, "MSGID": "WTXS51 PGTW 202100", "VALIDTIME": "2025-03-17 06:00:00" }, "geometry": { "type": "Point", "coordinates": [ 101.199997, -10.3 ] } },
{ "type": "Feature", "properties": { "ID": 313028, "LAT": -11.0, "LON": 100.4, "VMAX": 20.0, "MSLP": 1012.95825, "RMAX": 45.0, "FSPD": 7.37314, "FDIR": 213.1466, "RENV": 500.0, "PENV": 1012.0, "VALIDT": 0, "DTG": "2025-03-17 12:00", "LATNOW": -14.4, "LONNOW": 96.3, "WINDNOW": 35.0, "DIRNOW": 3.0, "SPDNOW": 5.0, "TECH": "TRAK", "ADVNR": 5, "ATCFID": "SH262025", "NAME": "TWENTY-SI", "FTECH": "JTWC", "FCST_DTG": "2025-03-20 18:00:00", "RUN_DTG": "2025-03-21 06:25:26", "BASIN": "SH", "STMNR": 26, "CAT_ID": null, "CAT_DESC": null, "MSGID": "WTXS51 PGTW 202100", "VALIDTIME": "2025-03-17 12:00:00" }, "geometry": { "type": "Point", "coordinates": [ 100.400002, -11.0 ] } },
{ "type": "Feature", "properties": { "ID": 313029, "LAT": -12.2, "LON": 99.6, "VMAX": 20.0, "MSLP": 1012.95825, "RMAX": 45.0, "FSPD": 4.96819, "FDIR": 245.5316, "RENV": 500.0, "PENV": 1012.0, "VALIDT": 0, "DTG": "2025-03-17 18:00", "LATNOW": -14.4, "LONNOW": 96.3, "WINDNOW": 35.0, "DIRNOW": 3.0, "SPDNOW": 5.0, "TECH": "TRAK", "ADVNR": 5, "ATCFID": "SH262025", "NAME": "TWENTY-SI", "FTECH": "JTWC", "FCST_DTG": "2025-03-20 18:00:00", "RUN_DTG": "2025-03-21 06:25:26", "BASIN": "SH", "STMNR": 26, "CAT_ID": null, "CAT_DESC": null, "MSGID": "WTXS51 PGTW 202100", "VALIDTIME": "2025-03-17 18:00:00" }, "geometry": { "type": "Point", "coordinates": [ 99.599998, -12.2 ] } },
{ "type": "Feature", "properties": { "ID": 313030, "LAT": -12.6, "LON": 98.7, "VMAX": 25.0, "MSLP": 1011.80975, "RMAX": 45.0, "FSPD": 4.77225, "FDIR": 251.1315, "RENV": 500.0, "PENV": 1012.0, "VALIDT": 0, "DTG": "2025-03-18 00:00", "LATNOW": -14.4, "LONNOW": 96.3, "WINDNOW": 35.0, "DIRNOW": 3.0, "SPDNOW": 5.0, "TECH": "TRAK", "ADVNR": 5, "ATCFID": "SH262025", "NAME": "TWENTY-SI", "FTECH": "JTWC", "FCST_DTG": "2025-03-20 18:00:00", "RUN_DTG": "2025-03-21 06:25:26", "BASIN": "SH", "STMNR": 26, "CAT_ID": null, "CAT_DESC": null, "MSGID": "WTXS51 PGTW 202100", "VALIDTIME": "2025-03-18 00:00:00" }, "geometry": { "type": "Point", "coordinates": [ 98.699997, -12.6 ] } },
{ "type": "Feature", "properties": { "ID": 313031, "LAT": -12.9, "LON": 97.8, "VMAX": 30.0, "MSLP": 1010.40607, "RMAX": 44.21983, "FSPD": 5.04192, "FDIR": 275.8562, "RENV": 500.0, "PENV": 1012.0, "VALIDT": 0, "DTG": "2025-03-18 06:00", "LATNOW": -14.4, "LONNOW": 96.3, "WINDNOW": 35.0, "DIRNOW": 3.0, "SPDNOW": 5.0, "TECH": "TRAK", "ADVNR": 5, "ATCFID": "SH262025", "NAME": "TWENTY-SI", "FTECH": "JTWC", "FCST_DTG": "2025-03-20 18:00:00", "RUN_DTG": "2025-03-21 06:25:26", "BASIN": "SH", "STMNR": 26, "CAT_ID": null, "CAT_DESC": null, "MSGID": "WTXS51 PGTW 202100", "VALIDTIME": "2025-03-18 06:00:00" }, "geometry": { "type": "Point", "coordinates": [ 97.800003, -12.9 ] } },
{ "type": "Feature", "properties": { "ID": 313032, "LAT": -12.8, "LON": 96.8, "VMAX": 35.0, "MSLP": 1008.74713, "RMAX": 42.69135, "FSPD": 2.07193, "FDIR": 284.37653, "RENV": 500.0, "PENV": 1012.0, "VALIDT": 0, "DTG": "2025-03-18 12:00", "LATNOW": -14.4, "LONNOW": 96.3, "WINDNOW": 35.0, "DIRNOW": 3.0, "SPDNOW": 5.0, "TECH": "TRAK", "ADVNR": 5, "ATCFID": "SH262025", "NAME": "TWENTY-SI", "FTECH": "JTWC", "FCST_DTG": "2025-03-20 18:00:00", "RUN_DTG": "2025-03-21 06:25:26", "BASIN": "SH", "STMNR": 26, "CAT_ID": null, "CAT_DESC": null, "MSGID": "WTXS51 PGTW 202100", "VALIDTIME": "2025-03-18 12:00:00" }, "geometry": { "type": "Point", "coordinates": [ 96.800003, -12.8 ] } },
{ "type": "Feature", "properties": { "ID": 313033, "LAT": -12.7, "LON": 96.4, "VMAX": 35.0, "MSLP": 1001.0, "RMAX": 25.0, "FSPD": 2.57222, "FDIR": 179.99997, "RENV": 145.0, "PENV": 1007.0, "VALIDT": 0, "DTG": "2025-03-18 18:00", "LATNOW": -14.4, "LONNOW": 96.3, "WINDNOW": 35.0, "DIRNOW": 3.0, "SPDNOW": 5.0, "TECH": "TRAK", "ADVNR": 5, "ATCFID": "SH262025", "NAME": "TWENTY-SI", "FTECH": "JTWC", "FCST_DTG": "2025-03-20 18:00:00", "RUN_DTG": "2025-03-21 06:25:26", "BASIN": "SH", "STMNR": 26, "CAT_ID": null, "CAT_DESC": null, "MSGID": "WTXS51 PGTW 202100", "VALIDTIME": "2025-03-18 18:00:00" }, "geometry": { "type": "Point", "coordinates": [ 96.400002, -12.7 ] } },
{ "type": "Feature", "properties": { "ID": 313034, "LAT": -13.2, "LON": 96.4, "VMAX": 45.0, "MSLP": 1001.0, "RMAX": 25.0, "FSPD": 3.17519, "FDIR": 251.09258, "RENV": 145.0, "PENV": 1007.0, "VALIDT": 0, "DTG": "2025-03-19 00:00", "LATNOW": -14.4, "LONNOW": 96.3, "WINDNOW": 35.0, "DIRNOW": 3.0, "SPDNOW": 5.0, "TECH": "TRAK", "ADVNR": 5, "ATCFID": "SH262025", "NAME": "TWENTY-SI", "FTECH": "JTWC", "FCST_DTG": "2025-03-20 18:00:00", "RUN_DTG": "2025-03-21 06:25:26", "BASIN": "SH", "STMNR": 26, "CAT_ID": null, "CAT_DESC": null, "MSGID": "WTXS51 PGTW 202100", "VALIDTIME": "2025-03-19 00:00:00" }, "geometry": { "type": "Point", "coordinates": [ 96.400002, -13.2 ] } },
{ "type": "Feature", "properties": { "ID": 313035, "LAT": -13.4, "LON": 95.8, "VMAX": 45.0, "MSLP": 995.0, "RMAX": 15.0, "FSPD": 2.06721, "FDIR": 284.40988, "RENV": 145.0, "PENV": 1007.0, "VALIDT": 0, "DTG": "2025-03-19 06:00", "LATNOW": -14.4, "LONNOW": 96.3, "WINDNOW": 35.0, "DIRNOW": 3.0, "SPDNOW": 5.0, "TECH": "TRAK", "ADVNR": 5, "ATCFID": "SH262025", "NAME": "TWENTY-SI", "FTECH": "JTWC", "FCST_DTG": "2025-03-20 18:00:00", "RUN_DTG": "2025-03-21 06:25:26", "BASIN": "SH", "STMNR": 26, "CAT_ID": null, "CAT_DESC": null, "MSGID": "WTXS51 PGTW 202100", "VALIDTIME": "2025-03-19 06:00:00" }, "geometry": { "type": "Point", "coordinates": [ 95.800003, -13.4 ] } },
{ "type": "Feature", "properties": { "ID": 313036, "LAT": -13.3, "LON": 95.4, "VMAX": 40.0, "MSLP": 995.0, "RMAX": 15.0, "FSPD": 3.37879, "FDIR": 297.17892, "RENV": 160.0, "PENV": 1006.0, "VALIDT": 0, "DTG": "2025-03-19 12:00", "LATNOW": -14.4, "LONNOW": 96.3, "WINDNOW": 35.0, "DIRNOW": 3.0, "SPDNOW": 5.0, "TECH": "TRAK", "ADVNR": 5, "ATCFID": "SH262025", "NAME": "TWENTY-SI", "FTECH": "JTWC", "FCST_DTG": "2025-03-20 18:00:00", "RUN_DTG": "2025-03-21 06:25:26", "BASIN": "SH", "STMNR": 26, "CAT_ID": null, "CAT_DESC": null, "MSGID": "WTXS51 PGTW 202100", "VALIDTIME": "2025-03-19 12:00:00" }, "geometry": { "type": "Point", "coordinates": [ 95.400002, -13.3 ] } },
{ "type": "Feature", "properties": { "ID": 313037, "LAT": -13.0, "LON": 94.8, "VMAX": 45.0, "MSLP": 997.0, "RMAX": 15.0, "FSPD": 0.51445, "FDIR": 179.99997, "RENV": 165.0, "PENV": 1006.0, "VALIDT": 0, "DTG": "2025-03-19 18:00", "LATNOW": -14.4, "LONNOW": 96.3, "WINDNOW": 35.0, "DIRNOW": 3.0, "SPDNOW": 5.0, "TECH": "TRAK", "ADVNR": 5, "ATCFID": "SH262025", "NAME": "TWENTY-SI", "FTECH": "JTWC", "FCST_DTG": "2025-03-20 18:00:00", "RUN_DTG": "2025-03-21 06:25:26", "BASIN": "SH", "STMNR": 26, "CAT_ID": null, "CAT_DESC": null, "MSGID": "WTXS51 PGTW 202100", "VALIDTIME": "2025-03-19 18:00:00" }, "geometry": { "type": "Point", "coordinates": [ 94.800003, -13.0 ] } },
{ "type": "Feature", "properties": { "ID": 313038, "LAT": -13.1, "LON": 94.8, "VMAX": 45.0, "MSLP": 995.0, "RMAX": 25.0, "FSPD": 1.58845, "FDIR": 108.89667, "RENV": 120.0, "PENV": 1007.0, "VALIDT": 0, "DTG": "2025-03-20 00:00", "LATNOW": -14.4, "LONNOW": 96.3, "WINDNOW": 35.0, "DIRNOW": 3.0, "SPDNOW": 5.0, "TECH": "TRAK", "ADVNR": 5, "ATCFID": "SH262025", "NAME": "TWENTY-SI", "FTECH": "JTWC", "FCST_DTG": "2025-03-20 18:00:00", "RUN_DTG": "2025-03-21 06:25:26", "BASIN": "SH", "STMNR": 26, "CAT_ID": null, "CAT_DESC": null, "MSGID": "WTXS51 PGTW 202100", "VALIDTIME": "2025-03-20 00:00:00" }, "geometry": { "type": "Point", "coordinates": [ 94.800003, -13.1 ] } },
{ "type": "Feature", "properties": { "ID": 313039, "LAT": -13.2, "LON": 95.1, "VMAX": 40.0, "MSLP": 995.0, "RMAX": 30.0, "FSPD": 6.0751, "FDIR": 115.04968, "RENV": 140.0, "PENV": 1007.0, "VALIDT": 0, "DTG": "2025-03-20 06:00", "LATNOW": -14.4, "LONNOW": 96.3, "WINDNOW": 35.0, "DIRNOW": 3.0, "SPDNOW": 5.0, "TECH": "TRAK", "ADVNR": 5, "ATCFID": "SH262025", "NAME": "TWENTY-SI", "FTECH": "JTWC", "FCST_DTG": "2025-03-20 18:00:00", "RUN_DTG": "2025-03-21 06:25:26", "BASIN": "SH", "STMNR": 26, "CAT_ID": null, "CAT_DESC": null, "MSGID": "WTXS51 PGTW 202100", "VALIDTIME": "2025-03-20 06:00:00" }, "geometry": { "type": "Point", "coordinates": [ 95.099998, -13.2 ] } },
{ "type": "Feature", "properties": { "ID": 313040, "LAT": -13.7, "LON": 96.2, "VMAX": 35.0, "MSLP": 996.0, "RMAX": 45.0, "FSPD": 3.63553, "FDIR": 172.1095, "RENV": 150.0, "PENV": 1006.0, "VALIDT": 0, "DTG": "2025-03-20 12:00", "LATNOW": -14.4, "LONNOW": 96.3, "WINDNOW": 35.0, "DIRNOW": 3.0, "SPDNOW": 5.0, "TECH": "TRAK", "ADVNR": 5, "ATCFID": "SH262025", "NAME": "TWENTY-SI", "FTECH": "JTWC", "FCST_DTG": "2025-03-20 18:00:00", "RUN_DTG": "2025-03-21 06:25:26", "BASIN": "SH", "STMNR": 26, "CAT_ID": null, "CAT_DESC": null, "MSGID": "WTXS51 PGTW 202100", "VALIDTIME": "2025-03-20 12:00:00" }, "geometry": { "type": "Point", "coordinates": [ 96.199997, -13.7 ] } },
{ "type": "Feature", "properties": { "ID": 313041, "LAT": -14.4, "LON": 96.3, "VMAX": 35.0, "MSLP": 1001.0, "RMAX": 75.0, "FSPD": 2.62767, "FDIR": 151.76419, "RENV": 225.0, "PENV": 1008.0, "VALIDT": 0, "DTG": "2025-03-20 18:00", "LATNOW": -14.4, "LONNOW": 96.3, "WINDNOW": 35.0, "DIRNOW": 3.0, "SPDNOW": 5.0, "TECH": "TRAK", "ADVNR": 5, "ATCFID": "SH262025", "NAME": "TWENTY-SI", "FTECH": "JTWC", "FCST_DTG": "2025-03-20 18:00:00", "RUN_DTG": "2025-03-21 06:25:26", "BASIN": "SH", "STMNR": 26, "CAT_ID": null, "CAT_DESC": null, "MSGID": "WTXS51 PGTW 202100", "VALIDTIME": "2025-03-20 18:00:00" }, "geometry": { "type": "Point", "coordinates": [ 96.300003, -14.4 ] } },
{ "type": "Feature", "properties": { "ID": 313042, "LAT": -15.3, "LON": 96.8, "VMAX": 30.0, "MSLP": 1010.40607, "RMAX": 87.39678, "FSPD": 1.46019, "FDIR": 121.90201, "RENV": 250.0, "PENV": 1012.0, "VALIDT": 12, "DTG": "2025-03-21 06:00", "LATNOW": -14.4, "LONNOW": 96.3, "WINDNOW": 35.0, "DIRNOW": 3.0, "SPDNOW": 5.0, "TECH": "FCST", "ADVNR": 5, "ATCFID": "SH262025", "NAME": "TWENTY-SI", "FTECH": "JTWC", "FCST_DTG": "2025-03-20 18:00:00", "RUN_DTG": "2025-03-21 06:25:26", "BASIN": "SH", "STMNR": 26, "CAT_ID": null, "CAT_DESC": null, "MSGID": "WTXS51 PGTW 202100", "VALIDTIME": "2025-03-21 06:00:00" }, "geometry": { "type": "Point", "coordinates": [ 96.800003, -15.3 ] } },
{ "type": "Feature", "properties": { "ID": 313043, "LAT": -15.6, "LON": 97.3, "VMAX": 30.0, "MSLP": 1010.40607, "RMAX": 87.39678, "FSPD": 0.71442, "FDIR": 43.93835, "RENV": 250.0, "PENV": 1012.0, "VALIDT": 24, "DTG": "2025-03-21 18:00", "LATNOW": -14.4, "LONNOW": 96.3, "WINDNOW": 35.0, "DIRNOW": 3.0, "SPDNOW": 5.0, "TECH": "FCST", "ADVNR": 5, "ATCFID": "SH262025", "NAME": "TWENTY-SI", "FTECH": "JTWC", "FCST_DTG": "2025-03-20 18:00:00", "RUN_DTG": "2025-03-21 06:25:26", "BASIN": "SH", "STMNR": 26, "CAT_ID": null, "CAT_DESC": null, "MSGID": "WTXS51 PGTW 202100", "VALIDTIME": "2025-03-21 18:00:00" }, "geometry": { "type": "Point", "coordinates": [ 97.300003, -15.6 ] } },
{ "type": "Feature", "properties": { "ID": 313044, "LAT": -15.4, "LON": 97.5, "VMAX": 30.0, "MSLP": 1010.40607, "RMAX": 87.39678, "FSPD": 1.28611, "FDIR": 360.0, "RENV": 250.0, "PENV": 1012.0, "VALIDT": 36, "DTG": "2025-03-22 06:00", "LATNOW": -14.4, "LONNOW": 96.3, "WINDNOW": 35.0, "DIRNOW": 3.0, "SPDNOW": 5.0, "TECH": "FCST", "ADVNR": 5, "ATCFID": "SH262025", "NAME": "TWENTY-SI", "FTECH": "JTWC", "FCST_DTG": "2025-03-20 18:00:00", "RUN_DTG": "2025-03-21 06:25:26", "BASIN": "SH", "STMNR": 26, "CAT_ID": null, "CAT_DESC": null, "MSGID": "WTXS51 PGTW 202100", "VALIDTIME": "2025-03-22 06:00:00" }, "geometry": { "type": "Point", "coordinates": [ 97.5, -15.4 ] } },
{ "type": "Feature", "properties": { "ID": 313045, "LAT": -14.9, "LON": 97.5, "VMAX": 30.0, "MSLP": 1010.40607, "RMAX": 87.39678, "FSPD": 1.28611, "FDIR": 360.0, "RENV": 250.0, "PENV": 1012.0, "VALIDT": 48, "DTG": "2025-03-22 18:00", "LATNOW": -14.4, "LONNOW": 96.3, "WINDNOW": 35.0, "DIRNOW": 3.0, "SPDNOW": 5.0, "TECH": "FCST", "ADVNR": 5, "ATCFID": "SH262025", "NAME": "TWENTY-SI", "FTECH": "JTWC", "FCST_DTG": "2025-03-20 18:00:00", "RUN_DTG": "2025-03-21 06:25:26", "BASIN": "SH", "STMNR": 26, "CAT_ID": null, "CAT_DESC": null, "MSGID": "WTXS51 PGTW 202100", "VALIDTIME": "2025-03-22 18:00:00" }, "geometry": { "type": "Point", "coordinates": [ 97.5, -14.9 ] } },
{ "type": "Feature", "properties": { "ID": 313041, "LAT": -14.4, "LON": 96.3, "VMAX": 35.0, "MSLP": 1001.0, "RMAX": 75.0, "FSPD": 2.62767, "FDIR": 151.76419, "RENV": 225.0, "PENV": 1008.0, "VALIDT": 0, "DTG": "2025-03-20 18:00", "LATNOW": -14.4, "LONNOW": 96.3, "WINDNOW": 35.0, "DIRNOW": 3.0, "SPDNOW": 5.0, "TECH": "TRAK", "ADVNR": 5, "ATCFID": "SH262025", "NAME": "TWENTY-SI", "FTECH": "JTWC", "FCST_DTG": "2025-03-20 18:00:00", "RUN_DTG": "2025-03-21 06:25:26", "BASIN": "SH", "STMNR": 26, "CAT_ID": null, "CAT_DESC": null, "MSGID": "WTXS51 PGTW 202100", "VALIDTIME": "2025-03-20 18:00:00" }, "geometry": { "type": "LineString", "coordinates": [ [ 101.2, -10.3 ], [ 100.4, -11.0 ], [ 99.6, -12.2 ], [ 98.7, -12.6 ], [ 97.8, -12.9 ], [ 96.8, -12.8 ], [ 96.4, -12.7 ], [ 96.4, -13.2 ], [ 95.8, -13.4 ], [ 95.4, -13.3 ], [ 94.8, -13.0 ], [ 94.8, -13.1 ], [ 95.1, -13.2 ], [ 96.2, -13.7 ], [ 96.3, -14.4 ] ] } },
{ "type": "Feature", "properties": { "ID": 313045, "LAT": -14.9, "LON": 97.5, "VMAX": 30.0, "MSLP": 1010.40607, "RMAX": 87.39678, "FSPD": 1.28611, "FDIR": 360.0, "RENV": 250.0, "PENV": 1012.0, "VALIDT": 48, "DTG": "2025-03-22 18:00", "LATNOW": -14.4, "LONNOW": 96.3, "WINDNOW": 35.0, "DIRNOW": 3.0, "SPDNOW": 5.0, "TECH": "FCST", "ADVNR": 5, "ATCFID": "SH262025", "NAME": "TWENTY-SI", "FTECH": "JTWC", "FCST_DTG": "2025-03-20 18:00:00", "RUN_DTG": "2025-03-21 06:25:26", "BASIN": "SH", "STMNR": 26, "CAT_ID": null, "CAT_DESC": null, "MSGID": "WTXS51 PGTW 202100", "VALIDTIME": "2025-03-22 18:00:00" }, "geometry": { "type": "LineString", "coordinates": [ [ 96.3, -14.4 ], [ 96.8, -15.3 ], [ 97.3, -15.6 ], [ 97.5, -15.4 ], [ 97.5, -14.9 ] ] } }
]
}
