{
"type": "FeatureCollection",
"crs": { "type": "name", "properties": { "name": "urn:ogc:def:crs:OGC:1.3:CRS84" } },
"features": [
{ "type": "Feature", "properties": { "ID": 20857, "LAT": 8.5, "LON": -124.5, "VMAX": 20.0, "MSLP": 1009.0, "RMAX": 80.0, "FSPD": 5.48582, "FDIR": 292.03098, "RENV": 120.0, "PENV": 1010.0, "VALIDT": 0, "DTG": "2026-06-01 12:00", "LATNOW": 11.3, "LONNOW": -136.0, "WINDNOW": 25.0, "DIRNOW": 3.0, "SPDNOW": 3.0, "TECH": "TRAK", "ADVNR": 22, "ATCFID": "EP012026", "NAME": "AMANDA", "FTECH": "OFCL", "FCST_DTG": "2026-06-08 00:00:00", "RUN_DTG": "2026-06-08 15:34:17", "BASIN": "EP", "STMNR": 1, "CAT_ID": null, "CAT_DESC": null, "MSGID": "WTPZ21 KNHC 080231", "VALIDTIME": "2026-06-01 12:00:00" }, "geometry": { "type": "Point", "coordinates": [ -124.5, 8.5 ] } },
{ "type": "Feature", "properties": { "ID": 20858, "LAT": 8.9, "LON": -125.5, "VMAX": 20.0, "MSLP": 1009.0, "RMAX": 80.0, "FSPD": 2.76553, "FDIR": 338.4507, "RENV": 120.0, "PENV": 1010.0, "VALIDT": 0, "DTG": "2026-06-01 18:00", "LATNOW": 11.3, "LONNOW": -136.0, "WINDNOW": 25.0, "DIRNOW": 3.0, "SPDNOW": 3.0, "TECH": "TRAK", "ADVNR": 22, "ATCFID": "EP012026", "NAME": "AMANDA", "FTECH": "OFCL", "FCST_DTG": "2026-06-08 00:00:00", "RUN_DTG": "2026-06-08 15:34:17", "BASIN": "EP", "STMNR": 1, "CAT_ID": null, "CAT_DESC": null, "MSGID": "WTPZ21 KNHC 080231", "VALIDTIME": "2026-06-01 18:00:00" }, "geometry": { "type": "Point", "coordinates": [ -125.5, 8.9 ] } },
{ "type": "Feature", "properties": { "ID": 20859, "LAT": 9.4, "LON": -125.7, "VMAX": 20.0, "MSLP": 1009.0, "RMAX": 80.0, "FSPD": 2.16754, "FDIR": 315.39948, "RENV": 120.0, "PENV": 1010.0, "VALIDT": 0, "DTG": "2026-06-02 00:00", "LATNOW": 11.3, "LONNOW": -136.0, "WINDNOW": 25.0, "DIRNOW": 3.0, "SPDNOW": 3.0, "TECH": "TRAK", "ADVNR": 22, "ATCFID": "EP012026", "NAME": "AMANDA", "FTECH": "OFCL", "FCST_DTG": "2026-06-08 00:00:00", "RUN_DTG": "2026-06-08 15:34:17", "BASIN": "EP", "STMNR": 1, "CAT_ID": null, "CAT_DESC": null, "MSGID": "WTPZ21 KNHC 080231", "VALIDTIME": "2026-06-02 00:00:00" }, "geometry": { "type": "Point", "coordinates": [ -125.699997, 9.4 ] } },
{ "type": "Feature", "properties": { "ID": 20860, "LAT": 9.7, "LON": -126.0, "VMAX": 25.0, "MSLP": 1009.0, "RMAX": 80.0, "FSPD": 3.58722, "FDIR": 261.75476, "RENV": 120.0, "PENV": 1010.0, "VALIDT": 0, "DTG": "2026-06-02 06:00", "LATNOW": 11.3, "LONNOW": -136.0, "WINDNOW": 25.0, "DIRNOW": 3.0, "SPDNOW": 3.0, "TECH": "TRAK", "ADVNR": 22, "ATCFID": "EP012026", "NAME": "AMANDA", "FTECH": "OFCL", "FCST_DTG": "2026-06-08 00:00:00", "RUN_DTG": "2026-06-08 15:34:17", "BASIN": "EP", "STMNR": 1, "CAT_ID": null, "CAT_DESC": null, "MSGID": "WTPZ21 KNHC 080231", "VALIDTIME": "2026-06-02 06:00:00" }, "geometry": { "type": "Point", "coordinates": [ -126.0, 9.7 ] } },
{ "type": "Feature", "properties": { "ID": 20861, "LAT": 9.6, "LON": -126.7, "VMAX": 25.0, "MSLP": 1009.0, "RMAX": 80.0, "FSPD": 1.62462, "FDIR": 161.79886, "RENV": 120.0, "PENV": 1010.0, "VALIDT": 0, "DTG": "2026-06-02 12:00", "LATNOW": 11.3, "LONNOW": -136.0, "WINDNOW": 25.0, "DIRNOW": 3.0, "SPDNOW": 3.0, "TECH": "TRAK", "ADVNR": 22, "ATCFID": "EP012026", "NAME": "AMANDA", "FTECH": "OFCL", "FCST_DTG": "2026-06-08 00:00:00", "RUN_DTG": "2026-06-08 15:34:17", "BASIN": "EP", "STMNR": 1, "CAT_ID": null, "CAT_DESC": null, "MSGID": "WTPZ21 KNHC 080231", "VALIDTIME": "2026-06-02 12:00:00" }, "geometry": { "type": "Point", "coordinates": [ -126.699997, 9.6 ] } },
{ "type": "Feature", "properties": { "ID": 20862, "LAT": 9.3, "LON": -126.6, "VMAX": 25.0, "MSLP": 1008.0, "RMAX": 50.0, "FSPD": 1.62462, "FDIR": 341.7989, "RENV": 120.0, "PENV": 1011.0, "VALIDT": 0, "DTG": "2026-06-02 18:00", "LATNOW": 11.3, "LONNOW": -136.0, "WINDNOW": 25.0, "DIRNOW": 3.0, "SPDNOW": 3.0, "TECH": "TRAK", "ADVNR": 22, "ATCFID": "EP012026", "NAME": "AMANDA", "FTECH": "OFCL", "FCST_DTG": "2026-06-08 00:00:00", "RUN_DTG": "2026-06-08 15:34:17", "BASIN": "EP", "STMNR": 1, "CAT_ID": null, "CAT_DESC": null, "MSGID": "WTPZ21 KNHC 080231", "VALIDTIME": "2026-06-02 18:00:00" }, "geometry": { "type": "Point", "coordinates": [ -126.599998, 9.3 ] } },
{ "type": "Feature", "properties": { "ID": 20863, "LAT": 9.6, "LON": -126.7, "VMAX": 25.0, "MSLP": 1008.0, "RMAX": 50.0, "FSPD": 2.88899, "FDIR": 315.42096, "RENV": 120.0, "PENV": 1010.0, "VALIDT": 0, "DTG": "2026-06-03 00:00", "LATNOW": 11.3, "LONNOW": -136.0, "WINDNOW": 25.0, "DIRNOW": 3.0, "SPDNOW": 3.0, "TECH": "TRAK", "ADVNR": 22, "ATCFID": "EP012026", "NAME": "AMANDA", "FTECH": "OFCL", "FCST_DTG": "2026-06-08 00:00:00", "RUN_DTG": "2026-06-08 15:34:17", "BASIN": "EP", "STMNR": 1, "CAT_ID": null, "CAT_DESC": null, "MSGID": "WTPZ21 KNHC 080231", "VALIDTIME": "2026-06-03 00:00:00" }, "geometry": { "type": "Point", "coordinates": [ -126.699997, 9.6 ] } },
{ "type": "Feature", "properties": { "ID": 20864, "LAT": 10.0, "LON": -127.1, "VMAX": 30.0, "MSLP": 1007.0, "RMAX": 40.0, "FSPD": 4.54326, "FDIR": 296.93176, "RENV": 120.0, "PENV": 1010.0, "VALIDT": 0, "DTG": "2026-06-03 06:00", "LATNOW": 11.3, "LONNOW": -136.0, "WINDNOW": 25.0, "DIRNOW": 3.0, "SPDNOW": 3.0, "TECH": "TRAK", "ADVNR": 22, "ATCFID": "EP012026", "NAME": "AMANDA", "FTECH": "OFCL", "FCST_DTG": "2026-06-08 00:00:00", "RUN_DTG": "2026-06-08 15:34:17", "BASIN": "EP", "STMNR": 1, "CAT_ID": null, "CAT_DESC": null, "MSGID": "WTPZ21 KNHC 080231", "VALIDTIME": "2026-06-03 06:00:00" }, "geometry": { "type": "Point", "coordinates": [ -127.099998, 10.0 ] } },
{ "type": "Feature", "properties": { "ID": 20865, "LAT": 10.4, "LON": -127.9, "VMAX": 35.0, "MSLP": 1006.0, "RMAX": 50.0, "FSPD": 3.57858, "FDIR": 278.26532, "RENV": 110.0, "PENV": 1011.0, "VALIDT": 0, "DTG": "2026-06-03 12:00", "LATNOW": 11.3, "LONNOW": -136.0, "WINDNOW": 25.0, "DIRNOW": 3.0, "SPDNOW": 3.0, "TECH": "TRAK", "ADVNR": 22, "ATCFID": "EP012026", "NAME": "AMANDA", "FTECH": "OFCL", "FCST_DTG": "2026-06-08 00:00:00", "RUN_DTG": "2026-06-08 15:34:17", "BASIN": "EP", "STMNR": 1, "CAT_ID": null, "CAT_DESC": null, "MSGID": "WTPZ21 KNHC 080231", "VALIDTIME": "2026-06-03 12:00:00" }, "geometry": { "type": "Point", "coordinates": [ -127.900002, 10.4 ] } },
{ "type": "Feature", "properties": { "ID": 20866, "LAT": 10.5, "LON": -128.6, "VMAX": 35.0, "MSLP": 1006.0, "RMAX": 20.0, "FSPD": 3.90708, "FDIR": 337.1741, "RENV": 110.0, "PENV": 1012.0, "VALIDT": 0, "DTG": "2026-06-03 18:00", "LATNOW": 11.3, "LONNOW": -136.0, "WINDNOW": 25.0, "DIRNOW": 3.0, "SPDNOW": 3.0, "TECH": "TRAK", "ADVNR": 22, "ATCFID": "EP012026", "NAME": "AMANDA", "FTECH": "OFCL", "FCST_DTG": "2026-06-08 00:00:00", "RUN_DTG": "2026-06-08 15:34:17", "BASIN": "EP", "STMNR": 1, "CAT_ID": null, "CAT_DESC": null, "MSGID": "WTPZ21 KNHC 080231", "VALIDTIME": "2026-06-03 18:00:00" }, "geometry": { "type": "Point", "coordinates": [ -128.600006, 10.5 ] } },
{ "type": "Feature", "properties": { "ID": 20867, "LAT": 11.2, "LON": -128.9, "VMAX": 35.0, "MSLP": 1006.0, "RMAX": 20.0, "FSPD": 4.39535, "FDIR": 325.01483, "RENV": 110.0, "PENV": 1011.0, "VALIDT": 0, "DTG": "2026-06-04 00:00", "LATNOW": 11.3, "LONNOW": -136.0, "WINDNOW": 25.0, "DIRNOW": 3.0, "SPDNOW": 3.0, "TECH": "TRAK", "ADVNR": 22, "ATCFID": "EP012026", "NAME": "AMANDA", "FTECH": "OFCL", "FCST_DTG": "2026-06-08 00:00:00", "RUN_DTG": "2026-06-08 15:34:17", "BASIN": "EP", "STMNR": 1, "CAT_ID": null, "CAT_DESC": null, "MSGID": "WTPZ21 KNHC 080231", "VALIDTIME": "2026-06-04 00:00:00" }, "geometry": { "type": "Point", "coordinates": [ -128.899994, 11.2 ] } },
{ "type": "Feature", "properties": { "ID": 20868, "LAT": 11.9, "LON": -129.4, "VMAX": 35.0, "MSLP": 1006.0, "RMAX": 20.0, "FSPD": 4.51975, "FDIR": 297.08334, "RENV": 110.0, "PENV": 1011.0, "VALIDT": 0, "DTG": "2026-06-04 06:00", "LATNOW": 11.3, "LONNOW": -136.0, "WINDNOW": 25.0, "DIRNOW": 3.0, "SPDNOW": 3.0, "TECH": "TRAK", "ADVNR": 22, "ATCFID": "EP012026", "NAME": "AMANDA", "FTECH": "OFCL", "FCST_DTG": "2026-06-08 00:00:00", "RUN_DTG": "2026-06-08 15:34:17", "BASIN": "EP", "STMNR": 1, "CAT_ID": null, "CAT_DESC": null, "MSGID": "WTPZ21 KNHC 080231", "VALIDTIME": "2026-06-04 06:00:00" }, "geometry": { "type": "Point", "coordinates": [ -129.399994, 11.9 ] } },
{ "type": "Feature", "properties": { "ID": 20869, "LAT": 12.3, "LON": -130.2, "VMAX": 35.0, "MSLP": 1006.0, "RMAX": 20.0, "FSPD": 3.38626, "FDIR": 297.11407, "RENV": 100.0, "PENV": 1011.0, "VALIDT": 0, "DTG": "2026-06-04 12:00", "LATNOW": 11.3, "LONNOW": -136.0, "WINDNOW": 25.0, "DIRNOW": 3.0, "SPDNOW": 3.0, "TECH": "TRAK", "ADVNR": 22, "ATCFID": "EP012026", "NAME": "AMANDA", "FTECH": "OFCL", "FCST_DTG": "2026-06-08 00:00:00", "RUN_DTG": "2026-06-08 15:34:17", "BASIN": "EP", "STMNR": 1, "CAT_ID": null, "CAT_DESC": null, "MSGID": "WTPZ21 KNHC 080231", "VALIDTIME": "2026-06-04 12:00:00" }, "geometry": { "type": "Point", "coordinates": [ -130.199997, 12.3 ] } },
{ "type": "Feature", "properties": { "ID": 20870, "LAT": 12.6, "LON": -130.8, "VMAX": 40.0, "MSLP": 1004.0, "RMAX": 15.0, "FSPD": 5.4677, "FDIR": 304.36945, "RENV": 90.0, "PENV": 1013.0, "VALIDT": 0, "DTG": "2026-06-04 18:00", "LATNOW": 11.3, "LONNOW": -136.0, "WINDNOW": 25.0, "DIRNOW": 3.0, "SPDNOW": 3.0, "TECH": "TRAK", "ADVNR": 22, "ATCFID": "EP012026", "NAME": "AMANDA", "FTECH": "OFCL", "FCST_DTG": "2026-06-08 00:00:00", "RUN_DTG": "2026-06-08 15:34:17", "BASIN": "EP", "STMNR": 1, "CAT_ID": null, "CAT_DESC": null, "MSGID": "WTPZ21 KNHC 080231", "VALIDTIME": "2026-06-04 18:00:00" }, "geometry": { "type": "Point", "coordinates": [ -130.800003, 12.6 ] } },
{ "type": "Feature", "properties": { "ID": 20871, "LAT": 13.2, "LON": -131.7, "VMAX": 40.0, "MSLP": 1004.0, "RMAX": 10.0, "FSPD": 3.65242, "FDIR": 286.3617, "RENV": 90.0, "PENV": 1013.0, "VALIDT": 0, "DTG": "2026-06-05 00:00", "LATNOW": 11.3, "LONNOW": -136.0, "WINDNOW": 25.0, "DIRNOW": 3.0, "SPDNOW": 3.0, "TECH": "TRAK", "ADVNR": 22, "ATCFID": "EP012026", "NAME": "AMANDA", "FTECH": "OFCL", "FCST_DTG": "2026-06-08 00:00:00", "RUN_DTG": "2026-06-08 15:34:17", "BASIN": "EP", "STMNR": 1, "CAT_ID": null, "CAT_DESC": null, "MSGID": "WTPZ21 KNHC 080231", "VALIDTIME": "2026-06-05 00:00:00" }, "geometry": { "type": "Point", "coordinates": [ -131.699997, 13.2 ] } },
{ "type": "Feature", "properties": { "ID": 20872, "LAT": 13.4, "LON": -132.4, "VMAX": 40.0, "MSLP": 1004.0, "RMAX": 10.0, "FSPD": 5.0318, "FDIR": 264.1319, "RENV": 90.0, "PENV": 1013.0, "VALIDT": 0, "DTG": "2026-06-05 06:00", "LATNOW": 11.3, "LONNOW": -136.0, "WINDNOW": 25.0, "DIRNOW": 3.0, "SPDNOW": 3.0, "TECH": "TRAK", "ADVNR": 22, "ATCFID": "EP012026", "NAME": "AMANDA", "FTECH": "OFCL", "FCST_DTG": "2026-06-08 00:00:00", "RUN_DTG": "2026-06-08 15:34:17", "BASIN": "EP", "STMNR": 1, "CAT_ID": null, "CAT_DESC": null, "MSGID": "WTPZ21 KNHC 080231", "VALIDTIME": "2026-06-05 06:00:00" }, "geometry": { "type": "Point", "coordinates": [ -132.399994, 13.4 ] } },
{ "type": "Feature", "properties": { "ID": 20873, "LAT": 13.3, "LON": -133.4, "VMAX": 40.0, "MSLP": 1004.0, "RMAX": 15.0, "FSPD": 2.06805, "FDIR": 255.59589, "RENV": 100.0, "PENV": 1012.0, "VALIDT": 0, "DTG": "2026-06-05 12:00", "LATNOW": 11.3, "LONNOW": -136.0, "WINDNOW": 25.0, "DIRNOW": 3.0, "SPDNOW": 3.0, "TECH": "TRAK", "ADVNR": 22, "ATCFID": "EP012026", "NAME": "AMANDA", "FTECH": "OFCL", "FCST_DTG": "2026-06-08 00:00:00", "RUN_DTG": "2026-06-08 15:34:17", "BASIN": "EP", "STMNR": 1, "CAT_ID": null, "CAT_DESC": null, "MSGID": "WTPZ21 KNHC 080231", "VALIDTIME": "2026-06-05 12:00:00" }, "geometry": { "type": "Point", "coordinates": [ -133.399994, 13.3 ] } },
{ "type": "Feature", "properties": { "ID": 20874, "LAT": 13.2, "LON": -133.8, "VMAX": 35.0, "MSLP": 1006.0, "RMAX": 15.0, "FSPD": 2.25287, "FDIR": 242.82549, "RENV": 120.0, "PENV": 1014.0, "VALIDT": 0, "DTG": "2026-06-05 18:00", "LATNOW": 11.3, "LONNOW": -136.0, "WINDNOW": 25.0, "DIRNOW": 3.0, "SPDNOW": 3.0, "TECH": "TRAK", "ADVNR": 22, "ATCFID": "EP012026", "NAME": "AMANDA", "FTECH": "OFCL", "FCST_DTG": "2026-06-08 00:00:00", "RUN_DTG": "2026-06-08 15:34:17", "BASIN": "EP", "STMNR": 1, "CAT_ID": null, "CAT_DESC": null, "MSGID": "WTPZ21 KNHC 080231", "VALIDTIME": "2026-06-05 18:00:00" }, "geometry": { "type": "Point", "coordinates": [ -133.800003, 13.2 ] } },
{ "type": "Feature", "properties": { "ID": 20875, "LAT": 13.0, "LON": -134.2, "VMAX": 35.0, "MSLP": 1006.0, "RMAX": 15.0, "FSPD": 2.25437, "FDIR": 242.84514, "RENV": 120.0, "PENV": 1014.0, "VALIDT": 0, "DTG": "2026-06-06 00:00", "LATNOW": 11.3, "LONNOW": -136.0, "WINDNOW": 25.0, "DIRNOW": 3.0, "SPDNOW": 3.0, "TECH": "TRAK", "ADVNR": 22, "ATCFID": "EP012026", "NAME": "AMANDA", "FTECH": "OFCL", "FCST_DTG": "2026-06-08 00:00:00", "RUN_DTG": "2026-06-08 15:34:17", "BASIN": "EP", "STMNR": 1, "CAT_ID": null, "CAT_DESC": null, "MSGID": "WTPZ21 KNHC 080231", "VALIDTIME": "2026-06-06 00:00:00" }, "geometry": { "type": "Point", "coordinates": [ -134.199997, 13.0 ] } },
{ "type": "Feature", "properties": { "ID": 20876, "LAT": 12.8, "LON": -134.6, "VMAX": 35.0, "MSLP": 1006.0, "RMAX": 15.0, "FSPD": 0.71864, "FDIR": 135.71347, "RENV": 120.0, "PENV": 1014.0, "VALIDT": 0, "DTG": "2026-06-06 06:00", "LATNOW": 11.3, "LONNOW": -136.0, "WINDNOW": 25.0, "DIRNOW": 3.0, "SPDNOW": 3.0, "TECH": "TRAK", "ADVNR": 22, "ATCFID": "EP012026", "NAME": "AMANDA", "FTECH": "OFCL", "FCST_DTG": "2026-06-08 00:00:00", "RUN_DTG": "2026-06-08 15:34:17", "BASIN": "EP", "STMNR": 1, "CAT_ID": null, "CAT_DESC": null, "MSGID": "WTPZ21 KNHC 080231", "VALIDTIME": "2026-06-06 06:00:00" }, "geometry": { "type": "Point", "coordinates": [ -134.600006, 12.8 ] } },
{ "type": "Feature", "properties": { "ID": 20877, "LAT": 12.7, "LON": -134.5, "VMAX": 35.0, "MSLP": 1006.0, "RMAX": 15.0, "FSPD": 1.62298, "FDIR": 198.02426, "RENV": 120.0, "PENV": 1014.0, "VALIDT": 0, "DTG": "2026-06-06 12:00", "LATNOW": 11.3, "LONNOW": -136.0, "WINDNOW": 25.0, "DIRNOW": 3.0, "SPDNOW": 3.0, "TECH": "TRAK", "ADVNR": 22, "ATCFID": "EP012026", "NAME": "AMANDA", "FTECH": "OFCL", "FCST_DTG": "2026-06-08 00:00:00", "RUN_DTG": "2026-06-08 15:34:17", "BASIN": "EP", "STMNR": 1, "CAT_ID": null, "CAT_DESC": null, "MSGID": "WTPZ21 KNHC 080231", "VALIDTIME": "2026-06-06 12:00:00" }, "geometry": { "type": "Point", "coordinates": [ -134.5, 12.7 ] } },
{ "type": "Feature", "properties": { "ID": 20878, "LAT": 12.4, "LON": -134.6, "VMAX": 30.0, "MSLP": 1007.0, "RMAX": 25.0, "FSPD": 1.43845, "FDIR": 224.33435, "RENV": 120.0, "PENV": 1013.0, "VALIDT": 0, "DTG": "2026-06-06 18:00", "LATNOW": 11.3, "LONNOW": -136.0, "WINDNOW": 25.0, "DIRNOW": 3.0, "SPDNOW": 3.0, "TECH": "TRAK", "ADVNR": 22, "ATCFID": "EP012026", "NAME": "AMANDA", "FTECH": "OFCL", "FCST_DTG": "2026-06-08 00:00:00", "RUN_DTG": "2026-06-08 15:34:17", "BASIN": "EP", "STMNR": 1, "CAT_ID": null, "CAT_DESC": null, "MSGID": "WTPZ21 KNHC 080231", "VALIDTIME": "2026-06-06 18:00:00" }, "geometry": { "type": "Point", "coordinates": [ -134.600006, 12.4 ] } },
{ "type": "Feature", "properties": { "ID": 20879, "LAT": 12.2, "LON": -134.8, "VMAX": 30.0, "MSLP": 1007.0, "RMAX": 25.0, "FSPD": 1.84237, "FDIR": 213.10298, "RENV": 120.0, "PENV": 1013.0, "VALIDT": 0, "DTG": "2026-06-07 00:00", "LATNOW": 11.3, "LONNOW": -136.0, "WINDNOW": 25.0, "DIRNOW": 3.0, "SPDNOW": 3.0, "TECH": "TRAK", "ADVNR": 22, "ATCFID": "EP012026", "NAME": "AMANDA", "FTECH": "OFCL", "FCST_DTG": "2026-06-08 00:00:00", "RUN_DTG": "2026-06-08 15:34:17", "BASIN": "EP", "STMNR": 1, "CAT_ID": null, "CAT_DESC": null, "MSGID": "WTPZ21 KNHC 080231", "VALIDTIME": "2026-06-07 00:00:00" }, "geometry": { "type": "Point", "coordinates": [ -134.800003, 12.2 ] } },
{ "type": "Feature", "properties": { "ID": 20880, "LAT": 11.9, "LON": -135.0, "VMAX": 30.0, "MSLP": 1007.0, "RMAX": 25.0, "FSPD": 1.84297, "FDIR": 213.13199, "RENV": 120.0, "PENV": 1013.0, "VALIDT": 0, "DTG": "2026-06-07 06:00", "LATNOW": 11.3, "LONNOW": -136.0, "WINDNOW": 25.0, "DIRNOW": 3.0, "SPDNOW": 3.0, "TECH": "TRAK", "ADVNR": 22, "ATCFID": "EP012026", "NAME": "AMANDA", "FTECH": "OFCL", "FCST_DTG": "2026-06-08 00:00:00", "RUN_DTG": "2026-06-08 15:34:17", "BASIN": "EP", "STMNR": 1, "CAT_ID": null, "CAT_DESC": null, "MSGID": "WTPZ21 KNHC 080231", "VALIDTIME": "2026-06-07 06:00:00" }, "geometry": { "type": "Point", "coordinates": [ -135.0, 11.9 ] } },
{ "type": "Feature", "properties": { "ID": 20881, "LAT": 11.6, "LON": -135.2, "VMAX": 30.0, "MSLP": 1007.0, "RMAX": 25.0, "FSPD": 1.82917, "FDIR": 235.77171, "RENV": 120.0, "PENV": 1013.0, "VALIDT": 0, "DTG": "2026-06-07 12:00", "LATNOW": 11.3, "LONNOW": -136.0, "WINDNOW": 25.0, "DIRNOW": 3.0, "SPDNOW": 3.0, "TECH": "TRAK", "ADVNR": 22, "ATCFID": "EP012026", "NAME": "AMANDA", "FTECH": "OFCL", "FCST_DTG": "2026-06-08 00:00:00", "RUN_DTG": "2026-06-08 15:34:17", "BASIN": "EP", "STMNR": 1, "CAT_ID": null, "CAT_DESC": null, "MSGID": "WTPZ21 KNHC 080231", "VALIDTIME": "2026-06-07 12:00:00" }, "geometry": { "type": "Point", "coordinates": [ -135.199997, 11.6 ] } },
{ "type": "Feature", "properties": { "ID": 20882, "LAT": 11.4, "LON": -135.5, "VMAX": 30.0, "MSLP": 1007.0, "RMAX": 25.0, "FSPD": 2.57385, "FDIR": 258.4705, "RENV": 120.0, "PENV": 1013.0, "VALIDT": 0, "DTG": "2026-06-07 18:00", "LATNOW": 11.3, "LONNOW": -136.0, "WINDNOW": 25.0, "DIRNOW": 3.0, "SPDNOW": 3.0, "TECH": "TRAK", "ADVNR": 22, "ATCFID": "EP012026", "NAME": "AMANDA", "FTECH": "OFCL", "FCST_DTG": "2026-06-08 00:00:00", "RUN_DTG": "2026-06-08 15:34:17", "BASIN": "EP", "STMNR": 1, "CAT_ID": null, "CAT_DESC": null, "MSGID": "WTPZ21 KNHC 080231", "VALIDTIME": "2026-06-07 18:00:00" }, "geometry": { "type": "Point", "coordinates": [ -135.5, 11.4 ] } },
{ "type": "Feature", "properties": { "ID": 20883, "LAT": 11.3, "LON": -136.0, "VMAX": 25.0, "MSLP": 1007.0, "RMAX": 20.0, "FSPD": 3.02686, "FDIR": 269.99997, "RENV": 110.0, "PENV": 1009.0, "VALIDT": 0, "DTG": "2026-06-08 00:00", "LATNOW": 11.3, "LONNOW": -136.0, "WINDNOW": 25.0, "DIRNOW": 3.0, "SPDNOW": 3.0, "TECH": "TRAK", "ADVNR": 22, "ATCFID": "EP012026", "NAME": "AMANDA", "FTECH": "OFCL", "FCST_DTG": "2026-06-08 00:00:00", "RUN_DTG": "2026-06-08 15:34:17", "BASIN": "EP", "STMNR": 1, "CAT_ID": null, "CAT_DESC": null, "MSGID": "WTPZ21 KNHC 080231", "VALIDTIME": "2026-06-08 00:00:00" }, "geometry": { "type": "Point", "coordinates": [ -136.0, 11.3 ] } },
{ "type": "Feature", "properties": { "ID": 20884, "LAT": 11.3, "LON": -136.3, "VMAX": 25.0, "MSLP": 1007.0, "RMAX": 20.0, "FSPD": 2.13192, "FDIR": 251.2317, "RENV": 250.0, "PENV": 1012.0, "VALIDT": 3, "DTG": "2026-06-08 03:00", "LATNOW": 11.3, "LONNOW": -136.0, "WINDNOW": 25.0, "DIRNOW": 3.0, "SPDNOW": 3.0, "TECH": "FCST", "ADVNR": 22, "ATCFID": "EP012026", "NAME": "AMANDA", "FTECH": "OFCL", "FCST_DTG": "2026-06-08 00:00:00", "RUN_DTG": "2026-06-08 15:34:17", "BASIN": "EP", "STMNR": 1, "CAT_ID": null, "CAT_DESC": null, "MSGID": "WTPZ21 KNHC 080231", "VALIDTIME": "2026-06-08 03:00:00" }, "geometry": { "type": "Point", "coordinates": [ -136.300003, 11.3 ] } },
{ "type": "Feature", "properties": { "ID": 20885, "LAT": 11.1, "LON": -136.9, "VMAX": 25.0, "MSLP": 1011.80975, "RMAX": 21.74915, "FSPD": 2.88313, "FDIR": 254.47556, "RENV": 250.0, "PENV": 1012.0, "VALIDT": 12, "DTG": "2026-06-08 12:00", "LATNOW": 11.3, "LONNOW": -136.0, "WINDNOW": 25.0, "DIRNOW": 3.0, "SPDNOW": 3.0, "TECH": "FCST", "ADVNR": 22, "ATCFID": "EP012026", "NAME": "AMANDA", "FTECH": "OFCL", "FCST_DTG": "2026-06-08 00:00:00", "RUN_DTG": "2026-06-08 15:34:17", "BASIN": "EP", "STMNR": 1, "CAT_ID": null, "CAT_DESC": null, "MSGID": "WTPZ21 KNHC 080231", "VALIDTIME": "2026-06-08 12:00:00" }, "geometry": { "type": "Point", "coordinates": [ -136.899994, 11.1 ] } },
{ "type": "Feature", "properties": { "ID": 20886, "LAT": 10.8, "LON": -138.0, "VMAX": 25.0, "MSLP": 1011.80975, "RMAX": 21.74915, "FSPD": 2.64307, "FDIR": 253.02472, "RENV": 250.0, "PENV": 1012.0, "VALIDT": 24, "DTG": "2026-06-09 00:00", "LATNOW": 11.3, "LONNOW": -136.0, "WINDNOW": 25.0, "DIRNOW": 3.0, "SPDNOW": 3.0, "TECH": "FCST", "ADVNR": 22, "ATCFID": "EP012026", "NAME": "AMANDA", "FTECH": "OFCL", "FCST_DTG": "2026-06-08 00:00:00", "RUN_DTG": "2026-06-08 15:34:17", "BASIN": "EP", "STMNR": 1, "CAT_ID": null, "CAT_DESC": null, "MSGID": "WTPZ21 KNHC 080231", "VALIDTIME": "2026-06-09 00:00:00" }, "geometry": { "type": "Point", "coordinates": [ -138.0, 10.8 ] } },
{ "type": "Feature", "properties": { "ID": 20887, "LAT": 10.5, "LON": -139.0, "VMAX": 25.0, "MSLP": 1011.80975, "RMAX": 21.74915, "FSPD": 3.07923, "FDIR": 260.3825, "RENV": 250.0, "PENV": 1012.0, "VALIDT": 36, "DTG": "2026-06-09 12:00", "LATNOW": 11.3, "LONNOW": -136.0, "WINDNOW": 25.0, "DIRNOW": 3.0, "SPDNOW": 3.0, "TECH": "FCST", "ADVNR": 22, "ATCFID": "EP012026", "NAME": "AMANDA", "FTECH": "OFCL", "FCST_DTG": "2026-06-08 00:00:00", "RUN_DTG": "2026-06-08 15:34:17", "BASIN": "EP", "STMNR": 1, "CAT_ID": null, "CAT_DESC": null, "MSGID": "WTPZ21 KNHC 080231", "VALIDTIME": "2026-06-09 12:00:00" }, "geometry": { "type": "Point", "coordinates": [ -139.0, 10.5 ] } },
{ "type": "Feature", "properties": { "ID": 20888, "LAT": 10.3, "LON": -140.2, "VMAX": 25.0, "MSLP": 1011.80975, "RMAX": 21.74915, "FSPD": 2.08958, "FDIR": 255.74751, "RENV": 250.0, "PENV": 1012.0, "VALIDT": 48, "DTG": "2026-06-10 00:00", "LATNOW": 11.3, "LONNOW": -136.0, "WINDNOW": 25.0, "DIRNOW": 3.0, "SPDNOW": 3.0, "TECH": "FCST", "ADVNR": 22, "ATCFID": "EP012026", "NAME": "AMANDA", "FTECH": "OFCL", "FCST_DTG": "2026-06-08 00:00:00", "RUN_DTG": "2026-06-08 15:34:17", "BASIN": "EP", "STMNR": 1, "CAT_ID": null, "CAT_DESC": null, "MSGID": "WTPZ21 KNHC 080231", "VALIDTIME": "2026-06-10 00:00:00" }, "geometry": { "type": "Point", "coordinates": [ -140.199997, 10.3 ] } },
{ "type": "Feature", "properties": { "ID": 20889, "LAT": 10.1, "LON": -141.0, "VMAX": 25.0, "MSLP": 1011.80975, "RMAX": 21.74915, "FSPD": 2.08958, "FDIR": 255.74751, "RENV": 250.0, "PENV": 1012.0, "VALIDT": 60, "DTG": "2026-06-10 12:00", "LATNOW": 11.3, "LONNOW": -136.0, "WINDNOW": 25.0, "DIRNOW": 3.0, "SPDNOW": 3.0, "TECH": "FCST", "ADVNR": 22, "ATCFID": "EP012026", "NAME": "AMANDA", "FTECH": "OFCL", "FCST_DTG": "2026-06-08 00:00:00", "RUN_DTG": "2026-06-08 15:34:17", "BASIN": "EP", "STMNR": 1, "CAT_ID": null, "CAT_DESC": null, "MSGID": "WTPZ21 KNHC 080231", "VALIDTIME": "2026-06-10 12:00:00" }, "geometry": { "type": "Point", "coordinates": [ -141.0, 10.1 ] } },
{ "type": "Feature", "properties": { "ID": 20883, "LAT": 11.3, "LON": -136.0, "VMAX": 25.0, "MSLP": 1007.0, "RMAX": 20.0, "FSPD": 3.02686, "FDIR": 269.99997, "RENV": 110.0, "PENV": 1009.0, "VALIDT": 0, "DTG": "2026-06-08 00:00", "LATNOW": 11.3, "LONNOW": -136.0, "WINDNOW": 25.0, "DIRNOW": 3.0, "SPDNOW": 3.0, "TECH": "TRAK", "ADVNR": 22, "ATCFID": "EP012026", "NAME": "AMANDA", "FTECH": "OFCL", "FCST_DTG": "2026-06-08 00:00:00", "RUN_DTG": "2026-06-08 15:34:17", "BASIN": "EP", "STMNR": 1, "CAT_ID": null, "CAT_DESC": null, "MSGID": "WTPZ21 KNHC 080231", "VALIDTIME": "2026-06-08 00:00:00" }, "geometry": { "type": "LineString", "coordinates": [ [ -124.5, 8.5 ], [ -125.5, 8.9 ], [ -125.7, 9.4 ], [ -126.0, 9.7 ], [ -126.7, 9.6 ], [ -126.6, 9.3 ], [ -126.7, 9.6 ], [ -127.1, 10.0 ], [ -127.9, 10.4 ], [ -128.6, 10.5 ], [ -128.9, 11.2 ], [ -129.4, 11.9 ], [ -130.2, 12.3 ], [ -130.8, 12.6 ], [ -131.7, 13.2 ], [ -132.4, 13.4 ], [ -133.4, 13.3 ], [ -133.8, 13.2 ], [ -134.2, 13.0 ], [ -134.6, 12.8 ], [ -134.5, 12.7 ], [ -134.6, 12.4 ], [ -134.8, 12.2 ], [ -135.0, 11.9 ], [ -135.2, 11.6 ], [ -135.5, 11.4 ], [ -136.0, 11.3 ] ] } },
{ "type": "Feature", "properties": { "ID": 20889, "LAT": 10.1, "LON": -141.0, "VMAX": 25.0, "MSLP": 1011.80975, "RMAX": 21.74915, "FSPD": 2.08958, "FDIR": 255.74751, "RENV": 250.0, "PENV": 1012.0, "VALIDT": 60, "DTG": "2026-06-10 12:00", "LATNOW": 11.3, "LONNOW": -136.0, "WINDNOW": 25.0, "DIRNOW": 3.0, "SPDNOW": 3.0, "TECH": "FCST", "ADVNR": 22, "ATCFID": "EP012026", "NAME": "AMANDA", "FTECH": "OFCL", "FCST_DTG": "2026-06-08 00:00:00", "RUN_DTG": "2026-06-08 15:34:17", "BASIN": "EP", "STMNR": 1, "CAT_ID": null, "CAT_DESC": null, "MSGID": "WTPZ21 KNHC 080231", "VALIDTIME": "2026-06-10 12:00:00" }, "geometry": { "type": "LineString", "coordinates": [ [ -136.0, 11.3 ], [ -136.3, 11.3 ], [ -136.9, 11.1 ], [ -138.0, 10.8 ], [ -139.0, 10.5 ], [ -140.2, 10.3 ], [ -141.0, 10.1 ] ] } }
]
}
