{
"type": "FeatureCollection",
"crs": { "type": "name", "properties": { "name": "urn:ogc:def:crs:OGC:1.3:CRS84" } },
"features": [
{ "type": "Feature", "properties": { "ID": 47538, "LAT": 7.8, "LON": -98.2, "VMAX": 25.0, "MSLP": 1008.0, "RMAX": 100.0, "FSPD": 13.49123, "FDIR": 79.00876, "RENV": 250.0, "PENV": 1010.0, "VALIDT": 0, "DTG": "2026-07-23 06:00", "LATNOW": 24.6, "LONNOW": -138.9, "WINDNOW": 35.0, "DIRNOW": 6.0, "SPDNOW": 3.0, "TECH": "TRAK", "ADVNR": 39, "ATCFID": "EP072026", "NAME": "GENEVIEVE", "FTECH": "OFCL", "FCST_DTG": "2026-08-02 18:00:00", "RUN_DTG": "2026-08-03 08:24:40", "BASIN": "EP", "STMNR": 7, "CAT_ID": null, "CAT_DESC": null, "MSGID": "WTPZ22 KNHC 022033", "VALIDTIME": "2026-07-23 06:00:00" }, "geometry": { "type": "Point", "coordinates": [ -98.199997, 7.8 ] } },
{ "type": "Feature", "properties": { "ID": 47539, "LAT": 8.3, "LON": -95.6, "VMAX": 25.0, "MSLP": 1007.0, "RMAX": 100.0, "FSPD": 3.42105, "FDIR": 296.8161, "RENV": 250.0, "PENV": 1010.0, "VALIDT": 0, "DTG": "2026-07-23 12:00", "LATNOW": 24.6, "LONNOW": -138.9, "WINDNOW": 35.0, "DIRNOW": 6.0, "SPDNOW": 3.0, "TECH": "TRAK", "ADVNR": 39, "ATCFID": "EP072026", "NAME": "GENEVIEVE", "FTECH": "OFCL", "FCST_DTG": "2026-08-02 18:00:00", "RUN_DTG": "2026-08-03 08:24:40", "BASIN": "EP", "STMNR": 7, "CAT_ID": null, "CAT_DESC": null, "MSGID": "WTPZ22 KNHC 022033", "VALIDTIME": "2026-07-23 12:00:00" }, "geometry": { "type": "Point", "coordinates": [ -95.599998, 8.3 ] } },
{ "type": "Feature", "properties": { "ID": 47540, "LAT": 8.6, "LON": -96.2, "VMAX": 25.0, "MSLP": 1007.0, "RMAX": 100.0, "FSPD": 5.01694, "FDIR": 294.2152, "RENV": 250.0, "PENV": 1010.0, "VALIDT": 0, "DTG": "2026-07-23 18:00", "LATNOW": 24.6, "LONNOW": -138.9, "WINDNOW": 35.0, "DIRNOW": 6.0, "SPDNOW": 3.0, "TECH": "TRAK", "ADVNR": 39, "ATCFID": "EP072026", "NAME": "GENEVIEVE", "FTECH": "OFCL", "FCST_DTG": "2026-08-02 18:00:00", "RUN_DTG": "2026-08-03 08:24:40", "BASIN": "EP", "STMNR": 7, "CAT_ID": null, "CAT_DESC": null, "MSGID": "WTPZ22 KNHC 022033", "VALIDTIME": "2026-07-23 18:00:00" }, "geometry": { "type": "Point", "coordinates": [ -96.199997, 8.6 ] } },
{ "type": "Feature", "properties": { "ID": 47541, "LAT": 9.0, "LON": -97.1, "VMAX": 25.0, "MSLP": 1007.0, "RMAX": 100.0, "FSPD": 9.27154, "FDIR": 279.582, "RENV": 250.0, "PENV": 1009.0, "VALIDT": 0, "DTG": "2026-07-24 00:00", "LATNOW": 24.6, "LONNOW": -138.9, "WINDNOW": 35.0, "DIRNOW": 6.0, "SPDNOW": 3.0, "TECH": "TRAK", "ADVNR": 39, "ATCFID": "EP072026", "NAME": "GENEVIEVE", "FTECH": "OFCL", "FCST_DTG": "2026-08-02 18:00:00", "RUN_DTG": "2026-08-03 08:24:40", "BASIN": "EP", "STMNR": 7, "CAT_ID": null, "CAT_DESC": null, "MSGID": "WTPZ22 KNHC 022033", "VALIDTIME": "2026-07-24 00:00:00" }, "geometry": { "type": "Point", "coordinates": [ -97.099998, 9.0 ] } },
{ "type": "Feature", "properties": { "ID": 47542, "LAT": 9.3, "LON": -98.9, "VMAX": 25.0, "MSLP": 1006.0, "RMAX": 100.0, "FSPD": 5.48067, "FDIR": 247.94713, "RENV": 180.0, "PENV": 1010.0, "VALIDT": 0, "DTG": "2026-07-24 06:00", "LATNOW": 24.6, "LONNOW": -138.9, "WINDNOW": 35.0, "DIRNOW": 6.0, "SPDNOW": 3.0, "TECH": "TRAK", "ADVNR": 39, "ATCFID": "EP072026", "NAME": "GENEVIEVE", "FTECH": "OFCL", "FCST_DTG": "2026-08-02 18:00:00", "RUN_DTG": "2026-08-03 08:24:40", "BASIN": "EP", "STMNR": 7, "CAT_ID": null, "CAT_DESC": null, "MSGID": "WTPZ22 KNHC 022033", "VALIDTIME": "2026-07-24 06:00:00" }, "geometry": { "type": "Point", "coordinates": [ -98.900002, 9.3 ] } },
{ "type": "Feature", "properties": { "ID": 47543, "LAT": 8.9, "LON": -99.9, "VMAX": 30.0, "MSLP": 1005.0, "RMAX": 50.0, "FSPD": 7.64005, "FDIR": 273.86096, "RENV": 160.0, "PENV": 1009.0, "VALIDT": 0, "DTG": "2026-07-24 12:00", "LATNOW": 24.6, "LONNOW": -138.9, "WINDNOW": 35.0, "DIRNOW": 6.0, "SPDNOW": 3.0, "TECH": "TRAK", "ADVNR": 39, "ATCFID": "EP072026", "NAME": "GENEVIEVE", "FTECH": "OFCL", "FCST_DTG": "2026-08-02 18:00:00", "RUN_DTG": "2026-08-03 08:24:40", "BASIN": "EP", "STMNR": 7, "CAT_ID": null, "CAT_DESC": null, "MSGID": "WTPZ22 KNHC 022033", "VALIDTIME": "2026-07-24 12:00:00" }, "geometry": { "type": "Point", "coordinates": [ -99.900002, 8.9 ] } },
{ "type": "Feature", "properties": { "ID": 47544, "LAT": 9.0, "LON": -101.4, "VMAX": 35.0, "MSLP": 1003.0, "RMAX": 40.0, "FSPD": 3.70164, "FDIR": 286.13815, "RENV": 160.0, "PENV": 1009.0, "VALIDT": 0, "DTG": "2026-07-24 18:00", "LATNOW": 24.6, "LONNOW": -138.9, "WINDNOW": 35.0, "DIRNOW": 6.0, "SPDNOW": 3.0, "TECH": "TRAK", "ADVNR": 39, "ATCFID": "EP072026", "NAME": "GENEVIEVE", "FTECH": "OFCL", "FCST_DTG": "2026-08-02 18:00:00", "RUN_DTG": "2026-08-03 08:24:40", "BASIN": "EP", "STMNR": 7, "CAT_ID": null, "CAT_DESC": null, "MSGID": "WTPZ22 KNHC 022033", "VALIDTIME": "2026-07-24 18:00:00" }, "geometry": { "type": "Point", "coordinates": [ -101.400002, 9.0 ] } },
{ "type": "Feature", "properties": { "ID": 47545, "LAT": 9.2, "LON": -102.1, "VMAX": 45.0, "MSLP": 1000.0, "RMAX": 40.0, "FSPD": 5.2417, "FDIR": 299.38806, "RENV": 180.0, "PENV": 1009.0, "VALIDT": 0, "DTG": "2026-07-25 00:00", "LATNOW": 24.6, "LONNOW": -138.9, "WINDNOW": 35.0, "DIRNOW": 6.0, "SPDNOW": 3.0, "TECH": "TRAK", "ADVNR": 39, "ATCFID": "EP072026", "NAME": "GENEVIEVE", "FTECH": "OFCL", "FCST_DTG": "2026-08-02 18:00:00", "RUN_DTG": "2026-08-03 08:24:40", "BASIN": "EP", "STMNR": 7, "CAT_ID": null, "CAT_DESC": null, "MSGID": "WTPZ22 KNHC 022033", "VALIDTIME": "2026-07-25 00:00:00" }, "geometry": { "type": "Point", "coordinates": [ -102.099998, 9.2 ] } },
{ "type": "Feature", "properties": { "ID": 47546, "LAT": 9.7, "LON": -103.0, "VMAX": 45.0, "MSLP": 1000.0, "RMAX": 20.0, "FSPD": 5.43202, "FDIR": 319.25717, "RENV": 180.0, "PENV": 1009.0, "VALIDT": 0, "DTG": "2026-07-25 06:00", "LATNOW": 24.6, "LONNOW": -138.9, "WINDNOW": 35.0, "DIRNOW": 6.0, "SPDNOW": 3.0, "TECH": "TRAK", "ADVNR": 39, "ATCFID": "EP072026", "NAME": "GENEVIEVE", "FTECH": "OFCL", "FCST_DTG": "2026-08-02 18:00:00", "RUN_DTG": "2026-08-03 08:24:40", "BASIN": "EP", "STMNR": 7, "CAT_ID": null, "CAT_DESC": null, "MSGID": "WTPZ22 KNHC 022033", "VALIDTIME": "2026-07-25 06:00:00" }, "geometry": { "type": "Point", "coordinates": [ -103.0, 9.7 ] } },
{ "type": "Feature", "properties": { "ID": 47547, "LAT": 10.5, "LON": -103.7, "VMAX": 50.0, "MSLP": 997.0, "RMAX": 10.0, "FSPD": 7.93739, "FDIR": 296.98065, "RENV": 180.0, "PENV": 1009.0, "VALIDT": 0, "DTG": "2026-07-25 12:00", "LATNOW": 24.6, "LONNOW": -138.9, "WINDNOW": 35.0, "DIRNOW": 6.0, "SPDNOW": 3.0, "TECH": "TRAK", "ADVNR": 39, "ATCFID": "EP072026", "NAME": "GENEVIEVE", "FTECH": "OFCL", "FCST_DTG": "2026-08-02 18:00:00", "RUN_DTG": "2026-08-03 08:24:40", "BASIN": "EP", "STMNR": 7, "CAT_ID": null, "CAT_DESC": null, "MSGID": "WTPZ22 KNHC 022033", "VALIDTIME": "2026-07-25 12:00:00" }, "geometry": { "type": "Point", "coordinates": [ -103.699997, 10.5 ] } },
{ "type": "Feature", "properties": { "ID": 47548, "LAT": 11.2, "LON": -105.1, "VMAX": 55.0, "MSLP": 995.0, "RMAX": 15.0, "FSPD": 5.91108, "FDIR": 301.47882, "RENV": 210.0, "PENV": 1010.0, "VALIDT": 0, "DTG": "2026-07-25 18:00", "LATNOW": 24.6, "LONNOW": -138.9, "WINDNOW": 35.0, "DIRNOW": 6.0, "SPDNOW": 3.0, "TECH": "TRAK", "ADVNR": 39, "ATCFID": "EP072026", "NAME": "GENEVIEVE", "FTECH": "OFCL", "FCST_DTG": "2026-08-02 18:00:00", "RUN_DTG": "2026-08-03 08:24:40", "BASIN": "EP", "STMNR": 7, "CAT_ID": null, "CAT_DESC": null, "MSGID": "WTPZ22 KNHC 022033", "VALIDTIME": "2026-07-25 18:00:00" }, "geometry": { "type": "Point", "coordinates": [ -105.099998, 11.2 ] } },
{ "type": "Feature", "properties": { "ID": 47549, "LAT": 11.8, "LON": -106.1, "VMAX": 65.0, "MSLP": 991.0, "RMAX": 15.0, "FSPD": 8.59218, "FDIR": 298.61935, "RENV": 210.0, "PENV": 1010.0, "VALIDT": 0, "DTG": "2026-07-26 00:00", "LATNOW": 24.6, "LONNOW": -138.9, "WINDNOW": 35.0, "DIRNOW": 6.0, "SPDNOW": 3.0, "TECH": "TRAK", "ADVNR": 39, "ATCFID": "EP072026", "NAME": "GENEVIEVE", "FTECH": "OFCL", "FCST_DTG": "2026-08-02 18:00:00", "RUN_DTG": "2026-08-03 08:24:40", "BASIN": "EP", "STMNR": 7, "CAT_ID": null, "CAT_DESC": null, "MSGID": "WTPZ22 KNHC 022033", "VALIDTIME": "2026-07-26 00:00:00" }, "geometry": { "type": "Point", "coordinates": [ -106.099998, 11.8 ] } },
{ "type": "Feature", "properties": { "ID": 47550, "LAT": 12.6, "LON": -107.6, "VMAX": 80.0, "MSLP": 980.0, "RMAX": 20.0, "FSPD": 6.76302, "FDIR": 297.15527, "RENV": 200.0, "PENV": 1010.0, "VALIDT": 0, "DTG": "2026-07-26 06:00", "LATNOW": 24.6, "LONNOW": -138.9, "WINDNOW": 35.0, "DIRNOW": 6.0, "SPDNOW": 3.0, "TECH": "TRAK", "ADVNR": 39, "ATCFID": "EP072026", "NAME": "GENEVIEVE", "FTECH": "OFCL", "FCST_DTG": "2026-08-02 18:00:00", "RUN_DTG": "2026-08-03 08:24:40", "BASIN": "EP", "STMNR": 7, "CAT_ID": null, "CAT_DESC": null, "MSGID": "WTPZ22 KNHC 022033", "VALIDTIME": "2026-07-26 06:00:00" }, "geometry": { "type": "Point", "coordinates": [ -107.599998, 12.6 ] } },
{ "type": "Feature", "properties": { "ID": 47551, "LAT": 13.2, "LON": -108.8, "VMAX": 100.0, "MSLP": 967.0, "RMAX": 20.0, "FSPD": 5.87686, "FDIR": 290.49643, "RENV": 200.0, "PENV": 1009.0, "VALIDT": 0, "DTG": "2026-07-26 12:00", "LATNOW": 24.6, "LONNOW": -138.9, "WINDNOW": 35.0, "DIRNOW": 6.0, "SPDNOW": 3.0, "TECH": "TRAK", "ADVNR": 39, "ATCFID": "EP072026", "NAME": "GENEVIEVE", "FTECH": "OFCL", "FCST_DTG": "2026-08-02 18:00:00", "RUN_DTG": "2026-08-03 08:24:40", "BASIN": "EP", "STMNR": 7, "CAT_ID": null, "CAT_DESC": null, "MSGID": "WTPZ22 KNHC 022033", "VALIDTIME": "2026-07-26 12:00:00" }, "geometry": { "type": "Point", "coordinates": [ -108.800003, 13.2 ] } },
{ "type": "Feature", "properties": { "ID": 47552, "LAT": 13.6, "LON": -109.9, "VMAX": 115.0, "MSLP": 950.0, "RMAX": 10.0, "FSPD": 6.09263, "FDIR": 312.49274, "RENV": 200.0, "PENV": 1011.0, "VALIDT": 0, "DTG": "2026-07-26 18:00", "LATNOW": 24.6, "LONNOW": -138.9, "WINDNOW": 35.0, "DIRNOW": 6.0, "SPDNOW": 3.0, "TECH": "TRAK", "ADVNR": 39, "ATCFID": "EP072026", "NAME": "GENEVIEVE", "FTECH": "OFCL", "FCST_DTG": "2026-08-02 18:00:00", "RUN_DTG": "2026-08-03 08:24:40", "BASIN": "EP", "STMNR": 7, "CAT_ID": null, "CAT_DESC": null, "MSGID": "WTPZ22 KNHC 022033", "VALIDTIME": "2026-07-26 18:00:00" }, "geometry": { "type": "Point", "coordinates": [ -109.900002, 13.6 ] } },
{ "type": "Feature", "properties": { "ID": 47553, "LAT": 14.4, "LON": -110.8, "VMAX": 130.0, "MSLP": 934.0, "RMAX": 10.0, "FSPD": 5.74587, "FDIR": 308.80933, "RENV": 200.0, "PENV": 1008.0, "VALIDT": 0, "DTG": "2026-07-27 00:00", "LATNOW": 24.6, "LONNOW": -138.9, "WINDNOW": 35.0, "DIRNOW": 6.0, "SPDNOW": 3.0, "TECH": "TRAK", "ADVNR": 39, "ATCFID": "EP072026", "NAME": "GENEVIEVE", "FTECH": "OFCL", "FCST_DTG": "2026-08-02 18:00:00", "RUN_DTG": "2026-08-03 08:24:40", "BASIN": "EP", "STMNR": 7, "CAT_ID": null, "CAT_DESC": null, "MSGID": "WTPZ22 KNHC 022033", "VALIDTIME": "2026-07-27 00:00:00" }, "geometry": { "type": "Point", "coordinates": [ -110.800003, 14.4 ] } },
{ "type": "Feature", "properties": { "ID": 47554, "LAT": 15.1, "LON": -111.7, "VMAX": 140.0, "MSLP": 925.0, "RMAX": 10.0, "FSPD": 5.84179, "FDIR": 301.8958, "RENV": 190.0, "PENV": 1010.0, "VALIDT": 0, "DTG": "2026-07-27 06:00", "LATNOW": 24.6, "LONNOW": -138.9, "WINDNOW": 35.0, "DIRNOW": 6.0, "SPDNOW": 3.0, "TECH": "TRAK", "ADVNR": 39, "ATCFID": "EP072026", "NAME": "GENEVIEVE", "FTECH": "OFCL", "FCST_DTG": "2026-08-02 18:00:00", "RUN_DTG": "2026-08-03 08:24:40", "BASIN": "EP", "STMNR": 7, "CAT_ID": null, "CAT_DESC": null, "MSGID": "WTPZ22 KNHC 022033", "VALIDTIME": "2026-07-27 06:00:00" }, "geometry": { "type": "Point", "coordinates": [ -111.699997, 15.1 ] } },
{ "type": "Feature", "properties": { "ID": 47555, "LAT": 15.7, "LON": -112.7, "VMAX": 135.0, "MSLP": 929.0, "RMAX": 15.0, "FSPD": 5.34894, "FDIR": 312.31744, "RENV": 200.0, "PENV": 1009.0, "VALIDT": 0, "DTG": "2026-07-27 12:00", "LATNOW": 24.6, "LONNOW": -138.9, "WINDNOW": 35.0, "DIRNOW": 6.0, "SPDNOW": 3.0, "TECH": "TRAK", "ADVNR": 39, "ATCFID": "EP072026", "NAME": "GENEVIEVE", "FTECH": "OFCL", "FCST_DTG": "2026-08-02 18:00:00", "RUN_DTG": "2026-08-03 08:24:40", "BASIN": "EP", "STMNR": 7, "CAT_ID": null, "CAT_DESC": null, "MSGID": "WTPZ22 KNHC 022033", "VALIDTIME": "2026-07-27 12:00:00" }, "geometry": { "type": "Point", "coordinates": [ -112.699997, 15.7 ] } },
{ "type": "Feature", "properties": { "ID": 47556, "LAT": 16.4, "LON": -113.5, "VMAX": 130.0, "MSLP": 934.0, "RMAX": 15.0, "FSPD": 4.70784, "FDIR": 303.11835, "RENV": 220.0, "PENV": 1011.0, "VALIDT": 0, "DTG": "2026-07-27 18:00", "LATNOW": 24.6, "LONNOW": -138.9, "WINDNOW": 35.0, "DIRNOW": 6.0, "SPDNOW": 3.0, "TECH": "TRAK", "ADVNR": 39, "ATCFID": "EP072026", "NAME": "GENEVIEVE", "FTECH": "OFCL", "FCST_DTG": "2026-08-02 18:00:00", "RUN_DTG": "2026-08-03 08:24:40", "BASIN": "EP", "STMNR": 7, "CAT_ID": null, "CAT_DESC": null, "MSGID": "WTPZ22 KNHC 022033", "VALIDTIME": "2026-07-27 18:00:00" }, "geometry": { "type": "Point", "coordinates": [ -113.5, 16.4 ] } },
{ "type": "Feature", "properties": { "ID": 47557, "LAT": 16.9, "LON": -114.3, "VMAX": 125.0, "MSLP": 939.0, "RMAX": 15.0, "FSPD": 4.01013, "FDIR": 300.8735, "RENV": 210.0, "PENV": 1009.0, "VALIDT": 0, "DTG": "2026-07-28 00:00", "LATNOW": 24.6, "LONNOW": -138.9, "WINDNOW": 35.0, "DIRNOW": 6.0, "SPDNOW": 3.0, "TECH": "TRAK", "ADVNR": 39, "ATCFID": "EP072026", "NAME": "GENEVIEVE", "FTECH": "OFCL", "FCST_DTG": "2026-08-02 18:00:00", "RUN_DTG": "2026-08-03 08:24:40", "BASIN": "EP", "STMNR": 7, "CAT_ID": null, "CAT_DESC": null, "MSGID": "WTPZ22 KNHC 022033", "VALIDTIME": "2026-07-28 00:00:00" }, "geometry": { "type": "Point", "coordinates": [ -114.300003, 16.9 ] } },
{ "type": "Feature", "properties": { "ID": 47558, "LAT": 17.3, "LON": -115.0, "VMAX": 120.0, "MSLP": 943.0, "RMAX": 15.0, "FSPD": 4.00372, "FDIR": 300.92853, "RENV": 210.0, "PENV": 1009.0, "VALIDT": 0, "DTG": "2026-07-28 06:00", "LATNOW": 24.6, "LONNOW": -138.9, "WINDNOW": 35.0, "DIRNOW": 6.0, "SPDNOW": 3.0, "TECH": "TRAK", "ADVNR": 39, "ATCFID": "EP072026", "NAME": "GENEVIEVE", "FTECH": "OFCL", "FCST_DTG": "2026-08-02 18:00:00", "RUN_DTG": "2026-08-03 08:24:40", "BASIN": "EP", "STMNR": 7, "CAT_ID": null, "CAT_DESC": null, "MSGID": "WTPZ22 KNHC 022033", "VALIDTIME": "2026-07-28 06:00:00" }, "geometry": { "type": "Point", "coordinates": [ -115.0, 17.299999 ] } },
{ "type": "Feature", "properties": { "ID": 47559, "LAT": 17.7, "LON": -115.7, "VMAX": 110.0, "MSLP": 950.0, "RMAX": 15.0, "FSPD": 4.05138, "FDIR": 284.71185, "RENV": 210.0, "PENV": 1008.0, "VALIDT": 0, "DTG": "2026-07-28 12:00", "LATNOW": 24.6, "LONNOW": -138.9, "WINDNOW": 35.0, "DIRNOW": 6.0, "SPDNOW": 3.0, "TECH": "TRAK", "ADVNR": 39, "ATCFID": "EP072026", "NAME": "GENEVIEVE", "FTECH": "OFCL", "FCST_DTG": "2026-08-02 18:00:00", "RUN_DTG": "2026-08-03 08:24:40", "BASIN": "EP", "STMNR": 7, "CAT_ID": null, "CAT_DESC": null, "MSGID": "WTPZ22 KNHC 022033", "VALIDTIME": "2026-07-28 12:00:00" }, "geometry": { "type": "Point", "coordinates": [ -115.699997, 17.700001 ] } },
{ "type": "Feature", "properties": { "ID": 47560, "LAT": 17.9, "LON": -116.5, "VMAX": 105.0, "MSLP": 955.0, "RMAX": 15.0, "FSPD": 3.75564, "FDIR": 294.26385, "RENV": 230.0, "PENV": 1010.0, "VALIDT": 0, "DTG": "2026-07-28 18:00", "LATNOW": 24.6, "LONNOW": -138.9, "WINDNOW": 35.0, "DIRNOW": 6.0, "SPDNOW": 3.0, "TECH": "TRAK", "ADVNR": 39, "ATCFID": "EP072026", "NAME": "GENEVIEVE", "FTECH": "OFCL", "FCST_DTG": "2026-08-02 18:00:00", "RUN_DTG": "2026-08-03 08:24:40", "BASIN": "EP", "STMNR": 7, "CAT_ID": null, "CAT_DESC": null, "MSGID": "WTPZ22 KNHC 022033", "VALIDTIME": "2026-07-28 18:00:00" }, "geometry": { "type": "Point", "coordinates": [ -116.5, 17.9 ] } },
{ "type": "Feature", "properties": { "ID": 47561, "LAT": 18.2, "LON": -117.2, "VMAX": 115.0, "MSLP": 948.0, "RMAX": 15.0, "FSPD": 3.94226, "FDIR": 277.49805, "RENV": 230.0, "PENV": 1010.0, "VALIDT": 0, "DTG": "2026-07-29 00:00", "LATNOW": 24.6, "LONNOW": -138.9, "WINDNOW": 35.0, "DIRNOW": 6.0, "SPDNOW": 3.0, "TECH": "TRAK", "ADVNR": 39, "ATCFID": "EP072026", "NAME": "GENEVIEVE", "FTECH": "OFCL", "FCST_DTG": "2026-08-02 18:00:00", "RUN_DTG": "2026-08-03 08:24:40", "BASIN": "EP", "STMNR": 7, "CAT_ID": null, "CAT_DESC": null, "MSGID": "WTPZ22 KNHC 022033", "VALIDTIME": "2026-07-29 00:00:00" }, "geometry": { "type": "Point", "coordinates": [ -117.199997, 18.200001 ] } },
{ "type": "Feature", "properties": { "ID": 47562, "LAT": 18.3, "LON": -118.0, "VMAX": 110.0, "MSLP": 952.0, "RMAX": 15.0, "FSPD": 3.74846, "FDIR": 294.3133, "RENV": 230.0, "PENV": 1010.0, "VALIDT": 0, "DTG": "2026-07-29 06:00", "LATNOW": 24.6, "LONNOW": -138.9, "WINDNOW": 35.0, "DIRNOW": 6.0, "SPDNOW": 3.0, "TECH": "TRAK", "ADVNR": 39, "ATCFID": "EP072026", "NAME": "GENEVIEVE", "FTECH": "OFCL", "FCST_DTG": "2026-08-02 18:00:00", "RUN_DTG": "2026-08-03 08:24:40", "BASIN": "EP", "STMNR": 7, "CAT_ID": null, "CAT_DESC": null, "MSGID": "WTPZ22 KNHC 022033", "VALIDTIME": "2026-07-29 06:00:00" }, "geometry": { "type": "Point", "coordinates": [ -118.0, 18.299999 ] } },
{ "type": "Feature", "properties": { "ID": 47563, "LAT": 18.6, "LON": -118.7, "VMAX": 100.0, "MSLP": 960.0, "RMAX": 20.0, "FSPD": 4.84201, "FDIR": 295.1496, "RENV": 210.0, "PENV": 1008.0, "VALIDT": 0, "DTG": "2026-07-29 12:00", "LATNOW": 24.6, "LONNOW": -138.9, "WINDNOW": 35.0, "DIRNOW": 6.0, "SPDNOW": 3.0, "TECH": "TRAK", "ADVNR": 39, "ATCFID": "EP072026", "NAME": "GENEVIEVE", "FTECH": "OFCL", "FCST_DTG": "2026-08-02 18:00:00", "RUN_DTG": "2026-08-03 08:24:40", "BASIN": "EP", "STMNR": 7, "CAT_ID": null, "CAT_DESC": null, "MSGID": "WTPZ22 KNHC 022033", "VALIDTIME": "2026-07-29 12:00:00" }, "geometry": { "type": "Point", "coordinates": [ -118.699997, 18.6 ] } },
{ "type": "Feature", "properties": { "ID": 47564, "LAT": 19.0, "LON": -119.6, "VMAX": 85.0, "MSLP": 970.0, "RMAX": 25.0, "FSPD": 4.39778, "FDIR": 297.89883, "RENV": 215.0, "PENV": 1009.0, "VALIDT": 0, "DTG": "2026-07-29 18:00", "LATNOW": 24.6, "LONNOW": -138.9, "WINDNOW": 35.0, "DIRNOW": 6.0, "SPDNOW": 3.0, "TECH": "TRAK", "ADVNR": 39, "ATCFID": "EP072026", "NAME": "GENEVIEVE", "FTECH": "OFCL", "FCST_DTG": "2026-08-02 18:00:00", "RUN_DTG": "2026-08-03 08:24:40", "BASIN": "EP", "STMNR": 7, "CAT_ID": null, "CAT_DESC": null, "MSGID": "WTPZ22 KNHC 022033", "VALIDTIME": "2026-07-29 18:00:00" }, "geometry": { "type": "Point", "coordinates": [ -119.599998, 19.0 ] } },
{ "type": "Feature", "properties": { "ID": 47565, "LAT": 19.4, "LON": -120.4, "VMAX": 85.0, "MSLP": 970.0, "RMAX": 25.0, "FSPD": 6.15724, "FDIR": 300.08652, "RENV": 200.0, "PENV": 1007.0, "VALIDT": 0, "DTG": "2026-07-30 00:00", "LATNOW": 24.6, "LONNOW": -138.9, "WINDNOW": 35.0, "DIRNOW": 6.0, "SPDNOW": 3.0, "TECH": "TRAK", "ADVNR": 39, "ATCFID": "EP072026", "NAME": "GENEVIEVE", "FTECH": "OFCL", "FCST_DTG": "2026-08-02 18:00:00", "RUN_DTG": "2026-08-03 08:24:40", "BASIN": "EP", "STMNR": 7, "CAT_ID": null, "CAT_DESC": null, "MSGID": "WTPZ22 KNHC 022033", "VALIDTIME": "2026-07-30 00:00:00" }, "geometry": { "type": "Point", "coordinates": [ -120.400002, 19.4 ] } },
{ "type": "Feature", "properties": { "ID": 47566, "LAT": 20.0, "LON": -121.5, "VMAX": 80.0, "MSLP": 973.0, "RMAX": 25.0, "FSPD": 7.06554, "FDIR": 286.93225, "RENV": 220.0, "PENV": 1010.0, "VALIDT": 0, "DTG": "2026-07-30 06:00", "LATNOW": 24.6, "LONNOW": -138.9, "WINDNOW": 35.0, "DIRNOW": 6.0, "SPDNOW": 3.0, "TECH": "TRAK", "ADVNR": 39, "ATCFID": "EP072026", "NAME": "GENEVIEVE", "FTECH": "OFCL", "FCST_DTG": "2026-08-02 18:00:00", "RUN_DTG": "2026-08-03 08:24:40", "BASIN": "EP", "STMNR": 7, "CAT_ID": null, "CAT_DESC": null, "MSGID": "WTPZ22 KNHC 022033", "VALIDTIME": "2026-07-30 06:00:00" }, "geometry": { "type": "Point", "coordinates": [ -121.5, 20.0 ] } },
{ "type": "Feature", "properties": { "ID": 47567, "LAT": 20.4, "LON": -122.9, "VMAX": 70.0, "MSLP": 980.0, "RMAX": 20.0, "FSPD": 6.34817, "FDIR": 279.32745, "RENV": 190.0, "PENV": 1008.0, "VALIDT": 0, "DTG": "2026-07-30 12:00", "LATNOW": 24.6, "LONNOW": -138.9, "WINDNOW": 35.0, "DIRNOW": 6.0, "SPDNOW": 3.0, "TECH": "TRAK", "ADVNR": 39, "ATCFID": "EP072026", "NAME": "GENEVIEVE", "FTECH": "OFCL", "FCST_DTG": "2026-08-02 18:00:00", "RUN_DTG": "2026-08-03 08:24:40", "BASIN": "EP", "STMNR": 7, "CAT_ID": null, "CAT_DESC": null, "MSGID": "WTPZ22 KNHC 022033", "VALIDTIME": "2026-07-30 12:00:00" }, "geometry": { "type": "Point", "coordinates": [ -122.900002, 20.4 ] } },
{ "type": "Feature", "properties": { "ID": 47568, "LAT": 20.6, "LON": -124.2, "VMAX": 65.0, "MSLP": 984.0, "RMAX": 20.0, "FSPD": 6.75847, "FDIR": 292.37036, "RENV": 180.0, "PENV": 1010.0, "VALIDT": 0, "DTG": "2026-07-30 18:00", "LATNOW": 24.6, "LONNOW": -138.9, "WINDNOW": 35.0, "DIRNOW": 6.0, "SPDNOW": 3.0, "TECH": "TRAK", "ADVNR": 39, "ATCFID": "EP072026", "NAME": "GENEVIEVE", "FTECH": "OFCL", "FCST_DTG": "2026-08-02 18:00:00", "RUN_DTG": "2026-08-03 08:24:40", "BASIN": "EP", "STMNR": 7, "CAT_ID": null, "CAT_DESC": null, "MSGID": "WTPZ22 KNHC 022033", "VALIDTIME": "2026-07-30 18:00:00" }, "geometry": { "type": "Point", "coordinates": [ -124.199997, 20.6 ] } },
{ "type": "Feature", "properties": { "ID": 47569, "LAT": 21.1, "LON": -125.5, "VMAX": 60.0, "MSLP": 989.0, "RMAX": 20.0, "FSPD": 5.65967, "FDIR": 291.32056, "RENV": 160.0, "PENV": 1008.0, "VALIDT": 0, "DTG": "2026-07-31 00:00", "LATNOW": 24.6, "LONNOW": -138.9, "WINDNOW": 35.0, "DIRNOW": 6.0, "SPDNOW": 3.0, "TECH": "TRAK", "ADVNR": 39, "ATCFID": "EP072026", "NAME": "GENEVIEVE", "FTECH": "OFCL", "FCST_DTG": "2026-08-02 18:00:00", "RUN_DTG": "2026-08-03 08:24:40", "BASIN": "EP", "STMNR": 7, "CAT_ID": null, "CAT_DESC": null, "MSGID": "WTPZ22 KNHC 022033", "VALIDTIME": "2026-07-31 00:00:00" }, "geometry": { "type": "Point", "coordinates": [ -125.5, 21.1 ] } },
{ "type": "Feature", "properties": { "ID": 47570, "LAT": 21.5, "LON": -126.6, "VMAX": 55.0, "MSLP": 993.0, "RMAX": 25.0, "FSPD": 6.54571, "FDIR": 288.32278, "RENV": 200.0, "PENV": 1012.0, "VALIDT": 0, "DTG": "2026-07-31 06:00", "LATNOW": 24.6, "LONNOW": -138.9, "WINDNOW": 35.0, "DIRNOW": 6.0, "SPDNOW": 3.0, "TECH": "TRAK", "ADVNR": 39, "ATCFID": "EP072026", "NAME": "GENEVIEVE", "FTECH": "OFCL", "FCST_DTG": "2026-08-02 18:00:00", "RUN_DTG": "2026-08-03 08:24:40", "BASIN": "EP", "STMNR": 7, "CAT_ID": null, "CAT_DESC": null, "MSGID": "WTPZ22 KNHC 022033", "VALIDTIME": "2026-07-31 06:00:00" }, "geometry": { "type": "Point", "coordinates": [ -126.599998, 21.5 ] } },
{ "type": "Feature", "properties": { "ID": 47571, "LAT": 21.9, "LON": -127.9, "VMAX": 50.0, "MSLP": 996.0, "RMAX": 25.0, "FSPD": 7.70079, "FDIR": 277.67816, "RENV": 200.0, "PENV": 1012.0, "VALIDT": 0, "DTG": "2026-07-31 12:00", "LATNOW": 24.6, "LONNOW": -138.9, "WINDNOW": 35.0, "DIRNOW": 6.0, "SPDNOW": 3.0, "TECH": "TRAK", "ADVNR": 39, "ATCFID": "EP072026", "NAME": "GENEVIEVE", "FTECH": "OFCL", "FCST_DTG": "2026-08-02 18:00:00", "RUN_DTG": "2026-08-03 08:24:40", "BASIN": "EP", "STMNR": 7, "CAT_ID": null, "CAT_DESC": null, "MSGID": "WTPZ22 KNHC 022033", "VALIDTIME": "2026-07-31 12:00:00" }, "geometry": { "type": "Point", "coordinates": [ -127.900002, 21.9 ] } },
{ "type": "Feature", "properties": { "ID": 47572, "LAT": 22.1, "LON": -129.5, "VMAX": 50.0, "MSLP": 996.0, "RMAX": 25.0, "FSPD": 5.91842, "FDIR": 285.11557, "RENV": 200.0, "PENV": 1012.0, "VALIDT": 0, "DTG": "2026-07-31 18:00", "LATNOW": 24.6, "LONNOW": -138.9, "WINDNOW": 35.0, "DIRNOW": 6.0, "SPDNOW": 3.0, "TECH": "TRAK", "ADVNR": 39, "ATCFID": "EP072026", "NAME": "GENEVIEVE", "FTECH": "OFCL", "FCST_DTG": "2026-08-02 18:00:00", "RUN_DTG": "2026-08-03 08:24:40", "BASIN": "EP", "STMNR": 7, "CAT_ID": null, "CAT_DESC": null, "MSGID": "WTPZ22 KNHC 022033", "VALIDTIME": "2026-07-31 18:00:00" }, "geometry": { "type": "Point", "coordinates": [ -129.5, 22.1 ] } },
{ "type": "Feature", "properties": { "ID": 47573, "LAT": 22.4, "LON": -130.7, "VMAX": 45.0, "MSLP": 1000.0, "RMAX": 25.0, "FSPD": 5.70752, "FDIR": 269.99997, "RENV": 190.0, "PENV": 1012.0, "VALIDT": 0, "DTG": "2026-08-01 00:00", "LATNOW": 24.6, "LONNOW": -138.9, "WINDNOW": 35.0, "DIRNOW": 6.0, "SPDNOW": 3.0, "TECH": "TRAK", "ADVNR": 39, "ATCFID": "EP072026", "NAME": "GENEVIEVE", "FTECH": "OFCL", "FCST_DTG": "2026-08-02 18:00:00", "RUN_DTG": "2026-08-03 08:24:40", "BASIN": "EP", "STMNR": 7, "CAT_ID": null, "CAT_DESC": null, "MSGID": "WTPZ22 KNHC 022033", "VALIDTIME": "2026-08-01 00:00:00" }, "geometry": { "type": "Point", "coordinates": [ -130.699997, 22.4 ] } },
{ "type": "Feature", "properties": { "ID": 47574, "LAT": 22.4, "LON": -131.9, "VMAX": 45.0, "MSLP": 1000.0, "RMAX": 25.0, "FSPD": 6.05945, "FDIR": 289.85236, "RENV": 190.0, "PENV": 1012.0, "VALIDT": 0, "DTG": "2026-08-01 06:00", "LATNOW": 24.6, "LONNOW": -138.9, "WINDNOW": 35.0, "DIRNOW": 6.0, "SPDNOW": 3.0, "TECH": "TRAK", "ADVNR": 39, "ATCFID": "EP072026", "NAME": "GENEVIEVE", "FTECH": "OFCL", "FCST_DTG": "2026-08-02 18:00:00", "RUN_DTG": "2026-08-03 08:24:40", "BASIN": "EP", "STMNR": 7, "CAT_ID": null, "CAT_DESC": null, "MSGID": "WTPZ22 KNHC 022033", "VALIDTIME": "2026-08-01 06:00:00" }, "geometry": { "type": "Point", "coordinates": [ -131.899994, 22.4 ] } },
{ "type": "Feature", "properties": { "ID": 47575, "LAT": 22.8, "LON": -133.1, "VMAX": 40.0, "MSLP": 1003.0, "RMAX": 25.0, "FSPD": 6.34879, "FDIR": 284.0691, "RENV": 180.0, "PENV": 1012.0, "VALIDT": 0, "DTG": "2026-08-01 12:00", "LATNOW": 24.6, "LONNOW": -138.9, "WINDNOW": 35.0, "DIRNOW": 6.0, "SPDNOW": 3.0, "TECH": "TRAK", "ADVNR": 39, "ATCFID": "EP072026", "NAME": "GENEVIEVE", "FTECH": "OFCL", "FCST_DTG": "2026-08-02 18:00:00", "RUN_DTG": "2026-08-03 08:24:40", "BASIN": "EP", "STMNR": 7, "CAT_ID": null, "CAT_DESC": null, "MSGID": "WTPZ22 KNHC 022033", "VALIDTIME": "2026-08-01 12:00:00" }, "geometry": { "type": "Point", "coordinates": [ -133.100006, 22.799999 ] } },
{ "type": "Feature", "properties": { "ID": 47576, "LAT": 23.1, "LON": -134.4, "VMAX": 40.0, "MSLP": 1003.0, "RMAX": 25.0, "FSPD": 5.42358, "FDIR": 286.53247, "RENV": 150.0, "PENV": 1013.0, "VALIDT": 0, "DTG": "2026-08-01 18:00", "LATNOW": 24.6, "LONNOW": -138.9, "WINDNOW": 35.0, "DIRNOW": 6.0, "SPDNOW": 3.0, "TECH": "TRAK", "ADVNR": 39, "ATCFID": "EP072026", "NAME": "GENEVIEVE", "FTECH": "OFCL", "FCST_DTG": "2026-08-02 18:00:00", "RUN_DTG": "2026-08-03 08:24:40", "BASIN": "EP", "STMNR": 7, "CAT_ID": null, "CAT_DESC": null, "MSGID": "WTPZ22 KNHC 022033", "VALIDTIME": "2026-08-01 18:00:00" }, "geometry": { "type": "Point", "coordinates": [ -134.399994, 23.1 ] } },
{ "type": "Feature", "properties": { "ID": 47577, "LAT": 23.4, "LON": -135.5, "VMAX": 40.0, "MSLP": 1004.0, "RMAX": 25.0, "FSPD": 5.86583, "FDIR": 285.2545, "RENV": 120.0, "PENV": 1012.0, "VALIDT": 0, "DTG": "2026-08-02 00:00", "LATNOW": 24.6, "LONNOW": -138.9, "WINDNOW": 35.0, "DIRNOW": 6.0, "SPDNOW": 3.0, "TECH": "TRAK", "ADVNR": 39, "ATCFID": "EP072026", "NAME": "GENEVIEVE", "FTECH": "OFCL", "FCST_DTG": "2026-08-02 18:00:00", "RUN_DTG": "2026-08-03 08:24:40", "BASIN": "EP", "STMNR": 7, "CAT_ID": null, "CAT_DESC": null, "MSGID": "WTPZ22 KNHC 022033", "VALIDTIME": "2026-08-02 00:00:00" }, "geometry": { "type": "Point", "coordinates": [ -135.5, 23.4 ] } },
{ "type": "Feature", "properties": { "ID": 47578, "LAT": 23.7, "LON": -136.7, "VMAX": 45.0, "MSLP": 1003.0, "RMAX": 30.0, "FSPD": 6.42905, "FDIR": 298.6927, "RENV": 120.0, "PENV": 1013.0, "VALIDT": 0, "DTG": "2026-08-02 06:00", "LATNOW": 24.6, "LONNOW": -138.9, "WINDNOW": 35.0, "DIRNOW": 6.0, "SPDNOW": 3.0, "TECH": "TRAK", "ADVNR": 39, "ATCFID": "EP072026", "NAME": "GENEVIEVE", "FTECH": "OFCL", "FCST_DTG": "2026-08-02 18:00:00", "RUN_DTG": "2026-08-03 08:24:40", "BASIN": "EP", "STMNR": 7, "CAT_ID": null, "CAT_DESC": null, "MSGID": "WTPZ22 KNHC 022033", "VALIDTIME": "2026-08-02 06:00:00" }, "geometry": { "type": "Point", "coordinates": [ -136.699997, 23.700001 ] } },
{ "type": "Feature", "properties": { "ID": 47579, "LAT": 24.3, "LON": -137.9, "VMAX": 40.0, "MSLP": 1006.0, "RMAX": 30.0, "FSPD": 4.93086, "FDIR": 288.23987, "RENV": 100.0, "PENV": 1013.0, "VALIDT": 0, "DTG": "2026-08-02 12:00", "LATNOW": 24.6, "LONNOW": -138.9, "WINDNOW": 35.0, "DIRNOW": 6.0, "SPDNOW": 3.0, "TECH": "TRAK", "ADVNR": 39, "ATCFID": "EP072026", "NAME": "GENEVIEVE", "FTECH": "OFCL", "FCST_DTG": "2026-08-02 18:00:00", "RUN_DTG": "2026-08-03 08:24:40", "BASIN": "EP", "STMNR": 7, "CAT_ID": null, "CAT_DESC": null, "MSGID": "WTPZ22 KNHC 022033", "VALIDTIME": "2026-08-02 12:00:00" }, "geometry": { "type": "Point", "coordinates": [ -137.899994, 24.299999 ] } },
{ "type": "Feature", "properties": { "ID": 47580, "LAT": 24.6, "LON": -138.9, "VMAX": 35.0, "MSLP": 1009.0, "RMAX": 50.0, "FSPD": 5.97416, "FDIR": 290.1479, "RENV": 90.0, "PENV": 1015.0, "VALIDT": 0, "DTG": "2026-08-02 18:00", "LATNOW": 24.6, "LONNOW": -138.9, "WINDNOW": 35.0, "DIRNOW": 6.0, "SPDNOW": 3.0, "TECH": "TRAK", "ADVNR": 39, "ATCFID": "EP072026", "NAME": "GENEVIEVE", "FTECH": "OFCL", "FCST_DTG": "2026-08-02 18:00:00", "RUN_DTG": "2026-08-03 08:24:40", "BASIN": "EP", "STMNR": 7, "CAT_ID": null, "CAT_DESC": null, "MSGID": "WTPZ22 KNHC 022033", "VALIDTIME": "2026-08-02 18:00:00" }, "geometry": { "type": "Point", "coordinates": [ -138.899994, 24.6 ] } },
{ "type": "Feature", "properties": { "ID": 47581, "LAT": 24.8, "LON": -139.5, "VMAX": 35.0, "MSLP": 1009.0, "RMAX": 50.0, "FSPD": 5.09288, "FDIR": 293.8316, "RENV": 250.0, "PENV": 1012.0, "VALIDT": 3, "DTG": "2026-08-02 21:00", "LATNOW": 24.6, "LONNOW": -138.9, "WINDNOW": 35.0, "DIRNOW": 6.0, "SPDNOW": 3.0, "TECH": "FCST", "ADVNR": 39, "ATCFID": "EP072026", "NAME": "GENEVIEVE", "FTECH": "OFCL", "FCST_DTG": "2026-08-02 18:00:00", "RUN_DTG": "2026-08-03 08:24:40", "BASIN": "EP", "STMNR": 7, "CAT_ID": null, "CAT_DESC": null, "MSGID": "WTPZ22 KNHC 022033", "VALIDTIME": "2026-08-02 21:00:00" }, "geometry": { "type": "Point", "coordinates": [ -139.5, 24.799999 ] } },
{ "type": "Feature", "properties": { "ID": 47582, "LAT": 25.4, "LON": -141.0, "VMAX": 30.0, "MSLP": 1010.40607, "RMAX": 51.53587, "FSPD": 4.85745, "FDIR": 295.0642, "RENV": 250.0, "PENV": 1012.0, "VALIDT": 12, "DTG": "2026-08-03 06:00", "LATNOW": 24.6, "LONNOW": -138.9, "WINDNOW": 35.0, "DIRNOW": 6.0, "SPDNOW": 3.0, "TECH": "FCST", "ADVNR": 39, "ATCFID": "EP072026", "NAME": "GENEVIEVE", "FTECH": "OFCL", "FCST_DTG": "2026-08-02 18:00:00", "RUN_DTG": "2026-08-03 08:24:40", "BASIN": "EP", "STMNR": 7, "CAT_ID": null, "CAT_DESC": null, "MSGID": "WTPZ22 KNHC 022033", "VALIDTIME": "2026-08-03 06:00:00" }, "geometry": { "type": "Point", "coordinates": [ -141.0, 25.4 ] } },
{ "type": "Feature", "properties": { "ID": 47583, "LAT": 26.2, "LON": -142.9, "VMAX": 30.0, "MSLP": 1010.40607, "RMAX": 51.53587, "FSPD": 3.3671, "FDIR": 297.28107, "RENV": 250.0, "PENV": 1012.0, "VALIDT": 24, "DTG": "2026-08-03 18:00", "LATNOW": 24.6, "LONNOW": -138.9, "WINDNOW": 35.0, "DIRNOW": 6.0, "SPDNOW": 3.0, "TECH": "FCST", "ADVNR": 39, "ATCFID": "EP072026", "NAME": "GENEVIEVE", "FTECH": "OFCL", "FCST_DTG": "2026-08-02 18:00:00", "RUN_DTG": "2026-08-03 08:24:40", "BASIN": "EP", "STMNR": 7, "CAT_ID": null, "CAT_DESC": null, "MSGID": "WTPZ22 KNHC 022033", "VALIDTIME": "2026-08-03 18:00:00" }, "geometry": { "type": "Point", "coordinates": [ -142.899994, 26.200001 ] } },
{ "type": "Feature", "properties": { "ID": 47584, "LAT": 26.8, "LON": -144.2, "VMAX": 25.0, "MSLP": 1011.80975, "RMAX": 52.44511, "FSPD": 2.39533, "FDIR": 310.1139, "RENV": 250.0, "PENV": 1012.0, "VALIDT": 36, "DTG": "2026-08-04 06:00", "LATNOW": 24.6, "LONNOW": -138.9, "WINDNOW": 35.0, "DIRNOW": 6.0, "SPDNOW": 3.0, "TECH": "FCST", "ADVNR": 39, "ATCFID": "EP072026", "NAME": "GENEVIEVE", "FTECH": "OFCL", "FCST_DTG": "2026-08-02 18:00:00", "RUN_DTG": "2026-08-03 08:24:40", "BASIN": "EP", "STMNR": 7, "CAT_ID": null, "CAT_DESC": null, "MSGID": "WTPZ22 KNHC 022033", "VALIDTIME": "2026-08-04 06:00:00" }, "geometry": { "type": "Point", "coordinates": [ -144.199997, 26.799999 ] } },
{ "type": "Feature", "properties": { "ID": 47585, "LAT": 27.4, "LON": -145.0, "VMAX": 25.0, "MSLP": 1011.80975, "RMAX": 52.44511, "FSPD": 2.46947, "FDIR": 326.43805, "RENV": 250.0, "PENV": 1012.0, "VALIDT": 48, "DTG": "2026-08-04 18:00", "LATNOW": 24.6, "LONNOW": -138.9, "WINDNOW": 35.0, "DIRNOW": 6.0, "SPDNOW": 3.0, "TECH": "FCST", "ADVNR": 39, "ATCFID": "EP072026", "NAME": "GENEVIEVE", "FTECH": "OFCL", "FCST_DTG": "2026-08-02 18:00:00", "RUN_DTG": "2026-08-03 08:24:40", "BASIN": "EP", "STMNR": 7, "CAT_ID": null, "CAT_DESC": null, "MSGID": "WTPZ22 KNHC 022033", "VALIDTIME": "2026-08-04 18:00:00" }, "geometry": { "type": "Point", "coordinates": [ -145.0, 27.4 ] } },
{ "type": "Feature", "properties": { "ID": 47586, "LAT": 28.2, "LON": -145.6, "VMAX": 20.0, "MSLP": 1012.95825, "RMAX": 52.44511, "FSPD": 1.86958, "FDIR": 313.46515, "RENV": 250.0, "PENV": 1012.0, "VALIDT": 60, "DTG": "2026-08-05 06:00", "LATNOW": 24.6, "LONNOW": -138.9, "WINDNOW": 35.0, "DIRNOW": 6.0, "SPDNOW": 3.0, "TECH": "FCST", "ADVNR": 39, "ATCFID": "EP072026", "NAME": "GENEVIEVE", "FTECH": "OFCL", "FCST_DTG": "2026-08-02 18:00:00", "RUN_DTG": "2026-08-03 08:24:40", "BASIN": "EP", "STMNR": 7, "CAT_ID": null, "CAT_DESC": null, "MSGID": "WTPZ22 KNHC 022033", "VALIDTIME": "2026-08-05 06:00:00" }, "geometry": { "type": "Point", "coordinates": [ -145.600006, 28.200001 ] } },
{ "type": "Feature", "properties": { "ID": 47587, "LAT": 28.7, "LON": -146.2, "VMAX": 20.0, "MSLP": 1012.95825, "RMAX": 52.44511, "FSPD": 1.86958, "FDIR": 313.46515, "RENV": 250.0, "PENV": 1012.0, "VALIDT": 72, "DTG": "2026-08-05 18:00", "LATNOW": 24.6, "LONNOW": -138.9, "WINDNOW": 35.0, "DIRNOW": 6.0, "SPDNOW": 3.0, "TECH": "FCST", "ADVNR": 39, "ATCFID": "EP072026", "NAME": "GENEVIEVE", "FTECH": "OFCL", "FCST_DTG": "2026-08-02 18:00:00", "RUN_DTG": "2026-08-03 08:24:40", "BASIN": "EP", "STMNR": 7, "CAT_ID": null, "CAT_DESC": null, "MSGID": "WTPZ22 KNHC 022033", "VALIDTIME": "2026-08-05 18:00:00" }, "geometry": { "type": "Point", "coordinates": [ -146.199997, 28.700001 ] } },
{ "type": "Feature", "properties": { "ID": 47580, "LAT": 24.6, "LON": -138.9, "VMAX": 35.0, "MSLP": 1009.0, "RMAX": 50.0, "FSPD": 5.97416, "FDIR": 290.1479, "RENV": 90.0, "PENV": 1015.0, "VALIDT": 0, "DTG": "2026-08-02 18:00", "LATNOW": 24.6, "LONNOW": -138.9, "WINDNOW": 35.0, "DIRNOW": 6.0, "SPDNOW": 3.0, "TECH": "TRAK", "ADVNR": 39, "ATCFID": "EP072026", "NAME": "GENEVIEVE", "FTECH": "OFCL", "FCST_DTG": "2026-08-02 18:00:00", "RUN_DTG": "2026-08-03 08:24:40", "BASIN": "EP", "STMNR": 7, "CAT_ID": null, "CAT_DESC": null, "MSGID": "WTPZ22 KNHC 022033", "VALIDTIME": "2026-08-02 18:00:00" }, "geometry": { "type": "LineString", "coordinates": [ [ -98.2, 7.8 ], [ -95.6, 8.3 ], [ -96.2, 8.6 ], [ -97.1, 9.0 ], [ -98.9, 9.3 ], [ -99.9, 8.9 ], [ -101.4, 9.0 ], [ -102.1, 9.2 ], [ -103.0, 9.7 ], [ -103.7, 10.5 ], [ -105.1, 11.2 ], [ -106.1, 11.8 ], [ -107.6, 12.6 ], [ -108.8, 13.2 ], [ -109.9, 13.6 ], [ -110.8, 14.4 ], [ -111.7, 15.1 ], [ -112.7, 15.7 ], [ -113.5, 16.4 ], [ -114.3, 16.9 ], [ -115.0, 17.3 ], [ -115.7, 17.7 ], [ -116.5, 17.9 ], [ -117.2, 18.2 ], [ -118.0, 18.3 ], [ -118.7, 18.6 ], [ -119.6, 19.0 ], [ -120.4, 19.4 ], [ -121.5, 20.0 ], [ -122.9, 20.4 ], [ -124.2, 20.6 ], [ -125.5, 21.1 ], [ -126.6, 21.5 ], [ -127.9, 21.9 ], [ -129.5, 22.1 ], [ -130.7, 22.4 ], [ -131.9, 22.4 ], [ -133.1, 22.8 ], [ -134.4, 23.1 ], [ -135.5, 23.4 ], [ -136.7, 23.7 ], [ -137.9, 24.3 ], [ -138.9, 24.6 ] ] } },
{ "type": "Feature", "properties": { "ID": 47587, "LAT": 28.7, "LON": -146.2, "VMAX": 20.0, "MSLP": 1012.95825, "RMAX": 52.44511, "FSPD": 1.86958, "FDIR": 313.46515, "RENV": 250.0, "PENV": 1012.0, "VALIDT": 72, "DTG": "2026-08-05 18:00", "LATNOW": 24.6, "LONNOW": -138.9, "WINDNOW": 35.0, "DIRNOW": 6.0, "SPDNOW": 3.0, "TECH": "FCST", "ADVNR": 39, "ATCFID": "EP072026", "NAME": "GENEVIEVE", "FTECH": "OFCL", "FCST_DTG": "2026-08-02 18:00:00", "RUN_DTG": "2026-08-03 08:24:40", "BASIN": "EP", "STMNR": 7, "CAT_ID": null, "CAT_DESC": null, "MSGID": "WTPZ22 KNHC 022033", "VALIDTIME": "2026-08-05 18:00:00" }, "geometry": { "type": "LineString", "coordinates": [ [ -138.9, 24.6 ], [ -139.5, 24.8 ], [ -141.0, 25.4 ], [ -142.9, 26.2 ], [ -144.2, 26.8 ], [ -145.0, 27.4 ], [ -145.6, 28.2 ], [ -146.2, 28.7 ] ] } }
]
}
