{
"type": "FeatureCollection",
"crs": { "type": "name", "properties": { "name": "urn:ogc:def:crs:OGC:1.3:CRS84" } },
"features": [
{ "type": "Feature", "properties": { "ID": 293078, "LAT": -13.9, "LON": 169.1, "VMAX": 15.0, "MSLP": 1013.8515, "RMAX": 40.0, "FSPD": 2.93398, "FDIR": 121.73688, "RENV": 500.0, "PENV": 1012.0, "VALIDT": 0, "DTG": "2024-12-27 00:00", "LATNOW": -17.0, "LONNOW": -177.9, "WINDNOW": 20.0, "DIRNOW": 6.0, "SPDNOW": 6.0, "TECH": "TRAK", "ADVNR": 4, "ATCFID": "SH062025", "NAME": "SIX", "FTECH": "JTWC", "FCST_DTG": "2024-12-30 00:00:00", "RUN_DTG": "2024-12-30 17:35:35", "BASIN": "SH", "STMNR": 6, "CAT_ID": null, "CAT_DESC": null, "MSGID": "WTPS51 PGTW 300300", "VALIDTIME": "2024-12-27 00:00:00" }, "geometry": { "type": "Point", "coordinates": [ 169.100006, -13.9 ] } },
{ "type": "Feature", "properties": { "ID": 293079, "LAT": -14.2, "LON": 169.6, "VMAX": 15.0, "MSLP": 1013.8515, "RMAX": 40.0, "FSPD": 3.163, "FDIR": 108.98297, "RENV": 500.0, "PENV": 1012.0, "VALIDT": 0, "DTG": "2024-12-27 06:00", "LATNOW": -17.0, "LONNOW": -177.9, "WINDNOW": 20.0, "DIRNOW": 6.0, "SPDNOW": 6.0, "TECH": "TRAK", "ADVNR": 4, "ATCFID": "SH062025", "NAME": "SIX", "FTECH": "JTWC", "FCST_DTG": "2024-12-30 00:00:00", "RUN_DTG": "2024-12-30 17:35:35", "BASIN": "SH", "STMNR": 6, "CAT_ID": null, "CAT_DESC": null, "MSGID": "WTPS51 PGTW 300300", "VALIDTIME": "2024-12-27 06:00:00" }, "geometry": { "type": "Point", "coordinates": [ 169.600006, -14.2 ] } },
{ "type": "Feature", "properties": { "ID": 293080, "LAT": -14.4, "LON": 170.2, "VMAX": 15.0, "MSLP": 1013.8515, "RMAX": 40.0, "FSPD": 4.73985, "FDIR": 109.00235, "RENV": 500.0, "PENV": 1012.0, "VALIDT": 0, "DTG": "2024-12-27 12:00", "LATNOW": -17.0, "LONNOW": -177.9, "WINDNOW": 20.0, "DIRNOW": 6.0, "SPDNOW": 6.0, "TECH": "TRAK", "ADVNR": 4, "ATCFID": "SH062025", "NAME": "SIX", "FTECH": "JTWC", "FCST_DTG": "2024-12-30 00:00:00", "RUN_DTG": "2024-12-30 17:35:35", "BASIN": "SH", "STMNR": 6, "CAT_ID": null, "CAT_DESC": null, "MSGID": "WTPS51 PGTW 300300", "VALIDTIME": "2024-12-27 12:00:00" }, "geometry": { "type": "Point", "coordinates": [ 170.199997, -14.4 ] } },
{ "type": "Feature", "properties": { "ID": 293081, "LAT": -14.7, "LON": 171.1, "VMAX": 30.0, "MSLP": 1010.40607, "RMAX": 44.21983, "FSPD": 4.92481, "FDIR": 114.69821, "RENV": 500.0, "PENV": 1012.0, "VALIDT": 0, "DTG": "2024-12-27 18:00", "LATNOW": -17.0, "LONNOW": -177.9, "WINDNOW": 20.0, "DIRNOW": 6.0, "SPDNOW": 6.0, "TECH": "TRAK", "ADVNR": 4, "ATCFID": "SH062025", "NAME": "SIX", "FTECH": "JTWC", "FCST_DTG": "2024-12-30 00:00:00", "RUN_DTG": "2024-12-30 17:35:35", "BASIN": "SH", "STMNR": 6, "CAT_ID": null, "CAT_DESC": null, "MSGID": "WTPS51 PGTW 300300", "VALIDTIME": "2024-12-27 18:00:00" }, "geometry": { "type": "Point", "coordinates": [ 171.100006, -14.7 ] } },
{ "type": "Feature", "properties": { "ID": 293082, "LAT": -15.1, "LON": 172.0, "VMAX": 30.0, "MSLP": 1010.40607, "RMAX": 44.21983, "FSPD": 5.42701, "FDIR": 124.66376, "RENV": 500.0, "PENV": 1012.0, "VALIDT": 0, "DTG": "2024-12-28 00:00", "LATNOW": -17.0, "LONNOW": -177.9, "WINDNOW": 20.0, "DIRNOW": 6.0, "SPDNOW": 6.0, "TECH": "TRAK", "ADVNR": 4, "ATCFID": "SH062025", "NAME": "SIX", "FTECH": "JTWC", "FCST_DTG": "2024-12-30 00:00:00", "RUN_DTG": "2024-12-30 17:35:35", "BASIN": "SH", "STMNR": 6, "CAT_ID": null, "CAT_DESC": null, "MSGID": "WTPS51 PGTW 300300", "VALIDTIME": "2024-12-28 00:00:00" }, "geometry": { "type": "Point", "coordinates": [ 172.0, -15.1 ] } },
{ "type": "Feature", "properties": { "ID": 293083, "LAT": -15.7, "LON": 172.9, "VMAX": 30.0, "MSLP": 1010.40607, "RMAX": 44.21983, "FSPD": 4.90539, "FDIR": 114.80258, "RENV": 500.0, "PENV": 1012.0, "VALIDT": 0, "DTG": "2024-12-28 06:00", "LATNOW": -17.0, "LONNOW": -177.9, "WINDNOW": 20.0, "DIRNOW": 6.0, "SPDNOW": 6.0, "TECH": "TRAK", "ADVNR": 4, "ATCFID": "SH062025", "NAME": "SIX", "FTECH": "JTWC", "FCST_DTG": "2024-12-30 00:00:00", "RUN_DTG": "2024-12-30 17:35:35", "BASIN": "SH", "STMNR": 6, "CAT_ID": null, "CAT_DESC": null, "MSGID": "WTPS51 PGTW 300300", "VALIDTIME": "2024-12-28 06:00:00" }, "geometry": { "type": "Point", "coordinates": [ 172.899994, -15.7 ] } },
{ "type": "Feature", "properties": { "ID": 293084, "LAT": -16.1, "LON": 173.8, "VMAX": 30.0, "MSLP": 1010.40607, "RMAX": 44.21983, "FSPD": 3.78607, "FDIR": 114.05624, "RENV": 500.0, "PENV": 1012.0, "VALIDT": 0, "DTG": "2024-12-28 12:00", "LATNOW": -17.0, "LONNOW": -177.9, "WINDNOW": 20.0, "DIRNOW": 6.0, "SPDNOW": 6.0, "TECH": "TRAK", "ADVNR": 4, "ATCFID": "SH062025", "NAME": "SIX", "FTECH": "JTWC", "FCST_DTG": "2024-12-30 00:00:00", "RUN_DTG": "2024-12-30 17:35:35", "BASIN": "SH", "STMNR": 6, "CAT_ID": null, "CAT_DESC": null, "MSGID": "WTPS51 PGTW 300300", "VALIDTIME": "2024-12-28 12:00:00" }, "geometry": { "type": "Point", "coordinates": [ 173.800003, -16.1 ] } },
{ "type": "Feature", "properties": { "ID": 293085, "LAT": -16.4, "LON": 174.5, "VMAX": 35.0, "MSLP": 1008.74713, "RMAX": 42.69135, "FSPD": 5.34226, "FDIR": 112.6554, "RENV": 500.0, "PENV": 1012.0, "VALIDT": 0, "DTG": "2024-12-28 18:00", "LATNOW": -17.0, "LONNOW": -177.9, "WINDNOW": 20.0, "DIRNOW": 6.0, "SPDNOW": 6.0, "TECH": "TRAK", "ADVNR": 4, "ATCFID": "SH062025", "NAME": "SIX", "FTECH": "JTWC", "FCST_DTG": "2024-12-30 00:00:00", "RUN_DTG": "2024-12-30 17:35:35", "BASIN": "SH", "STMNR": 6, "CAT_ID": null, "CAT_DESC": null, "MSGID": "WTPS51 PGTW 300300", "VALIDTIME": "2024-12-28 18:00:00" }, "geometry": { "type": "Point", "coordinates": [ 174.5, -16.4 ] } },
{ "type": "Feature", "properties": { "ID": 293086, "LAT": -16.8, "LON": 175.5, "VMAX": 45.0, "MSLP": 1004.66364, "RMAX": 39.89946, "FSPD": 7.35041, "FDIR": 110.48376, "RENV": 500.0, "PENV": 1012.0, "VALIDT": 0, "DTG": "2024-12-29 00:00", "LATNOW": -17.0, "LONNOW": -177.9, "WINDNOW": 20.0, "DIRNOW": 6.0, "SPDNOW": 6.0, "TECH": "TRAK", "ADVNR": 4, "ATCFID": "SH062025", "NAME": "SIX", "FTECH": "JTWC", "FCST_DTG": "2024-12-30 00:00:00", "RUN_DTG": "2024-12-30 17:35:35", "BASIN": "SH", "STMNR": 6, "CAT_ID": null, "CAT_DESC": null, "MSGID": "WTPS51 PGTW 300300", "VALIDTIME": "2024-12-29 00:00:00" }, "geometry": { "type": "Point", "coordinates": [ 175.5, -16.799999 ] } },
{ "type": "Feature", "properties": { "ID": 293087, "LAT": -17.3, "LON": 176.9, "VMAX": 50.0, "MSLP": 1002.2391, "RMAX": 38.56918, "FSPD": 6.95005, "FDIR": 98.51334, "RENV": 500.0, "PENV": 1012.0, "VALIDT": 0, "DTG": "2024-12-29 06:00", "LATNOW": -17.0, "LONNOW": -177.9, "WINDNOW": 20.0, "DIRNOW": 6.0, "SPDNOW": 6.0, "TECH": "TRAK", "ADVNR": 4, "ATCFID": "SH062025", "NAME": "SIX", "FTECH": "JTWC", "FCST_DTG": "2024-12-30 00:00:00", "RUN_DTG": "2024-12-30 17:35:35", "BASIN": "SH", "STMNR": 6, "CAT_ID": null, "CAT_DESC": null, "MSGID": "WTPS51 PGTW 300300", "VALIDTIME": "2024-12-29 06:00:00" }, "geometry": { "type": "Point", "coordinates": [ 176.899994, -17.299999 ] } },
{ "type": "Feature", "properties": { "ID": 293088, "LAT": -17.46, "LON": 178.02, "VMAX": 50.0, "MSLP": 1002.2391, "RMAX": 38.56918, "FSPD": 6.94623, "FDIR": 98.51822, "RENV": 500.0, "PENV": 1012.0, "VALIDT": 0, "DTG": "2024-12-29 10:00", "LATNOW": -17.0, "LONNOW": -177.9, "WINDNOW": 20.0, "DIRNOW": 6.0, "SPDNOW": 6.0, "TECH": "TRAK", "ADVNR": 4, "ATCFID": "SH062025", "NAME": "SIX", "FTECH": "JTWC", "FCST_DTG": "2024-12-30 00:00:00", "RUN_DTG": "2024-12-30 17:35:35", "BASIN": "SH", "STMNR": 6, "CAT_ID": null, "CAT_DESC": null, "MSGID": "WTPS51 PGTW 300300", "VALIDTIME": "2024-12-29 10:00:00" }, "geometry": { "type": "Point", "coordinates": [ 178.020004, -17.459999 ] } },
{ "type": "Feature", "properties": { "ID": 293089, "LAT": -17.5, "LON": 178.3, "VMAX": 40.0, "MSLP": 1006.833, "RMAX": 41.26637, "FSPD": 7.37949, "FDIR": 86.0025, "RENV": 500.0, "PENV": 1012.0, "VALIDT": 0, "DTG": "2024-12-29 12:00", "LATNOW": -17.0, "LONNOW": -177.9, "WINDNOW": 20.0, "DIRNOW": 6.0, "SPDNOW": 6.0, "TECH": "TRAK", "ADVNR": 4, "ATCFID": "SH062025", "NAME": "SIX", "FTECH": "JTWC", "FCST_DTG": "2024-12-30 00:00:00", "RUN_DTG": "2024-12-30 17:35:35", "BASIN": "SH", "STMNR": 6, "CAT_ID": null, "CAT_DESC": null, "MSGID": "WTPS51 PGTW 300300", "VALIDTIME": "2024-12-29 12:00:00" }, "geometry": { "type": "Point", "coordinates": [ 178.300003, -17.5 ] } },
{ "type": "Feature", "properties": { "ID": 293090, "LAT": -17.4, "LON": 179.8, "VMAX": 35.0, "MSLP": 1008.74713, "RMAX": 42.69135, "FSPD": 4.90904, "FDIR": 90.0, "RENV": 500.0, "PENV": 1012.0, "VALIDT": 0, "DTG": "2024-12-29 18:00", "LATNOW": -17.0, "LONNOW": -177.9, "WINDNOW": 20.0, "DIRNOW": 6.0, "SPDNOW": 6.0, "TECH": "TRAK", "ADVNR": 4, "ATCFID": "SH062025", "NAME": "SIX", "FTECH": "JTWC", "FCST_DTG": "2024-12-30 00:00:00", "RUN_DTG": "2024-12-30 17:35:35", "BASIN": "SH", "STMNR": 6, "CAT_ID": null, "CAT_DESC": null, "MSGID": "WTPS51 PGTW 300300", "VALIDTIME": "2024-12-29 18:00:00" }, "geometry": { "type": "Point", "coordinates": [ 179.800003, -17.4 ] } },
{ "type": "Feature", "properties": { "ID": 293091, "LAT": -17.4, "LON": -179.2, "VMAX": 35.0, "MSLP": 1004.0, "RMAX": 15.0, "FSPD": 4.69909, "FDIR": 56.81207, "RENV": 100.0, "PENV": 1010.0, "VALIDT": 0, "DTG": "2024-12-30 00:00", "LATNOW": -17.0, "LONNOW": -177.9, "WINDNOW": 20.0, "DIRNOW": 6.0, "SPDNOW": 6.0, "TECH": "TRAK", "ADVNR": 4, "ATCFID": "SH062025", "NAME": "SIX", "FTECH": "JTWC", "FCST_DTG": "2024-12-30 00:00:00", "RUN_DTG": "2024-12-30 17:35:35", "BASIN": "SH", "STMNR": 6, "CAT_ID": null, "CAT_DESC": null, "MSGID": "WTPS51 PGTW 300300", "VALIDTIME": "2024-12-30 00:00:00" }, "geometry": { "type": "Point", "coordinates": [ -179.199997, -17.4 ] } },
{ "type": "Feature", "properties": { "ID": 293092, "LAT": -16.9, "LON": -178.4, "VMAX": 30.0, "MSLP": 1005.0, "RMAX": 25.0, "FSPD": 2.51369, "FDIR": 101.80942, "RENV": 100.0, "PENV": 1010.0, "VALIDT": 0, "DTG": "2024-12-30 06:00", "LATNOW": -17.0, "LONNOW": -177.9, "WINDNOW": 20.0, "DIRNOW": 6.0, "SPDNOW": 6.0, "TECH": "TRAK", "ADVNR": 4, "ATCFID": "SH062025", "NAME": "SIX", "FTECH": "JTWC", "FCST_DTG": "2024-12-30 00:00:00", "RUN_DTG": "2024-12-30 17:35:35", "BASIN": "SH", "STMNR": 6, "CAT_ID": null, "CAT_DESC": null, "MSGID": "WTPS51 PGTW 300300", "VALIDTIME": "2024-12-30 06:00:00" }, "geometry": { "type": "Point", "coordinates": [ -178.399994, -16.9 ] } },
{ "type": "Feature", "properties": { "ID": 293093, "LAT": -17.0, "LON": -177.9, "VMAX": 20.0, "MSLP": 1008.0, "RMAX": 42.10314, "FSPD": 5.55004, "FDIR": 111.76294, "RENV": 500.0, "PENV": 1012.0, "VALIDT": 0, "DTG": "2024-12-30 12:00", "LATNOW": -17.0, "LONNOW": -177.9, "WINDNOW": 20.0, "DIRNOW": 6.0, "SPDNOW": 6.0, "TECH": "TRAK", "ADVNR": 4, "ATCFID": "SH062025", "NAME": "SIX", "FTECH": "JTWC", "FCST_DTG": "2024-12-30 00:00:00", "RUN_DTG": "2024-12-30 17:35:35", "BASIN": "SH", "STMNR": 6, "CAT_ID": null, "CAT_DESC": null, "MSGID": "WTPS51 PGTW 300300", "VALIDTIME": "2024-12-30 12:00:00" }, "geometry": { "type": "Point", "coordinates": [ -177.899994, -17.0 ] } },
{ "type": "Feature", "properties": { "ID": 293094, "LAT": -17.8, "LON": -175.8, "VMAX": 30.0, "MSLP": 1010.40607, "RMAX": 44.21983, "FSPD": 5.55004, "FDIR": 111.76294, "RENV": 250.0, "PENV": 1012.0, "VALIDT": 24, "DTG": "2024-12-31 00:00", "LATNOW": -17.0, "LONNOW": -177.9, "WINDNOW": 20.0, "DIRNOW": 6.0, "SPDNOW": 6.0, "TECH": "FCST", "ADVNR": 4, "ATCFID": "SH062025", "NAME": "SIX", "FTECH": "JTWC", "FCST_DTG": "2024-12-30 00:00:00", "RUN_DTG": "2024-12-30 17:35:35", "BASIN": "SH", "STMNR": 6, "CAT_ID": null, "CAT_DESC": null, "MSGID": "WTPS51 PGTW 300300", "VALIDTIME": "2024-12-31 00:00:00" }, "geometry": { "type": "Point", "coordinates": [ -175.800003, -17.799999 ] } },
{ "type": "Feature", "properties": { "ID": 293093, "LAT": -17.0, "LON": -177.9, "VMAX": 20.0, "MSLP": 1008.0, "RMAX": 42.10314, "FSPD": 5.55004, "FDIR": 111.76294, "RENV": 500.0, "PENV": 1012.0, "VALIDT": 0, "DTG": "2024-12-30 12:00", "LATNOW": -17.0, "LONNOW": -177.9, "WINDNOW": 20.0, "DIRNOW": 6.0, "SPDNOW": 6.0, "TECH": "TRAK", "ADVNR": 4, "ATCFID": "SH062025", "NAME": "SIX", "FTECH": "JTWC", "FCST_DTG": "2024-12-30 00:00:00", "RUN_DTG": "2024-12-30 17:35:35", "BASIN": "SH", "STMNR": 6, "CAT_ID": null, "CAT_DESC": null, "MSGID": "WTPS51 PGTW 300300", "VALIDTIME": "2024-12-30 12:00:00" }, "geometry": { "type": "LineString", "coordinates": [ [ 169.1, -13.9 ], [ 169.6, -14.2 ], [ 170.2, -14.4 ], [ 171.1, -14.7 ], [ 172.0, -15.1 ], [ 172.9, -15.7 ], [ 173.8, -16.1 ], [ 174.5, -16.4 ], [ 175.5, -16.8 ], [ 176.9, -17.3 ], [ 178.02, -17.46 ], [ 178.3, -17.5 ], [ 179.8, -17.4 ], [ -179.2, -17.4 ], [ -178.4, -16.9 ], [ -177.9, -17.0 ] ] } },
{ "type": "Feature", "properties": { "ID": 293094, "LAT": -17.8, "LON": -175.8, "VMAX": 30.0, "MSLP": 1010.40607, "RMAX": 44.21983, "FSPD": 5.55004, "FDIR": 111.76294, "RENV": 250.0, "PENV": 1012.0, "VALIDT": 24, "DTG": "2024-12-31 00:00", "LATNOW": -17.0, "LONNOW": -177.9, "WINDNOW": 20.0, "DIRNOW": 6.0, "SPDNOW": 6.0, "TECH": "FCST", "ADVNR": 4, "ATCFID": "SH062025", "NAME": "SIX", "FTECH": "JTWC", "FCST_DTG": "2024-12-30 00:00:00", "RUN_DTG": "2024-12-30 17:35:35", "BASIN": "SH", "STMNR": 6, "CAT_ID": null, "CAT_DESC": null, "MSGID": "WTPS51 PGTW 300300", "VALIDTIME": "2024-12-31 00:00:00" }, "geometry": { "type": "LineString", "coordinates": [ [ -177.9, -17.0 ], [ -175.8, -17.8 ] ] } }
]
}
