{
"type": "FeatureCollection",
"crs": { "type": "name", "properties": { "name": "urn:ogc:def:crs:OGC:1.3:CRS84" } },
"features": [
{ "type": "Feature", "properties": { "ID": 29853, "LAT": 11.6, "LON": -123.0, "VMAX": 20.0, "MSLP": 1008.0, "RMAX": 120.0, "FSPD": 2.87956, "FDIR": 315.6117, "RENV": 300.0, "PENV": 1009.0, "VALIDT": 0, "DTG": "2026-06-29 18:00", "LATNOW": 19.1, "LONNOW": -128.0, "WINDNOW": 35.0, "DIRNOW": 4.0, "SPDNOW": 2.0, "TECH": "TRAK", "ADVNR": 9, "ATCFID": "EP042026", "NAME": "DOUGLAS", "FTECH": "OFCL", "FCST_DTG": "2026-07-03 06:00:00", "RUN_DTG": "2026-07-03 20:59:50", "BASIN": "EP", "STMNR": 4, "CAT_ID": null, "CAT_DESC": null, "MSGID": "WTPZ24 KNHC 030832", "VALIDTIME": "2026-06-29 18:00:00" }, "geometry": { "type": "Point", "coordinates": [ -123.0, 11.6 ] } },
{ "type": "Feature", "properties": { "ID": 29854, "LAT": 12.0, "LON": -123.4, "VMAX": 20.0, "MSLP": 1007.0, "RMAX": 120.0, "FSPD": 3.9642, "FDIR": 310.45593, "RENV": 270.0, "PENV": 1009.0, "VALIDT": 0, "DTG": "2026-06-30 00:00", "LATNOW": 19.1, "LONNOW": -128.0, "WINDNOW": 35.0, "DIRNOW": 4.0, "SPDNOW": 2.0, "TECH": "TRAK", "ADVNR": 9, "ATCFID": "EP042026", "NAME": "DOUGLAS", "FTECH": "OFCL", "FCST_DTG": "2026-07-03 06:00:00", "RUN_DTG": "2026-07-03 20:59:50", "BASIN": "EP", "STMNR": 4, "CAT_ID": null, "CAT_DESC": null, "MSGID": "WTPZ24 KNHC 030832", "VALIDTIME": "2026-06-30 00:00:00" }, "geometry": { "type": "Point", "coordinates": [ -123.400002, 12.0 ] } },
{ "type": "Feature", "properties": { "ID": 29855, "LAT": 12.5, "LON": -124.0, "VMAX": 25.0, "MSLP": 1007.0, "RMAX": 120.0, "FSPD": 4.51151, "FDIR": 297.1368, "RENV": 250.0, "PENV": 1009.0, "VALIDT": 0, "DTG": "2026-06-30 06:00", "LATNOW": 19.1, "LONNOW": -128.0, "WINDNOW": 35.0, "DIRNOW": 4.0, "SPDNOW": 2.0, "TECH": "TRAK", "ADVNR": 9, "ATCFID": "EP042026", "NAME": "DOUGLAS", "FTECH": "OFCL", "FCST_DTG": "2026-07-03 06:00:00", "RUN_DTG": "2026-07-03 20:59:50", "BASIN": "EP", "STMNR": 4, "CAT_ID": null, "CAT_DESC": null, "MSGID": "WTPZ24 KNHC 030832", "VALIDTIME": "2026-06-30 06:00:00" }, "geometry": { "type": "Point", "coordinates": [ -124.0, 12.5 ] } },
{ "type": "Feature", "properties": { "ID": 29856, "LAT": 12.9, "LON": -124.8, "VMAX": 25.0, "MSLP": 1005.0, "RMAX": 120.0, "FSPD": 8.03823, "FDIR": 273.66943, "RENV": 200.0, "PENV": 1007.0, "VALIDT": 0, "DTG": "2026-06-30 12:00", "LATNOW": 19.1, "LONNOW": -128.0, "WINDNOW": 35.0, "DIRNOW": 4.0, "SPDNOW": 2.0, "TECH": "TRAK", "ADVNR": 9, "ATCFID": "EP042026", "NAME": "DOUGLAS", "FTECH": "OFCL", "FCST_DTG": "2026-07-03 06:00:00", "RUN_DTG": "2026-07-03 20:59:50", "BASIN": "EP", "STMNR": 4, "CAT_ID": null, "CAT_DESC": null, "MSGID": "WTPZ24 KNHC 030832", "VALIDTIME": "2026-06-30 12:00:00" }, "geometry": { "type": "Point", "coordinates": [ -124.800003, 12.9 ] } },
{ "type": "Feature", "properties": { "ID": 29857, "LAT": 13.0, "LON": -126.4, "VMAX": 25.0, "MSLP": 1005.0, "RMAX": 120.0, "FSPD": 3.24501, "FDIR": 342.02756, "RENV": 220.0, "PENV": 1009.0, "VALIDT": 0, "DTG": "2026-06-30 18:00", "LATNOW": 19.1, "LONNOW": -128.0, "WINDNOW": 35.0, "DIRNOW": 4.0, "SPDNOW": 2.0, "TECH": "TRAK", "ADVNR": 9, "ATCFID": "EP042026", "NAME": "DOUGLAS", "FTECH": "OFCL", "FCST_DTG": "2026-07-03 06:00:00", "RUN_DTG": "2026-07-03 20:59:50", "BASIN": "EP", "STMNR": 4, "CAT_ID": null, "CAT_DESC": null, "MSGID": "WTPZ24 KNHC 030832", "VALIDTIME": "2026-06-30 18:00:00" }, "geometry": { "type": "Point", "coordinates": [ -126.400002, 13.0 ] } },
{ "type": "Feature", "properties": { "ID": 29858, "LAT": 13.6, "LON": -126.6, "VMAX": 25.0, "MSLP": 1005.0, "RMAX": 120.0, "FSPD": 3.24423, "FDIR": 342.06946, "RENV": 220.0, "PENV": 1009.0, "VALIDT": 0, "DTG": "2026-07-01 00:00", "LATNOW": 19.1, "LONNOW": -128.0, "WINDNOW": 35.0, "DIRNOW": 4.0, "SPDNOW": 2.0, "TECH": "TRAK", "ADVNR": 9, "ATCFID": "EP042026", "NAME": "DOUGLAS", "FTECH": "OFCL", "FCST_DTG": "2026-07-03 06:00:00", "RUN_DTG": "2026-07-03 20:59:50", "BASIN": "EP", "STMNR": 4, "CAT_ID": null, "CAT_DESC": null, "MSGID": "WTPZ24 KNHC 030832", "VALIDTIME": "2026-07-01 00:00:00" }, "geometry": { "type": "Point", "coordinates": [ -126.599998, 13.6 ] } },
{ "type": "Feature", "properties": { "ID": 29859, "LAT": 14.2, "LON": -126.8, "VMAX": 30.0, "MSLP": 1005.0, "RMAX": 100.0, "FSPD": 1.14331, "FDIR": 25.85193, "RENV": 200.0, "PENV": 1009.0, "VALIDT": 0, "DTG": "2026-07-01 06:00", "LATNOW": 19.1, "LONNOW": -128.0, "WINDNOW": 35.0, "DIRNOW": 4.0, "SPDNOW": 2.0, "TECH": "TRAK", "ADVNR": 9, "ATCFID": "EP042026", "NAME": "DOUGLAS", "FTECH": "OFCL", "FCST_DTG": "2026-07-03 06:00:00", "RUN_DTG": "2026-07-03 20:59:50", "BASIN": "EP", "STMNR": 4, "CAT_ID": null, "CAT_DESC": null, "MSGID": "WTPZ24 KNHC 030832", "VALIDTIME": "2026-07-01 06:00:00" }, "geometry": { "type": "Point", "coordinates": [ -126.800003, 14.2 ] } },
{ "type": "Feature", "properties": { "ID": 29860, "LAT": 14.4, "LON": -126.7, "VMAX": 30.0, "MSLP": 1005.0, "RMAX": 150.0, "FSPD": 5.74554, "FDIR": 350.03662, "RENV": 200.0, "PENV": 1009.0, "VALIDT": 0, "DTG": "2026-07-01 12:00", "LATNOW": 19.1, "LONNOW": -128.0, "WINDNOW": 35.0, "DIRNOW": 4.0, "SPDNOW": 2.0, "TECH": "TRAK", "ADVNR": 9, "ATCFID": "EP042026", "NAME": "DOUGLAS", "FTECH": "OFCL", "FCST_DTG": "2026-07-03 06:00:00", "RUN_DTG": "2026-07-03 20:59:50", "BASIN": "EP", "STMNR": 4, "CAT_ID": null, "CAT_DESC": null, "MSGID": "WTPZ24 KNHC 030832", "VALIDTIME": "2026-07-01 12:00:00" }, "geometry": { "type": "Point", "coordinates": [ -126.699997, 14.4 ] } },
{ "type": "Feature", "properties": { "ID": 29861, "LAT": 15.5, "LON": -126.9, "VMAX": 35.0, "MSLP": 1003.0, "RMAX": 80.0, "FSPD": 3.63496, "FDIR": 352.17523, "RENV": 200.0, "PENV": 1009.0, "VALIDT": 0, "DTG": "2026-07-01 18:00", "LATNOW": 19.1, "LONNOW": -128.0, "WINDNOW": 35.0, "DIRNOW": 4.0, "SPDNOW": 2.0, "TECH": "TRAK", "ADVNR": 9, "ATCFID": "EP042026", "NAME": "DOUGLAS", "FTECH": "OFCL", "FCST_DTG": "2026-07-03 06:00:00", "RUN_DTG": "2026-07-03 20:59:50", "BASIN": "EP", "STMNR": 4, "CAT_ID": null, "CAT_DESC": null, "MSGID": "WTPZ24 KNHC 030832", "VALIDTIME": "2026-07-01 18:00:00" }, "geometry": { "type": "Point", "coordinates": [ -126.900002, 15.5 ] } },
{ "type": "Feature", "properties": { "ID": 29862, "LAT": 16.2, "LON": -127.0, "VMAX": 35.0, "MSLP": 1003.0, "RMAX": 80.0, "FSPD": 2.61911, "FDIR": 349.14194, "RENV": 200.0, "PENV": 1009.0, "VALIDT": 0, "DTG": "2026-07-02 00:00", "LATNOW": 19.1, "LONNOW": -128.0, "WINDNOW": 35.0, "DIRNOW": 4.0, "SPDNOW": 2.0, "TECH": "TRAK", "ADVNR": 9, "ATCFID": "EP042026", "NAME": "DOUGLAS", "FTECH": "OFCL", "FCST_DTG": "2026-07-03 06:00:00", "RUN_DTG": "2026-07-03 20:59:50", "BASIN": "EP", "STMNR": 4, "CAT_ID": null, "CAT_DESC": null, "MSGID": "WTPZ24 KNHC 030832", "VALIDTIME": "2026-07-02 00:00:00" }, "geometry": { "type": "Point", "coordinates": [ -127.0, 16.200001 ] } },
{ "type": "Feature", "properties": { "ID": 29863, "LAT": 16.7, "LON": -127.1, "VMAX": 35.0, "MSLP": 1003.0, "RMAX": 80.0, "FSPD": 2.05778, "FDIR": 360.0, "RENV": 200.0, "PENV": 1009.0, "VALIDT": 0, "DTG": "2026-07-02 06:00", "LATNOW": 19.1, "LONNOW": -128.0, "WINDNOW": 35.0, "DIRNOW": 4.0, "SPDNOW": 2.0, "TECH": "TRAK", "ADVNR": 9, "ATCFID": "EP042026", "NAME": "DOUGLAS", "FTECH": "OFCL", "FCST_DTG": "2026-07-03 06:00:00", "RUN_DTG": "2026-07-03 20:59:50", "BASIN": "EP", "STMNR": 4, "CAT_ID": null, "CAT_DESC": null, "MSGID": "WTPZ24 KNHC 030832", "VALIDTIME": "2026-07-02 06:00:00" }, "geometry": { "type": "Point", "coordinates": [ -127.099998, 16.700001 ] } },
{ "type": "Feature", "properties": { "ID": 29864, "LAT": 17.1, "LON": -127.1, "VMAX": 35.0, "MSLP": 1003.0, "RMAX": 60.0, "FSPD": 3.23906, "FDIR": 342.3548, "RENV": 200.0, "PENV": 1007.0, "VALIDT": 0, "DTG": "2026-07-02 12:00", "LATNOW": 19.1, "LONNOW": -128.0, "WINDNOW": 35.0, "DIRNOW": 4.0, "SPDNOW": 2.0, "TECH": "TRAK", "ADVNR": 9, "ATCFID": "EP042026", "NAME": "DOUGLAS", "FTECH": "OFCL", "FCST_DTG": "2026-07-03 06:00:00", "RUN_DTG": "2026-07-03 20:59:50", "BASIN": "EP", "STMNR": 4, "CAT_ID": null, "CAT_DESC": null, "MSGID": "WTPZ24 KNHC 030832", "VALIDTIME": "2026-07-02 12:00:00" }, "geometry": { "type": "Point", "coordinates": [ -127.099998, 17.1 ] } },
{ "type": "Feature", "properties": { "ID": 29865, "LAT": 17.7, "LON": -127.3, "VMAX": 35.0, "MSLP": 1003.0, "RMAX": 60.0, "FSPD": 4.23015, "FDIR": 346.63297, "RENV": 200.0, "PENV": 1008.0, "VALIDT": 0, "DTG": "2026-07-02 18:00", "LATNOW": 19.1, "LONNOW": -128.0, "WINDNOW": 35.0, "DIRNOW": 4.0, "SPDNOW": 2.0, "TECH": "TRAK", "ADVNR": 9, "ATCFID": "EP042026", "NAME": "DOUGLAS", "FTECH": "OFCL", "FCST_DTG": "2026-07-03 06:00:00", "RUN_DTG": "2026-07-03 20:59:50", "BASIN": "EP", "STMNR": 4, "CAT_ID": null, "CAT_DESC": null, "MSGID": "WTPZ24 KNHC 030832", "VALIDTIME": "2026-07-02 18:00:00" }, "geometry": { "type": "Point", "coordinates": [ -127.300003, 17.700001 ] } },
{ "type": "Feature", "properties": { "ID": 29866, "LAT": 18.5, "LON": -127.5, "VMAX": 35.0, "MSLP": 1003.0, "RMAX": 60.0, "FSPD": 3.9315, "FDIR": 321.73102, "RENV": 180.0, "PENV": 1008.0, "VALIDT": 0, "DTG": "2026-07-03 00:00", "LATNOW": 19.1, "LONNOW": -128.0, "WINDNOW": 35.0, "DIRNOW": 4.0, "SPDNOW": 2.0, "TECH": "TRAK", "ADVNR": 9, "ATCFID": "EP042026", "NAME": "DOUGLAS", "FTECH": "OFCL", "FCST_DTG": "2026-07-03 06:00:00", "RUN_DTG": "2026-07-03 20:59:50", "BASIN": "EP", "STMNR": 4, "CAT_ID": null, "CAT_DESC": null, "MSGID": "WTPZ24 KNHC 030832", "VALIDTIME": "2026-07-03 00:00:00" }, "geometry": { "type": "Point", "coordinates": [ -127.5, 18.5 ] } },
{ "type": "Feature", "properties": { "ID": 29867, "LAT": 19.1, "LON": -128.0, "VMAX": 35.0, "MSLP": 1003.0, "RMAX": 70.0, "FSPD": 4.24494, "FDIR": 316.64697, "RENV": 180.0, "PENV": 1008.0, "VALIDT": 0, "DTG": "2026-07-03 06:00", "LATNOW": 19.1, "LONNOW": -128.0, "WINDNOW": 35.0, "DIRNOW": 4.0, "SPDNOW": 2.0, "TECH": "TRAK", "ADVNR": 9, "ATCFID": "EP042026", "NAME": "DOUGLAS", "FTECH": "OFCL", "FCST_DTG": "2026-07-03 06:00:00", "RUN_DTG": "2026-07-03 20:59:50", "BASIN": "EP", "STMNR": 4, "CAT_ID": null, "CAT_DESC": null, "MSGID": "WTPZ24 KNHC 030832", "VALIDTIME": "2026-07-03 06:00:00" }, "geometry": { "type": "Point", "coordinates": [ -128.0, 19.1 ] } },
{ "type": "Feature", "properties": { "ID": 29868, "LAT": 19.4, "LON": -128.3, "VMAX": 35.0, "MSLP": 1003.0, "RMAX": 70.0, "FSPD": 3.03215, "FDIR": 334.80615, "RENV": 250.0, "PENV": 1012.0, "VALIDT": 3, "DTG": "2026-07-03 09:00", "LATNOW": 19.1, "LONNOW": -128.0, "WINDNOW": 35.0, "DIRNOW": 4.0, "SPDNOW": 2.0, "TECH": "FCST", "ADVNR": 9, "ATCFID": "EP042026", "NAME": "DOUGLAS", "FTECH": "OFCL", "FCST_DTG": "2026-07-03 06:00:00", "RUN_DTG": "2026-07-03 20:59:50", "BASIN": "EP", "STMNR": 4, "CAT_ID": null, "CAT_DESC": null, "MSGID": "WTPZ24 KNHC 030832", "VALIDTIME": "2026-07-03 09:00:00" }, "geometry": { "type": "Point", "coordinates": [ -128.300003, 19.4 ] } },
{ "type": "Feature", "properties": { "ID": 29869, "LAT": 20.2, "LON": -128.7, "VMAX": 30.0, "MSLP": 1010.40607, "RMAX": 79.43238, "FSPD": 2.86321, "FDIR": 323.9527, "RENV": 250.0, "PENV": 1012.0, "VALIDT": 12, "DTG": "2026-07-03 18:00", "LATNOW": 19.1, "LONNOW": -128.0, "WINDNOW": 35.0, "DIRNOW": 4.0, "SPDNOW": 2.0, "TECH": "FCST", "ADVNR": 9, "ATCFID": "EP042026", "NAME": "DOUGLAS", "FTECH": "OFCL", "FCST_DTG": "2026-07-03 06:00:00", "RUN_DTG": "2026-07-03 20:59:50", "BASIN": "EP", "STMNR": 4, "CAT_ID": null, "CAT_DESC": null, "MSGID": "WTPZ24 KNHC 030832", "VALIDTIME": "2026-07-03 18:00:00" }, "geometry": { "type": "Point", "coordinates": [ -128.699997, 20.200001 ] } },
{ "type": "Feature", "properties": { "ID": 29870, "LAT": 21.1, "LON": -129.4, "VMAX": 30.0, "MSLP": 1010.40607, "RMAX": 79.43238, "FSPD": 3.16156, "FDIR": 317.07385, "RENV": 250.0, "PENV": 1012.0, "VALIDT": 24, "DTG": "2026-07-04 06:00", "LATNOW": 19.1, "LONNOW": -128.0, "WINDNOW": 35.0, "DIRNOW": 4.0, "SPDNOW": 2.0, "TECH": "FCST", "ADVNR": 9, "ATCFID": "EP042026", "NAME": "DOUGLAS", "FTECH": "OFCL", "FCST_DTG": "2026-07-03 06:00:00", "RUN_DTG": "2026-07-03 20:59:50", "BASIN": "EP", "STMNR": 4, "CAT_ID": null, "CAT_DESC": null, "MSGID": "WTPZ24 KNHC 030832", "VALIDTIME": "2026-07-04 06:00:00" }, "geometry": { "type": "Point", "coordinates": [ -129.399994, 21.1 ] } },
{ "type": "Feature", "properties": { "ID": 29871, "LAT": 22.0, "LON": -130.3, "VMAX": 25.0, "MSLP": 1011.80975, "RMAX": 80.8338, "FSPD": 3.49248, "FDIR": 311.51782, "RENV": 250.0, "PENV": 1012.0, "VALIDT": 36, "DTG": "2026-07-04 18:00", "LATNOW": 19.1, "LONNOW": -128.0, "WINDNOW": 35.0, "DIRNOW": 4.0, "SPDNOW": 2.0, "TECH": "FCST", "ADVNR": 9, "ATCFID": "EP042026", "NAME": "DOUGLAS", "FTECH": "OFCL", "FCST_DTG": "2026-07-03 06:00:00", "RUN_DTG": "2026-07-03 20:59:50", "BASIN": "EP", "STMNR": 4, "CAT_ID": null, "CAT_DESC": null, "MSGID": "WTPZ24 KNHC 030832", "VALIDTIME": "2026-07-04 18:00:00" }, "geometry": { "type": "Point", "coordinates": [ -130.300003, 22.0 ] } },
{ "type": "Feature", "properties": { "ID": 29872, "LAT": 22.9, "LON": -131.4, "VMAX": 25.0, "MSLP": 1011.80975, "RMAX": 80.8338, "FSPD": 3.49248, "FDIR": 311.51782, "RENV": 250.0, "PENV": 1012.0, "VALIDT": 48, "DTG": "2026-07-05 06:00", "LATNOW": 19.1, "LONNOW": -128.0, "WINDNOW": 35.0, "DIRNOW": 4.0, "SPDNOW": 2.0, "TECH": "FCST", "ADVNR": 9, "ATCFID": "EP042026", "NAME": "DOUGLAS", "FTECH": "OFCL", "FCST_DTG": "2026-07-03 06:00:00", "RUN_DTG": "2026-07-03 20:59:50", "BASIN": "EP", "STMNR": 4, "CAT_ID": null, "CAT_DESC": null, "MSGID": "WTPZ24 KNHC 030832", "VALIDTIME": "2026-07-05 06:00:00" }, "geometry": { "type": "Point", "coordinates": [ -131.399994, 22.9 ] } },
{ "type": "Feature", "properties": { "ID": 29867, "LAT": 19.1, "LON": -128.0, "VMAX": 35.0, "MSLP": 1003.0, "RMAX": 70.0, "FSPD": 4.24494, "FDIR": 316.64697, "RENV": 180.0, "PENV": 1008.0, "VALIDT": 0, "DTG": "2026-07-03 06:00", "LATNOW": 19.1, "LONNOW": -128.0, "WINDNOW": 35.0, "DIRNOW": 4.0, "SPDNOW": 2.0, "TECH": "TRAK", "ADVNR": 9, "ATCFID": "EP042026", "NAME": "DOUGLAS", "FTECH": "OFCL", "FCST_DTG": "2026-07-03 06:00:00", "RUN_DTG": "2026-07-03 20:59:50", "BASIN": "EP", "STMNR": 4, "CAT_ID": null, "CAT_DESC": null, "MSGID": "WTPZ24 KNHC 030832", "VALIDTIME": "2026-07-03 06:00:00" }, "geometry": { "type": "LineString", "coordinates": [ [ -123.0, 11.6 ], [ -123.4, 12.0 ], [ -124.0, 12.5 ], [ -124.8, 12.9 ], [ -126.4, 13.0 ], [ -126.6, 13.6 ], [ -126.8, 14.2 ], [ -126.7, 14.4 ], [ -126.9, 15.5 ], [ -127.0, 16.2 ], [ -127.1, 16.7 ], [ -127.1, 17.1 ], [ -127.3, 17.7 ], [ -127.5, 18.5 ], [ -128.0, 19.1 ] ] } },
{ "type": "Feature", "properties": { "ID": 29872, "LAT": 22.9, "LON": -131.4, "VMAX": 25.0, "MSLP": 1011.80975, "RMAX": 80.8338, "FSPD": 3.49248, "FDIR": 311.51782, "RENV": 250.0, "PENV": 1012.0, "VALIDT": 48, "DTG": "2026-07-05 06:00", "LATNOW": 19.1, "LONNOW": -128.0, "WINDNOW": 35.0, "DIRNOW": 4.0, "SPDNOW": 2.0, "TECH": "FCST", "ADVNR": 9, "ATCFID": "EP042026", "NAME": "DOUGLAS", "FTECH": "OFCL", "FCST_DTG": "2026-07-03 06:00:00", "RUN_DTG": "2026-07-03 20:59:50", "BASIN": "EP", "STMNR": 4, "CAT_ID": null, "CAT_DESC": null, "MSGID": "WTPZ24 KNHC 030832", "VALIDTIME": "2026-07-05 06:00:00" }, "geometry": { "type": "LineString", "coordinates": [ [ -128.0, 19.1 ], [ -128.3, 19.4 ], [ -128.7, 20.2 ], [ -129.4, 21.1 ], [ -130.3, 22.0 ], [ -131.4, 22.9 ] ] } }
]
}
