{
"type": "FeatureCollection",
"crs": { "type": "name", "properties": { "name": "urn:ogc:def:crs:OGC:1.3:CRS84" } },
"features": [
{ "type": "Feature", "properties": { "ID": 256002, "LAT": 36.2, "LON": 136.3, "VMAX": 35.0, "MSLP": 1008.74713, "RMAX": 79.75685, "FSPD": 18.35575, "FDIR": 73.72406, "RENV": 250.0, "PENV": 1012.0, "VALIDT": 12, "DTG": "2024-09-22 00:00", "LATNOW": 34.6, "LONNOW": 128.9, "WINDNOW": 35.0, "DIRNOW": 16.0, "SPDNOW": 0.0, "TECH": "FCST", "ADVNR": 20, "ATCFID": "WP152024", "NAME": "PULASAN", "FTECH": "JTWC", "FCST_DTG": "2024-09-21 12:00:00", "RUN_DTG": "2024-09-22 02:05:24", "BASIN": "WP", "STMNR": 15, "CAT_ID": null, "CAT_DESC": null, "MSGID": "WTPN52 PGTW 211500", "VALIDTIME": "2024-09-22 00:00:00" }, "geometry": { "type": "Point", "coordinates": [ 136.300003, 36.200001 ] } },
{ "type": "Feature", "properties": { "ID": 256003, "LAT": 38.2, "LON": 144.9, "VMAX": 30.0, "MSLP": 1010.40607, "RMAX": 82.6124, "FSPD": 18.35575, "FDIR": 73.72406, "RENV": 250.0, "PENV": 1012.0, "VALIDT": 24, "DTG": "2024-09-22 12:00", "LATNOW": 34.6, "LONNOW": 128.9, "WINDNOW": 35.0, "DIRNOW": 16.0, "SPDNOW": 0.0, "TECH": "FCST", "ADVNR": 20, "ATCFID": "WP152024", "NAME": "PULASAN", "FTECH": "JTWC", "FCST_DTG": "2024-09-21 12:00:00", "RUN_DTG": "2024-09-22 02:05:24", "BASIN": "WP", "STMNR": 15, "CAT_ID": null, "CAT_DESC": null, "MSGID": "WTPN52 PGTW 211500", "VALIDTIME": "2024-09-22 12:00:00" }, "geometry": { "type": "Point", "coordinates": [ 144.899994, 38.200001 ] } },
{ "type": "Feature", "properties": { "ID": 255973, "LAT": 12.2, "LON": 144.6, "VMAX": 15.0, "MSLP": 1013.8515, "RMAX": 40.0, "FSPD": 2.15751, "FDIR": 315.67035, "RENV": 500.0, "PENV": 1012.0, "VALIDT": 0, "DTG": "2024-09-14 18:00", "LATNOW": 34.6, "LONNOW": 128.9, "WINDNOW": 35.0, "DIRNOW": 16.0, "SPDNOW": 0.0, "TECH": "TRAK", "ADVNR": 20, "ATCFID": "WP152024", "NAME": "PULASAN", "FTECH": "JTWC", "FCST_DTG": "2024-09-21 12:00:00", "RUN_DTG": "2024-09-22 02:05:24", "BASIN": "WP", "STMNR": 15, "CAT_ID": null, "CAT_DESC": null, "MSGID": "WTPN52 PGTW 211500", "VALIDTIME": "2024-09-14 18:00:00" }, "geometry": { "type": "Point", "coordinates": [ 144.600006, 12.2 ] } },
{ "type": "Feature", "properties": { "ID": 255974, "LAT": 12.5, "LON": 144.3, "VMAX": 15.0, "MSLP": 1013.8515, "RMAX": 40.0, "FSPD": 2.28951, "FDIR": 333.99872, "RENV": 500.0, "PENV": 1012.0, "VALIDT": 0, "DTG": "2024-09-15 00:00", "LATNOW": 34.6, "LONNOW": 128.9, "WINDNOW": 35.0, "DIRNOW": 16.0, "SPDNOW": 0.0, "TECH": "TRAK", "ADVNR": 20, "ATCFID": "WP152024", "NAME": "PULASAN", "FTECH": "JTWC", "FCST_DTG": "2024-09-21 12:00:00", "RUN_DTG": "2024-09-22 02:05:24", "BASIN": "WP", "STMNR": 15, "CAT_ID": null, "CAT_DESC": null, "MSGID": "WTPN52 PGTW 211500", "VALIDTIME": "2024-09-15 00:00:00" }, "geometry": { "type": "Point", "coordinates": [ 144.300003, 12.5 ] } },
{ "type": "Feature", "properties": { "ID": 255975, "LAT": 12.9, "LON": 144.1, "VMAX": 20.0, "MSLP": 1012.95825, "RMAX": 45.0, "FSPD": 3.26064, "FDIR": 322.07996, "RENV": 500.0, "PENV": 1012.0, "VALIDT": 0, "DTG": "2024-09-15 06:00", "LATNOW": 34.6, "LONNOW": 128.9, "WINDNOW": 35.0, "DIRNOW": 16.0, "SPDNOW": 0.0, "TECH": "TRAK", "ADVNR": 20, "ATCFID": "WP152024", "NAME": "PULASAN", "FTECH": "JTWC", "FCST_DTG": "2024-09-21 12:00:00", "RUN_DTG": "2024-09-22 02:05:24", "BASIN": "WP", "STMNR": 15, "CAT_ID": null, "CAT_DESC": null, "MSGID": "WTPN52 PGTW 211500", "VALIDTIME": "2024-09-15 06:00:00" }, "geometry": { "type": "Point", "coordinates": [ 144.100006, 12.9 ] } },
{ "type": "Feature", "properties": { "ID": 255976, "LAT": 13.4, "LON": 143.7, "VMAX": 20.0, "MSLP": 1012.95825, "RMAX": 45.0, "FSPD": 3.97149, "FDIR": 321.00552, "RENV": 500.0, "PENV": 1012.0, "VALIDT": 0, "DTG": "2024-09-15 12:00", "LATNOW": 34.6, "LONNOW": 128.9, "WINDNOW": 35.0, "DIRNOW": 16.0, "SPDNOW": 0.0, "TECH": "TRAK", "ADVNR": 20, "ATCFID": "WP152024", "NAME": "PULASAN", "FTECH": "JTWC", "FCST_DTG": "2024-09-21 12:00:00", "RUN_DTG": "2024-09-22 02:05:24", "BASIN": "WP", "STMNR": 15, "CAT_ID": null, "CAT_DESC": null, "MSGID": "WTPN52 PGTW 211500", "VALIDTIME": "2024-09-15 12:00:00" }, "geometry": { "type": "Point", "coordinates": [ 143.699997, 13.4 ] } },
{ "type": "Feature", "properties": { "ID": 255977, "LAT": 14.0, "LON": 143.2, "VMAX": 30.0, "MSLP": 1010.40607, "RMAX": 44.21983, "FSPD": 3.96739, "FDIR": 321.07867, "RENV": 500.0, "PENV": 1012.0, "VALIDT": 0, "DTG": "2024-09-15 18:00", "LATNOW": 34.6, "LONNOW": 128.9, "WINDNOW": 35.0, "DIRNOW": 16.0, "SPDNOW": 0.0, "TECH": "TRAK", "ADVNR": 20, "ATCFID": "WP152024", "NAME": "PULASAN", "FTECH": "JTWC", "FCST_DTG": "2024-09-21 12:00:00", "RUN_DTG": "2024-09-22 02:05:24", "BASIN": "WP", "STMNR": 15, "CAT_ID": null, "CAT_DESC": null, "MSGID": "WTPN52 PGTW 211500", "VALIDTIME": "2024-09-15 18:00:00" }, "geometry": { "type": "Point", "coordinates": [ 143.199997, 14.0 ] } },
{ "type": "Feature", "properties": { "ID": 255978, "LAT": 14.6, "LON": 142.7, "VMAX": 35.0, "MSLP": 1008.74713, "RMAX": 42.69135, "FSPD": 8.93334, "FDIR": 337.13046, "RENV": 500.0, "PENV": 1012.0, "VALIDT": 0, "DTG": "2024-09-16 00:00", "LATNOW": 34.6, "LONNOW": 128.9, "WINDNOW": 35.0, "DIRNOW": 16.0, "SPDNOW": 0.0, "TECH": "TRAK", "ADVNR": 20, "ATCFID": "WP152024", "NAME": "PULASAN", "FTECH": "JTWC", "FCST_DTG": "2024-09-21 12:00:00", "RUN_DTG": "2024-09-22 02:05:24", "BASIN": "WP", "STMNR": 15, "CAT_ID": null, "CAT_DESC": null, "MSGID": "WTPN52 PGTW 211500", "VALIDTIME": "2024-09-16 00:00:00" }, "geometry": { "type": "Point", "coordinates": [ 142.699997, 14.6 ] } },
{ "type": "Feature", "properties": { "ID": 255979, "LAT": 16.2, "LON": 142.0, "VMAX": 35.0, "MSLP": 1008.74713, "RMAX": 42.69135, "FSPD": 6.00598, "FDIR": 295.35828, "RENV": 500.0, "PENV": 1012.0, "VALIDT": 0, "DTG": "2024-09-16 06:00", "LATNOW": 34.6, "LONNOW": 128.9, "WINDNOW": 35.0, "DIRNOW": 16.0, "SPDNOW": 0.0, "TECH": "TRAK", "ADVNR": 20, "ATCFID": "WP152024", "NAME": "PULASAN", "FTECH": "JTWC", "FCST_DTG": "2024-09-21 12:00:00", "RUN_DTG": "2024-09-22 02:05:24", "BASIN": "WP", "STMNR": 15, "CAT_ID": null, "CAT_DESC": null, "MSGID": "WTPN52 PGTW 211500", "VALIDTIME": "2024-09-16 06:00:00" }, "geometry": { "type": "Point", "coordinates": [ 142.0, 16.200001 ] } },
{ "type": "Feature", "properties": { "ID": 255980, "LAT": 16.7, "LON": 140.9, "VMAX": 35.0, "MSLP": 1008.74713, "RMAX": 42.69135, "FSPD": 5.03021, "FDIR": 336.9902, "RENV": 500.0, "PENV": 1012.0, "VALIDT": 0, "DTG": "2024-09-16 12:00", "LATNOW": 34.6, "LONNOW": 128.9, "WINDNOW": 35.0, "DIRNOW": 16.0, "SPDNOW": 0.0, "TECH": "TRAK", "ADVNR": 20, "ATCFID": "WP152024", "NAME": "PULASAN", "FTECH": "JTWC", "FCST_DTG": "2024-09-21 12:00:00", "RUN_DTG": "2024-09-22 02:05:24", "BASIN": "WP", "STMNR": 15, "CAT_ID": null, "CAT_DESC": null, "MSGID": "WTPN52 PGTW 211500", "VALIDTIME": "2024-09-16 12:00:00" }, "geometry": { "type": "Point", "coordinates": [ 140.899994, 16.700001 ] } },
{ "type": "Feature", "properties": { "ID": 255981, "LAT": 17.6, "LON": 140.5, "VMAX": 35.0, "MSLP": 997.0, "RMAX": 130.0, "FSPD": 9.94749, "FDIR": 297.73895, "RENV": 300.0, "PENV": 1003.0, "VALIDT": 0, "DTG": "2024-09-16 18:00", "LATNOW": 34.6, "LONNOW": 128.9, "WINDNOW": 35.0, "DIRNOW": 16.0, "SPDNOW": 0.0, "TECH": "TRAK", "ADVNR": 20, "ATCFID": "WP152024", "NAME": "PULASAN", "FTECH": "JTWC", "FCST_DTG": "2024-09-21 12:00:00", "RUN_DTG": "2024-09-22 02:05:24", "BASIN": "WP", "STMNR": 15, "CAT_ID": null, "CAT_DESC": null, "MSGID": "WTPN52 PGTW 211500", "VALIDTIME": "2024-09-16 18:00:00" }, "geometry": { "type": "Point", "coordinates": [ 140.5, 17.6 ] } },
{ "type": "Feature", "properties": { "ID": 255982, "LAT": 18.5, "LON": 138.7, "VMAX": 35.0, "MSLP": 997.0, "RMAX": 130.0, "FSPD": 14.83302, "FDIR": 311.221, "RENV": 300.0, "PENV": 1003.0, "VALIDT": 0, "DTG": "2024-09-17 00:00", "LATNOW": 34.6, "LONNOW": 128.9, "WINDNOW": 35.0, "DIRNOW": 16.0, "SPDNOW": 0.0, "TECH": "TRAK", "ADVNR": 20, "ATCFID": "WP152024", "NAME": "PULASAN", "FTECH": "JTWC", "FCST_DTG": "2024-09-21 12:00:00", "RUN_DTG": "2024-09-22 02:05:24", "BASIN": "WP", "STMNR": 15, "CAT_ID": null, "CAT_DESC": null, "MSGID": "WTPN52 PGTW 211500", "VALIDTIME": "2024-09-17 00:00:00" }, "geometry": { "type": "Point", "coordinates": [ 138.699997, 18.5 ] } },
{ "type": "Feature", "properties": { "ID": 255983, "LAT": 20.4, "LON": 136.4, "VMAX": 45.0, "MSLP": 997.0, "RMAX": 130.0, "FSPD": 9.15301, "FDIR": 296.72058, "RENV": 300.0, "PENV": 1003.0, "VALIDT": 0, "DTG": "2024-09-17 06:00", "LATNOW": 34.6, "LONNOW": 128.9, "WINDNOW": 35.0, "DIRNOW": 16.0, "SPDNOW": 0.0, "TECH": "TRAK", "ADVNR": 20, "ATCFID": "WP152024", "NAME": "PULASAN", "FTECH": "JTWC", "FCST_DTG": "2024-09-21 12:00:00", "RUN_DTG": "2024-09-22 02:05:24", "BASIN": "WP", "STMNR": 15, "CAT_ID": null, "CAT_DESC": null, "MSGID": "WTPN52 PGTW 211500", "VALIDTIME": "2024-09-17 06:00:00" }, "geometry": { "type": "Point", "coordinates": [ 136.399994, 20.4 ] } },
{ "type": "Feature", "properties": { "ID": 255984, "LAT": 21.2, "LON": 134.7, "VMAX": 60.0, "MSLP": 996.0, "RMAX": 145.0, "FSPD": 8.40286, "FDIR": 312.33368, "RENV": 240.0, "PENV": 1000.0, "VALIDT": 0, "DTG": "2024-09-17 12:00", "LATNOW": 34.6, "LONNOW": 128.9, "WINDNOW": 35.0, "DIRNOW": 16.0, "SPDNOW": 0.0, "TECH": "TRAK", "ADVNR": 20, "ATCFID": "WP152024", "NAME": "PULASAN", "FTECH": "JTWC", "FCST_DTG": "2024-09-21 12:00:00", "RUN_DTG": "2024-09-22 02:05:24", "BASIN": "WP", "STMNR": 15, "CAT_ID": null, "CAT_DESC": null, "MSGID": "WTPN52 PGTW 211500", "VALIDTIME": "2024-09-17 12:00:00" }, "geometry": { "type": "Point", "coordinates": [ 134.699997, 21.200001 ] } },
{ "type": "Feature", "properties": { "ID": 255985, "LAT": 22.3, "LON": 133.4, "VMAX": 65.0, "MSLP": 996.0, "RMAX": 145.0, "FSPD": 9.08795, "FDIR": 308.51215, "RENV": 240.0, "PENV": 1002.0, "VALIDT": 0, "DTG": "2024-09-17 18:00", "LATNOW": 34.6, "LONNOW": 128.9, "WINDNOW": 35.0, "DIRNOW": 16.0, "SPDNOW": 0.0, "TECH": "TRAK", "ADVNR": 20, "ATCFID": "WP152024", "NAME": "PULASAN", "FTECH": "JTWC", "FCST_DTG": "2024-09-21 12:00:00", "RUN_DTG": "2024-09-22 02:05:24", "BASIN": "WP", "STMNR": 15, "CAT_ID": null, "CAT_DESC": null, "MSGID": "WTPN52 PGTW 211500", "VALIDTIME": "2024-09-17 18:00:00" }, "geometry": { "type": "Point", "coordinates": [ 133.399994, 22.299999 ] } },
{ "type": "Feature", "properties": { "ID": 255986, "LAT": 23.4, "LON": 131.9, "VMAX": 55.0, "MSLP": 995.0, "RMAX": 134.0, "FSPD": 9.64418, "FDIR": 291.9253, "RENV": 240.0, "PENV": 1000.0, "VALIDT": 0, "DTG": "2024-09-18 00:00", "LATNOW": 34.6, "LONNOW": 128.9, "WINDNOW": 35.0, "DIRNOW": 16.0, "SPDNOW": 0.0, "TECH": "TRAK", "ADVNR": 20, "ATCFID": "WP152024", "NAME": "PULASAN", "FTECH": "JTWC", "FCST_DTG": "2024-09-21 12:00:00", "RUN_DTG": "2024-09-22 02:05:24", "BASIN": "WP", "STMNR": 15, "CAT_ID": null, "CAT_DESC": null, "MSGID": "WTPN52 PGTW 211500", "VALIDTIME": "2024-09-18 00:00:00" }, "geometry": { "type": "Point", "coordinates": [ 131.899994, 23.4 ] } },
{ "type": "Feature", "properties": { "ID": 255987, "LAT": 24.1, "LON": 130.0, "VMAX": 55.0, "MSLP": 998.0, "RMAX": 114.0, "FSPD": 10.80473, "FDIR": 319.6237, "RENV": 190.0, "PENV": 1002.0, "VALIDT": 0, "DTG": "2024-09-18 06:00", "LATNOW": 34.6, "LONNOW": 128.9, "WINDNOW": 35.0, "DIRNOW": 16.0, "SPDNOW": 0.0, "TECH": "TRAK", "ADVNR": 20, "ATCFID": "WP152024", "NAME": "PULASAN", "FTECH": "JTWC", "FCST_DTG": "2024-09-21 12:00:00", "RUN_DTG": "2024-09-22 02:05:24", "BASIN": "WP", "STMNR": 15, "CAT_ID": null, "CAT_DESC": null, "MSGID": "WTPN52 PGTW 211500", "VALIDTIME": "2024-09-18 06:00:00" }, "geometry": { "type": "Point", "coordinates": [ 130.0, 24.1 ] } },
{ "type": "Feature", "properties": { "ID": 255988, "LAT": 25.7, "LON": 128.5, "VMAX": 50.0, "MSLP": 998.0, "RMAX": 114.0, "FSPD": 7.4256, "FDIR": 334.24207, "RENV": 170.0, "PENV": 1000.0, "VALIDT": 0, "DTG": "2024-09-18 12:00", "LATNOW": 34.6, "LONNOW": 128.9, "WINDNOW": 35.0, "DIRNOW": 16.0, "SPDNOW": 0.0, "TECH": "TRAK", "ADVNR": 20, "ATCFID": "WP152024", "NAME": "PULASAN", "FTECH": "JTWC", "FCST_DTG": "2024-09-21 12:00:00", "RUN_DTG": "2024-09-22 02:05:24", "BASIN": "WP", "STMNR": 15, "CAT_ID": null, "CAT_DESC": null, "MSGID": "WTPN52 PGTW 211500", "VALIDTIME": "2024-09-18 12:00:00" }, "geometry": { "type": "Point", "coordinates": [ 128.5, 25.700001 ] } },
{ "type": "Feature", "properties": { "ID": 255989, "LAT": 27.0, "LON": 127.8, "VMAX": 45.0, "MSLP": 998.0, "RMAX": 114.0, "FSPD": 11.67382, "FDIR": 318.51764, "RENV": 170.0, "PENV": 1000.0, "VALIDT": 0, "DTG": "2024-09-18 18:00", "LATNOW": 34.6, "LONNOW": 128.9, "WINDNOW": 35.0, "DIRNOW": 16.0, "SPDNOW": 0.0, "TECH": "TRAK", "ADVNR": 20, "ATCFID": "WP152024", "NAME": "PULASAN", "FTECH": "JTWC", "FCST_DTG": "2024-09-21 12:00:00", "RUN_DTG": "2024-09-22 02:05:24", "BASIN": "WP", "STMNR": 15, "CAT_ID": null, "CAT_DESC": null, "MSGID": "WTPN52 PGTW 211500", "VALIDTIME": "2024-09-18 18:00:00" }, "geometry": { "type": "Point", "coordinates": [ 127.800003, 27.0 ] } },
{ "type": "Feature", "properties": { "ID": 255990, "LAT": 28.7, "LON": 126.1, "VMAX": 40.0, "MSLP": 998.0, "RMAX": 100.0, "FSPD": 14.25171, "FDIR": 288.9579, "RENV": 220.0, "PENV": 1002.0, "VALIDT": 0, "DTG": "2024-09-19 00:00", "LATNOW": 34.6, "LONNOW": 128.9, "WINDNOW": 35.0, "DIRNOW": 16.0, "SPDNOW": 0.0, "TECH": "TRAK", "ADVNR": 20, "ATCFID": "WP152024", "NAME": "PULASAN", "FTECH": "JTWC", "FCST_DTG": "2024-09-21 12:00:00", "RUN_DTG": "2024-09-22 02:05:24", "BASIN": "WP", "STMNR": 15, "CAT_ID": null, "CAT_DESC": null, "MSGID": "WTPN52 PGTW 211500", "VALIDTIME": "2024-09-19 00:00:00" }, "geometry": { "type": "Point", "coordinates": [ 126.099998, 28.700001 ] } },
{ "type": "Feature", "properties": { "ID": 255991, "LAT": 29.6, "LON": 123.1, "VMAX": 35.0, "MSLP": 998.0, "RMAX": 50.0, "FSPD": 6.74017, "FDIR": 313.38727, "RENV": 120.0, "PENV": 1002.0, "VALIDT": 0, "DTG": "2024-09-19 06:00", "LATNOW": 34.6, "LONNOW": 128.9, "WINDNOW": 35.0, "DIRNOW": 16.0, "SPDNOW": 0.0, "TECH": "TRAK", "ADVNR": 20, "ATCFID": "WP152024", "NAME": "PULASAN", "FTECH": "JTWC", "FCST_DTG": "2024-09-21 12:00:00", "RUN_DTG": "2024-09-22 02:05:24", "BASIN": "WP", "STMNR": 15, "CAT_ID": null, "CAT_DESC": null, "MSGID": "WTPN52 PGTW 211500", "VALIDTIME": "2024-09-19 06:00:00" }, "geometry": { "type": "Point", "coordinates": [ 123.099998, 29.6 ] } },
{ "type": "Feature", "properties": { "ID": 255992, "LAT": 30.5, "LON": 122.0, "VMAX": 30.0, "MSLP": 998.0, "RMAX": 75.0, "FSPD": 3.3588, "FDIR": 307.78162, "RENV": 150.0, "PENV": 1002.0, "VALIDT": 0, "DTG": "2024-09-19 12:00", "LATNOW": 34.6, "LONNOW": 128.9, "WINDNOW": 35.0, "DIRNOW": 16.0, "SPDNOW": 0.0, "TECH": "TRAK", "ADVNR": 20, "ATCFID": "WP152024", "NAME": "PULASAN", "FTECH": "JTWC", "FCST_DTG": "2024-09-21 12:00:00", "RUN_DTG": "2024-09-22 02:05:24", "BASIN": "WP", "STMNR": 15, "CAT_ID": null, "CAT_DESC": null, "MSGID": "WTPN52 PGTW 211500", "VALIDTIME": "2024-09-19 12:00:00" }, "geometry": { "type": "Point", "coordinates": [ 122.0, 30.5 ] } },
{ "type": "Feature", "properties": { "ID": 255993, "LAT": 30.86, "LON": 121.46, "VMAX": 30.0, "MSLP": 998.0, "RMAX": 75.0, "FSPD": 3.35432, "FDIR": 307.83975, "RENV": 150.0, "PENV": 1002.0, "VALIDT": 0, "DTG": "2024-09-19 17:00", "LATNOW": 34.6, "LONNOW": 128.9, "WINDNOW": 35.0, "DIRNOW": 16.0, "SPDNOW": 0.0, "TECH": "TRAK", "ADVNR": 20, "ATCFID": "WP152024", "NAME": "PULASAN", "FTECH": "JTWC", "FCST_DTG": "2024-09-21 12:00:00", "RUN_DTG": "2024-09-22 02:05:24", "BASIN": "WP", "STMNR": 15, "CAT_ID": null, "CAT_DESC": null, "MSGID": "WTPN52 PGTW 211500", "VALIDTIME": "2024-09-19 17:00:00" }, "geometry": { "type": "Point", "coordinates": [ 121.459999, 30.860001 ] } },
{ "type": "Feature", "properties": { "ID": 255994, "LAT": 30.9, "LON": 121.4, "VMAX": 30.0, "MSLP": 998.0, "RMAX": 75.0, "FSPD": 7.43831, "FDIR": 319.53265, "RENV": 150.0, "PENV": 1002.0, "VALIDT": 0, "DTG": "2024-09-19 18:00", "LATNOW": 34.6, "LONNOW": 128.9, "WINDNOW": 35.0, "DIRNOW": 16.0, "SPDNOW": 0.0, "TECH": "TRAK", "ADVNR": 20, "ATCFID": "WP152024", "NAME": "PULASAN", "FTECH": "JTWC", "FCST_DTG": "2024-09-21 12:00:00", "RUN_DTG": "2024-09-22 02:05:24", "BASIN": "WP", "STMNR": 15, "CAT_ID": null, "CAT_DESC": null, "MSGID": "WTPN52 PGTW 211500", "VALIDTIME": "2024-09-19 18:00:00" }, "geometry": { "type": "Point", "coordinates": [ 121.400002, 30.9 ] } },
{ "type": "Feature", "properties": { "ID": 255995, "LAT": 32.0, "LON": 120.3, "VMAX": 30.0, "MSLP": 999.0, "RMAX": 80.0, "FSPD": 2.60876, "FDIR": 9.60031, "RENV": 90.0, "PENV": 1004.0, "VALIDT": 0, "DTG": "2024-09-20 00:00", "LATNOW": 34.6, "LONNOW": 128.9, "WINDNOW": 35.0, "DIRNOW": 16.0, "SPDNOW": 0.0, "TECH": "TRAK", "ADVNR": 20, "ATCFID": "WP152024", "NAME": "PULASAN", "FTECH": "JTWC", "FCST_DTG": "2024-09-21 12:00:00", "RUN_DTG": "2024-09-22 02:05:24", "BASIN": "WP", "STMNR": 15, "CAT_ID": null, "CAT_DESC": null, "MSGID": "WTPN52 PGTW 211500", "VALIDTIME": "2024-09-20 00:00:00" }, "geometry": { "type": "Point", "coordinates": [ 120.300003, 32.0 ] } },
{ "type": "Feature", "properties": { "ID": 255996, "LAT": 32.5, "LON": 120.4, "VMAX": 30.0, "MSLP": 1000.0, "RMAX": 80.0, "FSPD": 3.40224, "FDIR": 63.02371, "RENV": 90.0, "PENV": 1004.0, "VALIDT": 0, "DTG": "2024-09-20 06:00", "LATNOW": 34.6, "LONNOW": 128.9, "WINDNOW": 35.0, "DIRNOW": 16.0, "SPDNOW": 0.0, "TECH": "TRAK", "ADVNR": 20, "ATCFID": "WP152024", "NAME": "PULASAN", "FTECH": "JTWC", "FCST_DTG": "2024-09-21 12:00:00", "RUN_DTG": "2024-09-22 02:05:24", "BASIN": "WP", "STMNR": 15, "CAT_ID": null, "CAT_DESC": null, "MSGID": "WTPN52 PGTW 211500", "VALIDTIME": "2024-09-20 06:00:00" }, "geometry": { "type": "Point", "coordinates": [ 120.400002, 32.5 ] } },
{ "type": "Feature", "properties": { "ID": 255997, "LAT": 32.8, "LON": 121.1, "VMAX": 30.0, "MSLP": 1000.0, "RMAX": 70.0, "FSPD": 7.02346, "FDIR": 59.15439, "RENV": 180.0, "PENV": 1005.0, "VALIDT": 0, "DTG": "2024-09-20 12:00", "LATNOW": 34.6, "LONNOW": 128.9, "WINDNOW": 35.0, "DIRNOW": 16.0, "SPDNOW": 0.0, "TECH": "TRAK", "ADVNR": 20, "ATCFID": "WP152024", "NAME": "PULASAN", "FTECH": "JTWC", "FCST_DTG": "2024-09-21 12:00:00", "RUN_DTG": "2024-09-22 02:05:24", "BASIN": "WP", "STMNR": 15, "CAT_ID": null, "CAT_DESC": null, "MSGID": "WTPN52 PGTW 211500", "VALIDTIME": "2024-09-20 12:00:00" }, "geometry": { "type": "Point", "coordinates": [ 121.099998, 32.799999 ] } },
{ "type": "Feature", "properties": { "ID": 255998, "LAT": 33.5, "LON": 122.5, "VMAX": 30.0, "MSLP": 1000.0, "RMAX": 70.0, "FSPD": 0.85796, "FDIR": 90.0, "RENV": 180.0, "PENV": 1005.0, "VALIDT": 0, "DTG": "2024-09-20 18:00", "LATNOW": 34.6, "LONNOW": 128.9, "WINDNOW": 35.0, "DIRNOW": 16.0, "SPDNOW": 0.0, "TECH": "TRAK", "ADVNR": 20, "ATCFID": "WP152024", "NAME": "PULASAN", "FTECH": "JTWC", "FCST_DTG": "2024-09-21 12:00:00", "RUN_DTG": "2024-09-22 02:05:24", "BASIN": "WP", "STMNR": 15, "CAT_ID": null, "CAT_DESC": null, "MSGID": "WTPN52 PGTW 211500", "VALIDTIME": "2024-09-20 18:00:00" }, "geometry": { "type": "Point", "coordinates": [ 122.5, 33.5 ] } },
{ "type": "Feature", "properties": { "ID": 255999, "LAT": 33.5, "LON": 122.7, "VMAX": 30.0, "MSLP": 998.0, "RMAX": 70.0, "FSPD": 12.24145, "FDIR": 70.35458, "RENV": 100.0, "PENV": 1004.0, "VALIDT": 0, "DTG": "2024-09-21 00:00", "LATNOW": 34.6, "LONNOW": 128.9, "WINDNOW": 35.0, "DIRNOW": 16.0, "SPDNOW": 0.0, "TECH": "TRAK", "ADVNR": 20, "ATCFID": "WP152024", "NAME": "PULASAN", "FTECH": "JTWC", "FCST_DTG": "2024-09-21 12:00:00", "RUN_DTG": "2024-09-22 02:05:24", "BASIN": "WP", "STMNR": 15, "CAT_ID": null, "CAT_DESC": null, "MSGID": "WTPN52 PGTW 211500", "VALIDTIME": "2024-09-21 00:00:00" }, "geometry": { "type": "Point", "coordinates": [ 122.699997, 33.5 ] } },
{ "type": "Feature", "properties": { "ID": 256000, "LAT": 34.3, "LON": 125.4, "VMAX": 30.0, "MSLP": 998.0, "RMAX": 70.0, "FSPD": 14.92771, "FDIR": 84.06577, "RENV": 100.0, "PENV": 1004.0, "VALIDT": 0, "DTG": "2024-09-21 06:00", "LATNOW": 34.6, "LONNOW": 128.9, "WINDNOW": 35.0, "DIRNOW": 16.0, "SPDNOW": 0.0, "TECH": "TRAK", "ADVNR": 20, "ATCFID": "WP152024", "NAME": "PULASAN", "FTECH": "JTWC", "FCST_DTG": "2024-09-21 12:00:00", "RUN_DTG": "2024-09-22 02:05:24", "BASIN": "WP", "STMNR": 15, "CAT_ID": null, "CAT_DESC": null, "MSGID": "WTPN52 PGTW 211500", "VALIDTIME": "2024-09-21 06:00:00" }, "geometry": { "type": "Point", "coordinates": [ 125.400002, 34.299999 ] } },
{ "type": "Feature", "properties": { "ID": 256001, "LAT": 34.6, "LON": 128.9, "VMAX": 35.0, "MSLP": 1000.0, "RMAX": 70.0, "FSPD": 16.05208, "FDIR": 75.14417, "RENV": 240.0, "PENV": 1006.0, "VALIDT": 0, "DTG": "2024-09-21 12:00", "LATNOW": 34.6, "LONNOW": 128.9, "WINDNOW": 35.0, "DIRNOW": 16.0, "SPDNOW": 0.0, "TECH": "TRAK", "ADVNR": 20, "ATCFID": "WP152024", "NAME": "PULASAN", "FTECH": "JTWC", "FCST_DTG": "2024-09-21 12:00:00", "RUN_DTG": "2024-09-22 02:05:24", "BASIN": "WP", "STMNR": 15, "CAT_ID": null, "CAT_DESC": null, "MSGID": "WTPN52 PGTW 211500", "VALIDTIME": "2024-09-21 12:00:00" }, "geometry": { "type": "Point", "coordinates": [ 128.899994, 34.599998 ] } },
{ "type": "Feature", "properties": { "ID": 256003, "LAT": 38.2, "LON": 144.9, "VMAX": 30.0, "MSLP": 1010.40607, "RMAX": 82.6124, "FSPD": 18.35575, "FDIR": 73.72406, "RENV": 250.0, "PENV": 1012.0, "VALIDT": 24, "DTG": "2024-09-22 12:00", "LATNOW": 34.6, "LONNOW": 128.9, "WINDNOW": 35.0, "DIRNOW": 16.0, "SPDNOW": 0.0, "TECH": "FCST", "ADVNR": 20, "ATCFID": "WP152024", "NAME": "PULASAN", "FTECH": "JTWC", "FCST_DTG": "2024-09-21 12:00:00", "RUN_DTG": "2024-09-22 02:05:24", "BASIN": "WP", "STMNR": 15, "CAT_ID": null, "CAT_DESC": null, "MSGID": "WTPN52 PGTW 211500", "VALIDTIME": "2024-09-22 12:00:00" }, "geometry": { "type": "LineString", "coordinates": [ [ 136.3, 36.2 ], [ 144.9, 38.2 ] ] } },
{ "type": "Feature", "properties": { "ID": 256001, "LAT": 34.6, "LON": 128.9, "VMAX": 35.0, "MSLP": 1000.0, "RMAX": 70.0, "FSPD": 16.05208, "FDIR": 75.14417, "RENV": 240.0, "PENV": 1006.0, "VALIDT": 0, "DTG": "2024-09-21 12:00", "LATNOW": 34.6, "LONNOW": 128.9, "WINDNOW": 35.0, "DIRNOW": 16.0, "SPDNOW": 0.0, "TECH": "TRAK", "ADVNR": 20, "ATCFID": "WP152024", "NAME": "PULASAN", "FTECH": "JTWC", "FCST_DTG": "2024-09-21 12:00:00", "RUN_DTG": "2024-09-22 02:05:24", "BASIN": "WP", "STMNR": 15, "CAT_ID": null, "CAT_DESC": null, "MSGID": "WTPN52 PGTW 211500", "VALIDTIME": "2024-09-21 12:00:00" }, "geometry": { "type": "LineString", "coordinates": [ [ 144.6, 12.2 ], [ 144.3, 12.5 ], [ 144.1, 12.9 ], [ 143.7, 13.4 ], [ 143.2, 14.0 ], [ 142.7, 14.6 ], [ 142.0, 16.2 ], [ 140.9, 16.7 ], [ 140.5, 17.6 ], [ 138.7, 18.5 ], [ 136.4, 20.4 ], [ 134.7, 21.2 ], [ 133.4, 22.3 ], [ 131.9, 23.4 ], [ 130.0, 24.1 ], [ 128.5, 25.7 ], [ 127.8, 27.0 ], [ 126.1, 28.7 ], [ 123.1, 29.6 ], [ 122.0, 30.5 ], [ 121.46, 30.86 ], [ 121.4, 30.9 ], [ 120.3, 32.0 ], [ 120.4, 32.5 ], [ 121.1, 32.8 ], [ 122.5, 33.5 ], [ 122.7, 33.5 ], [ 125.4, 34.3 ], [ 128.9, 34.6 ] ] } }
]
}
