{
"type": "FeatureCollection",
"crs": { "type": "name", "properties": { "name": "urn:ogc:def:crs:OGC:1.3:CRS84" } },
"features": [
{ "type": "Feature", "properties": { "ID": 94388, "LAT": 12.2, "LON": 156.1, "VMAX": 15.0, "MSLP": 1013.8515, "RMAX": 40.0, "FSPD": 2.29006, "FDIR": 333.9707, "RENV": 500.0, "PENV": 1012.0, "VALIDT": 0, "DTG": "2026-09-13 00:00", "LATNOW": 39.0, "LONNOW": 150.2, "WINDNOW": 60.0, "DIRNOW": 15.0, "SPDNOW": 0.0, "TECH": "TRAK", "ADVNR": 28, "ATCFID": "WP242026", "NAME": "DUJUAN", "FTECH": "JTWC", "FCST_DTG": "2026-09-22 06:00:00", "RUN_DTG": "2026-09-22 22:22:10", "BASIN": "WP", "STMNR": 24, "CAT_ID": null, "CAT_DESC": null, "MSGID": "WTPN51 PGTW 220900", "VALIDTIME": "2026-09-13 00:00:00" }, "geometry": { "type": "Point", "coordinates": [ 156.100006, 12.2 ] } },
{ "type": "Feature", "properties": { "ID": 94389, "LAT": 12.6, "LON": 155.9, "VMAX": 15.0, "MSLP": 1013.8515, "RMAX": 40.0, "FSPD": 3.66056, "FDIR": 286.32428, "RENV": 500.0, "PENV": 1012.0, "VALIDT": 0, "DTG": "2026-09-13 06:00", "LATNOW": 39.0, "LONNOW": 150.2, "WINDNOW": 60.0, "DIRNOW": 15.0, "SPDNOW": 0.0, "TECH": "TRAK", "ADVNR": 28, "ATCFID": "WP242026", "NAME": "DUJUAN", "FTECH": "JTWC", "FCST_DTG": "2026-09-22 06:00:00", "RUN_DTG": "2026-09-22 22:22:10", "BASIN": "WP", "STMNR": 24, "CAT_ID": null, "CAT_DESC": null, "MSGID": "WTPN51 PGTW 220900", "VALIDTIME": "2026-09-13 06:00:00" }, "geometry": { "type": "Point", "coordinates": [ 155.899994, 12.6 ] } },
{ "type": "Feature", "properties": { "ID": 94390, "LAT": 12.8, "LON": 155.2, "VMAX": 15.0, "MSLP": 1013.8515, "RMAX": 40.0, "FSPD": 3.51161, "FDIR": 269.99997, "RENV": 500.0, "PENV": 1012.0, "VALIDT": 0, "DTG": "2026-09-13 12:00", "LATNOW": 39.0, "LONNOW": 150.2, "WINDNOW": 60.0, "DIRNOW": 15.0, "SPDNOW": 0.0, "TECH": "TRAK", "ADVNR": 28, "ATCFID": "WP242026", "NAME": "DUJUAN", "FTECH": "JTWC", "FCST_DTG": "2026-09-22 06:00:00", "RUN_DTG": "2026-09-22 22:22:10", "BASIN": "WP", "STMNR": 24, "CAT_ID": null, "CAT_DESC": null, "MSGID": "WTPN51 PGTW 220900", "VALIDTIME": "2026-09-13 12:00:00" }, "geometry": { "type": "Point", "coordinates": [ 155.199997, 12.8 ] } },
{ "type": "Feature", "properties": { "ID": 94391, "LAT": 12.8, "LON": 154.5, "VMAX": 15.0, "MSLP": 1013.8515, "RMAX": 40.0, "FSPD": 4.51491, "FDIR": 269.99997, "RENV": 500.0, "PENV": 1012.0, "VALIDT": 0, "DTG": "2026-09-13 18:00", "LATNOW": 39.0, "LONNOW": 150.2, "WINDNOW": 60.0, "DIRNOW": 15.0, "SPDNOW": 0.0, "TECH": "TRAK", "ADVNR": 28, "ATCFID": "WP242026", "NAME": "DUJUAN", "FTECH": "JTWC", "FCST_DTG": "2026-09-22 06:00:00", "RUN_DTG": "2026-09-22 22:22:10", "BASIN": "WP", "STMNR": 24, "CAT_ID": null, "CAT_DESC": null, "MSGID": "WTPN51 PGTW 220900", "VALIDTIME": "2026-09-13 18:00:00" }, "geometry": { "type": "Point", "coordinates": [ 154.5, 12.8 ] } },
{ "type": "Feature", "properties": { "ID": 94392, "LAT": 12.8, "LON": 153.6, "VMAX": 20.0, "MSLP": 1012.95825, "RMAX": 45.0, "FSPD": 5.11907, "FDIR": 281.5949, "RENV": 500.0, "PENV": 1012.0, "VALIDT": 0, "DTG": "2026-09-14 00:00", "LATNOW": 39.0, "LONNOW": 150.2, "WINDNOW": 60.0, "DIRNOW": 15.0, "SPDNOW": 0.0, "TECH": "TRAK", "ADVNR": 28, "ATCFID": "WP242026", "NAME": "DUJUAN", "FTECH": "JTWC", "FCST_DTG": "2026-09-22 06:00:00", "RUN_DTG": "2026-09-22 22:22:10", "BASIN": "WP", "STMNR": 24, "CAT_ID": null, "CAT_DESC": null, "MSGID": "WTPN51 PGTW 220900", "VALIDTIME": "2026-09-14 00:00:00" }, "geometry": { "type": "Point", "coordinates": [ 153.600006, 12.8 ] } },
{ "type": "Feature", "properties": { "ID": 94393, "LAT": 13.0, "LON": 152.6, "VMAX": 20.0, "MSLP": 1012.95825, "RMAX": 45.0, "FSPD": 4.53971, "FDIR": 276.50677, "RENV": 500.0, "PENV": 1012.0, "VALIDT": 0, "DTG": "2026-09-14 06:00", "LATNOW": 39.0, "LONNOW": 150.2, "WINDNOW": 60.0, "DIRNOW": 15.0, "SPDNOW": 0.0, "TECH": "TRAK", "ADVNR": 28, "ATCFID": "WP242026", "NAME": "DUJUAN", "FTECH": "JTWC", "FCST_DTG": "2026-09-22 06:00:00", "RUN_DTG": "2026-09-22 22:22:10", "BASIN": "WP", "STMNR": 24, "CAT_ID": null, "CAT_DESC": null, "MSGID": "WTPN51 PGTW 220900", "VALIDTIME": "2026-09-14 06:00:00" }, "geometry": { "type": "Point", "coordinates": [ 152.600006, 13.0 ] } },
{ "type": "Feature", "properties": { "ID": 94394, "LAT": 13.1, "LON": 151.7, "VMAX": 25.0, "MSLP": 1011.80975, "RMAX": 45.0, "FSPD": 4.38479, "FDIR": 325.21246, "RENV": 500.0, "PENV": 1012.0, "VALIDT": 0, "DTG": "2026-09-14 12:00", "LATNOW": 39.0, "LONNOW": 150.2, "WINDNOW": 60.0, "DIRNOW": 15.0, "SPDNOW": 0.0, "TECH": "TRAK", "ADVNR": 28, "ATCFID": "WP242026", "NAME": "DUJUAN", "FTECH": "JTWC", "FCST_DTG": "2026-09-22 06:00:00", "RUN_DTG": "2026-09-22 22:22:10", "BASIN": "WP", "STMNR": 24, "CAT_ID": null, "CAT_DESC": null, "MSGID": "WTPN51 PGTW 220900", "VALIDTIME": "2026-09-14 12:00:00" }, "geometry": { "type": "Point", "coordinates": [ 151.699997, 13.1 ] } },
{ "type": "Feature", "properties": { "ID": 94395, "LAT": 13.8, "LON": 151.2, "VMAX": 25.0, "MSLP": 1011.80975, "RMAX": 45.0, "FSPD": 5.24016, "FDIR": 349.032, "RENV": 500.0, "PENV": 1012.0, "VALIDT": 0, "DTG": "2026-09-14 18:00", "LATNOW": 39.0, "LONNOW": 150.2, "WINDNOW": 60.0, "DIRNOW": 15.0, "SPDNOW": 0.0, "TECH": "TRAK", "ADVNR": 28, "ATCFID": "WP242026", "NAME": "DUJUAN", "FTECH": "JTWC", "FCST_DTG": "2026-09-22 06:00:00", "RUN_DTG": "2026-09-22 22:22:10", "BASIN": "WP", "STMNR": 24, "CAT_ID": null, "CAT_DESC": null, "MSGID": "WTPN51 PGTW 220900", "VALIDTIME": "2026-09-14 18:00:00" }, "geometry": { "type": "Point", "coordinates": [ 151.199997, 13.8 ] } },
{ "type": "Feature", "properties": { "ID": 94396, "LAT": 14.8, "LON": 151.0, "VMAX": 25.0, "MSLP": 1011.80975, "RMAX": 45.0, "FSPD": 5.47118, "FDIR": 269.99997, "RENV": 500.0, "PENV": 1012.0, "VALIDT": 0, "DTG": "2026-09-15 00:00", "LATNOW": 39.0, "LONNOW": 150.2, "WINDNOW": 60.0, "DIRNOW": 15.0, "SPDNOW": 0.0, "TECH": "TRAK", "ADVNR": 28, "ATCFID": "WP242026", "NAME": "DUJUAN", "FTECH": "JTWC", "FCST_DTG": "2026-09-22 06:00:00", "RUN_DTG": "2026-09-22 22:22:10", "BASIN": "WP", "STMNR": 24, "CAT_ID": null, "CAT_DESC": null, "MSGID": "WTPN51 PGTW 220900", "VALIDTIME": "2026-09-15 00:00:00" }, "geometry": { "type": "Point", "coordinates": [ 151.0, 14.8 ] } },
{ "type": "Feature", "properties": { "ID": 94397, "LAT": 14.8, "LON": 149.9, "VMAX": 25.0, "MSLP": 1011.80975, "RMAX": 45.0, "FSPD": 4.99916, "FDIR": 275.9065, "RENV": 500.0, "PENV": 1012.0, "VALIDT": 0, "DTG": "2026-09-15 06:00", "LATNOW": 39.0, "LONNOW": 150.2, "WINDNOW": 60.0, "DIRNOW": 15.0, "SPDNOW": 0.0, "TECH": "TRAK", "ADVNR": 28, "ATCFID": "WP242026", "NAME": "DUJUAN", "FTECH": "JTWC", "FCST_DTG": "2026-09-22 06:00:00", "RUN_DTG": "2026-09-22 22:22:10", "BASIN": "WP", "STMNR": 24, "CAT_ID": null, "CAT_DESC": null, "MSGID": "WTPN51 PGTW 220900", "VALIDTIME": "2026-09-15 06:00:00" }, "geometry": { "type": "Point", "coordinates": [ 149.899994, 14.8 ] } },
{ "type": "Feature", "properties": { "ID": 94398, "LAT": 14.9, "LON": 148.9, "VMAX": 25.0, "MSLP": 1003.0, "RMAX": 80.0, "FSPD": 0.71545, "FDIR": 224.02452, "RENV": 330.0, "PENV": 1008.0, "VALIDT": 0, "DTG": "2026-09-15 12:00", "LATNOW": 39.0, "LONNOW": 150.2, "WINDNOW": 60.0, "DIRNOW": 15.0, "SPDNOW": 0.0, "TECH": "TRAK", "ADVNR": 28, "ATCFID": "WP242026", "NAME": "DUJUAN", "FTECH": "JTWC", "FCST_DTG": "2026-09-22 06:00:00", "RUN_DTG": "2026-09-22 22:22:10", "BASIN": "WP", "STMNR": 24, "CAT_ID": null, "CAT_DESC": null, "MSGID": "WTPN51 PGTW 220900", "VALIDTIME": "2026-09-15 12:00:00" }, "geometry": { "type": "Point", "coordinates": [ 148.899994, 14.9 ] } },
{ "type": "Feature", "properties": { "ID": 94399, "LAT": 14.8, "LON": 148.8, "VMAX": 30.0, "MSLP": 1003.0, "RMAX": 80.0, "FSPD": 1.14271, "FDIR": 334.20932, "RENV": 330.0, "PENV": 1008.0, "VALIDT": 0, "DTG": "2026-09-15 18:00", "LATNOW": 39.0, "LONNOW": 150.2, "WINDNOW": 60.0, "DIRNOW": 15.0, "SPDNOW": 0.0, "TECH": "TRAK", "ADVNR": 28, "ATCFID": "WP242026", "NAME": "DUJUAN", "FTECH": "JTWC", "FCST_DTG": "2026-09-22 06:00:00", "RUN_DTG": "2026-09-22 22:22:10", "BASIN": "WP", "STMNR": 24, "CAT_ID": null, "CAT_DESC": null, "MSGID": "WTPN51 PGTW 220900", "VALIDTIME": "2026-09-15 18:00:00" }, "geometry": { "type": "Point", "coordinates": [ 148.800003, 14.8 ] } },
{ "type": "Feature", "properties": { "ID": 94400, "LAT": 15.0, "LON": 148.7, "VMAX": 30.0, "MSLP": 1000.0, "RMAX": 70.0, "FSPD": 2.28479, "FDIR": 25.75735, "RENV": 370.0, "PENV": 1006.0, "VALIDT": 0, "DTG": "2026-09-16 00:00", "LATNOW": 39.0, "LONNOW": 150.2, "WINDNOW": 60.0, "DIRNOW": 15.0, "SPDNOW": 0.0, "TECH": "TRAK", "ADVNR": 28, "ATCFID": "WP242026", "NAME": "DUJUAN", "FTECH": "JTWC", "FCST_DTG": "2026-09-22 06:00:00", "RUN_DTG": "2026-09-22 22:22:10", "BASIN": "WP", "STMNR": 24, "CAT_ID": null, "CAT_DESC": null, "MSGID": "WTPN51 PGTW 220900", "VALIDTIME": "2026-09-16 00:00:00" }, "geometry": { "type": "Point", "coordinates": [ 148.699997, 15.0 ] } },
{ "type": "Feature", "properties": { "ID": 94401, "LAT": 15.4, "LON": 148.9, "VMAX": 30.0, "MSLP": 999.0, "RMAX": 50.0, "FSPD": 6.38994, "FDIR": 27.67523, "RENV": 360.0, "PENV": 1007.0, "VALIDT": 0, "DTG": "2026-09-16 06:00", "LATNOW": 39.0, "LONNOW": 150.2, "WINDNOW": 60.0, "DIRNOW": 15.0, "SPDNOW": 0.0, "TECH": "TRAK", "ADVNR": 28, "ATCFID": "WP242026", "NAME": "DUJUAN", "FTECH": "JTWC", "FCST_DTG": "2026-09-22 06:00:00", "RUN_DTG": "2026-09-22 22:22:10", "BASIN": "WP", "STMNR": 24, "CAT_ID": null, "CAT_DESC": null, "MSGID": "WTPN51 PGTW 220900", "VALIDTIME": "2026-09-16 06:00:00" }, "geometry": { "type": "Point", "coordinates": [ 148.899994, 15.4 ] } },
{ "type": "Feature", "properties": { "ID": 94402, "LAT": 16.5, "LON": 149.5, "VMAX": 35.0, "MSLP": 998.0, "RMAX": 50.0, "FSPD": 5.74375, "FDIR": 9.86087, "RENV": 410.0, "PENV": 1006.0, "VALIDT": 0, "DTG": "2026-09-16 12:00", "LATNOW": 39.0, "LONNOW": 150.2, "WINDNOW": 60.0, "DIRNOW": 15.0, "SPDNOW": 0.0, "TECH": "TRAK", "ADVNR": 28, "ATCFID": "WP242026", "NAME": "DUJUAN", "FTECH": "JTWC", "FCST_DTG": "2026-09-22 06:00:00", "RUN_DTG": "2026-09-22 22:22:10", "BASIN": "WP", "STMNR": 24, "CAT_ID": null, "CAT_DESC": null, "MSGID": "WTPN51 PGTW 220900", "VALIDTIME": "2026-09-16 12:00:00" }, "geometry": { "type": "Point", "coordinates": [ 149.5, 16.5 ] } },
{ "type": "Feature", "properties": { "ID": 94403, "LAT": 17.6, "LON": 149.7, "VMAX": 40.0, "MSLP": 994.0, "RMAX": 50.0, "FSPD": 7.97254, "FDIR": 25.3942, "RENV": 450.0, "PENV": 1007.0, "VALIDT": 0, "DTG": "2026-09-16 18:00", "LATNOW": 39.0, "LONNOW": 150.2, "WINDNOW": 60.0, "DIRNOW": 15.0, "SPDNOW": 0.0, "TECH": "TRAK", "ADVNR": 28, "ATCFID": "WP242026", "NAME": "DUJUAN", "FTECH": "JTWC", "FCST_DTG": "2026-09-22 06:00:00", "RUN_DTG": "2026-09-22 22:22:10", "BASIN": "WP", "STMNR": 24, "CAT_ID": null, "CAT_DESC": null, "MSGID": "WTPN51 PGTW 220900", "VALIDTIME": "2026-09-16 18:00:00" }, "geometry": { "type": "Point", "coordinates": [ 149.699997, 17.6 ] } },
{ "type": "Feature", "properties": { "ID": 94404, "LAT": 19.0, "LON": 150.4, "VMAX": 50.0, "MSLP": 992.0, "RMAX": 30.0, "FSPD": 14.91889, "FDIR": 360.0, "RENV": 350.0, "PENV": 1004.0, "VALIDT": 0, "DTG": "2026-09-17 00:00", "LATNOW": 39.0, "LONNOW": 150.2, "WINDNOW": 60.0, "DIRNOW": 15.0, "SPDNOW": 0.0, "TECH": "TRAK", "ADVNR": 28, "ATCFID": "WP242026", "NAME": "DUJUAN", "FTECH": "JTWC", "FCST_DTG": "2026-09-22 06:00:00", "RUN_DTG": "2026-09-22 22:22:10", "BASIN": "WP", "STMNR": 24, "CAT_ID": null, "CAT_DESC": null, "MSGID": "WTPN51 PGTW 220900", "VALIDTIME": "2026-09-17 00:00:00" }, "geometry": { "type": "Point", "coordinates": [ 150.399994, 19.0 ] } },
{ "type": "Feature", "properties": { "ID": 94405, "LAT": 21.9, "LON": 150.4, "VMAX": 50.0, "MSLP": 990.0, "RMAX": 15.0, "FSPD": 12.97522, "FDIR": 318.87845, "RENV": 290.0, "PENV": 1004.0, "VALIDT": 0, "DTG": "2026-09-17 06:00", "LATNOW": 39.0, "LONNOW": 150.2, "WINDNOW": 60.0, "DIRNOW": 15.0, "SPDNOW": 0.0, "TECH": "TRAK", "ADVNR": 28, "ATCFID": "WP242026", "NAME": "DUJUAN", "FTECH": "JTWC", "FCST_DTG": "2026-09-22 06:00:00", "RUN_DTG": "2026-09-22 22:22:10", "BASIN": "WP", "STMNR": 24, "CAT_ID": null, "CAT_DESC": null, "MSGID": "WTPN51 PGTW 220900", "VALIDTIME": "2026-09-17 06:00:00" }, "geometry": { "type": "Point", "coordinates": [ 150.399994, 21.9 ] } },
{ "type": "Feature", "properties": { "ID": 94406, "LAT": 23.8, "LON": 148.6, "VMAX": 60.0, "MSLP": 990.0, "RMAX": 15.0, "FSPD": 14.14256, "FDIR": 300.6145, "RENV": 330.0, "PENV": 1004.0, "VALIDT": 0, "DTG": "2026-09-17 12:00", "LATNOW": 39.0, "LONNOW": 150.2, "WINDNOW": 60.0, "DIRNOW": 15.0, "SPDNOW": 0.0, "TECH": "TRAK", "ADVNR": 28, "ATCFID": "WP242026", "NAME": "DUJUAN", "FTECH": "JTWC", "FCST_DTG": "2026-09-22 06:00:00", "RUN_DTG": "2026-09-22 22:22:10", "BASIN": "WP", "STMNR": 24, "CAT_ID": null, "CAT_DESC": null, "MSGID": "WTPN51 PGTW 220900", "VALIDTIME": "2026-09-17 12:00:00" }, "geometry": { "type": "Point", "coordinates": [ 148.600006, 23.799999 ] } },
{ "type": "Feature", "properties": { "ID": 94407, "LAT": 25.2, "LON": 146.0, "VMAX": 65.0, "MSLP": 985.0, "RMAX": 10.0, "FSPD": 7.00403, "FDIR": 265.78778, "RENV": 330.0, "PENV": 1004.0, "VALIDT": 0, "DTG": "2026-09-17 18:00", "LATNOW": 39.0, "LONNOW": 150.2, "WINDNOW": 60.0, "DIRNOW": 15.0, "SPDNOW": 0.0, "TECH": "TRAK", "ADVNR": 28, "ATCFID": "WP242026", "NAME": "DUJUAN", "FTECH": "JTWC", "FCST_DTG": "2026-09-22 06:00:00", "RUN_DTG": "2026-09-22 22:22:10", "BASIN": "WP", "STMNR": 24, "CAT_ID": null, "CAT_DESC": null, "MSGID": "WTPN51 PGTW 220900", "VALIDTIME": "2026-09-17 18:00:00" }, "geometry": { "type": "Point", "coordinates": [ 146.0, 25.200001 ] } },
{ "type": "Feature", "properties": { "ID": 94408, "LAT": 25.1, "LON": 144.5, "VMAX": 60.0, "MSLP": 981.0, "RMAX": 10.0, "FSPD": 8.49308, "FDIR": 298.98474, "RENV": 350.0, "PENV": 1005.0, "VALIDT": 0, "DTG": "2026-09-18 00:00", "LATNOW": 39.0, "LONNOW": 150.2, "WINDNOW": 60.0, "DIRNOW": 15.0, "SPDNOW": 0.0, "TECH": "TRAK", "ADVNR": 28, "ATCFID": "WP242026", "NAME": "DUJUAN", "FTECH": "JTWC", "FCST_DTG": "2026-09-22 06:00:00", "RUN_DTG": "2026-09-22 22:22:10", "BASIN": "WP", "STMNR": 24, "CAT_ID": null, "CAT_DESC": null, "MSGID": "WTPN51 PGTW 220900", "VALIDTIME": "2026-09-18 00:00:00" }, "geometry": { "type": "Point", "coordinates": [ 144.5, 25.1 ] } },
{ "type": "Feature", "properties": { "ID": 94409, "LAT": 25.9, "LON": 142.9, "VMAX": 60.0, "MSLP": 981.0, "RMAX": 10.0, "FSPD": 6.13068, "FDIR": 245.1928, "RENV": 330.0, "PENV": 1006.0, "VALIDT": 0, "DTG": "2026-09-18 06:00", "LATNOW": 39.0, "LONNOW": 150.2, "WINDNOW": 60.0, "DIRNOW": 15.0, "SPDNOW": 0.0, "TECH": "TRAK", "ADVNR": 28, "ATCFID": "WP242026", "NAME": "DUJUAN", "FTECH": "JTWC", "FCST_DTG": "2026-09-22 06:00:00", "RUN_DTG": "2026-09-22 22:22:10", "BASIN": "WP", "STMNR": 24, "CAT_ID": null, "CAT_DESC": null, "MSGID": "WTPN51 PGTW 220900", "VALIDTIME": "2026-09-18 06:00:00" }, "geometry": { "type": "Point", "coordinates": [ 142.899994, 25.9 ] } },
{ "type": "Feature", "properties": { "ID": 94410, "LAT": 25.4, "LON": 141.7, "VMAX": 60.0, "MSLP": 980.0, "RMAX": 30.0, "FSPD": 6.19596, "FDIR": 311.62347, "RENV": 350.0, "PENV": 1007.0, "VALIDT": 0, "DTG": "2026-09-18 12:00", "LATNOW": 39.0, "LONNOW": 150.2, "WINDNOW": 60.0, "DIRNOW": 15.0, "SPDNOW": 0.0, "TECH": "TRAK", "ADVNR": 28, "ATCFID": "WP242026", "NAME": "DUJUAN", "FTECH": "JTWC", "FCST_DTG": "2026-09-22 06:00:00", "RUN_DTG": "2026-09-22 22:22:10", "BASIN": "WP", "STMNR": 24, "CAT_ID": null, "CAT_DESC": null, "MSGID": "WTPN51 PGTW 220900", "VALIDTIME": "2026-09-18 12:00:00" }, "geometry": { "type": "Point", "coordinates": [ 141.699997, 25.4 ] } },
{ "type": "Feature", "properties": { "ID": 94411, "LAT": 26.2, "LON": 140.7, "VMAX": 65.0, "MSLP": 980.0, "RMAX": 10.0, "FSPD": 4.6159, "FDIR": 269.99997, "RENV": 350.0, "PENV": 1007.0, "VALIDT": 0, "DTG": "2026-09-18 18:00", "LATNOW": 39.0, "LONNOW": 150.2, "WINDNOW": 60.0, "DIRNOW": 15.0, "SPDNOW": 0.0, "TECH": "TRAK", "ADVNR": 28, "ATCFID": "WP242026", "NAME": "DUJUAN", "FTECH": "JTWC", "FCST_DTG": "2026-09-22 06:00:00", "RUN_DTG": "2026-09-22 22:22:10", "BASIN": "WP", "STMNR": 24, "CAT_ID": null, "CAT_DESC": null, "MSGID": "WTPN51 PGTW 220900", "VALIDTIME": "2026-09-18 18:00:00" }, "geometry": { "type": "Point", "coordinates": [ 140.699997, 26.200001 ] } },
{ "type": "Feature", "properties": { "ID": 94412, "LAT": 26.2, "LON": 139.7, "VMAX": 65.0, "MSLP": 977.0, "RMAX": 5.0, "FSPD": 4.95529, "FDIR": 326.15393, "RENV": 360.0, "PENV": 1007.0, "VALIDT": 0, "DTG": "2026-09-19 00:00", "LATNOW": 39.0, "LONNOW": 150.2, "WINDNOW": 60.0, "DIRNOW": 15.0, "SPDNOW": 0.0, "TECH": "TRAK", "ADVNR": 28, "ATCFID": "WP242026", "NAME": "DUJUAN", "FTECH": "JTWC", "FCST_DTG": "2026-09-22 06:00:00", "RUN_DTG": "2026-09-22 22:22:10", "BASIN": "WP", "STMNR": 24, "CAT_ID": null, "CAT_DESC": null, "MSGID": "WTPN51 PGTW 220900", "VALIDTIME": "2026-09-19 00:00:00" }, "geometry": { "type": "Point", "coordinates": [ 139.699997, 26.200001 ] } },
{ "type": "Feature", "properties": { "ID": 94413, "LAT": 27.0, "LON": 139.1, "VMAX": 65.0, "MSLP": 978.0, "RMAX": 5.0, "FSPD": 5.81679, "FDIR": 315.0343, "RENV": 340.0, "PENV": 1008.0, "VALIDT": 0, "DTG": "2026-09-19 06:00", "LATNOW": 39.0, "LONNOW": 150.2, "WINDNOW": 60.0, "DIRNOW": 15.0, "SPDNOW": 0.0, "TECH": "TRAK", "ADVNR": 28, "ATCFID": "WP242026", "NAME": "DUJUAN", "FTECH": "JTWC", "FCST_DTG": "2026-09-22 06:00:00", "RUN_DTG": "2026-09-22 22:22:10", "BASIN": "WP", "STMNR": 24, "CAT_ID": null, "CAT_DESC": null, "MSGID": "WTPN51 PGTW 220900", "VALIDTIME": "2026-09-19 06:00:00" }, "geometry": { "type": "Point", "coordinates": [ 139.100006, 27.0 ] } },
{ "type": "Feature", "properties": { "ID": 94414, "LAT": 27.8, "LON": 138.2, "VMAX": 65.0, "MSLP": 978.0, "RMAX": 5.0, "FSPD": 4.25579, "FDIR": 327.79742, "RENV": 370.0, "PENV": 1009.0, "VALIDT": 0, "DTG": "2026-09-19 12:00", "LATNOW": 39.0, "LONNOW": 150.2, "WINDNOW": 60.0, "DIRNOW": 15.0, "SPDNOW": 0.0, "TECH": "TRAK", "ADVNR": 28, "ATCFID": "WP242026", "NAME": "DUJUAN", "FTECH": "JTWC", "FCST_DTG": "2026-09-22 06:00:00", "RUN_DTG": "2026-09-22 22:22:10", "BASIN": "WP", "STMNR": 24, "CAT_ID": null, "CAT_DESC": null, "MSGID": "WTPN51 PGTW 220900", "VALIDTIME": "2026-09-19 12:00:00" }, "geometry": { "type": "Point", "coordinates": [ 138.199997, 27.799999 ] } },
{ "type": "Feature", "properties": { "ID": 94415, "LAT": 28.5, "LON": 137.7, "VMAX": 65.0, "MSLP": 980.0, "RMAX": 5.0, "FSPD": 1.36917, "FDIR": 318.71796, "RENV": 395.0, "PENV": 1011.0, "VALIDT": 0, "DTG": "2026-09-19 18:00", "LATNOW": 39.0, "LONNOW": 150.2, "WINDNOW": 60.0, "DIRNOW": 15.0, "SPDNOW": 0.0, "TECH": "TRAK", "ADVNR": 28, "ATCFID": "WP242026", "NAME": "DUJUAN", "FTECH": "JTWC", "FCST_DTG": "2026-09-22 06:00:00", "RUN_DTG": "2026-09-22 22:22:10", "BASIN": "WP", "STMNR": 24, "CAT_ID": null, "CAT_DESC": null, "MSGID": "WTPN51 PGTW 220900", "VALIDTIME": "2026-09-19 18:00:00" }, "geometry": { "type": "Point", "coordinates": [ 137.699997, 28.5 ] } },
{ "type": "Feature", "properties": { "ID": 94416, "LAT": 28.7, "LON": 137.5, "VMAX": 60.0, "MSLP": 977.0, "RMAX": 5.0, "FSPD": 5.65888, "FDIR": 360.0, "RENV": 360.0, "PENV": 1008.0, "VALIDT": 0, "DTG": "2026-09-20 00:00", "LATNOW": 39.0, "LONNOW": 150.2, "WINDNOW": 60.0, "DIRNOW": 15.0, "SPDNOW": 0.0, "TECH": "TRAK", "ADVNR": 28, "ATCFID": "WP242026", "NAME": "DUJUAN", "FTECH": "JTWC", "FCST_DTG": "2026-09-22 06:00:00", "RUN_DTG": "2026-09-22 22:22:10", "BASIN": "WP", "STMNR": 24, "CAT_ID": null, "CAT_DESC": null, "MSGID": "WTPN51 PGTW 220900", "VALIDTIME": "2026-09-20 00:00:00" }, "geometry": { "type": "Point", "coordinates": [ 137.5, 28.700001 ] } },
{ "type": "Feature", "properties": { "ID": 94417, "LAT": 29.8, "LON": 137.5, "VMAX": 60.0, "MSLP": 978.0, "RMAX": 10.0, "FSPD": 3.1186, "FDIR": 8.20551, "RENV": 350.0, "PENV": 1008.0, "VALIDT": 0, "DTG": "2026-09-20 06:00", "LATNOW": 39.0, "LONNOW": 150.2, "WINDNOW": 60.0, "DIRNOW": 15.0, "SPDNOW": 0.0, "TECH": "TRAK", "ADVNR": 28, "ATCFID": "WP242026", "NAME": "DUJUAN", "FTECH": "JTWC", "FCST_DTG": "2026-09-22 06:00:00", "RUN_DTG": "2026-09-22 22:22:10", "BASIN": "WP", "STMNR": 24, "CAT_ID": null, "CAT_DESC": null, "MSGID": "WTPN51 PGTW 220900", "VALIDTIME": "2026-09-20 06:00:00" }, "geometry": { "type": "Point", "coordinates": [ 137.5, 29.799999 ] } },
{ "type": "Feature", "properties": { "ID": 94418, "LAT": 30.4, "LON": 137.6, "VMAX": 60.0, "MSLP": 978.0, "RMAX": 35.0, "FSPD": 4.81584, "FDIR": 15.96896, "RENV": 350.0, "PENV": 1008.0, "VALIDT": 0, "DTG": "2026-09-20 12:00", "LATNOW": 39.0, "LONNOW": 150.2, "WINDNOW": 60.0, "DIRNOW": 15.0, "SPDNOW": 0.0, "TECH": "TRAK", "ADVNR": 28, "ATCFID": "WP242026", "NAME": "DUJUAN", "FTECH": "JTWC", "FCST_DTG": "2026-09-22 06:00:00", "RUN_DTG": "2026-09-22 22:22:10", "BASIN": "WP", "STMNR": 24, "CAT_ID": null, "CAT_DESC": null, "MSGID": "WTPN51 PGTW 220900", "VALIDTIME": "2026-09-20 12:00:00" }, "geometry": { "type": "Point", "coordinates": [ 137.600006, 30.4 ] } },
{ "type": "Feature", "properties": { "ID": 94419, "LAT": 31.3, "LON": 137.9, "VMAX": 60.0, "MSLP": 978.0, "RMAX": 35.0, "FSPD": 6.65165, "FDIR": 31.70654, "RENV": 350.0, "PENV": 1008.0, "VALIDT": 0, "DTG": "2026-09-20 18:00", "LATNOW": 39.0, "LONNOW": 150.2, "WINDNOW": 60.0, "DIRNOW": 15.0, "SPDNOW": 0.0, "TECH": "TRAK", "ADVNR": 28, "ATCFID": "WP242026", "NAME": "DUJUAN", "FTECH": "JTWC", "FCST_DTG": "2026-09-22 06:00:00", "RUN_DTG": "2026-09-22 22:22:10", "BASIN": "WP", "STMNR": 24, "CAT_ID": null, "CAT_DESC": null, "MSGID": "WTPN51 PGTW 220900", "VALIDTIME": "2026-09-20 18:00:00" }, "geometry": { "type": "Point", "coordinates": [ 137.899994, 31.299999 ] } },
{ "type": "Feature", "properties": { "ID": 94420, "LAT": 32.4, "LON": 138.7, "VMAX": 65.0, "MSLP": 976.0, "RMAX": 30.0, "FSPD": 8.19909, "FDIR": 35.34601, "RENV": 340.0, "PENV": 1006.0, "VALIDT": 0, "DTG": "2026-09-21 00:00", "LATNOW": 39.0, "LONNOW": 150.2, "WINDNOW": 60.0, "DIRNOW": 15.0, "SPDNOW": 0.0, "TECH": "TRAK", "ADVNR": 28, "ATCFID": "WP242026", "NAME": "DUJUAN", "FTECH": "JTWC", "FCST_DTG": "2026-09-22 06:00:00", "RUN_DTG": "2026-09-22 22:22:10", "BASIN": "WP", "STMNR": 24, "CAT_ID": null, "CAT_DESC": null, "MSGID": "WTPN51 PGTW 220900", "VALIDTIME": "2026-09-21 00:00:00" }, "geometry": { "type": "Point", "coordinates": [ 138.699997, 32.400002 ] } },
{ "type": "Feature", "properties": { "ID": 94421, "LAT": 33.7, "LON": 139.8, "VMAX": 70.0, "MSLP": 974.0, "RMAX": 20.0, "FSPD": 10.50494, "FDIR": 54.00885, "RENV": 300.0, "PENV": 1006.0, "VALIDT": 0, "DTG": "2026-09-21 06:00", "LATNOW": 39.0, "LONNOW": 150.2, "WINDNOW": 60.0, "DIRNOW": 15.0, "SPDNOW": 0.0, "TECH": "TRAK", "ADVNR": 28, "ATCFID": "WP242026", "NAME": "DUJUAN", "FTECH": "JTWC", "FCST_DTG": "2026-09-22 06:00:00", "RUN_DTG": "2026-09-22 22:22:10", "BASIN": "WP", "STMNR": 24, "CAT_ID": null, "CAT_DESC": null, "MSGID": "WTPN51 PGTW 220900", "VALIDTIME": "2026-09-21 06:00:00" }, "geometry": { "type": "Point", "coordinates": [ 139.800003, 33.700001 ] } },
{ "type": "Feature", "properties": { "ID": 94422, "LAT": 34.9, "LON": 141.8, "VMAX": 70.0, "MSLP": 971.0, "RMAX": 30.0, "FSPD": 14.0615, "FDIR": 42.97037, "RENV": 280.0, "PENV": 1006.0, "VALIDT": 0, "DTG": "2026-09-21 12:00", "LATNOW": 39.0, "LONNOW": 150.2, "WINDNOW": 60.0, "DIRNOW": 15.0, "SPDNOW": 0.0, "TECH": "TRAK", "ADVNR": 28, "ATCFID": "WP242026", "NAME": "DUJUAN", "FTECH": "JTWC", "FCST_DTG": "2026-09-22 06:00:00", "RUN_DTG": "2026-09-22 22:22:10", "BASIN": "WP", "STMNR": 24, "CAT_ID": null, "CAT_DESC": null, "MSGID": "WTPN51 PGTW 220900", "VALIDTIME": "2026-09-21 12:00:00" }, "geometry": { "type": "Point", "coordinates": [ 141.800003, 34.900002 ] } },
{ "type": "Feature", "properties": { "ID": 94423, "LAT": 36.9, "LON": 144.1, "VMAX": 70.0, "MSLP": 971.0, "RMAX": 30.0, "FSPD": 14.81583, "FDIR": 65.37546, "RENV": 280.0, "PENV": 1005.0, "VALIDT": 0, "DTG": "2026-09-21 18:00", "LATNOW": 39.0, "LONNOW": 150.2, "WINDNOW": 60.0, "DIRNOW": 15.0, "SPDNOW": 0.0, "TECH": "TRAK", "ADVNR": 28, "ATCFID": "WP242026", "NAME": "DUJUAN", "FTECH": "JTWC", "FCST_DTG": "2026-09-22 06:00:00", "RUN_DTG": "2026-09-22 22:22:10", "BASIN": "WP", "STMNR": 24, "CAT_ID": null, "CAT_DESC": null, "MSGID": "WTPN51 PGTW 220900", "VALIDTIME": "2026-09-21 18:00:00" }, "geometry": { "type": "Point", "coordinates": [ 144.100006, 36.900002 ] } },
{ "type": "Feature", "properties": { "ID": 94424, "LAT": 38.1, "LON": 147.4, "VMAX": 65.0, "MSLP": 970.0, "RMAX": 20.0, "FSPD": 12.17958, "FDIR": 67.65732, "RENV": 250.0, "PENV": 1003.0, "VALIDT": 0, "DTG": "2026-09-22 00:00", "LATNOW": 39.0, "LONNOW": 150.2, "WINDNOW": 60.0, "DIRNOW": 15.0, "SPDNOW": 0.0, "TECH": "TRAK", "ADVNR": 28, "ATCFID": "WP242026", "NAME": "DUJUAN", "FTECH": "JTWC", "FCST_DTG": "2026-09-22 06:00:00", "RUN_DTG": "2026-09-22 22:22:10", "BASIN": "WP", "STMNR": 24, "CAT_ID": null, "CAT_DESC": null, "MSGID": "WTPN51 PGTW 220900", "VALIDTIME": "2026-09-22 00:00:00" }, "geometry": { "type": "Point", "coordinates": [ 147.399994, 38.099998 ] } },
{ "type": "Feature", "properties": { "ID": 94425, "LAT": 39.0, "LON": 150.2, "VMAX": 60.0, "MSLP": 972.0, "RMAX": 30.0, "FSPD": 15.20174, "FDIR": 71.24686, "RENV": 250.0, "PENV": 1003.0, "VALIDT": 0, "DTG": "2026-09-22 06:00", "LATNOW": 39.0, "LONNOW": 150.2, "WINDNOW": 60.0, "DIRNOW": 15.0, "SPDNOW": 0.0, "TECH": "TRAK", "ADVNR": 28, "ATCFID": "WP242026", "NAME": "DUJUAN", "FTECH": "JTWC", "FCST_DTG": "2026-09-22 06:00:00", "RUN_DTG": "2026-09-22 22:22:10", "BASIN": "WP", "STMNR": 24, "CAT_ID": null, "CAT_DESC": null, "MSGID": "WTPN51 PGTW 220900", "VALIDTIME": "2026-09-22 06:00:00" }, "geometry": { "type": "Point", "coordinates": [ 150.199997, 39.0 ] } },
{ "type": "Feature", "properties": { "ID": 94426, "LAT": 40.9, "LON": 157.5, "VMAX": 50.0, "MSLP": 1002.2391, "RMAX": 41.32142, "FSPD": 17.79901, "FDIR": 73.2001, "RENV": 180.0, "PENV": 1012.0, "VALIDT": 12, "DTG": "2026-09-22 18:00", "LATNOW": 39.0, "LONNOW": 150.2, "WINDNOW": 60.0, "DIRNOW": 15.0, "SPDNOW": 0.0, "TECH": "FCST", "ADVNR": 28, "ATCFID": "WP242026", "NAME": "DUJUAN", "FTECH": "JTWC", "FCST_DTG": "2026-09-22 06:00:00", "RUN_DTG": "2026-09-22 22:22:10", "BASIN": "WP", "STMNR": 24, "CAT_ID": null, "CAT_DESC": null, "MSGID": "WTPN51 PGTW 220900", "VALIDTIME": "2026-09-22 18:00:00" }, "geometry": { "type": "Point", "coordinates": [ 157.5, 40.900002 ] } },
{ "type": "Feature", "properties": { "ID": 94427, "LAT": 42.9, "LON": 166.4, "VMAX": 40.0, "MSLP": 1006.833, "RMAX": 44.21108, "FSPD": 17.79901, "FDIR": 73.2001, "RENV": 180.0, "PENV": 1012.0, "VALIDT": 24, "DTG": "2026-09-23 06:00", "LATNOW": 39.0, "LONNOW": 150.2, "WINDNOW": 60.0, "DIRNOW": 15.0, "SPDNOW": 0.0, "TECH": "FCST", "ADVNR": 28, "ATCFID": "WP242026", "NAME": "DUJUAN", "FTECH": "JTWC", "FCST_DTG": "2026-09-22 06:00:00", "RUN_DTG": "2026-09-22 22:22:10", "BASIN": "WP", "STMNR": 24, "CAT_ID": null, "CAT_DESC": null, "MSGID": "WTPN51 PGTW 220900", "VALIDTIME": "2026-09-23 06:00:00" }, "geometry": { "type": "Point", "coordinates": [ 166.399994, 42.900002 ] } },
{ "type": "Feature", "properties": { "ID": 94425, "LAT": 39.0, "LON": 150.2, "VMAX": 60.0, "MSLP": 972.0, "RMAX": 30.0, "FSPD": 15.20174, "FDIR": 71.24686, "RENV": 250.0, "PENV": 1003.0, "VALIDT": 0, "DTG": "2026-09-22 06:00", "LATNOW": 39.0, "LONNOW": 150.2, "WINDNOW": 60.0, "DIRNOW": 15.0, "SPDNOW": 0.0, "TECH": "TRAK", "ADVNR": 28, "ATCFID": "WP242026", "NAME": "DUJUAN", "FTECH": "JTWC", "FCST_DTG": "2026-09-22 06:00:00", "RUN_DTG": "2026-09-22 22:22:10", "BASIN": "WP", "STMNR": 24, "CAT_ID": null, "CAT_DESC": null, "MSGID": "WTPN51 PGTW 220900", "VALIDTIME": "2026-09-22 06:00:00" }, "geometry": { "type": "LineString", "coordinates": [ [ 156.1, 12.2 ], [ 155.9, 12.6 ], [ 155.2, 12.8 ], [ 154.5, 12.8 ], [ 153.6, 12.8 ], [ 152.6, 13.0 ], [ 151.7, 13.1 ], [ 151.2, 13.8 ], [ 151.0, 14.8 ], [ 149.9, 14.8 ], [ 148.9, 14.9 ], [ 148.8, 14.8 ], [ 148.7, 15.0 ], [ 148.9, 15.4 ], [ 149.5, 16.5 ], [ 149.7, 17.6 ], [ 150.4, 19.0 ], [ 150.4, 21.9 ], [ 148.6, 23.8 ], [ 146.0, 25.2 ], [ 144.5, 25.1 ], [ 142.9, 25.9 ], [ 141.7, 25.4 ], [ 140.7, 26.2 ], [ 139.7, 26.2 ], [ 139.1, 27.0 ], [ 138.2, 27.8 ], [ 137.7, 28.5 ], [ 137.5, 28.7 ], [ 137.5, 29.8 ], [ 137.6, 30.4 ], [ 137.9, 31.3 ], [ 138.7, 32.4 ], [ 139.8, 33.7 ], [ 141.8, 34.9 ], [ 144.1, 36.9 ], [ 147.4, 38.1 ], [ 150.2, 39.0 ] ] } },
{ "type": "Feature", "properties": { "ID": 94427, "LAT": 42.9, "LON": 166.4, "VMAX": 40.0, "MSLP": 1006.833, "RMAX": 44.21108, "FSPD": 17.79901, "FDIR": 73.2001, "RENV": 180.0, "PENV": 1012.0, "VALIDT": 24, "DTG": "2026-09-23 06:00", "LATNOW": 39.0, "LONNOW": 150.2, "WINDNOW": 60.0, "DIRNOW": 15.0, "SPDNOW": 0.0, "TECH": "FCST", "ADVNR": 28, "ATCFID": "WP242026", "NAME": "DUJUAN", "FTECH": "JTWC", "FCST_DTG": "2026-09-22 06:00:00", "RUN_DTG": "2026-09-22 22:22:10", "BASIN": "WP", "STMNR": 24, "CAT_ID": null, "CAT_DESC": null, "MSGID": "WTPN51 PGTW 220900", "VALIDTIME": "2026-09-23 06:00:00" }, "geometry": { "type": "LineString", "coordinates": [ [ 150.2, 39.0 ], [ 157.5, 40.9 ], [ 166.4, 42.9 ] ] } }
]
}
