{
"type": "FeatureCollection",
"crs": { "type": "name", "properties": { "name": "urn:ogc:def:crs:OGC:1.3:CRS84" } },
"features": [
{ "type": "Feature", "properties": { "ID": 329407, "LAT": 13.8, "LON": 119.6, "VMAX": 15.0, "MSLP": 1013.8515, "RMAX": 40.0, "FSPD": 1.43391, "FDIR": 315.8517, "RENV": 500.0, "PENV": 1012.0, "VALIDT": 0, "DTG": "2025-06-22 12:00", "LATNOW": 21.0, "LONNOW": 110.3, "WINDNOW": 25.0, "DIRNOW": 5.0, "SPDNOW": 2.0, "TECH": "TRAK", "ADVNR": 5, "ATCFID": "WP032025", "NAME": "THREE", "FTECH": "JTWC", "FCST_DTG": "2025-06-26 06:00:00", "RUN_DTG": "2025-06-26 09:43:41", "BASIN": "WP", "STMNR": 3, "CAT_ID": null, "CAT_DESC": null, "MSGID": "WTPN52 PGTW 260900", "VALIDTIME": "2025-06-22 12:00:00" }, "geometry": { "type": "Point", "coordinates": [ 119.599998, 13.8 ] } },
{ "type": "Feature", "properties": { "ID": 329408, "LAT": 14.0, "LON": 119.4, "VMAX": 15.0, "MSLP": 1013.8515, "RMAX": 40.0, "FSPD": 1.43333, "FDIR": 315.87555, "RENV": 500.0, "PENV": 1012.0, "VALIDT": 0, "DTG": "2025-06-22 18:00", "LATNOW": 21.0, "LONNOW": 110.3, "WINDNOW": 25.0, "DIRNOW": 5.0, "SPDNOW": 2.0, "TECH": "TRAK", "ADVNR": 5, "ATCFID": "WP032025", "NAME": "THREE", "FTECH": "JTWC", "FCST_DTG": "2025-06-26 06:00:00", "RUN_DTG": "2025-06-26 09:43:41", "BASIN": "WP", "STMNR": 3, "CAT_ID": null, "CAT_DESC": null, "MSGID": "WTPN52 PGTW 260900", "VALIDTIME": "2025-06-22 18:00:00" }, "geometry": { "type": "Point", "coordinates": [ 119.400002, 14.0 ] } },
{ "type": "Feature", "properties": { "ID": 329409, "LAT": 14.2, "LON": 119.2, "VMAX": 15.0, "MSLP": 1013.8515, "RMAX": 40.0, "FSPD": 1.49615, "FDIR": 269.99997, "RENV": 500.0, "PENV": 1012.0, "VALIDT": 0, "DTG": "2025-06-23 00:00", "LATNOW": 21.0, "LONNOW": 110.3, "WINDNOW": 25.0, "DIRNOW": 5.0, "SPDNOW": 2.0, "TECH": "TRAK", "ADVNR": 5, "ATCFID": "WP032025", "NAME": "THREE", "FTECH": "JTWC", "FCST_DTG": "2025-06-26 06:00:00", "RUN_DTG": "2025-06-26 09:43:41", "BASIN": "WP", "STMNR": 3, "CAT_ID": null, "CAT_DESC": null, "MSGID": "WTPN52 PGTW 260900", "VALIDTIME": "2025-06-23 00:00:00" }, "geometry": { "type": "Point", "coordinates": [ 119.199997, 14.2 ] } },
{ "type": "Feature", "properties": { "ID": 329410, "LAT": 14.2, "LON": 118.9, "VMAX": 15.0, "MSLP": 1013.8515, "RMAX": 40.0, "FSPD": 1.81527, "FDIR": 304.527, "RENV": 500.0, "PENV": 1012.0, "VALIDT": 0, "DTG": "2025-06-23 06:00", "LATNOW": 21.0, "LONNOW": 110.3, "WINDNOW": 25.0, "DIRNOW": 5.0, "SPDNOW": 2.0, "TECH": "TRAK", "ADVNR": 5, "ATCFID": "WP032025", "NAME": "THREE", "FTECH": "JTWC", "FCST_DTG": "2025-06-26 06:00:00", "RUN_DTG": "2025-06-26 09:43:41", "BASIN": "WP", "STMNR": 3, "CAT_ID": null, "CAT_DESC": null, "MSGID": "WTPN52 PGTW 260900", "VALIDTIME": "2025-06-23 06:00:00" }, "geometry": { "type": "Point", "coordinates": [ 118.900002, 14.2 ] } },
{ "type": "Feature", "properties": { "ID": 329411, "LAT": 14.4, "LON": 118.6, "VMAX": 20.0, "MSLP": 1012.95825, "RMAX": 45.0, "FSPD": 6.4394, "FDIR": 315.97296, "RENV": 500.0, "PENV": 1012.0, "VALIDT": 0, "DTG": "2025-06-23 12:00", "LATNOW": 21.0, "LONNOW": 110.3, "WINDNOW": 25.0, "DIRNOW": 5.0, "SPDNOW": 2.0, "TECH": "TRAK", "ADVNR": 5, "ATCFID": "WP032025", "NAME": "THREE", "FTECH": "JTWC", "FCST_DTG": "2025-06-26 06:00:00", "RUN_DTG": "2025-06-26 09:43:41", "BASIN": "WP", "STMNR": 3, "CAT_ID": null, "CAT_DESC": null, "MSGID": "WTPN52 PGTW 260900", "VALIDTIME": "2025-06-23 12:00:00" }, "geometry": { "type": "Point", "coordinates": [ 118.599998, 14.4 ] } },
{ "type": "Feature", "properties": { "ID": 329412, "LAT": 15.3, "LON": 117.7, "VMAX": 20.0, "MSLP": 1012.95825, "RMAX": 45.0, "FSPD": 5.58388, "FDIR": 297.42914, "RENV": 500.0, "PENV": 1012.0, "VALIDT": 0, "DTG": "2025-06-23 18:00", "LATNOW": 21.0, "LONNOW": 110.3, "WINDNOW": 25.0, "DIRNOW": 5.0, "SPDNOW": 2.0, "TECH": "TRAK", "ADVNR": 5, "ATCFID": "WP032025", "NAME": "THREE", "FTECH": "JTWC", "FCST_DTG": "2025-06-26 06:00:00", "RUN_DTG": "2025-06-26 09:43:41", "BASIN": "WP", "STMNR": 3, "CAT_ID": null, "CAT_DESC": null, "MSGID": "WTPN52 PGTW 260900", "VALIDTIME": "2025-06-23 18:00:00" }, "geometry": { "type": "Point", "coordinates": [ 117.699997, 15.3 ] } },
{ "type": "Feature", "properties": { "ID": 329413, "LAT": 15.8, "LON": 116.7, "VMAX": 20.0, "MSLP": 1012.95825, "RMAX": 45.0, "FSPD": 2.2305, "FDIR": 297.4698, "RENV": 500.0, "PENV": 1012.0, "VALIDT": 0, "DTG": "2025-06-24 00:00", "LATNOW": 21.0, "LONNOW": 110.3, "WINDNOW": 25.0, "DIRNOW": 5.0, "SPDNOW": 2.0, "TECH": "TRAK", "ADVNR": 5, "ATCFID": "WP032025", "NAME": "THREE", "FTECH": "JTWC", "FCST_DTG": "2025-06-26 06:00:00", "RUN_DTG": "2025-06-26 09:43:41", "BASIN": "WP", "STMNR": 3, "CAT_ID": null, "CAT_DESC": null, "MSGID": "WTPN52 PGTW 260900", "VALIDTIME": "2025-06-24 00:00:00" }, "geometry": { "type": "Point", "coordinates": [ 116.699997, 15.8 ] } },
{ "type": "Feature", "properties": { "ID": 329414, "LAT": 16.0, "LON": 116.3, "VMAX": 20.0, "MSLP": 1012.95825, "RMAX": 45.0, "FSPD": 2.50773, "FDIR": 307.983, "RENV": 500.0, "PENV": 1012.0, "VALIDT": 0, "DTG": "2025-06-24 06:00", "LATNOW": 21.0, "LONNOW": 110.3, "WINDNOW": 25.0, "DIRNOW": 5.0, "SPDNOW": 2.0, "TECH": "TRAK", "ADVNR": 5, "ATCFID": "WP032025", "NAME": "THREE", "FTECH": "JTWC", "FCST_DTG": "2025-06-26 06:00:00", "RUN_DTG": "2025-06-26 09:43:41", "BASIN": "WP", "STMNR": 3, "CAT_ID": null, "CAT_DESC": null, "MSGID": "WTPN52 PGTW 260900", "VALIDTIME": "2025-06-24 06:00:00" }, "geometry": { "type": "Point", "coordinates": [ 116.300003, 16.0 ] } },
{ "type": "Feature", "properties": { "ID": 329415, "LAT": 16.3, "LON": 115.9, "VMAX": 20.0, "MSLP": 1012.95825, "RMAX": 45.0, "FSPD": 4.2752, "FDIR": 316.21927, "RENV": 500.0, "PENV": 1012.0, "VALIDT": 0, "DTG": "2025-06-24 12:00", "LATNOW": 21.0, "LONNOW": 110.3, "WINDNOW": 25.0, "DIRNOW": 5.0, "SPDNOW": 2.0, "TECH": "TRAK", "ADVNR": 5, "ATCFID": "WP032025", "NAME": "THREE", "FTECH": "JTWC", "FCST_DTG": "2025-06-26 06:00:00", "RUN_DTG": "2025-06-26 09:43:41", "BASIN": "WP", "STMNR": 3, "CAT_ID": null, "CAT_DESC": null, "MSGID": "WTPN52 PGTW 260900", "VALIDTIME": "2025-06-24 12:00:00" }, "geometry": { "type": "Point", "coordinates": [ 115.900002, 16.299999 ] } },
{ "type": "Feature", "properties": { "ID": 329416, "LAT": 16.9, "LON": 115.3, "VMAX": 20.0, "MSLP": 1012.95825, "RMAX": 45.0, "FSPD": 6.79186, "FDIR": 307.2976, "RENV": 500.0, "PENV": 1012.0, "VALIDT": 0, "DTG": "2025-06-24 18:00", "LATNOW": 21.0, "LONNOW": 110.3, "WINDNOW": 25.0, "DIRNOW": 5.0, "SPDNOW": 2.0, "TECH": "TRAK", "ADVNR": 5, "ATCFID": "WP032025", "NAME": "THREE", "FTECH": "JTWC", "FCST_DTG": "2025-06-26 06:00:00", "RUN_DTG": "2025-06-26 09:43:41", "BASIN": "WP", "STMNR": 3, "CAT_ID": null, "CAT_DESC": null, "MSGID": "WTPN52 PGTW 260900", "VALIDTIME": "2025-06-24 18:00:00" }, "geometry": { "type": "Point", "coordinates": [ 115.300003, 16.9 ] } },
{ "type": "Feature", "properties": { "ID": 329417, "LAT": 17.7, "LON": 114.2, "VMAX": 20.0, "MSLP": 1012.95825, "RMAX": 45.0, "FSPD": 6.39129, "FDIR": 310.08554, "RENV": 500.0, "PENV": 1012.0, "VALIDT": 0, "DTG": "2025-06-25 00:00", "LATNOW": 21.0, "LONNOW": 110.3, "WINDNOW": 25.0, "DIRNOW": 5.0, "SPDNOW": 2.0, "TECH": "TRAK", "ADVNR": 5, "ATCFID": "WP032025", "NAME": "THREE", "FTECH": "JTWC", "FCST_DTG": "2025-06-26 06:00:00", "RUN_DTG": "2025-06-26 09:43:41", "BASIN": "WP", "STMNR": 3, "CAT_ID": null, "CAT_DESC": null, "MSGID": "WTPN52 PGTW 260900", "VALIDTIME": "2025-06-25 00:00:00" }, "geometry": { "type": "Point", "coordinates": [ 114.199997, 17.700001 ] } },
{ "type": "Feature", "properties": { "ID": 329418, "LAT": 18.5, "LON": 113.2, "VMAX": 25.0, "MSLP": 1002.0, "RMAX": 50.0, "FSPD": 6.05563, "FDIR": 306.48926, "RENV": 135.0, "PENV": 1006.0, "VALIDT": 0, "DTG": "2025-06-25 06:00", "LATNOW": 21.0, "LONNOW": 110.3, "WINDNOW": 25.0, "DIRNOW": 5.0, "SPDNOW": 2.0, "TECH": "TRAK", "ADVNR": 5, "ATCFID": "WP032025", "NAME": "THREE", "FTECH": "JTWC", "FCST_DTG": "2025-06-26 06:00:00", "RUN_DTG": "2025-06-26 09:43:41", "BASIN": "WP", "STMNR": 3, "CAT_ID": null, "CAT_DESC": null, "MSGID": "WTPN52 PGTW 260900", "VALIDTIME": "2025-06-25 06:00:00" }, "geometry": { "type": "Point", "coordinates": [ 113.199997, 18.5 ] } },
{ "type": "Feature", "properties": { "ID": 329419, "LAT": 19.2, "LON": 112.2, "VMAX": 25.0, "MSLP": 1002.0, "RMAX": 50.0, "FSPD": 4.0182, "FDIR": 284.83612, "RENV": 135.0, "PENV": 1006.0, "VALIDT": 0, "DTG": "2025-06-25 12:00", "LATNOW": 21.0, "LONNOW": 110.3, "WINDNOW": 25.0, "DIRNOW": 5.0, "SPDNOW": 2.0, "TECH": "TRAK", "ADVNR": 5, "ATCFID": "WP032025", "NAME": "THREE", "FTECH": "JTWC", "FCST_DTG": "2025-06-26 06:00:00", "RUN_DTG": "2025-06-26 09:43:41", "BASIN": "WP", "STMNR": 3, "CAT_ID": null, "CAT_DESC": null, "MSGID": "WTPN52 PGTW 260900", "VALIDTIME": "2025-06-25 12:00:00" }, "geometry": { "type": "Point", "coordinates": [ 112.199997, 19.200001 ] } },
{ "type": "Feature", "properties": { "ID": 329420, "LAT": 19.4, "LON": 111.4, "VMAX": 25.0, "MSLP": 1002.0, "RMAX": 50.0, "FSPD": 4.94524, "FDIR": 316.73553, "RENV": 90.0, "PENV": 1006.0, "VALIDT": 0, "DTG": "2025-06-25 18:00", "LATNOW": 21.0, "LONNOW": 110.3, "WINDNOW": 25.0, "DIRNOW": 5.0, "SPDNOW": 2.0, "TECH": "TRAK", "ADVNR": 5, "ATCFID": "WP032025", "NAME": "THREE", "FTECH": "JTWC", "FCST_DTG": "2025-06-26 06:00:00", "RUN_DTG": "2025-06-26 09:43:41", "BASIN": "WP", "STMNR": 3, "CAT_ID": null, "CAT_DESC": null, "MSGID": "WTPN52 PGTW 260900", "VALIDTIME": "2025-06-25 18:00:00" }, "geometry": { "type": "Point", "coordinates": [ 111.400002, 19.4 ] } },
{ "type": "Feature", "properties": { "ID": 329421, "LAT": 20.1, "LON": 110.7, "VMAX": 25.0, "MSLP": 1003.0, "RMAX": 30.0, "FSPD": 5.01492, "FDIR": 337.40503, "RENV": 90.0, "PENV": 1006.0, "VALIDT": 0, "DTG": "2025-06-26 00:00", "LATNOW": 21.0, "LONNOW": 110.3, "WINDNOW": 25.0, "DIRNOW": 5.0, "SPDNOW": 2.0, "TECH": "TRAK", "ADVNR": 5, "ATCFID": "WP032025", "NAME": "THREE", "FTECH": "JTWC", "FCST_DTG": "2025-06-26 06:00:00", "RUN_DTG": "2025-06-26 09:43:41", "BASIN": "WP", "STMNR": 3, "CAT_ID": null, "CAT_DESC": null, "MSGID": "WTPN52 PGTW 260900", "VALIDTIME": "2025-06-26 00:00:00" }, "geometry": { "type": "Point", "coordinates": [ 110.699997, 20.1 ] } },
{ "type": "Feature", "properties": { "ID": 329422, "LAT": 21.0, "LON": 110.3, "VMAX": 25.0, "MSLP": 1003.0, "RMAX": 25.0, "FSPD": 4.54143, "FDIR": 334.98856, "RENV": 90.0, "PENV": 1006.0, "VALIDT": 0, "DTG": "2025-06-26 06:00", "LATNOW": 21.0, "LONNOW": 110.3, "WINDNOW": 25.0, "DIRNOW": 5.0, "SPDNOW": 2.0, "TECH": "TRAK", "ADVNR": 5, "ATCFID": "WP032025", "NAME": "THREE", "FTECH": "JTWC", "FCST_DTG": "2025-06-26 06:00:00", "RUN_DTG": "2025-06-26 09:43:41", "BASIN": "WP", "STMNR": 3, "CAT_ID": null, "CAT_DESC": null, "MSGID": "WTPN52 PGTW 260900", "VALIDTIME": "2025-06-26 06:00:00" }, "geometry": { "type": "Point", "coordinates": [ 110.300003, 21.0 ] } },
{ "type": "Feature", "properties": { "ID": 329423, "LAT": 21.16, "LON": 110.22, "VMAX": 25.0, "MSLP": 1003.0, "RMAX": 25.0, "FSPD": 4.53698, "FDIR": 335.10944, "RENV": 90.0, "PENV": 1006.0, "VALIDT": 1, "DTG": "2025-06-26 07:00", "LATNOW": 21.0, "LONNOW": 110.3, "WINDNOW": 25.0, "DIRNOW": 5.0, "SPDNOW": 2.0, "TECH": "FCST", "ADVNR": 5, "ATCFID": "WP032025", "NAME": "THREE", "FTECH": "JTWC", "FCST_DTG": "2025-06-26 06:00:00", "RUN_DTG": "2025-06-26 09:43:41", "BASIN": "WP", "STMNR": 3, "CAT_ID": null, "CAT_DESC": null, "MSGID": "WTPN52 PGTW 260900", "VALIDTIME": "2025-06-26 07:00:00" }, "geometry": { "type": "Point", "coordinates": [ 110.220001, 21.16 ] } },
{ "type": "Feature", "properties": { "ID": 329424, "LAT": 22.6, "LON": 109.5, "VMAX": 20.0, "MSLP": 1012.95825, "RMAX": 28.86921, "FSPD": 4.9774, "FDIR": 349.0766, "RENV": 250.0, "PENV": 1012.0, "VALIDT": 12, "DTG": "2025-06-26 18:00", "LATNOW": 21.0, "LONNOW": 110.3, "WINDNOW": 25.0, "DIRNOW": 5.0, "SPDNOW": 2.0, "TECH": "FCST", "ADVNR": 5, "ATCFID": "WP032025", "NAME": "THREE", "FTECH": "JTWC", "FCST_DTG": "2025-06-26 06:00:00", "RUN_DTG": "2025-06-26 09:43:41", "BASIN": "WP", "STMNR": 3, "CAT_ID": null, "CAT_DESC": null, "MSGID": "WTPN52 PGTW 260900", "VALIDTIME": "2025-06-26 18:00:00" }, "geometry": { "type": "Point", "coordinates": [ 109.5, 22.6 ] } },
{ "type": "Feature", "properties": { "ID": 329425, "LAT": 24.5, "LON": 109.1, "VMAX": 15.0, "MSLP": 1013.8515, "RMAX": 25.66152, "FSPD": 4.9774, "FDIR": 349.0766, "RENV": 250.0, "PENV": 1012.0, "VALIDT": 24, "DTG": "2025-06-27 06:00", "LATNOW": 21.0, "LONNOW": 110.3, "WINDNOW": 25.0, "DIRNOW": 5.0, "SPDNOW": 2.0, "TECH": "FCST", "ADVNR": 5, "ATCFID": "WP032025", "NAME": "THREE", "FTECH": "JTWC", "FCST_DTG": "2025-06-26 06:00:00", "RUN_DTG": "2025-06-26 09:43:41", "BASIN": "WP", "STMNR": 3, "CAT_ID": null, "CAT_DESC": null, "MSGID": "WTPN52 PGTW 260900", "VALIDTIME": "2025-06-27 06:00:00" }, "geometry": { "type": "Point", "coordinates": [ 109.099998, 24.5 ] } },
{ "type": "Feature", "properties": { "ID": 329422, "LAT": 21.0, "LON": 110.3, "VMAX": 25.0, "MSLP": 1003.0, "RMAX": 25.0, "FSPD": 4.54143, "FDIR": 334.98856, "RENV": 90.0, "PENV": 1006.0, "VALIDT": 0, "DTG": "2025-06-26 06:00", "LATNOW": 21.0, "LONNOW": 110.3, "WINDNOW": 25.0, "DIRNOW": 5.0, "SPDNOW": 2.0, "TECH": "TRAK", "ADVNR": 5, "ATCFID": "WP032025", "NAME": "THREE", "FTECH": "JTWC", "FCST_DTG": "2025-06-26 06:00:00", "RUN_DTG": "2025-06-26 09:43:41", "BASIN": "WP", "STMNR": 3, "CAT_ID": null, "CAT_DESC": null, "MSGID": "WTPN52 PGTW 260900", "VALIDTIME": "2025-06-26 06:00:00" }, "geometry": { "type": "LineString", "coordinates": [ [ 119.6, 13.8 ], [ 119.4, 14.0 ], [ 119.2, 14.2 ], [ 118.9, 14.2 ], [ 118.6, 14.4 ], [ 117.7, 15.3 ], [ 116.7, 15.8 ], [ 116.3, 16.0 ], [ 115.9, 16.3 ], [ 115.3, 16.9 ], [ 114.2, 17.7 ], [ 113.2, 18.5 ], [ 112.2, 19.2 ], [ 111.4, 19.4 ], [ 110.7, 20.1 ], [ 110.3, 21.0 ] ] } },
{ "type": "Feature", "properties": { "ID": 329425, "LAT": 24.5, "LON": 109.1, "VMAX": 15.0, "MSLP": 1013.8515, "RMAX": 25.66152, "FSPD": 4.9774, "FDIR": 349.0766, "RENV": 250.0, "PENV": 1012.0, "VALIDT": 24, "DTG": "2025-06-27 06:00", "LATNOW": 21.0, "LONNOW": 110.3, "WINDNOW": 25.0, "DIRNOW": 5.0, "SPDNOW": 2.0, "TECH": "FCST", "ADVNR": 5, "ATCFID": "WP032025", "NAME": "THREE", "FTECH": "JTWC", "FCST_DTG": "2025-06-26 06:00:00", "RUN_DTG": "2025-06-26 09:43:41", "BASIN": "WP", "STMNR": 3, "CAT_ID": null, "CAT_DESC": null, "MSGID": "WTPN52 PGTW 260900", "VALIDTIME": "2025-06-27 06:00:00" }, "geometry": { "type": "LineString", "coordinates": [ [ 110.3, 21.0 ], [ 110.22, 21.16 ], [ 109.5, 22.6 ], [ 109.1, 24.5 ] ] } }
]
}
