{
"type": "FeatureCollection",
"crs": { "type": "name", "properties": { "name": "urn:ogc:def:crs:OGC:1.3:CRS84" } },
"features": [
{ "type": "Feature", "properties": { "ID": 287695, "LAT": 7.1, "LON": 148.2, "VMAX": 15.0, "MSLP": 1013.8515, "RMAX": 40.0, "FSPD": 5.71389, "FDIR": 296.75458, "RENV": 500.0, "PENV": 1012.0, "VALIDT": 0, "DTG": "2024-11-09 06:00", "LATNOW": 22.2, "LONNOW": 120.6, "WINDNOW": 25.0, "DIRNOW": 1.0, "SPDNOW": 1.0, "TECH": "TRAK", "ADVNR": 22, "ATCFID": "WP272024", "NAME": "USAGI", "FTECH": "JTWC", "FCST_DTG": "2024-11-16 06:00:00", "RUN_DTG": "2024-11-16 21:11:42", "BASIN": "WP", "STMNR": 27, "CAT_ID": null, "CAT_DESC": null, "MSGID": "WTPN54 PGTW 160900", "VALIDTIME": "2024-11-09 06:00:00" }, "geometry": { "type": "Point", "coordinates": [ 148.199997, 7.1 ] } },
{ "type": "Feature", "properties": { "ID": 287696, "LAT": 7.6, "LON": 147.2, "VMAX": 15.0, "MSLP": 1013.8515, "RMAX": 40.0, "FSPD": 5.95759, "FDIR": 301.20532, "RENV": 500.0, "PENV": 1012.0, "VALIDT": 0, "DTG": "2024-11-09 12:00", "LATNOW": 22.2, "LONNOW": 120.6, "WINDNOW": 25.0, "DIRNOW": 1.0, "SPDNOW": 1.0, "TECH": "TRAK", "ADVNR": 22, "ATCFID": "WP272024", "NAME": "USAGI", "FTECH": "JTWC", "FCST_DTG": "2024-11-16 06:00:00", "RUN_DTG": "2024-11-16 21:11:42", "BASIN": "WP", "STMNR": 27, "CAT_ID": null, "CAT_DESC": null, "MSGID": "WTPN54 PGTW 160900", "VALIDTIME": "2024-11-09 12:00:00" }, "geometry": { "type": "Point", "coordinates": [ 147.199997, 7.6 ] } },
{ "type": "Feature", "properties": { "ID": 287697, "LAT": 8.2, "LON": 146.2, "VMAX": 15.0, "MSLP": 1013.8515, "RMAX": 40.0, "FSPD": 5.10837, "FDIR": 307.174, "RENV": 500.0, "PENV": 1012.0, "VALIDT": 0, "DTG": "2024-11-09 18:00", "LATNOW": 22.2, "LONNOW": 120.6, "WINDNOW": 25.0, "DIRNOW": 1.0, "SPDNOW": 1.0, "TECH": "TRAK", "ADVNR": 22, "ATCFID": "WP272024", "NAME": "USAGI", "FTECH": "JTWC", "FCST_DTG": "2024-11-16 06:00:00", "RUN_DTG": "2024-11-16 21:11:42", "BASIN": "WP", "STMNR": 27, "CAT_ID": null, "CAT_DESC": null, "MSGID": "WTPN54 PGTW 160900", "VALIDTIME": "2024-11-09 18:00:00" }, "geometry": { "type": "Point", "coordinates": [ 146.199997, 8.2 ] } },
{ "type": "Feature", "properties": { "ID": 287698, "LAT": 8.8, "LON": 145.4, "VMAX": 20.0, "MSLP": 1012.95825, "RMAX": 45.0, "FSPD": 8.48341, "FDIR": 303.07736, "RENV": 500.0, "PENV": 1012.0, "VALIDT": 0, "DTG": "2024-11-10 00:00", "LATNOW": 22.2, "LONNOW": 120.6, "WINDNOW": 25.0, "DIRNOW": 1.0, "SPDNOW": 1.0, "TECH": "TRAK", "ADVNR": 22, "ATCFID": "WP272024", "NAME": "USAGI", "FTECH": "JTWC", "FCST_DTG": "2024-11-16 06:00:00", "RUN_DTG": "2024-11-16 21:11:42", "BASIN": "WP", "STMNR": 27, "CAT_ID": null, "CAT_DESC": null, "MSGID": "WTPN54 PGTW 160900", "VALIDTIME": "2024-11-10 00:00:00" }, "geometry": { "type": "Point", "coordinates": [ 145.399994, 8.8 ] } },
{ "type": "Feature", "properties": { "ID": 287699, "LAT": 9.7, "LON": 144.0, "VMAX": 20.0, "MSLP": 1012.95825, "RMAX": 45.0, "FSPD": 9.17305, "FDIR": 304.1126, "RENV": 500.0, "PENV": 1012.0, "VALIDT": 0, "DTG": "2024-11-10 06:00", "LATNOW": 22.2, "LONNOW": 120.6, "WINDNOW": 25.0, "DIRNOW": 1.0, "SPDNOW": 1.0, "TECH": "TRAK", "ADVNR": 22, "ATCFID": "WP272024", "NAME": "USAGI", "FTECH": "JTWC", "FCST_DTG": "2024-11-16 06:00:00", "RUN_DTG": "2024-11-16 21:11:42", "BASIN": "WP", "STMNR": 27, "CAT_ID": null, "CAT_DESC": null, "MSGID": "WTPN54 PGTW 160900", "VALIDTIME": "2024-11-10 06:00:00" }, "geometry": { "type": "Point", "coordinates": [ 144.0, 9.7 ] } },
{ "type": "Feature", "properties": { "ID": 287700, "LAT": 10.7, "LON": 142.5, "VMAX": 20.0, "MSLP": 1012.95825, "RMAX": 45.0, "FSPD": 10.43926, "FDIR": 299.5246, "RENV": 500.0, "PENV": 1012.0, "VALIDT": 0, "DTG": "2024-11-10 12:00", "LATNOW": 22.2, "LONNOW": 120.6, "WINDNOW": 25.0, "DIRNOW": 1.0, "SPDNOW": 1.0, "TECH": "TRAK", "ADVNR": 22, "ATCFID": "WP272024", "NAME": "USAGI", "FTECH": "JTWC", "FCST_DTG": "2024-11-16 06:00:00", "RUN_DTG": "2024-11-16 21:11:42", "BASIN": "WP", "STMNR": 27, "CAT_ID": null, "CAT_DESC": null, "MSGID": "WTPN54 PGTW 160900", "VALIDTIME": "2024-11-10 12:00:00" }, "geometry": { "type": "Point", "coordinates": [ 142.5, 10.7 ] } },
{ "type": "Feature", "properties": { "ID": 287701, "LAT": 11.7, "LON": 140.7, "VMAX": 20.0, "MSLP": 1012.95825, "RMAX": 45.0, "FSPD": 8.3618, "FDIR": 295.50955, "RENV": 500.0, "PENV": 1012.0, "VALIDT": 0, "DTG": "2024-11-10 18:00", "LATNOW": 22.2, "LONNOW": 120.6, "WINDNOW": 25.0, "DIRNOW": 1.0, "SPDNOW": 1.0, "TECH": "TRAK", "ADVNR": 22, "ATCFID": "WP272024", "NAME": "USAGI", "FTECH": "JTWC", "FCST_DTG": "2024-11-16 06:00:00", "RUN_DTG": "2024-11-16 21:11:42", "BASIN": "WP", "STMNR": 27, "CAT_ID": null, "CAT_DESC": null, "MSGID": "WTPN54 PGTW 160900", "VALIDTIME": "2024-11-10 18:00:00" }, "geometry": { "type": "Point", "coordinates": [ 140.699997, 11.7 ] } },
{ "type": "Feature", "properties": { "ID": 287702, "LAT": 12.4, "LON": 139.2, "VMAX": 30.0, "MSLP": 999.0, "RMAX": 50.0, "FSPD": 6.05237, "FDIR": 265.12402, "RENV": 100.0, "PENV": 1006.0, "VALIDT": 0, "DTG": "2024-11-11 00:00", "LATNOW": 22.2, "LONNOW": 120.6, "WINDNOW": 25.0, "DIRNOW": 1.0, "SPDNOW": 1.0, "TECH": "TRAK", "ADVNR": 22, "ATCFID": "WP272024", "NAME": "USAGI", "FTECH": "JTWC", "FCST_DTG": "2024-11-16 06:00:00", "RUN_DTG": "2024-11-16 21:11:42", "BASIN": "WP", "STMNR": 27, "CAT_ID": null, "CAT_DESC": null, "MSGID": "WTPN54 PGTW 160900", "VALIDTIME": "2024-11-11 00:00:00" }, "geometry": { "type": "Point", "coordinates": [ 139.199997, 12.4 ] } },
{ "type": "Feature", "properties": { "ID": 287703, "LAT": 12.3, "LON": 138.0, "VMAX": 35.0, "MSLP": 999.0, "RMAX": 50.0, "FSPD": 7.60656, "FDIR": 277.7738, "RENV": 100.0, "PENV": 1006.0, "VALIDT": 0, "DTG": "2024-11-11 06:00", "LATNOW": 22.2, "LONNOW": 120.6, "WINDNOW": 25.0, "DIRNOW": 1.0, "SPDNOW": 1.0, "TECH": "TRAK", "ADVNR": 22, "ATCFID": "WP272024", "NAME": "USAGI", "FTECH": "JTWC", "FCST_DTG": "2024-11-16 06:00:00", "RUN_DTG": "2024-11-16 21:11:42", "BASIN": "WP", "STMNR": 27, "CAT_ID": null, "CAT_DESC": null, "MSGID": "WTPN54 PGTW 160900", "VALIDTIME": "2024-11-11 06:00:00" }, "geometry": { "type": "Point", "coordinates": [ 138.0, 12.3 ] } },
{ "type": "Feature", "properties": { "ID": 287704, "LAT": 12.5, "LON": 136.5, "VMAX": 40.0, "MSLP": 997.0, "RMAX": 25.0, "FSPD": 7.6859, "FDIR": 281.58377, "RENV": 145.0, "PENV": 1006.0, "VALIDT": 0, "DTG": "2024-11-11 12:00", "LATNOW": 22.2, "LONNOW": 120.6, "WINDNOW": 25.0, "DIRNOW": 1.0, "SPDNOW": 1.0, "TECH": "TRAK", "ADVNR": 22, "ATCFID": "WP272024", "NAME": "USAGI", "FTECH": "JTWC", "FCST_DTG": "2024-11-16 06:00:00", "RUN_DTG": "2024-11-16 21:11:42", "BASIN": "WP", "STMNR": 27, "CAT_ID": null, "CAT_DESC": null, "MSGID": "WTPN54 PGTW 160900", "VALIDTIME": "2024-11-11 12:00:00" }, "geometry": { "type": "Point", "coordinates": [ 136.5, 12.5 ] } },
{ "type": "Feature", "properties": { "ID": 287705, "LAT": 12.8, "LON": 135.0, "VMAX": 45.0, "MSLP": 995.0, "RMAX": 30.0, "FSPD": 7.90938, "FDIR": 310.57352, "RENV": 120.0, "PENV": 1010.0, "VALIDT": 0, "DTG": "2024-11-11 18:00", "LATNOW": 22.2, "LONNOW": 120.6, "WINDNOW": 25.0, "DIRNOW": 1.0, "SPDNOW": 1.0, "TECH": "TRAK", "ADVNR": 22, "ATCFID": "WP272024", "NAME": "USAGI", "FTECH": "JTWC", "FCST_DTG": "2024-11-16 06:00:00", "RUN_DTG": "2024-11-16 21:11:42", "BASIN": "WP", "STMNR": 27, "CAT_ID": null, "CAT_DESC": null, "MSGID": "WTPN54 PGTW 160900", "VALIDTIME": "2024-11-11 18:00:00" }, "geometry": { "type": "Point", "coordinates": [ 135.0, 12.8 ] } },
{ "type": "Feature", "properties": { "ID": 287706, "LAT": 13.8, "LON": 133.8, "VMAX": 45.0, "MSLP": 991.0, "RMAX": 30.0, "FSPD": 10.53736, "FDIR": 275.6034, "RENV": 210.0, "PENV": 1008.0, "VALIDT": 0, "DTG": "2024-11-12 00:00", "LATNOW": 22.2, "LONNOW": 120.6, "WINDNOW": 25.0, "DIRNOW": 1.0, "SPDNOW": 1.0, "TECH": "TRAK", "ADVNR": 22, "ATCFID": "WP272024", "NAME": "USAGI", "FTECH": "JTWC", "FCST_DTG": "2024-11-16 06:00:00", "RUN_DTG": "2024-11-16 21:11:42", "BASIN": "WP", "STMNR": 27, "CAT_ID": null, "CAT_DESC": null, "MSGID": "WTPN54 PGTW 160900", "VALIDTIME": "2024-11-12 00:00:00" }, "geometry": { "type": "Point", "coordinates": [ 133.800003, 13.8 ] } },
{ "type": "Feature", "properties": { "ID": 287707, "LAT": 14.0, "LON": 131.7, "VMAX": 55.0, "MSLP": 990.0, "RMAX": 30.0, "FSPD": 6.97373, "FDIR": 291.64435, "RENV": 210.0, "PENV": 1010.0, "VALIDT": 0, "DTG": "2024-11-12 06:00", "LATNOW": 22.2, "LONNOW": 120.6, "WINDNOW": 25.0, "DIRNOW": 1.0, "SPDNOW": 1.0, "TECH": "TRAK", "ADVNR": 22, "ATCFID": "WP272024", "NAME": "USAGI", "FTECH": "JTWC", "FCST_DTG": "2024-11-16 06:00:00", "RUN_DTG": "2024-11-16 21:11:42", "BASIN": "WP", "STMNR": 27, "CAT_ID": null, "CAT_DESC": null, "MSGID": "WTPN54 PGTW 160900", "VALIDTIME": "2024-11-12 06:00:00" }, "geometry": { "type": "Point", "coordinates": [ 131.699997, 14.0 ] } },
{ "type": "Feature", "properties": { "ID": 287708, "LAT": 14.5, "LON": 130.4, "VMAX": 55.0, "MSLP": 988.0, "RMAX": 20.0, "FSPD": 7.53804, "FDIR": 277.8449, "RENV": 125.0, "PENV": 1010.0, "VALIDT": 0, "DTG": "2024-11-12 12:00", "LATNOW": 22.2, "LONNOW": 120.6, "WINDNOW": 25.0, "DIRNOW": 1.0, "SPDNOW": 1.0, "TECH": "TRAK", "ADVNR": 22, "ATCFID": "WP272024", "NAME": "USAGI", "FTECH": "JTWC", "FCST_DTG": "2024-11-16 06:00:00", "RUN_DTG": "2024-11-16 21:11:42", "BASIN": "WP", "STMNR": 27, "CAT_ID": null, "CAT_DESC": null, "MSGID": "WTPN54 PGTW 160900", "VALIDTIME": "2024-11-12 12:00:00" }, "geometry": { "type": "Point", "coordinates": [ 130.399994, 14.5 ] } },
{ "type": "Feature", "properties": { "ID": 287709, "LAT": 14.7, "LON": 128.9, "VMAX": 60.0, "MSLP": 988.0, "RMAX": 20.0, "FSPD": 6.31067, "FDIR": 289.03098, "RENV": 100.0, "PENV": 1008.0, "VALIDT": 0, "DTG": "2024-11-12 18:00", "LATNOW": 22.2, "LONNOW": 120.6, "WINDNOW": 25.0, "DIRNOW": 1.0, "SPDNOW": 1.0, "TECH": "TRAK", "ADVNR": 22, "ATCFID": "WP272024", "NAME": "USAGI", "FTECH": "JTWC", "FCST_DTG": "2024-11-16 06:00:00", "RUN_DTG": "2024-11-16 21:11:42", "BASIN": "WP", "STMNR": 27, "CAT_ID": null, "CAT_DESC": null, "MSGID": "WTPN54 PGTW 160900", "VALIDTIME": "2024-11-12 18:00:00" }, "geometry": { "type": "Point", "coordinates": [ 128.899994, 14.7 ] } },
{ "type": "Feature", "properties": { "ID": 287710, "LAT": 15.1, "LON": 127.7, "VMAX": 70.0, "MSLP": 987.0, "RMAX": 20.0, "FSPD": 6.48503, "FDIR": 293.3683, "RENV": 120.0, "PENV": 1006.0, "VALIDT": 0, "DTG": "2024-11-13 00:00", "LATNOW": 22.2, "LONNOW": 120.6, "WINDNOW": 25.0, "DIRNOW": 1.0, "SPDNOW": 1.0, "TECH": "TRAK", "ADVNR": 22, "ATCFID": "WP272024", "NAME": "USAGI", "FTECH": "JTWC", "FCST_DTG": "2024-11-16 06:00:00", "RUN_DTG": "2024-11-16 21:11:42", "BASIN": "WP", "STMNR": 27, "CAT_ID": null, "CAT_DESC": null, "MSGID": "WTPN54 PGTW 160900", "VALIDTIME": "2024-11-13 00:00:00" }, "geometry": { "type": "Point", "coordinates": [ 127.699997, 15.1 ] } },
{ "type": "Feature", "properties": { "ID": 287711, "LAT": 15.6, "LON": 126.5, "VMAX": 75.0, "MSLP": 985.0, "RMAX": 20.0, "FSPD": 6.69157, "FDIR": 297.46954, "RENV": 120.0, "PENV": 1008.0, "VALIDT": 0, "DTG": "2024-11-13 06:00", "LATNOW": 22.2, "LONNOW": 120.6, "WINDNOW": 25.0, "DIRNOW": 1.0, "SPDNOW": 1.0, "TECH": "TRAK", "ADVNR": 22, "ATCFID": "WP272024", "NAME": "USAGI", "FTECH": "JTWC", "FCST_DTG": "2024-11-16 06:00:00", "RUN_DTG": "2024-11-16 21:11:42", "BASIN": "WP", "STMNR": 27, "CAT_ID": null, "CAT_DESC": null, "MSGID": "WTPN54 PGTW 160900", "VALIDTIME": "2024-11-13 06:00:00" }, "geometry": { "type": "Point", "coordinates": [ 126.5, 15.6 ] } },
{ "type": "Feature", "properties": { "ID": 287712, "LAT": 16.2, "LON": 125.3, "VMAX": 115.0, "MSLP": 981.0, "RMAX": 20.0, "FSPD": 6.91059, "FDIR": 291.85223, "RENV": 140.0, "PENV": 1006.0, "VALIDT": 0, "DTG": "2024-11-13 12:00", "LATNOW": 22.2, "LONNOW": 120.6, "WINDNOW": 25.0, "DIRNOW": 1.0, "SPDNOW": 1.0, "TECH": "TRAK", "ADVNR": 22, "ATCFID": "WP272024", "NAME": "USAGI", "FTECH": "JTWC", "FCST_DTG": "2024-11-16 06:00:00", "RUN_DTG": "2024-11-16 21:11:42", "BASIN": "WP", "STMNR": 27, "CAT_ID": null, "CAT_DESC": null, "MSGID": "WTPN54 PGTW 160900", "VALIDTIME": "2024-11-13 12:00:00" }, "geometry": { "type": "Point", "coordinates": [ 125.300003, 16.200001 ] } },
{ "type": "Feature", "properties": { "ID": 287713, "LAT": 16.7, "LON": 124.0, "VMAX": 130.0, "MSLP": 949.0, "RMAX": 5.0, "FSPD": 5.12165, "FDIR": 300.14734, "RENV": 115.0, "PENV": 1008.0, "VALIDT": 0, "DTG": "2024-11-13 18:00", "LATNOW": 22.2, "LONNOW": 120.6, "WINDNOW": 25.0, "DIRNOW": 1.0, "SPDNOW": 1.0, "TECH": "TRAK", "ADVNR": 22, "ATCFID": "WP272024", "NAME": "USAGI", "FTECH": "JTWC", "FCST_DTG": "2024-11-16 06:00:00", "RUN_DTG": "2024-11-16 21:11:42", "BASIN": "WP", "STMNR": 27, "CAT_ID": null, "CAT_DESC": null, "MSGID": "WTPN54 PGTW 160900", "VALIDTIME": "2024-11-13 18:00:00" }, "geometry": { "type": "Point", "coordinates": [ 124.0, 16.700001 ] } },
{ "type": "Feature", "properties": { "ID": 287714, "LAT": 17.2, "LON": 123.1, "VMAX": 130.0, "MSLP": 915.0, "RMAX": 6.0, "FSPD": 6.08497, "FDIR": 306.28503, "RENV": 180.0, "PENV": 1007.0, "VALIDT": 0, "DTG": "2024-11-14 00:00", "LATNOW": 22.2, "LONNOW": 120.6, "WINDNOW": 25.0, "DIRNOW": 1.0, "SPDNOW": 1.0, "TECH": "TRAK", "ADVNR": 22, "ATCFID": "WP272024", "NAME": "USAGI", "FTECH": "JTWC", "FCST_DTG": "2024-11-16 06:00:00", "RUN_DTG": "2024-11-16 21:11:42", "BASIN": "WP", "STMNR": 27, "CAT_ID": null, "CAT_DESC": null, "MSGID": "WTPN54 PGTW 160900", "VALIDTIME": "2024-11-14 00:00:00" }, "geometry": { "type": "Point", "coordinates": [ 123.099998, 17.200001 ] } },
{ "type": "Feature", "properties": { "ID": 287715, "LAT": 17.9, "LON": 122.1, "VMAX": 115.0, "MSLP": 915.0, "RMAX": 6.0, "FSPD": 5.23426, "FDIR": 332.19702, "RENV": 180.0, "PENV": 1007.0, "VALIDT": 0, "DTG": "2024-11-14 06:00", "LATNOW": 22.2, "LONNOW": 120.6, "WINDNOW": 25.0, "DIRNOW": 1.0, "SPDNOW": 1.0, "TECH": "TRAK", "ADVNR": 22, "ATCFID": "WP272024", "NAME": "USAGI", "FTECH": "JTWC", "FCST_DTG": "2024-11-16 06:00:00", "RUN_DTG": "2024-11-16 21:11:42", "BASIN": "WP", "STMNR": 27, "CAT_ID": null, "CAT_DESC": null, "MSGID": "WTPN54 PGTW 160900", "VALIDTIME": "2024-11-14 06:00:00" }, "geometry": { "type": "Point", "coordinates": [ 122.099998, 17.9 ] } },
{ "type": "Feature", "properties": { "ID": 287716, "LAT": 18.8, "LON": 121.6, "VMAX": 95.0, "MSLP": 949.0, "RMAX": 5.0, "FSPD": 7.41553, "FDIR": 313.92682, "RENV": 180.0, "PENV": 1008.0, "VALIDT": 0, "DTG": "2024-11-14 12:00", "LATNOW": 22.2, "LONNOW": 120.6, "WINDNOW": 25.0, "DIRNOW": 1.0, "SPDNOW": 1.0, "TECH": "TRAK", "ADVNR": 22, "ATCFID": "WP272024", "NAME": "USAGI", "FTECH": "JTWC", "FCST_DTG": "2024-11-16 06:00:00", "RUN_DTG": "2024-11-16 21:11:42", "BASIN": "WP", "STMNR": 27, "CAT_ID": null, "CAT_DESC": null, "MSGID": "WTPN54 PGTW 160900", "VALIDTIME": "2024-11-14 12:00:00" }, "geometry": { "type": "Point", "coordinates": [ 121.599998, 18.799999 ] } },
{ "type": "Feature", "properties": { "ID": 287717, "LAT": 19.8, "LON": 120.5, "VMAX": 65.0, "MSLP": 966.0, "RMAX": 10.0, "FSPD": 3.88166, "FDIR": 338.0829, "RENV": 180.0, "PENV": 1008.0, "VALIDT": 0, "DTG": "2024-11-14 18:00", "LATNOW": 22.2, "LONNOW": 120.6, "WINDNOW": 25.0, "DIRNOW": 1.0, "SPDNOW": 1.0, "TECH": "TRAK", "ADVNR": 22, "ATCFID": "WP272024", "NAME": "USAGI", "FTECH": "JTWC", "FCST_DTG": "2024-11-16 06:00:00", "RUN_DTG": "2024-11-16 21:11:42", "BASIN": "WP", "STMNR": 27, "CAT_ID": null, "CAT_DESC": null, "MSGID": "WTPN54 PGTW 160900", "VALIDTIME": "2024-11-14 18:00:00" }, "geometry": { "type": "Point", "coordinates": [ 120.5, 19.799999 ] } },
{ "type": "Feature", "properties": { "ID": 287718, "LAT": 20.5, "LON": 120.2, "VMAX": 70.0, "MSLP": 985.0, "RMAX": 10.0, "FSPD": 4.92881, "FDIR": 316.9389, "RENV": 200.0, "PENV": 1008.0, "VALIDT": 0, "DTG": "2024-11-15 00:00", "LATNOW": 22.2, "LONNOW": 120.6, "WINDNOW": 25.0, "DIRNOW": 1.0, "SPDNOW": 1.0, "TECH": "TRAK", "ADVNR": 22, "ATCFID": "WP272024", "NAME": "USAGI", "FTECH": "JTWC", "FCST_DTG": "2024-11-16 06:00:00", "RUN_DTG": "2024-11-16 21:11:42", "BASIN": "WP", "STMNR": 27, "CAT_ID": null, "CAT_DESC": null, "MSGID": "WTPN54 PGTW 160900", "VALIDTIME": "2024-11-15 00:00:00" }, "geometry": { "type": "Point", "coordinates": [ 120.199997, 20.5 ] } },
{ "type": "Feature", "properties": { "ID": 287719, "LAT": 21.2, "LON": 119.5, "VMAX": 55.0, "MSLP": 977.0, "RMAX": 10.0, "FSPD": 1.61599, "FDIR": 17.24716, "RENV": 200.0, "PENV": 1008.0, "VALIDT": 0, "DTG": "2024-11-15 06:00", "LATNOW": 22.2, "LONNOW": 120.6, "WINDNOW": 25.0, "DIRNOW": 1.0, "SPDNOW": 1.0, "TECH": "TRAK", "ADVNR": 22, "ATCFID": "WP272024", "NAME": "USAGI", "FTECH": "JTWC", "FCST_DTG": "2024-11-16 06:00:00", "RUN_DTG": "2024-11-16 21:11:42", "BASIN": "WP", "STMNR": 27, "CAT_ID": null, "CAT_DESC": null, "MSGID": "WTPN54 PGTW 160900", "VALIDTIME": "2024-11-15 06:00:00" }, "geometry": { "type": "Point", "coordinates": [ 119.5, 21.200001 ] } },
{ "type": "Feature", "properties": { "ID": 287720, "LAT": 21.5, "LON": 119.6, "VMAX": 50.0, "MSLP": 991.0, "RMAX": 20.0, "FSPD": 4.53687, "FDIR": 24.88754, "RENV": 200.0, "PENV": 1008.0, "VALIDT": 0, "DTG": "2024-11-15 12:00", "LATNOW": 22.2, "LONNOW": 120.6, "WINDNOW": 25.0, "DIRNOW": 1.0, "SPDNOW": 1.0, "TECH": "TRAK", "ADVNR": 22, "ATCFID": "WP272024", "NAME": "USAGI", "FTECH": "JTWC", "FCST_DTG": "2024-11-16 06:00:00", "RUN_DTG": "2024-11-16 21:11:42", "BASIN": "WP", "STMNR": 27, "CAT_ID": null, "CAT_DESC": null, "MSGID": "WTPN54 PGTW 160900", "VALIDTIME": "2024-11-15 12:00:00" }, "geometry": { "type": "Point", "coordinates": [ 119.599998, 21.5 ] } },
{ "type": "Feature", "properties": { "ID": 287721, "LAT": 22.3, "LON": 120.0, "VMAX": 35.0, "MSLP": 993.0, "RMAX": 20.0, "FSPD": 1.75916, "FDIR": 54.20575, "RENV": 200.0, "PENV": 1008.0, "VALIDT": 0, "DTG": "2024-11-15 18:00", "LATNOW": 22.2, "LONNOW": 120.6, "WINDNOW": 25.0, "DIRNOW": 1.0, "SPDNOW": 1.0, "TECH": "TRAK", "ADVNR": 22, "ATCFID": "WP272024", "NAME": "USAGI", "FTECH": "JTWC", "FCST_DTG": "2024-11-16 06:00:00", "RUN_DTG": "2024-11-16 21:11:42", "BASIN": "WP", "STMNR": 27, "CAT_ID": null, "CAT_DESC": null, "MSGID": "WTPN54 PGTW 160900", "VALIDTIME": "2024-11-15 18:00:00" }, "geometry": { "type": "Point", "coordinates": [ 120.0, 22.299999 ] } },
{ "type": "Feature", "properties": { "ID": 287722, "LAT": 22.5, "LON": 120.3, "VMAX": 30.0, "MSLP": 998.0, "RMAX": 25.0, "FSPD": 2.1022, "FDIR": 137.23526, "RENV": 110.0, "PENV": 1008.0, "VALIDT": 0, "DTG": "2024-11-16 00:00", "LATNOW": 22.2, "LONNOW": 120.6, "WINDNOW": 25.0, "DIRNOW": 1.0, "SPDNOW": 1.0, "TECH": "TRAK", "ADVNR": 22, "ATCFID": "WP272024", "NAME": "USAGI", "FTECH": "JTWC", "FCST_DTG": "2024-11-16 06:00:00", "RUN_DTG": "2024-11-16 21:11:42", "BASIN": "WP", "STMNR": 27, "CAT_ID": null, "CAT_DESC": null, "MSGID": "WTPN54 PGTW 160900", "VALIDTIME": "2024-11-16 00:00:00" }, "geometry": { "type": "Point", "coordinates": [ 120.300003, 22.5 ] } },
{ "type": "Feature", "properties": { "ID": 287723, "LAT": 22.2, "LON": 120.6, "VMAX": 25.0, "MSLP": 1002.0, "RMAX": 25.0, "FSPD": 1.41787, "FDIR": 57.02722, "RENV": 80.0, "PENV": 1010.0, "VALIDT": 0, "DTG": "2024-11-16 06:00", "LATNOW": 22.2, "LONNOW": 120.6, "WINDNOW": 25.0, "DIRNOW": 1.0, "SPDNOW": 1.0, "TECH": "TRAK", "ADVNR": 22, "ATCFID": "WP272024", "NAME": "USAGI", "FTECH": "JTWC", "FCST_DTG": "2024-11-16 06:00:00", "RUN_DTG": "2024-11-16 21:11:42", "BASIN": "WP", "STMNR": 27, "CAT_ID": null, "CAT_DESC": null, "MSGID": "WTPN54 PGTW 160900", "VALIDTIME": "2024-11-16 06:00:00" }, "geometry": { "type": "Point", "coordinates": [ 120.599998, 22.200001 ] } },
{ "type": "Feature", "properties": { "ID": 287724, "LAT": 22.5, "LON": 121.1, "VMAX": 20.0, "MSLP": 1012.95825, "RMAX": 29.26141, "FSPD": 2.29449, "FDIR": 38.30432, "RENV": 250.0, "PENV": 1012.0, "VALIDT": 12, "DTG": "2024-11-16 18:00", "LATNOW": 22.2, "LONNOW": 120.6, "WINDNOW": 25.0, "DIRNOW": 1.0, "SPDNOW": 1.0, "TECH": "FCST", "ADVNR": 22, "ATCFID": "WP272024", "NAME": "USAGI", "FTECH": "JTWC", "FCST_DTG": "2024-11-16 06:00:00", "RUN_DTG": "2024-11-16 21:11:42", "BASIN": "WP", "STMNR": 27, "CAT_ID": null, "CAT_DESC": null, "MSGID": "WTPN54 PGTW 160900", "VALIDTIME": "2024-11-16 18:00:00" }, "geometry": { "type": "Point", "coordinates": [ 121.099998, 22.5 ] } },
{ "type": "Feature", "properties": { "ID": 287725, "LAT": 23.2, "LON": 121.7, "VMAX": 20.0, "MSLP": 1012.95825, "RMAX": 29.26141, "FSPD": 2.29449, "FDIR": 38.30432, "RENV": 250.0, "PENV": 1012.0, "VALIDT": 24, "DTG": "2024-11-17 06:00", "LATNOW": 22.2, "LONNOW": 120.6, "WINDNOW": 25.0, "DIRNOW": 1.0, "SPDNOW": 1.0, "TECH": "FCST", "ADVNR": 22, "ATCFID": "WP272024", "NAME": "USAGI", "FTECH": "JTWC", "FCST_DTG": "2024-11-16 06:00:00", "RUN_DTG": "2024-11-16 21:11:42", "BASIN": "WP", "STMNR": 27, "CAT_ID": null, "CAT_DESC": null, "MSGID": "WTPN54 PGTW 160900", "VALIDTIME": "2024-11-17 06:00:00" }, "geometry": { "type": "Point", "coordinates": [ 121.699997, 23.200001 ] } },
{ "type": "Feature", "properties": { "ID": 287723, "LAT": 22.2, "LON": 120.6, "VMAX": 25.0, "MSLP": 1002.0, "RMAX": 25.0, "FSPD": 1.41787, "FDIR": 57.02722, "RENV": 80.0, "PENV": 1010.0, "VALIDT": 0, "DTG": "2024-11-16 06:00", "LATNOW": 22.2, "LONNOW": 120.6, "WINDNOW": 25.0, "DIRNOW": 1.0, "SPDNOW": 1.0, "TECH": "TRAK", "ADVNR": 22, "ATCFID": "WP272024", "NAME": "USAGI", "FTECH": "JTWC", "FCST_DTG": "2024-11-16 06:00:00", "RUN_DTG": "2024-11-16 21:11:42", "BASIN": "WP", "STMNR": 27, "CAT_ID": null, "CAT_DESC": null, "MSGID": "WTPN54 PGTW 160900", "VALIDTIME": "2024-11-16 06:00:00" }, "geometry": { "type": "LineString", "coordinates": [ [ 148.2, 7.1 ], [ 147.2, 7.6 ], [ 146.2, 8.2 ], [ 145.4, 8.8 ], [ 144.0, 9.7 ], [ 142.5, 10.7 ], [ 140.7, 11.7 ], [ 139.2, 12.4 ], [ 138.0, 12.3 ], [ 136.5, 12.5 ], [ 135.0, 12.8 ], [ 133.8, 13.8 ], [ 131.7, 14.0 ], [ 130.4, 14.5 ], [ 128.9, 14.7 ], [ 127.7, 15.1 ], [ 126.5, 15.6 ], [ 125.3, 16.2 ], [ 124.0, 16.7 ], [ 123.1, 17.2 ], [ 122.1, 17.9 ], [ 121.6, 18.8 ], [ 120.5, 19.8 ], [ 120.2, 20.5 ], [ 119.5, 21.2 ], [ 119.6, 21.5 ], [ 120.0, 22.3 ], [ 120.3, 22.5 ], [ 120.6, 22.2 ] ] } },
{ "type": "Feature", "properties": { "ID": 287725, "LAT": 23.2, "LON": 121.7, "VMAX": 20.0, "MSLP": 1012.95825, "RMAX": 29.26141, "FSPD": 2.29449, "FDIR": 38.30432, "RENV": 250.0, "PENV": 1012.0, "VALIDT": 24, "DTG": "2024-11-17 06:00", "LATNOW": 22.2, "LONNOW": 120.6, "WINDNOW": 25.0, "DIRNOW": 1.0, "SPDNOW": 1.0, "TECH": "FCST", "ADVNR": 22, "ATCFID": "WP272024", "NAME": "USAGI", "FTECH": "JTWC", "FCST_DTG": "2024-11-16 06:00:00", "RUN_DTG": "2024-11-16 21:11:42", "BASIN": "WP", "STMNR": 27, "CAT_ID": null, "CAT_DESC": null, "MSGID": "WTPN54 PGTW 160900", "VALIDTIME": "2024-11-17 06:00:00" }, "geometry": { "type": "LineString", "coordinates": [ [ 120.6, 22.2 ], [ 121.1, 22.5 ], [ 121.7, 23.2 ] ] } }
]
}
