{
"type": "FeatureCollection",
"crs": { "type": "name", "properties": { "name": "urn:ogc:def:crs:OGC:1.3:CRS84" } },
"features": [
{ "type": "Feature", "properties": { "ID": 57464, "LAT": 37.1, "LON": -53.0, "VMAX": 30.0, "MSLP": 1011.0, "RMAX": 25.0, "FSPD": 13.55901, "FDIR": 92.17429, "RENV": 150.0, "PENV": 1013.0, "VALIDT": 0, "DTG": "2026-08-11 18:00", "LATNOW": 38.9, "LONNOW": -37.4, "WINDNOW": 25.0, "DIRNOW": 7.0, "SPDNOW": 1.0, "TECH": "TRAK", "ADVNR": 5, "ATCFID": "AL032026", "NAME": "CRISTOBAL", "FTECH": "OFCL", "FCST_DTG": "2026-08-13 12:00:00", "RUN_DTG": "2026-08-14 06:50:22", "BASIN": "AL", "STMNR": 3, "CAT_ID": null, "CAT_DESC": null, "MSGID": "WTNT23 KNHC 131458", "VALIDTIME": "2026-08-11 18:00:00" }, "geometry": { "type": "Point", "coordinates": [ -53.0, 37.099998 ] } },
{ "type": "Feature", "properties": { "ID": 57465, "LAT": 37.0, "LON": -49.7, "VMAX": 30.0, "MSLP": 1011.0, "RMAX": 60.0, "FSPD": 12.73647, "FDIR": 90.0, "RENV": 90.0, "PENV": 1013.0, "VALIDT": 0, "DTG": "2026-08-12 00:00", "LATNOW": 38.9, "LONNOW": -37.4, "WINDNOW": 25.0, "DIRNOW": 7.0, "SPDNOW": 1.0, "TECH": "TRAK", "ADVNR": 5, "ATCFID": "AL032026", "NAME": "CRISTOBAL", "FTECH": "OFCL", "FCST_DTG": "2026-08-13 12:00:00", "RUN_DTG": "2026-08-14 06:50:22", "BASIN": "AL", "STMNR": 3, "CAT_ID": null, "CAT_DESC": null, "MSGID": "WTNT23 KNHC 131458", "VALIDTIME": "2026-08-12 00:00:00" }, "geometry": { "type": "Point", "coordinates": [ -49.700001, 37.0 ] } },
{ "type": "Feature", "properties": { "ID": 57466, "LAT": 37.0, "LON": -46.6, "VMAX": 35.0, "MSLP": 1011.0, "RMAX": 35.0, "FSPD": 11.15516, "FDIR": 95.29211, "RENV": 90.0, "PENV": 1014.0, "VALIDT": 0, "DTG": "2026-08-12 06:00", "LATNOW": 38.9, "LONNOW": -37.4, "WINDNOW": 25.0, "DIRNOW": 7.0, "SPDNOW": 1.0, "TECH": "TRAK", "ADVNR": 5, "ATCFID": "AL032026", "NAME": "CRISTOBAL", "FTECH": "OFCL", "FCST_DTG": "2026-08-13 12:00:00", "RUN_DTG": "2026-08-14 06:50:22", "BASIN": "AL", "STMNR": 3, "CAT_ID": null, "CAT_DESC": null, "MSGID": "WTNT23 KNHC 131458", "VALIDTIME": "2026-08-12 06:00:00" }, "geometry": { "type": "Point", "coordinates": [ -46.599998, 37.0 ] } },
{ "type": "Feature", "properties": { "ID": 57467, "LAT": 36.8, "LON": -43.9, "VMAX": 40.0, "MSLP": 1008.0, "RMAX": 80.0, "FSPD": 8.66022, "FDIR": 86.59436, "RENV": 85.0, "PENV": 1013.0, "VALIDT": 0, "DTG": "2026-08-12 12:00", "LATNOW": 38.9, "LONNOW": -37.4, "WINDNOW": 25.0, "DIRNOW": 7.0, "SPDNOW": 1.0, "TECH": "TRAK", "ADVNR": 5, "ATCFID": "AL032026", "NAME": "CRISTOBAL", "FTECH": "OFCL", "FCST_DTG": "2026-08-13 12:00:00", "RUN_DTG": "2026-08-14 06:50:22", "BASIN": "AL", "STMNR": 3, "CAT_ID": null, "CAT_DESC": null, "MSGID": "WTNT23 KNHC 131458", "VALIDTIME": "2026-08-12 12:00:00" }, "geometry": { "type": "Point", "coordinates": [ -43.900002, 36.799999 ] } },
{ "type": "Feature", "properties": { "ID": 57468, "LAT": 36.9, "LON": -41.8, "VMAX": 40.0, "MSLP": 1008.0, "RMAX": 70.0, "FSPD": 6.87994, "FDIR": 72.59665, "RENV": 85.0, "PENV": 1013.0, "VALIDT": 0, "DTG": "2026-08-12 18:00", "LATNOW": 38.9, "LONNOW": -37.4, "WINDNOW": 25.0, "DIRNOW": 7.0, "SPDNOW": 1.0, "TECH": "TRAK", "ADVNR": 5, "ATCFID": "AL032026", "NAME": "CRISTOBAL", "FTECH": "OFCL", "FCST_DTG": "2026-08-13 12:00:00", "RUN_DTG": "2026-08-14 06:50:22", "BASIN": "AL", "STMNR": 3, "CAT_ID": null, "CAT_DESC": null, "MSGID": "WTNT23 KNHC 131458", "VALIDTIME": "2026-08-12 18:00:00" }, "geometry": { "type": "Point", "coordinates": [ -41.799999, 36.900002 ] } },
{ "type": "Feature", "properties": { "ID": 57469, "LAT": 37.3, "LON": -40.2, "VMAX": 35.0, "MSLP": 1011.0, "RMAX": 70.0, "FSPD": 7.02933, "FDIR": 54.1629, "RENV": 85.0, "PENV": 1016.0, "VALIDT": 0, "DTG": "2026-08-13 00:00", "LATNOW": 38.9, "LONNOW": -37.4, "WINDNOW": 25.0, "DIRNOW": 7.0, "SPDNOW": 1.0, "TECH": "TRAK", "ADVNR": 5, "ATCFID": "AL032026", "NAME": "CRISTOBAL", "FTECH": "OFCL", "FCST_DTG": "2026-08-13 12:00:00", "RUN_DTG": "2026-08-14 06:50:22", "BASIN": "AL", "STMNR": 3, "CAT_ID": null, "CAT_DESC": null, "MSGID": "WTNT23 KNHC 131458", "VALIDTIME": "2026-08-13 00:00:00" }, "geometry": { "type": "Point", "coordinates": [ -40.200001, 37.299999 ] } },
{ "type": "Feature", "properties": { "ID": 57470, "LAT": 38.1, "LON": -38.8, "VMAX": 30.0, "MSLP": 1014.0, "RMAX": 60.0, "FSPD": 6.97912, "FDIR": 53.86444, "RENV": 80.0, "PENV": 1016.0, "VALIDT": 0, "DTG": "2026-08-13 06:00", "LATNOW": 38.9, "LONNOW": -37.4, "WINDNOW": 25.0, "DIRNOW": 7.0, "SPDNOW": 1.0, "TECH": "TRAK", "ADVNR": 5, "ATCFID": "AL032026", "NAME": "CRISTOBAL", "FTECH": "OFCL", "FCST_DTG": "2026-08-13 12:00:00", "RUN_DTG": "2026-08-14 06:50:22", "BASIN": "AL", "STMNR": 3, "CAT_ID": null, "CAT_DESC": null, "MSGID": "WTNT23 KNHC 131458", "VALIDTIME": "2026-08-13 06:00:00" }, "geometry": { "type": "Point", "coordinates": [ -38.799999, 38.099998 ] } },
{ "type": "Feature", "properties": { "ID": 57471, "LAT": 38.9, "LON": -37.4, "VMAX": 25.0, "MSLP": 1018.0, "RMAX": 50.0, "FSPD": 7.02742, "FDIR": 42.94119, "RENV": 80.0, "PENV": 1019.0, "VALIDT": 0, "DTG": "2026-08-13 12:00", "LATNOW": 38.9, "LONNOW": -37.4, "WINDNOW": 25.0, "DIRNOW": 7.0, "SPDNOW": 1.0, "TECH": "TRAK", "ADVNR": 5, "ATCFID": "AL032026", "NAME": "CRISTOBAL", "FTECH": "OFCL", "FCST_DTG": "2026-08-13 12:00:00", "RUN_DTG": "2026-08-14 06:50:22", "BASIN": "AL", "STMNR": 3, "CAT_ID": null, "CAT_DESC": null, "MSGID": "WTNT23 KNHC 131458", "VALIDTIME": "2026-08-13 12:00:00" }, "geometry": { "type": "Point", "coordinates": [ -37.400002, 38.900002 ] } },
{ "type": "Feature", "properties": { "ID": 57472, "LAT": 39.4, "LON": -36.8, "VMAX": 25.0, "MSLP": 1018.0, "RMAX": 50.99706, "FSPD": 7.95761, "FDIR": 46.4032, "RENV": 250.0, "PENV": 1012.0, "VALIDT": 3, "DTG": "2026-08-13 15:00", "LATNOW": 38.9, "LONNOW": -37.4, "WINDNOW": 25.0, "DIRNOW": 7.0, "SPDNOW": 1.0, "TECH": "FCST", "ADVNR": 5, "ATCFID": "AL032026", "NAME": "CRISTOBAL", "FTECH": "OFCL", "FCST_DTG": "2026-08-13 12:00:00", "RUN_DTG": "2026-08-14 06:50:22", "BASIN": "AL", "STMNR": 3, "CAT_ID": null, "CAT_DESC": null, "MSGID": "WTNT23 KNHC 131458", "VALIDTIME": "2026-08-13 15:00:00" }, "geometry": { "type": "Point", "coordinates": [ -36.799999, 39.400002 ] } },
{ "type": "Feature", "properties": { "ID": 57473, "LAT": 41.0, "LON": -34.6, "VMAX": 20.0, "MSLP": 1012.95825, "RMAX": 54.39234, "FSPD": 7.95761, "FDIR": 46.4032, "RENV": 250.0, "PENV": 1012.0, "VALIDT": 12, "DTG": "2026-08-14 00:00", "LATNOW": 38.9, "LONNOW": -37.4, "WINDNOW": 25.0, "DIRNOW": 7.0, "SPDNOW": 1.0, "TECH": "FCST", "ADVNR": 5, "ATCFID": "AL032026", "NAME": "CRISTOBAL", "FTECH": "OFCL", "FCST_DTG": "2026-08-13 12:00:00", "RUN_DTG": "2026-08-14 06:50:22", "BASIN": "AL", "STMNR": 3, "CAT_ID": null, "CAT_DESC": null, "MSGID": "WTNT23 KNHC 131458", "VALIDTIME": "2026-08-14 00:00:00" }, "geometry": { "type": "Point", "coordinates": [ -34.599998, 41.0 ] } },
{ "type": "Feature", "properties": { "ID": 57471, "LAT": 38.9, "LON": -37.4, "VMAX": 25.0, "MSLP": 1018.0, "RMAX": 50.0, "FSPD": 7.02742, "FDIR": 42.94119, "RENV": 80.0, "PENV": 1019.0, "VALIDT": 0, "DTG": "2026-08-13 12:00", "LATNOW": 38.9, "LONNOW": -37.4, "WINDNOW": 25.0, "DIRNOW": 7.0, "SPDNOW": 1.0, "TECH": "TRAK", "ADVNR": 5, "ATCFID": "AL032026", "NAME": "CRISTOBAL", "FTECH": "OFCL", "FCST_DTG": "2026-08-13 12:00:00", "RUN_DTG": "2026-08-14 06:50:22", "BASIN": "AL", "STMNR": 3, "CAT_ID": null, "CAT_DESC": null, "MSGID": "WTNT23 KNHC 131458", "VALIDTIME": "2026-08-13 12:00:00" }, "geometry": { "type": "LineString", "coordinates": [ [ -53.0, 37.1 ], [ -49.7, 37.0 ], [ -46.6, 37.0 ], [ -43.9, 36.8 ], [ -41.8, 36.9 ], [ -40.2, 37.3 ], [ -38.8, 38.1 ], [ -37.4, 38.9 ] ] } },
{ "type": "Feature", "properties": { "ID": 57473, "LAT": 41.0, "LON": -34.6, "VMAX": 20.0, "MSLP": 1012.95825, "RMAX": 54.39234, "FSPD": 7.95761, "FDIR": 46.4032, "RENV": 250.0, "PENV": 1012.0, "VALIDT": 12, "DTG": "2026-08-14 00:00", "LATNOW": 38.9, "LONNOW": -37.4, "WINDNOW": 25.0, "DIRNOW": 7.0, "SPDNOW": 1.0, "TECH": "FCST", "ADVNR": 5, "ATCFID": "AL032026", "NAME": "CRISTOBAL", "FTECH": "OFCL", "FCST_DTG": "2026-08-13 12:00:00", "RUN_DTG": "2026-08-14 06:50:22", "BASIN": "AL", "STMNR": 3, "CAT_ID": null, "CAT_DESC": null, "MSGID": "WTNT23 KNHC 131458", "VALIDTIME": "2026-08-14 00:00:00" }, "geometry": { "type": "LineString", "coordinates": [ [ -37.4, 38.9 ], [ -36.8, 39.4 ], [ -34.6, 41.0 ] ] } }
]
}
