{
"type": "FeatureCollection",
"crs": { "type": "name", "properties": { "name": "urn:ogc:def:crs:OGC:1.3:CRS84" } },
"features": [
{ "type": "Feature", "properties": { "ID": 335893, "LAT": 14.8, "LON": 148.6, "VMAX": 15.0, "MSLP": 1013.8515, "RMAX": 40.0, "FSPD": 3.96167, "FDIR": 38.81882, "RENV": 500.0, "PENV": 1012.0, "VALIDT": 0, "DTG": "2025-06-29 12:00", "LATNOW": 39.3, "LONNOW": 149.1, "WINDNOW": 25.0, "DIRNOW": 9.0, "SPDNOW": 1.0, "TECH": "TRAK", "ADVNR": 26, "ATCFID": "WP042025", "NAME": "MUN", "FTECH": "JTWC", "FCST_DTG": "2025-07-08 00:00:00", "RUN_DTG": "2025-07-08 13:49:41", "BASIN": "WP", "STMNR": 4, "CAT_ID": null, "CAT_DESC": null, "MSGID": "WTPN51 PGTW 080300", "VALIDTIME": "2025-06-29 12:00:00" }, "geometry": { "type": "Point", "coordinates": [ 148.600006, 14.8 ] } },
{ "type": "Feature", "properties": { "ID": 335894, "LAT": 15.4, "LON": 149.1, "VMAX": 15.0, "MSLP": 1013.8515, "RMAX": 40.0, "FSPD": 5.07531, "FDIR": 35.81616, "RENV": 500.0, "PENV": 1012.0, "VALIDT": 0, "DTG": "2025-06-29 18:00", "LATNOW": 39.3, "LONNOW": 149.1, "WINDNOW": 25.0, "DIRNOW": 9.0, "SPDNOW": 1.0, "TECH": "TRAK", "ADVNR": 26, "ATCFID": "WP042025", "NAME": "MUN", "FTECH": "JTWC", "FCST_DTG": "2025-07-08 00:00:00", "RUN_DTG": "2025-07-08 13:49:41", "BASIN": "WP", "STMNR": 4, "CAT_ID": null, "CAT_DESC": null, "MSGID": "WTPN51 PGTW 080300", "VALIDTIME": "2025-06-29 18:00:00" }, "geometry": { "type": "Point", "coordinates": [ 149.100006, 15.4 ] } },
{ "type": "Feature", "properties": { "ID": 335895, "LAT": 16.2, "LON": 149.7, "VMAX": 15.0, "MSLP": 1013.8515, "RMAX": 40.0, "FSPD": 5.99215, "FDIR": 19.19894, "RENV": 500.0, "PENV": 1012.0, "VALIDT": 0, "DTG": "2025-06-30 00:00", "LATNOW": 39.3, "LONNOW": 149.1, "WINDNOW": 25.0, "DIRNOW": 9.0, "SPDNOW": 1.0, "TECH": "TRAK", "ADVNR": 26, "ATCFID": "WP042025", "NAME": "MUN", "FTECH": "JTWC", "FCST_DTG": "2025-07-08 00:00:00", "RUN_DTG": "2025-07-08 13:49:41", "BASIN": "WP", "STMNR": 4, "CAT_ID": null, "CAT_DESC": null, "MSGID": "WTPN51 PGTW 080300", "VALIDTIME": "2025-06-30 00:00:00" }, "geometry": { "type": "Point", "coordinates": [ 149.699997, 16.200001 ] } },
{ "type": "Feature", "properties": { "ID": 335896, "LAT": 17.3, "LON": 150.1, "VMAX": 15.0, "MSLP": 1013.8515, "RMAX": 40.0, "FSPD": 8.2559, "FDIR": 339.17725, "RENV": 500.0, "PENV": 1012.0, "VALIDT": 0, "DTG": "2025-06-30 06:00", "LATNOW": 39.3, "LONNOW": 149.1, "WINDNOW": 25.0, "DIRNOW": 9.0, "SPDNOW": 1.0, "TECH": "TRAK", "ADVNR": 26, "ATCFID": "WP042025", "NAME": "MUN", "FTECH": "JTWC", "FCST_DTG": "2025-07-08 00:00:00", "RUN_DTG": "2025-07-08 13:49:41", "BASIN": "WP", "STMNR": 4, "CAT_ID": null, "CAT_DESC": null, "MSGID": "WTPN51 PGTW 080300", "VALIDTIME": "2025-06-30 06:00:00" }, "geometry": { "type": "Point", "coordinates": [ 150.100006, 17.299999 ] } },
{ "type": "Feature", "properties": { "ID": 335897, "LAT": 18.8, "LON": 149.5, "VMAX": 25.0, "MSLP": 1011.80975, "RMAX": 45.0, "FSPD": 7.45886, "FDIR": 344.92664, "RENV": 500.0, "PENV": 1012.0, "VALIDT": 0, "DTG": "2025-06-30 12:00", "LATNOW": 39.3, "LONNOW": 149.1, "WINDNOW": 25.0, "DIRNOW": 9.0, "SPDNOW": 1.0, "TECH": "TRAK", "ADVNR": 26, "ATCFID": "WP042025", "NAME": "MUN", "FTECH": "JTWC", "FCST_DTG": "2025-07-08 00:00:00", "RUN_DTG": "2025-07-08 13:49:41", "BASIN": "WP", "STMNR": 4, "CAT_ID": null, "CAT_DESC": null, "MSGID": "WTPN51 PGTW 080300", "VALIDTIME": "2025-06-30 12:00:00" }, "geometry": { "type": "Point", "coordinates": [ 149.5, 18.799999 ] } },
{ "type": "Feature", "properties": { "ID": 335898, "LAT": 20.2, "LON": 149.1, "VMAX": 25.0, "MSLP": 1011.80975, "RMAX": 45.0, "FSPD": 6.02231, "FDIR": 320.2469, "RENV": 500.0, "PENV": 1012.0, "VALIDT": 0, "DTG": "2025-06-30 18:00", "LATNOW": 39.3, "LONNOW": 149.1, "WINDNOW": 25.0, "DIRNOW": 9.0, "SPDNOW": 1.0, "TECH": "TRAK", "ADVNR": 26, "ATCFID": "WP042025", "NAME": "MUN", "FTECH": "JTWC", "FCST_DTG": "2025-07-08 00:00:00", "RUN_DTG": "2025-07-08 13:49:41", "BASIN": "WP", "STMNR": 4, "CAT_ID": null, "CAT_DESC": null, "MSGID": "WTPN51 PGTW 080300", "VALIDTIME": "2025-06-30 18:00:00" }, "geometry": { "type": "Point", "coordinates": [ 149.100006, 20.200001 ] } },
{ "type": "Feature", "properties": { "ID": 335899, "LAT": 21.1, "LON": 148.3, "VMAX": 25.0, "MSLP": 1011.80975, "RMAX": 45.0, "FSPD": 7.2653, "FDIR": 352.44446, "RENV": 500.0, "PENV": 1012.0, "VALIDT": 0, "DTG": "2025-07-01 00:00", "LATNOW": 39.3, "LONNOW": 149.1, "WINDNOW": 25.0, "DIRNOW": 9.0, "SPDNOW": 1.0, "TECH": "TRAK", "ADVNR": 26, "ATCFID": "WP042025", "NAME": "MUN", "FTECH": "JTWC", "FCST_DTG": "2025-07-08 00:00:00", "RUN_DTG": "2025-07-08 13:49:41", "BASIN": "WP", "STMNR": 4, "CAT_ID": null, "CAT_DESC": null, "MSGID": "WTPN51 PGTW 080300", "VALIDTIME": "2025-07-01 00:00:00" }, "geometry": { "type": "Point", "coordinates": [ 148.300003, 21.1 ] } },
{ "type": "Feature", "properties": { "ID": 335900, "LAT": 22.5, "LON": 148.1, "VMAX": 25.0, "MSLP": 1011.80975, "RMAX": 45.0, "FSPD": 4.72596, "FDIR": 348.4344, "RENV": 500.0, "PENV": 1012.0, "VALIDT": 0, "DTG": "2025-07-01 06:00", "LATNOW": 39.3, "LONNOW": 149.1, "WINDNOW": 25.0, "DIRNOW": 9.0, "SPDNOW": 1.0, "TECH": "TRAK", "ADVNR": 26, "ATCFID": "WP042025", "NAME": "MUN", "FTECH": "JTWC", "FCST_DTG": "2025-07-08 00:00:00", "RUN_DTG": "2025-07-08 13:49:41", "BASIN": "WP", "STMNR": 4, "CAT_ID": null, "CAT_DESC": null, "MSGID": "WTPN51 PGTW 080300", "VALIDTIME": "2025-07-01 06:00:00" }, "geometry": { "type": "Point", "coordinates": [ 148.100006, 22.5 ] } },
{ "type": "Feature", "properties": { "ID": 335901, "LAT": 23.4, "LON": 147.9, "VMAX": 30.0, "MSLP": 1010.40607, "RMAX": 44.21983, "FSPD": 4.35105, "FDIR": 341.0631, "RENV": 500.0, "PENV": 1012.0, "VALIDT": 0, "DTG": "2025-07-01 12:00", "LATNOW": 39.3, "LONNOW": 149.1, "WINDNOW": 25.0, "DIRNOW": 9.0, "SPDNOW": 1.0, "TECH": "TRAK", "ADVNR": 26, "ATCFID": "WP042025", "NAME": "MUN", "FTECH": "JTWC", "FCST_DTG": "2025-07-08 00:00:00", "RUN_DTG": "2025-07-08 13:49:41", "BASIN": "WP", "STMNR": 4, "CAT_ID": null, "CAT_DESC": null, "MSGID": "WTPN51 PGTW 080300", "VALIDTIME": "2025-07-01 12:00:00" }, "geometry": { "type": "Point", "coordinates": [ 147.899994, 23.4 ] } },
{ "type": "Feature", "properties": { "ID": 335902, "LAT": 24.2, "LON": 147.6, "VMAX": 30.0, "MSLP": 1003.0, "RMAX": 60.0, "FSPD": 4.22055, "FDIR": 347.193, "RENV": 110.0, "PENV": 1008.0, "VALIDT": 0, "DTG": "2025-07-01 18:00", "LATNOW": 39.3, "LONNOW": 149.1, "WINDNOW": 25.0, "DIRNOW": 9.0, "SPDNOW": 1.0, "TECH": "TRAK", "ADVNR": 26, "ATCFID": "WP042025", "NAME": "MUN", "FTECH": "JTWC", "FCST_DTG": "2025-07-08 00:00:00", "RUN_DTG": "2025-07-08 13:49:41", "BASIN": "WP", "STMNR": 4, "CAT_ID": null, "CAT_DESC": null, "MSGID": "WTPN51 PGTW 080300", "VALIDTIME": "2025-07-01 18:00:00" }, "geometry": { "type": "Point", "coordinates": [ 147.600006, 24.200001 ] } },
{ "type": "Feature", "properties": { "ID": 335903, "LAT": 25.0, "LON": 147.4, "VMAX": 30.0, "MSLP": 1003.0, "RMAX": 60.0, "FSPD": 4.55509, "FDIR": 322.2388, "RENV": 110.0, "PENV": 1008.0, "VALIDT": 0, "DTG": "2025-07-02 00:00", "LATNOW": 39.3, "LONNOW": 149.1, "WINDNOW": 25.0, "DIRNOW": 9.0, "SPDNOW": 1.0, "TECH": "TRAK", "ADVNR": 26, "ATCFID": "WP042025", "NAME": "MUN", "FTECH": "JTWC", "FCST_DTG": "2025-07-08 00:00:00", "RUN_DTG": "2025-07-08 13:49:41", "BASIN": "WP", "STMNR": 4, "CAT_ID": null, "CAT_DESC": null, "MSGID": "WTPN51 PGTW 080300", "VALIDTIME": "2025-07-02 00:00:00" }, "geometry": { "type": "Point", "coordinates": [ 147.399994, 25.0 ] } },
{ "type": "Feature", "properties": { "ID": 335904, "LAT": 25.7, "LON": 146.8, "VMAX": 30.0, "MSLP": 1002.0, "RMAX": 60.0, "FSPD": 3.45915, "FDIR": 318.03888, "RENV": 100.0, "PENV": 1009.0, "VALIDT": 0, "DTG": "2025-07-02 06:00", "LATNOW": 39.3, "LONNOW": 149.1, "WINDNOW": 25.0, "DIRNOW": 9.0, "SPDNOW": 1.0, "TECH": "TRAK", "ADVNR": 26, "ATCFID": "WP042025", "NAME": "MUN", "FTECH": "JTWC", "FCST_DTG": "2025-07-08 00:00:00", "RUN_DTG": "2025-07-08 13:49:41", "BASIN": "WP", "STMNR": 4, "CAT_ID": null, "CAT_DESC": null, "MSGID": "WTPN51 PGTW 080300", "VALIDTIME": "2025-07-02 06:00:00" }, "geometry": { "type": "Point", "coordinates": [ 146.800003, 25.700001 ] } },
{ "type": "Feature", "properties": { "ID": 335905, "LAT": 26.2, "LON": 146.3, "VMAX": 35.0, "MSLP": 1001.0, "RMAX": 60.0, "FSPD": 4.46246, "FDIR": 313.76437, "RENV": 130.0, "PENV": 1008.0, "VALIDT": 0, "DTG": "2025-07-02 12:00", "LATNOW": 39.3, "LONNOW": 149.1, "WINDNOW": 25.0, "DIRNOW": 9.0, "SPDNOW": 1.0, "TECH": "TRAK", "ADVNR": 26, "ATCFID": "WP042025", "NAME": "MUN", "FTECH": "JTWC", "FCST_DTG": "2025-07-08 00:00:00", "RUN_DTG": "2025-07-08 13:49:41", "BASIN": "WP", "STMNR": 4, "CAT_ID": null, "CAT_DESC": null, "MSGID": "WTPN51 PGTW 080300", "VALIDTIME": "2025-07-02 12:00:00" }, "geometry": { "type": "Point", "coordinates": [ 146.300003, 26.200001 ] } },
{ "type": "Feature", "properties": { "ID": 335906, "LAT": 26.8, "LON": 145.6, "VMAX": 35.0, "MSLP": 1002.0, "RMAX": 40.0, "FSPD": 1.37864, "FDIR": 318.27185, "RENV": 145.0, "PENV": 1008.0, "VALIDT": 0, "DTG": "2025-07-02 18:00", "LATNOW": 39.3, "LONNOW": 149.1, "WINDNOW": 25.0, "DIRNOW": 9.0, "SPDNOW": 1.0, "TECH": "TRAK", "ADVNR": 26, "ATCFID": "WP042025", "NAME": "MUN", "FTECH": "JTWC", "FCST_DTG": "2025-07-08 00:00:00", "RUN_DTG": "2025-07-08 13:49:41", "BASIN": "WP", "STMNR": 4, "CAT_ID": null, "CAT_DESC": null, "MSGID": "WTPN51 PGTW 080300", "VALIDTIME": "2025-07-02 18:00:00" }, "geometry": { "type": "Point", "coordinates": [ 145.600006, 26.799999 ] } },
{ "type": "Feature", "properties": { "ID": 335907, "LAT": 27.0, "LON": 145.4, "VMAX": 40.0, "MSLP": 1000.0, "RMAX": 20.0, "FSPD": 3.08667, "FDIR": 360.0, "RENV": 155.0, "PENV": 1007.0, "VALIDT": 0, "DTG": "2025-07-03 00:00", "LATNOW": 39.3, "LONNOW": 149.1, "WINDNOW": 25.0, "DIRNOW": 9.0, "SPDNOW": 1.0, "TECH": "TRAK", "ADVNR": 26, "ATCFID": "WP042025", "NAME": "MUN", "FTECH": "JTWC", "FCST_DTG": "2025-07-08 00:00:00", "RUN_DTG": "2025-07-08 13:49:41", "BASIN": "WP", "STMNR": 4, "CAT_ID": null, "CAT_DESC": null, "MSGID": "WTPN51 PGTW 080300", "VALIDTIME": "2025-07-03 00:00:00" }, "geometry": { "type": "Point", "coordinates": [ 145.399994, 27.0 ] } },
{ "type": "Feature", "properties": { "ID": 335908, "LAT": 27.6, "LON": 145.4, "VMAX": 50.0, "MSLP": 995.0, "RMAX": 20.0, "FSPD": 3.62967, "FDIR": 7.19281, "RENV": 165.0, "PENV": 1008.0, "VALIDT": 0, "DTG": "2025-07-03 06:00", "LATNOW": 39.3, "LONNOW": 149.1, "WINDNOW": 25.0, "DIRNOW": 9.0, "SPDNOW": 1.0, "TECH": "TRAK", "ADVNR": 26, "ATCFID": "WP042025", "NAME": "MUN", "FTECH": "JTWC", "FCST_DTG": "2025-07-08 00:00:00", "RUN_DTG": "2025-07-08 13:49:41", "BASIN": "WP", "STMNR": 4, "CAT_ID": null, "CAT_DESC": null, "MSGID": "WTPN51 PGTW 080300", "VALIDTIME": "2025-07-03 06:00:00" }, "geometry": { "type": "Point", "coordinates": [ 145.399994, 27.6 ] } },
{ "type": "Feature", "properties": { "ID": 335909, "LAT": 28.3, "LON": 145.5, "VMAX": 60.0, "MSLP": 989.0, "RMAX": 20.0, "FSPD": 4.25011, "FDIR": 327.9192, "RENV": 165.0, "PENV": 1008.0, "VALIDT": 0, "DTG": "2025-07-03 12:00", "LATNOW": 39.3, "LONNOW": 149.1, "WINDNOW": 25.0, "DIRNOW": 9.0, "SPDNOW": 1.0, "TECH": "TRAK", "ADVNR": 26, "ATCFID": "WP042025", "NAME": "MUN", "FTECH": "JTWC", "FCST_DTG": "2025-07-08 00:00:00", "RUN_DTG": "2025-07-08 13:49:41", "BASIN": "WP", "STMNR": 4, "CAT_ID": null, "CAT_DESC": null, "MSGID": "WTPN51 PGTW 080300", "VALIDTIME": "2025-07-03 12:00:00" }, "geometry": { "type": "Point", "coordinates": [ 145.5, 28.299999 ] } },
{ "type": "Feature", "properties": { "ID": 335910, "LAT": 29.0, "LON": 145.0, "VMAX": 60.0, "MSLP": 982.0, "RMAX": 15.0, "FSPD": 3.21443, "FDIR": 343.79163, "RENV": 165.0, "PENV": 1008.0, "VALIDT": 0, "DTG": "2025-07-03 18:00", "LATNOW": 39.3, "LONNOW": 149.1, "WINDNOW": 25.0, "DIRNOW": 9.0, "SPDNOW": 1.0, "TECH": "TRAK", "ADVNR": 26, "ATCFID": "WP042025", "NAME": "MUN", "FTECH": "JTWC", "FCST_DTG": "2025-07-08 00:00:00", "RUN_DTG": "2025-07-08 13:49:41", "BASIN": "WP", "STMNR": 4, "CAT_ID": null, "CAT_DESC": null, "MSGID": "WTPN51 PGTW 080300", "VALIDTIME": "2025-07-03 18:00:00" }, "geometry": { "type": "Point", "coordinates": [ 145.0, 29.0 ] } },
{ "type": "Feature", "properties": { "ID": 335911, "LAT": 29.6, "LON": 144.8, "VMAX": 55.0, "MSLP": 982.0, "RMAX": 15.0, "FSPD": 2.61063, "FDIR": 9.84006, "RENV": 170.0, "PENV": 1006.0, "VALIDT": 0, "DTG": "2025-07-04 00:00", "LATNOW": 39.3, "LONNOW": 149.1, "WINDNOW": 25.0, "DIRNOW": 9.0, "SPDNOW": 1.0, "TECH": "TRAK", "ADVNR": 26, "ATCFID": "WP042025", "NAME": "MUN", "FTECH": "JTWC", "FCST_DTG": "2025-07-08 00:00:00", "RUN_DTG": "2025-07-08 13:49:41", "BASIN": "WP", "STMNR": 4, "CAT_ID": null, "CAT_DESC": null, "MSGID": "WTPN51 PGTW 080300", "VALIDTIME": "2025-07-04 00:00:00" }, "geometry": { "type": "Point", "coordinates": [ 144.800003, 29.6 ] } },
{ "type": "Feature", "properties": { "ID": 335912, "LAT": 30.1, "LON": 144.9, "VMAX": 55.0, "MSLP": 982.0, "RMAX": 20.0, "FSPD": 1.8523, "FDIR": 73.875, "RENV": 190.0, "PENV": 1008.0, "VALIDT": 0, "DTG": "2025-07-04 06:00", "LATNOW": 39.3, "LONNOW": 149.1, "WINDNOW": 25.0, "DIRNOW": 9.0, "SPDNOW": 1.0, "TECH": "TRAK", "ADVNR": 26, "ATCFID": "WP042025", "NAME": "MUN", "FTECH": "JTWC", "FCST_DTG": "2025-07-08 00:00:00", "RUN_DTG": "2025-07-08 13:49:41", "BASIN": "WP", "STMNR": 4, "CAT_ID": null, "CAT_DESC": null, "MSGID": "WTPN51 PGTW 080300", "VALIDTIME": "2025-07-04 06:00:00" }, "geometry": { "type": "Point", "coordinates": [ 144.899994, 30.1 ] } },
{ "type": "Feature", "properties": { "ID": 335913, "LAT": 30.2, "LON": 145.3, "VMAX": 55.0, "MSLP": 985.0, "RMAX": 20.0, "FSPD": 4.03158, "FDIR": 50.3558, "RENV": 190.0, "PENV": 1008.0, "VALIDT": 0, "DTG": "2025-07-04 12:00", "LATNOW": 39.3, "LONNOW": 149.1, "WINDNOW": 25.0, "DIRNOW": 9.0, "SPDNOW": 1.0, "TECH": "TRAK", "ADVNR": 26, "ATCFID": "WP042025", "NAME": "MUN", "FTECH": "JTWC", "FCST_DTG": "2025-07-08 00:00:00", "RUN_DTG": "2025-07-08 13:49:41", "BASIN": "WP", "STMNR": 4, "CAT_ID": null, "CAT_DESC": null, "MSGID": "WTPN51 PGTW 080300", "VALIDTIME": "2025-07-04 12:00:00" }, "geometry": { "type": "Point", "coordinates": [ 145.300003, 30.200001 ] } },
{ "type": "Feature", "properties": { "ID": 335914, "LAT": 30.7, "LON": 146.0, "VMAX": 50.0, "MSLP": 984.0, "RMAX": 20.0, "FSPD": 2.03407, "FDIR": 40.64685, "RENV": 210.0, "PENV": 1008.0, "VALIDT": 0, "DTG": "2025-07-04 18:00", "LATNOW": 39.3, "LONNOW": 149.1, "WINDNOW": 25.0, "DIRNOW": 9.0, "SPDNOW": 1.0, "TECH": "TRAK", "ADVNR": 26, "ATCFID": "WP042025", "NAME": "MUN", "FTECH": "JTWC", "FCST_DTG": "2025-07-08 00:00:00", "RUN_DTG": "2025-07-08 13:49:41", "BASIN": "WP", "STMNR": 4, "CAT_ID": null, "CAT_DESC": null, "MSGID": "WTPN51 PGTW 080300", "VALIDTIME": "2025-07-04 18:00:00" }, "geometry": { "type": "Point", "coordinates": [ 146.0, 30.700001 ] } },
{ "type": "Feature", "properties": { "ID": 335915, "LAT": 31.0, "LON": 146.3, "VMAX": 55.0, "MSLP": 985.0, "RMAX": 20.0, "FSPD": 3.56321, "FDIR": 81.69879, "RENV": 190.0, "PENV": 1006.0, "VALIDT": 0, "DTG": "2025-07-05 00:00", "LATNOW": 39.3, "LONNOW": 149.1, "WINDNOW": 25.0, "DIRNOW": 9.0, "SPDNOW": 1.0, "TECH": "TRAK", "ADVNR": 26, "ATCFID": "WP042025", "NAME": "MUN", "FTECH": "JTWC", "FCST_DTG": "2025-07-08 00:00:00", "RUN_DTG": "2025-07-08 13:49:41", "BASIN": "WP", "STMNR": 4, "CAT_ID": null, "CAT_DESC": null, "MSGID": "WTPN51 PGTW 080300", "VALIDTIME": "2025-07-05 00:00:00" }, "geometry": { "type": "Point", "coordinates": [ 146.300003, 31.0 ] } },
{ "type": "Feature", "properties": { "ID": 335916, "LAT": 31.1, "LON": 147.1, "VMAX": 55.0, "MSLP": 982.0, "RMAX": 20.0, "FSPD": 4.09178, "FDIR": 75.43658, "RENV": 170.0, "PENV": 1006.0, "VALIDT": 0, "DTG": "2025-07-05 06:00", "LATNOW": 39.3, "LONNOW": 149.1, "WINDNOW": 25.0, "DIRNOW": 9.0, "SPDNOW": 1.0, "TECH": "TRAK", "ADVNR": 26, "ATCFID": "WP042025", "NAME": "MUN", "FTECH": "JTWC", "FCST_DTG": "2025-07-08 00:00:00", "RUN_DTG": "2025-07-08 13:49:41", "BASIN": "WP", "STMNR": 4, "CAT_ID": null, "CAT_DESC": null, "MSGID": "WTPN51 PGTW 080300", "VALIDTIME": "2025-07-05 06:00:00" }, "geometry": { "type": "Point", "coordinates": [ 147.100006, 31.1 ] } },
{ "type": "Feature", "properties": { "ID": 335917, "LAT": 31.3, "LON": 148.0, "VMAX": 55.0, "MSLP": 982.0, "RMAX": 20.0, "FSPD": 3.69622, "FDIR": 56.17029, "RENV": 210.0, "PENV": 1006.0, "VALIDT": 0, "DTG": "2025-07-05 12:00", "LATNOW": 39.3, "LONNOW": 149.1, "WINDNOW": 25.0, "DIRNOW": 9.0, "SPDNOW": 1.0, "TECH": "TRAK", "ADVNR": 26, "ATCFID": "WP042025", "NAME": "MUN", "FTECH": "JTWC", "FCST_DTG": "2025-07-08 00:00:00", "RUN_DTG": "2025-07-08 13:49:41", "BASIN": "WP", "STMNR": 4, "CAT_ID": null, "CAT_DESC": null, "MSGID": "WTPN51 PGTW 080300", "VALIDTIME": "2025-07-05 12:00:00" }, "geometry": { "type": "Point", "coordinates": [ 148.0, 31.299999 ] } },
{ "type": "Feature", "properties": { "ID": 335918, "LAT": 31.7, "LON": 148.7, "VMAX": 50.0, "MSLP": 982.0, "RMAX": 25.0, "FSPD": 3.10888, "FDIR": 34.16959, "RENV": 200.0, "PENV": 1005.0, "VALIDT": 0, "DTG": "2025-07-05 18:00", "LATNOW": 39.3, "LONNOW": 149.1, "WINDNOW": 25.0, "DIRNOW": 9.0, "SPDNOW": 1.0, "TECH": "TRAK", "ADVNR": 26, "ATCFID": "WP042025", "NAME": "MUN", "FTECH": "JTWC", "FCST_DTG": "2025-07-08 00:00:00", "RUN_DTG": "2025-07-08 13:49:41", "BASIN": "WP", "STMNR": 4, "CAT_ID": null, "CAT_DESC": null, "MSGID": "WTPN51 PGTW 080300", "VALIDTIME": "2025-07-05 18:00:00" }, "geometry": { "type": "Point", "coordinates": [ 148.699997, 31.700001 ] } },
{ "type": "Feature", "properties": { "ID": 335919, "LAT": 32.2, "LON": 149.1, "VMAX": 50.0, "MSLP": 983.0, "RMAX": 25.0, "FSPD": 2.88311, "FDIR": 26.85287, "RENV": 180.0, "PENV": 1004.0, "VALIDT": 0, "DTG": "2025-07-06 00:00", "LATNOW": 39.3, "LONNOW": 149.1, "WINDNOW": 25.0, "DIRNOW": 9.0, "SPDNOW": 1.0, "TECH": "TRAK", "ADVNR": 26, "ATCFID": "WP042025", "NAME": "MUN", "FTECH": "JTWC", "FCST_DTG": "2025-07-08 00:00:00", "RUN_DTG": "2025-07-08 13:49:41", "BASIN": "WP", "STMNR": 4, "CAT_ID": null, "CAT_DESC": null, "MSGID": "WTPN51 PGTW 080300", "VALIDTIME": "2025-07-06 00:00:00" }, "geometry": { "type": "Point", "coordinates": [ 149.100006, 32.200001 ] } },
{ "type": "Feature", "properties": { "ID": 335920, "LAT": 32.7, "LON": 149.4, "VMAX": 50.0, "MSLP": 983.0, "RMAX": 35.0, "FSPD": 4.20485, "FDIR": 11.82916, "RENV": 160.0, "PENV": 1004.0, "VALIDT": 0, "DTG": "2025-07-06 06:00", "LATNOW": 39.3, "LONNOW": 149.1, "WINDNOW": 25.0, "DIRNOW": 9.0, "SPDNOW": 1.0, "TECH": "TRAK", "ADVNR": 26, "ATCFID": "WP042025", "NAME": "MUN", "FTECH": "JTWC", "FCST_DTG": "2025-07-08 00:00:00", "RUN_DTG": "2025-07-08 13:49:41", "BASIN": "WP", "STMNR": 4, "CAT_ID": null, "CAT_DESC": null, "MSGID": "WTPN51 PGTW 080300", "VALIDTIME": "2025-07-06 06:00:00" }, "geometry": { "type": "Point", "coordinates": [ 149.399994, 32.700001 ] } },
{ "type": "Feature", "properties": { "ID": 335921, "LAT": 33.5, "LON": 149.6, "VMAX": 50.0, "MSLP": 982.0, "RMAX": 30.0, "FSPD": 3.34249, "FDIR": 337.43723, "RENV": 155.0, "PENV": 1003.0, "VALIDT": 0, "DTG": "2025-07-06 12:00", "LATNOW": 39.3, "LONNOW": 149.1, "WINDNOW": 25.0, "DIRNOW": 9.0, "SPDNOW": 1.0, "TECH": "TRAK", "ADVNR": 26, "ATCFID": "WP042025", "NAME": "MUN", "FTECH": "JTWC", "FCST_DTG": "2025-07-08 00:00:00", "RUN_DTG": "2025-07-08 13:49:41", "BASIN": "WP", "STMNR": 4, "CAT_ID": null, "CAT_DESC": null, "MSGID": "WTPN51 PGTW 080300", "VALIDTIME": "2025-07-06 12:00:00" }, "geometry": { "type": "Point", "coordinates": [ 149.600006, 33.5 ] } },
{ "type": "Feature", "properties": { "ID": 335922, "LAT": 34.1, "LON": 149.3, "VMAX": 50.0, "MSLP": 982.0, "RMAX": 30.0, "FSPD": 4.93048, "FDIR": 339.894, "RENV": 145.0, "PENV": 1004.0, "VALIDT": 0, "DTG": "2025-07-06 18:00", "LATNOW": 39.3, "LONNOW": 149.1, "WINDNOW": 25.0, "DIRNOW": 9.0, "SPDNOW": 1.0, "TECH": "TRAK", "ADVNR": 26, "ATCFID": "WP042025", "NAME": "MUN", "FTECH": "JTWC", "FCST_DTG": "2025-07-08 00:00:00", "RUN_DTG": "2025-07-08 13:49:41", "BASIN": "WP", "STMNR": 4, "CAT_ID": null, "CAT_DESC": null, "MSGID": "WTPN51 PGTW 080300", "VALIDTIME": "2025-07-06 18:00:00" }, "geometry": { "type": "Point", "coordinates": [ 149.300003, 34.099998 ] } },
{ "type": "Feature", "properties": { "ID": 335923, "LAT": 35.0, "LON": 148.9, "VMAX": 45.0, "MSLP": 982.0, "RMAX": 30.0, "FSPD": 4.82369, "FDIR": 328.561, "RENV": 145.0, "PENV": 1004.0, "VALIDT": 0, "DTG": "2025-07-07 00:00", "LATNOW": 39.3, "LONNOW": 149.1, "WINDNOW": 25.0, "DIRNOW": 9.0, "SPDNOW": 1.0, "TECH": "TRAK", "ADVNR": 26, "ATCFID": "WP042025", "NAME": "MUN", "FTECH": "JTWC", "FCST_DTG": "2025-07-08 00:00:00", "RUN_DTG": "2025-07-08 13:49:41", "BASIN": "WP", "STMNR": 4, "CAT_ID": null, "CAT_DESC": null, "MSGID": "WTPN51 PGTW 080300", "VALIDTIME": "2025-07-07 00:00:00" }, "geometry": { "type": "Point", "coordinates": [ 148.899994, 35.0 ] } },
{ "type": "Feature", "properties": { "ID": 335924, "LAT": 35.8, "LON": 148.3, "VMAX": 35.0, "MSLP": 986.0, "RMAX": 30.0, "FSPD": 4.79438, "FDIR": 344.9536, "RENV": 130.0, "PENV": 1005.0, "VALIDT": 0, "DTG": "2025-07-07 06:00", "LATNOW": 39.3, "LONNOW": 149.1, "WINDNOW": 25.0, "DIRNOW": 9.0, "SPDNOW": 1.0, "TECH": "TRAK", "ADVNR": 26, "ATCFID": "WP042025", "NAME": "MUN", "FTECH": "JTWC", "FCST_DTG": "2025-07-08 00:00:00", "RUN_DTG": "2025-07-08 13:49:41", "BASIN": "WP", "STMNR": 4, "CAT_ID": null, "CAT_DESC": null, "MSGID": "WTPN51 PGTW 080300", "VALIDTIME": "2025-07-07 06:00:00" }, "geometry": { "type": "Point", "coordinates": [ 148.300003, 35.799999 ] } },
{ "type": "Feature", "properties": { "ID": 335925, "LAT": 36.7, "LON": 148.0, "VMAX": 30.0, "MSLP": 996.0, "RMAX": 35.0, "FSPD": 6.79938, "FDIR": 10.39536, "RENV": 115.0, "PENV": 1005.0, "VALIDT": 0, "DTG": "2025-07-07 12:00", "LATNOW": 39.3, "LONNOW": 149.1, "WINDNOW": 25.0, "DIRNOW": 9.0, "SPDNOW": 1.0, "TECH": "TRAK", "ADVNR": 26, "ATCFID": "WP042025", "NAME": "MUN", "FTECH": "JTWC", "FCST_DTG": "2025-07-08 00:00:00", "RUN_DTG": "2025-07-08 13:49:41", "BASIN": "WP", "STMNR": 4, "CAT_ID": null, "CAT_DESC": null, "MSGID": "WTPN51 PGTW 080300", "VALIDTIME": "2025-07-07 12:00:00" }, "geometry": { "type": "Point", "coordinates": [ 148.0, 36.700001 ] } },
{ "type": "Feature", "properties": { "ID": 335926, "LAT": 38.0, "LON": 148.3, "VMAX": 25.0, "MSLP": 1003.0, "RMAX": 30.0, "FSPD": 7.42005, "FDIR": 25.66907, "RENV": 115.0, "PENV": 1007.0, "VALIDT": 0, "DTG": "2025-07-07 18:00", "LATNOW": 39.3, "LONNOW": 149.1, "WINDNOW": 25.0, "DIRNOW": 9.0, "SPDNOW": 1.0, "TECH": "TRAK", "ADVNR": 26, "ATCFID": "WP042025", "NAME": "MUN", "FTECH": "JTWC", "FCST_DTG": "2025-07-08 00:00:00", "RUN_DTG": "2025-07-08 13:49:41", "BASIN": "WP", "STMNR": 4, "CAT_ID": null, "CAT_DESC": null, "MSGID": "WTPN51 PGTW 080300", "VALIDTIME": "2025-07-07 18:00:00" }, "geometry": { "type": "Point", "coordinates": [ 148.300003, 38.0 ] } },
{ "type": "Feature", "properties": { "ID": 335927, "LAT": 39.3, "LON": 149.1, "VMAX": 25.0, "MSLP": 1011.80975, "RMAX": 45.0, "FSPD": 8.97042, "FDIR": 44.20398, "RENV": 500.0, "PENV": 1012.0, "VALIDT": 0, "DTG": "2025-07-08 00:00", "LATNOW": 39.3, "LONNOW": 149.1, "WINDNOW": 25.0, "DIRNOW": 9.0, "SPDNOW": 1.0, "TECH": "TRAK", "ADVNR": 26, "ATCFID": "WP042025", "NAME": "MUN", "FTECH": "JTWC", "FCST_DTG": "2025-07-08 00:00:00", "RUN_DTG": "2025-07-08 13:49:41", "BASIN": "WP", "STMNR": 4, "CAT_ID": null, "CAT_DESC": null, "MSGID": "WTPN51 PGTW 080300", "VALIDTIME": "2025-07-08 00:00:00" }, "geometry": { "type": "Point", "coordinates": [ 149.100006, 39.299999 ] } },
{ "type": "Feature", "properties": { "ID": 335928, "LAT": 41.8, "LON": 152.3, "VMAX": 25.0, "MSLP": 1011.80975, "RMAX": 45.0, "FSPD": 7.50969, "FDIR": 59.08405, "RENV": 250.0, "PENV": 1012.0, "VALIDT": 12, "DTG": "2025-07-08 12:00", "LATNOW": 39.3, "LONNOW": 149.1, "WINDNOW": 25.0, "DIRNOW": 9.0, "SPDNOW": 1.0, "TECH": "FCST", "ADVNR": 26, "ATCFID": "WP042025", "NAME": "MUN", "FTECH": "JTWC", "FCST_DTG": "2025-07-08 00:00:00", "RUN_DTG": "2025-07-08 13:49:41", "BASIN": "WP", "STMNR": 4, "CAT_ID": null, "CAT_DESC": null, "MSGID": "WTPN51 PGTW 080300", "VALIDTIME": "2025-07-08 12:00:00" }, "geometry": { "type": "Point", "coordinates": [ 152.300003, 41.799999 ] } },
{ "type": "Feature", "properties": { "ID": 335929, "LAT": 43.3, "LON": 155.7, "VMAX": 20.0, "MSLP": 1012.95825, "RMAX": 45.0, "FSPD": 7.50969, "FDIR": 59.08405, "RENV": 250.0, "PENV": 1012.0, "VALIDT": 24, "DTG": "2025-07-09 00:00", "LATNOW": 39.3, "LONNOW": 149.1, "WINDNOW": 25.0, "DIRNOW": 9.0, "SPDNOW": 1.0, "TECH": "FCST", "ADVNR": 26, "ATCFID": "WP042025", "NAME": "MUN", "FTECH": "JTWC", "FCST_DTG": "2025-07-08 00:00:00", "RUN_DTG": "2025-07-08 13:49:41", "BASIN": "WP", "STMNR": 4, "CAT_ID": null, "CAT_DESC": null, "MSGID": "WTPN51 PGTW 080300", "VALIDTIME": "2025-07-09 00:00:00" }, "geometry": { "type": "Point", "coordinates": [ 155.699997, 43.299999 ] } },
{ "type": "Feature", "properties": { "ID": 335927, "LAT": 39.3, "LON": 149.1, "VMAX": 25.0, "MSLP": 1011.80975, "RMAX": 45.0, "FSPD": 8.97042, "FDIR": 44.20398, "RENV": 500.0, "PENV": 1012.0, "VALIDT": 0, "DTG": "2025-07-08 00:00", "LATNOW": 39.3, "LONNOW": 149.1, "WINDNOW": 25.0, "DIRNOW": 9.0, "SPDNOW": 1.0, "TECH": "TRAK", "ADVNR": 26, "ATCFID": "WP042025", "NAME": "MUN", "FTECH": "JTWC", "FCST_DTG": "2025-07-08 00:00:00", "RUN_DTG": "2025-07-08 13:49:41", "BASIN": "WP", "STMNR": 4, "CAT_ID": null, "CAT_DESC": null, "MSGID": "WTPN51 PGTW 080300", "VALIDTIME": "2025-07-08 00:00:00" }, "geometry": { "type": "LineString", "coordinates": [ [ 148.6, 14.8 ], [ 149.1, 15.4 ], [ 149.7, 16.2 ], [ 150.1, 17.3 ], [ 149.5, 18.8 ], [ 149.1, 20.2 ], [ 148.3, 21.1 ], [ 148.1, 22.5 ], [ 147.9, 23.4 ], [ 147.6, 24.2 ], [ 147.4, 25.0 ], [ 146.8, 25.7 ], [ 146.3, 26.2 ], [ 145.6, 26.8 ], [ 145.4, 27.0 ], [ 145.4, 27.6 ], [ 145.5, 28.3 ], [ 145.0, 29.0 ], [ 144.8, 29.6 ], [ 144.9, 30.1 ], [ 145.3, 30.2 ], [ 146.0, 30.7 ], [ 146.3, 31.0 ], [ 147.1, 31.1 ], [ 148.0, 31.3 ], [ 148.7, 31.7 ], [ 149.1, 32.2 ], [ 149.4, 32.7 ], [ 149.6, 33.5 ], [ 149.3, 34.1 ], [ 148.9, 35.0 ], [ 148.3, 35.8 ], [ 148.0, 36.7 ], [ 148.3, 38.0 ], [ 149.1, 39.3 ] ] } },
{ "type": "Feature", "properties": { "ID": 335929, "LAT": 43.3, "LON": 155.7, "VMAX": 20.0, "MSLP": 1012.95825, "RMAX": 45.0, "FSPD": 7.50969, "FDIR": 59.08405, "RENV": 250.0, "PENV": 1012.0, "VALIDT": 24, "DTG": "2025-07-09 00:00", "LATNOW": 39.3, "LONNOW": 149.1, "WINDNOW": 25.0, "DIRNOW": 9.0, "SPDNOW": 1.0, "TECH": "FCST", "ADVNR": 26, "ATCFID": "WP042025", "NAME": "MUN", "FTECH": "JTWC", "FCST_DTG": "2025-07-08 00:00:00", "RUN_DTG": "2025-07-08 13:49:41", "BASIN": "WP", "STMNR": 4, "CAT_ID": null, "CAT_DESC": null, "MSGID": "WTPN51 PGTW 080300", "VALIDTIME": "2025-07-09 00:00:00" }, "geometry": { "type": "LineString", "coordinates": [ [ 149.1, 39.3 ], [ 152.3, 41.8 ], [ 155.7, 43.3 ] ] } }
]
}
