{
"type": "FeatureCollection",
"crs": { "type": "name", "properties": { "name": "urn:ogc:def:crs:OGC:1.3:CRS84" } },
"features": [
{ "type": "Feature", "properties": { "ID": 236939, "LAT": 11.5, "LON": -36.5, "VMAX": 20.0, "MSLP": 1009.0, "RMAX": 60.0, "FSPD": 8.6285, "FDIR": 276.8484, "RENV": 120.0, "PENV": 1010.0, "VALIDT": 0, "DTG": "2024-08-10 00:00", "LATNOW": 48.3, "LONNOW": -47.2, "WINDNOW": 60.0, "DIRNOW": 18.0, "SPDNOW": 0.0, "TECH": "TRAK", "ADVNR": 36, "ATCFID": "AL052024", "NAME": "ERNESTO", "FTECH": "OFCL", "FCST_DTG": "2024-08-20 12:00:00", "RUN_DTG": "2024-08-21 02:44:18", "BASIN": "AL", "STMNR": 5, "CAT_ID": null, "CAT_DESC": null, "MSGID": "WTNT25 KNHC 201435", "VALIDTIME": "2024-08-10 00:00:00" }, "geometry": { "type": "Point", "coordinates": [ -36.5, 11.5 ] } },
{ "type": "Feature", "properties": { "ID": 236940, "LAT": 11.7, "LON": -38.2, "VMAX": 20.0, "MSLP": 1009.0, "RMAX": 80.0, "FSPD": 5.63404, "FDIR": 280.5224, "RENV": 180.0, "PENV": 1012.0, "VALIDT": 0, "DTG": "2024-08-10 06:00", "LATNOW": 48.3, "LONNOW": -47.2, "WINDNOW": 60.0, "DIRNOW": 18.0, "SPDNOW": 0.0, "TECH": "TRAK", "ADVNR": 36, "ATCFID": "AL052024", "NAME": "ERNESTO", "FTECH": "OFCL", "FCST_DTG": "2024-08-20 12:00:00", "RUN_DTG": "2024-08-21 02:44:18", "BASIN": "AL", "STMNR": 5, "CAT_ID": null, "CAT_DESC": null, "MSGID": "WTNT25 KNHC 201435", "VALIDTIME": "2024-08-10 06:00:00" }, "geometry": { "type": "Point", "coordinates": [ -38.200001, 11.7 ] } },
{ "type": "Feature", "properties": { "ID": 236941, "LAT": 11.9, "LON": -39.3, "VMAX": 20.0, "MSLP": 1010.0, "RMAX": 80.0, "FSPD": 5.63005, "FDIR": 280.52997, "RENV": 180.0, "PENV": 1012.0, "VALIDT": 0, "DTG": "2024-08-10 12:00", "LATNOW": 48.3, "LONNOW": -47.2, "WINDNOW": 60.0, "DIRNOW": 18.0, "SPDNOW": 0.0, "TECH": "TRAK", "ADVNR": 36, "ATCFID": "AL052024", "NAME": "ERNESTO", "FTECH": "OFCL", "FCST_DTG": "2024-08-20 12:00:00", "RUN_DTG": "2024-08-21 02:44:18", "BASIN": "AL", "STMNR": 5, "CAT_ID": null, "CAT_DESC": null, "MSGID": "WTNT25 KNHC 201435", "VALIDTIME": "2024-08-10 12:00:00" }, "geometry": { "type": "Point", "coordinates": [ -39.299999, 11.9 ] } },
{ "type": "Feature", "properties": { "ID": 236942, "LAT": 12.1, "LON": -40.4, "VMAX": 20.0, "MSLP": 1010.0, "RMAX": 80.0, "FSPD": 7.61225, "FDIR": 277.76797, "RENV": 180.0, "PENV": 1012.0, "VALIDT": 0, "DTG": "2024-08-10 18:00", "LATNOW": 48.3, "LONNOW": -47.2, "WINDNOW": 60.0, "DIRNOW": 18.0, "SPDNOW": 0.0, "TECH": "TRAK", "ADVNR": 36, "ATCFID": "AL052024", "NAME": "ERNESTO", "FTECH": "OFCL", "FCST_DTG": "2024-08-20 12:00:00", "RUN_DTG": "2024-08-21 02:44:18", "BASIN": "AL", "STMNR": 5, "CAT_ID": null, "CAT_DESC": null, "MSGID": "WTNT25 KNHC 201435", "VALIDTIME": "2024-08-10 18:00:00" }, "geometry": { "type": "Point", "coordinates": [ -40.400002, 12.1 ] } },
{ "type": "Feature", "properties": { "ID": 236943, "LAT": 12.3, "LON": -41.9, "VMAX": 25.0, "MSLP": 1009.0, "RMAX": 80.0, "FSPD": 8.29528, "FDIR": 284.36307, "RENV": 180.0, "PENV": 1012.0, "VALIDT": 0, "DTG": "2024-08-11 00:00", "LATNOW": 48.3, "LONNOW": -47.2, "WINDNOW": 60.0, "DIRNOW": 18.0, "SPDNOW": 0.0, "TECH": "TRAK", "ADVNR": 36, "ATCFID": "AL052024", "NAME": "ERNESTO", "FTECH": "OFCL", "FCST_DTG": "2024-08-20 12:00:00", "RUN_DTG": "2024-08-21 02:44:18", "BASIN": "AL", "STMNR": 5, "CAT_ID": null, "CAT_DESC": null, "MSGID": "WTNT25 KNHC 201435", "VALIDTIME": "2024-08-11 00:00:00" }, "geometry": { "type": "Point", "coordinates": [ -41.900002, 12.3 ] } },
{ "type": "Feature", "properties": { "ID": 236944, "LAT": 12.7, "LON": -43.5, "VMAX": 25.0, "MSLP": 1009.0, "RMAX": 80.0, "FSPD": 6.04305, "FDIR": 274.88348, "RENV": 180.0, "PENV": 1012.0, "VALIDT": 0, "DTG": "2024-08-11 06:00", "LATNOW": 48.3, "LONNOW": -47.2, "WINDNOW": 60.0, "DIRNOW": 18.0, "SPDNOW": 0.0, "TECH": "TRAK", "ADVNR": 36, "ATCFID": "AL052024", "NAME": "ERNESTO", "FTECH": "OFCL", "FCST_DTG": "2024-08-20 12:00:00", "RUN_DTG": "2024-08-21 02:44:18", "BASIN": "AL", "STMNR": 5, "CAT_ID": null, "CAT_DESC": null, "MSGID": "WTNT25 KNHC 201435", "VALIDTIME": "2024-08-11 06:00:00" }, "geometry": { "type": "Point", "coordinates": [ -43.5, 12.7 ] } },
{ "type": "Feature", "properties": { "ID": 236945, "LAT": 12.8, "LON": -44.7, "VMAX": 25.0, "MSLP": 1010.0, "RMAX": 80.0, "FSPD": 11.9305, "FDIR": 284.99414, "RENV": 180.0, "PENV": 1012.0, "VALIDT": 0, "DTG": "2024-08-11 12:00", "LATNOW": 48.3, "LONNOW": -47.2, "WINDNOW": 60.0, "DIRNOW": 18.0, "SPDNOW": 0.0, "TECH": "TRAK", "ADVNR": 36, "ATCFID": "AL052024", "NAME": "ERNESTO", "FTECH": "OFCL", "FCST_DTG": "2024-08-20 12:00:00", "RUN_DTG": "2024-08-21 02:44:18", "BASIN": "AL", "STMNR": 5, "CAT_ID": null, "CAT_DESC": null, "MSGID": "WTNT25 KNHC 201435", "VALIDTIME": "2024-08-11 12:00:00" }, "geometry": { "type": "Point", "coordinates": [ -44.700001, 12.8 ] } },
{ "type": "Feature", "properties": { "ID": 236946, "LAT": 13.4, "LON": -47.0, "VMAX": 25.0, "MSLP": 1010.0, "RMAX": 140.0, "FSPD": 11.19126, "FDIR": 280.59546, "RENV": 180.0, "PENV": 1012.0, "VALIDT": 0, "DTG": "2024-08-11 18:00", "LATNOW": 48.3, "LONNOW": -47.2, "WINDNOW": 60.0, "DIRNOW": 18.0, "SPDNOW": 0.0, "TECH": "TRAK", "ADVNR": 36, "ATCFID": "AL052024", "NAME": "ERNESTO", "FTECH": "OFCL", "FCST_DTG": "2024-08-20 12:00:00", "RUN_DTG": "2024-08-21 02:44:18", "BASIN": "AL", "STMNR": 5, "CAT_ID": null, "CAT_DESC": null, "MSGID": "WTNT25 KNHC 201435", "VALIDTIME": "2024-08-11 18:00:00" }, "geometry": { "type": "Point", "coordinates": [ -47.0, 13.4 ] } },
{ "type": "Feature", "properties": { "ID": 236947, "LAT": 13.8, "LON": -49.2, "VMAX": 25.0, "MSLP": 1009.0, "RMAX": 140.0, "FSPD": 11.17273, "FDIR": 280.61322, "RENV": 150.0, "PENV": 1012.0, "VALIDT": 0, "DTG": "2024-08-12 00:00", "LATNOW": 48.3, "LONNOW": -47.2, "WINDNOW": 60.0, "DIRNOW": 18.0, "SPDNOW": 0.0, "TECH": "TRAK", "ADVNR": 36, "ATCFID": "AL052024", "NAME": "ERNESTO", "FTECH": "OFCL", "FCST_DTG": "2024-08-20 12:00:00", "RUN_DTG": "2024-08-21 02:44:18", "BASIN": "AL", "STMNR": 5, "CAT_ID": null, "CAT_DESC": null, "MSGID": "WTNT25 KNHC 201435", "VALIDTIME": "2024-08-12 00:00:00" }, "geometry": { "type": "Point", "coordinates": [ -49.200001, 13.8 ] } },
{ "type": "Feature", "properties": { "ID": 236948, "LAT": 14.2, "LON": -51.4, "VMAX": 25.0, "MSLP": 1009.0, "RMAX": 140.0, "FSPD": 16.14762, "FDIR": 279.1659, "RENV": 150.0, "PENV": 1012.0, "VALIDT": 0, "DTG": "2024-08-12 06:00", "LATNOW": 48.3, "LONNOW": -47.2, "WINDNOW": 60.0, "DIRNOW": 18.0, "SPDNOW": 0.0, "TECH": "TRAK", "ADVNR": 36, "ATCFID": "AL052024", "NAME": "ERNESTO", "FTECH": "OFCL", "FCST_DTG": "2024-08-20 12:00:00", "RUN_DTG": "2024-08-21 02:44:18", "BASIN": "AL", "STMNR": 5, "CAT_ID": null, "CAT_DESC": null, "MSGID": "WTNT25 KNHC 201435", "VALIDTIME": "2024-08-12 06:00:00" }, "geometry": { "type": "Point", "coordinates": [ -51.400002, 14.2 ] } },
{ "type": "Feature", "properties": { "ID": 236949, "LAT": 14.7, "LON": -54.6, "VMAX": 25.0, "MSLP": 1010.0, "RMAX": 120.0, "FSPD": 11.68761, "FDIR": 301.88354, "RENV": 150.0, "PENV": 1012.0, "VALIDT": 0, "DTG": "2024-08-12 12:00", "LATNOW": 48.3, "LONNOW": -47.2, "WINDNOW": 60.0, "DIRNOW": 18.0, "SPDNOW": 0.0, "TECH": "TRAK", "ADVNR": 36, "ATCFID": "AL052024", "NAME": "ERNESTO", "FTECH": "OFCL", "FCST_DTG": "2024-08-20 12:00:00", "RUN_DTG": "2024-08-21 02:44:18", "BASIN": "AL", "STMNR": 5, "CAT_ID": null, "CAT_DESC": null, "MSGID": "WTNT25 KNHC 201435", "VALIDTIME": "2024-08-12 12:00:00" }, "geometry": { "type": "Point", "coordinates": [ -54.599998, 14.7 ] } },
{ "type": "Feature", "properties": { "ID": 236950, "LAT": 15.9, "LON": -56.6, "VMAX": 35.0, "MSLP": 1009.0, "RMAX": 40.0, "FSPD": 9.89525, "FDIR": 269.99997, "RENV": 150.0, "PENV": 1012.0, "VALIDT": 0, "DTG": "2024-08-12 18:00", "LATNOW": 48.3, "LONNOW": -47.2, "WINDNOW": 60.0, "DIRNOW": 18.0, "SPDNOW": 0.0, "TECH": "TRAK", "ADVNR": 36, "ATCFID": "AL052024", "NAME": "ERNESTO", "FTECH": "OFCL", "FCST_DTG": "2024-08-20 12:00:00", "RUN_DTG": "2024-08-21 02:44:18", "BASIN": "AL", "STMNR": 5, "CAT_ID": null, "CAT_DESC": null, "MSGID": "WTNT25 KNHC 201435", "VALIDTIME": "2024-08-12 18:00:00" }, "geometry": { "type": "Point", "coordinates": [ -56.599998, 15.9 ] } },
{ "type": "Feature", "properties": { "ID": 236951, "LAT": 15.9, "LON": -58.6, "VMAX": 35.0, "MSLP": 1009.0, "RMAX": 40.0, "FSPD": 9.45197, "FDIR": 276.24927, "RENV": 150.0, "PENV": 1012.0, "VALIDT": 0, "DTG": "2024-08-13 00:00", "LATNOW": 48.3, "LONNOW": -47.2, "WINDNOW": 60.0, "DIRNOW": 18.0, "SPDNOW": 0.0, "TECH": "TRAK", "ADVNR": 36, "ATCFID": "AL052024", "NAME": "ERNESTO", "FTECH": "OFCL", "FCST_DTG": "2024-08-20 12:00:00", "RUN_DTG": "2024-08-21 02:44:18", "BASIN": "AL", "STMNR": 5, "CAT_ID": null, "CAT_DESC": null, "MSGID": "WTNT25 KNHC 201435", "VALIDTIME": "2024-08-13 00:00:00" }, "geometry": { "type": "Point", "coordinates": [ -58.599998, 15.9 ] } },
{ "type": "Feature", "properties": { "ID": 236952, "LAT": 16.1, "LON": -60.5, "VMAX": 35.0, "MSLP": 1008.0, "RMAX": 40.0, "FSPD": 7.83865, "FDIR": 289.15625, "RENV": 150.0, "PENV": 1012.0, "VALIDT": 0, "DTG": "2024-08-13 06:00", "LATNOW": 48.3, "LONNOW": -47.2, "WINDNOW": 60.0, "DIRNOW": 18.0, "SPDNOW": 0.0, "TECH": "TRAK", "ADVNR": 36, "ATCFID": "AL052024", "NAME": "ERNESTO", "FTECH": "OFCL", "FCST_DTG": "2024-08-20 12:00:00", "RUN_DTG": "2024-08-21 02:44:18", "BASIN": "AL", "STMNR": 5, "CAT_ID": null, "CAT_DESC": null, "MSGID": "WTNT25 KNHC 201435", "VALIDTIME": "2024-08-13 06:00:00" }, "geometry": { "type": "Point", "coordinates": [ -60.5, 16.1 ] } },
{ "type": "Feature", "properties": { "ID": 236953, "LAT": 16.6, "LON": -62.0, "VMAX": 40.0, "MSLP": 1005.0, "RMAX": 40.0, "FSPD": 8.99243, "FDIR": 304.8958, "RENV": 120.0, "PENV": 1011.0, "VALIDT": 0, "DTG": "2024-08-13 12:00", "LATNOW": 48.3, "LONNOW": -47.2, "WINDNOW": 60.0, "DIRNOW": 18.0, "SPDNOW": 0.0, "TECH": "TRAK", "ADVNR": 36, "ATCFID": "AL052024", "NAME": "ERNESTO", "FTECH": "OFCL", "FCST_DTG": "2024-08-20 12:00:00", "RUN_DTG": "2024-08-21 02:44:18", "BASIN": "AL", "STMNR": 5, "CAT_ID": null, "CAT_DESC": null, "MSGID": "WTNT25 KNHC 201435", "VALIDTIME": "2024-08-13 12:00:00" }, "geometry": { "type": "Point", "coordinates": [ -62.0, 16.6 ] } },
{ "type": "Feature", "properties": { "ID": 236954, "LAT": 17.6, "LON": -63.5, "VMAX": 50.0, "MSLP": 1001.0, "RMAX": 40.0, "FSPD": 7.16997, "FDIR": 305.02954, "RENV": 150.0, "PENV": 1010.0, "VALIDT": 0, "DTG": "2024-08-13 18:00", "LATNOW": 48.3, "LONNOW": -47.2, "WINDNOW": 60.0, "DIRNOW": 18.0, "SPDNOW": 0.0, "TECH": "TRAK", "ADVNR": 36, "ATCFID": "AL052024", "NAME": "ERNESTO", "FTECH": "OFCL", "FCST_DTG": "2024-08-20 12:00:00", "RUN_DTG": "2024-08-21 02:44:18", "BASIN": "AL", "STMNR": 5, "CAT_ID": null, "CAT_DESC": null, "MSGID": "WTNT25 KNHC 201435", "VALIDTIME": "2024-08-13 18:00:00" }, "geometry": { "type": "Point", "coordinates": [ -63.5, 17.6 ] } },
{ "type": "Feature", "properties": { "ID": 236955, "LAT": 18.4, "LON": -64.7, "VMAX": 55.0, "MSLP": 998.0, "RMAX": 35.0, "FSPD": 7.04674, "FDIR": 295.9781, "RENV": 150.0, "PENV": 1010.0, "VALIDT": 0, "DTG": "2024-08-14 00:00", "LATNOW": 48.3, "LONNOW": -47.2, "WINDNOW": 60.0, "DIRNOW": 18.0, "SPDNOW": 0.0, "TECH": "TRAK", "ADVNR": 36, "ATCFID": "AL052024", "NAME": "ERNESTO", "FTECH": "OFCL", "FCST_DTG": "2024-08-20 12:00:00", "RUN_DTG": "2024-08-21 02:44:18", "BASIN": "AL", "STMNR": 5, "CAT_ID": null, "CAT_DESC": null, "MSGID": "WTNT25 KNHC 201435", "VALIDTIME": "2024-08-14 00:00:00" }, "geometry": { "type": "Point", "coordinates": [ -64.699997, 18.4 ] } },
{ "type": "Feature", "properties": { "ID": 236956, "LAT": 19.0, "LON": -66.0, "VMAX": 60.0, "MSLP": 996.0, "RMAX": 50.0, "FSPD": 7.43782, "FDIR": 308.49847, "RENV": 160.0, "PENV": 1010.0, "VALIDT": 0, "DTG": "2024-08-14 06:00", "LATNOW": 48.3, "LONNOW": -47.2, "WINDNOW": 60.0, "DIRNOW": 18.0, "SPDNOW": 0.0, "TECH": "TRAK", "ADVNR": 36, "ATCFID": "AL052024", "NAME": "ERNESTO", "FTECH": "OFCL", "FCST_DTG": "2024-08-20 12:00:00", "RUN_DTG": "2024-08-21 02:44:18", "BASIN": "AL", "STMNR": 5, "CAT_ID": null, "CAT_DESC": null, "MSGID": "WTNT25 KNHC 201435", "VALIDTIME": "2024-08-14 06:00:00" }, "geometry": { "type": "Point", "coordinates": [ -66.0, 19.0 ] } },
{ "type": "Feature", "properties": { "ID": 236957, "LAT": 19.9, "LON": -67.2, "VMAX": 60.0, "MSLP": 991.0, "RMAX": 50.0, "FSPD": 7.27809, "FDIR": 328.01727, "RENV": 150.0, "PENV": 1010.0, "VALIDT": 0, "DTG": "2024-08-14 12:00", "LATNOW": 48.3, "LONNOW": -47.2, "WINDNOW": 60.0, "DIRNOW": 18.0, "SPDNOW": 0.0, "TECH": "TRAK", "ADVNR": 36, "ATCFID": "AL052024", "NAME": "ERNESTO", "FTECH": "OFCL", "FCST_DTG": "2024-08-20 12:00:00", "RUN_DTG": "2024-08-21 02:44:18", "BASIN": "AL", "STMNR": 5, "CAT_ID": null, "CAT_DESC": null, "MSGID": "WTNT25 KNHC 201435", "VALIDTIME": "2024-08-14 12:00:00" }, "geometry": { "type": "Point", "coordinates": [ -67.199997, 19.9 ] } },
{ "type": "Feature", "properties": { "ID": 236958, "LAT": 21.1, "LON": -68.0, "VMAX": 65.0, "MSLP": 989.0, "RMAX": 30.0, "FSPD": 7.47754, "FDIR": 333.42914, "RENV": 150.0, "PENV": 1010.0, "VALIDT": 0, "DTG": "2024-08-14 18:00", "LATNOW": 48.3, "LONNOW": -47.2, "WINDNOW": 60.0, "DIRNOW": 18.0, "SPDNOW": 0.0, "TECH": "TRAK", "ADVNR": 36, "ATCFID": "AL052024", "NAME": "ERNESTO", "FTECH": "OFCL", "FCST_DTG": "2024-08-20 12:00:00", "RUN_DTG": "2024-08-21 02:44:18", "BASIN": "AL", "STMNR": 5, "CAT_ID": null, "CAT_DESC": null, "MSGID": "WTNT25 KNHC 201435", "VALIDTIME": "2024-08-14 18:00:00" }, "geometry": { "type": "Point", "coordinates": [ -68.0, 21.1 ] } },
{ "type": "Feature", "properties": { "ID": 236959, "LAT": 22.4, "LON": -68.7, "VMAX": 70.0, "MSLP": 981.0, "RMAX": 30.0, "FSPD": 5.00328, "FDIR": 337.72754, "RENV": 180.0, "PENV": 1010.0, "VALIDT": 0, "DTG": "2024-08-15 00:00", "LATNOW": 48.3, "LONNOW": -47.2, "WINDNOW": 60.0, "DIRNOW": 18.0, "SPDNOW": 0.0, "TECH": "TRAK", "ADVNR": 36, "ATCFID": "AL052024", "NAME": "ERNESTO", "FTECH": "OFCL", "FCST_DTG": "2024-08-20 12:00:00", "RUN_DTG": "2024-08-21 02:44:18", "BASIN": "AL", "STMNR": 5, "CAT_ID": null, "CAT_DESC": null, "MSGID": "WTNT25 KNHC 201435", "VALIDTIME": "2024-08-15 00:00:00" }, "geometry": { "type": "Point", "coordinates": [ -68.699997, 22.4 ] } },
{ "type": "Feature", "properties": { "ID": 236960, "LAT": 23.3, "LON": -69.1, "VMAX": 75.0, "MSLP": 979.0, "RMAX": 30.0, "FSPD": 6.2446, "FDIR": 351.33597, "RENV": 180.0, "PENV": 1010.0, "VALIDT": 0, "DTG": "2024-08-15 06:00", "LATNOW": 48.3, "LONNOW": -47.2, "WINDNOW": 60.0, "DIRNOW": 18.0, "SPDNOW": 0.0, "TECH": "TRAK", "ADVNR": 36, "ATCFID": "AL052024", "NAME": "ERNESTO", "FTECH": "OFCL", "FCST_DTG": "2024-08-20 12:00:00", "RUN_DTG": "2024-08-21 02:44:18", "BASIN": "AL", "STMNR": 5, "CAT_ID": null, "CAT_DESC": null, "MSGID": "WTNT25 KNHC 201435", "VALIDTIME": "2024-08-15 06:00:00" }, "geometry": { "type": "Point", "coordinates": [ -69.099998, 23.299999 ] } },
{ "type": "Feature", "properties": { "ID": 236961, "LAT": 24.5, "LON": -69.3, "VMAX": 75.0, "MSLP": 975.0, "RMAX": 40.0, "FSPD": 5.73515, "FDIR": 9.35376, "RENV": 190.0, "PENV": 1010.0, "VALIDT": 0, "DTG": "2024-08-15 12:00", "LATNOW": 48.3, "LONNOW": -47.2, "WINDNOW": 60.0, "DIRNOW": 18.0, "SPDNOW": 0.0, "TECH": "TRAK", "ADVNR": 36, "ATCFID": "AL052024", "NAME": "ERNESTO", "FTECH": "OFCL", "FCST_DTG": "2024-08-20 12:00:00", "RUN_DTG": "2024-08-21 02:44:18", "BASIN": "AL", "STMNR": 5, "CAT_ID": null, "CAT_DESC": null, "MSGID": "WTNT25 KNHC 201435", "VALIDTIME": "2024-08-15 12:00:00" }, "geometry": { "type": "Point", "coordinates": [ -69.300003, 24.5 ] } },
{ "type": "Feature", "properties": { "ID": 236962, "LAT": 25.6, "LON": -69.1, "VMAX": 75.0, "MSLP": 975.0, "RMAX": 40.0, "FSPD": 6.33441, "FDIR": 35.69415, "RENV": 200.0, "PENV": 1011.0, "VALIDT": 0, "DTG": "2024-08-15 18:00", "LATNOW": 48.3, "LONNOW": -47.2, "WINDNOW": 60.0, "DIRNOW": 18.0, "SPDNOW": 0.0, "TECH": "TRAK", "ADVNR": 36, "ATCFID": "AL052024", "NAME": "ERNESTO", "FTECH": "OFCL", "FCST_DTG": "2024-08-20 12:00:00", "RUN_DTG": "2024-08-21 02:44:18", "BASIN": "AL", "STMNR": 5, "CAT_ID": null, "CAT_DESC": null, "MSGID": "WTNT25 KNHC 201435", "VALIDTIME": "2024-08-15 18:00:00" }, "geometry": { "type": "Point", "coordinates": [ -69.099998, 25.6 ] } },
{ "type": "Feature", "properties": { "ID": 236963, "LAT": 26.6, "LON": -68.3, "VMAX": 85.0, "MSLP": 970.0, "RMAX": 40.0, "FSPD": 6.31571, "FDIR": 35.45743, "RENV": 200.0, "PENV": 1011.0, "VALIDT": 0, "DTG": "2024-08-16 00:00", "LATNOW": 48.3, "LONNOW": -47.2, "WINDNOW": 60.0, "DIRNOW": 18.0, "SPDNOW": 0.0, "TECH": "TRAK", "ADVNR": 36, "ATCFID": "AL052024", "NAME": "ERNESTO", "FTECH": "OFCL", "FCST_DTG": "2024-08-20 12:00:00", "RUN_DTG": "2024-08-21 02:44:18", "BASIN": "AL", "STMNR": 5, "CAT_ID": null, "CAT_DESC": null, "MSGID": "WTNT25 KNHC 201435", "VALIDTIME": "2024-08-16 00:00:00" }, "geometry": { "type": "Point", "coordinates": [ -68.300003, 26.6 ] } },
{ "type": "Feature", "properties": { "ID": 236964, "LAT": 27.6, "LON": -67.5, "VMAX": 85.0, "MSLP": 968.0, "RMAX": 40.0, "FSPD": 7.40196, "FDIR": 25.3761, "RENV": 240.0, "PENV": 1012.0, "VALIDT": 0, "DTG": "2024-08-16 06:00", "LATNOW": 48.3, "LONNOW": -47.2, "WINDNOW": 60.0, "DIRNOW": 18.0, "SPDNOW": 0.0, "TECH": "TRAK", "ADVNR": 36, "ATCFID": "AL052024", "NAME": "ERNESTO", "FTECH": "OFCL", "FCST_DTG": "2024-08-20 12:00:00", "RUN_DTG": "2024-08-21 02:44:18", "BASIN": "AL", "STMNR": 5, "CAT_ID": null, "CAT_DESC": null, "MSGID": "WTNT25 KNHC 201435", "VALIDTIME": "2024-08-16 06:00:00" }, "geometry": { "type": "Point", "coordinates": [ -67.5, 27.6 ] } },
{ "type": "Feature", "properties": { "ID": 236965, "LAT": 28.9, "LON": -66.8, "VMAX": 85.0, "MSLP": 967.0, "RMAX": 45.0, "FSPD": 6.46965, "FDIR": 28.99255, "RENV": 260.0, "PENV": 1012.0, "VALIDT": 0, "DTG": "2024-08-16 12:00", "LATNOW": 48.3, "LONNOW": -47.2, "WINDNOW": 60.0, "DIRNOW": 18.0, "SPDNOW": 0.0, "TECH": "TRAK", "ADVNR": 36, "ATCFID": "AL052024", "NAME": "ERNESTO", "FTECH": "OFCL", "FCST_DTG": "2024-08-20 12:00:00", "RUN_DTG": "2024-08-21 02:44:18", "BASIN": "AL", "STMNR": 5, "CAT_ID": null, "CAT_DESC": null, "MSGID": "WTNT25 KNHC 201435", "VALIDTIME": "2024-08-16 12:00:00" }, "geometry": { "type": "Point", "coordinates": [ -66.800003, 28.9 ] } },
{ "type": "Feature", "properties": { "ID": 236966, "LAT": 30.0, "LON": -66.1, "VMAX": 85.0, "MSLP": 969.0, "RMAX": 45.0, "FSPD": 6.24819, "FDIR": 34.57846, "RENV": 260.0, "PENV": 1012.0, "VALIDT": 0, "DTG": "2024-08-16 18:00", "LATNOW": 48.3, "LONNOW": -47.2, "WINDNOW": 60.0, "DIRNOW": 18.0, "SPDNOW": 0.0, "TECH": "TRAK", "ADVNR": 36, "ATCFID": "AL052024", "NAME": "ERNESTO", "FTECH": "OFCL", "FCST_DTG": "2024-08-20 12:00:00", "RUN_DTG": "2024-08-21 02:44:18", "BASIN": "AL", "STMNR": 5, "CAT_ID": null, "CAT_DESC": null, "MSGID": "WTNT25 KNHC 201435", "VALIDTIME": "2024-08-16 18:00:00" }, "geometry": { "type": "Point", "coordinates": [ -66.099998, 30.0 ] } },
{ "type": "Feature", "properties": { "ID": 236967, "LAT": 31.0, "LON": -65.3, "VMAX": 85.0, "MSLP": 969.0, "RMAX": 45.0, "FSPD": 5.21871, "FDIR": 9.67767, "RENV": 260.0, "PENV": 1012.0, "VALIDT": 0, "DTG": "2024-08-17 00:00", "LATNOW": 48.3, "LONNOW": -47.2, "WINDNOW": 60.0, "DIRNOW": 18.0, "SPDNOW": 0.0, "TECH": "TRAK", "ADVNR": 36, "ATCFID": "AL052024", "NAME": "ERNESTO", "FTECH": "OFCL", "FCST_DTG": "2024-08-20 12:00:00", "RUN_DTG": "2024-08-21 02:44:18", "BASIN": "AL", "STMNR": 5, "CAT_ID": null, "CAT_DESC": null, "MSGID": "WTNT25 KNHC 201435", "VALIDTIME": "2024-08-17 00:00:00" }, "geometry": { "type": "Point", "coordinates": [ -65.300003, 31.0 ] } },
{ "type": "Feature", "properties": { "ID": 236968, "LAT": 32.0, "LON": -65.1, "VMAX": 80.0, "MSLP": 972.0, "RMAX": 40.0, "FSPD": 4.0416, "FDIR": 40.20654, "RENV": 260.0, "PENV": 1012.0, "VALIDT": 0, "DTG": "2024-08-17 06:00", "LATNOW": 48.3, "LONNOW": -47.2, "WINDNOW": 60.0, "DIRNOW": 18.0, "SPDNOW": 0.0, "TECH": "TRAK", "ADVNR": 36, "ATCFID": "AL052024", "NAME": "ERNESTO", "FTECH": "OFCL", "FCST_DTG": "2024-08-20 12:00:00", "RUN_DTG": "2024-08-21 02:44:18", "BASIN": "AL", "STMNR": 5, "CAT_ID": null, "CAT_DESC": null, "MSGID": "WTNT25 KNHC 201435", "VALIDTIME": "2024-08-17 06:00:00" }, "geometry": { "type": "Point", "coordinates": [ -65.099998, 32.0 ] } },
{ "type": "Feature", "properties": { "ID": 236969, "LAT": 32.6, "LON": -64.5, "VMAX": 70.0, "MSLP": 974.0, "RMAX": 40.0, "FSPD": 2.43258, "FDIR": 32.22852, "RENV": 250.0, "PENV": 1012.0, "VALIDT": 0, "DTG": "2024-08-17 12:00", "LATNOW": 48.3, "LONNOW": -47.2, "WINDNOW": 60.0, "DIRNOW": 18.0, "SPDNOW": 0.0, "TECH": "TRAK", "ADVNR": 36, "ATCFID": "AL052024", "NAME": "ERNESTO", "FTECH": "OFCL", "FCST_DTG": "2024-08-20 12:00:00", "RUN_DTG": "2024-08-21 02:44:18", "BASIN": "AL", "STMNR": 5, "CAT_ID": null, "CAT_DESC": null, "MSGID": "WTNT25 KNHC 201435", "VALIDTIME": "2024-08-17 12:00:00" }, "geometry": { "type": "Point", "coordinates": [ -64.5, 32.599998 ] } },
{ "type": "Feature", "properties": { "ID": 236970, "LAT": 33.0, "LON": -64.2, "VMAX": 65.0, "MSLP": 976.0, "RMAX": 40.0, "FSPD": 3.64412, "FDIR": 45.10126, "RENV": 330.0, "PENV": 1014.0, "VALIDT": 0, "DTG": "2024-08-17 18:00", "LATNOW": 48.3, "LONNOW": -47.2, "WINDNOW": 60.0, "DIRNOW": 18.0, "SPDNOW": 0.0, "TECH": "TRAK", "ADVNR": 36, "ATCFID": "AL052024", "NAME": "ERNESTO", "FTECH": "OFCL", "FCST_DTG": "2024-08-20 12:00:00", "RUN_DTG": "2024-08-21 02:44:18", "BASIN": "AL", "STMNR": 5, "CAT_ID": null, "CAT_DESC": null, "MSGID": "WTNT25 KNHC 201435", "VALIDTIME": "2024-08-17 18:00:00" }, "geometry": { "type": "Point", "coordinates": [ -64.199997, 33.0 ] } },
{ "type": "Feature", "properties": { "ID": 236971, "LAT": 33.5, "LON": -63.6, "VMAX": 60.0, "MSLP": 978.0, "RMAX": 40.0, "FSPD": 4.18706, "FDIR": 30.67694, "RENV": 330.0, "PENV": 1013.0, "VALIDT": 0, "DTG": "2024-08-18 00:00", "LATNOW": 48.3, "LONNOW": -47.2, "WINDNOW": 60.0, "DIRNOW": 18.0, "SPDNOW": 0.0, "TECH": "TRAK", "ADVNR": 36, "ATCFID": "AL052024", "NAME": "ERNESTO", "FTECH": "OFCL", "FCST_DTG": "2024-08-20 12:00:00", "RUN_DTG": "2024-08-21 02:44:18", "BASIN": "AL", "STMNR": 5, "CAT_ID": null, "CAT_DESC": null, "MSGID": "WTNT25 KNHC 201435", "VALIDTIME": "2024-08-18 00:00:00" }, "geometry": { "type": "Point", "coordinates": [ -63.599998, 33.5 ] } },
{ "type": "Feature", "properties": { "ID": 236972, "LAT": 34.2, "LON": -63.1, "VMAX": 60.0, "MSLP": 978.0, "RMAX": 40.0, "FSPD": 6.40041, "FDIR": 15.30774, "RENV": 330.0, "PENV": 1013.0, "VALIDT": 0, "DTG": "2024-08-18 06:00", "LATNOW": 48.3, "LONNOW": -47.2, "WINDNOW": 60.0, "DIRNOW": 18.0, "SPDNOW": 0.0, "TECH": "TRAK", "ADVNR": 36, "ATCFID": "AL052024", "NAME": "ERNESTO", "FTECH": "OFCL", "FCST_DTG": "2024-08-20 12:00:00", "RUN_DTG": "2024-08-21 02:44:18", "BASIN": "AL", "STMNR": 5, "CAT_ID": null, "CAT_DESC": null, "MSGID": "WTNT25 KNHC 201435", "VALIDTIME": "2024-08-18 06:00:00" }, "geometry": { "type": "Point", "coordinates": [ -63.099998, 34.200001 ] } },
{ "type": "Feature", "properties": { "ID": 236973, "LAT": 35.4, "LON": -62.7, "VMAX": 60.0, "MSLP": 978.0, "RMAX": 30.0, "FSPD": 5.14444, "FDIR": 360.0, "RENV": 300.0, "PENV": 1013.0, "VALIDT": 0, "DTG": "2024-08-18 12:00", "LATNOW": 48.3, "LONNOW": -47.2, "WINDNOW": 60.0, "DIRNOW": 18.0, "SPDNOW": 0.0, "TECH": "TRAK", "ADVNR": 36, "ATCFID": "AL052024", "NAME": "ERNESTO", "FTECH": "OFCL", "FCST_DTG": "2024-08-20 12:00:00", "RUN_DTG": "2024-08-21 02:44:18", "BASIN": "AL", "STMNR": 5, "CAT_ID": null, "CAT_DESC": null, "MSGID": "WTNT25 KNHC 201435", "VALIDTIME": "2024-08-18 12:00:00" }, "geometry": { "type": "Point", "coordinates": [ -62.700001, 35.400002 ] } },
{ "type": "Feature", "properties": { "ID": 236974, "LAT": 36.4, "LON": -62.7, "VMAX": 65.0, "MSLP": 977.0, "RMAX": 30.0, "FSPD": 7.2792, "FDIR": 23.25574, "RENV": 270.0, "PENV": 1012.0, "VALIDT": 0, "DTG": "2024-08-18 18:00", "LATNOW": 48.3, "LONNOW": -47.2, "WINDNOW": 60.0, "DIRNOW": 18.0, "SPDNOW": 0.0, "TECH": "TRAK", "ADVNR": 36, "ATCFID": "AL052024", "NAME": "ERNESTO", "FTECH": "OFCL", "FCST_DTG": "2024-08-20 12:00:00", "RUN_DTG": "2024-08-21 02:44:18", "BASIN": "AL", "STMNR": 5, "CAT_ID": null, "CAT_DESC": null, "MSGID": "WTNT25 KNHC 201435", "VALIDTIME": "2024-08-18 18:00:00" }, "geometry": { "type": "Point", "coordinates": [ -62.700001, 36.400002 ] } },
{ "type": "Feature", "properties": { "ID": 236975, "LAT": 37.7, "LON": -62.0, "VMAX": 70.0, "MSLP": 975.0, "RMAX": 30.0, "FSPD": 8.99337, "FDIR": 23.75995, "RENV": 270.0, "PENV": 1012.0, "VALIDT": 0, "DTG": "2024-08-19 00:00", "LATNOW": 48.3, "LONNOW": -47.2, "WINDNOW": 60.0, "DIRNOW": 18.0, "SPDNOW": 0.0, "TECH": "TRAK", "ADVNR": 36, "ATCFID": "AL052024", "NAME": "ERNESTO", "FTECH": "OFCL", "FCST_DTG": "2024-08-20 12:00:00", "RUN_DTG": "2024-08-21 02:44:18", "BASIN": "AL", "STMNR": 5, "CAT_ID": null, "CAT_DESC": null, "MSGID": "WTNT25 KNHC 201435", "VALIDTIME": "2024-08-19 00:00:00" }, "geometry": { "type": "Point", "coordinates": [ -62.0, 37.700001 ] } },
{ "type": "Feature", "properties": { "ID": 236976, "LAT": 39.3, "LON": -61.1, "VMAX": 75.0, "MSLP": 972.0, "RMAX": 30.0, "FSPD": 10.1288, "FDIR": 35.64478, "RENV": 220.0, "PENV": 1009.0, "VALIDT": 0, "DTG": "2024-08-19 06:00", "LATNOW": 48.3, "LONNOW": -47.2, "WINDNOW": 60.0, "DIRNOW": 18.0, "SPDNOW": 0.0, "TECH": "TRAK", "ADVNR": 36, "ATCFID": "AL052024", "NAME": "ERNESTO", "FTECH": "OFCL", "FCST_DTG": "2024-08-20 12:00:00", "RUN_DTG": "2024-08-21 02:44:18", "BASIN": "AL", "STMNR": 5, "CAT_ID": null, "CAT_DESC": null, "MSGID": "WTNT25 KNHC 201435", "VALIDTIME": "2024-08-19 06:00:00" }, "geometry": { "type": "Point", "coordinates": [ -61.099998, 39.299999 ] } },
{ "type": "Feature", "properties": { "ID": 236977, "LAT": 40.9, "LON": -59.6, "VMAX": 80.0, "MSLP": 968.0, "RMAX": 30.0, "FSPD": 12.82608, "FDIR": 36.66074, "RENV": 200.0, "PENV": 1008.0, "VALIDT": 0, "DTG": "2024-08-19 12:00", "LATNOW": 48.3, "LONNOW": -47.2, "WINDNOW": 60.0, "DIRNOW": 18.0, "SPDNOW": 0.0, "TECH": "TRAK", "ADVNR": 36, "ATCFID": "AL052024", "NAME": "ERNESTO", "FTECH": "OFCL", "FCST_DTG": "2024-08-20 12:00:00", "RUN_DTG": "2024-08-21 02:44:18", "BASIN": "AL", "STMNR": 5, "CAT_ID": null, "CAT_DESC": null, "MSGID": "WTNT25 KNHC 201435", "VALIDTIME": "2024-08-19 12:00:00" }, "geometry": { "type": "Point", "coordinates": [ -59.599998, 40.900002 ] } },
{ "type": "Feature", "properties": { "ID": 236978, "LAT": 42.9, "LON": -57.6, "VMAX": 80.0, "MSLP": 968.0, "RMAX": 30.0, "FSPD": 13.73252, "FDIR": 44.62067, "RENV": 200.0, "PENV": 1008.0, "VALIDT": 0, "DTG": "2024-08-19 18:00", "LATNOW": 48.3, "LONNOW": -47.2, "WINDNOW": 60.0, "DIRNOW": 18.0, "SPDNOW": 0.0, "TECH": "TRAK", "ADVNR": 36, "ATCFID": "AL052024", "NAME": "ERNESTO", "FTECH": "OFCL", "FCST_DTG": "2024-08-20 12:00:00", "RUN_DTG": "2024-08-21 02:44:18", "BASIN": "AL", "STMNR": 5, "CAT_ID": null, "CAT_DESC": null, "MSGID": "WTNT25 KNHC 201435", "VALIDTIME": "2024-08-19 18:00:00" }, "geometry": { "type": "Point", "coordinates": [ -57.599998, 42.900002 ] } },
{ "type": "Feature", "properties": { "ID": 236979, "LAT": 44.8, "LON": -55.0, "VMAX": 75.0, "MSLP": 971.0, "RMAX": 30.0, "FSPD": 15.90763, "FDIR": 54.40088, "RENV": 200.0, "PENV": 1008.0, "VALIDT": 0, "DTG": "2024-08-20 00:00", "LATNOW": 48.3, "LONNOW": -47.2, "WINDNOW": 60.0, "DIRNOW": 18.0, "SPDNOW": 0.0, "TECH": "TRAK", "ADVNR": 36, "ATCFID": "AL052024", "NAME": "ERNESTO", "FTECH": "OFCL", "FCST_DTG": "2024-08-20 12:00:00", "RUN_DTG": "2024-08-21 02:44:18", "BASIN": "AL", "STMNR": 5, "CAT_ID": null, "CAT_DESC": null, "MSGID": "WTNT25 KNHC 201435", "VALIDTIME": "2024-08-20 00:00:00" }, "geometry": { "type": "Point", "coordinates": [ -55.0, 44.799999 ] } },
{ "type": "Feature", "properties": { "ID": 236980, "LAT": 46.6, "LON": -51.4, "VMAX": 65.0, "MSLP": 975.0, "RMAX": 30.0, "FSPD": 17.02852, "FDIR": 59.09723, "RENV": 150.0, "PENV": 1004.0, "VALIDT": 0, "DTG": "2024-08-20 06:00", "LATNOW": 48.3, "LONNOW": -47.2, "WINDNOW": 60.0, "DIRNOW": 18.0, "SPDNOW": 0.0, "TECH": "TRAK", "ADVNR": 36, "ATCFID": "AL052024", "NAME": "ERNESTO", "FTECH": "OFCL", "FCST_DTG": "2024-08-20 12:00:00", "RUN_DTG": "2024-08-21 02:44:18", "BASIN": "AL", "STMNR": 5, "CAT_ID": null, "CAT_DESC": null, "MSGID": "WTNT25 KNHC 201435", "VALIDTIME": "2024-08-20 06:00:00" }, "geometry": { "type": "Point", "coordinates": [ -51.400002, 46.599998 ] } },
{ "type": "Feature", "properties": { "ID": 236981, "LAT": 48.3, "LON": -47.2, "VMAX": 60.0, "MSLP": 987.0, "RMAX": 40.0, "FSPD": 18.4568, "FDIR": 67.03174, "RENV": 150.0, "PENV": 1004.0, "VALIDT": 0, "DTG": "2024-08-20 12:00", "LATNOW": 48.3, "LONNOW": -47.2, "WINDNOW": 60.0, "DIRNOW": 18.0, "SPDNOW": 0.0, "TECH": "TRAK", "ADVNR": 36, "ATCFID": "AL052024", "NAME": "ERNESTO", "FTECH": "OFCL", "FCST_DTG": "2024-08-20 12:00:00", "RUN_DTG": "2024-08-21 02:44:18", "BASIN": "AL", "STMNR": 5, "CAT_ID": null, "CAT_DESC": null, "MSGID": "WTNT25 KNHC 201435", "VALIDTIME": "2024-08-20 12:00:00" }, "geometry": { "type": "Point", "coordinates": [ -47.200001, 48.299999 ] } },
{ "type": "Feature", "properties": { "ID": 236982, "LAT": 49.0, "LON": -44.7, "VMAX": 60.0, "MSLP": 987.0, "RMAX": 40.0, "FSPD": 19.95349, "FDIR": 75.05914, "RENV": 180.0, "PENV": 1012.0, "VALIDT": 3, "DTG": "2024-08-20 15:00", "LATNOW": 48.3, "LONNOW": -47.2, "WINDNOW": 60.0, "DIRNOW": 18.0, "SPDNOW": 0.0, "TECH": "FCST", "ADVNR": 36, "ATCFID": "AL052024", "NAME": "ERNESTO", "FTECH": "OFCL", "FCST_DTG": "2024-08-20 12:00:00", "RUN_DTG": "2024-08-21 02:44:18", "BASIN": "AL", "STMNR": 5, "CAT_ID": null, "CAT_DESC": null, "MSGID": "WTNT25 KNHC 201435", "VALIDTIME": "2024-08-20 15:00:00" }, "geometry": { "type": "Point", "coordinates": [ -44.700001, 49.0 ] } },
{ "type": "Feature", "properties": { "ID": 236983, "LAT": 50.5, "LON": -36.0, "VMAX": 50.0, "MSLP": 1002.2391, "RMAX": 40.0, "FSPD": 21.11458, "FDIR": 73.72842, "RENV": 180.0, "PENV": 1012.0, "VALIDT": 12, "DTG": "2024-08-21 00:00", "LATNOW": 48.3, "LONNOW": -47.2, "WINDNOW": 60.0, "DIRNOW": 18.0, "SPDNOW": 0.0, "TECH": "FCST", "ADVNR": 36, "ATCFID": "AL052024", "NAME": "ERNESTO", "FTECH": "OFCL", "FCST_DTG": "2024-08-20 12:00:00", "RUN_DTG": "2024-08-21 02:44:18", "BASIN": "AL", "STMNR": 5, "CAT_ID": null, "CAT_DESC": null, "MSGID": "WTNT25 KNHC 201435", "VALIDTIME": "2024-08-21 00:00:00" }, "geometry": { "type": "Point", "coordinates": [ -36.0, 50.5 ] } },
{ "type": "Feature", "properties": { "ID": 236984, "LAT": 52.8, "LON": -23.3, "VMAX": 40.0, "MSLP": 1006.833, "RMAX": 40.0, "FSPD": 21.11458, "FDIR": 73.72842, "RENV": 250.0, "PENV": 1012.0, "VALIDT": 24, "DTG": "2024-08-21 12:00", "LATNOW": 48.3, "LONNOW": -47.2, "WINDNOW": 60.0, "DIRNOW": 18.0, "SPDNOW": 0.0, "TECH": "FCST", "ADVNR": 36, "ATCFID": "AL052024", "NAME": "ERNESTO", "FTECH": "OFCL", "FCST_DTG": "2024-08-20 12:00:00", "RUN_DTG": "2024-08-21 02:44:18", "BASIN": "AL", "STMNR": 5, "CAT_ID": null, "CAT_DESC": null, "MSGID": "WTNT25 KNHC 201435", "VALIDTIME": "2024-08-21 12:00:00" }, "geometry": { "type": "Point", "coordinates": [ -23.299999, 52.799999 ] } },
{ "type": "Feature", "properties": { "ID": 236981, "LAT": 48.3, "LON": -47.2, "VMAX": 60.0, "MSLP": 987.0, "RMAX": 40.0, "FSPD": 18.4568, "FDIR": 67.03174, "RENV": 150.0, "PENV": 1004.0, "VALIDT": 0, "DTG": "2024-08-20 12:00", "LATNOW": 48.3, "LONNOW": -47.2, "WINDNOW": 60.0, "DIRNOW": 18.0, "SPDNOW": 0.0, "TECH": "TRAK", "ADVNR": 36, "ATCFID": "AL052024", "NAME": "ERNESTO", "FTECH": "OFCL", "FCST_DTG": "2024-08-20 12:00:00", "RUN_DTG": "2024-08-21 02:44:18", "BASIN": "AL", "STMNR": 5, "CAT_ID": null, "CAT_DESC": null, "MSGID": "WTNT25 KNHC 201435", "VALIDTIME": "2024-08-20 12:00:00" }, "geometry": { "type": "LineString", "coordinates": [ [ -36.5, 11.5 ], [ -38.2, 11.7 ], [ -39.3, 11.9 ], [ -40.4, 12.1 ], [ -41.9, 12.3 ], [ -43.5, 12.7 ], [ -44.7, 12.8 ], [ -47.0, 13.4 ], [ -49.2, 13.8 ], [ -51.4, 14.2 ], [ -54.6, 14.7 ], [ -56.6, 15.9 ], [ -58.6, 15.9 ], [ -60.5, 16.1 ], [ -62.0, 16.6 ], [ -63.5, 17.6 ], [ -64.7, 18.4 ], [ -66.0, 19.0 ], [ -67.2, 19.9 ], [ -68.0, 21.1 ], [ -68.7, 22.4 ], [ -69.1, 23.3 ], [ -69.3, 24.5 ], [ -69.1, 25.6 ], [ -68.3, 26.6 ], [ -67.5, 27.6 ], [ -66.8, 28.9 ], [ -66.1, 30.0 ], [ -65.3, 31.0 ], [ -65.1, 32.0 ], [ -64.5, 32.6 ], [ -64.2, 33.0 ], [ -63.6, 33.5 ], [ -63.1, 34.2 ], [ -62.7, 35.4 ], [ -62.7, 36.4 ], [ -62.0, 37.7 ], [ -61.1, 39.3 ], [ -59.6, 40.9 ], [ -57.6, 42.9 ], [ -55.0, 44.8 ], [ -51.4, 46.6 ], [ -47.2, 48.3 ] ] } },
{ "type": "Feature", "properties": { "ID": 236984, "LAT": 52.8, "LON": -23.3, "VMAX": 40.0, "MSLP": 1006.833, "RMAX": 40.0, "FSPD": 21.11458, "FDIR": 73.72842, "RENV": 250.0, "PENV": 1012.0, "VALIDT": 24, "DTG": "2024-08-21 12:00", "LATNOW": 48.3, "LONNOW": -47.2, "WINDNOW": 60.0, "DIRNOW": 18.0, "SPDNOW": 0.0, "TECH": "FCST", "ADVNR": 36, "ATCFID": "AL052024", "NAME": "ERNESTO", "FTECH": "OFCL", "FCST_DTG": "2024-08-20 12:00:00", "RUN_DTG": "2024-08-21 02:44:18", "BASIN": "AL", "STMNR": 5, "CAT_ID": null, "CAT_DESC": null, "MSGID": "WTNT25 KNHC 201435", "VALIDTIME": "2024-08-21 12:00:00" }, "geometry": { "type": "LineString", "coordinates": [ [ -47.2, 48.3 ], [ -44.7, 49.0 ], [ -36.0, 50.5 ], [ -23.3, 52.8 ] ] } }
]
}
