{
"type": "FeatureCollection",
"crs": { "type": "name", "properties": { "name": "urn:ogc:def:crs:OGC:1.3:CRS84" } },
"features": [
{ "type": "Feature", "properties": { "ID": 84533, "LAT": 9.0, "LON": -106.0, "VMAX": 20.0, "MSLP": 1007.0, "RMAX": 120.0, "FSPD": 3.04866, "FDIR": 269.99997, "RENV": 200.0, "PENV": 1009.0, "VALIDT": 0, "DTG": "2026-08-26 00:00", "LATNOW": 23.0, "LONNOW": -145.7, "WINDNOW": 40.0, "DIRNOW": 5.0, "SPDNOW": 3.0, "TECH": "TRAK", "ADVNR": 33, "ATCFID": "EP112026", "NAME": "KARINA", "FTECH": "OFCL", "FCST_DTG": "2026-09-07 00:00:00", "RUN_DTG": "2026-09-07 15:08:36", "BASIN": "EP", "STMNR": 11, "CAT_ID": null, "CAT_DESC": null, "MSGID": "WTPZ21 KNHC 041444", "VALIDTIME": "2026-08-26 00:00:00" }, "geometry": { "type": "Point", "coordinates": [ -106.0, 9.0 ] } },
{ "type": "Feature", "properties": { "ID": 84534, "LAT": 9.0, "LON": -106.6, "VMAX": 20.0, "MSLP": 1007.0, "RMAX": 120.0, "FSPD": 3.09134, "FDIR": 279.57944, "RENV": 200.0, "PENV": 1009.0, "VALIDT": 0, "DTG": "2026-08-26 06:00", "LATNOW": 23.0, "LONNOW": -145.7, "WINDNOW": 40.0, "DIRNOW": 5.0, "SPDNOW": 3.0, "TECH": "TRAK", "ADVNR": 33, "ATCFID": "EP112026", "NAME": "KARINA", "FTECH": "OFCL", "FCST_DTG": "2026-09-07 00:00:00", "RUN_DTG": "2026-09-07 15:08:36", "BASIN": "EP", "STMNR": 11, "CAT_ID": null, "CAT_DESC": null, "MSGID": "WTPZ21 KNHC 041444", "VALIDTIME": "2026-08-26 06:00:00" }, "geometry": { "type": "Point", "coordinates": [ -106.599998, 9.0 ] } },
{ "type": "Feature", "properties": { "ID": 84535, "LAT": 9.1, "LON": -107.2, "VMAX": 25.0, "MSLP": 1007.0, "RMAX": 120.0, "FSPD": 1.02889, "FDIR": 360.0, "RENV": 200.0, "PENV": 1009.0, "VALIDT": 0, "DTG": "2026-08-26 12:00", "LATNOW": 23.0, "LONNOW": -145.7, "WINDNOW": 40.0, "DIRNOW": 5.0, "SPDNOW": 3.0, "TECH": "TRAK", "ADVNR": 33, "ATCFID": "EP112026", "NAME": "KARINA", "FTECH": "OFCL", "FCST_DTG": "2026-09-07 00:00:00", "RUN_DTG": "2026-09-07 15:08:36", "BASIN": "EP", "STMNR": 11, "CAT_ID": null, "CAT_DESC": null, "MSGID": "WTPZ21 KNHC 041444", "VALIDTIME": "2026-08-26 12:00:00" }, "geometry": { "type": "Point", "coordinates": [ -107.199997, 9.1 ] } },
{ "type": "Feature", "properties": { "ID": 84536, "LAT": 9.3, "LON": -107.2, "VMAX": 25.0, "MSLP": 1007.0, "RMAX": 120.0, "FSPD": 1.83766, "FDIR": 304.04816, "RENV": 200.0, "PENV": 1009.0, "VALIDT": 0, "DTG": "2026-08-26 18:00", "LATNOW": 23.0, "LONNOW": -145.7, "WINDNOW": 40.0, "DIRNOW": 5.0, "SPDNOW": 3.0, "TECH": "TRAK", "ADVNR": 33, "ATCFID": "EP112026", "NAME": "KARINA", "FTECH": "OFCL", "FCST_DTG": "2026-09-07 00:00:00", "RUN_DTG": "2026-09-07 15:08:36", "BASIN": "EP", "STMNR": 11, "CAT_ID": null, "CAT_DESC": null, "MSGID": "WTPZ21 KNHC 041444", "VALIDTIME": "2026-08-26 18:00:00" }, "geometry": { "type": "Point", "coordinates": [ -107.199997, 9.3 ] } },
{ "type": "Feature", "properties": { "ID": 84537, "LAT": 9.5, "LON": -107.5, "VMAX": 25.0, "MSLP": 1006.0, "RMAX": 140.0, "FSPD": 11.16255, "FDIR": 269.99997, "RENV": 220.0, "PENV": 1009.0, "VALIDT": 0, "DTG": "2026-08-27 00:00", "LATNOW": 23.0, "LONNOW": -145.7, "WINDNOW": 40.0, "DIRNOW": 5.0, "SPDNOW": 3.0, "TECH": "TRAK", "ADVNR": 33, "ATCFID": "EP112026", "NAME": "KARINA", "FTECH": "OFCL", "FCST_DTG": "2026-09-07 00:00:00", "RUN_DTG": "2026-09-07 15:08:36", "BASIN": "EP", "STMNR": 11, "CAT_ID": null, "CAT_DESC": null, "MSGID": "WTPZ21 KNHC 041444", "VALIDTIME": "2026-08-27 00:00:00" }, "geometry": { "type": "Point", "coordinates": [ -107.5, 9.5 ] } },
{ "type": "Feature", "properties": { "ID": 84538, "LAT": 9.5, "LON": -109.7, "VMAX": 30.0, "MSLP": 1006.0, "RMAX": 120.0, "FSPD": 5.07389, "FDIR": 269.99997, "RENV": 220.0, "PENV": 1009.0, "VALIDT": 0, "DTG": "2026-08-27 06:00", "LATNOW": 23.0, "LONNOW": -145.7, "WINDNOW": 40.0, "DIRNOW": 5.0, "SPDNOW": 3.0, "TECH": "TRAK", "ADVNR": 33, "ATCFID": "EP112026", "NAME": "KARINA", "FTECH": "OFCL", "FCST_DTG": "2026-09-07 00:00:00", "RUN_DTG": "2026-09-07 15:08:36", "BASIN": "EP", "STMNR": 11, "CAT_ID": null, "CAT_DESC": null, "MSGID": "WTPZ21 KNHC 041444", "VALIDTIME": "2026-08-27 06:00:00" }, "geometry": { "type": "Point", "coordinates": [ -109.699997, 9.5 ] } },
{ "type": "Feature", "properties": { "ID": 84539, "LAT": 9.5, "LON": -110.7, "VMAX": 30.0, "MSLP": 1006.0, "RMAX": 120.0, "FSPD": 7.11895, "FDIR": 330.13135, "RENV": 220.0, "PENV": 1009.0, "VALIDT": 0, "DTG": "2026-08-27 12:00", "LATNOW": 23.0, "LONNOW": -145.7, "WINDNOW": 40.0, "DIRNOW": 5.0, "SPDNOW": 3.0, "TECH": "TRAK", "ADVNR": 33, "ATCFID": "EP112026", "NAME": "KARINA", "FTECH": "OFCL", "FCST_DTG": "2026-09-07 00:00:00", "RUN_DTG": "2026-09-07 15:08:36", "BASIN": "EP", "STMNR": 11, "CAT_ID": null, "CAT_DESC": null, "MSGID": "WTPZ21 KNHC 041444", "VALIDTIME": "2026-08-27 12:00:00" }, "geometry": { "type": "Point", "coordinates": [ -110.699997, 9.5 ] } },
{ "type": "Feature", "properties": { "ID": 84540, "LAT": 10.7, "LON": -111.4, "VMAX": 40.0, "MSLP": 1001.0, "RMAX": 90.0, "FSPD": 6.48631, "FDIR": 315.54584, "RENV": 220.0, "PENV": 1009.0, "VALIDT": 0, "DTG": "2026-08-27 18:00", "LATNOW": 23.0, "LONNOW": -145.7, "WINDNOW": 40.0, "DIRNOW": 5.0, "SPDNOW": 3.0, "TECH": "TRAK", "ADVNR": 33, "ATCFID": "EP112026", "NAME": "KARINA", "FTECH": "OFCL", "FCST_DTG": "2026-09-07 00:00:00", "RUN_DTG": "2026-09-07 15:08:36", "BASIN": "EP", "STMNR": 11, "CAT_ID": null, "CAT_DESC": null, "MSGID": "WTPZ21 KNHC 041444", "VALIDTIME": "2026-08-27 18:00:00" }, "geometry": { "type": "Point", "coordinates": [ -111.400002, 10.7 ] } },
{ "type": "Feature", "properties": { "ID": 84541, "LAT": 11.6, "LON": -112.3, "VMAX": 45.0, "MSLP": 1000.0, "RMAX": 90.0, "FSPD": 9.04213, "FDIR": 297.07477, "RENV": 220.0, "PENV": 1008.0, "VALIDT": 0, "DTG": "2026-08-28 00:00", "LATNOW": 23.0, "LONNOW": -145.7, "WINDNOW": 40.0, "DIRNOW": 5.0, "SPDNOW": 3.0, "TECH": "TRAK", "ADVNR": 33, "ATCFID": "EP112026", "NAME": "KARINA", "FTECH": "OFCL", "FCST_DTG": "2026-09-07 00:00:00", "RUN_DTG": "2026-09-07 15:08:36", "BASIN": "EP", "STMNR": 11, "CAT_ID": null, "CAT_DESC": null, "MSGID": "WTPZ21 KNHC 041444", "VALIDTIME": "2026-08-28 00:00:00" }, "geometry": { "type": "Point", "coordinates": [ -112.300003, 11.6 ] } },
{ "type": "Feature", "properties": { "ID": 84542, "LAT": 12.4, "LON": -113.9, "VMAX": 45.0, "MSLP": 999.0, "RMAX": 50.0, "FSPD": 4.76882, "FDIR": 302.64166, "RENV": 250.0, "PENV": 1008.0, "VALIDT": 0, "DTG": "2026-08-28 06:00", "LATNOW": 23.0, "LONNOW": -145.7, "WINDNOW": 40.0, "DIRNOW": 5.0, "SPDNOW": 3.0, "TECH": "TRAK", "ADVNR": 33, "ATCFID": "EP112026", "NAME": "KARINA", "FTECH": "OFCL", "FCST_DTG": "2026-09-07 00:00:00", "RUN_DTG": "2026-09-07 15:08:36", "BASIN": "EP", "STMNR": 11, "CAT_ID": null, "CAT_DESC": null, "MSGID": "WTPZ21 KNHC 041444", "VALIDTIME": "2026-08-28 06:00:00" }, "geometry": { "type": "Point", "coordinates": [ -113.900002, 12.4 ] } },
{ "type": "Feature", "properties": { "ID": 84543, "LAT": 12.9, "LON": -114.7, "VMAX": 45.0, "MSLP": 999.0, "RMAX": 50.0, "FSPD": 3.59029, "FDIR": 315.7611, "RENV": 250.0, "PENV": 1008.0, "VALIDT": 0, "DTG": "2026-08-28 12:00", "LATNOW": 23.0, "LONNOW": -145.7, "WINDNOW": 40.0, "DIRNOW": 5.0, "SPDNOW": 3.0, "TECH": "TRAK", "ADVNR": 33, "ATCFID": "EP112026", "NAME": "KARINA", "FTECH": "OFCL", "FCST_DTG": "2026-09-07 00:00:00", "RUN_DTG": "2026-09-07 15:08:36", "BASIN": "EP", "STMNR": 11, "CAT_ID": null, "CAT_DESC": null, "MSGID": "WTPZ21 KNHC 041444", "VALIDTIME": "2026-08-28 12:00:00" }, "geometry": { "type": "Point", "coordinates": [ -114.699997, 12.9 ] } },
{ "type": "Feature", "properties": { "ID": 84544, "LAT": 13.4, "LON": -115.2, "VMAX": 55.0, "MSLP": 990.0, "RMAX": 40.0, "FSPD": 4.34307, "FDIR": 306.31744, "RENV": 250.0, "PENV": 1008.0, "VALIDT": 0, "DTG": "2026-08-28 18:00", "LATNOW": 23.0, "LONNOW": -145.7, "WINDNOW": 40.0, "DIRNOW": 5.0, "SPDNOW": 3.0, "TECH": "TRAK", "ADVNR": 33, "ATCFID": "EP112026", "NAME": "KARINA", "FTECH": "OFCL", "FCST_DTG": "2026-09-07 00:00:00", "RUN_DTG": "2026-09-07 15:08:36", "BASIN": "EP", "STMNR": 11, "CAT_ID": null, "CAT_DESC": null, "MSGID": "WTPZ21 KNHC 041444", "VALIDTIME": "2026-08-28 18:00:00" }, "geometry": { "type": "Point", "coordinates": [ -115.199997, 13.4 ] } },
{ "type": "Feature", "properties": { "ID": 84545, "LAT": 13.9, "LON": -115.9, "VMAX": 55.0, "MSLP": 988.0, "RMAX": 40.0, "FSPD": 4.33696, "FDIR": 306.3768, "RENV": 250.0, "PENV": 1007.0, "VALIDT": 0, "DTG": "2026-08-29 00:00", "LATNOW": 23.0, "LONNOW": -145.7, "WINDNOW": 40.0, "DIRNOW": 5.0, "SPDNOW": 3.0, "TECH": "TRAK", "ADVNR": 33, "ATCFID": "EP112026", "NAME": "KARINA", "FTECH": "OFCL", "FCST_DTG": "2026-09-07 00:00:00", "RUN_DTG": "2026-09-07 15:08:36", "BASIN": "EP", "STMNR": 11, "CAT_ID": null, "CAT_DESC": null, "MSGID": "WTPZ21 KNHC 041444", "VALIDTIME": "2026-08-29 00:00:00" }, "geometry": { "type": "Point", "coordinates": [ -115.900002, 13.9 ] } },
{ "type": "Feature", "properties": { "ID": 84546, "LAT": 14.4, "LON": -116.6, "VMAX": 55.0, "MSLP": 989.0, "RMAX": 40.0, "FSPD": 5.50805, "FDIR": 327.20233, "RENV": 250.0, "PENV": 1009.0, "VALIDT": 0, "DTG": "2026-08-29 06:00", "LATNOW": 23.0, "LONNOW": -145.7, "WINDNOW": 40.0, "DIRNOW": 5.0, "SPDNOW": 3.0, "TECH": "TRAK", "ADVNR": 33, "ATCFID": "EP112026", "NAME": "KARINA", "FTECH": "OFCL", "FCST_DTG": "2026-09-07 00:00:00", "RUN_DTG": "2026-09-07 15:08:36", "BASIN": "EP", "STMNR": 11, "CAT_ID": null, "CAT_DESC": null, "MSGID": "WTPZ21 KNHC 041444", "VALIDTIME": "2026-08-29 06:00:00" }, "geometry": { "type": "Point", "coordinates": [ -116.599998, 14.4 ] } },
{ "type": "Feature", "properties": { "ID": 84547, "LAT": 15.3, "LON": -117.2, "VMAX": 55.0, "MSLP": 989.0, "RMAX": 40.0, "FSPD": 6.82761, "FDIR": 307.06934, "RENV": 240.0, "PENV": 1008.0, "VALIDT": 0, "DTG": "2026-08-29 12:00", "LATNOW": 23.0, "LONNOW": -145.7, "WINDNOW": 40.0, "DIRNOW": 5.0, "SPDNOW": 3.0, "TECH": "TRAK", "ADVNR": 33, "ATCFID": "EP112026", "NAME": "KARINA", "FTECH": "OFCL", "FCST_DTG": "2026-09-07 00:00:00", "RUN_DTG": "2026-09-07 15:08:36", "BASIN": "EP", "STMNR": 11, "CAT_ID": null, "CAT_DESC": null, "MSGID": "WTPZ21 KNHC 041444", "VALIDTIME": "2026-08-29 12:00:00" }, "geometry": { "type": "Point", "coordinates": [ -117.199997, 15.3 ] } },
{ "type": "Feature", "properties": { "ID": 84548, "LAT": 16.1, "LON": -118.3, "VMAX": 60.0, "MSLP": 987.0, "RMAX": 40.0, "FSPD": 8.23042, "FDIR": 295.94678, "RENV": 260.0, "PENV": 1010.0, "VALIDT": 0, "DTG": "2026-08-29 18:00", "LATNOW": 23.0, "LONNOW": -145.7, "WINDNOW": 40.0, "DIRNOW": 5.0, "SPDNOW": 3.0, "TECH": "TRAK", "ADVNR": 33, "ATCFID": "EP112026", "NAME": "KARINA", "FTECH": "OFCL", "FCST_DTG": "2026-09-07 00:00:00", "RUN_DTG": "2026-09-07 15:08:36", "BASIN": "EP", "STMNR": 11, "CAT_ID": null, "CAT_DESC": null, "MSGID": "WTPZ21 KNHC 041444", "VALIDTIME": "2026-08-29 18:00:00" }, "geometry": { "type": "Point", "coordinates": [ -118.300003, 16.1 ] } },
{ "type": "Feature", "properties": { "ID": 84549, "LAT": 16.8, "LON": -119.8, "VMAX": 60.0, "MSLP": 987.0, "RMAX": 50.0, "FSPD": 4.88249, "FDIR": 294.92694, "RENV": 260.0, "PENV": 1008.0, "VALIDT": 0, "DTG": "2026-08-30 00:00", "LATNOW": 23.0, "LONNOW": -145.7, "WINDNOW": 40.0, "DIRNOW": 5.0, "SPDNOW": 3.0, "TECH": "TRAK", "ADVNR": 33, "ATCFID": "EP112026", "NAME": "KARINA", "FTECH": "OFCL", "FCST_DTG": "2026-09-07 00:00:00", "RUN_DTG": "2026-09-07 15:08:36", "BASIN": "EP", "STMNR": 11, "CAT_ID": null, "CAT_DESC": null, "MSGID": "WTPZ21 KNHC 041444", "VALIDTIME": "2026-08-30 00:00:00" }, "geometry": { "type": "Point", "coordinates": [ -119.800003, 16.799999 ] } },
{ "type": "Feature", "properties": { "ID": 84550, "LAT": 17.2, "LON": -120.7, "VMAX": 65.0, "MSLP": 983.0, "RMAX": 20.0, "FSPD": 4.93991, "FDIR": 275.97754, "RENV": 200.0, "PENV": 1008.0, "VALIDT": 0, "DTG": "2026-08-30 06:00", "LATNOW": 23.0, "LONNOW": -145.7, "WINDNOW": 40.0, "DIRNOW": 5.0, "SPDNOW": 3.0, "TECH": "TRAK", "ADVNR": 33, "ATCFID": "EP112026", "NAME": "KARINA", "FTECH": "OFCL", "FCST_DTG": "2026-09-07 00:00:00", "RUN_DTG": "2026-09-07 15:08:36", "BASIN": "EP", "STMNR": 11, "CAT_ID": null, "CAT_DESC": null, "MSGID": "WTPZ21 KNHC 041444", "VALIDTIME": "2026-08-30 06:00:00" }, "geometry": { "type": "Point", "coordinates": [ -120.699997, 17.200001 ] } },
{ "type": "Feature", "properties": { "ID": 84551, "LAT": 17.3, "LON": -121.7, "VMAX": 70.0, "MSLP": 980.0, "RMAX": 20.0, "FSPD": 4.06392, "FDIR": 255.33447, "RENV": 200.0, "PENV": 1008.0, "VALIDT": 0, "DTG": "2026-08-30 12:00", "LATNOW": 23.0, "LONNOW": -145.7, "WINDNOW": 40.0, "DIRNOW": 5.0, "SPDNOW": 3.0, "TECH": "TRAK", "ADVNR": 33, "ATCFID": "EP112026", "NAME": "KARINA", "FTECH": "OFCL", "FCST_DTG": "2026-09-07 00:00:00", "RUN_DTG": "2026-09-07 15:08:36", "BASIN": "EP", "STMNR": 11, "CAT_ID": null, "CAT_DESC": null, "MSGID": "WTPZ21 KNHC 041444", "VALIDTIME": "2026-08-30 12:00:00" }, "geometry": { "type": "Point", "coordinates": [ -121.699997, 17.299999 ] } },
{ "type": "Feature", "properties": { "ID": 84552, "LAT": 17.1, "LON": -122.5, "VMAX": 75.0, "MSLP": 978.0, "RMAX": 5.0, "FSPD": 3.93363, "FDIR": 269.99997, "RENV": 240.0, "PENV": 1008.0, "VALIDT": 0, "DTG": "2026-08-30 18:00", "LATNOW": 23.0, "LONNOW": -145.7, "WINDNOW": 40.0, "DIRNOW": 5.0, "SPDNOW": 3.0, "TECH": "TRAK", "ADVNR": 33, "ATCFID": "EP112026", "NAME": "KARINA", "FTECH": "OFCL", "FCST_DTG": "2026-09-07 00:00:00", "RUN_DTG": "2026-09-07 15:08:36", "BASIN": "EP", "STMNR": 11, "CAT_ID": null, "CAT_DESC": null, "MSGID": "WTPZ21 KNHC 041444", "VALIDTIME": "2026-08-30 18:00:00" }, "geometry": { "type": "Point", "coordinates": [ -122.5, 17.1 ] } },
{ "type": "Feature", "properties": { "ID": 84553, "LAT": 17.1, "LON": -123.3, "VMAX": 110.0, "MSLP": 954.0, "RMAX": 25.0, "FSPD": 3.47922, "FDIR": 278.50305, "RENV": 340.0, "PENV": 1008.0, "VALIDT": 0, "DTG": "2026-08-31 00:00", "LATNOW": 23.0, "LONNOW": -145.7, "WINDNOW": 40.0, "DIRNOW": 5.0, "SPDNOW": 3.0, "TECH": "TRAK", "ADVNR": 33, "ATCFID": "EP112026", "NAME": "KARINA", "FTECH": "OFCL", "FCST_DTG": "2026-09-07 00:00:00", "RUN_DTG": "2026-09-07 15:08:36", "BASIN": "EP", "STMNR": 11, "CAT_ID": null, "CAT_DESC": null, "MSGID": "WTPZ21 KNHC 041444", "VALIDTIME": "2026-08-31 00:00:00" }, "geometry": { "type": "Point", "coordinates": [ -123.300003, 17.1 ] } },
{ "type": "Feature", "properties": { "ID": 84554, "LAT": 17.2, "LON": -124.0, "VMAX": 120.0, "MSLP": 945.0, "RMAX": 15.0, "FSPD": 3.47738, "FDIR": 278.50745, "RENV": 250.0, "PENV": 1008.0, "VALIDT": 0, "DTG": "2026-08-31 06:00", "LATNOW": 23.0, "LONNOW": -145.7, "WINDNOW": 40.0, "DIRNOW": 5.0, "SPDNOW": 3.0, "TECH": "TRAK", "ADVNR": 33, "ATCFID": "EP112026", "NAME": "KARINA", "FTECH": "OFCL", "FCST_DTG": "2026-09-07 00:00:00", "RUN_DTG": "2026-09-07 15:08:36", "BASIN": "EP", "STMNR": 11, "CAT_ID": null, "CAT_DESC": null, "MSGID": "WTPZ21 KNHC 041444", "VALIDTIME": "2026-08-31 06:00:00" }, "geometry": { "type": "Point", "coordinates": [ -124.0, 17.200001 ] } },
{ "type": "Feature", "properties": { "ID": 84555, "LAT": 17.3, "LON": -124.7, "VMAX": 115.0, "MSLP": 950.0, "RMAX": 15.0, "FSPD": 3.47557, "FDIR": 278.51205, "RENV": 250.0, "PENV": 1007.0, "VALIDT": 0, "DTG": "2026-08-31 12:00", "LATNOW": 23.0, "LONNOW": -145.7, "WINDNOW": 40.0, "DIRNOW": 5.0, "SPDNOW": 3.0, "TECH": "TRAK", "ADVNR": 33, "ATCFID": "EP112026", "NAME": "KARINA", "FTECH": "OFCL", "FCST_DTG": "2026-09-07 00:00:00", "RUN_DTG": "2026-09-07 15:08:36", "BASIN": "EP", "STMNR": 11, "CAT_ID": null, "CAT_DESC": null, "MSGID": "WTPZ21 KNHC 041444", "VALIDTIME": "2026-08-31 12:00:00" }, "geometry": { "type": "Point", "coordinates": [ -124.699997, 17.299999 ] } },
{ "type": "Feature", "properties": { "ID": 84556, "LAT": 17.4, "LON": -125.4, "VMAX": 115.0, "MSLP": 950.0, "RMAX": 15.0, "FSPD": 4.67651, "FDIR": 289.26996, "RENV": 250.0, "PENV": 1007.0, "VALIDT": 0, "DTG": "2026-08-31 18:00", "LATNOW": 23.0, "LONNOW": -145.7, "WINDNOW": 40.0, "DIRNOW": 5.0, "SPDNOW": 3.0, "TECH": "TRAK", "ADVNR": 33, "ATCFID": "EP112026", "NAME": "KARINA", "FTECH": "OFCL", "FCST_DTG": "2026-09-07 00:00:00", "RUN_DTG": "2026-09-07 15:08:36", "BASIN": "EP", "STMNR": 11, "CAT_ID": null, "CAT_DESC": null, "MSGID": "WTPZ21 KNHC 041444", "VALIDTIME": "2026-08-31 18:00:00" }, "geometry": { "type": "Point", "coordinates": [ -125.400002, 17.4 ] } },
{ "type": "Feature", "properties": { "ID": 84557, "LAT": 17.7, "LON": -126.3, "VMAX": 115.0, "MSLP": 950.0, "RMAX": 20.0, "FSPD": 5.60321, "FDIR": 285.98804, "RENV": 250.0, "PENV": 1007.0, "VALIDT": 0, "DTG": "2026-09-01 00:00", "LATNOW": 23.0, "LONNOW": -145.7, "WINDNOW": 40.0, "DIRNOW": 5.0, "SPDNOW": 3.0, "TECH": "TRAK", "ADVNR": 33, "ATCFID": "EP112026", "NAME": "KARINA", "FTECH": "OFCL", "FCST_DTG": "2026-09-07 00:00:00", "RUN_DTG": "2026-09-07 15:08:36", "BASIN": "EP", "STMNR": 11, "CAT_ID": null, "CAT_DESC": null, "MSGID": "WTPZ21 KNHC 041444", "VALIDTIME": "2026-09-01 00:00:00" }, "geometry": { "type": "Point", "coordinates": [ -126.300003, 17.700001 ] } },
{ "type": "Feature", "properties": { "ID": 84558, "LAT": 18.0, "LON": -127.4, "VMAX": 120.0, "MSLP": 945.0, "RMAX": 15.0, "FSPD": 5.38192, "FDIR": 269.99997, "RENV": 300.0, "PENV": 1010.0, "VALIDT": 0, "DTG": "2026-09-01 06:00", "LATNOW": 23.0, "LONNOW": -145.7, "WINDNOW": 40.0, "DIRNOW": 5.0, "SPDNOW": 3.0, "TECH": "TRAK", "ADVNR": 33, "ATCFID": "EP112026", "NAME": "KARINA", "FTECH": "OFCL", "FCST_DTG": "2026-09-07 00:00:00", "RUN_DTG": "2026-09-07 15:08:36", "BASIN": "EP", "STMNR": 11, "CAT_ID": null, "CAT_DESC": null, "MSGID": "WTPZ21 KNHC 041444", "VALIDTIME": "2026-09-01 06:00:00" }, "geometry": { "type": "Point", "coordinates": [ -127.400002, 18.0 ] } },
{ "type": "Feature", "properties": { "ID": 84559, "LAT": 18.0, "LON": -128.5, "VMAX": 120.0, "MSLP": 945.0, "RMAX": 15.0, "FSPD": 4.43207, "FDIR": 276.66553, "RENV": 300.0, "PENV": 1010.0, "VALIDT": 0, "DTG": "2026-09-01 12:00", "LATNOW": 23.0, "LONNOW": -145.7, "WINDNOW": 40.0, "DIRNOW": 5.0, "SPDNOW": 3.0, "TECH": "TRAK", "ADVNR": 33, "ATCFID": "EP112026", "NAME": "KARINA", "FTECH": "OFCL", "FCST_DTG": "2026-09-07 00:00:00", "RUN_DTG": "2026-09-07 15:08:36", "BASIN": "EP", "STMNR": 11, "CAT_ID": null, "CAT_DESC": null, "MSGID": "WTPZ21 KNHC 041444", "VALIDTIME": "2026-09-01 12:00:00" }, "geometry": { "type": "Point", "coordinates": [ -128.5, 18.0 ] } },
{ "type": "Feature", "properties": { "ID": 84560, "LAT": 18.1, "LON": -129.4, "VMAX": 115.0, "MSLP": 949.0, "RMAX": 15.0, "FSPD": 4.42965, "FDIR": 276.6692, "RENV": 300.0, "PENV": 1010.0, "VALIDT": 0, "DTG": "2026-09-01 18:00", "LATNOW": 23.0, "LONNOW": -145.7, "WINDNOW": 40.0, "DIRNOW": 5.0, "SPDNOW": 3.0, "TECH": "TRAK", "ADVNR": 33, "ATCFID": "EP112026", "NAME": "KARINA", "FTECH": "OFCL", "FCST_DTG": "2026-09-07 00:00:00", "RUN_DTG": "2026-09-07 15:08:36", "BASIN": "EP", "STMNR": 11, "CAT_ID": null, "CAT_DESC": null, "MSGID": "WTPZ21 KNHC 041444", "VALIDTIME": "2026-09-01 18:00:00" }, "geometry": { "type": "Point", "coordinates": [ -129.399994, 18.1 ] } },
{ "type": "Feature", "properties": { "ID": 84561, "LAT": 18.2, "LON": -130.3, "VMAX": 120.0, "MSLP": 946.0, "RMAX": 15.0, "FSPD": 4.65767, "FDIR": 289.3509, "RENV": 280.0, "PENV": 1009.0, "VALIDT": 0, "DTG": "2026-09-02 00:00", "LATNOW": 23.0, "LONNOW": -145.7, "WINDNOW": 40.0, "DIRNOW": 5.0, "SPDNOW": 3.0, "TECH": "TRAK", "ADVNR": 33, "ATCFID": "EP112026", "NAME": "KARINA", "FTECH": "OFCL", "FCST_DTG": "2026-09-07 00:00:00", "RUN_DTG": "2026-09-07 15:08:36", "BASIN": "EP", "STMNR": 11, "CAT_ID": null, "CAT_DESC": null, "MSGID": "WTPZ21 KNHC 041444", "VALIDTIME": "2026-09-02 00:00:00" }, "geometry": { "type": "Point", "coordinates": [ -130.300003, 18.200001 ] } },
{ "type": "Feature", "properties": { "ID": 84562, "LAT": 18.5, "LON": -131.2, "VMAX": 125.0, "MSLP": 940.0, "RMAX": 15.0, "FSPD": 5.46114, "FDIR": 280.85956, "RENV": 280.0, "PENV": 1010.0, "VALIDT": 0, "DTG": "2026-09-02 06:00", "LATNOW": 23.0, "LONNOW": -145.7, "WINDNOW": 40.0, "DIRNOW": 5.0, "SPDNOW": 3.0, "TECH": "TRAK", "ADVNR": 33, "ATCFID": "EP112026", "NAME": "KARINA", "FTECH": "OFCL", "FCST_DTG": "2026-09-07 00:00:00", "RUN_DTG": "2026-09-07 15:08:36", "BASIN": "EP", "STMNR": 11, "CAT_ID": null, "CAT_DESC": null, "MSGID": "WTPZ21 KNHC 041444", "VALIDTIME": "2026-09-02 06:00:00" }, "geometry": { "type": "Point", "coordinates": [ -131.199997, 18.5 ] } },
{ "type": "Feature", "properties": { "ID": 84563, "LAT": 18.7, "LON": -132.3, "VMAX": 125.0, "MSLP": 940.0, "RMAX": 15.0, "FSPD": 4.89852, "FDIR": 276.02823, "RENV": 280.0, "PENV": 1008.0, "VALIDT": 0, "DTG": "2026-09-02 12:00", "LATNOW": 23.0, "LONNOW": -145.7, "WINDNOW": 40.0, "DIRNOW": 5.0, "SPDNOW": 3.0, "TECH": "TRAK", "ADVNR": 33, "ATCFID": "EP112026", "NAME": "KARINA", "FTECH": "OFCL", "FCST_DTG": "2026-09-07 00:00:00", "RUN_DTG": "2026-09-07 15:08:36", "BASIN": "EP", "STMNR": 11, "CAT_ID": null, "CAT_DESC": null, "MSGID": "WTPZ21 KNHC 041444", "VALIDTIME": "2026-09-02 12:00:00" }, "geometry": { "type": "Point", "coordinates": [ -132.300003, 18.700001 ] } },
{ "type": "Feature", "properties": { "ID": 84564, "LAT": 18.8, "LON": -133.3, "VMAX": 120.0, "MSLP": 943.0, "RMAX": 15.0, "FSPD": 4.83724, "FDIR": 295.17627, "RENV": 280.0, "PENV": 1008.0, "VALIDT": 0, "DTG": "2026-09-02 18:00", "LATNOW": 23.0, "LONNOW": -145.7, "WINDNOW": 40.0, "DIRNOW": 5.0, "SPDNOW": 3.0, "TECH": "TRAK", "ADVNR": 33, "ATCFID": "EP112026", "NAME": "KARINA", "FTECH": "OFCL", "FCST_DTG": "2026-09-07 00:00:00", "RUN_DTG": "2026-09-07 15:08:36", "BASIN": "EP", "STMNR": 11, "CAT_ID": null, "CAT_DESC": null, "MSGID": "WTPZ21 KNHC 041444", "VALIDTIME": "2026-09-02 18:00:00" }, "geometry": { "type": "Point", "coordinates": [ -133.300003, 18.799999 ] } },
{ "type": "Feature", "properties": { "ID": 84565, "LAT": 19.2, "LON": -134.2, "VMAX": 115.0, "MSLP": 947.0, "RMAX": 15.0, "FSPD": 5.0933, "FDIR": 287.63855, "RENV": 280.0, "PENV": 1008.0, "VALIDT": 0, "DTG": "2026-09-03 00:00", "LATNOW": 23.0, "LONNOW": -145.7, "WINDNOW": 40.0, "DIRNOW": 5.0, "SPDNOW": 3.0, "TECH": "TRAK", "ADVNR": 33, "ATCFID": "EP112026", "NAME": "KARINA", "FTECH": "OFCL", "FCST_DTG": "2026-09-07 00:00:00", "RUN_DTG": "2026-09-07 15:08:36", "BASIN": "EP", "STMNR": 11, "CAT_ID": null, "CAT_DESC": null, "MSGID": "WTPZ21 KNHC 041444", "VALIDTIME": "2026-09-03 00:00:00" }, "geometry": { "type": "Point", "coordinates": [ -134.199997, 19.200001 ] } },
{ "type": "Feature", "properties": { "ID": 84566, "LAT": 19.5, "LON": -135.2, "VMAX": 105.0, "MSLP": 957.0, "RMAX": 15.0, "FSPD": 4.95438, "FDIR": 281.98602, "RENV": 240.0, "PENV": 1010.0, "VALIDT": 0, "DTG": "2026-09-03 06:00", "LATNOW": 23.0, "LONNOW": -145.7, "WINDNOW": 40.0, "DIRNOW": 5.0, "SPDNOW": 3.0, "TECH": "TRAK", "ADVNR": 33, "ATCFID": "EP112026", "NAME": "KARINA", "FTECH": "OFCL", "FCST_DTG": "2026-09-07 00:00:00", "RUN_DTG": "2026-09-07 15:08:36", "BASIN": "EP", "STMNR": 11, "CAT_ID": null, "CAT_DESC": null, "MSGID": "WTPZ21 KNHC 041444", "VALIDTIME": "2026-09-03 06:00:00" }, "geometry": { "type": "Point", "coordinates": [ -135.199997, 19.5 ] } },
{ "type": "Feature", "properties": { "ID": 84567, "LAT": 19.7, "LON": -136.2, "VMAX": 100.0, "MSLP": 961.0, "RMAX": 15.0, "FSPD": 4.84334, "FDIR": 269.99997, "RENV": 240.0, "PENV": 1010.0, "VALIDT": 0, "DTG": "2026-09-03 12:00", "LATNOW": 23.0, "LONNOW": -145.7, "WINDNOW": 40.0, "DIRNOW": 5.0, "SPDNOW": 3.0, "TECH": "TRAK", "ADVNR": 33, "ATCFID": "EP112026", "NAME": "KARINA", "FTECH": "OFCL", "FCST_DTG": "2026-09-07 00:00:00", "RUN_DTG": "2026-09-07 15:08:36", "BASIN": "EP", "STMNR": 11, "CAT_ID": null, "CAT_DESC": null, "MSGID": "WTPZ21 KNHC 041444", "VALIDTIME": "2026-09-03 12:00:00" }, "geometry": { "type": "Point", "coordinates": [ -136.199997, 19.700001 ] } },
{ "type": "Feature", "properties": { "ID": 84568, "LAT": 19.7, "LON": -137.2, "VMAX": 90.0, "MSLP": 969.0, "RMAX": 15.0, "FSPD": 4.16735, "FDIR": 291.73645, "RENV": 220.0, "PENV": 1010.0, "VALIDT": 0, "DTG": "2026-09-03 18:00", "LATNOW": 23.0, "LONNOW": -145.7, "WINDNOW": 40.0, "DIRNOW": 5.0, "SPDNOW": 3.0, "TECH": "TRAK", "ADVNR": 33, "ATCFID": "EP112026", "NAME": "KARINA", "FTECH": "OFCL", "FCST_DTG": "2026-09-07 00:00:00", "RUN_DTG": "2026-09-07 15:08:36", "BASIN": "EP", "STMNR": 11, "CAT_ID": null, "CAT_DESC": null, "MSGID": "WTPZ21 KNHC 041444", "VALIDTIME": "2026-09-03 18:00:00" }, "geometry": { "type": "Point", "coordinates": [ -137.199997, 19.700001 ] } },
{ "type": "Feature", "properties": { "ID": 84569, "LAT": 20.0, "LON": -138.0, "VMAX": 90.0, "MSLP": 969.0, "RMAX": 20.0, "FSPD": 4.61245, "FDIR": 289.54825, "RENV": 220.0, "PENV": 1011.0, "VALIDT": 0, "DTG": "2026-09-04 00:00", "LATNOW": 23.0, "LONNOW": -145.7, "WINDNOW": 40.0, "DIRNOW": 5.0, "SPDNOW": 3.0, "TECH": "TRAK", "ADVNR": 33, "ATCFID": "EP112026", "NAME": "KARINA", "FTECH": "OFCL", "FCST_DTG": "2026-09-07 00:00:00", "RUN_DTG": "2026-09-07 15:08:36", "BASIN": "EP", "STMNR": 11, "CAT_ID": null, "CAT_DESC": null, "MSGID": "WTPZ21 KNHC 041444", "VALIDTIME": "2026-09-04 00:00:00" }, "geometry": { "type": "Point", "coordinates": [ -138.0, 20.0 ] } },
{ "type": "Feature", "properties": { "ID": 84570, "LAT": 20.3, "LON": -138.9, "VMAX": 85.0, "MSLP": 972.0, "RMAX": 20.0, "FSPD": 4.82492, "FDIR": 269.99997, "RENV": 240.0, "PENV": 1010.0, "VALIDT": 0, "DTG": "2026-09-04 06:00", "LATNOW": 23.0, "LONNOW": -145.7, "WINDNOW": 40.0, "DIRNOW": 5.0, "SPDNOW": 3.0, "TECH": "TRAK", "ADVNR": 33, "ATCFID": "EP112026", "NAME": "KARINA", "FTECH": "OFCL", "FCST_DTG": "2026-09-07 00:00:00", "RUN_DTG": "2026-09-07 15:08:36", "BASIN": "EP", "STMNR": 11, "CAT_ID": null, "CAT_DESC": null, "MSGID": "WTPZ21 KNHC 041444", "VALIDTIME": "2026-09-04 06:00:00" }, "geometry": { "type": "Point", "coordinates": [ -138.899994, 20.299999 ] } },
{ "type": "Feature", "properties": { "ID": 84571, "LAT": 20.3, "LON": -139.9, "VMAX": 85.0, "MSLP": 972.0, "RMAX": 20.0, "FSPD": 3.99231, "FDIR": 284.93472, "RENV": 230.0, "PENV": 1009.0, "VALIDT": 0, "DTG": "2026-09-04 12:00", "LATNOW": 23.0, "LONNOW": -145.7, "WINDNOW": 40.0, "DIRNOW": 5.0, "SPDNOW": 3.0, "TECH": "TRAK", "ADVNR": 33, "ATCFID": "EP112026", "NAME": "KARINA", "FTECH": "OFCL", "FCST_DTG": "2026-09-07 00:00:00", "RUN_DTG": "2026-09-07 15:08:36", "BASIN": "EP", "STMNR": 11, "CAT_ID": null, "CAT_DESC": null, "MSGID": "WTPZ21 KNHC 041444", "VALIDTIME": "2026-09-04 12:00:00" }, "geometry": { "type": "Point", "coordinates": [ -139.899994, 20.299999 ] } },
{ "type": "Feature", "properties": { "ID": 84572, "LAT": 20.5, "LON": -140.7, "VMAX": 75.0, "MSLP": 978.0, "RMAX": 25.0, "FSPD": 4.36584, "FDIR": 276.76712, "RENV": 230.0, "PENV": 1009.0, "VALIDT": 0, "DTG": "2026-09-04 18:00", "LATNOW": 23.0, "LONNOW": -145.7, "WINDNOW": 40.0, "DIRNOW": 5.0, "SPDNOW": 3.0, "TECH": "TRAK", "ADVNR": 33, "ATCFID": "EP112026", "NAME": "KARINA", "FTECH": "OFCL", "FCST_DTG": "2026-09-07 00:00:00", "RUN_DTG": "2026-09-07 15:08:36", "BASIN": "EP", "STMNR": 11, "CAT_ID": null, "CAT_DESC": null, "MSGID": "WTPZ21 KNHC 041444", "VALIDTIME": "2026-09-04 18:00:00" }, "geometry": { "type": "Point", "coordinates": [ -140.699997, 20.5 ] } },
{ "type": "Feature", "properties": { "ID": 84573, "LAT": 20.6, "LON": -141.6, "VMAX": 75.0, "MSLP": 978.0, "RMAX": 25.0, "FSPD": 4.22401, "FDIR": 316.9487, "RENV": 230.0, "PENV": 1009.0, "VALIDT": 0, "DTG": "2026-09-05 00:00", "LATNOW": 23.0, "LONNOW": -145.7, "WINDNOW": 40.0, "DIRNOW": 5.0, "SPDNOW": 3.0, "TECH": "TRAK", "ADVNR": 33, "ATCFID": "EP112026", "NAME": "KARINA", "FTECH": "OFCL", "FCST_DTG": "2026-09-07 00:00:00", "RUN_DTG": "2026-09-07 15:08:36", "BASIN": "EP", "STMNR": 11, "CAT_ID": null, "CAT_DESC": null, "MSGID": "WTPZ21 KNHC 041444", "VALIDTIME": "2026-09-05 00:00:00" }, "geometry": { "type": "Point", "coordinates": [ -141.600006, 20.6 ] } },
{ "type": "Feature", "properties": { "ID": 84574, "LAT": 21.2, "LON": -142.2, "VMAX": 65.0, "MSLP": 984.0, "RMAX": 25.0, "FSPD": 2.84978, "FDIR": 302.78995, "RENV": 230.0, "PENV": 1009.0, "VALIDT": 0, "DTG": "2026-09-05 06:00", "LATNOW": 23.0, "LONNOW": -145.7, "WINDNOW": 40.0, "DIRNOW": 5.0, "SPDNOW": 3.0, "TECH": "TRAK", "ADVNR": 33, "ATCFID": "EP112026", "NAME": "KARINA", "FTECH": "OFCL", "FCST_DTG": "2026-09-07 00:00:00", "RUN_DTG": "2026-09-07 15:08:36", "BASIN": "EP", "STMNR": 11, "CAT_ID": null, "CAT_DESC": null, "MSGID": "WTPZ21 KNHC 041444", "VALIDTIME": "2026-09-05 06:00:00" }, "geometry": { "type": "Point", "coordinates": [ -142.199997, 21.200001 ] } },
{ "type": "Feature", "properties": { "ID": 84575, "LAT": 21.5, "LON": -142.7, "VMAX": 65.0, "MSLP": 985.0, "RMAX": 25.0, "FSPD": 2.87192, "FDIR": 269.99997, "RENV": 230.0, "PENV": 1009.0, "VALIDT": 0, "DTG": "2026-09-05 12:00", "LATNOW": 23.0, "LONNOW": -145.7, "WINDNOW": 40.0, "DIRNOW": 5.0, "SPDNOW": 3.0, "TECH": "TRAK", "ADVNR": 33, "ATCFID": "EP112026", "NAME": "KARINA", "FTECH": "OFCL", "FCST_DTG": "2026-09-07 00:00:00", "RUN_DTG": "2026-09-07 15:08:36", "BASIN": "EP", "STMNR": 11, "CAT_ID": null, "CAT_DESC": null, "MSGID": "WTPZ21 KNHC 041444", "VALIDTIME": "2026-09-05 12:00:00" }, "geometry": { "type": "Point", "coordinates": [ -142.699997, 21.5 ] } },
{ "type": "Feature", "properties": { "ID": 84576, "LAT": 21.5, "LON": -143.3, "VMAX": 60.0, "MSLP": 988.0, "RMAX": 25.0, "FSPD": 2.45761, "FDIR": 308.90125, "RENV": 200.0, "PENV": 1009.0, "VALIDT": 0, "DTG": "2026-09-05 18:00", "LATNOW": 23.0, "LONNOW": -145.7, "WINDNOW": 40.0, "DIRNOW": 5.0, "SPDNOW": 3.0, "TECH": "TRAK", "ADVNR": 33, "ATCFID": "EP112026", "NAME": "KARINA", "FTECH": "OFCL", "FCST_DTG": "2026-09-07 00:00:00", "RUN_DTG": "2026-09-07 15:08:36", "BASIN": "EP", "STMNR": 11, "CAT_ID": null, "CAT_DESC": null, "MSGID": "WTPZ21 KNHC 041444", "VALIDTIME": "2026-09-05 18:00:00" }, "geometry": { "type": "Point", "coordinates": [ -143.300003, 21.5 ] } },
{ "type": "Feature", "properties": { "ID": 84577, "LAT": 21.8, "LON": -143.7, "VMAX": 50.0, "MSLP": 993.0, "RMAX": 25.0, "FSPD": 2.26815, "FDIR": 335.12836, "RENV": 200.0, "PENV": 1009.0, "VALIDT": 0, "DTG": "2026-09-06 00:00", "LATNOW": 23.0, "LONNOW": -145.7, "WINDNOW": 40.0, "DIRNOW": 5.0, "SPDNOW": 3.0, "TECH": "TRAK", "ADVNR": 33, "ATCFID": "EP112026", "NAME": "KARINA", "FTECH": "OFCL", "FCST_DTG": "2026-09-07 00:00:00", "RUN_DTG": "2026-09-07 15:08:36", "BASIN": "EP", "STMNR": 11, "CAT_ID": null, "CAT_DESC": null, "MSGID": "WTPZ21 KNHC 041444", "VALIDTIME": "2026-09-06 00:00:00" }, "geometry": { "type": "Point", "coordinates": [ -143.699997, 21.799999 ] } },
{ "type": "Feature", "properties": { "ID": 84578, "LAT": 22.2, "LON": -143.9, "VMAX": 45.0, "MSLP": 995.0, "RMAX": 25.0, "FSPD": 4.32582, "FDIR": 298.40466, "RENV": 180.0, "PENV": 1008.0, "VALIDT": 0, "DTG": "2026-09-06 06:00", "LATNOW": 23.0, "LONNOW": -145.7, "WINDNOW": 40.0, "DIRNOW": 5.0, "SPDNOW": 3.0, "TECH": "TRAK", "ADVNR": 33, "ATCFID": "EP112026", "NAME": "KARINA", "FTECH": "OFCL", "FCST_DTG": "2026-09-07 00:00:00", "RUN_DTG": "2026-09-07 15:08:36", "BASIN": "EP", "STMNR": 11, "CAT_ID": null, "CAT_DESC": null, "MSGID": "WTPZ21 KNHC 041444", "VALIDTIME": "2026-09-06 06:00:00" }, "geometry": { "type": "Point", "coordinates": [ -143.899994, 22.200001 ] } },
{ "type": "Feature", "properties": { "ID": 84579, "LAT": 22.6, "LON": -144.7, "VMAX": 50.0, "MSLP": 992.0, "RMAX": 35.0, "FSPD": 2.15931, "FDIR": 298.45624, "RENV": 180.0, "PENV": 1008.0, "VALIDT": 0, "DTG": "2026-09-06 12:00", "LATNOW": 23.0, "LONNOW": -145.7, "WINDNOW": 40.0, "DIRNOW": 5.0, "SPDNOW": 3.0, "TECH": "TRAK", "ADVNR": 33, "ATCFID": "EP112026", "NAME": "KARINA", "FTECH": "OFCL", "FCST_DTG": "2026-09-07 00:00:00", "RUN_DTG": "2026-09-07 15:08:36", "BASIN": "EP", "STMNR": 11, "CAT_ID": null, "CAT_DESC": null, "MSGID": "WTPZ21 KNHC 041444", "VALIDTIME": "2026-09-06 12:00:00" }, "geometry": { "type": "Point", "coordinates": [ -144.699997, 22.6 ] } },
{ "type": "Feature", "properties": { "ID": 84580, "LAT": 22.8, "LON": -145.1, "VMAX": 45.0, "MSLP": 996.0, "RMAX": 35.0, "FSPD": 3.02378, "FDIR": 289.89313, "RENV": 180.0, "PENV": 1009.0, "VALIDT": 0, "DTG": "2026-09-06 18:00", "LATNOW": 23.0, "LONNOW": -145.7, "WINDNOW": 40.0, "DIRNOW": 5.0, "SPDNOW": 3.0, "TECH": "TRAK", "ADVNR": 33, "ATCFID": "EP112026", "NAME": "KARINA", "FTECH": "OFCL", "FCST_DTG": "2026-09-07 00:00:00", "RUN_DTG": "2026-09-07 15:08:36", "BASIN": "EP", "STMNR": 11, "CAT_ID": null, "CAT_DESC": null, "MSGID": "WTPZ21 KNHC 041444", "VALIDTIME": "2026-09-06 18:00:00" }, "geometry": { "type": "Point", "coordinates": [ -145.100006, 22.799999 ] } },
{ "type": "Feature", "properties": { "ID": 84581, "LAT": 23.0, "LON": -145.7, "VMAX": 40.0, "MSLP": 998.0, "RMAX": 40.0, "FSPD": 4.84426, "FDIR": 282.2627, "RENV": 180.0, "PENV": 1009.0, "VALIDT": 0, "DTG": "2026-09-07 00:00", "LATNOW": 23.0, "LONNOW": -145.7, "WINDNOW": 40.0, "DIRNOW": 5.0, "SPDNOW": 3.0, "TECH": "TRAK", "ADVNR": 33, "ATCFID": "EP112026", "NAME": "KARINA", "FTECH": "OFCL", "FCST_DTG": "2026-09-07 00:00:00", "RUN_DTG": "2026-09-07 15:08:36", "BASIN": "EP", "STMNR": 11, "CAT_ID": null, "CAT_DESC": null, "MSGID": "WTPZ21 KNHC 041444", "VALIDTIME": "2026-09-07 00:00:00" }, "geometry": { "type": "Point", "coordinates": [ -145.699997, 23.0 ] } },
{ "type": "Feature", "properties": { "ID": 84582, "LAT": 23.1, "LON": -146.2, "VMAX": 40.0, "MSLP": 998.0, "RMAX": 40.0, "FSPD": 4.42819, "FDIR": 274.44202, "RENV": 180.0, "PENV": 1012.0, "VALIDT": 3, "DTG": "2026-09-07 03:00", "LATNOW": 23.0, "LONNOW": -145.7, "WINDNOW": 40.0, "DIRNOW": 5.0, "SPDNOW": 3.0, "TECH": "FCST", "ADVNR": 33, "ATCFID": "EP112026", "NAME": "KARINA", "FTECH": "OFCL", "FCST_DTG": "2026-09-07 00:00:00", "RUN_DTG": "2026-09-07 15:08:36", "BASIN": "EP", "STMNR": 11, "CAT_ID": null, "CAT_DESC": null, "MSGID": "WTPZ21 KNHC 041444", "VALIDTIME": "2026-09-07 03:00:00" }, "geometry": { "type": "Point", "coordinates": [ -146.199997, 23.1 ] } },
{ "type": "Feature", "properties": { "ID": 84583, "LAT": 23.2, "LON": -147.6, "VMAX": 35.0, "MSLP": 1008.74713, "RMAX": 46.70338, "FSPD": 5.80764, "FDIR": 282.79425, "RENV": 180.0, "PENV": 1012.0, "VALIDT": 12, "DTG": "2026-09-07 12:00", "LATNOW": 23.0, "LONNOW": -145.7, "WINDNOW": 40.0, "DIRNOW": 5.0, "SPDNOW": 3.0, "TECH": "FCST", "ADVNR": 33, "ATCFID": "EP112026", "NAME": "KARINA", "FTECH": "OFCL", "FCST_DTG": "2026-09-07 00:00:00", "RUN_DTG": "2026-09-07 15:08:36", "BASIN": "EP", "STMNR": 11, "CAT_ID": null, "CAT_DESC": null, "MSGID": "WTPZ21 KNHC 041444", "VALIDTIME": "2026-09-07 12:00:00" }, "geometry": { "type": "Point", "coordinates": [ -147.600006, 23.200001 ] } },
{ "type": "Feature", "properties": { "ID": 84584, "LAT": 23.7, "LON": -150.0, "VMAX": 30.0, "MSLP": 1010.40607, "RMAX": 48.37551, "FSPD": 5.80764, "FDIR": 282.79425, "RENV": 250.0, "PENV": 1012.0, "VALIDT": 24, "DTG": "2026-09-08 00:00", "LATNOW": 23.0, "LONNOW": -145.7, "WINDNOW": 40.0, "DIRNOW": 5.0, "SPDNOW": 3.0, "TECH": "FCST", "ADVNR": 33, "ATCFID": "EP112026", "NAME": "KARINA", "FTECH": "OFCL", "FCST_DTG": "2026-09-07 00:00:00", "RUN_DTG": "2026-09-07 15:08:36", "BASIN": "EP", "STMNR": 11, "CAT_ID": null, "CAT_DESC": null, "MSGID": "WTPZ21 KNHC 041444", "VALIDTIME": "2026-09-08 00:00:00" }, "geometry": { "type": "Point", "coordinates": [ -150.0, 23.700001 ] } },
{ "type": "Feature", "properties": { "ID": 84581, "LAT": 23.0, "LON": -145.7, "VMAX": 40.0, "MSLP": 998.0, "RMAX": 40.0, "FSPD": 4.84426, "FDIR": 282.2627, "RENV": 180.0, "PENV": 1009.0, "VALIDT": 0, "DTG": "2026-09-07 00:00", "LATNOW": 23.0, "LONNOW": -145.7, "WINDNOW": 40.0, "DIRNOW": 5.0, "SPDNOW": 3.0, "TECH": "TRAK", "ADVNR": 33, "ATCFID": "EP112026", "NAME": "KARINA", "FTECH": "OFCL", "FCST_DTG": "2026-09-07 00:00:00", "RUN_DTG": "2026-09-07 15:08:36", "BASIN": "EP", "STMNR": 11, "CAT_ID": null, "CAT_DESC": null, "MSGID": "WTPZ21 KNHC 041444", "VALIDTIME": "2026-09-07 00:00:00" }, "geometry": { "type": "LineString", "coordinates": [ [ -106.0, 9.0 ], [ -106.6, 9.0 ], [ -107.2, 9.1 ], [ -107.2, 9.3 ], [ -107.5, 9.5 ], [ -109.7, 9.5 ], [ -110.7, 9.5 ], [ -111.4, 10.7 ], [ -112.3, 11.6 ], [ -113.9, 12.4 ], [ -114.7, 12.9 ], [ -115.2, 13.4 ], [ -115.9, 13.9 ], [ -116.6, 14.4 ], [ -117.2, 15.3 ], [ -118.3, 16.1 ], [ -119.8, 16.8 ], [ -120.7, 17.2 ], [ -121.7, 17.3 ], [ -122.5, 17.1 ], [ -123.3, 17.1 ], [ -124.0, 17.2 ], [ -124.7, 17.3 ], [ -125.4, 17.4 ], [ -126.3, 17.7 ], [ -127.4, 18.0 ], [ -128.5, 18.0 ], [ -129.4, 18.1 ], [ -130.3, 18.2 ], [ -131.2, 18.5 ], [ -132.3, 18.7 ], [ -133.3, 18.8 ], [ -134.2, 19.2 ], [ -135.2, 19.5 ], [ -136.2, 19.7 ], [ -137.2, 19.7 ], [ -138.0, 20.0 ], [ -138.9, 20.3 ], [ -139.9, 20.3 ], [ -140.7, 20.5 ], [ -141.6, 20.6 ], [ -142.2, 21.2 ], [ -142.7, 21.5 ], [ -143.3, 21.5 ], [ -143.7, 21.8 ], [ -143.9, 22.2 ], [ -144.7, 22.6 ], [ -145.1, 22.8 ], [ -145.7, 23.0 ] ] } },
{ "type": "Feature", "properties": { "ID": 84584, "LAT": 23.7, "LON": -150.0, "VMAX": 30.0, "MSLP": 1010.40607, "RMAX": 48.37551, "FSPD": 5.80764, "FDIR": 282.79425, "RENV": 250.0, "PENV": 1012.0, "VALIDT": 24, "DTG": "2026-09-08 00:00", "LATNOW": 23.0, "LONNOW": -145.7, "WINDNOW": 40.0, "DIRNOW": 5.0, "SPDNOW": 3.0, "TECH": "FCST", "ADVNR": 33, "ATCFID": "EP112026", "NAME": "KARINA", "FTECH": "OFCL", "FCST_DTG": "2026-09-07 00:00:00", "RUN_DTG": "2026-09-07 15:08:36", "BASIN": "EP", "STMNR": 11, "CAT_ID": null, "CAT_DESC": null, "MSGID": "WTPZ21 KNHC 041444", "VALIDTIME": "2026-09-08 00:00:00" }, "geometry": { "type": "LineString", "coordinates": [ [ -145.7, 23.0 ], [ -146.2, 23.1 ], [ -147.6, 23.2 ], [ -150.0, 23.7 ] ] } }
]
}
