{
"type": "FeatureCollection",
"crs": { "type": "name", "properties": { "name": "urn:ogc:def:crs:OGC:1.3:CRS84" } },
"features": [
{ "type": "Feature", "properties": { "ID": 8480, "LAT": -7.7, "LON": 176.6, "VMAX": 15.0, "MSLP": 1013.8515, "RMAX": 40.0, "FSPD": 8.72558, "FDIR": 263.2281, "RENV": 500.0, "PENV": 1012.0, "VALIDT": 0, "DTG": "2026-04-02 12:00", "LATNOW": -26.8, "LONNOW": 179.0, "WINDNOW": 55.0, "DIRNOW": 3.0, "SPDNOW": 5.0, "TECH": "TRAK", "ADVNR": 14, "ATCFID": "SH312026", "NAME": "VAIANU", "FTECH": "JTWC", "FCST_DTG": "2026-04-09 06:00:00", "RUN_DTG": "2026-04-09 20:47:56", "BASIN": "SH", "STMNR": 31, "CAT_ID": null, "CAT_DESC": null, "MSGID": "WTPS32 PGTW 090900", "VALIDTIME": "2026-04-02 12:00:00" }, "geometry": { "type": "Point", "coordinates": [ 176.600006, -7.7 ] } },
{ "type": "Feature", "properties": { "ID": 8481, "LAT": -7.9, "LON": 174.9, "VMAX": 15.0, "MSLP": 1013.8515, "RMAX": 40.0, "FSPD": 9.19, "FDIR": 250.37436, "RENV": 500.0, "PENV": 1012.0, "VALIDT": 0, "DTG": "2026-04-02 18:00", "LATNOW": -26.8, "LONNOW": 179.0, "WINDNOW": 55.0, "DIRNOW": 3.0, "SPDNOW": 5.0, "TECH": "TRAK", "ADVNR": 14, "ATCFID": "SH312026", "NAME": "VAIANU", "FTECH": "JTWC", "FCST_DTG": "2026-04-09 06:00:00", "RUN_DTG": "2026-04-09 20:47:56", "BASIN": "SH", "STMNR": 31, "CAT_ID": null, "CAT_DESC": null, "MSGID": "WTPS32 PGTW 090900", "VALIDTIME": "2026-04-02 18:00:00" }, "geometry": { "type": "Point", "coordinates": [ 174.899994, -7.9 ] } },
{ "type": "Feature", "properties": { "ID": 8482, "LAT": -8.5, "LON": 173.2, "VMAX": 25.0, "MSLP": 1011.80975, "RMAX": 45.0, "FSPD": 6.0127, "FDIR": 199.75337, "RENV": 500.0, "PENV": 1012.0, "VALIDT": 0, "DTG": "2026-04-03 00:00", "LATNOW": -26.8, "LONNOW": 179.0, "WINDNOW": 55.0, "DIRNOW": 3.0, "SPDNOW": 5.0, "TECH": "TRAK", "ADVNR": 14, "ATCFID": "SH312026", "NAME": "VAIANU", "FTECH": "JTWC", "FCST_DTG": "2026-04-09 06:00:00", "RUN_DTG": "2026-04-09 20:47:56", "BASIN": "SH", "STMNR": 31, "CAT_ID": null, "CAT_DESC": null, "MSGID": "WTPS32 PGTW 090900", "VALIDTIME": "2026-04-03 00:00:00" }, "geometry": { "type": "Point", "coordinates": [ 173.199997, -8.5 ] } },
{ "type": "Feature", "properties": { "ID": 8483, "LAT": -9.6, "LON": 172.8, "VMAX": 25.0, "MSLP": 1011.80975, "RMAX": 45.0, "FSPD": 6.0105, "FDIR": 199.69499, "RENV": 500.0, "PENV": 1012.0, "VALIDT": 0, "DTG": "2026-04-03 06:00", "LATNOW": -26.8, "LONNOW": 179.0, "WINDNOW": 55.0, "DIRNOW": 3.0, "SPDNOW": 5.0, "TECH": "TRAK", "ADVNR": 14, "ATCFID": "SH312026", "NAME": "VAIANU", "FTECH": "JTWC", "FCST_DTG": "2026-04-09 06:00:00", "RUN_DTG": "2026-04-09 20:47:56", "BASIN": "SH", "STMNR": 31, "CAT_ID": null, "CAT_DESC": null, "MSGID": "WTPS32 PGTW 090900", "VALIDTIME": "2026-04-03 06:00:00" }, "geometry": { "type": "Point", "coordinates": [ 172.800003, -9.6 ] } },
{ "type": "Feature", "properties": { "ID": 8484, "LAT": -10.7, "LON": 172.4, "VMAX": 25.0, "MSLP": 1011.80975, "RMAX": 45.0, "FSPD": 5.96935, "FDIR": 210.4795, "RENV": 500.0, "PENV": 1012.0, "VALIDT": 0, "DTG": "2026-04-03 12:00", "LATNOW": -26.8, "LONNOW": 179.0, "WINDNOW": 55.0, "DIRNOW": 3.0, "SPDNOW": 5.0, "TECH": "TRAK", "ADVNR": 14, "ATCFID": "SH312026", "NAME": "VAIANU", "FTECH": "JTWC", "FCST_DTG": "2026-04-09 06:00:00", "RUN_DTG": "2026-04-09 20:47:56", "BASIN": "SH", "STMNR": 31, "CAT_ID": null, "CAT_DESC": null, "MSGID": "WTPS32 PGTW 090900", "VALIDTIME": "2026-04-03 12:00:00" }, "geometry": { "type": "Point", "coordinates": [ 172.399994, -10.7 ] } },
{ "type": "Feature", "properties": { "ID": 8485, "LAT": -11.7, "LON": 171.8, "VMAX": 25.0, "MSLP": 1011.80975, "RMAX": 45.0, "FSPD": 3.98219, "FDIR": 219.18422, "RENV": 500.0, "PENV": 1012.0, "VALIDT": 0, "DTG": "2026-04-03 18:00", "LATNOW": -26.8, "LONNOW": 179.0, "WINDNOW": 55.0, "DIRNOW": 3.0, "SPDNOW": 5.0, "TECH": "TRAK", "ADVNR": 14, "ATCFID": "SH312026", "NAME": "VAIANU", "FTECH": "JTWC", "FCST_DTG": "2026-04-09 06:00:00", "RUN_DTG": "2026-04-09 20:47:56", "BASIN": "SH", "STMNR": 31, "CAT_ID": null, "CAT_DESC": null, "MSGID": "WTPS32 PGTW 090900", "VALIDTIME": "2026-04-03 18:00:00" }, "geometry": { "type": "Point", "coordinates": [ 171.800003, -11.7 ] } },
{ "type": "Feature", "properties": { "ID": 8486, "LAT": -12.3, "LON": 171.3, "VMAX": 30.0, "MSLP": 1010.40607, "RMAX": 44.21983, "FSPD": 3.24587, "FDIR": 198.0197, "RENV": 500.0, "PENV": 1012.0, "VALIDT": 0, "DTG": "2026-04-04 00:00", "LATNOW": -26.8, "LONNOW": 179.0, "WINDNOW": 55.0, "DIRNOW": 3.0, "SPDNOW": 5.0, "TECH": "TRAK", "ADVNR": 14, "ATCFID": "SH312026", "NAME": "VAIANU", "FTECH": "JTWC", "FCST_DTG": "2026-04-09 06:00:00", "RUN_DTG": "2026-04-09 20:47:56", "BASIN": "SH", "STMNR": 31, "CAT_ID": null, "CAT_DESC": null, "MSGID": "WTPS32 PGTW 090900", "VALIDTIME": "2026-04-04 00:00:00" }, "geometry": { "type": "Point", "coordinates": [ 171.300003, -12.3 ] } },
{ "type": "Feature", "properties": { "ID": 8487, "LAT": -12.9, "LON": 171.1, "VMAX": 30.0, "MSLP": 1010.40607, "RMAX": 44.21983, "FSPD": 2.11789, "FDIR": 166.31631, "RENV": 500.0, "PENV": 1012.0, "VALIDT": 0, "DTG": "2026-04-04 06:00", "LATNOW": -26.8, "LONNOW": 179.0, "WINDNOW": 55.0, "DIRNOW": 3.0, "SPDNOW": 5.0, "TECH": "TRAK", "ADVNR": 14, "ATCFID": "SH312026", "NAME": "VAIANU", "FTECH": "JTWC", "FCST_DTG": "2026-04-09 06:00:00", "RUN_DTG": "2026-04-09 20:47:56", "BASIN": "SH", "STMNR": 31, "CAT_ID": null, "CAT_DESC": null, "MSGID": "WTPS32 PGTW 090900", "VALIDTIME": "2026-04-04 06:00:00" }, "geometry": { "type": "Point", "coordinates": [ 171.100006, -12.9 ] } },
{ "type": "Feature", "properties": { "ID": 8488, "LAT": -13.3, "LON": 171.2, "VMAX": 30.0, "MSLP": 1010.40607, "RMAX": 44.21983, "FSPD": 1.43539, "FDIR": 135.79099, "RENV": 500.0, "PENV": 1012.0, "VALIDT": 0, "DTG": "2026-04-04 12:00", "LATNOW": -26.8, "LONNOW": 179.0, "WINDNOW": 55.0, "DIRNOW": 3.0, "SPDNOW": 5.0, "TECH": "TRAK", "ADVNR": 14, "ATCFID": "SH312026", "NAME": "VAIANU", "FTECH": "JTWC", "FCST_DTG": "2026-04-09 06:00:00", "RUN_DTG": "2026-04-09 20:47:56", "BASIN": "SH", "STMNR": 31, "CAT_ID": null, "CAT_DESC": null, "MSGID": "WTPS32 PGTW 090900", "VALIDTIME": "2026-04-04 12:00:00" }, "geometry": { "type": "Point", "coordinates": [ 171.199997, -13.3 ] } },
{ "type": "Feature", "properties": { "ID": 8489, "LAT": -13.5, "LON": 171.4, "VMAX": 30.0, "MSLP": 1010.40607, "RMAX": 44.21983, "FSPD": 2.526, "FDIR": 127.66028, "RENV": 500.0, "PENV": 1012.0, "VALIDT": 0, "DTG": "2026-04-04 18:00", "LATNOW": -26.8, "LONNOW": 179.0, "WINDNOW": 55.0, "DIRNOW": 3.0, "SPDNOW": 5.0, "TECH": "TRAK", "ADVNR": 14, "ATCFID": "SH312026", "NAME": "VAIANU", "FTECH": "JTWC", "FCST_DTG": "2026-04-09 06:00:00", "RUN_DTG": "2026-04-09 20:47:56", "BASIN": "SH", "STMNR": 31, "CAT_ID": null, "CAT_DESC": null, "MSGID": "WTPS32 PGTW 090900", "VALIDTIME": "2026-04-04 18:00:00" }, "geometry": { "type": "Point", "coordinates": [ 171.399994, -13.5 ] } },
{ "type": "Feature", "properties": { "ID": 8490, "LAT": -13.8, "LON": 171.8, "VMAX": 40.0, "MSLP": 994.0, "RMAX": 40.0, "FSPD": 5.37528, "FDIR": 132.06226, "RENV": 170.0, "PENV": 1003.0, "VALIDT": 0, "DTG": "2026-04-05 00:00", "LATNOW": -26.8, "LONNOW": 179.0, "WINDNOW": 55.0, "DIRNOW": 3.0, "SPDNOW": 5.0, "TECH": "TRAK", "ADVNR": 14, "ATCFID": "SH312026", "NAME": "VAIANU", "FTECH": "JTWC", "FCST_DTG": "2026-04-09 06:00:00", "RUN_DTG": "2026-04-09 20:47:56", "BASIN": "SH", "STMNR": 31, "CAT_ID": null, "CAT_DESC": null, "MSGID": "WTPS32 PGTW 090900", "VALIDTIME": "2026-04-05 00:00:00" }, "geometry": { "type": "Point", "coordinates": [ 171.800003, -13.8 ] } },
{ "type": "Feature", "properties": { "ID": 8491, "LAT": -14.5, "LON": 172.6, "VMAX": 50.0, "MSLP": 994.0, "RMAX": 40.0, "FSPD": 2.28583, "FDIR": 205.81134, "RENV": 170.0, "PENV": 1003.0, "VALIDT": 0, "DTG": "2026-04-05 06:00", "LATNOW": -26.8, "LONNOW": 179.0, "WINDNOW": 55.0, "DIRNOW": 3.0, "SPDNOW": 5.0, "TECH": "TRAK", "ADVNR": 14, "ATCFID": "SH312026", "NAME": "VAIANU", "FTECH": "JTWC", "FCST_DTG": "2026-04-09 06:00:00", "RUN_DTG": "2026-04-09 20:47:56", "BASIN": "SH", "STMNR": 31, "CAT_ID": null, "CAT_DESC": null, "MSGID": "WTPS32 PGTW 090900", "VALIDTIME": "2026-04-05 06:00:00" }, "geometry": { "type": "Point", "coordinates": [ 172.600006, -14.5 ] } },
{ "type": "Feature", "properties": { "ID": 8492, "LAT": -14.9, "LON": 172.4, "VMAX": 55.0, "MSLP": 988.0, "RMAX": 30.0, "FSPD": 1.43054, "FDIR": 135.99127, "RENV": 200.0, "PENV": 1002.0, "VALIDT": 0, "DTG": "2026-04-05 12:00", "LATNOW": -26.8, "LONNOW": 179.0, "WINDNOW": 55.0, "DIRNOW": 3.0, "SPDNOW": 5.0, "TECH": "TRAK", "ADVNR": 14, "ATCFID": "SH312026", "NAME": "VAIANU", "FTECH": "JTWC", "FCST_DTG": "2026-04-09 06:00:00", "RUN_DTG": "2026-04-09 20:47:56", "BASIN": "SH", "STMNR": 31, "CAT_ID": null, "CAT_DESC": null, "MSGID": "WTPS32 PGTW 090900", "VALIDTIME": "2026-04-05 12:00:00" }, "geometry": { "type": "Point", "coordinates": [ 172.399994, -14.9 ] } },
{ "type": "Feature", "properties": { "ID": 8493, "LAT": -15.1, "LON": 172.6, "VMAX": 75.0, "MSLP": 987.0, "RMAX": 30.0, "FSPD": 3.95945, "FDIR": 141.2211, "RENV": 200.0, "PENV": 1004.0, "VALIDT": 0, "DTG": "2026-04-05 18:00", "LATNOW": -26.8, "LONNOW": 179.0, "WINDNOW": 55.0, "DIRNOW": 3.0, "SPDNOW": 5.0, "TECH": "TRAK", "ADVNR": 14, "ATCFID": "SH312026", "NAME": "VAIANU", "FTECH": "JTWC", "FCST_DTG": "2026-04-09 06:00:00", "RUN_DTG": "2026-04-09 20:47:56", "BASIN": "SH", "STMNR": 31, "CAT_ID": null, "CAT_DESC": null, "MSGID": "WTPS32 PGTW 090900", "VALIDTIME": "2026-04-05 18:00:00" }, "geometry": { "type": "Point", "coordinates": [ 172.600006, -15.1 ] } },
{ "type": "Feature", "properties": { "ID": 8494, "LAT": -15.7, "LON": 173.1, "VMAX": 80.0, "MSLP": 973.0, "RMAX": 15.0, "FSPD": 3.2178, "FDIR": 129.75449, "RENV": 240.0, "PENV": 1003.0, "VALIDT": 0, "DTG": "2026-04-06 00:00", "LATNOW": -26.8, "LONNOW": 179.0, "WINDNOW": 55.0, "DIRNOW": 3.0, "SPDNOW": 5.0, "TECH": "TRAK", "ADVNR": 14, "ATCFID": "SH312026", "NAME": "VAIANU", "FTECH": "JTWC", "FCST_DTG": "2026-04-09 06:00:00", "RUN_DTG": "2026-04-09 20:47:56", "BASIN": "SH", "STMNR": 31, "CAT_ID": null, "CAT_DESC": null, "MSGID": "WTPS32 PGTW 090900", "VALIDTIME": "2026-04-06 00:00:00" }, "geometry": { "type": "Point", "coordinates": [ 173.100006, -15.7 ] } },
{ "type": "Feature", "properties": { "ID": 8495, "LAT": -16.1, "LON": 173.6, "VMAX": 90.0, "MSLP": 971.0, "RMAX": 15.0, "FSPD": 2.28246, "FDIR": 154.3638, "RENV": 240.0, "PENV": 1004.0, "VALIDT": 0, "DTG": "2026-04-06 06:00", "LATNOW": -26.8, "LONNOW": 179.0, "WINDNOW": 55.0, "DIRNOW": 3.0, "SPDNOW": 5.0, "TECH": "TRAK", "ADVNR": 14, "ATCFID": "SH312026", "NAME": "VAIANU", "FTECH": "JTWC", "FCST_DTG": "2026-04-09 06:00:00", "RUN_DTG": "2026-04-09 20:47:56", "BASIN": "SH", "STMNR": 31, "CAT_ID": null, "CAT_DESC": null, "MSGID": "WTPS32 PGTW 090900", "VALIDTIME": "2026-04-06 06:00:00" }, "geometry": { "type": "Point", "coordinates": [ 173.600006, -16.1 ] } },
{ "type": "Feature", "properties": { "ID": 8496, "LAT": -16.5, "LON": 173.8, "VMAX": 95.0, "MSLP": 964.0, "RMAX": 15.0, "FSPD": 4.27304, "FDIR": 136.24957, "RENV": 240.0, "PENV": 1004.0, "VALIDT": 0, "DTG": "2026-04-06 12:00", "LATNOW": -26.8, "LONNOW": 179.0, "WINDNOW": 55.0, "DIRNOW": 3.0, "SPDNOW": 5.0, "TECH": "TRAK", "ADVNR": 14, "ATCFID": "SH312026", "NAME": "VAIANU", "FTECH": "JTWC", "FCST_DTG": "2026-04-09 06:00:00", "RUN_DTG": "2026-04-09 20:47:56", "BASIN": "SH", "STMNR": 31, "CAT_ID": null, "CAT_DESC": null, "MSGID": "WTPS32 PGTW 090900", "VALIDTIME": "2026-04-06 12:00:00" }, "geometry": { "type": "Point", "coordinates": [ 173.800003, -16.5 ] } },
{ "type": "Feature", "properties": { "ID": 8497, "LAT": -17.1, "LON": 174.4, "VMAX": 95.0, "MSLP": 959.0, "RMAX": 15.0, "FSPD": 5.5057, "FDIR": 159.12888, "RENV": 250.0, "PENV": 1004.0, "VALIDT": 0, "DTG": "2026-04-06 18:00", "LATNOW": -26.8, "LONNOW": 179.0, "WINDNOW": 55.0, "DIRNOW": 3.0, "SPDNOW": 5.0, "TECH": "TRAK", "ADVNR": 14, "ATCFID": "SH312026", "NAME": "VAIANU", "FTECH": "JTWC", "FCST_DTG": "2026-04-09 06:00:00", "RUN_DTG": "2026-04-09 20:47:56", "BASIN": "SH", "STMNR": 31, "CAT_ID": null, "CAT_DESC": null, "MSGID": "WTPS32 PGTW 090900", "VALIDTIME": "2026-04-06 18:00:00" }, "geometry": { "type": "Point", "coordinates": [ 174.399994, -17.1 ] } },
{ "type": "Feature", "properties": { "ID": 8498, "LAT": -18.1, "LON": 174.8, "VMAX": 100.0, "MSLP": 958.0, "RMAX": 15.0, "FSPD": 6.16139, "FDIR": 156.69952, "RENV": 240.0, "PENV": 1004.0, "VALIDT": 0, "DTG": "2026-04-07 00:00", "LATNOW": -26.8, "LONNOW": 179.0, "WINDNOW": 55.0, "DIRNOW": 3.0, "SPDNOW": 5.0, "TECH": "TRAK", "ADVNR": 14, "ATCFID": "SH312026", "NAME": "VAIANU", "FTECH": "JTWC", "FCST_DTG": "2026-04-09 06:00:00", "RUN_DTG": "2026-04-09 20:47:56", "BASIN": "SH", "STMNR": 31, "CAT_ID": null, "CAT_DESC": null, "MSGID": "WTPS32 PGTW 090900", "VALIDTIME": "2026-04-07 00:00:00" }, "geometry": { "type": "Point", "coordinates": [ 174.800003, -18.1 ] } },
{ "type": "Feature", "properties": { "ID": 8499, "LAT": -19.2, "LON": 175.3, "VMAX": 100.0, "MSLP": 954.0, "RMAX": 15.0, "FSPD": 5.03914, "FDIR": 144.7575, "RENV": 240.0, "PENV": 1004.0, "VALIDT": 0, "DTG": "2026-04-07 06:00", "LATNOW": -26.8, "LONNOW": 179.0, "WINDNOW": 55.0, "DIRNOW": 3.0, "SPDNOW": 5.0, "TECH": "TRAK", "ADVNR": 14, "ATCFID": "SH312026", "NAME": "VAIANU", "FTECH": "JTWC", "FCST_DTG": "2026-04-09 06:00:00", "RUN_DTG": "2026-04-09 20:47:56", "BASIN": "SH", "STMNR": 31, "CAT_ID": null, "CAT_DESC": null, "MSGID": "WTPS32 PGTW 090900", "VALIDTIME": "2026-04-07 06:00:00" }, "geometry": { "type": "Point", "coordinates": [ 175.300003, -19.200001 ] } },
{ "type": "Feature", "properties": { "ID": 8500, "LAT": -20.0, "LON": 175.9, "VMAX": 95.0, "MSLP": 954.0, "RMAX": 15.0, "FSPD": 7.75245, "FDIR": 136.88202, "RENV": 240.0, "PENV": 1004.0, "VALIDT": 0, "DTG": "2026-04-07 12:00", "LATNOW": -26.8, "LONNOW": 179.0, "WINDNOW": 55.0, "DIRNOW": 3.0, "SPDNOW": 5.0, "TECH": "TRAK", "ADVNR": 14, "ATCFID": "SH312026", "NAME": "VAIANU", "FTECH": "JTWC", "FCST_DTG": "2026-04-09 06:00:00", "RUN_DTG": "2026-04-09 20:47:56", "BASIN": "SH", "STMNR": 31, "CAT_ID": null, "CAT_DESC": null, "MSGID": "WTPS32 PGTW 090900", "VALIDTIME": "2026-04-07 12:00:00" }, "geometry": { "type": "Point", "coordinates": [ 175.899994, -20.0 ] } },
{ "type": "Feature", "properties": { "ID": 8501, "LAT": -21.1, "LON": 177.0, "VMAX": 90.0, "MSLP": 958.0, "RMAX": 15.0, "FSPD": 5.97336, "FDIR": 161.3258, "RENV": 240.0, "PENV": 1005.0, "VALIDT": 0, "DTG": "2026-04-07 18:00", "LATNOW": -26.8, "LONNOW": 179.0, "WINDNOW": 55.0, "DIRNOW": 3.0, "SPDNOW": 5.0, "TECH": "TRAK", "ADVNR": 14, "ATCFID": "SH312026", "NAME": "VAIANU", "FTECH": "JTWC", "FCST_DTG": "2026-04-09 06:00:00", "RUN_DTG": "2026-04-09 20:47:56", "BASIN": "SH", "STMNR": 31, "CAT_ID": null, "CAT_DESC": null, "MSGID": "WTPS32 PGTW 090900", "VALIDTIME": "2026-04-07 18:00:00" }, "geometry": { "type": "Point", "coordinates": [ 177.0, -21.1 ] } },
{ "type": "Feature", "properties": { "ID": 8502, "LAT": -22.2, "LON": 177.4, "VMAX": 80.0, "MSLP": 962.0, "RMAX": 15.0, "FSPD": 6.45823, "FDIR": 162.91803, "RENV": 240.0, "PENV": 1005.0, "VALIDT": 0, "DTG": "2026-04-08 00:00", "LATNOW": -26.8, "LONNOW": 179.0, "WINDNOW": 55.0, "DIRNOW": 3.0, "SPDNOW": 5.0, "TECH": "TRAK", "ADVNR": 14, "ATCFID": "SH312026", "NAME": "VAIANU", "FTECH": "JTWC", "FCST_DTG": "2026-04-09 06:00:00", "RUN_DTG": "2026-04-09 20:47:56", "BASIN": "SH", "STMNR": 31, "CAT_ID": null, "CAT_DESC": null, "MSGID": "WTPS32 PGTW 090900", "VALIDTIME": "2026-04-08 00:00:00" }, "geometry": { "type": "Point", "coordinates": [ 177.399994, -22.200001 ] } },
{ "type": "Feature", "properties": { "ID": 8503, "LAT": -23.4, "LON": 177.8, "VMAX": 75.0, "MSLP": 970.0, "RMAX": 20.0, "FSPD": 6.78684, "FDIR": 155.45068, "RENV": 250.0, "PENV": 1007.0, "VALIDT": 0, "DTG": "2026-04-08 06:00", "LATNOW": -26.8, "LONNOW": 179.0, "WINDNOW": 55.0, "DIRNOW": 3.0, "SPDNOW": 5.0, "TECH": "TRAK", "ADVNR": 14, "ATCFID": "SH312026", "NAME": "VAIANU", "FTECH": "JTWC", "FCST_DTG": "2026-04-09 06:00:00", "RUN_DTG": "2026-04-09 20:47:56", "BASIN": "SH", "STMNR": 31, "CAT_ID": null, "CAT_DESC": null, "MSGID": "WTPS32 PGTW 090900", "VALIDTIME": "2026-04-08 06:00:00" }, "geometry": { "type": "Point", "coordinates": [ 177.800003, -23.4 ] } },
{ "type": "Feature", "properties": { "ID": 8504, "LAT": -24.6, "LON": 178.4, "VMAX": 65.0, "MSLP": 973.0, "RMAX": 30.0, "FSPD": 4.14188, "FDIR": 173.53616, "RENV": 280.0, "PENV": 1006.0, "VALIDT": 0, "DTG": "2026-04-08 12:00", "LATNOW": -26.8, "LONNOW": 179.0, "WINDNOW": 55.0, "DIRNOW": 3.0, "SPDNOW": 5.0, "TECH": "TRAK", "ADVNR": 14, "ATCFID": "SH312026", "NAME": "VAIANU", "FTECH": "JTWC", "FCST_DTG": "2026-04-09 06:00:00", "RUN_DTG": "2026-04-09 20:47:56", "BASIN": "SH", "STMNR": 31, "CAT_ID": null, "CAT_DESC": null, "MSGID": "WTPS32 PGTW 090900", "VALIDTIME": "2026-04-08 12:00:00" }, "geometry": { "type": "Point", "coordinates": [ 178.399994, -24.6 ] } },
{ "type": "Feature", "properties": { "ID": 8505, "LAT": -25.4, "LON": 178.5, "VMAX": 60.0, "MSLP": 978.0, "RMAX": 30.0, "FSPD": 4.3438, "FDIR": 161.34412, "RENV": 295.0, "PENV": 1008.0, "VALIDT": 0, "DTG": "2026-04-08 18:00", "LATNOW": -26.8, "LONNOW": 179.0, "WINDNOW": 55.0, "DIRNOW": 3.0, "SPDNOW": 5.0, "TECH": "TRAK", "ADVNR": 14, "ATCFID": "SH312026", "NAME": "VAIANU", "FTECH": "JTWC", "FCST_DTG": "2026-04-09 06:00:00", "RUN_DTG": "2026-04-09 20:47:56", "BASIN": "SH", "STMNR": 31, "CAT_ID": null, "CAT_DESC": null, "MSGID": "WTPS32 PGTW 090900", "VALIDTIME": "2026-04-08 18:00:00" }, "geometry": { "type": "Point", "coordinates": [ 178.5, -25.4 ] } },
{ "type": "Feature", "properties": { "ID": 8506, "LAT": -26.2, "LON": 178.8, "VMAX": 60.0, "MSLP": 980.0, "RMAX": 40.0, "FSPD": 3.22107, "FDIR": 163.38971, "RENV": 300.0, "PENV": 1006.0, "VALIDT": 0, "DTG": "2026-04-09 00:00", "LATNOW": -26.8, "LONNOW": 179.0, "WINDNOW": 55.0, "DIRNOW": 3.0, "SPDNOW": 5.0, "TECH": "TRAK", "ADVNR": 14, "ATCFID": "SH312026", "NAME": "VAIANU", "FTECH": "JTWC", "FCST_DTG": "2026-04-09 06:00:00", "RUN_DTG": "2026-04-09 20:47:56", "BASIN": "SH", "STMNR": 31, "CAT_ID": null, "CAT_DESC": null, "MSGID": "WTPS32 PGTW 090900", "VALIDTIME": "2026-04-09 00:00:00" }, "geometry": { "type": "Point", "coordinates": [ 178.800003, -26.200001 ] } },
{ "type": "Feature", "properties": { "ID": 8507, "LAT": -26.8, "LON": 179.0, "VMAX": 55.0, "MSLP": 979.0, "RMAX": 45.0, "FSPD": 3.09511, "FDIR": 175.76843, "RENV": 280.0, "PENV": 1006.0, "VALIDT": 0, "DTG": "2026-04-09 06:00", "LATNOW": -26.8, "LONNOW": 179.0, "WINDNOW": 55.0, "DIRNOW": 3.0, "SPDNOW": 5.0, "TECH": "TRAK", "ADVNR": 14, "ATCFID": "SH312026", "NAME": "VAIANU", "FTECH": "JTWC", "FCST_DTG": "2026-04-09 06:00:00", "RUN_DTG": "2026-04-09 20:47:56", "BASIN": "SH", "STMNR": 31, "CAT_ID": null, "CAT_DESC": null, "MSGID": "WTPS32 PGTW 090900", "VALIDTIME": "2026-04-09 06:00:00" }, "geometry": { "type": "Point", "coordinates": [ 179.0, -26.799999 ] } },
{ "type": "Feature", "properties": { "ID": 8508, "LAT": -28.0, "LON": 179.1, "VMAX": 55.0, "MSLP": 999.55927, "RMAX": 56.01122, "FSPD": 3.41177, "FDIR": 191.44852, "RENV": 180.0, "PENV": 1012.0, "VALIDT": 12, "DTG": "2026-04-09 18:00", "LATNOW": -26.8, "LONNOW": 179.0, "WINDNOW": 55.0, "DIRNOW": 3.0, "SPDNOW": 5.0, "TECH": "FCST", "ADVNR": 14, "ATCFID": "SH312026", "NAME": "VAIANU", "FTECH": "JTWC", "FCST_DTG": "2026-04-09 06:00:00", "RUN_DTG": "2026-04-09 20:47:56", "BASIN": "SH", "STMNR": 31, "CAT_ID": null, "CAT_DESC": null, "MSGID": "WTPS32 PGTW 090900", "VALIDTIME": "2026-04-09 18:00:00" }, "geometry": { "type": "Point", "coordinates": [ 179.100006, -28.0 ] } },
{ "type": "Feature", "properties": { "ID": 8509, "LAT": -29.3, "LON": 178.8, "VMAX": 55.0, "MSLP": 999.55927, "RMAX": 56.01122, "FSPD": 4.35573, "FDIR": 214.23337, "RENV": 250.0, "PENV": 1012.0, "VALIDT": 24, "DTG": "2026-04-10 06:00", "LATNOW": -26.8, "LONNOW": 179.0, "WINDNOW": 55.0, "DIRNOW": 3.0, "SPDNOW": 5.0, "TECH": "FCST", "ADVNR": 14, "ATCFID": "SH312026", "NAME": "VAIANU", "FTECH": "JTWC", "FCST_DTG": "2026-04-09 06:00:00", "RUN_DTG": "2026-04-09 20:47:56", "BASIN": "SH", "STMNR": 31, "CAT_ID": null, "CAT_DESC": null, "MSGID": "WTPS32 PGTW 090900", "VALIDTIME": "2026-04-10 06:00:00" }, "geometry": { "type": "Point", "coordinates": [ 178.800003, -29.299999 ] } },
{ "type": "Feature", "properties": { "ID": 8510, "LAT": -30.7, "LON": 177.7, "VMAX": 50.0, "MSLP": 1002.2391, "RMAX": 57.97347, "FSPD": 4.35573, "FDIR": 214.23337, "RENV": 250.0, "PENV": 1012.0, "VALIDT": 36, "DTG": "2026-04-10 18:00", "LATNOW": -26.8, "LONNOW": 179.0, "WINDNOW": 55.0, "DIRNOW": 3.0, "SPDNOW": 5.0, "TECH": "FCST", "ADVNR": 14, "ATCFID": "SH312026", "NAME": "VAIANU", "FTECH": "JTWC", "FCST_DTG": "2026-04-09 06:00:00", "RUN_DTG": "2026-04-09 20:47:56", "BASIN": "SH", "STMNR": 31, "CAT_ID": null, "CAT_DESC": null, "MSGID": "WTPS32 PGTW 090900", "VALIDTIME": "2026-04-10 18:00:00" }, "geometry": { "type": "Point", "coordinates": [ 177.699997, -30.700001 ] } },
{ "type": "Feature", "properties": { "ID": 8507, "LAT": -26.8, "LON": 179.0, "VMAX": 55.0, "MSLP": 979.0, "RMAX": 45.0, "FSPD": 3.09511, "FDIR": 175.76843, "RENV": 280.0, "PENV": 1006.0, "VALIDT": 0, "DTG": "2026-04-09 06:00", "LATNOW": -26.8, "LONNOW": 179.0, "WINDNOW": 55.0, "DIRNOW": 3.0, "SPDNOW": 5.0, "TECH": "TRAK", "ADVNR": 14, "ATCFID": "SH312026", "NAME": "VAIANU", "FTECH": "JTWC", "FCST_DTG": "2026-04-09 06:00:00", "RUN_DTG": "2026-04-09 20:47:56", "BASIN": "SH", "STMNR": 31, "CAT_ID": null, "CAT_DESC": null, "MSGID": "WTPS32 PGTW 090900", "VALIDTIME": "2026-04-09 06:00:00" }, "geometry": { "type": "LineString", "coordinates": [ [ 176.6, -7.7 ], [ 174.9, -7.9 ], [ 173.2, -8.5 ], [ 172.8, -9.6 ], [ 172.4, -10.7 ], [ 171.8, -11.7 ], [ 171.3, -12.3 ], [ 171.1, -12.9 ], [ 171.2, -13.3 ], [ 171.4, -13.5 ], [ 171.8, -13.8 ], [ 172.6, -14.5 ], [ 172.4, -14.9 ], [ 172.6, -15.1 ], [ 173.1, -15.7 ], [ 173.6, -16.1 ], [ 173.8, -16.5 ], [ 174.4, -17.1 ], [ 174.8, -18.1 ], [ 175.3, -19.2 ], [ 175.9, -20.0 ], [ 177.0, -21.1 ], [ 177.4, -22.2 ], [ 177.8, -23.4 ], [ 178.4, -24.6 ], [ 178.5, -25.4 ], [ 178.8, -26.2 ], [ 179.0, -26.8 ] ] } },
{ "type": "Feature", "properties": { "ID": 8510, "LAT": -30.7, "LON": 177.7, "VMAX": 50.0, "MSLP": 1002.2391, "RMAX": 57.97347, "FSPD": 4.35573, "FDIR": 214.23337, "RENV": 250.0, "PENV": 1012.0, "VALIDT": 36, "DTG": "2026-04-10 18:00", "LATNOW": -26.8, "LONNOW": 179.0, "WINDNOW": 55.0, "DIRNOW": 3.0, "SPDNOW": 5.0, "TECH": "FCST", "ADVNR": 14, "ATCFID": "SH312026", "NAME": "VAIANU", "FTECH": "JTWC", "FCST_DTG": "2026-04-09 06:00:00", "RUN_DTG": "2026-04-09 20:47:56", "BASIN": "SH", "STMNR": 31, "CAT_ID": null, "CAT_DESC": null, "MSGID": "WTPS32 PGTW 090900", "VALIDTIME": "2026-04-10 18:00:00" }, "geometry": { "type": "LineString", "coordinates": [ [ 179.0, -26.8 ], [ 179.1, -28.0 ], [ 178.8, -29.3 ], [ 177.7, -30.7 ] ] } }
]
}
