{
"type": "FeatureCollection",
"crs": { "type": "name", "properties": { "name": "urn:ogc:def:crs:OGC:1.3:CRS84" } },
"features": [
{ "type": "Feature", "properties": { "ID": 326234, "LAT": 6.7, "LON": 141.1, "VMAX": 15.0, "MSLP": 1013.8515, "RMAX": 40.0, "FSPD": 2.75358, "FDIR": 291.94125, "RENV": 500.0, "PENV": 1012.0, "VALIDT": 0, "DTG": "2025-06-03 18:00", "LATNOW": 21.2, "LONNOW": 109.8, "WINDNOW": 55.0, "DIRNOW": 7.0, "SPDNOW": 1.0, "TECH": "TRAK", "ADVNR": 16, "ATCFID": "WP012025", "NAME": "WUTIP", "FTECH": "JTWC", "FCST_DTG": "2025-06-14 06:00:00", "RUN_DTG": "2025-06-14 20:42:22", "BASIN": "WP", "STMNR": 1, "CAT_ID": null, "CAT_DESC": null, "MSGID": "WTPN51 PGTW 140900", "VALIDTIME": "2025-06-03 18:00:00" }, "geometry": { "type": "Point", "coordinates": [ 141.100006, 6.7 ] } },
{ "type": "Feature", "properties": { "ID": 326235, "LAT": 6.9, "LON": 140.6, "VMAX": 15.0, "MSLP": 1013.8515, "RMAX": 40.0, "FSPD": 2.98304, "FDIR": 301.15588, "RENV": 500.0, "PENV": 1012.0, "VALIDT": 0, "DTG": "2025-06-04 00:00", "LATNOW": 21.2, "LONNOW": 109.8, "WINDNOW": 55.0, "DIRNOW": 7.0, "SPDNOW": 1.0, "TECH": "TRAK", "ADVNR": 16, "ATCFID": "WP012025", "NAME": "WUTIP", "FTECH": "JTWC", "FCST_DTG": "2025-06-14 06:00:00", "RUN_DTG": "2025-06-14 20:42:22", "BASIN": "WP", "STMNR": 1, "CAT_ID": null, "CAT_DESC": null, "MSGID": "WTPN51 PGTW 140900", "VALIDTIME": "2025-06-04 00:00:00" }, "geometry": { "type": "Point", "coordinates": [ 140.600006, 6.9 ] } },
{ "type": "Feature", "properties": { "ID": 326236, "LAT": 7.2, "LON": 140.1, "VMAX": 15.0, "MSLP": 1013.8515, "RMAX": 40.0, "FSPD": 5.26244, "FDIR": 299.261, "RENV": 500.0, "PENV": 1012.0, "VALIDT": 0, "DTG": "2025-06-04 06:00", "LATNOW": 21.2, "LONNOW": 109.8, "WINDNOW": 55.0, "DIRNOW": 7.0, "SPDNOW": 1.0, "TECH": "TRAK", "ADVNR": 16, "ATCFID": "WP012025", "NAME": "WUTIP", "FTECH": "JTWC", "FCST_DTG": "2025-06-14 06:00:00", "RUN_DTG": "2025-06-14 20:42:22", "BASIN": "WP", "STMNR": 1, "CAT_ID": null, "CAT_DESC": null, "MSGID": "WTPN51 PGTW 140900", "VALIDTIME": "2025-06-04 06:00:00" }, "geometry": { "type": "Point", "coordinates": [ 140.100006, 7.2 ] } },
{ "type": "Feature", "properties": { "ID": 326237, "LAT": 7.7, "LON": 139.2, "VMAX": 15.0, "MSLP": 1013.8515, "RMAX": 40.0, "FSPD": 9.50494, "FDIR": 306.5385, "RENV": 500.0, "PENV": 1012.0, "VALIDT": 0, "DTG": "2025-06-04 12:00", "LATNOW": 21.2, "LONNOW": 109.8, "WINDNOW": 55.0, "DIRNOW": 7.0, "SPDNOW": 1.0, "TECH": "TRAK", "ADVNR": 16, "ATCFID": "WP012025", "NAME": "WUTIP", "FTECH": "JTWC", "FCST_DTG": "2025-06-14 06:00:00", "RUN_DTG": "2025-06-14 20:42:22", "BASIN": "WP", "STMNR": 1, "CAT_ID": null, "CAT_DESC": null, "MSGID": "WTPN51 PGTW 140900", "VALIDTIME": "2025-06-04 12:00:00" }, "geometry": { "type": "Point", "coordinates": [ 139.199997, 7.7 ] } },
{ "type": "Feature", "properties": { "ID": 326238, "LAT": 8.8, "LON": 137.7, "VMAX": 15.0, "MSLP": 1013.8515, "RMAX": 40.0, "FSPD": 10.13253, "FDIR": 311.3022, "RENV": 500.0, "PENV": 1012.0, "VALIDT": 0, "DTG": "2025-06-04 18:00", "LATNOW": 21.2, "LONNOW": 109.8, "WINDNOW": 55.0, "DIRNOW": 7.0, "SPDNOW": 1.0, "TECH": "TRAK", "ADVNR": 16, "ATCFID": "WP012025", "NAME": "WUTIP", "FTECH": "JTWC", "FCST_DTG": "2025-06-14 06:00:00", "RUN_DTG": "2025-06-14 20:42:22", "BASIN": "WP", "STMNR": 1, "CAT_ID": null, "CAT_DESC": null, "MSGID": "WTPN51 PGTW 140900", "VALIDTIME": "2025-06-04 18:00:00" }, "geometry": { "type": "Point", "coordinates": [ 137.699997, 8.8 ] } },
{ "type": "Feature", "properties": { "ID": 326239, "LAT": 10.1, "LON": 136.2, "VMAX": 15.0, "MSLP": 1013.8515, "RMAX": 40.0, "FSPD": 3.99102, "FDIR": 320.66046, "RENV": 500.0, "PENV": 1012.0, "VALIDT": 0, "DTG": "2025-06-05 00:00", "LATNOW": 21.2, "LONNOW": 109.8, "WINDNOW": 55.0, "DIRNOW": 7.0, "SPDNOW": 1.0, "TECH": "TRAK", "ADVNR": 16, "ATCFID": "WP012025", "NAME": "WUTIP", "FTECH": "JTWC", "FCST_DTG": "2025-06-14 06:00:00", "RUN_DTG": "2025-06-14 20:42:22", "BASIN": "WP", "STMNR": 1, "CAT_ID": null, "CAT_DESC": null, "MSGID": "WTPN51 PGTW 140900", "VALIDTIME": "2025-06-05 00:00:00" }, "geometry": { "type": "Point", "coordinates": [ 136.199997, 10.1 ] } },
{ "type": "Feature", "properties": { "ID": 326240, "LAT": 10.7, "LON": 135.7, "VMAX": 15.0, "MSLP": 1013.8515, "RMAX": 40.0, "FSPD": 4.32662, "FDIR": 290.89807, "RENV": 500.0, "PENV": 1012.0, "VALIDT": 0, "DTG": "2025-06-05 06:00", "LATNOW": 21.2, "LONNOW": 109.8, "WINDNOW": 55.0, "DIRNOW": 7.0, "SPDNOW": 1.0, "TECH": "TRAK", "ADVNR": 16, "ATCFID": "WP012025", "NAME": "WUTIP", "FTECH": "JTWC", "FCST_DTG": "2025-06-14 06:00:00", "RUN_DTG": "2025-06-14 20:42:22", "BASIN": "WP", "STMNR": 1, "CAT_ID": null, "CAT_DESC": null, "MSGID": "WTPN51 PGTW 140900", "VALIDTIME": "2025-06-05 06:00:00" }, "geometry": { "type": "Point", "coordinates": [ 135.699997, 10.7 ] } },
{ "type": "Feature", "properties": { "ID": 326241, "LAT": 11.0, "LON": 134.9, "VMAX": 15.0, "MSLP": 1013.8515, "RMAX": 40.0, "FSPD": 12.02002, "FDIR": 292.65555, "RENV": 500.0, "PENV": 1012.0, "VALIDT": 0, "DTG": "2025-06-05 12:00", "LATNOW": 21.2, "LONNOW": 109.8, "WINDNOW": 55.0, "DIRNOW": 7.0, "SPDNOW": 1.0, "TECH": "TRAK", "ADVNR": 16, "ATCFID": "WP012025", "NAME": "WUTIP", "FTECH": "JTWC", "FCST_DTG": "2025-06-14 06:00:00", "RUN_DTG": "2025-06-14 20:42:22", "BASIN": "WP", "STMNR": 1, "CAT_ID": null, "CAT_DESC": null, "MSGID": "WTPN51 PGTW 140900", "VALIDTIME": "2025-06-05 12:00:00" }, "geometry": { "type": "Point", "coordinates": [ 134.899994, 11.0 ] } },
{ "type": "Feature", "properties": { "ID": 326242, "LAT": 11.9, "LON": 132.7, "VMAX": 15.0, "MSLP": 1013.8515, "RMAX": 40.0, "FSPD": 13.54283, "FDIR": 297.11884, "RENV": 500.0, "PENV": 1012.0, "VALIDT": 0, "DTG": "2025-06-05 18:00", "LATNOW": 21.2, "LONNOW": 109.8, "WINDNOW": 55.0, "DIRNOW": 7.0, "SPDNOW": 1.0, "TECH": "TRAK", "ADVNR": 16, "ATCFID": "WP012025", "NAME": "WUTIP", "FTECH": "JTWC", "FCST_DTG": "2025-06-14 06:00:00", "RUN_DTG": "2025-06-14 20:42:22", "BASIN": "WP", "STMNR": 1, "CAT_ID": null, "CAT_DESC": null, "MSGID": "WTPN51 PGTW 140900", "VALIDTIME": "2025-06-05 18:00:00" }, "geometry": { "type": "Point", "coordinates": [ 132.699997, 11.9 ] } },
{ "type": "Feature", "properties": { "ID": 326243, "LAT": 13.1, "LON": 130.3, "VMAX": 15.0, "MSLP": 1013.8515, "RMAX": 40.0, "FSPD": 11.79636, "FDIR": 282.59464, "RENV": 500.0, "PENV": 1012.0, "VALIDT": 0, "DTG": "2025-06-06 00:00", "LATNOW": 21.2, "LONNOW": 109.8, "WINDNOW": 55.0, "DIRNOW": 7.0, "SPDNOW": 1.0, "TECH": "TRAK", "ADVNR": 16, "ATCFID": "WP012025", "NAME": "WUTIP", "FTECH": "JTWC", "FCST_DTG": "2025-06-14 06:00:00", "RUN_DTG": "2025-06-14 20:42:22", "BASIN": "WP", "STMNR": 1, "CAT_ID": null, "CAT_DESC": null, "MSGID": "WTPN51 PGTW 140900", "VALIDTIME": "2025-06-06 00:00:00" }, "geometry": { "type": "Point", "coordinates": [ 130.300003, 13.1 ] } },
{ "type": "Feature", "properties": { "ID": 326244, "LAT": 13.6, "LON": 128.0, "VMAX": 15.0, "MSLP": 1013.8515, "RMAX": 40.0, "FSPD": 9.0552, "FDIR": 276.52423, "RENV": 500.0, "PENV": 1012.0, "VALIDT": 0, "DTG": "2025-06-06 06:00", "LATNOW": 21.2, "LONNOW": 109.8, "WINDNOW": 55.0, "DIRNOW": 7.0, "SPDNOW": 1.0, "TECH": "TRAK", "ADVNR": 16, "ATCFID": "WP012025", "NAME": "WUTIP", "FTECH": "JTWC", "FCST_DTG": "2025-06-14 06:00:00", "RUN_DTG": "2025-06-14 20:42:22", "BASIN": "WP", "STMNR": 1, "CAT_ID": null, "CAT_DESC": null, "MSGID": "WTPN51 PGTW 140900", "VALIDTIME": "2025-06-06 06:00:00" }, "geometry": { "type": "Point", "coordinates": [ 128.0, 13.6 ] } },
{ "type": "Feature", "properties": { "ID": 326245, "LAT": 13.8, "LON": 126.2, "VMAX": 15.0, "MSLP": 1013.8515, "RMAX": 40.0, "FSPD": 2.28792, "FDIR": 154.08063, "RENV": 500.0, "PENV": 1012.0, "VALIDT": 0, "DTG": "2025-06-06 12:00", "LATNOW": 21.2, "LONNOW": 109.8, "WINDNOW": 55.0, "DIRNOW": 7.0, "SPDNOW": 1.0, "TECH": "TRAK", "ADVNR": 16, "ATCFID": "WP012025", "NAME": "WUTIP", "FTECH": "JTWC", "FCST_DTG": "2025-06-14 06:00:00", "RUN_DTG": "2025-06-14 20:42:22", "BASIN": "WP", "STMNR": 1, "CAT_ID": null, "CAT_DESC": null, "MSGID": "WTPN51 PGTW 140900", "VALIDTIME": "2025-06-06 12:00:00" }, "geometry": { "type": "Point", "coordinates": [ 126.199997, 13.8 ] } },
{ "type": "Feature", "properties": { "ID": 326246, "LAT": 13.4, "LON": 126.4, "VMAX": 15.0, "MSLP": 1013.8515, "RMAX": 40.0, "FSPD": 0.71776, "FDIR": 135.78491, "RENV": 500.0, "PENV": 1012.0, "VALIDT": 0, "DTG": "2025-06-06 18:00", "LATNOW": 21.2, "LONNOW": 109.8, "WINDNOW": 55.0, "DIRNOW": 7.0, "SPDNOW": 1.0, "TECH": "TRAK", "ADVNR": 16, "ATCFID": "WP012025", "NAME": "WUTIP", "FTECH": "JTWC", "FCST_DTG": "2025-06-14 06:00:00", "RUN_DTG": "2025-06-14 20:42:22", "BASIN": "WP", "STMNR": 1, "CAT_ID": null, "CAT_DESC": null, "MSGID": "WTPN51 PGTW 140900", "VALIDTIME": "2025-06-06 18:00:00" }, "geometry": { "type": "Point", "coordinates": [ 126.400002, 13.4 ] } },
{ "type": "Feature", "properties": { "ID": 326247, "LAT": 13.3, "LON": 126.5, "VMAX": 15.0, "MSLP": 1013.8515, "RMAX": 40.0, "FSPD": 1.02889, "FDIR": 360.0, "RENV": 500.0, "PENV": 1012.0, "VALIDT": 0, "DTG": "2025-06-07 00:00", "LATNOW": 21.2, "LONNOW": 109.8, "WINDNOW": 55.0, "DIRNOW": 7.0, "SPDNOW": 1.0, "TECH": "TRAK", "ADVNR": 16, "ATCFID": "WP012025", "NAME": "WUTIP", "FTECH": "JTWC", "FCST_DTG": "2025-06-14 06:00:00", "RUN_DTG": "2025-06-14 20:42:22", "BASIN": "WP", "STMNR": 1, "CAT_ID": null, "CAT_DESC": null, "MSGID": "WTPN51 PGTW 140900", "VALIDTIME": "2025-06-07 00:00:00" }, "geometry": { "type": "Point", "coordinates": [ 126.5, 13.3 ] } },
{ "type": "Feature", "properties": { "ID": 326248, "LAT": 13.5, "LON": 126.5, "VMAX": 15.0, "MSLP": 1013.8515, "RMAX": 40.0, "FSPD": 5.09072, "FDIR": 323.94403, "RENV": 500.0, "PENV": 1012.0, "VALIDT": 0, "DTG": "2025-06-07 06:00", "LATNOW": 21.2, "LONNOW": 109.8, "WINDNOW": 55.0, "DIRNOW": 7.0, "SPDNOW": 1.0, "TECH": "TRAK", "ADVNR": 16, "ATCFID": "WP012025", "NAME": "WUTIP", "FTECH": "JTWC", "FCST_DTG": "2025-06-14 06:00:00", "RUN_DTG": "2025-06-14 20:42:22", "BASIN": "WP", "STMNR": 1, "CAT_ID": null, "CAT_DESC": null, "MSGID": "WTPN51 PGTW 140900", "VALIDTIME": "2025-06-07 06:00:00" }, "geometry": { "type": "Point", "coordinates": [ 126.5, 13.5 ] } },
{ "type": "Feature", "properties": { "ID": 326249, "LAT": 14.3, "LON": 125.9, "VMAX": 15.0, "MSLP": 1013.8515, "RMAX": 40.0, "FSPD": 6.96563, "FDIR": 291.67078, "RENV": 500.0, "PENV": 1012.0, "VALIDT": 0, "DTG": "2025-06-07 12:00", "LATNOW": 21.2, "LONNOW": 109.8, "WINDNOW": 55.0, "DIRNOW": 7.0, "SPDNOW": 1.0, "TECH": "TRAK", "ADVNR": 16, "ATCFID": "WP012025", "NAME": "WUTIP", "FTECH": "JTWC", "FCST_DTG": "2025-06-14 06:00:00", "RUN_DTG": "2025-06-14 20:42:22", "BASIN": "WP", "STMNR": 1, "CAT_ID": null, "CAT_DESC": null, "MSGID": "WTPN51 PGTW 140900", "VALIDTIME": "2025-06-07 12:00:00" }, "geometry": { "type": "Point", "coordinates": [ 125.900002, 14.3 ] } },
{ "type": "Feature", "properties": { "ID": 326250, "LAT": 14.8, "LON": 124.6, "VMAX": 15.0, "MSLP": 1013.8515, "RMAX": 40.0, "FSPD": 6.77971, "FDIR": 287.66913, "RENV": 500.0, "PENV": 1012.0, "VALIDT": 0, "DTG": "2025-06-07 18:00", "LATNOW": 21.2, "LONNOW": 109.8, "WINDNOW": 55.0, "DIRNOW": 7.0, "SPDNOW": 1.0, "TECH": "TRAK", "ADVNR": 16, "ATCFID": "WP012025", "NAME": "WUTIP", "FTECH": "JTWC", "FCST_DTG": "2025-06-14 06:00:00", "RUN_DTG": "2025-06-14 20:42:22", "BASIN": "WP", "STMNR": 1, "CAT_ID": null, "CAT_DESC": null, "MSGID": "WTPN51 PGTW 140900", "VALIDTIME": "2025-06-07 18:00:00" }, "geometry": { "type": "Point", "coordinates": [ 124.599998, 14.8 ] } },
{ "type": "Feature", "properties": { "ID": 326251, "LAT": 15.2, "LON": 123.3, "VMAX": 15.0, "MSLP": 1013.8515, "RMAX": 40.0, "FSPD": 5.67109, "FDIR": 285.7917, "RENV": 500.0, "PENV": 1012.0, "VALIDT": 0, "DTG": "2025-06-08 00:00", "LATNOW": 21.2, "LONNOW": 109.8, "WINDNOW": 55.0, "DIRNOW": 7.0, "SPDNOW": 1.0, "TECH": "TRAK", "ADVNR": 16, "ATCFID": "WP012025", "NAME": "WUTIP", "FTECH": "JTWC", "FCST_DTG": "2025-06-14 06:00:00", "RUN_DTG": "2025-06-14 20:42:22", "BASIN": "WP", "STMNR": 1, "CAT_ID": null, "CAT_DESC": null, "MSGID": "WTPN51 PGTW 140900", "VALIDTIME": "2025-06-08 00:00:00" }, "geometry": { "type": "Point", "coordinates": [ 123.300003, 15.2 ] } },
{ "type": "Feature", "properties": { "ID": 326252, "LAT": 15.5, "LON": 122.2, "VMAX": 15.0, "MSLP": 1013.8515, "RMAX": 40.0, "FSPD": 6.47713, "FDIR": 293.3985, "RENV": 500.0, "PENV": 1012.0, "VALIDT": 0, "DTG": "2025-06-08 06:00", "LATNOW": 21.2, "LONNOW": 109.8, "WINDNOW": 55.0, "DIRNOW": 7.0, "SPDNOW": 1.0, "TECH": "TRAK", "ADVNR": 16, "ATCFID": "WP012025", "NAME": "WUTIP", "FTECH": "JTWC", "FCST_DTG": "2025-06-14 06:00:00", "RUN_DTG": "2025-06-14 20:42:22", "BASIN": "WP", "STMNR": 1, "CAT_ID": null, "CAT_DESC": null, "MSGID": "WTPN51 PGTW 140900", "VALIDTIME": "2025-06-08 06:00:00" }, "geometry": { "type": "Point", "coordinates": [ 122.199997, 15.5 ] } },
{ "type": "Feature", "properties": { "ID": 326253, "LAT": 15.8, "LON": 121.48, "VMAX": 15.0, "MSLP": 1013.8515, "RMAX": 40.0, "FSPD": 6.47035, "FDIR": 293.42444, "RENV": 500.0, "PENV": 1012.0, "VALIDT": 0, "DTG": "2025-06-08 09:00", "LATNOW": 21.2, "LONNOW": 109.8, "WINDNOW": 55.0, "DIRNOW": 7.0, "SPDNOW": 1.0, "TECH": "TRAK", "ADVNR": 16, "ATCFID": "WP012025", "NAME": "WUTIP", "FTECH": "JTWC", "FCST_DTG": "2025-06-14 06:00:00", "RUN_DTG": "2025-06-14 20:42:22", "BASIN": "WP", "STMNR": 1, "CAT_ID": null, "CAT_DESC": null, "MSGID": "WTPN51 PGTW 140900", "VALIDTIME": "2025-06-08 09:00:00" }, "geometry": { "type": "Point", "coordinates": [ 121.479996, 15.8 ] } },
{ "type": "Feature", "properties": { "ID": 326254, "LAT": 16.0, "LON": 121.0, "VMAX": 15.0, "MSLP": 1013.8515, "RMAX": 40.0, "FSPD": 9.02749, "FDIR": 279.84357, "RENV": 500.0, "PENV": 1012.0, "VALIDT": 0, "DTG": "2025-06-08 12:00", "LATNOW": 21.2, "LONNOW": 109.8, "WINDNOW": 55.0, "DIRNOW": 7.0, "SPDNOW": 1.0, "TECH": "TRAK", "ADVNR": 16, "ATCFID": "WP012025", "NAME": "WUTIP", "FTECH": "JTWC", "FCST_DTG": "2025-06-14 06:00:00", "RUN_DTG": "2025-06-14 20:42:22", "BASIN": "WP", "STMNR": 1, "CAT_ID": null, "CAT_DESC": null, "MSGID": "WTPN51 PGTW 140900", "VALIDTIME": "2025-06-08 12:00:00" }, "geometry": { "type": "Point", "coordinates": [ 121.0, 16.0 ] } },
{ "type": "Feature", "properties": { "ID": 326255, "LAT": 16.3, "LON": 119.2, "VMAX": 15.0, "MSLP": 1013.8515, "RMAX": 40.0, "FSPD": 9.39323, "FDIR": 273.13953, "RENV": 500.0, "PENV": 1012.0, "VALIDT": 0, "DTG": "2025-06-08 18:00", "LATNOW": 21.2, "LONNOW": 109.8, "WINDNOW": 55.0, "DIRNOW": 7.0, "SPDNOW": 1.0, "TECH": "TRAK", "ADVNR": 16, "ATCFID": "WP012025", "NAME": "WUTIP", "FTECH": "JTWC", "FCST_DTG": "2025-06-14 06:00:00", "RUN_DTG": "2025-06-14 20:42:22", "BASIN": "WP", "STMNR": 1, "CAT_ID": null, "CAT_DESC": null, "MSGID": "WTPN51 PGTW 140900", "VALIDTIME": "2025-06-08 18:00:00" }, "geometry": { "type": "Point", "coordinates": [ 119.199997, 16.299999 ] } },
{ "type": "Feature", "properties": { "ID": 326256, "LAT": 16.4, "LON": 117.3, "VMAX": 15.0, "MSLP": 1013.8515, "RMAX": 40.0, "FSPD": 2.52124, "FDIR": 258.22638, "RENV": 500.0, "PENV": 1012.0, "VALIDT": 0, "DTG": "2025-06-09 00:00", "LATNOW": 21.2, "LONNOW": 109.8, "WINDNOW": 55.0, "DIRNOW": 7.0, "SPDNOW": 1.0, "TECH": "TRAK", "ADVNR": 16, "ATCFID": "WP012025", "NAME": "WUTIP", "FTECH": "JTWC", "FCST_DTG": "2025-06-14 06:00:00", "RUN_DTG": "2025-06-14 20:42:22", "BASIN": "WP", "STMNR": 1, "CAT_ID": null, "CAT_DESC": null, "MSGID": "WTPN51 PGTW 140900", "VALIDTIME": "2025-06-09 00:00:00" }, "geometry": { "type": "Point", "coordinates": [ 117.300003, 16.4 ] } },
{ "type": "Feature", "properties": { "ID": 326257, "LAT": 16.3, "LON": 116.8, "VMAX": 15.0, "MSLP": 1013.8515, "RMAX": 40.0, "FSPD": 4.45755, "FDIR": 242.50713, "RENV": 500.0, "PENV": 1012.0, "VALIDT": 0, "DTG": "2025-06-09 06:00", "LATNOW": 21.2, "LONNOW": 109.8, "WINDNOW": 55.0, "DIRNOW": 7.0, "SPDNOW": 1.0, "TECH": "TRAK", "ADVNR": 16, "ATCFID": "WP012025", "NAME": "WUTIP", "FTECH": "JTWC", "FCST_DTG": "2025-06-14 06:00:00", "RUN_DTG": "2025-06-14 20:42:22", "BASIN": "WP", "STMNR": 1, "CAT_ID": null, "CAT_DESC": null, "MSGID": "WTPN51 PGTW 140900", "VALIDTIME": "2025-06-09 06:00:00" }, "geometry": { "type": "Point", "coordinates": [ 116.800003, 16.299999 ] } },
{ "type": "Feature", "properties": { "ID": 326258, "LAT": 15.9, "LON": 116.0, "VMAX": 15.0, "MSLP": 1013.8515, "RMAX": 40.0, "FSPD": 3.21967, "FDIR": 230.2733, "RENV": 500.0, "PENV": 1012.0, "VALIDT": 0, "DTG": "2025-06-09 12:00", "LATNOW": 21.2, "LONNOW": 109.8, "WINDNOW": 55.0, "DIRNOW": 7.0, "SPDNOW": 1.0, "TECH": "TRAK", "ADVNR": 16, "ATCFID": "WP012025", "NAME": "WUTIP", "FTECH": "JTWC", "FCST_DTG": "2025-06-14 06:00:00", "RUN_DTG": "2025-06-14 20:42:22", "BASIN": "WP", "STMNR": 1, "CAT_ID": null, "CAT_DESC": null, "MSGID": "WTPN51 PGTW 140900", "VALIDTIME": "2025-06-09 12:00:00" }, "geometry": { "type": "Point", "coordinates": [ 116.0, 15.9 ] } },
{ "type": "Feature", "properties": { "ID": 326259, "LAT": 15.5, "LON": 115.5, "VMAX": 15.0, "MSLP": 1013.8515, "RMAX": 40.0, "FSPD": 3.80014, "FDIR": 246.03827, "RENV": 500.0, "PENV": 1012.0, "VALIDT": 0, "DTG": "2025-06-09 18:00", "LATNOW": 21.2, "LONNOW": 109.8, "WINDNOW": 55.0, "DIRNOW": 7.0, "SPDNOW": 1.0, "TECH": "TRAK", "ADVNR": 16, "ATCFID": "WP012025", "NAME": "WUTIP", "FTECH": "JTWC", "FCST_DTG": "2025-06-14 06:00:00", "RUN_DTG": "2025-06-14 20:42:22", "BASIN": "WP", "STMNR": 1, "CAT_ID": null, "CAT_DESC": null, "MSGID": "WTPN51 PGTW 140900", "VALIDTIME": "2025-06-09 18:00:00" }, "geometry": { "type": "Point", "coordinates": [ 115.5, 15.5 ] } },
{ "type": "Feature", "properties": { "ID": 326260, "LAT": 15.2, "LON": 114.8, "VMAX": 20.0, "MSLP": 1012.95825, "RMAX": 45.0, "FSPD": 3.15007, "FDIR": 289.064, "RENV": 500.0, "PENV": 1012.0, "VALIDT": 0, "DTG": "2025-06-10 00:00", "LATNOW": 21.2, "LONNOW": 109.8, "WINDNOW": 55.0, "DIRNOW": 7.0, "SPDNOW": 1.0, "TECH": "TRAK", "ADVNR": 16, "ATCFID": "WP012025", "NAME": "WUTIP", "FTECH": "JTWC", "FCST_DTG": "2025-06-14 06:00:00", "RUN_DTG": "2025-06-14 20:42:22", "BASIN": "WP", "STMNR": 1, "CAT_ID": null, "CAT_DESC": null, "MSGID": "WTPN51 PGTW 140900", "VALIDTIME": "2025-06-10 00:00:00" }, "geometry": { "type": "Point", "coordinates": [ 114.800003, 15.2 ] } },
{ "type": "Feature", "properties": { "ID": 326261, "LAT": 15.4, "LON": 114.2, "VMAX": 20.0, "MSLP": 1012.95825, "RMAX": 45.0, "FSPD": 2.54018, "FDIR": 215.89519, "RENV": 500.0, "PENV": 1012.0, "VALIDT": 0, "DTG": "2025-06-10 06:00", "LATNOW": 21.2, "LONNOW": 109.8, "WINDNOW": 55.0, "DIRNOW": 7.0, "SPDNOW": 1.0, "TECH": "TRAK", "ADVNR": 16, "ATCFID": "WP012025", "NAME": "WUTIP", "FTECH": "JTWC", "FCST_DTG": "2025-06-14 06:00:00", "RUN_DTG": "2025-06-14 20:42:22", "BASIN": "WP", "STMNR": 1, "CAT_ID": null, "CAT_DESC": null, "MSGID": "WTPN51 PGTW 140900", "VALIDTIME": "2025-06-10 06:00:00" }, "geometry": { "type": "Point", "coordinates": [ 114.199997, 15.4 ] } },
{ "type": "Feature", "properties": { "ID": 326262, "LAT": 15.0, "LON": 113.9, "VMAX": 25.0, "MSLP": 996.0, "RMAX": 105.0, "FSPD": 2.23735, "FDIR": 62.62134, "RENV": 335.0, "PENV": 1003.0, "VALIDT": 0, "DTG": "2025-06-10 12:00", "LATNOW": 21.2, "LONNOW": 109.8, "WINDNOW": 55.0, "DIRNOW": 7.0, "SPDNOW": 1.0, "TECH": "TRAK", "ADVNR": 16, "ATCFID": "WP012025", "NAME": "WUTIP", "FTECH": "JTWC", "FCST_DTG": "2025-06-14 06:00:00", "RUN_DTG": "2025-06-14 20:42:22", "BASIN": "WP", "STMNR": 1, "CAT_ID": null, "CAT_DESC": null, "MSGID": "WTPN51 PGTW 140900", "VALIDTIME": "2025-06-10 12:00:00" }, "geometry": { "type": "Point", "coordinates": [ 113.900002, 15.0 ] } },
{ "type": "Feature", "properties": { "ID": 326263, "LAT": 15.2, "LON": 114.3, "VMAX": 30.0, "MSLP": 996.0, "RMAX": 105.0, "FSPD": 5.51269, "FDIR": 338.9394, "RENV": 335.0, "PENV": 1003.0, "VALIDT": 0, "DTG": "2025-06-10 18:00", "LATNOW": 21.2, "LONNOW": 109.8, "WINDNOW": 55.0, "DIRNOW": 7.0, "SPDNOW": 1.0, "TECH": "TRAK", "ADVNR": 16, "ATCFID": "WP012025", "NAME": "WUTIP", "FTECH": "JTWC", "FCST_DTG": "2025-06-14 06:00:00", "RUN_DTG": "2025-06-14 20:42:22", "BASIN": "WP", "STMNR": 1, "CAT_ID": null, "CAT_DESC": null, "MSGID": "WTPN51 PGTW 140900", "VALIDTIME": "2025-06-10 18:00:00" }, "geometry": { "type": "Point", "coordinates": [ 114.300003, 15.2 ] } },
{ "type": "Feature", "properties": { "ID": 326264, "LAT": 16.2, "LON": 113.9, "VMAX": 30.0, "MSLP": 996.0, "RMAX": 45.0, "FSPD": 7.83506, "FDIR": 289.16537, "RENV": 300.0, "PENV": 1003.0, "VALIDT": 0, "DTG": "2025-06-11 00:00", "LATNOW": 21.2, "LONNOW": 109.8, "WINDNOW": 55.0, "DIRNOW": 7.0, "SPDNOW": 1.0, "TECH": "TRAK", "ADVNR": 16, "ATCFID": "WP012025", "NAME": "WUTIP", "FTECH": "JTWC", "FCST_DTG": "2025-06-14 06:00:00", "RUN_DTG": "2025-06-14 20:42:22", "BASIN": "WP", "STMNR": 1, "CAT_ID": null, "CAT_DESC": null, "MSGID": "WTPN51 PGTW 140900", "VALIDTIME": "2025-06-11 00:00:00" }, "geometry": { "type": "Point", "coordinates": [ 113.900002, 16.200001 ] } },
{ "type": "Feature", "properties": { "ID": 326265, "LAT": 16.7, "LON": 112.4, "VMAX": 30.0, "MSLP": 995.0, "RMAX": 45.0, "FSPD": 4.55477, "FDIR": 256.94458, "RENV": 340.0, "PENV": 1004.0, "VALIDT": 0, "DTG": "2025-06-11 06:00", "LATNOW": 21.2, "LONNOW": 109.8, "WINDNOW": 55.0, "DIRNOW": 7.0, "SPDNOW": 1.0, "TECH": "TRAK", "ADVNR": 16, "ATCFID": "WP012025", "NAME": "WUTIP", "FTECH": "JTWC", "FCST_DTG": "2025-06-14 06:00:00", "RUN_DTG": "2025-06-14 20:42:22", "BASIN": "WP", "STMNR": 1, "CAT_ID": null, "CAT_DESC": null, "MSGID": "WTPN51 PGTW 140900", "VALIDTIME": "2025-06-11 06:00:00" }, "geometry": { "type": "Point", "coordinates": [ 112.400002, 16.700001 ] } },
{ "type": "Feature", "properties": { "ID": 326266, "LAT": 16.5, "LON": 111.5, "VMAX": 30.0, "MSLP": 995.0, "RMAX": 40.0, "FSPD": 3.13474, "FDIR": 250.83902, "RENV": 295.0, "PENV": 1002.0, "VALIDT": 0, "DTG": "2025-06-11 12:00", "LATNOW": 21.2, "LONNOW": 109.8, "WINDNOW": 55.0, "DIRNOW": 7.0, "SPDNOW": 1.0, "TECH": "TRAK", "ADVNR": 16, "ATCFID": "WP012025", "NAME": "WUTIP", "FTECH": "JTWC", "FCST_DTG": "2025-06-14 06:00:00", "RUN_DTG": "2025-06-14 20:42:22", "BASIN": "WP", "STMNR": 1, "CAT_ID": null, "CAT_DESC": null, "MSGID": "WTPN51 PGTW 140900", "VALIDTIME": "2025-06-11 12:00:00" }, "geometry": { "type": "Point", "coordinates": [ 111.5, 16.5 ] } },
{ "type": "Feature", "properties": { "ID": 326267, "LAT": 16.3, "LON": 110.9, "VMAX": 40.0, "MSLP": 990.0, "RMAX": 35.0, "FSPD": 4.65976, "FDIR": 320.60706, "RENV": 340.0, "PENV": 1003.0, "VALIDT": 0, "DTG": "2025-06-11 18:00", "LATNOW": 21.2, "LONNOW": 109.8, "WINDNOW": 55.0, "DIRNOW": 7.0, "SPDNOW": 1.0, "TECH": "TRAK", "ADVNR": 16, "ATCFID": "WP012025", "NAME": "WUTIP", "FTECH": "JTWC", "FCST_DTG": "2025-06-14 06:00:00", "RUN_DTG": "2025-06-14 20:42:22", "BASIN": "WP", "STMNR": 1, "CAT_ID": null, "CAT_DESC": null, "MSGID": "WTPN51 PGTW 140900", "VALIDTIME": "2025-06-11 18:00:00" }, "geometry": { "type": "Point", "coordinates": [ 110.900002, 16.299999 ] } },
{ "type": "Feature", "properties": { "ID": 326268, "LAT": 17.0, "LON": 110.3, "VMAX": 40.0, "MSLP": 993.0, "RMAX": 35.0, "FSPD": 2.21968, "FDIR": 297.6152, "RENV": 340.0, "PENV": 1003.0, "VALIDT": 0, "DTG": "2025-06-12 00:00", "LATNOW": 21.2, "LONNOW": 109.8, "WINDNOW": 55.0, "DIRNOW": 7.0, "SPDNOW": 1.0, "TECH": "TRAK", "ADVNR": 16, "ATCFID": "WP012025", "NAME": "WUTIP", "FTECH": "JTWC", "FCST_DTG": "2025-06-14 06:00:00", "RUN_DTG": "2025-06-14 20:42:22", "BASIN": "WP", "STMNR": 1, "CAT_ID": null, "CAT_DESC": null, "MSGID": "WTPN51 PGTW 140900", "VALIDTIME": "2025-06-12 00:00:00" }, "geometry": { "type": "Point", "coordinates": [ 110.300003, 17.0 ] } },
{ "type": "Feature", "properties": { "ID": 326269, "LAT": 17.2, "LON": 109.9, "VMAX": 50.0, "MSLP": 996.0, "RMAX": 35.0, "FSPD": 3.58887, "FDIR": 286.65973, "RENV": 340.0, "PENV": 1004.0, "VALIDT": 0, "DTG": "2025-06-12 06:00", "LATNOW": 21.2, "LONNOW": 109.8, "WINDNOW": 55.0, "DIRNOW": 7.0, "SPDNOW": 1.0, "TECH": "TRAK", "ADVNR": 16, "ATCFID": "WP012025", "NAME": "WUTIP", "FTECH": "JTWC", "FCST_DTG": "2025-06-14 06:00:00", "RUN_DTG": "2025-06-14 20:42:22", "BASIN": "WP", "STMNR": 1, "CAT_ID": null, "CAT_DESC": null, "MSGID": "WTPN51 PGTW 140900", "VALIDTIME": "2025-06-12 06:00:00" }, "geometry": { "type": "Point", "coordinates": [ 109.900002, 17.200001 ] } },
{ "type": "Feature", "properties": { "ID": 326270, "LAT": 17.4, "LON": 109.2, "VMAX": 50.0, "MSLP": 988.0, "RMAX": 40.0, "FSPD": 1.82872, "FDIR": 327.55896, "RENV": 290.0, "PENV": 1002.0, "VALIDT": 0, "DTG": "2025-06-12 12:00", "LATNOW": 21.2, "LONNOW": 109.8, "WINDNOW": 55.0, "DIRNOW": 7.0, "SPDNOW": 1.0, "TECH": "TRAK", "ADVNR": 16, "ATCFID": "WP012025", "NAME": "WUTIP", "FTECH": "JTWC", "FCST_DTG": "2025-06-14 06:00:00", "RUN_DTG": "2025-06-14 20:42:22", "BASIN": "WP", "STMNR": 1, "CAT_ID": null, "CAT_DESC": null, "MSGID": "WTPN51 PGTW 140900", "VALIDTIME": "2025-06-12 12:00:00" }, "geometry": { "type": "Point", "coordinates": [ 109.199997, 17.4 ] } },
{ "type": "Feature", "properties": { "ID": 326271, "LAT": 17.7, "LON": 109.0, "VMAX": 50.0, "MSLP": 988.0, "RMAX": 40.0, "FSPD": 3.93853, "FDIR": 321.60144, "RENV": 280.0, "PENV": 1003.0, "VALIDT": 0, "DTG": "2025-06-12 18:00", "LATNOW": 21.2, "LONNOW": 109.8, "WINDNOW": 55.0, "DIRNOW": 7.0, "SPDNOW": 1.0, "TECH": "TRAK", "ADVNR": 16, "ATCFID": "WP012025", "NAME": "WUTIP", "FTECH": "JTWC", "FCST_DTG": "2025-06-14 06:00:00", "RUN_DTG": "2025-06-14 20:42:22", "BASIN": "WP", "STMNR": 1, "CAT_ID": null, "CAT_DESC": null, "MSGID": "WTPN51 PGTW 140900", "VALIDTIME": "2025-06-12 18:00:00" }, "geometry": { "type": "Point", "coordinates": [ 109.0, 17.700001 ] } },
{ "type": "Feature", "properties": { "ID": 326272, "LAT": 18.3, "LON": 108.5, "VMAX": 60.0, "MSLP": 989.0, "RMAX": 45.0, "FSPD": 2.27738, "FDIR": 334.6319, "RENV": 260.0, "PENV": 1003.0, "VALIDT": 0, "DTG": "2025-06-13 00:00", "LATNOW": 21.2, "LONNOW": 109.8, "WINDNOW": 55.0, "DIRNOW": 7.0, "SPDNOW": 1.0, "TECH": "TRAK", "ADVNR": 16, "ATCFID": "WP012025", "NAME": "WUTIP", "FTECH": "JTWC", "FCST_DTG": "2025-06-14 06:00:00", "RUN_DTG": "2025-06-14 20:42:22", "BASIN": "WP", "STMNR": 1, "CAT_ID": null, "CAT_DESC": null, "MSGID": "WTPN51 PGTW 140900", "VALIDTIME": "2025-06-13 00:00:00" }, "geometry": { "type": "Point", "coordinates": [ 108.5, 18.299999 ] } },
{ "type": "Feature", "properties": { "ID": 326273, "LAT": 18.7, "LON": 108.3, "VMAX": 60.0, "MSLP": 983.0, "RMAX": 45.0, "FSPD": 0.51444, "FDIR": 360.0, "RENV": 260.0, "PENV": 1003.0, "VALIDT": 0, "DTG": "2025-06-13 06:00", "LATNOW": 21.2, "LONNOW": 109.8, "WINDNOW": 55.0, "DIRNOW": 7.0, "SPDNOW": 1.0, "TECH": "TRAK", "ADVNR": 16, "ATCFID": "WP012025", "NAME": "WUTIP", "FTECH": "JTWC", "FCST_DTG": "2025-06-14 06:00:00", "RUN_DTG": "2025-06-14 20:42:22", "BASIN": "WP", "STMNR": 1, "CAT_ID": null, "CAT_DESC": null, "MSGID": "WTPN51 PGTW 140900", "VALIDTIME": "2025-06-13 06:00:00" }, "geometry": { "type": "Point", "coordinates": [ 108.300003, 18.700001 ] } },
{ "type": "Feature", "properties": { "ID": 326274, "LAT": 18.8, "LON": 108.3, "VMAX": 60.0, "MSLP": 983.0, "RMAX": 30.0, "FSPD": 5.47073, "FDIR": 32.18591, "RENV": 260.0, "PENV": 1003.0, "VALIDT": 0, "DTG": "2025-06-13 12:00", "LATNOW": 21.2, "LONNOW": 109.8, "WINDNOW": 55.0, "DIRNOW": 7.0, "SPDNOW": 1.0, "TECH": "TRAK", "ADVNR": 16, "ATCFID": "WP012025", "NAME": "WUTIP", "FTECH": "JTWC", "FCST_DTG": "2025-06-14 06:00:00", "RUN_DTG": "2025-06-14 20:42:22", "BASIN": "WP", "STMNR": 1, "CAT_ID": null, "CAT_DESC": null, "MSGID": "WTPN51 PGTW 140900", "VALIDTIME": "2025-06-13 12:00:00" }, "geometry": { "type": "Point", "coordinates": [ 108.300003, 18.799999 ] } },
{ "type": "Feature", "properties": { "ID": 326275, "LAT": 19.7, "LON": 108.9, "VMAX": 55.0, "MSLP": 983.0, "RMAX": 30.0, "FSPD": 3.23453, "FDIR": 17.39197, "RENV": 240.0, "PENV": 1003.0, "VALIDT": 0, "DTG": "2025-06-13 18:00", "LATNOW": 21.2, "LONNOW": 109.8, "WINDNOW": 55.0, "DIRNOW": 7.0, "SPDNOW": 1.0, "TECH": "TRAK", "ADVNR": 16, "ATCFID": "WP012025", "NAME": "WUTIP", "FTECH": "JTWC", "FCST_DTG": "2025-06-14 06:00:00", "RUN_DTG": "2025-06-14 20:42:22", "BASIN": "WP", "STMNR": 1, "CAT_ID": null, "CAT_DESC": null, "MSGID": "WTPN51 PGTW 140900", "VALIDTIME": "2025-06-13 18:00:00" }, "geometry": { "type": "Point", "coordinates": [ 108.900002, 19.700001 ] } },
{ "type": "Feature", "properties": { "ID": 326276, "LAT": 20.3, "LON": 109.1, "VMAX": 65.0, "MSLP": 986.0, "RMAX": 25.0, "FSPD": 5.72515, "FDIR": 36.02954, "RENV": 185.0, "PENV": 1002.0, "VALIDT": 0, "DTG": "2025-06-14 00:00", "LATNOW": 21.2, "LONNOW": 109.8, "WINDNOW": 55.0, "DIRNOW": 7.0, "SPDNOW": 1.0, "TECH": "TRAK", "ADVNR": 16, "ATCFID": "WP012025", "NAME": "WUTIP", "FTECH": "JTWC", "FCST_DTG": "2025-06-14 06:00:00", "RUN_DTG": "2025-06-14 20:42:22", "BASIN": "WP", "STMNR": 1, "CAT_ID": null, "CAT_DESC": null, "MSGID": "WTPN51 PGTW 140900", "VALIDTIME": "2025-06-14 00:00:00" }, "geometry": { "type": "Point", "coordinates": [ 109.099998, 20.299999 ] } },
{ "type": "Feature", "properties": { "ID": 326277, "LAT": 21.2, "LON": 109.8, "VMAX": 55.0, "MSLP": 979.0, "RMAX": 12.0, "FSPD": 6.85129, "FDIR": 41.33401, "RENV": 180.0, "PENV": 1002.0, "VALIDT": 0, "DTG": "2025-06-14 06:00", "LATNOW": 21.2, "LONNOW": 109.8, "WINDNOW": 55.0, "DIRNOW": 7.0, "SPDNOW": 1.0, "TECH": "TRAK", "ADVNR": 16, "ATCFID": "WP012025", "NAME": "WUTIP", "FTECH": "JTWC", "FCST_DTG": "2025-06-14 06:00:00", "RUN_DTG": "2025-06-14 20:42:22", "BASIN": "WP", "STMNR": 1, "CAT_ID": null, "CAT_DESC": null, "MSGID": "WTPN51 PGTW 140900", "VALIDTIME": "2025-06-14 06:00:00" }, "geometry": { "type": "Point", "coordinates": [ 109.800003, 21.200001 ] } },
{ "type": "Feature", "properties": { "ID": 326278, "LAT": 23.2, "LON": 111.7, "VMAX": 40.0, "MSLP": 1006.833, "RMAX": 16.5407, "FSPD": 7.80123, "FDIR": 46.17871, "RENV": 180.0, "PENV": 1012.0, "VALIDT": 12, "DTG": "2025-06-14 18:00", "LATNOW": 21.2, "LONNOW": 109.8, "WINDNOW": 55.0, "DIRNOW": 7.0, "SPDNOW": 1.0, "TECH": "FCST", "ADVNR": 16, "ATCFID": "WP012025", "NAME": "WUTIP", "FTECH": "JTWC", "FCST_DTG": "2025-06-14 06:00:00", "RUN_DTG": "2025-06-14 20:42:22", "BASIN": "WP", "STMNR": 1, "CAT_ID": null, "CAT_DESC": null, "MSGID": "WTPN51 PGTW 140900", "VALIDTIME": "2025-06-14 18:00:00" }, "geometry": { "type": "Point", "coordinates": [ 111.699997, 23.200001 ] } },
{ "type": "Feature", "properties": { "ID": 326279, "LAT": 25.3, "LON": 114.1, "VMAX": 30.0, "MSLP": 1010.40607, "RMAX": 17.72453, "FSPD": 10.09512, "FDIR": 57.65085, "RENV": 250.0, "PENV": 1012.0, "VALIDT": 24, "DTG": "2025-06-15 06:00", "LATNOW": 21.2, "LONNOW": 109.8, "WINDNOW": 55.0, "DIRNOW": 7.0, "SPDNOW": 1.0, "TECH": "FCST", "ADVNR": 16, "ATCFID": "WP012025", "NAME": "WUTIP", "FTECH": "JTWC", "FCST_DTG": "2025-06-14 06:00:00", "RUN_DTG": "2025-06-14 20:42:22", "BASIN": "WP", "STMNR": 1, "CAT_ID": null, "CAT_DESC": null, "MSGID": "WTPN51 PGTW 140900", "VALIDTIME": "2025-06-15 06:00:00" }, "geometry": { "type": "Point", "coordinates": [ 114.099998, 25.299999 ] } },
{ "type": "Feature", "properties": { "ID": 326280, "LAT": 27.4, "LON": 117.8, "VMAX": 20.0, "MSLP": 1012.95825, "RMAX": 18.03724, "FSPD": 10.09512, "FDIR": 57.65085, "RENV": 250.0, "PENV": 1012.0, "VALIDT": 36, "DTG": "2025-06-15 18:00", "LATNOW": 21.2, "LONNOW": 109.8, "WINDNOW": 55.0, "DIRNOW": 7.0, "SPDNOW": 1.0, "TECH": "FCST", "ADVNR": 16, "ATCFID": "WP012025", "NAME": "WUTIP", "FTECH": "JTWC", "FCST_DTG": "2025-06-14 06:00:00", "RUN_DTG": "2025-06-14 20:42:22", "BASIN": "WP", "STMNR": 1, "CAT_ID": null, "CAT_DESC": null, "MSGID": "WTPN51 PGTW 140900", "VALIDTIME": "2025-06-15 18:00:00" }, "geometry": { "type": "Point", "coordinates": [ 117.800003, 27.4 ] } },
{ "type": "Feature", "properties": { "ID": 326277, "LAT": 21.2, "LON": 109.8, "VMAX": 55.0, "MSLP": 979.0, "RMAX": 12.0, "FSPD": 6.85129, "FDIR": 41.33401, "RENV": 180.0, "PENV": 1002.0, "VALIDT": 0, "DTG": "2025-06-14 06:00", "LATNOW": 21.2, "LONNOW": 109.8, "WINDNOW": 55.0, "DIRNOW": 7.0, "SPDNOW": 1.0, "TECH": "TRAK", "ADVNR": 16, "ATCFID": "WP012025", "NAME": "WUTIP", "FTECH": "JTWC", "FCST_DTG": "2025-06-14 06:00:00", "RUN_DTG": "2025-06-14 20:42:22", "BASIN": "WP", "STMNR": 1, "CAT_ID": null, "CAT_DESC": null, "MSGID": "WTPN51 PGTW 140900", "VALIDTIME": "2025-06-14 06:00:00" }, "geometry": { "type": "LineString", "coordinates": [ [ 141.1, 6.7 ], [ 140.6, 6.9 ], [ 140.1, 7.2 ], [ 139.2, 7.7 ], [ 137.7, 8.8 ], [ 136.2, 10.1 ], [ 135.7, 10.7 ], [ 134.9, 11.0 ], [ 132.7, 11.9 ], [ 130.3, 13.1 ], [ 128.0, 13.6 ], [ 126.2, 13.8 ], [ 126.4, 13.4 ], [ 126.5, 13.3 ], [ 126.5, 13.5 ], [ 125.9, 14.3 ], [ 124.6, 14.8 ], [ 123.3, 15.2 ], [ 122.2, 15.5 ], [ 121.48, 15.8 ], [ 121.0, 16.0 ], [ 119.2, 16.3 ], [ 117.3, 16.4 ], [ 116.8, 16.3 ], [ 116.0, 15.9 ], [ 115.5, 15.5 ], [ 114.8, 15.2 ], [ 114.2, 15.4 ], [ 113.9, 15.0 ], [ 114.3, 15.2 ], [ 113.9, 16.2 ], [ 112.4, 16.7 ], [ 111.5, 16.5 ], [ 110.9, 16.3 ], [ 110.3, 17.0 ], [ 109.9, 17.2 ], [ 109.2, 17.4 ], [ 109.0, 17.7 ], [ 108.5, 18.3 ], [ 108.3, 18.7 ], [ 108.3, 18.8 ], [ 108.9, 19.7 ], [ 109.1, 20.3 ], [ 109.8, 21.2 ] ] } },
{ "type": "Feature", "properties": { "ID": 326280, "LAT": 27.4, "LON": 117.8, "VMAX": 20.0, "MSLP": 1012.95825, "RMAX": 18.03724, "FSPD": 10.09512, "FDIR": 57.65085, "RENV": 250.0, "PENV": 1012.0, "VALIDT": 36, "DTG": "2025-06-15 18:00", "LATNOW": 21.2, "LONNOW": 109.8, "WINDNOW": 55.0, "DIRNOW": 7.0, "SPDNOW": 1.0, "TECH": "FCST", "ADVNR": 16, "ATCFID": "WP012025", "NAME": "WUTIP", "FTECH": "JTWC", "FCST_DTG": "2025-06-14 06:00:00", "RUN_DTG": "2025-06-14 20:42:22", "BASIN": "WP", "STMNR": 1, "CAT_ID": null, "CAT_DESC": null, "MSGID": "WTPN51 PGTW 140900", "VALIDTIME": "2025-06-15 18:00:00" }, "geometry": { "type": "LineString", "coordinates": [ [ 109.8, 21.2 ], [ 111.7, 23.2 ], [ 114.1, 25.3 ], [ 117.8, 27.4 ] ] } }
]
}
