{
"type": "FeatureCollection",
"crs": { "type": "name", "properties": { "name": "urn:ogc:def:crs:OGC:1.3:CRS84" } },
"features": [
{ "type": "Feature", "properties": { "ID": 24515, "LAT": 18.9, "LON": 124.7, "VMAX": 15.0, "MSLP": 1013.8515, "RMAX": 40.0, "FSPD": 2.20097, "FDIR": 62.12964, "RENV": 500.0, "PENV": 1012.0, "VALIDT": 0, "DTG": "2025-08-16 00:00", "LATNOW": 32.1, "LONNOW": 132.0, "WINDNOW": 25.0, "DIRNOW": 3.0, "SPDNOW": 0.0, "TECH": "TRAK", "ADVNR": 12, "ATCFID": "WP182025", "NAME": "LINGLING", "FTECH": "JTWC", "FCST_DTG": "2025-08-22 00:00:00", "RUN_DTG": "2025-08-22 16:39:33", "BASIN": "WP", "STMNR": 18, "CAT_ID": null, "CAT_DESC": null, "MSGID": "WTPN52 PGTW 220300", "VALIDTIME": "2025-08-16 00:00:00" }, "geometry": { "type": "Point", "coordinates": [ 124.699997, 18.9 ] } },
{ "type": "Feature", "properties": { "ID": 24516, "LAT": 19.1, "LON": 125.1, "VMAX": 15.0, "MSLP": 1013.8515, "RMAX": 40.0, "FSPD": 1.82358, "FDIR": 32.18668, "RENV": 500.0, "PENV": 1012.0, "VALIDT": 0, "DTG": "2025-08-16 06:00", "LATNOW": 32.1, "LONNOW": 132.0, "WINDNOW": 25.0, "DIRNOW": 3.0, "SPDNOW": 0.0, "TECH": "TRAK", "ADVNR": 12, "ATCFID": "WP182025", "NAME": "LINGLING", "FTECH": "JTWC", "FCST_DTG": "2025-08-22 00:00:00", "RUN_DTG": "2025-08-22 16:39:33", "BASIN": "WP", "STMNR": 18, "CAT_ID": null, "CAT_DESC": null, "MSGID": "WTPN52 PGTW 220300", "VALIDTIME": "2025-08-16 06:00:00" }, "geometry": { "type": "Point", "coordinates": [ 125.099998, 19.1 ] } },
{ "type": "Feature", "properties": { "ID": 24517, "LAT": 19.4, "LON": 125.3, "VMAX": 15.0, "MSLP": 1013.8515, "RMAX": 40.0, "FSPD": 7.42648, "FDIR": 51.43192, "RENV": 500.0, "PENV": 1012.0, "VALIDT": 0, "DTG": "2025-08-16 12:00", "LATNOW": 32.1, "LONNOW": 132.0, "WINDNOW": 25.0, "DIRNOW": 3.0, "SPDNOW": 0.0, "TECH": "TRAK", "ADVNR": 12, "ATCFID": "WP182025", "NAME": "LINGLING", "FTECH": "JTWC", "FCST_DTG": "2025-08-22 00:00:00", "RUN_DTG": "2025-08-22 16:39:33", "BASIN": "WP", "STMNR": 18, "CAT_ID": null, "CAT_DESC": null, "MSGID": "WTPN52 PGTW 220300", "VALIDTIME": "2025-08-16 12:00:00" }, "geometry": { "type": "Point", "coordinates": [ 125.300003, 19.4 ] } },
{ "type": "Feature", "properties": { "ID": 24518, "LAT": 20.3, "LON": 126.5, "VMAX": 15.0, "MSLP": 1013.8515, "RMAX": 40.0, "FSPD": 3.40802, "FDIR": 25.08121, "RENV": 500.0, "PENV": 1012.0, "VALIDT": 0, "DTG": "2025-08-16 18:00", "LATNOW": 32.1, "LONNOW": 132.0, "WINDNOW": 25.0, "DIRNOW": 3.0, "SPDNOW": 0.0, "TECH": "TRAK", "ADVNR": 12, "ATCFID": "WP182025", "NAME": "LINGLING", "FTECH": "JTWC", "FCST_DTG": "2025-08-22 00:00:00", "RUN_DTG": "2025-08-22 16:39:33", "BASIN": "WP", "STMNR": 18, "CAT_ID": null, "CAT_DESC": null, "MSGID": "WTPN52 PGTW 220300", "VALIDTIME": "2025-08-16 18:00:00" }, "geometry": { "type": "Point", "coordinates": [ 126.5, 20.299999 ] } },
{ "type": "Feature", "properties": { "ID": 24519, "LAT": 20.9, "LON": 126.8, "VMAX": 15.0, "MSLP": 1013.8515, "RMAX": 40.0, "FSPD": 2.27065, "FDIR": 25.00763, "RENV": 500.0, "PENV": 1012.0, "VALIDT": 0, "DTG": "2025-08-17 00:00", "LATNOW": 32.1, "LONNOW": 132.0, "WINDNOW": 25.0, "DIRNOW": 3.0, "SPDNOW": 0.0, "TECH": "TRAK", "ADVNR": 12, "ATCFID": "WP182025", "NAME": "LINGLING", "FTECH": "JTWC", "FCST_DTG": "2025-08-22 00:00:00", "RUN_DTG": "2025-08-22 16:39:33", "BASIN": "WP", "STMNR": 18, "CAT_ID": null, "CAT_DESC": null, "MSGID": "WTPN52 PGTW 220300", "VALIDTIME": "2025-08-17 00:00:00" }, "geometry": { "type": "Point", "coordinates": [ 126.800003, 20.9 ] } },
{ "type": "Feature", "properties": { "ID": 24520, "LAT": 21.3, "LON": 127.0, "VMAX": 20.0, "MSLP": 1012.95825, "RMAX": 45.0, "FSPD": 2.57222, "FDIR": 360.0, "RENV": 500.0, "PENV": 1012.0, "VALIDT": 0, "DTG": "2025-08-17 06:00", "LATNOW": 32.1, "LONNOW": 132.0, "WINDNOW": 25.0, "DIRNOW": 3.0, "SPDNOW": 0.0, "TECH": "TRAK", "ADVNR": 12, "ATCFID": "WP182025", "NAME": "LINGLING", "FTECH": "JTWC", "FCST_DTG": "2025-08-22 00:00:00", "RUN_DTG": "2025-08-22 16:39:33", "BASIN": "WP", "STMNR": 18, "CAT_ID": null, "CAT_DESC": null, "MSGID": "WTPN52 PGTW 220300", "VALIDTIME": "2025-08-17 06:00:00" }, "geometry": { "type": "Point", "coordinates": [ 127.0, 21.299999 ] } },
{ "type": "Feature", "properties": { "ID": 24521, "LAT": 21.8, "LON": 127.0, "VMAX": 20.0, "MSLP": 1012.95825, "RMAX": 45.0, "FSPD": 2.94322, "FDIR": 330.9207, "RENV": 500.0, "PENV": 1012.0, "VALIDT": 0, "DTG": "2025-08-17 12:00", "LATNOW": 32.1, "LONNOW": 132.0, "WINDNOW": 25.0, "DIRNOW": 3.0, "SPDNOW": 0.0, "TECH": "TRAK", "ADVNR": 12, "ATCFID": "WP182025", "NAME": "LINGLING", "FTECH": "JTWC", "FCST_DTG": "2025-08-22 00:00:00", "RUN_DTG": "2025-08-22 16:39:33", "BASIN": "WP", "STMNR": 18, "CAT_ID": null, "CAT_DESC": null, "MSGID": "WTPN52 PGTW 220300", "VALIDTIME": "2025-08-17 12:00:00" }, "geometry": { "type": "Point", "coordinates": [ 127.0, 21.799999 ] } },
{ "type": "Feature", "properties": { "ID": 24522, "LAT": 22.3, "LON": 126.7, "VMAX": 20.0, "MSLP": 1012.95825, "RMAX": 45.0, "FSPD": 1.81276, "FDIR": 328.3615, "RENV": 500.0, "PENV": 1012.0, "VALIDT": 0, "DTG": "2025-08-17 18:00", "LATNOW": 32.1, "LONNOW": 132.0, "WINDNOW": 25.0, "DIRNOW": 3.0, "SPDNOW": 0.0, "TECH": "TRAK", "ADVNR": 12, "ATCFID": "WP182025", "NAME": "LINGLING", "FTECH": "JTWC", "FCST_DTG": "2025-08-22 00:00:00", "RUN_DTG": "2025-08-22 16:39:33", "BASIN": "WP", "STMNR": 18, "CAT_ID": null, "CAT_DESC": null, "MSGID": "WTPN52 PGTW 220300", "VALIDTIME": "2025-08-17 18:00:00" }, "geometry": { "type": "Point", "coordinates": [ 126.699997, 22.299999 ] } },
{ "type": "Feature", "properties": { "ID": 24523, "LAT": 22.6, "LON": 126.5, "VMAX": 20.0, "MSLP": 1012.95825, "RMAX": 45.0, "FSPD": 1.07993, "FDIR": 61.55136, "RENV": 500.0, "PENV": 1012.0, "VALIDT": 0, "DTG": "2025-08-18 00:00", "LATNOW": 32.1, "LONNOW": 132.0, "WINDNOW": 25.0, "DIRNOW": 3.0, "SPDNOW": 0.0, "TECH": "TRAK", "ADVNR": 12, "ATCFID": "WP182025", "NAME": "LINGLING", "FTECH": "JTWC", "FCST_DTG": "2025-08-22 00:00:00", "RUN_DTG": "2025-08-22 16:39:33", "BASIN": "WP", "STMNR": 18, "CAT_ID": null, "CAT_DESC": null, "MSGID": "WTPN52 PGTW 220300", "VALIDTIME": "2025-08-18 00:00:00" }, "geometry": { "type": "Point", "coordinates": [ 126.5, 22.6 ] } },
{ "type": "Feature", "properties": { "ID": 24524, "LAT": 22.7, "LON": 126.7, "VMAX": 20.0, "MSLP": 1012.95825, "RMAX": 45.0, "FSPD": 1.4238, "FDIR": 90.0, "RENV": 500.0, "PENV": 1012.0, "VALIDT": 0, "DTG": "2025-08-18 06:00", "LATNOW": 32.1, "LONNOW": 132.0, "WINDNOW": 25.0, "DIRNOW": 3.0, "SPDNOW": 0.0, "TECH": "TRAK", "ADVNR": 12, "ATCFID": "WP182025", "NAME": "LINGLING", "FTECH": "JTWC", "FCST_DTG": "2025-08-22 00:00:00", "RUN_DTG": "2025-08-22 16:39:33", "BASIN": "WP", "STMNR": 18, "CAT_ID": null, "CAT_DESC": null, "MSGID": "WTPN52 PGTW 220300", "VALIDTIME": "2025-08-18 06:00:00" }, "geometry": { "type": "Point", "coordinates": [ 126.699997, 22.700001 ] } },
{ "type": "Feature", "properties": { "ID": 24525, "LAT": 22.7, "LON": 127.0, "VMAX": 20.0, "MSLP": 1012.95825, "RMAX": 45.0, "FSPD": 6.9495, "FDIR": 15.77466, "RENV": 500.0, "PENV": 1012.0, "VALIDT": 0, "DTG": "2025-08-18 12:00", "LATNOW": 32.1, "LONNOW": 132.0, "WINDNOW": 25.0, "DIRNOW": 3.0, "SPDNOW": 0.0, "TECH": "TRAK", "ADVNR": 12, "ATCFID": "WP182025", "NAME": "LINGLING", "FTECH": "JTWC", "FCST_DTG": "2025-08-22 00:00:00", "RUN_DTG": "2025-08-22 16:39:33", "BASIN": "WP", "STMNR": 18, "CAT_ID": null, "CAT_DESC": null, "MSGID": "WTPN52 PGTW 220300", "VALIDTIME": "2025-08-18 12:00:00" }, "geometry": { "type": "Point", "coordinates": [ 127.0, 22.700001 ] } },
{ "type": "Feature", "properties": { "ID": 24526, "LAT": 24.0, "LON": 127.4, "VMAX": 20.0, "MSLP": 1012.95825, "RMAX": 45.0, "FSPD": 10.66241, "FDIR": 15.21054, "RENV": 500.0, "PENV": 1012.0, "VALIDT": 0, "DTG": "2025-08-18 18:00", "LATNOW": 32.1, "LONNOW": 132.0, "WINDNOW": 25.0, "DIRNOW": 3.0, "SPDNOW": 0.0, "TECH": "TRAK", "ADVNR": 12, "ATCFID": "WP182025", "NAME": "LINGLING", "FTECH": "JTWC", "FCST_DTG": "2025-08-22 00:00:00", "RUN_DTG": "2025-08-22 16:39:33", "BASIN": "WP", "STMNR": 18, "CAT_ID": null, "CAT_DESC": null, "MSGID": "WTPN52 PGTW 220300", "VALIDTIME": "2025-08-18 18:00:00" }, "geometry": { "type": "Point", "coordinates": [ 127.400002, 24.0 ] } },
{ "type": "Feature", "properties": { "ID": 24527, "LAT": 26.0, "LON": 128.0, "VMAX": 25.0, "MSLP": 1011.80975, "RMAX": 45.0, "FSPD": 6.44171, "FDIR": 343.40317, "RENV": 500.0, "PENV": 1012.0, "VALIDT": 0, "DTG": "2025-08-19 00:00", "LATNOW": 32.1, "LONNOW": 132.0, "WINDNOW": 25.0, "DIRNOW": 3.0, "SPDNOW": 0.0, "TECH": "TRAK", "ADVNR": 12, "ATCFID": "WP182025", "NAME": "LINGLING", "FTECH": "JTWC", "FCST_DTG": "2025-08-22 00:00:00", "RUN_DTG": "2025-08-22 16:39:33", "BASIN": "WP", "STMNR": 18, "CAT_ID": null, "CAT_DESC": null, "MSGID": "WTPN52 PGTW 220300", "VALIDTIME": "2025-08-19 00:00:00" }, "geometry": { "type": "Point", "coordinates": [ 128.0, 26.0 ] } },
{ "type": "Feature", "properties": { "ID": 24528, "LAT": 27.2, "LON": 127.6, "VMAX": 30.0, "MSLP": 1009.0, "RMAX": 60.0, "FSPD": 4.2625, "FDIR": 327.65424, "RENV": 120.0, "PENV": 1012.0, "VALIDT": 0, "DTG": "2025-08-19 06:00", "LATNOW": 32.1, "LONNOW": 132.0, "WINDNOW": 25.0, "DIRNOW": 3.0, "SPDNOW": 0.0, "TECH": "TRAK", "ADVNR": 12, "ATCFID": "WP182025", "NAME": "LINGLING", "FTECH": "JTWC", "FCST_DTG": "2025-08-22 00:00:00", "RUN_DTG": "2025-08-22 16:39:33", "BASIN": "WP", "STMNR": 18, "CAT_ID": null, "CAT_DESC": null, "MSGID": "WTPN52 PGTW 220300", "VALIDTIME": "2025-08-19 06:00:00" }, "geometry": { "type": "Point", "coordinates": [ 127.599998, 27.200001 ] } },
{ "type": "Feature", "properties": { "ID": 24529, "LAT": 27.9, "LON": 127.1, "VMAX": 30.0, "MSLP": 1009.0, "RMAX": 60.0, "FSPD": 3.84919, "FDIR": 339.31754, "RENV": 120.0, "PENV": 1012.0, "VALIDT": 0, "DTG": "2025-08-19 12:00", "LATNOW": 32.1, "LONNOW": 132.0, "WINDNOW": 25.0, "DIRNOW": 3.0, "SPDNOW": 0.0, "TECH": "TRAK", "ADVNR": 12, "ATCFID": "WP182025", "NAME": "LINGLING", "FTECH": "JTWC", "FCST_DTG": "2025-08-22 00:00:00", "RUN_DTG": "2025-08-22 16:39:33", "BASIN": "WP", "STMNR": 18, "CAT_ID": null, "CAT_DESC": null, "MSGID": "WTPN52 PGTW 220300", "VALIDTIME": "2025-08-19 12:00:00" }, "geometry": { "type": "Point", "coordinates": [ 127.099998, 27.9 ] } },
{ "type": "Feature", "properties": { "ID": 24530, "LAT": 28.6, "LON": 126.8, "VMAX": 25.0, "MSLP": 1008.0, "RMAX": 50.0, "FSPD": 4.92198, "FDIR": 33.26343, "RENV": 120.0, "PENV": 1012.0, "VALIDT": 0, "DTG": "2025-08-19 18:00", "LATNOW": 32.1, "LONNOW": 132.0, "WINDNOW": 25.0, "DIRNOW": 3.0, "SPDNOW": 0.0, "TECH": "TRAK", "ADVNR": 12, "ATCFID": "WP182025", "NAME": "LINGLING", "FTECH": "JTWC", "FCST_DTG": "2025-08-22 00:00:00", "RUN_DTG": "2025-08-22 16:39:33", "BASIN": "WP", "STMNR": 18, "CAT_ID": null, "CAT_DESC": null, "MSGID": "WTPN52 PGTW 220300", "VALIDTIME": "2025-08-19 18:00:00" }, "geometry": { "type": "Point", "coordinates": [ 126.800003, 28.6 ] } },
{ "type": "Feature", "properties": { "ID": 24531, "LAT": 29.4, "LON": 127.4, "VMAX": 30.0, "MSLP": 1005.0, "RMAX": 35.0, "FSPD": 5.13947, "FDIR": 25.72711, "RENV": 75.0, "PENV": 1008.0, "VALIDT": 0, "DTG": "2025-08-20 00:00", "LATNOW": 32.1, "LONNOW": 132.0, "WINDNOW": 25.0, "DIRNOW": 3.0, "SPDNOW": 0.0, "TECH": "TRAK", "ADVNR": 12, "ATCFID": "WP182025", "NAME": "LINGLING", "FTECH": "JTWC", "FCST_DTG": "2025-08-22 00:00:00", "RUN_DTG": "2025-08-22 16:39:33", "BASIN": "WP", "STMNR": 18, "CAT_ID": null, "CAT_DESC": null, "MSGID": "WTPN52 PGTW 220300", "VALIDTIME": "2025-08-20 00:00:00" }, "geometry": { "type": "Point", "coordinates": [ 127.400002, 29.4 ] } },
{ "type": "Feature", "properties": { "ID": 24532, "LAT": 30.3, "LON": 127.9, "VMAX": 30.0, "MSLP": 1005.0, "RMAX": 35.0, "FSPD": 4.65107, "FDIR": 5.4545, "RENV": 60.0, "PENV": 1008.0, "VALIDT": 0, "DTG": "2025-08-20 06:00", "LATNOW": 32.1, "LONNOW": 132.0, "WINDNOW": 25.0, "DIRNOW": 3.0, "SPDNOW": 0.0, "TECH": "TRAK", "ADVNR": 12, "ATCFID": "WP182025", "NAME": "LINGLING", "FTECH": "JTWC", "FCST_DTG": "2025-08-22 00:00:00", "RUN_DTG": "2025-08-22 16:39:33", "BASIN": "WP", "STMNR": 18, "CAT_ID": null, "CAT_DESC": null, "MSGID": "WTPN52 PGTW 220300", "VALIDTIME": "2025-08-20 06:00:00" }, "geometry": { "type": "Point", "coordinates": [ 127.900002, 30.299999 ] } },
{ "type": "Feature", "properties": { "ID": 24533, "LAT": 31.2, "LON": 128.0, "VMAX": 35.0, "MSLP": 1005.0, "RMAX": 35.0, "FSPD": 5.01117, "FDIR": 51.97855, "RENV": 60.0, "PENV": 1010.0, "VALIDT": 0, "DTG": "2025-08-20 12:00", "LATNOW": 32.1, "LONNOW": 132.0, "WINDNOW": 25.0, "DIRNOW": 3.0, "SPDNOW": 0.0, "TECH": "TRAK", "ADVNR": 12, "ATCFID": "WP182025", "NAME": "LINGLING", "FTECH": "JTWC", "FCST_DTG": "2025-08-22 00:00:00", "RUN_DTG": "2025-08-22 16:39:33", "BASIN": "WP", "STMNR": 18, "CAT_ID": null, "CAT_DESC": null, "MSGID": "WTPN52 PGTW 220300", "VALIDTIME": "2025-08-20 12:00:00" }, "geometry": { "type": "Point", "coordinates": [ 128.0, 31.200001 ] } },
{ "type": "Feature", "properties": { "ID": 24534, "LAT": 31.8, "LON": 128.9, "VMAX": 40.0, "MSLP": 1004.0, "RMAX": 40.0, "FSPD": 1.66595, "FDIR": 51.85892, "RENV": 60.0, "PENV": 1008.0, "VALIDT": 0, "DTG": "2025-08-20 18:00", "LATNOW": 32.1, "LONNOW": 132.0, "WINDNOW": 25.0, "DIRNOW": 3.0, "SPDNOW": 0.0, "TECH": "TRAK", "ADVNR": 12, "ATCFID": "WP182025", "NAME": "LINGLING", "FTECH": "JTWC", "FCST_DTG": "2025-08-22 00:00:00", "RUN_DTG": "2025-08-22 16:39:33", "BASIN": "WP", "STMNR": 18, "CAT_ID": null, "CAT_DESC": null, "MSGID": "WTPN52 PGTW 220300", "VALIDTIME": "2025-08-20 18:00:00" }, "geometry": { "type": "Point", "coordinates": [ 128.899994, 31.799999 ] } },
{ "type": "Feature", "properties": { "ID": 24535, "LAT": 32.0, "LON": 129.2, "VMAX": 40.0, "MSLP": 1002.0, "RMAX": 35.0, "FSPD": 3.42617, "FDIR": 116.77267, "RENV": 70.0, "PENV": 1009.0, "VALIDT": 0, "DTG": "2025-08-21 00:00", "LATNOW": 32.1, "LONNOW": 132.0, "WINDNOW": 25.0, "DIRNOW": 3.0, "SPDNOW": 0.0, "TECH": "TRAK", "ADVNR": 12, "ATCFID": "WP182025", "NAME": "LINGLING", "FTECH": "JTWC", "FCST_DTG": "2025-08-22 00:00:00", "RUN_DTG": "2025-08-22 16:39:33", "BASIN": "WP", "STMNR": 18, "CAT_ID": null, "CAT_DESC": null, "MSGID": "WTPN52 PGTW 220300", "VALIDTIME": "2025-08-21 00:00:00" }, "geometry": { "type": "Point", "coordinates": [ 129.199997, 32.0 ] } },
{ "type": "Feature", "properties": { "ID": 24536, "LAT": 31.7, "LON": 129.9, "VMAX": 45.0, "MSLP": 996.0, "RMAX": 30.0, "FSPD": 4.40825, "FDIR": 96.70157, "RENV": 70.0, "PENV": 1010.0, "VALIDT": 0, "DTG": "2025-08-21 06:00", "LATNOW": 32.1, "LONNOW": 132.0, "WINDNOW": 25.0, "DIRNOW": 3.0, "SPDNOW": 0.0, "TECH": "TRAK", "ADVNR": 12, "ATCFID": "WP182025", "NAME": "LINGLING", "FTECH": "JTWC", "FCST_DTG": "2025-08-22 00:00:00", "RUN_DTG": "2025-08-22 16:39:33", "BASIN": "WP", "STMNR": 18, "CAT_ID": null, "CAT_DESC": null, "MSGID": "WTPN52 PGTW 220300", "VALIDTIME": "2025-08-21 06:00:00" }, "geometry": { "type": "Point", "coordinates": [ 129.899994, 31.700001 ] } },
{ "type": "Feature", "properties": { "ID": 24537, "LAT": 31.65, "LON": 130.4, "VMAX": 45.0, "MSLP": 996.0, "RMAX": 30.0, "FSPD": 4.41059, "FDIR": 96.69824, "RENV": 70.0, "PENV": 1010.0, "VALIDT": 0, "DTG": "2025-08-21 09:00", "LATNOW": 32.1, "LONNOW": 132.0, "WINDNOW": 25.0, "DIRNOW": 3.0, "SPDNOW": 0.0, "TECH": "TRAK", "ADVNR": 12, "ATCFID": "WP182025", "NAME": "LINGLING", "FTECH": "JTWC", "FCST_DTG": "2025-08-22 00:00:00", "RUN_DTG": "2025-08-22 16:39:33", "BASIN": "WP", "STMNR": 18, "CAT_ID": null, "CAT_DESC": null, "MSGID": "WTPN52 PGTW 220300", "VALIDTIME": "2025-08-21 09:00:00" }, "geometry": { "type": "Point", "coordinates": [ 130.399994, 31.650002 ] } },
{ "type": "Feature", "properties": { "ID": 24538, "LAT": 31.6, "LON": 130.9, "VMAX": 30.0, "MSLP": 992.0, "RMAX": 25.0, "FSPD": 2.41827, "FDIR": 64.82004, "RENV": 85.0, "PENV": 1009.0, "VALIDT": 0, "DTG": "2025-08-21 12:00", "LATNOW": 32.1, "LONNOW": 132.0, "WINDNOW": 25.0, "DIRNOW": 3.0, "SPDNOW": 0.0, "TECH": "TRAK", "ADVNR": 12, "ATCFID": "WP182025", "NAME": "LINGLING", "FTECH": "JTWC", "FCST_DTG": "2025-08-22 00:00:00", "RUN_DTG": "2025-08-22 16:39:33", "BASIN": "WP", "STMNR": 18, "CAT_ID": null, "CAT_DESC": null, "MSGID": "WTPN52 PGTW 220300", "VALIDTIME": "2025-08-21 12:00:00" }, "geometry": { "type": "Point", "coordinates": [ 130.899994, 31.6 ] } },
{ "type": "Feature", "properties": { "ID": 24539, "LAT": 31.8, "LON": 131.4, "VMAX": 30.0, "MSLP": 1002.0, "RMAX": 25.0, "FSPD": 3.03999, "FDIR": 59.49084, "RENV": 75.0, "PENV": 1009.0, "VALIDT": 0, "DTG": "2025-08-21 18:00", "LATNOW": 32.1, "LONNOW": 132.0, "WINDNOW": 25.0, "DIRNOW": 3.0, "SPDNOW": 0.0, "TECH": "TRAK", "ADVNR": 12, "ATCFID": "WP182025", "NAME": "LINGLING", "FTECH": "JTWC", "FCST_DTG": "2025-08-22 00:00:00", "RUN_DTG": "2025-08-22 16:39:33", "BASIN": "WP", "STMNR": 18, "CAT_ID": null, "CAT_DESC": null, "MSGID": "WTPN52 PGTW 220300", "VALIDTIME": "2025-08-21 18:00:00" }, "geometry": { "type": "Point", "coordinates": [ 131.399994, 31.799999 ] } },
{ "type": "Feature", "properties": { "ID": 24540, "LAT": 32.1, "LON": 132.0, "VMAX": 25.0, "MSLP": 1004.0, "RMAX": 30.0, "FSPD": 2.71435, "FDIR": 61.71747, "RENV": 60.0, "PENV": 1008.0, "VALIDT": 0, "DTG": "2025-08-22 00:00", "LATNOW": 32.1, "LONNOW": 132.0, "WINDNOW": 25.0, "DIRNOW": 3.0, "SPDNOW": 0.0, "TECH": "TRAK", "ADVNR": 12, "ATCFID": "WP182025", "NAME": "LINGLING", "FTECH": "JTWC", "FCST_DTG": "2025-08-22 00:00:00", "RUN_DTG": "2025-08-22 16:39:33", "BASIN": "WP", "STMNR": 18, "CAT_ID": null, "CAT_DESC": null, "MSGID": "WTPN52 PGTW 220300", "VALIDTIME": "2025-08-22 00:00:00" }, "geometry": { "type": "Point", "coordinates": [ 132.0, 32.099998 ] } },
{ "type": "Feature", "properties": { "ID": 24541, "LAT": 32.6, "LON": 133.1, "VMAX": 20.0, "MSLP": 1012.95825, "RMAX": 34.16165, "FSPD": 2.29685, "FDIR": 70.36841, "RENV": 250.0, "PENV": 1012.0, "VALIDT": 12, "DTG": "2025-08-22 12:00", "LATNOW": 32.1, "LONNOW": 132.0, "WINDNOW": 25.0, "DIRNOW": 3.0, "SPDNOW": 0.0, "TECH": "FCST", "ADVNR": 12, "ATCFID": "WP182025", "NAME": "LINGLING", "FTECH": "JTWC", "FCST_DTG": "2025-08-22 00:00:00", "RUN_DTG": "2025-08-22 16:39:33", "BASIN": "WP", "STMNR": 18, "CAT_ID": null, "CAT_DESC": null, "MSGID": "WTPN52 PGTW 220300", "VALIDTIME": "2025-08-22 12:00:00" }, "geometry": { "type": "Point", "coordinates": [ 133.100006, 32.599998 ] } },
{ "type": "Feature", "properties": { "ID": 24542, "LAT": 32.9, "LON": 134.1, "VMAX": 20.0, "MSLP": 1012.95825, "RMAX": 34.16165, "FSPD": 2.29685, "FDIR": 70.36841, "RENV": 250.0, "PENV": 1012.0, "VALIDT": 24, "DTG": "2025-08-23 00:00", "LATNOW": 32.1, "LONNOW": 132.0, "WINDNOW": 25.0, "DIRNOW": 3.0, "SPDNOW": 0.0, "TECH": "FCST", "ADVNR": 12, "ATCFID": "WP182025", "NAME": "LINGLING", "FTECH": "JTWC", "FCST_DTG": "2025-08-22 00:00:00", "RUN_DTG": "2025-08-22 16:39:33", "BASIN": "WP", "STMNR": 18, "CAT_ID": null, "CAT_DESC": null, "MSGID": "WTPN52 PGTW 220300", "VALIDTIME": "2025-08-23 00:00:00" }, "geometry": { "type": "Point", "coordinates": [ 134.100006, 32.900002 ] } },
{ "type": "Feature", "properties": { "ID": 24540, "LAT": 32.1, "LON": 132.0, "VMAX": 25.0, "MSLP": 1004.0, "RMAX": 30.0, "FSPD": 2.71435, "FDIR": 61.71747, "RENV": 60.0, "PENV": 1008.0, "VALIDT": 0, "DTG": "2025-08-22 00:00", "LATNOW": 32.1, "LONNOW": 132.0, "WINDNOW": 25.0, "DIRNOW": 3.0, "SPDNOW": 0.0, "TECH": "TRAK", "ADVNR": 12, "ATCFID": "WP182025", "NAME": "LINGLING", "FTECH": "JTWC", "FCST_DTG": "2025-08-22 00:00:00", "RUN_DTG": "2025-08-22 16:39:33", "BASIN": "WP", "STMNR": 18, "CAT_ID": null, "CAT_DESC": null, "MSGID": "WTPN52 PGTW 220300", "VALIDTIME": "2025-08-22 00:00:00" }, "geometry": { "type": "LineString", "coordinates": [ [ 124.7, 18.9 ], [ 125.1, 19.1 ], [ 125.3, 19.4 ], [ 126.5, 20.3 ], [ 126.8, 20.9 ], [ 127.0, 21.3 ], [ 127.0, 21.8 ], [ 126.7, 22.3 ], [ 126.5, 22.6 ], [ 126.7, 22.7 ], [ 127.0, 22.7 ], [ 127.4, 24.0 ], [ 128.0, 26.0 ], [ 127.6, 27.2 ], [ 127.1, 27.9 ], [ 126.8, 28.6 ], [ 127.4, 29.4 ], [ 127.9, 30.3 ], [ 128.0, 31.2 ], [ 128.9, 31.8 ], [ 129.2, 32.0 ], [ 129.9, 31.7 ], [ 130.4, 31.65 ], [ 130.9, 31.6 ], [ 131.4, 31.8 ], [ 132.0, 32.1 ] ] } },
{ "type": "Feature", "properties": { "ID": 24542, "LAT": 32.9, "LON": 134.1, "VMAX": 20.0, "MSLP": 1012.95825, "RMAX": 34.16165, "FSPD": 2.29685, "FDIR": 70.36841, "RENV": 250.0, "PENV": 1012.0, "VALIDT": 24, "DTG": "2025-08-23 00:00", "LATNOW": 32.1, "LONNOW": 132.0, "WINDNOW": 25.0, "DIRNOW": 3.0, "SPDNOW": 0.0, "TECH": "FCST", "ADVNR": 12, "ATCFID": "WP182025", "NAME": "LINGLING", "FTECH": "JTWC", "FCST_DTG": "2025-08-22 00:00:00", "RUN_DTG": "2025-08-22 16:39:33", "BASIN": "WP", "STMNR": 18, "CAT_ID": null, "CAT_DESC": null, "MSGID": "WTPN52 PGTW 220300", "VALIDTIME": "2025-08-23 00:00:00" }, "geometry": { "type": "LineString", "coordinates": [ [ 132.0, 32.1 ], [ 133.1, 32.6 ], [ 134.1, 32.9 ] ] } }
]
}
