{
"type": "FeatureCollection",
"crs": { "type": "name", "properties": { "name": "urn:ogc:def:crs:OGC:1.3:CRS84" } },
"features": [
{ "type": "Feature", "properties": { "ID": 11060, "LAT": 10.6, "LON": -133.4, "VMAX": 20.0, "MSLP": 1012.95825, "RMAX": 45.0, "FSPD": 7.09688, "FDIR": 274.15692, "RENV": 500.0, "PENV": 1012.0, "VALIDT": 0, "DTG": "2025-07-24 12:00", "LATNOW": 16.9, "LONNOW": 179.7, "WINDNOW": 25.0, "DIRNOW": 8.0, "SPDNOW": 3.0, "TECH": "TRAK", "ADVNR": 25, "ATCFID": "CP012025", "NAME": "IONA", "FTECH": "JTWC", "FCST_DTG": "2025-08-02 00:00:00", "RUN_DTG": "2025-08-02 20:27:48", "BASIN": "CP", "STMNR": 1, "CAT_ID": null, "CAT_DESC": null, "MSGID": "WTPN53 PGTW 020900", "VALIDTIME": "2025-07-24 12:00:00" }, "geometry": { "type": "Point", "coordinates": [ -133.399994, 10.6 ] } },
{ "type": "Feature", "properties": { "ID": 11061, "LAT": 10.7, "LON": -134.8, "VMAX": 20.0, "MSLP": 1012.95825, "RMAX": 45.0, "FSPD": 6.08875, "FDIR": 265.15326, "RENV": 500.0, "PENV": 1012.0, "VALIDT": 0, "DTG": "2025-07-24 18:00", "LATNOW": 16.9, "LONNOW": 179.7, "WINDNOW": 25.0, "DIRNOW": 8.0, "SPDNOW": 3.0, "TECH": "TRAK", "ADVNR": 25, "ATCFID": "CP012025", "NAME": "IONA", "FTECH": "JTWC", "FCST_DTG": "2025-08-02 00:00:00", "RUN_DTG": "2025-08-02 20:27:48", "BASIN": "CP", "STMNR": 1, "CAT_ID": null, "CAT_DESC": null, "MSGID": "WTPN53 PGTW 020900", "VALIDTIME": "2025-07-24 18:00:00" }, "geometry": { "type": "Point", "coordinates": [ -134.800003, 10.7 ] } },
{ "type": "Feature", "properties": { "ID": 11062, "LAT": 10.6, "LON": -136.0, "VMAX": 20.0, "MSLP": 1012.95825, "RMAX": 45.0, "FSPD": 6.06797, "FDIR": 269.99997, "RENV": 500.0, "PENV": 1012.0, "VALIDT": 0, "DTG": "2025-07-25 00:00", "LATNOW": 16.9, "LONNOW": 179.7, "WINDNOW": 25.0, "DIRNOW": 8.0, "SPDNOW": 3.0, "TECH": "TRAK", "ADVNR": 25, "ATCFID": "CP012025", "NAME": "IONA", "FTECH": "JTWC", "FCST_DTG": "2025-08-02 00:00:00", "RUN_DTG": "2025-08-02 20:27:48", "BASIN": "CP", "STMNR": 1, "CAT_ID": null, "CAT_DESC": null, "MSGID": "WTPN53 PGTW 020900", "VALIDTIME": "2025-07-25 00:00:00" }, "geometry": { "type": "Point", "coordinates": [ -136.0, 10.6 ] } },
{ "type": "Feature", "properties": { "ID": 11063, "LAT": 10.6, "LON": -137.2, "VMAX": 20.0, "MSLP": 1012.95825, "RMAX": 45.0, "FSPD": 5.56235, "FDIR": 269.99997, "RENV": 500.0, "PENV": 1012.0, "VALIDT": 0, "DTG": "2025-07-25 06:00", "LATNOW": 16.9, "LONNOW": 179.7, "WINDNOW": 25.0, "DIRNOW": 8.0, "SPDNOW": 3.0, "TECH": "TRAK", "ADVNR": 25, "ATCFID": "CP012025", "NAME": "IONA", "FTECH": "JTWC", "FCST_DTG": "2025-08-02 00:00:00", "RUN_DTG": "2025-08-02 20:27:48", "BASIN": "CP", "STMNR": 1, "CAT_ID": null, "CAT_DESC": null, "MSGID": "WTPN53 PGTW 020900", "VALIDTIME": "2025-07-25 06:00:00" }, "geometry": { "type": "Point", "coordinates": [ -137.199997, 10.6 ] } },
{ "type": "Feature", "properties": { "ID": 11064, "LAT": 10.6, "LON": -138.3, "VMAX": 25.0, "MSLP": 1011.80975, "RMAX": 45.0, "FSPD": 7.0968, "FDIR": 274.15695, "RENV": 500.0, "PENV": 1012.0, "VALIDT": 0, "DTG": "2025-07-25 12:00", "LATNOW": 16.9, "LONNOW": 179.7, "WINDNOW": 25.0, "DIRNOW": 8.0, "SPDNOW": 3.0, "TECH": "TRAK", "ADVNR": 25, "ATCFID": "CP012025", "NAME": "IONA", "FTECH": "JTWC", "FCST_DTG": "2025-08-02 00:00:00", "RUN_DTG": "2025-08-02 20:27:48", "BASIN": "CP", "STMNR": 1, "CAT_ID": null, "CAT_DESC": null, "MSGID": "WTPN53 PGTW 020900", "VALIDTIME": "2025-07-25 12:00:00" }, "geometry": { "type": "Point", "coordinates": [ -138.300003, 10.6 ] } },
{ "type": "Feature", "properties": { "ID": 11065, "LAT": 10.7, "LON": -139.7, "VMAX": 25.0, "MSLP": 1011.80975, "RMAX": 45.0, "FSPD": 6.08875, "FDIR": 265.15326, "RENV": 500.0, "PENV": 1012.0, "VALIDT": 0, "DTG": "2025-07-25 18:00", "LATNOW": 16.9, "LONNOW": 179.7, "WINDNOW": 25.0, "DIRNOW": 8.0, "SPDNOW": 3.0, "TECH": "TRAK", "ADVNR": 25, "ATCFID": "CP012025", "NAME": "IONA", "FTECH": "JTWC", "FCST_DTG": "2025-08-02 00:00:00", "RUN_DTG": "2025-08-02 20:27:48", "BASIN": "CP", "STMNR": 1, "CAT_ID": null, "CAT_DESC": null, "MSGID": "WTPN53 PGTW 020900", "VALIDTIME": "2025-07-25 18:00:00" }, "geometry": { "type": "Point", "coordinates": [ -139.699997, 10.7 ] } },
{ "type": "Feature", "properties": { "ID": 11066, "LAT": 10.6, "LON": -140.9, "VMAX": 25.0, "MSLP": 1011.80975, "RMAX": 45.0, "FSPD": 3.85994, "FDIR": 293.5677, "RENV": 500.0, "PENV": 1012.0, "VALIDT": 0, "DTG": "2025-07-26 00:00", "LATNOW": 16.9, "LONNOW": 179.7, "WINDNOW": 25.0, "DIRNOW": 8.0, "SPDNOW": 3.0, "TECH": "TRAK", "ADVNR": 25, "ATCFID": "CP012025", "NAME": "IONA", "FTECH": "JTWC", "FCST_DTG": "2025-08-02 00:00:00", "RUN_DTG": "2025-08-02 20:27:48", "BASIN": "CP", "STMNR": 1, "CAT_ID": null, "CAT_DESC": null, "MSGID": "WTPN53 PGTW 020900", "VALIDTIME": "2025-07-26 00:00:00" }, "geometry": { "type": "Point", "coordinates": [ -140.899994, 10.6 ] } },
{ "type": "Feature", "properties": { "ID": 11067, "LAT": 10.9, "LON": -141.6, "VMAX": 20.0, "MSLP": 1012.95825, "RMAX": 45.0, "FSPD": 2.72655, "FDIR": 292.1703, "RENV": 500.0, "PENV": 1012.0, "VALIDT": 0, "DTG": "2025-07-26 06:00", "LATNOW": 16.9, "LONNOW": 179.7, "WINDNOW": 25.0, "DIRNOW": 8.0, "SPDNOW": 3.0, "TECH": "TRAK", "ADVNR": 25, "ATCFID": "CP012025", "NAME": "IONA", "FTECH": "JTWC", "FCST_DTG": "2025-08-02 00:00:00", "RUN_DTG": "2025-08-02 20:27:48", "BASIN": "CP", "STMNR": 1, "CAT_ID": null, "CAT_DESC": null, "MSGID": "WTPN53 PGTW 020900", "VALIDTIME": "2025-07-26 06:00:00" }, "geometry": { "type": "Point", "coordinates": [ -141.600006, 10.9 ] } },
{ "type": "Feature", "properties": { "ID": 11068, "LAT": 11.1, "LON": -142.1, "VMAX": 25.0, "MSLP": 1011.80975, "RMAX": 45.0, "FSPD": 4.57316, "FDIR": 263.54095, "RENV": 500.0, "PENV": 1012.0, "VALIDT": 0, "DTG": "2025-07-26 12:00", "LATNOW": 16.9, "LONNOW": 179.7, "WINDNOW": 25.0, "DIRNOW": 8.0, "SPDNOW": 3.0, "TECH": "TRAK", "ADVNR": 25, "ATCFID": "CP012025", "NAME": "IONA", "FTECH": "JTWC", "FCST_DTG": "2025-08-02 00:00:00", "RUN_DTG": "2025-08-02 20:27:48", "BASIN": "CP", "STMNR": 1, "CAT_ID": null, "CAT_DESC": null, "MSGID": "WTPN53 PGTW 020900", "VALIDTIME": "2025-07-26 12:00:00" }, "geometry": { "type": "Point", "coordinates": [ -142.100006, 11.1 ] } },
{ "type": "Feature", "properties": { "ID": 11069, "LAT": 11.0, "LON": -143.0, "VMAX": 25.0, "MSLP": 1011.80975, "RMAX": 45.0, "FSPD": 5.57966, "FDIR": 264.70978, "RENV": 500.0, "PENV": 1012.0, "VALIDT": 0, "DTG": "2025-07-26 18:00", "LATNOW": 16.9, "LONNOW": 179.7, "WINDNOW": 25.0, "DIRNOW": 8.0, "SPDNOW": 3.0, "TECH": "TRAK", "ADVNR": 25, "ATCFID": "CP012025", "NAME": "IONA", "FTECH": "JTWC", "FCST_DTG": "2025-08-02 00:00:00", "RUN_DTG": "2025-08-02 20:27:48", "BASIN": "CP", "STMNR": 1, "CAT_ID": null, "CAT_DESC": null, "MSGID": "WTPN53 PGTW 020900", "VALIDTIME": "2025-07-26 18:00:00" }, "geometry": { "type": "Point", "coordinates": [ -143.0, 11.0 ] } },
{ "type": "Feature", "properties": { "ID": 11070, "LAT": 10.9, "LON": -144.1, "VMAX": 25.0, "MSLP": 1011.80975, "RMAX": 45.0, "FSPD": 5.05163, "FDIR": 269.99997, "RENV": 500.0, "PENV": 1012.0, "VALIDT": 0, "DTG": "2025-07-27 00:00", "LATNOW": 16.9, "LONNOW": 179.7, "WINDNOW": 25.0, "DIRNOW": 8.0, "SPDNOW": 3.0, "TECH": "TRAK", "ADVNR": 25, "ATCFID": "CP012025", "NAME": "IONA", "FTECH": "JTWC", "FCST_DTG": "2025-08-02 00:00:00", "RUN_DTG": "2025-08-02 20:27:48", "BASIN": "CP", "STMNR": 1, "CAT_ID": null, "CAT_DESC": null, "MSGID": "WTPN53 PGTW 020900", "VALIDTIME": "2025-07-27 00:00:00" }, "geometry": { "type": "Point", "coordinates": [ -144.100006, 10.9 ] } },
{ "type": "Feature", "properties": { "ID": 11071, "LAT": 10.9, "LON": -145.1, "VMAX": 30.0, "MSLP": 1010.40607, "RMAX": 44.21983, "FSPD": 5.57958, "FDIR": 275.29025, "RENV": 500.0, "PENV": 1012.0, "VALIDT": 0, "DTG": "2025-07-27 06:00", "LATNOW": 16.9, "LONNOW": 179.7, "WINDNOW": 25.0, "DIRNOW": 8.0, "SPDNOW": 3.0, "TECH": "TRAK", "ADVNR": 25, "ATCFID": "CP012025", "NAME": "IONA", "FTECH": "JTWC", "FCST_DTG": "2025-08-02 00:00:00", "RUN_DTG": "2025-08-02 20:27:48", "BASIN": "CP", "STMNR": 1, "CAT_ID": null, "CAT_DESC": null, "MSGID": "WTPN53 PGTW 020900", "VALIDTIME": "2025-07-27 06:00:00" }, "geometry": { "type": "Point", "coordinates": [ -145.100006, 10.9 ] } },
{ "type": "Feature", "properties": { "ID": 11072, "LAT": 11.0, "LON": -146.2, "VMAX": 30.0, "MSLP": 1010.40607, "RMAX": 44.21983, "FSPD": 4.03996, "FDIR": 269.99997, "RENV": 500.0, "PENV": 1012.0, "VALIDT": 0, "DTG": "2025-07-27 12:00", "LATNOW": 16.9, "LONNOW": 179.7, "WINDNOW": 25.0, "DIRNOW": 8.0, "SPDNOW": 3.0, "TECH": "TRAK", "ADVNR": 25, "ATCFID": "CP012025", "NAME": "IONA", "FTECH": "JTWC", "FCST_DTG": "2025-08-02 00:00:00", "RUN_DTG": "2025-08-02 20:27:48", "BASIN": "CP", "STMNR": 1, "CAT_ID": null, "CAT_DESC": null, "MSGID": "WTPN53 PGTW 020900", "VALIDTIME": "2025-07-27 12:00:00" }, "geometry": { "type": "Point", "coordinates": [ -146.199997, 11.0 ] } },
{ "type": "Feature", "properties": { "ID": 11073, "LAT": 11.0, "LON": -147.0, "VMAX": 30.0, "MSLP": 1010.40607, "RMAX": 44.21983, "FSPD": 4.07326, "FDIR": 262.7442, "RENV": 500.0, "PENV": 1012.0, "VALIDT": 0, "DTG": "2025-07-27 18:00", "LATNOW": 16.9, "LONNOW": 179.7, "WINDNOW": 25.0, "DIRNOW": 8.0, "SPDNOW": 3.0, "TECH": "TRAK", "ADVNR": 25, "ATCFID": "CP012025", "NAME": "IONA", "FTECH": "JTWC", "FCST_DTG": "2025-08-02 00:00:00", "RUN_DTG": "2025-08-02 20:27:48", "BASIN": "CP", "STMNR": 1, "CAT_ID": null, "CAT_DESC": null, "MSGID": "WTPN53 PGTW 020900", "VALIDTIME": "2025-07-27 18:00:00" }, "geometry": { "type": "Point", "coordinates": [ -147.0, 11.0 ] } },
{ "type": "Feature", "properties": { "ID": 11074, "LAT": 10.9, "LON": -147.8, "VMAX": 35.0, "MSLP": 1008.74713, "RMAX": 42.69135, "FSPD": 5.05163, "FDIR": 269.99997, "RENV": 500.0, "PENV": 1012.0, "VALIDT": 0, "DTG": "2025-07-28 00:00", "LATNOW": 16.9, "LONNOW": 179.7, "WINDNOW": 25.0, "DIRNOW": 8.0, "SPDNOW": 3.0, "TECH": "TRAK", "ADVNR": 25, "ATCFID": "CP012025", "NAME": "IONA", "FTECH": "JTWC", "FCST_DTG": "2025-08-02 00:00:00", "RUN_DTG": "2025-08-02 20:27:48", "BASIN": "CP", "STMNR": 1, "CAT_ID": null, "CAT_DESC": null, "MSGID": "WTPN53 PGTW 020900", "VALIDTIME": "2025-07-28 00:00:00" }, "geometry": { "type": "Point", "coordinates": [ -147.800003, 10.9 ] } },
{ "type": "Feature", "properties": { "ID": 11075, "LAT": 10.9, "LON": -148.8, "VMAX": 45.0, "MSLP": 1004.66364, "RMAX": 39.89946, "FSPD": 4.66289, "FDIR": 257.2525, "RENV": 500.0, "PENV": 1012.0, "VALIDT": 0, "DTG": "2025-07-28 06:00", "LATNOW": 16.9, "LONNOW": 179.7, "WINDNOW": 25.0, "DIRNOW": 8.0, "SPDNOW": 3.0, "TECH": "TRAK", "ADVNR": 25, "ATCFID": "CP012025", "NAME": "IONA", "FTECH": "JTWC", "FCST_DTG": "2025-08-02 00:00:00", "RUN_DTG": "2025-08-02 20:27:48", "BASIN": "CP", "STMNR": 1, "CAT_ID": null, "CAT_DESC": null, "MSGID": "WTPN53 PGTW 020900", "VALIDTIME": "2025-07-28 06:00:00" }, "geometry": { "type": "Point", "coordinates": [ -148.800003, 10.9 ] } },
{ "type": "Feature", "properties": { "ID": 11076, "LAT": 10.7, "LON": -149.7, "VMAX": 60.0, "MSLP": 996.62427, "RMAX": 35.97599, "FSPD": 4.57928, "FDIR": 263.54968, "RENV": 500.0, "PENV": 1012.0, "VALIDT": 0, "DTG": "2025-07-28 12:00", "LATNOW": 16.9, "LONNOW": 179.7, "WINDNOW": 25.0, "DIRNOW": 8.0, "SPDNOW": 3.0, "TECH": "TRAK", "ADVNR": 25, "ATCFID": "CP012025", "NAME": "IONA", "FTECH": "JTWC", "FCST_DTG": "2025-08-02 00:00:00", "RUN_DTG": "2025-08-02 20:27:48", "BASIN": "CP", "STMNR": 1, "CAT_ID": null, "CAT_DESC": null, "MSGID": "WTPN53 PGTW 020900", "VALIDTIME": "2025-07-28 12:00:00" }, "geometry": { "type": "Point", "coordinates": [ -149.699997, 10.7 ] } },
{ "type": "Feature", "properties": { "ID": 11077, "LAT": 10.6, "LON": -150.6, "VMAX": 65.0, "MSLP": 993.434, "RMAX": 34.7014, "FSPD": 5.28454, "FDIR": 286.98047, "RENV": 500.0, "PENV": 1012.0, "VALIDT": 0, "DTG": "2025-07-28 18:00", "LATNOW": 16.9, "LONNOW": 179.7, "WINDNOW": 25.0, "DIRNOW": 8.0, "SPDNOW": 3.0, "TECH": "TRAK", "ADVNR": 25, "ATCFID": "CP012025", "NAME": "IONA", "FTECH": "JTWC", "FCST_DTG": "2025-08-02 00:00:00", "RUN_DTG": "2025-08-02 20:27:48", "BASIN": "CP", "STMNR": 1, "CAT_ID": null, "CAT_DESC": null, "MSGID": "WTPN53 PGTW 020900", "VALIDTIME": "2025-07-28 18:00:00" }, "geometry": { "type": "Point", "coordinates": [ -150.600006, 10.6 ] } },
{ "type": "Feature", "properties": { "ID": 11078, "LAT": 10.9, "LON": -151.6, "VMAX": 70.0, "MSLP": 989.9886, "RMAX": 33.43688, "FSPD": 5.0786, "FDIR": 264.18616, "RENV": 500.0, "PENV": 1012.0, "VALIDT": 0, "DTG": "2025-07-29 00:00", "LATNOW": 16.9, "LONNOW": 179.7, "WINDNOW": 25.0, "DIRNOW": 8.0, "SPDNOW": 3.0, "TECH": "TRAK", "ADVNR": 25, "ATCFID": "CP012025", "NAME": "IONA", "FTECH": "JTWC", "FCST_DTG": "2025-08-02 00:00:00", "RUN_DTG": "2025-08-02 20:27:48", "BASIN": "CP", "STMNR": 1, "CAT_ID": null, "CAT_DESC": null, "MSGID": "WTPN53 PGTW 020900", "VALIDTIME": "2025-07-29 00:00:00" }, "geometry": { "type": "Point", "coordinates": [ -151.600006, 10.9 ] } },
{ "type": "Feature", "properties": { "ID": 11079, "LAT": 10.8, "LON": -152.6, "VMAX": 95.0, "MSLP": 968.93304, "RMAX": 27.20601, "FSPD": 5.55861, "FDIR": 269.99997, "RENV": 408.09015, "PENV": 1012.0, "VALIDT": 0, "DTG": "2025-07-29 06:00", "LATNOW": 16.9, "LONNOW": 179.7, "WINDNOW": 25.0, "DIRNOW": 8.0, "SPDNOW": 3.0, "TECH": "TRAK", "ADVNR": 25, "ATCFID": "CP012025", "NAME": "IONA", "FTECH": "JTWC", "FCST_DTG": "2025-08-02 00:00:00", "RUN_DTG": "2025-08-02 20:27:48", "BASIN": "CP", "STMNR": 1, "CAT_ID": null, "CAT_DESC": null, "MSGID": "WTPN53 PGTW 020900", "VALIDTIME": "2025-07-29 06:00:00" }, "geometry": { "type": "Point", "coordinates": [ -152.600006, 10.8 ] } },
{ "type": "Feature", "properties": { "ID": 11080, "LAT": 10.8, "LON": -153.7, "VMAX": 110.0, "MSLP": 953.23706, "RMAX": 23.50948, "FSPD": 6.58835, "FDIR": 274.4784, "RENV": 352.6422, "PENV": 1012.0, "VALIDT": 0, "DTG": "2025-07-29 12:00", "LATNOW": 16.9, "LONNOW": 179.7, "WINDNOW": 25.0, "DIRNOW": 8.0, "SPDNOW": 3.0, "TECH": "TRAK", "ADVNR": 25, "ATCFID": "CP012025", "NAME": "IONA", "FTECH": "JTWC", "FCST_DTG": "2025-08-02 00:00:00", "RUN_DTG": "2025-08-02 20:27:48", "BASIN": "CP", "STMNR": 1, "CAT_ID": null, "CAT_DESC": null, "MSGID": "WTPN53 PGTW 020900", "VALIDTIME": "2025-07-29 12:00:00" }, "geometry": { "type": "Point", "coordinates": [ -153.699997, 10.8 ] } },
{ "type": "Feature", "properties": { "ID": 11081, "LAT": 10.9, "LON": -155.0, "VMAX": 110.0, "MSLP": 953.23706, "RMAX": 23.50948, "FSPD": 7.59362, "FDIR": 273.88458, "RENV": 352.6422, "PENV": 1012.0, "VALIDT": 0, "DTG": "2025-07-29 18:00", "LATNOW": 16.9, "LONNOW": 179.7, "WINDNOW": 25.0, "DIRNOW": 8.0, "SPDNOW": 3.0, "TECH": "TRAK", "ADVNR": 25, "ATCFID": "CP012025", "NAME": "IONA", "FTECH": "JTWC", "FCST_DTG": "2025-08-02 00:00:00", "RUN_DTG": "2025-08-02 20:27:48", "BASIN": "CP", "STMNR": 1, "CAT_ID": null, "CAT_DESC": null, "MSGID": "WTPN53 PGTW 020900", "VALIDTIME": "2025-07-29 18:00:00" }, "geometry": { "type": "Point", "coordinates": [ -155.0, 10.9 ] } },
{ "type": "Feature", "properties": { "ID": 11082, "LAT": 11.0, "LON": -156.5, "VMAX": 105.0, "MSLP": 958.7243, "RMAX": 24.73938, "FSPD": 6.64285, "FDIR": 278.91022, "RENV": 371.0907, "PENV": 1012.0, "VALIDT": 0, "DTG": "2025-07-30 00:00", "LATNOW": 16.9, "LONNOW": 179.7, "WINDNOW": 25.0, "DIRNOW": 8.0, "SPDNOW": 3.0, "TECH": "TRAK", "ADVNR": 25, "ATCFID": "CP012025", "NAME": "IONA", "FTECH": "JTWC", "FCST_DTG": "2025-08-02 00:00:00", "RUN_DTG": "2025-08-02 20:27:48", "BASIN": "CP", "STMNR": 1, "CAT_ID": null, "CAT_DESC": null, "MSGID": "WTPN53 PGTW 020900", "VALIDTIME": "2025-07-30 00:00:00" }, "geometry": { "type": "Point", "coordinates": [ -156.5, 11.0 ] } },
{ "type": "Feature", "properties": { "ID": 11083, "LAT": 11.2, "LON": -157.8, "VMAX": 90.0, "MSLP": 973.65454, "RMAX": 28.44353, "FSPD": 7.6367, "FDIR": 277.74295, "RENV": 426.65298, "PENV": 1012.0, "VALIDT": 0, "DTG": "2025-07-30 06:00", "LATNOW": 16.9, "LONNOW": 179.7, "WINDNOW": 25.0, "DIRNOW": 8.0, "SPDNOW": 3.0, "TECH": "TRAK", "ADVNR": 25, "ATCFID": "CP012025", "NAME": "IONA", "FTECH": "JTWC", "FCST_DTG": "2025-08-02 00:00:00", "RUN_DTG": "2025-08-02 20:27:48", "BASIN": "CP", "STMNR": 1, "CAT_ID": null, "CAT_DESC": null, "MSGID": "WTPN53 PGTW 020900", "VALIDTIME": "2025-07-30 06:00:00" }, "geometry": { "type": "Point", "coordinates": [ -157.800003, 11.2 ] } },
{ "type": "Feature", "properties": { "ID": 11084, "LAT": 11.4, "LON": -159.3, "VMAX": 70.0, "MSLP": 989.9886, "RMAX": 33.43688, "FSPD": 12.14244, "FDIR": 274.86078, "RENV": 500.0, "PENV": 1012.0, "VALIDT": 0, "DTG": "2025-07-30 12:00", "LATNOW": 16.9, "LONNOW": 179.7, "WINDNOW": 25.0, "DIRNOW": 8.0, "SPDNOW": 3.0, "TECH": "TRAK", "ADVNR": 25, "ATCFID": "CP012025", "NAME": "IONA", "FTECH": "JTWC", "FCST_DTG": "2025-08-02 00:00:00", "RUN_DTG": "2025-08-02 20:27:48", "BASIN": "CP", "STMNR": 1, "CAT_ID": null, "CAT_DESC": null, "MSGID": "WTPN53 PGTW 020900", "VALIDTIME": "2025-07-30 12:00:00" }, "geometry": { "type": "Point", "coordinates": [ -159.300003, 11.4 ] } },
{ "type": "Feature", "properties": { "ID": 11085, "LAT": 11.6, "LON": -161.7, "VMAX": 60.0, "MSLP": 996.62427, "RMAX": 35.97599, "FSPD": 10.59331, "FDIR": 272.7835, "RENV": 500.0, "PENV": 1012.0, "VALIDT": 0, "DTG": "2025-07-30 18:00", "LATNOW": 16.9, "LONNOW": 179.7, "WINDNOW": 25.0, "DIRNOW": 8.0, "SPDNOW": 3.0, "TECH": "TRAK", "ADVNR": 25, "ATCFID": "CP012025", "NAME": "IONA", "FTECH": "JTWC", "FCST_DTG": "2025-08-02 00:00:00", "RUN_DTG": "2025-08-02 20:27:48", "BASIN": "CP", "STMNR": 1, "CAT_ID": null, "CAT_DESC": null, "MSGID": "WTPN53 PGTW 020900", "VALIDTIME": "2025-07-30 18:00:00" }, "geometry": { "type": "Point", "coordinates": [ -161.699997, 11.6 ] } },
{ "type": "Feature", "properties": { "ID": 11086, "LAT": 11.7, "LON": -163.8, "VMAX": 45.0, "MSLP": 1004.66364, "RMAX": 39.89946, "FSPD": 10.76954, "FDIR": 281.01544, "RENV": 500.0, "PENV": 1012.0, "VALIDT": 0, "DTG": "2025-07-31 00:00", "LATNOW": 16.9, "LONNOW": 179.7, "WINDNOW": 25.0, "DIRNOW": 8.0, "SPDNOW": 3.0, "TECH": "TRAK", "ADVNR": 25, "ATCFID": "CP012025", "NAME": "IONA", "FTECH": "JTWC", "FCST_DTG": "2025-08-02 00:00:00", "RUN_DTG": "2025-08-02 20:27:48", "BASIN": "CP", "STMNR": 1, "CAT_ID": null, "CAT_DESC": null, "MSGID": "WTPN53 PGTW 020900", "VALIDTIME": "2025-07-31 00:00:00" }, "geometry": { "type": "Point", "coordinates": [ -163.800003, 11.7 ] } },
{ "type": "Feature", "properties": { "ID": 11087, "LAT": 12.1, "LON": -165.9, "VMAX": 45.0, "MSLP": 1004.66364, "RMAX": 39.89946, "FSPD": 9.7693, "FDIR": 282.15967, "RENV": 500.0, "PENV": 1012.0, "VALIDT": 0, "DTG": "2025-07-31 06:00", "LATNOW": 16.9, "LONNOW": 179.7, "WINDNOW": 25.0, "DIRNOW": 8.0, "SPDNOW": 3.0, "TECH": "TRAK", "ADVNR": 25, "ATCFID": "CP012025", "NAME": "IONA", "FTECH": "JTWC", "FCST_DTG": "2025-08-02 00:00:00", "RUN_DTG": "2025-08-02 20:27:48", "BASIN": "CP", "STMNR": 1, "CAT_ID": null, "CAT_DESC": null, "MSGID": "WTPN53 PGTW 020900", "VALIDTIME": "2025-07-31 06:00:00" }, "geometry": { "type": "Point", "coordinates": [ -165.899994, 12.1 ] } },
{ "type": "Feature", "properties": { "ID": 11088, "LAT": 12.5, "LON": -167.8, "VMAX": 45.0, "MSLP": 1004.66364, "RMAX": 39.89946, "FSPD": 10.3596, "FDIR": 284.37653, "RENV": 500.0, "PENV": 1012.0, "VALIDT": 0, "DTG": "2025-07-31 12:00", "LATNOW": 16.9, "LONNOW": 179.7, "WINDNOW": 25.0, "DIRNOW": 8.0, "SPDNOW": 3.0, "TECH": "TRAK", "ADVNR": 25, "ATCFID": "CP012025", "NAME": "IONA", "FTECH": "JTWC", "FCST_DTG": "2025-08-02 00:00:00", "RUN_DTG": "2025-08-02 20:27:48", "BASIN": "CP", "STMNR": 1, "CAT_ID": null, "CAT_DESC": null, "MSGID": "WTPN53 PGTW 020900", "VALIDTIME": "2025-07-31 12:00:00" }, "geometry": { "type": "Point", "coordinates": [ -167.800003, 12.5 ] } },
{ "type": "Feature", "properties": { "ID": 11089, "LAT": 13.0, "LON": -169.8, "VMAX": 45.0, "MSLP": 1004.66364, "RMAX": 39.89946, "FSPD": 9.85579, "FDIR": 285.12854, "RENV": 500.0, "PENV": 1012.0, "VALIDT": 0, "DTG": "2025-07-31 18:00", "LATNOW": 16.9, "LONNOW": 179.7, "WINDNOW": 25.0, "DIRNOW": 8.0, "SPDNOW": 3.0, "TECH": "TRAK", "ADVNR": 25, "ATCFID": "CP012025", "NAME": "IONA", "FTECH": "JTWC", "FCST_DTG": "2025-08-02 00:00:00", "RUN_DTG": "2025-08-02 20:27:48", "BASIN": "CP", "STMNR": 1, "CAT_ID": null, "CAT_DESC": null, "MSGID": "WTPN53 PGTW 020900", "VALIDTIME": "2025-07-31 18:00:00" }, "geometry": { "type": "Point", "coordinates": [ -169.800003, 13.0 ] } },
{ "type": "Feature", "properties": { "ID": 11090, "LAT": 13.5, "LON": -171.7, "VMAX": 45.0, "MSLP": 1004.66364, "RMAX": 39.89946, "FSPD": 9.83664, "FDIR": 285.1587, "RENV": 500.0, "PENV": 1012.0, "VALIDT": 0, "DTG": "2025-08-01 00:00", "LATNOW": 16.9, "LONNOW": 179.7, "WINDNOW": 25.0, "DIRNOW": 8.0, "SPDNOW": 3.0, "TECH": "TRAK", "ADVNR": 25, "ATCFID": "CP012025", "NAME": "IONA", "FTECH": "JTWC", "FCST_DTG": "2025-08-02 00:00:00", "RUN_DTG": "2025-08-02 20:27:48", "BASIN": "CP", "STMNR": 1, "CAT_ID": null, "CAT_DESC": null, "MSGID": "WTPN53 PGTW 020900", "VALIDTIME": "2025-08-01 00:00:00" }, "geometry": { "type": "Point", "coordinates": [ -171.699997, 13.5 ] } },
{ "type": "Feature", "properties": { "ID": 11091, "LAT": 14.0, "LON": -173.6, "VMAX": 40.0, "MSLP": 1006.833, "RMAX": 41.26637, "FSPD": 9.69662, "FDIR": 282.2522, "RENV": 500.0, "PENV": 1012.0, "VALIDT": 0, "DTG": "2025-08-01 06:00", "LATNOW": 16.9, "LONNOW": 179.7, "WINDNOW": 25.0, "DIRNOW": 8.0, "SPDNOW": 3.0, "TECH": "TRAK", "ADVNR": 25, "ATCFID": "CP012025", "NAME": "IONA", "FTECH": "JTWC", "FCST_DTG": "2025-08-02 00:00:00", "RUN_DTG": "2025-08-02 20:27:48", "BASIN": "CP", "STMNR": 1, "CAT_ID": null, "CAT_DESC": null, "MSGID": "WTPN53 PGTW 020900", "VALIDTIME": "2025-08-01 06:00:00" }, "geometry": { "type": "Point", "coordinates": [ -173.600006, 14.0 ] } },
{ "type": "Feature", "properties": { "ID": 11092, "LAT": 14.4, "LON": -175.5, "VMAX": 35.0, "MSLP": 1008.74713, "RMAX": 42.69135, "FSPD": 6.17142, "FDIR": 284.4821, "RENV": 500.0, "PENV": 1012.0, "VALIDT": 0, "DTG": "2025-08-01 12:00", "LATNOW": 16.9, "LONNOW": 179.7, "WINDNOW": 25.0, "DIRNOW": 8.0, "SPDNOW": 3.0, "TECH": "TRAK", "ADVNR": 25, "ATCFID": "CP012025", "NAME": "IONA", "FTECH": "JTWC", "FCST_DTG": "2025-08-02 00:00:00", "RUN_DTG": "2025-08-02 20:27:48", "BASIN": "CP", "STMNR": 1, "CAT_ID": null, "CAT_DESC": null, "MSGID": "WTPN53 PGTW 020900", "VALIDTIME": "2025-08-01 12:00:00" }, "geometry": { "type": "Point", "coordinates": [ -175.5, 14.4 ] } },
{ "type": "Feature", "properties": { "ID": 11093, "LAT": 14.7, "LON": -176.7, "VMAX": 35.0, "MSLP": 1008.74713, "RMAX": 42.69135, "FSPD": 11.21294, "FDIR": 291.53296, "RENV": 500.0, "PENV": 1012.0, "VALIDT": 0, "DTG": "2025-08-01 18:00", "LATNOW": 16.9, "LONNOW": 179.7, "WINDNOW": 25.0, "DIRNOW": 8.0, "SPDNOW": 3.0, "TECH": "TRAK", "ADVNR": 25, "ATCFID": "CP012025", "NAME": "IONA", "FTECH": "JTWC", "FCST_DTG": "2025-08-02 00:00:00", "RUN_DTG": "2025-08-02 20:27:48", "BASIN": "CP", "STMNR": 1, "CAT_ID": null, "CAT_DESC": null, "MSGID": "WTPN53 PGTW 020900", "VALIDTIME": "2025-08-01 18:00:00" }, "geometry": { "type": "Point", "coordinates": [ -176.699997, 14.7 ] } },
{ "type": "Feature", "properties": { "ID": 11094, "LAT": 15.5, "LON": -178.8, "VMAX": 30.0, "MSLP": 1010.40607, "RMAX": 44.21983, "FSPD": 10.33364, "FDIR": 314.18427, "RENV": 500.0, "PENV": 1012.0, "VALIDT": 0, "DTG": "2025-08-02 00:00", "LATNOW": 16.9, "LONNOW": 179.7, "WINDNOW": 25.0, "DIRNOW": 8.0, "SPDNOW": 3.0, "TECH": "TRAK", "ADVNR": 25, "ATCFID": "CP012025", "NAME": "IONA", "FTECH": "JTWC", "FCST_DTG": "2025-08-02 00:00:00", "RUN_DTG": "2025-08-02 20:27:48", "BASIN": "CP", "STMNR": 1, "CAT_ID": null, "CAT_DESC": null, "MSGID": "WTPN53 PGTW 020900", "VALIDTIME": "2025-08-02 00:00:00" }, "geometry": { "type": "Point", "coordinates": [ -178.800003, 15.5 ] } },
{ "type": "Feature", "properties": { "ID": 11095, "LAT": 16.9, "LON": 179.7, "VMAX": 25.0, "MSLP": 1008.0, "RMAX": 50.0, "FSPD": 8.30418, "FDIR": 297.68597, "RENV": 115.0, "PENV": 1011.0, "VALIDT": 0, "DTG": "2025-08-02 06:00", "LATNOW": 16.9, "LONNOW": 179.7, "WINDNOW": 25.0, "DIRNOW": 8.0, "SPDNOW": 3.0, "TECH": "TRAK", "ADVNR": 25, "ATCFID": "CP012025", "NAME": "IONA", "FTECH": "JTWC", "FCST_DTG": "2025-08-02 00:00:00", "RUN_DTG": "2025-08-02 20:27:48", "BASIN": "CP", "STMNR": 1, "CAT_ID": null, "CAT_DESC": null, "MSGID": "WTPN53 PGTW 020900", "VALIDTIME": "2025-08-02 06:00:00" }, "geometry": { "type": "Point", "coordinates": [ 179.699997, 16.9 ] } },
{ "type": "Feature", "properties": { "ID": 11096, "LAT": 18.4, "LON": 176.7, "VMAX": 20.0, "MSLP": 1012.95825, "RMAX": 53.44019, "FSPD": 8.30418, "FDIR": 297.68597, "RENV": 250.0, "PENV": 1012.0, "VALIDT": 12, "DTG": "2025-08-02 18:00", "LATNOW": 16.9, "LONNOW": 179.7, "WINDNOW": 25.0, "DIRNOW": 8.0, "SPDNOW": 3.0, "TECH": "FCST", "ADVNR": 25, "ATCFID": "CP012025", "NAME": "IONA", "FTECH": "JTWC", "FCST_DTG": "2025-08-02 00:00:00", "RUN_DTG": "2025-08-02 20:27:48", "BASIN": "CP", "STMNR": 1, "CAT_ID": null, "CAT_DESC": null, "MSGID": "WTPN53 PGTW 020900", "VALIDTIME": "2025-08-02 18:00:00" }, "geometry": { "type": "Point", "coordinates": [ 176.699997, 18.4 ] } },
{ "type": "Feature", "properties": { "ID": 11095, "LAT": 16.9, "LON": 179.7, "VMAX": 25.0, "MSLP": 1008.0, "RMAX": 50.0, "FSPD": 8.30418, "FDIR": 297.68597, "RENV": 115.0, "PENV": 1011.0, "VALIDT": 0, "DTG": "2025-08-02 06:00", "LATNOW": 16.9, "LONNOW": 179.7, "WINDNOW": 25.0, "DIRNOW": 8.0, "SPDNOW": 3.0, "TECH": "TRAK", "ADVNR": 25, "ATCFID": "CP012025", "NAME": "IONA", "FTECH": "JTWC", "FCST_DTG": "2025-08-02 00:00:00", "RUN_DTG": "2025-08-02 20:27:48", "BASIN": "CP", "STMNR": 1, "CAT_ID": null, "CAT_DESC": null, "MSGID": "WTPN53 PGTW 020900", "VALIDTIME": "2025-08-02 06:00:00" }, "geometry": { "type": "LineString", "coordinates": [ [ -133.4, 10.6 ], [ -134.8, 10.7 ], [ -136.0, 10.6 ], [ -137.2, 10.6 ], [ -138.3, 10.6 ], [ -139.7, 10.7 ], [ -140.9, 10.6 ], [ -141.6, 10.9 ], [ -142.1, 11.1 ], [ -143.0, 11.0 ], [ -144.1, 10.9 ], [ -145.1, 10.9 ], [ -146.2, 11.0 ], [ -147.0, 11.0 ], [ -147.8, 10.9 ], [ -148.8, 10.9 ], [ -149.7, 10.7 ], [ -150.6, 10.6 ], [ -151.6, 10.9 ], [ -152.6, 10.8 ], [ -153.7, 10.8 ], [ -155.0, 10.9 ], [ -156.5, 11.0 ], [ -157.8, 11.2 ], [ -159.3, 11.4 ], [ -161.7, 11.6 ], [ -163.8, 11.7 ], [ -165.9, 12.1 ], [ -167.8, 12.5 ], [ -169.8, 13.0 ], [ -171.7, 13.5 ], [ -173.6, 14.0 ], [ -175.5, 14.4 ], [ -176.7, 14.7 ], [ -178.8, 15.5 ], [ 179.7, 16.9 ] ] } },
{ "type": "Feature", "properties": { "ID": 11096, "LAT": 18.4, "LON": 176.7, "VMAX": 20.0, "MSLP": 1012.95825, "RMAX": 53.44019, "FSPD": 8.30418, "FDIR": 297.68597, "RENV": 250.0, "PENV": 1012.0, "VALIDT": 12, "DTG": "2025-08-02 18:00", "LATNOW": 16.9, "LONNOW": 179.7, "WINDNOW": 25.0, "DIRNOW": 8.0, "SPDNOW": 3.0, "TECH": "FCST", "ADVNR": 25, "ATCFID": "CP012025", "NAME": "IONA", "FTECH": "JTWC", "FCST_DTG": "2025-08-02 00:00:00", "RUN_DTG": "2025-08-02 20:27:48", "BASIN": "CP", "STMNR": 1, "CAT_ID": null, "CAT_DESC": null, "MSGID": "WTPN53 PGTW 020900", "VALIDTIME": "2025-08-02 18:00:00" }, "geometry": { "type": "LineString", "coordinates": [ [ 179.7, 16.9 ], [ 176.7, 18.4 ] ] } }
]
}
