{
"type": "FeatureCollection",
"crs": { "type": "name", "properties": { "name": "urn:ogc:def:crs:OGC:1.3:CRS84" } },
"features": [
{ "type": "Feature", "properties": { "ID": 315900, "LAT": -11.1, "LON": 168.0, "VMAX": 15.0, "MSLP": 1013.8515, "RMAX": 40.0, "FSPD": 2.88205, "FDIR": 135.56113, "RENV": 500.0, "PENV": 1012.0, "VALIDT": 0, "DTG": "2025-04-12 12:00", "LATNOW": -23.1, "LONNOW": 171.7, "WINDNOW": 50.0, "DIRNOW": 14.0, "SPDNOW": 5.0, "TECH": "TRAK", "ADVNR": 6, "ATCFID": "SH302025", "NAME": "TAM", "FTECH": "JTWC", "FCST_DTG": "2025-04-15 12:00:00", "RUN_DTG": "2025-04-16 08:06:55", "BASIN": "SH", "STMNR": 30, "CAT_ID": null, "CAT_DESC": null, "MSGID": "WTPS51 PGTW 151500", "VALIDTIME": "2025-04-12 12:00:00" }, "geometry": { "type": "Point", "coordinates": [ 168.0, -11.1 ] } },
{ "type": "Feature", "properties": { "ID": 315901, "LAT": -11.5, "LON": 168.4, "VMAX": 15.0, "MSLP": 1013.8515, "RMAX": 40.0, "FSPD": 2.88009, "FDIR": 135.60074, "RENV": 500.0, "PENV": 1012.0, "VALIDT": 0, "DTG": "2025-04-12 18:00", "LATNOW": -23.1, "LONNOW": 171.7, "WINDNOW": 50.0, "DIRNOW": 14.0, "SPDNOW": 5.0, "TECH": "TRAK", "ADVNR": 6, "ATCFID": "SH302025", "NAME": "TAM", "FTECH": "JTWC", "FCST_DTG": "2025-04-15 12:00:00", "RUN_DTG": "2025-04-16 08:06:55", "BASIN": "SH", "STMNR": 30, "CAT_ID": null, "CAT_DESC": null, "MSGID": "WTPS51 PGTW 151500", "VALIDTIME": "2025-04-12 18:00:00" }, "geometry": { "type": "Point", "coordinates": [ 168.399994, -11.5 ] } },
{ "type": "Feature", "properties": { "ID": 315902, "LAT": -11.9, "LON": 168.8, "VMAX": 15.0, "MSLP": 1013.8515, "RMAX": 40.0, "FSPD": 2.29053, "FDIR": 153.94669, "RENV": 500.0, "PENV": 1012.0, "VALIDT": 0, "DTG": "2025-04-13 00:00", "LATNOW": -23.1, "LONNOW": 171.7, "WINDNOW": 50.0, "DIRNOW": 14.0, "SPDNOW": 5.0, "TECH": "TRAK", "ADVNR": 6, "ATCFID": "SH302025", "NAME": "TAM", "FTECH": "JTWC", "FCST_DTG": "2025-04-15 12:00:00", "RUN_DTG": "2025-04-16 08:06:55", "BASIN": "SH", "STMNR": 30, "CAT_ID": null, "CAT_DESC": null, "MSGID": "WTPS51 PGTW 151500", "VALIDTIME": "2025-04-13 00:00:00" }, "geometry": { "type": "Point", "coordinates": [ 168.800003, -11.9 ] } },
{ "type": "Feature", "properties": { "ID": 315903, "LAT": -12.3, "LON": 169.0, "VMAX": 20.0, "MSLP": 1012.95825, "RMAX": 45.0, "FSPD": 3.12723, "FDIR": 189.23892, "RENV": 500.0, "PENV": 1012.0, "VALIDT": 0, "DTG": "2025-04-13 06:00", "LATNOW": -23.1, "LONNOW": 171.7, "WINDNOW": 50.0, "DIRNOW": 14.0, "SPDNOW": 5.0, "TECH": "TRAK", "ADVNR": 6, "ATCFID": "SH302025", "NAME": "TAM", "FTECH": "JTWC", "FCST_DTG": "2025-04-15 12:00:00", "RUN_DTG": "2025-04-16 08:06:55", "BASIN": "SH", "STMNR": 30, "CAT_ID": null, "CAT_DESC": null, "MSGID": "WTPS51 PGTW 151500", "VALIDTIME": "2025-04-13 06:00:00" }, "geometry": { "type": "Point", "coordinates": [ 169.0, -12.3 ] } },
{ "type": "Feature", "properties": { "ID": 315904, "LAT": -12.9, "LON": 168.9, "VMAX": 25.0, "MSLP": 1011.80975, "RMAX": 45.0, "FSPD": 5.0254, "FDIR": 224.22694, "RENV": 500.0, "PENV": 1012.0, "VALIDT": 0, "DTG": "2025-04-13 12:00", "LATNOW": -23.1, "LONNOW": 171.7, "WINDNOW": 50.0, "DIRNOW": 14.0, "SPDNOW": 5.0, "TECH": "TRAK", "ADVNR": 6, "ATCFID": "SH302025", "NAME": "TAM", "FTECH": "JTWC", "FCST_DTG": "2025-04-15 12:00:00", "RUN_DTG": "2025-04-16 08:06:55", "BASIN": "SH", "STMNR": 30, "CAT_ID": null, "CAT_DESC": null, "MSGID": "WTPS51 PGTW 151500", "VALIDTIME": "2025-04-13 12:00:00" }, "geometry": { "type": "Point", "coordinates": [ 168.899994, -12.9 ] } },
{ "type": "Feature", "properties": { "ID": 315905, "LAT": -13.6, "LON": 168.2, "VMAX": 35.0, "MSLP": 1008.74713, "RMAX": 42.69135, "FSPD": 4.38176, "FDIR": 214.7304, "RENV": 500.0, "PENV": 1012.0, "VALIDT": 0, "DTG": "2025-04-13 18:00", "LATNOW": -23.1, "LONNOW": 171.7, "WINDNOW": 50.0, "DIRNOW": 14.0, "SPDNOW": 5.0, "TECH": "TRAK", "ADVNR": 6, "ATCFID": "SH302025", "NAME": "TAM", "FTECH": "JTWC", "FCST_DTG": "2025-04-15 12:00:00", "RUN_DTG": "2025-04-16 08:06:55", "BASIN": "SH", "STMNR": 30, "CAT_ID": null, "CAT_DESC": null, "MSGID": "WTPS51 PGTW 151500", "VALIDTIME": "2025-04-13 18:00:00" }, "geometry": { "type": "Point", "coordinates": [ 168.199997, -13.6 ] } },
{ "type": "Feature", "properties": { "ID": 315906, "LAT": -14.3, "LON": 167.7, "VMAX": 35.0, "MSLP": 1008.74713, "RMAX": 42.69135, "FSPD": 5.39172, "FDIR": 139.75687, "RENV": 500.0, "PENV": 1012.0, "VALIDT": 0, "DTG": "2025-04-14 00:00", "LATNOW": -23.1, "LONNOW": 171.7, "WINDNOW": 50.0, "DIRNOW": 14.0, "SPDNOW": 5.0, "TECH": "TRAK", "ADVNR": 6, "ATCFID": "SH302025", "NAME": "TAM", "FTECH": "JTWC", "FCST_DTG": "2025-04-15 12:00:00", "RUN_DTG": "2025-04-16 08:06:55", "BASIN": "SH", "STMNR": 30, "CAT_ID": null, "CAT_DESC": null, "MSGID": "WTPS51 PGTW 151500", "VALIDTIME": "2025-04-14 00:00:00" }, "geometry": { "type": "Point", "coordinates": [ 167.699997, -14.3 ] } },
{ "type": "Feature", "properties": { "ID": 315907, "LAT": -15.1, "LON": 168.4, "VMAX": 35.0, "MSLP": 999.0, "RMAX": 100.0, "FSPD": 6.68777, "FDIR": 179.99997, "RENV": 240.0, "PENV": 1004.0, "VALIDT": 0, "DTG": "2025-04-14 06:00", "LATNOW": -23.1, "LONNOW": 171.7, "WINDNOW": 50.0, "DIRNOW": 14.0, "SPDNOW": 5.0, "TECH": "TRAK", "ADVNR": 6, "ATCFID": "SH302025", "NAME": "TAM", "FTECH": "JTWC", "FCST_DTG": "2025-04-15 12:00:00", "RUN_DTG": "2025-04-16 08:06:55", "BASIN": "SH", "STMNR": 30, "CAT_ID": null, "CAT_DESC": null, "MSGID": "WTPS51 PGTW 151500", "VALIDTIME": "2025-04-14 06:00:00" }, "geometry": { "type": "Point", "coordinates": [ 168.399994, -15.1 ] } },
{ "type": "Feature", "properties": { "ID": 315908, "LAT": -16.4, "LON": 168.4, "VMAX": 40.0, "MSLP": 999.0, "RMAX": 100.0, "FSPD": 8.74333, "FDIR": 160.29077, "RENV": 240.0, "PENV": 1004.0, "VALIDT": 0, "DTG": "2025-04-14 12:00", "LATNOW": -23.1, "LONNOW": 171.7, "WINDNOW": 50.0, "DIRNOW": 14.0, "SPDNOW": 5.0, "TECH": "TRAK", "ADVNR": 6, "ATCFID": "SH302025", "NAME": "TAM", "FTECH": "JTWC", "FCST_DTG": "2025-04-15 12:00:00", "RUN_DTG": "2025-04-16 08:06:55", "BASIN": "SH", "STMNR": 30, "CAT_ID": null, "CAT_DESC": null, "MSGID": "WTPS51 PGTW 151500", "VALIDTIME": "2025-04-14 12:00:00" }, "geometry": { "type": "Point", "coordinates": [ 168.399994, -16.4 ] } },
{ "type": "Feature", "properties": { "ID": 315909, "LAT": -18.0, "LON": 169.0, "VMAX": 40.0, "MSLP": 998.0, "RMAX": 90.0, "FSPD": 5.91893, "FDIR": 150.36008, "RENV": 290.0, "PENV": 1006.0, "VALIDT": 0, "DTG": "2025-04-14 18:00", "LATNOW": -23.1, "LONNOW": 171.7, "WINDNOW": 50.0, "DIRNOW": 14.0, "SPDNOW": 5.0, "TECH": "TRAK", "ADVNR": 6, "ATCFID": "SH302025", "NAME": "TAM", "FTECH": "JTWC", "FCST_DTG": "2025-04-15 12:00:00", "RUN_DTG": "2025-04-16 08:06:55", "BASIN": "SH", "STMNR": 30, "CAT_ID": null, "CAT_DESC": null, "MSGID": "WTPS51 PGTW 151500", "VALIDTIME": "2025-04-14 18:00:00" }, "geometry": { "type": "Point", "coordinates": [ 169.0, -18.0 ] } },
{ "type": "Feature", "properties": { "ID": 315910, "LAT": -19.0, "LON": 169.6, "VMAX": 45.0, "MSLP": 996.0, "RMAX": 100.0, "FSPD": 11.36512, "FDIR": 140.30972, "RENV": 290.0, "PENV": 1006.0, "VALIDT": 0, "DTG": "2025-04-15 00:00", "LATNOW": -23.1, "LONNOW": 171.7, "WINDNOW": 50.0, "DIRNOW": 14.0, "SPDNOW": 5.0, "TECH": "TRAK", "ADVNR": 6, "ATCFID": "SH302025", "NAME": "TAM", "FTECH": "JTWC", "FCST_DTG": "2025-04-15 12:00:00", "RUN_DTG": "2025-04-16 08:06:55", "BASIN": "SH", "STMNR": 30, "CAT_ID": null, "CAT_DESC": null, "MSGID": "WTPS51 PGTW 151500", "VALIDTIME": "2025-04-15 00:00:00" }, "geometry": { "type": "Point", "coordinates": [ 169.600006, -19.0 ] } },
{ "type": "Feature", "properties": { "ID": 315911, "LAT": -20.7, "LON": 171.1, "VMAX": 45.0, "MSLP": 994.0, "RMAX": 70.0, "FSPD": 12.67446, "FDIR": 166.9408, "RENV": 310.0, "PENV": 1004.0, "VALIDT": 0, "DTG": "2025-04-15 06:00", "LATNOW": -23.1, "LONNOW": 171.7, "WINDNOW": 50.0, "DIRNOW": 14.0, "SPDNOW": 5.0, "TECH": "TRAK", "ADVNR": 6, "ATCFID": "SH302025", "NAME": "TAM", "FTECH": "JTWC", "FCST_DTG": "2025-04-15 12:00:00", "RUN_DTG": "2025-04-16 08:06:55", "BASIN": "SH", "STMNR": 30, "CAT_ID": null, "CAT_DESC": null, "MSGID": "WTPS51 PGTW 151500", "VALIDTIME": "2025-04-15 06:00:00" }, "geometry": { "type": "Point", "coordinates": [ 171.100006, -20.700001 ] } },
{ "type": "Feature", "properties": { "ID": 315912, "LAT": -23.1, "LON": 171.7, "VMAX": 50.0, "MSLP": 1002.2391, "RMAX": 38.56918, "FSPD": 14.1548, "FDIR": 178.12564, "RENV": 500.0, "PENV": 1012.0, "VALIDT": 0, "DTG": "2025-04-15 12:00", "LATNOW": -23.1, "LONNOW": 171.7, "WINDNOW": 50.0, "DIRNOW": 14.0, "SPDNOW": 5.0, "TECH": "TRAK", "ADVNR": 6, "ATCFID": "SH302025", "NAME": "TAM", "FTECH": "JTWC", "FCST_DTG": "2025-04-15 12:00:00", "RUN_DTG": "2025-04-16 08:06:55", "BASIN": "SH", "STMNR": 30, "CAT_ID": null, "CAT_DESC": null, "MSGID": "WTPS51 PGTW 151500", "VALIDTIME": "2025-04-15 12:00:00" }, "geometry": { "type": "Point", "coordinates": [ 171.699997, -23.1 ] } },
{ "type": "Feature", "properties": { "ID": 315913, "LAT": -28.6, "LON": 171.9, "VMAX": 55.0, "MSLP": 999.55927, "RMAX": 37.26371, "FSPD": 14.1548, "FDIR": 178.12564, "RENV": 250.0, "PENV": 1012.0, "VALIDT": 12, "DTG": "2025-04-16 00:00", "LATNOW": -23.1, "LONNOW": 171.7, "WINDNOW": 50.0, "DIRNOW": 14.0, "SPDNOW": 5.0, "TECH": "FCST", "ADVNR": 6, "ATCFID": "SH302025", "NAME": "TAM", "FTECH": "JTWC", "FCST_DTG": "2025-04-15 12:00:00", "RUN_DTG": "2025-04-16 08:06:55", "BASIN": "SH", "STMNR": 30, "CAT_ID": null, "CAT_DESC": null, "MSGID": "WTPS51 PGTW 151500", "VALIDTIME": "2025-04-16 00:00:00" }, "geometry": { "type": "Point", "coordinates": [ 171.899994, -28.6 ] } },
{ "type": "Feature", "properties": { "ID": 315912, "LAT": -23.1, "LON": 171.7, "VMAX": 50.0, "MSLP": 1002.2391, "RMAX": 38.56918, "FSPD": 14.1548, "FDIR": 178.12564, "RENV": 500.0, "PENV": 1012.0, "VALIDT": 0, "DTG": "2025-04-15 12:00", "LATNOW": -23.1, "LONNOW": 171.7, "WINDNOW": 50.0, "DIRNOW": 14.0, "SPDNOW": 5.0, "TECH": "TRAK", "ADVNR": 6, "ATCFID": "SH302025", "NAME": "TAM", "FTECH": "JTWC", "FCST_DTG": "2025-04-15 12:00:00", "RUN_DTG": "2025-04-16 08:06:55", "BASIN": "SH", "STMNR": 30, "CAT_ID": null, "CAT_DESC": null, "MSGID": "WTPS51 PGTW 151500", "VALIDTIME": "2025-04-15 12:00:00" }, "geometry": { "type": "LineString", "coordinates": [ [ 168.0, -11.1 ], [ 168.4, -11.5 ], [ 168.8, -11.9 ], [ 169.0, -12.3 ], [ 168.9, -12.9 ], [ 168.2, -13.6 ], [ 167.7, -14.3 ], [ 168.4, -15.1 ], [ 168.4, -16.4 ], [ 169.0, -18.0 ], [ 169.6, -19.0 ], [ 171.1, -20.7 ], [ 171.7, -23.1 ] ] } },
{ "type": "Feature", "properties": { "ID": 315913, "LAT": -28.6, "LON": 171.9, "VMAX": 55.0, "MSLP": 999.55927, "RMAX": 37.26371, "FSPD": 14.1548, "FDIR": 178.12564, "RENV": 250.0, "PENV": 1012.0, "VALIDT": 12, "DTG": "2025-04-16 00:00", "LATNOW": -23.1, "LONNOW": 171.7, "WINDNOW": 50.0, "DIRNOW": 14.0, "SPDNOW": 5.0, "TECH": "FCST", "ADVNR": 6, "ATCFID": "SH302025", "NAME": "TAM", "FTECH": "JTWC", "FCST_DTG": "2025-04-15 12:00:00", "RUN_DTG": "2025-04-16 08:06:55", "BASIN": "SH", "STMNR": 30, "CAT_ID": null, "CAT_DESC": null, "MSGID": "WTPS51 PGTW 151500", "VALIDTIME": "2025-04-16 00:00:00" }, "geometry": { "type": "LineString", "coordinates": [ [ 171.7, -23.1 ], [ 171.9, -28.6 ] ] } }
]
}
