{
"type": "FeatureCollection",
"crs": { "type": "name", "properties": { "name": "urn:ogc:def:crs:OGC:1.3:CRS84" } },
"features": [
{ "type": "Feature", "properties": { "ID": 249866, "LAT": 9.2, "LON": 132.8, "VMAX": 15.0, "MSLP": 1013.8515, "RMAX": 40.0, "FSPD": 5.51189, "FDIR": 304.0559, "RENV": 500.0, "PENV": 1012.0, "VALIDT": 0, "DTG": "2024-08-30 18:00", "LATNOW": 21.0, "LONNOW": 106.9, "WINDNOW": 110.0, "DIRNOW": 4.0, "SPDNOW": 3.0, "TECH": "TRAK", "ADVNR": 24, "ATCFID": "WP122024", "NAME": "YAGI", "FTECH": "JTWC", "FCST_DTG": "2024-09-07 06:00:00", "RUN_DTG": "2024-09-07 08:47:03", "BASIN": "WP", "STMNR": 12, "CAT_ID": null, "CAT_DESC": null, "MSGID": "WTPN51 PGTW 070900", "VALIDTIME": "2024-08-30 18:00:00" }, "geometry": { "type": "Point", "coordinates": [ 132.800003, 9.2 ] } },
{ "type": "Feature", "properties": { "ID": 249867, "LAT": 9.8, "LON": 131.9, "VMAX": 15.0, "MSLP": 1013.8515, "RMAX": 40.0, "FSPD": 6.15125, "FDIR": 318.82413, "RENV": 500.0, "PENV": 1012.0, "VALIDT": 0, "DTG": "2024-08-31 00:00", "LATNOW": 21.0, "LONNOW": 106.9, "WINDNOW": 110.0, "DIRNOW": 4.0, "SPDNOW": 3.0, "TECH": "TRAK", "ADVNR": 24, "ATCFID": "WP122024", "NAME": "YAGI", "FTECH": "JTWC", "FCST_DTG": "2024-09-07 06:00:00", "RUN_DTG": "2024-09-07 08:47:03", "BASIN": "WP", "STMNR": 12, "CAT_ID": null, "CAT_DESC": null, "MSGID": "WTPN51 PGTW 070900", "VALIDTIME": "2024-08-31 00:00:00" }, "geometry": { "type": "Point", "coordinates": [ 131.899994, 9.8 ] } },
{ "type": "Feature", "properties": { "ID": 249868, "LAT": 10.7, "LON": 131.1, "VMAX": 20.0, "MSLP": 1012.95825, "RMAX": 45.0, "FSPD": 9.12297, "FDIR": 289.77576, "RENV": 500.0, "PENV": 1012.0, "VALIDT": 0, "DTG": "2024-08-31 06:00", "LATNOW": 21.0, "LONNOW": 106.9, "WINDNOW": 110.0, "DIRNOW": 4.0, "SPDNOW": 3.0, "TECH": "TRAK", "ADVNR": 24, "ATCFID": "WP122024", "NAME": "YAGI", "FTECH": "JTWC", "FCST_DTG": "2024-09-07 06:00:00", "RUN_DTG": "2024-09-07 08:47:03", "BASIN": "WP", "STMNR": 12, "CAT_ID": null, "CAT_DESC": null, "MSGID": "WTPN51 PGTW 070900", "VALIDTIME": "2024-08-31 06:00:00" }, "geometry": { "type": "Point", "coordinates": [ 131.100006, 10.7 ] } },
{ "type": "Feature", "properties": { "ID": 249869, "LAT": 11.3, "LON": 129.4, "VMAX": 20.0, "MSLP": 1012.95825, "RMAX": 45.0, "FSPD": 8.63452, "FDIR": 276.8436, "RENV": 500.0, "PENV": 1012.0, "VALIDT": 0, "DTG": "2024-08-31 12:00", "LATNOW": 21.0, "LONNOW": 106.9, "WINDNOW": 110.0, "DIRNOW": 4.0, "SPDNOW": 3.0, "TECH": "TRAK", "ADVNR": 24, "ATCFID": "WP122024", "NAME": "YAGI", "FTECH": "JTWC", "FCST_DTG": "2024-09-07 06:00:00", "RUN_DTG": "2024-09-07 08:47:03", "BASIN": "WP", "STMNR": 12, "CAT_ID": null, "CAT_DESC": null, "MSGID": "WTPN51 PGTW 070900", "VALIDTIME": "2024-08-31 12:00:00" }, "geometry": { "type": "Point", "coordinates": [ 129.399994, 11.3 ] } },
{ "type": "Feature", "properties": { "ID": 249870, "LAT": 11.5, "LON": 127.7, "VMAX": 20.0, "MSLP": 1012.95825, "RMAX": 45.0, "FSPD": 7.03474, "FDIR": 291.4473, "RENV": 500.0, "PENV": 1012.0, "VALIDT": 0, "DTG": "2024-08-31 18:00", "LATNOW": 21.0, "LONNOW": 106.9, "WINDNOW": 110.0, "DIRNOW": 4.0, "SPDNOW": 3.0, "TECH": "TRAK", "ADVNR": 24, "ATCFID": "WP122024", "NAME": "YAGI", "FTECH": "JTWC", "FCST_DTG": "2024-09-07 06:00:00", "RUN_DTG": "2024-09-07 08:47:03", "BASIN": "WP", "STMNR": 12, "CAT_ID": null, "CAT_DESC": null, "MSGID": "WTPN51 PGTW 070900", "VALIDTIME": "2024-08-31 18:00:00" }, "geometry": { "type": "Point", "coordinates": [ 127.699997, 11.5 ] } },
{ "type": "Feature", "properties": { "ID": 249871, "LAT": 12.0, "LON": 126.4, "VMAX": 20.0, "MSLP": 1012.95825, "RMAX": 45.0, "FSPD": 5.78138, "FDIR": 308.52682, "RENV": 500.0, "PENV": 1012.0, "VALIDT": 0, "DTG": "2024-09-01 00:00", "LATNOW": 21.0, "LONNOW": 106.9, "WINDNOW": 110.0, "DIRNOW": 4.0, "SPDNOW": 3.0, "TECH": "TRAK", "ADVNR": 24, "ATCFID": "WP122024", "NAME": "YAGI", "FTECH": "JTWC", "FCST_DTG": "2024-09-07 06:00:00", "RUN_DTG": "2024-09-07 08:47:03", "BASIN": "WP", "STMNR": 12, "CAT_ID": null, "CAT_DESC": null, "MSGID": "WTPN51 PGTW 070900", "VALIDTIME": "2024-09-01 00:00:00" }, "geometry": { "type": "Point", "coordinates": [ 126.400002, 12.0 ] } },
{ "type": "Feature", "properties": { "ID": 249872, "LAT": 12.7, "LON": 125.5, "VMAX": 25.0, "MSLP": 1011.80975, "RMAX": 45.0, "FSPD": 5.74505, "FDIR": 315.7552, "RENV": 500.0, "PENV": 1012.0, "VALIDT": 0, "DTG": "2024-09-01 06:00", "LATNOW": 21.0, "LONNOW": 106.9, "WINDNOW": 110.0, "DIRNOW": 4.0, "SPDNOW": 3.0, "TECH": "TRAK", "ADVNR": 24, "ATCFID": "WP122024", "NAME": "YAGI", "FTECH": "JTWC", "FCST_DTG": "2024-09-07 06:00:00", "RUN_DTG": "2024-09-07 08:47:03", "BASIN": "WP", "STMNR": 12, "CAT_ID": null, "CAT_DESC": null, "MSGID": "WTPN51 PGTW 070900", "VALIDTIME": "2024-09-01 06:00:00" }, "geometry": { "type": "Point", "coordinates": [ 125.5, 12.7 ] } },
{ "type": "Feature", "properties": { "ID": 249873, "LAT": 13.5, "LON": 124.7, "VMAX": 30.0, "MSLP": 999.0, "RMAX": 40.0, "FSPD": 9.38406, "FDIR": 307.0874, "RENV": 210.0, "PENV": 1007.0, "VALIDT": 0, "DTG": "2024-09-01 12:00", "LATNOW": 21.0, "LONNOW": 106.9, "WINDNOW": 110.0, "DIRNOW": 4.0, "SPDNOW": 3.0, "TECH": "TRAK", "ADVNR": 24, "ATCFID": "WP122024", "NAME": "YAGI", "FTECH": "JTWC", "FCST_DTG": "2024-09-07 06:00:00", "RUN_DTG": "2024-09-07 08:47:03", "BASIN": "WP", "STMNR": 12, "CAT_ID": null, "CAT_DESC": null, "MSGID": "WTPN51 PGTW 070900", "VALIDTIME": "2024-09-01 12:00:00" }, "geometry": { "type": "Point", "coordinates": [ 124.699997, 13.5 ] } },
{ "type": "Feature", "properties": { "ID": 249874, "LAT": 14.6, "LON": 123.2, "VMAX": 35.0, "MSLP": 999.0, "RMAX": 40.0, "FSPD": 4.29244, "FDIR": 315.97968, "RENV": 210.0, "PENV": 1007.0, "VALIDT": 0, "DTG": "2024-09-01 18:00", "LATNOW": 21.0, "LONNOW": 106.9, "WINDNOW": 110.0, "DIRNOW": 4.0, "SPDNOW": 3.0, "TECH": "TRAK", "ADVNR": 24, "ATCFID": "WP122024", "NAME": "YAGI", "FTECH": "JTWC", "FCST_DTG": "2024-09-07 06:00:00", "RUN_DTG": "2024-09-07 08:47:03", "BASIN": "WP", "STMNR": 12, "CAT_ID": null, "CAT_DESC": null, "MSGID": "WTPN51 PGTW 070900", "VALIDTIME": "2024-09-01 18:00:00" }, "geometry": { "type": "Point", "coordinates": [ 123.199997, 14.6 ] } },
{ "type": "Feature", "properties": { "ID": 249875, "LAT": 15.2, "LON": 122.6, "VMAX": 40.0, "MSLP": 996.0, "RMAX": 25.0, "FSPD": 6.34943, "FDIR": 346.47443, "RENV": 150.0, "PENV": 1005.0, "VALIDT": 0, "DTG": "2024-09-02 00:00", "LATNOW": 21.0, "LONNOW": 106.9, "WINDNOW": 110.0, "DIRNOW": 4.0, "SPDNOW": 3.0, "TECH": "TRAK", "ADVNR": 24, "ATCFID": "WP122024", "NAME": "YAGI", "FTECH": "JTWC", "FCST_DTG": "2024-09-07 06:00:00", "RUN_DTG": "2024-09-07 08:47:03", "BASIN": "WP", "STMNR": 12, "CAT_ID": null, "CAT_DESC": null, "MSGID": "WTPN51 PGTW 070900", "VALIDTIME": "2024-09-02 00:00:00" }, "geometry": { "type": "Point", "coordinates": [ 122.599998, 15.2 ] } },
{ "type": "Feature", "properties": { "ID": 249876, "LAT": 16.4, "LON": 122.3, "VMAX": 45.0, "MSLP": 995.0, "RMAX": 25.0, "FSPD": 4.37353, "FDIR": 340.2224, "RENV": 120.0, "PENV": 1006.0, "VALIDT": 0, "DTG": "2024-09-02 06:00", "LATNOW": 21.0, "LONNOW": 106.9, "WINDNOW": 110.0, "DIRNOW": 4.0, "SPDNOW": 3.0, "TECH": "TRAK", "ADVNR": 24, "ATCFID": "WP122024", "NAME": "YAGI", "FTECH": "JTWC", "FCST_DTG": "2024-09-07 06:00:00", "RUN_DTG": "2024-09-07 08:47:03", "BASIN": "WP", "STMNR": 12, "CAT_ID": null, "CAT_DESC": null, "MSGID": "WTPN51 PGTW 070900", "VALIDTIME": "2024-09-02 06:00:00" }, "geometry": { "type": "Point", "coordinates": [ 122.300003, 16.4 ] } },
{ "type": "Feature", "properties": { "ID": 249877, "LAT": 16.56, "LON": 122.24001, "VMAX": 45.0, "MSLP": 995.0, "RMAX": 25.0, "FSPD": 4.37253, "FDIR": 340.25943, "RENV": 120.0, "PENV": 1006.0, "VALIDT": 0, "DTG": "2024-09-02 07:00", "LATNOW": 21.0, "LONNOW": 106.9, "WINDNOW": 110.0, "DIRNOW": 4.0, "SPDNOW": 3.0, "TECH": "TRAK", "ADVNR": 24, "ATCFID": "WP122024", "NAME": "YAGI", "FTECH": "JTWC", "FCST_DTG": "2024-09-07 06:00:00", "RUN_DTG": "2024-09-07 08:47:03", "BASIN": "WP", "STMNR": 12, "CAT_ID": null, "CAT_DESC": null, "MSGID": "WTPN51 PGTW 070900", "VALIDTIME": "2024-09-02 07:00:00" }, "geometry": { "type": "Point", "coordinates": [ 122.240005, 16.559999 ] } },
{ "type": "Feature", "properties": { "ID": 249878, "LAT": 17.2, "LON": 122.0, "VMAX": 40.0, "MSLP": 996.0, "RMAX": 20.0, "FSPD": 6.48685, "FDIR": 303.72028, "RENV": 120.0, "PENV": 1006.0, "VALIDT": 0, "DTG": "2024-09-02 12:00", "LATNOW": 21.0, "LONNOW": 106.9, "WINDNOW": 110.0, "DIRNOW": 4.0, "SPDNOW": 3.0, "TECH": "TRAK", "ADVNR": 24, "ATCFID": "WP122024", "NAME": "YAGI", "FTECH": "JTWC", "FCST_DTG": "2024-09-07 06:00:00", "RUN_DTG": "2024-09-07 08:47:03", "BASIN": "WP", "STMNR": 12, "CAT_ID": null, "CAT_DESC": null, "MSGID": "WTPN51 PGTW 070900", "VALIDTIME": "2024-09-02 12:00:00" }, "geometry": { "type": "Point", "coordinates": [ 122.0, 17.200001 ] } },
{ "type": "Feature", "properties": { "ID": 249879, "LAT": 17.9, "LON": 120.9, "VMAX": 35.0, "MSLP": 996.0, "RMAX": 20.0, "FSPD": 7.14842, "FDIR": 286.73013, "RENV": 120.0, "PENV": 1006.0, "VALIDT": 0, "DTG": "2024-09-02 18:00", "LATNOW": 21.0, "LONNOW": 106.9, "WINDNOW": 110.0, "DIRNOW": 4.0, "SPDNOW": 3.0, "TECH": "TRAK", "ADVNR": 24, "ATCFID": "WP122024", "NAME": "YAGI", "FTECH": "JTWC", "FCST_DTG": "2024-09-07 06:00:00", "RUN_DTG": "2024-09-07 08:47:03", "BASIN": "WP", "STMNR": 12, "CAT_ID": null, "CAT_DESC": null, "MSGID": "WTPN51 PGTW 070900", "VALIDTIME": "2024-09-02 18:00:00" }, "geometry": { "type": "Point", "coordinates": [ 120.900002, 17.9 ] } },
{ "type": "Feature", "properties": { "ID": 249880, "LAT": 18.3, "LON": 119.5, "VMAX": 40.0, "MSLP": 1000.0, "RMAX": 20.0, "FSPD": 2.20708, "FDIR": 297.7865, "RENV": 195.0, "PENV": 1006.0, "VALIDT": 0, "DTG": "2024-09-03 00:00", "LATNOW": 21.0, "LONNOW": 106.9, "WINDNOW": 110.0, "DIRNOW": 4.0, "SPDNOW": 3.0, "TECH": "TRAK", "ADVNR": 24, "ATCFID": "WP122024", "NAME": "YAGI", "FTECH": "JTWC", "FCST_DTG": "2024-09-07 06:00:00", "RUN_DTG": "2024-09-07 08:47:03", "BASIN": "WP", "STMNR": 12, "CAT_ID": null, "CAT_DESC": null, "MSGID": "WTPN51 PGTW 070900", "VALIDTIME": "2024-09-03 00:00:00" }, "geometry": { "type": "Point", "coordinates": [ 119.5, 18.299999 ] } },
{ "type": "Feature", "properties": { "ID": 249881, "LAT": 18.5, "LON": 119.1, "VMAX": 40.0, "MSLP": 999.0, "RMAX": 20.0, "FSPD": 1.61847, "FDIR": 342.47253, "RENV": 195.0, "PENV": 1006.0, "VALIDT": 0, "DTG": "2024-09-03 06:00", "LATNOW": 21.0, "LONNOW": 106.9, "WINDNOW": 110.0, "DIRNOW": 4.0, "SPDNOW": 3.0, "TECH": "TRAK", "ADVNR": 24, "ATCFID": "WP122024", "NAME": "YAGI", "FTECH": "JTWC", "FCST_DTG": "2024-09-07 06:00:00", "RUN_DTG": "2024-09-07 08:47:03", "BASIN": "WP", "STMNR": 12, "CAT_ID": null, "CAT_DESC": null, "MSGID": "WTPN51 PGTW 070900", "VALIDTIME": "2024-09-03 06:00:00" }, "geometry": { "type": "Point", "coordinates": [ 119.099998, 18.5 ] } },
{ "type": "Feature", "properties": { "ID": 249882, "LAT": 18.8, "LON": 119.0, "VMAX": 50.0, "MSLP": 998.0, "RMAX": 20.0, "FSPD": 3.40897, "FDIR": 269.99997, "RENV": 220.0, "PENV": 1004.0, "VALIDT": 0, "DTG": "2024-09-03 12:00", "LATNOW": 21.0, "LONNOW": 106.9, "WINDNOW": 110.0, "DIRNOW": 4.0, "SPDNOW": 3.0, "TECH": "TRAK", "ADVNR": 24, "ATCFID": "WP122024", "NAME": "YAGI", "FTECH": "JTWC", "FCST_DTG": "2024-09-07 06:00:00", "RUN_DTG": "2024-09-07 08:47:03", "BASIN": "WP", "STMNR": 12, "CAT_ID": null, "CAT_DESC": null, "MSGID": "WTPN51 PGTW 070900", "VALIDTIME": "2024-09-03 12:00:00" }, "geometry": { "type": "Point", "coordinates": [ 119.0, 18.799999 ] } },
{ "type": "Feature", "properties": { "ID": 249883, "LAT": 18.8, "LON": 118.3, "VMAX": 55.0, "MSLP": 993.0, "RMAX": 25.0, "FSPD": 3.30225, "FDIR": 297.8631, "RENV": 220.0, "PENV": 1004.0, "VALIDT": 0, "DTG": "2024-09-03 18:00", "LATNOW": 21.0, "LONNOW": 106.9, "WINDNOW": 110.0, "DIRNOW": 4.0, "SPDNOW": 3.0, "TECH": "TRAK", "ADVNR": 24, "ATCFID": "WP122024", "NAME": "YAGI", "FTECH": "JTWC", "FCST_DTG": "2024-09-07 06:00:00", "RUN_DTG": "2024-09-07 08:47:03", "BASIN": "WP", "STMNR": 12, "CAT_ID": null, "CAT_DESC": null, "MSGID": "WTPN51 PGTW 070900", "VALIDTIME": "2024-09-03 18:00:00" }, "geometry": { "type": "Point", "coordinates": [ 118.300003, 18.799999 ] } },
{ "type": "Feature", "properties": { "ID": 249884, "LAT": 19.1, "LON": 117.7, "VMAX": 70.0, "MSLP": 987.0, "RMAX": 30.0, "FSPD": 1.54601, "FDIR": 289.4362, "RENV": 200.0, "PENV": 1003.0, "VALIDT": 0, "DTG": "2024-09-04 00:00", "LATNOW": 21.0, "LONNOW": 106.9, "WINDNOW": 110.0, "DIRNOW": 4.0, "SPDNOW": 3.0, "TECH": "TRAK", "ADVNR": 24, "ATCFID": "WP122024", "NAME": "YAGI", "FTECH": "JTWC", "FCST_DTG": "2024-09-07 06:00:00", "RUN_DTG": "2024-09-07 08:47:03", "BASIN": "WP", "STMNR": 12, "CAT_ID": null, "CAT_DESC": null, "MSGID": "WTPN51 PGTW 070900", "VALIDTIME": "2024-09-04 00:00:00" }, "geometry": { "type": "Point", "coordinates": [ 117.699997, 19.1 ] } },
{ "type": "Feature", "properties": { "ID": 249885, "LAT": 19.2, "LON": 117.4, "VMAX": 80.0, "MSLP": 977.0, "RMAX": 25.0, "FSPD": 2.42915, "FDIR": 269.99997, "RENV": 200.0, "PENV": 1003.0, "VALIDT": 0, "DTG": "2024-09-04 06:00", "LATNOW": 21.0, "LONNOW": 106.9, "WINDNOW": 110.0, "DIRNOW": 4.0, "SPDNOW": 3.0, "TECH": "TRAK", "ADVNR": 24, "ATCFID": "WP122024", "NAME": "YAGI", "FTECH": "JTWC", "FCST_DTG": "2024-09-07 06:00:00", "RUN_DTG": "2024-09-07 08:47:03", "BASIN": "WP", "STMNR": 12, "CAT_ID": null, "CAT_DESC": null, "MSGID": "WTPN51 PGTW 070900", "VALIDTIME": "2024-09-04 06:00:00" }, "geometry": { "type": "Point", "coordinates": [ 117.400002, 19.200001 ] } },
{ "type": "Feature", "properties": { "ID": 249886, "LAT": 19.2, "LON": 116.9, "VMAX": 110.0, "MSLP": 977.0, "RMAX": 17.0, "FSPD": 2.91497, "FDIR": 269.99997, "RENV": 200.0, "PENV": 1001.0, "VALIDT": 0, "DTG": "2024-09-04 12:00", "LATNOW": 21.0, "LONNOW": 106.9, "WINDNOW": 110.0, "DIRNOW": 4.0, "SPDNOW": 3.0, "TECH": "TRAK", "ADVNR": 24, "ATCFID": "WP122024", "NAME": "YAGI", "FTECH": "JTWC", "FCST_DTG": "2024-09-07 06:00:00", "RUN_DTG": "2024-09-07 08:47:03", "BASIN": "WP", "STMNR": 12, "CAT_ID": null, "CAT_DESC": null, "MSGID": "WTPN51 PGTW 070900", "VALIDTIME": "2024-09-04 12:00:00" }, "geometry": { "type": "Point", "coordinates": [ 116.900002, 19.200001 ] } },
{ "type": "Feature", "properties": { "ID": 249887, "LAT": 19.2, "LON": 116.3, "VMAX": 120.0, "MSLP": 968.0, "RMAX": 12.0, "FSPD": 2.48374, "FDIR": 258.04602, "RENV": 170.0, "PENV": 1000.0, "VALIDT": 0, "DTG": "2024-09-04 18:00", "LATNOW": 21.0, "LONNOW": 106.9, "WINDNOW": 110.0, "DIRNOW": 4.0, "SPDNOW": 3.0, "TECH": "TRAK", "ADVNR": 24, "ATCFID": "WP122024", "NAME": "YAGI", "FTECH": "JTWC", "FCST_DTG": "2024-09-07 06:00:00", "RUN_DTG": "2024-09-07 08:47:03", "BASIN": "WP", "STMNR": 12, "CAT_ID": null, "CAT_DESC": null, "MSGID": "WTPN51 PGTW 070900", "VALIDTIME": "2024-09-04 18:00:00" }, "geometry": { "type": "Point", "coordinates": [ 116.300003, 19.200001 ] } },
{ "type": "Feature", "properties": { "ID": 249888, "LAT": 19.1, "LON": 115.8, "VMAX": 130.0, "MSLP": 932.0, "RMAX": 12.0, "FSPD": 3.44054, "FDIR": 278.59937, "RENV": 270.0, "PENV": 1000.0, "VALIDT": 0, "DTG": "2024-09-05 00:00", "LATNOW": 21.0, "LONNOW": 106.9, "WINDNOW": 110.0, "DIRNOW": 4.0, "SPDNOW": 3.0, "TECH": "TRAK", "ADVNR": 24, "ATCFID": "WP122024", "NAME": "YAGI", "FTECH": "JTWC", "FCST_DTG": "2024-09-07 06:00:00", "RUN_DTG": "2024-09-07 08:47:03", "BASIN": "WP", "STMNR": 12, "CAT_ID": null, "CAT_DESC": null, "MSGID": "WTPN51 PGTW 070900", "VALIDTIME": "2024-09-05 00:00:00" }, "geometry": { "type": "Point", "coordinates": [ 115.800003, 19.1 ] } },
{ "type": "Feature", "properties": { "ID": 249889, "LAT": 19.2, "LON": 115.1, "VMAX": 125.0, "MSLP": 922.0, "RMAX": 12.0, "FSPD": 4.88398, "FDIR": 276.04623, "RENV": 220.0, "PENV": 1000.0, "VALIDT": 0, "DTG": "2024-09-05 06:00", "LATNOW": 21.0, "LONNOW": 106.9, "WINDNOW": 110.0, "DIRNOW": 4.0, "SPDNOW": 3.0, "TECH": "TRAK", "ADVNR": 24, "ATCFID": "WP122024", "NAME": "YAGI", "FTECH": "JTWC", "FCST_DTG": "2024-09-07 06:00:00", "RUN_DTG": "2024-09-07 08:47:03", "BASIN": "WP", "STMNR": 12, "CAT_ID": null, "CAT_DESC": null, "MSGID": "WTPN51 PGTW 070900", "VALIDTIME": "2024-09-05 06:00:00" }, "geometry": { "type": "Point", "coordinates": [ 115.099998, 19.200001 ] } },
{ "type": "Feature", "properties": { "ID": 249898, "LAT": 21.04, "LON": 106.74001, "VMAX": 110.0, "MSLP": 933.0, "RMAX": 15.0, "FSPD": 3.97209, "FDIR": 285.01245, "RENV": 250.0, "PENV": 1002.0, "VALIDT": 1, "DTG": "2024-09-07 07:00", "LATNOW": 21.0, "LONNOW": 106.9, "WINDNOW": 110.0, "DIRNOW": 4.0, "SPDNOW": 3.0, "TECH": "FCST", "ADVNR": 24, "ATCFID": "WP122024", "NAME": "YAGI", "FTECH": "JTWC", "FCST_DTG": "2024-09-07 06:00:00", "RUN_DTG": "2024-09-07 08:47:03", "BASIN": "WP", "STMNR": 12, "CAT_ID": null, "CAT_DESC": null, "MSGID": "WTPN51 PGTW 070900", "VALIDTIME": "2024-09-07 07:00:00" }, "geometry": { "type": "Point", "coordinates": [ 106.740005, 21.040001 ] } },
{ "type": "Feature", "properties": { "ID": 249890, "LAT": 19.3, "LON": 114.1, "VMAX": 125.0, "MSLP": 928.0, "RMAX": 12.0, "FSPD": 5.3672, "FDIR": 264.49982, "RENV": 230.0, "PENV": 1001.0, "VALIDT": 0, "DTG": "2024-09-05 12:00", "LATNOW": 21.0, "LONNOW": 106.9, "WINDNOW": 110.0, "DIRNOW": 4.0, "SPDNOW": 3.0, "TECH": "TRAK", "ADVNR": 24, "ATCFID": "WP122024", "NAME": "YAGI", "FTECH": "JTWC", "FCST_DTG": "2024-09-07 06:00:00", "RUN_DTG": "2024-09-07 08:47:03", "BASIN": "WP", "STMNR": 12, "CAT_ID": null, "CAT_DESC": null, "MSGID": "WTPN51 PGTW 070900", "VALIDTIME": "2024-09-05 12:00:00" }, "geometry": { "type": "Point", "coordinates": [ 114.099998, 19.299999 ] } },
{ "type": "Feature", "properties": { "ID": 249891, "LAT": 19.2, "LON": 113.0, "VMAX": 120.0, "MSLP": 929.0, "RMAX": 15.0, "FSPD": 3.88665, "FDIR": 269.99997, "RENV": 230.0, "PENV": 1001.0, "VALIDT": 0, "DTG": "2024-09-05 18:00", "LATNOW": 21.0, "LONNOW": 106.9, "WINDNOW": 110.0, "DIRNOW": 4.0, "SPDNOW": 3.0, "TECH": "TRAK", "ADVNR": 24, "ATCFID": "WP122024", "NAME": "YAGI", "FTECH": "JTWC", "FCST_DTG": "2024-09-07 06:00:00", "RUN_DTG": "2024-09-07 08:47:03", "BASIN": "WP", "STMNR": 12, "CAT_ID": null, "CAT_DESC": null, "MSGID": "WTPN51 PGTW 070900", "VALIDTIME": "2024-09-05 18:00:00" }, "geometry": { "type": "Point", "coordinates": [ 113.0, 19.200001 ] } },
{ "type": "Feature", "properties": { "ID": 249892, "LAT": 19.2, "LON": 112.2, "VMAX": 130.0, "MSLP": 934.0, "RMAX": 12.0, "FSPD": 5.06716, "FDIR": 300.50583, "RENV": 250.0, "PENV": 1000.0, "VALIDT": 0, "DTG": "2024-09-06 00:00", "LATNOW": 21.0, "LONNOW": 106.9, "WINDNOW": 110.0, "DIRNOW": 4.0, "SPDNOW": 3.0, "TECH": "TRAK", "ADVNR": 24, "ATCFID": "WP122024", "NAME": "YAGI", "FTECH": "JTWC", "FCST_DTG": "2024-09-07 06:00:00", "RUN_DTG": "2024-09-07 08:47:03", "BASIN": "WP", "STMNR": 12, "CAT_ID": null, "CAT_DESC": null, "MSGID": "WTPN51 PGTW 070900", "VALIDTIME": "2024-09-06 00:00:00" }, "geometry": { "type": "Point", "coordinates": [ 112.199997, 19.200001 ] } },
{ "type": "Feature", "properties": { "ID": 249893, "LAT": 19.7, "LON": 111.3, "VMAX": 125.0, "MSLP": 922.0, "RMAX": 12.0, "FSPD": 5.54193, "FDIR": 286.16965, "RENV": 240.0, "PENV": 999.0, "VALIDT": 0, "DTG": "2024-09-06 06:00", "LATNOW": 21.0, "LONNOW": 106.9, "WINDNOW": 110.0, "DIRNOW": 4.0, "SPDNOW": 3.0, "TECH": "TRAK", "ADVNR": 24, "ATCFID": "WP122024", "NAME": "YAGI", "FTECH": "JTWC", "FCST_DTG": "2024-09-07 06:00:00", "RUN_DTG": "2024-09-07 08:47:03", "BASIN": "WP", "STMNR": 12, "CAT_ID": null, "CAT_DESC": null, "MSGID": "WTPN51 PGTW 070900", "VALIDTIME": "2024-09-06 06:00:00" }, "geometry": { "type": "Point", "coordinates": [ 111.300003, 19.700001 ] } },
{ "type": "Feature", "properties": { "ID": 249894, "LAT": 20.0, "LON": 110.2, "VMAX": 120.0, "MSLP": 927.0, "RMAX": 12.0, "FSPD": 5.99745, "FDIR": 284.91174, "RENV": 240.0, "PENV": 1000.0, "VALIDT": 0, "DTG": "2024-09-06 12:00", "LATNOW": 21.0, "LONNOW": 106.9, "WINDNOW": 110.0, "DIRNOW": 4.0, "SPDNOW": 3.0, "TECH": "TRAK", "ADVNR": 24, "ATCFID": "WP122024", "NAME": "YAGI", "FTECH": "JTWC", "FCST_DTG": "2024-09-07 06:00:00", "RUN_DTG": "2024-09-07 08:47:03", "BASIN": "WP", "STMNR": 12, "CAT_ID": null, "CAT_DESC": null, "MSGID": "WTPN51 PGTW 070900", "VALIDTIME": "2024-09-06 12:00:00" }, "geometry": { "type": "Point", "coordinates": [ 110.199997, 20.0 ] } },
{ "type": "Feature", "properties": { "ID": 249895, "LAT": 20.3, "LON": 109.0, "VMAX": 105.0, "MSLP": 928.0, "RMAX": 15.0, "FSPD": 3.85995, "FDIR": 269.99997, "RENV": 240.0, "PENV": 1000.0, "VALIDT": 0, "DTG": "2024-09-06 18:00", "LATNOW": 21.0, "LONNOW": 106.9, "WINDNOW": 110.0, "DIRNOW": 4.0, "SPDNOW": 3.0, "TECH": "TRAK", "ADVNR": 24, "ATCFID": "WP122024", "NAME": "YAGI", "FTECH": "JTWC", "FCST_DTG": "2024-09-07 06:00:00", "RUN_DTG": "2024-09-07 08:47:03", "BASIN": "WP", "STMNR": 12, "CAT_ID": null, "CAT_DESC": null, "MSGID": "WTPN51 PGTW 070900", "VALIDTIME": "2024-09-06 18:00:00" }, "geometry": { "type": "Point", "coordinates": [ 109.0, 20.299999 ] } },
{ "type": "Feature", "properties": { "ID": 249896, "LAT": 20.3, "LON": 108.2, "VMAX": 115.0, "MSLP": 937.0, "RMAX": 15.0, "FSPD": 7.22022, "FDIR": 299.9176, "RENV": 250.0, "PENV": 1002.0, "VALIDT": 0, "DTG": "2024-09-07 00:00", "LATNOW": 21.0, "LONNOW": 106.9, "WINDNOW": 110.0, "DIRNOW": 4.0, "SPDNOW": 3.0, "TECH": "TRAK", "ADVNR": 24, "ATCFID": "WP122024", "NAME": "YAGI", "FTECH": "JTWC", "FCST_DTG": "2024-09-07 06:00:00", "RUN_DTG": "2024-09-07 08:47:03", "BASIN": "WP", "STMNR": 12, "CAT_ID": null, "CAT_DESC": null, "MSGID": "WTPN51 PGTW 070900", "VALIDTIME": "2024-09-07 00:00:00" }, "geometry": { "type": "Point", "coordinates": [ 108.199997, 20.299999 ] } },
{ "type": "Feature", "properties": { "ID": 249897, "LAT": 21.0, "LON": 106.9, "VMAX": 110.0, "MSLP": 933.0, "RMAX": 15.0, "FSPD": 3.97699, "FDIR": 284.99387, "RENV": 250.0, "PENV": 1002.0, "VALIDT": 0, "DTG": "2024-09-07 06:00", "LATNOW": 21.0, "LONNOW": 106.9, "WINDNOW": 110.0, "DIRNOW": 4.0, "SPDNOW": 3.0, "TECH": "TRAK", "ADVNR": 24, "ATCFID": "WP122024", "NAME": "YAGI", "FTECH": "JTWC", "FCST_DTG": "2024-09-07 06:00:00", "RUN_DTG": "2024-09-07 08:47:03", "BASIN": "WP", "STMNR": 12, "CAT_ID": null, "CAT_DESC": null, "MSGID": "WTPN51 PGTW 070900", "VALIDTIME": "2024-09-07 06:00:00" }, "geometry": { "type": "Point", "coordinates": [ 106.900002, 21.0 ] } },
{ "type": "Feature", "properties": { "ID": 249899, "LAT": 21.4, "LON": 105.3, "VMAX": 75.0, "MSLP": 986.2879, "RMAX": 24.8783, "FSPD": 3.50275, "FDIR": 287.0818, "RENV": 180.0, "PENV": 1012.0, "VALIDT": 12, "DTG": "2024-09-07 18:00", "LATNOW": 21.0, "LONNOW": 106.9, "WINDNOW": 110.0, "DIRNOW": 4.0, "SPDNOW": 3.0, "TECH": "FCST", "ADVNR": 24, "ATCFID": "WP122024", "NAME": "YAGI", "FTECH": "JTWC", "FCST_DTG": "2024-09-07 06:00:00", "RUN_DTG": "2024-09-07 08:47:03", "BASIN": "WP", "STMNR": 12, "CAT_ID": null, "CAT_DESC": null, "MSGID": "WTPN51 PGTW 070900", "VALIDTIME": "2024-09-07 18:00:00" }, "geometry": { "type": "Point", "coordinates": [ 105.300003, 21.4 ] } },
{ "type": "Feature", "properties": { "ID": 249900, "LAT": 21.8, "LON": 103.9, "VMAX": 45.0, "MSLP": 1004.66364, "RMAX": 30.84599, "FSPD": 3.42805, "FDIR": 283.00897, "RENV": 250.0, "PENV": 1012.0, "VALIDT": 24, "DTG": "2024-09-08 06:00", "LATNOW": 21.0, "LONNOW": 106.9, "WINDNOW": 110.0, "DIRNOW": 4.0, "SPDNOW": 3.0, "TECH": "FCST", "ADVNR": 24, "ATCFID": "WP122024", "NAME": "YAGI", "FTECH": "JTWC", "FCST_DTG": "2024-09-07 06:00:00", "RUN_DTG": "2024-09-07 08:47:03", "BASIN": "WP", "STMNR": 12, "CAT_ID": null, "CAT_DESC": null, "MSGID": "WTPN51 PGTW 070900", "VALIDTIME": "2024-09-08 06:00:00" }, "geometry": { "type": "Point", "coordinates": [ 103.900002, 21.799999 ] } },
{ "type": "Feature", "properties": { "ID": 249901, "LAT": 22.1, "LON": 102.5, "VMAX": 25.0, "MSLP": 1011.80975, "RMAX": 34.78919, "FSPD": 2.15953, "FDIR": 276.84076, "RENV": 250.0, "PENV": 1012.0, "VALIDT": 36, "DTG": "2024-09-08 18:00", "LATNOW": 21.0, "LONNOW": 106.9, "WINDNOW": 110.0, "DIRNOW": 4.0, "SPDNOW": 3.0, "TECH": "FCST", "ADVNR": 24, "ATCFID": "WP122024", "NAME": "YAGI", "FTECH": "JTWC", "FCST_DTG": "2024-09-07 06:00:00", "RUN_DTG": "2024-09-07 08:47:03", "BASIN": "WP", "STMNR": 12, "CAT_ID": null, "CAT_DESC": null, "MSGID": "WTPN51 PGTW 070900", "VALIDTIME": "2024-09-08 18:00:00" }, "geometry": { "type": "Point", "coordinates": [ 102.5, 22.1 ] } },
{ "type": "Feature", "properties": { "ID": 249902, "LAT": 22.2, "LON": 101.6, "VMAX": 20.0, "MSLP": 1012.95825, "RMAX": 34.78919, "FSPD": 2.15953, "FDIR": 276.84076, "RENV": 250.0, "PENV": 1012.0, "VALIDT": 48, "DTG": "2024-09-09 06:00", "LATNOW": 21.0, "LONNOW": 106.9, "WINDNOW": 110.0, "DIRNOW": 4.0, "SPDNOW": 3.0, "TECH": "FCST", "ADVNR": 24, "ATCFID": "WP122024", "NAME": "YAGI", "FTECH": "JTWC", "FCST_DTG": "2024-09-07 06:00:00", "RUN_DTG": "2024-09-07 08:47:03", "BASIN": "WP", "STMNR": 12, "CAT_ID": null, "CAT_DESC": null, "MSGID": "WTPN51 PGTW 070900", "VALIDTIME": "2024-09-09 06:00:00" }, "geometry": { "type": "Point", "coordinates": [ 101.599998, 22.200001 ] } },
{ "type": "Feature", "properties": { "ID": 249897, "LAT": 21.0, "LON": 106.9, "VMAX": 110.0, "MSLP": 933.0, "RMAX": 15.0, "FSPD": 3.97699, "FDIR": 284.99387, "RENV": 250.0, "PENV": 1002.0, "VALIDT": 0, "DTG": "2024-09-07 06:00", "LATNOW": 21.0, "LONNOW": 106.9, "WINDNOW": 110.0, "DIRNOW": 4.0, "SPDNOW": 3.0, "TECH": "TRAK", "ADVNR": 24, "ATCFID": "WP122024", "NAME": "YAGI", "FTECH": "JTWC", "FCST_DTG": "2024-09-07 06:00:00", "RUN_DTG": "2024-09-07 08:47:03", "BASIN": "WP", "STMNR": 12, "CAT_ID": null, "CAT_DESC": null, "MSGID": "WTPN51 PGTW 070900", "VALIDTIME": "2024-09-07 06:00:00" }, "geometry": { "type": "LineString", "coordinates": [ [ 132.8, 9.2 ], [ 131.9, 9.8 ], [ 131.1, 10.7 ], [ 129.4, 11.3 ], [ 127.7, 11.5 ], [ 126.4, 12.0 ], [ 125.5, 12.7 ], [ 124.7, 13.5 ], [ 123.2, 14.6 ], [ 122.6, 15.2 ], [ 122.3, 16.4 ], [ 122.24001, 16.56 ], [ 122.0, 17.2 ], [ 120.9, 17.9 ], [ 119.5, 18.3 ], [ 119.1, 18.5 ], [ 119.0, 18.8 ], [ 118.3, 18.8 ], [ 117.7, 19.1 ], [ 117.4, 19.2 ], [ 116.9, 19.2 ], [ 116.3, 19.2 ], [ 115.8, 19.1 ], [ 115.1, 19.2 ], [ 114.1, 19.3 ], [ 113.0, 19.2 ], [ 112.2, 19.2 ], [ 111.3, 19.7 ], [ 110.2, 20.0 ], [ 109.0, 20.3 ], [ 108.2, 20.3 ], [ 106.9, 21.0 ] ] } },
{ "type": "Feature", "properties": { "ID": 249902, "LAT": 22.2, "LON": 101.6, "VMAX": 20.0, "MSLP": 1012.95825, "RMAX": 34.78919, "FSPD": 2.15953, "FDIR": 276.84076, "RENV": 250.0, "PENV": 1012.0, "VALIDT": 48, "DTG": "2024-09-09 06:00", "LATNOW": 21.0, "LONNOW": 106.9, "WINDNOW": 110.0, "DIRNOW": 4.0, "SPDNOW": 3.0, "TECH": "FCST", "ADVNR": 24, "ATCFID": "WP122024", "NAME": "YAGI", "FTECH": "JTWC", "FCST_DTG": "2024-09-07 06:00:00", "RUN_DTG": "2024-09-07 08:47:03", "BASIN": "WP", "STMNR": 12, "CAT_ID": null, "CAT_DESC": null, "MSGID": "WTPN51 PGTW 070900", "VALIDTIME": "2024-09-09 06:00:00" }, "geometry": { "type": "LineString", "coordinates": [ [ 106.9, 21.0 ], [ 106.74001, 21.04 ], [ 105.3, 21.4 ], [ 103.9, 21.8 ], [ 102.5, 22.1 ], [ 101.6, 22.2 ] ] } }
]
}
