{
"type": "FeatureCollection",
"crs": { "type": "name", "properties": { "name": "urn:ogc:def:crs:OGC:1.3:CRS84" } },
"features": [
{ "type": "Feature", "properties": { "ID": 71924, "LAT": 11.2, "LON": 155.6, "VMAX": 15.0, "MSLP": 1013.8515, "RMAX": 40.0, "FSPD": 4.39885, "FDIR": 144.94965, "RENV": 500.0, "PENV": 1012.0, "VALIDT": 0, "DTG": "2026-08-16 12:00", "LATNOW": 28.1, "LONNOW": 121.0, "WINDNOW": 55.0, "DIRNOW": 7.0, "SPDNOW": 3.0, "TECH": "TRAK", "ADVNR": 39, "ATCFID": "WP172026", "NAME": "SAUDEL", "FTECH": "JTWC", "FCST_DTG": "2026-08-28 00:00:00", "RUN_DTG": "2026-08-28 16:50:39", "BASIN": "WP", "STMNR": 17, "CAT_ID": null, "CAT_DESC": null, "MSGID": "WTPN51 PGTW 280300", "VALIDTIME": "2026-08-16 12:00:00" }, "geometry": { "type": "Point", "coordinates": [ 155.600006, 11.2 ] } },
{ "type": "Feature", "properties": { "ID": 71925, "LAT": 10.5, "LON": 156.1, "VMAX": 15.0, "MSLP": 1013.8515, "RMAX": 40.0, "FSPD": 4.69987, "FDIR": 131.05292, "RENV": 500.0, "PENV": 1012.0, "VALIDT": 0, "DTG": "2026-08-16 18:00", "LATNOW": 28.1, "LONNOW": 121.0, "WINDNOW": 55.0, "DIRNOW": 7.0, "SPDNOW": 3.0, "TECH": "TRAK", "ADVNR": 39, "ATCFID": "WP172026", "NAME": "SAUDEL", "FTECH": "JTWC", "FCST_DTG": "2026-08-28 00:00:00", "RUN_DTG": "2026-08-28 16:50:39", "BASIN": "WP", "STMNR": 17, "CAT_ID": null, "CAT_DESC": null, "MSGID": "WTPN51 PGTW 280300", "VALIDTIME": "2026-08-16 18:00:00" }, "geometry": { "type": "Point", "coordinates": [ 156.100006, 10.5 ] } },
{ "type": "Feature", "properties": { "ID": 71926, "LAT": 9.9, "LON": 156.8, "VMAX": 15.0, "MSLP": 1013.8515, "RMAX": 40.0, "FSPD": 6.22132, "FDIR": 125.3685, "RENV": 500.0, "PENV": 1012.0, "VALIDT": 0, "DTG": "2026-08-17 00:00", "LATNOW": 28.1, "LONNOW": 121.0, "WINDNOW": 55.0, "DIRNOW": 7.0, "SPDNOW": 3.0, "TECH": "TRAK", "ADVNR": 39, "ATCFID": "WP172026", "NAME": "SAUDEL", "FTECH": "JTWC", "FCST_DTG": "2026-08-28 00:00:00", "RUN_DTG": "2026-08-28 16:50:39", "BASIN": "WP", "STMNR": 17, "CAT_ID": null, "CAT_DESC": null, "MSGID": "WTPN51 PGTW 280300", "VALIDTIME": "2026-08-17 00:00:00" }, "geometry": { "type": "Point", "coordinates": [ 156.800003, 9.9 ] } },
{ "type": "Feature", "properties": { "ID": 71927, "LAT": 9.2, "LON": 157.8, "VMAX": 15.0, "MSLP": 1013.8515, "RMAX": 40.0, "FSPD": 6.38627, "FDIR": 241.09694, "RENV": 500.0, "PENV": 1012.0, "VALIDT": 0, "DTG": "2026-08-17 06:00", "LATNOW": 28.1, "LONNOW": 121.0, "WINDNOW": 55.0, "DIRNOW": 7.0, "SPDNOW": 3.0, "TECH": "TRAK", "ADVNR": 39, "ATCFID": "WP172026", "NAME": "SAUDEL", "FTECH": "JTWC", "FCST_DTG": "2026-08-28 00:00:00", "RUN_DTG": "2026-08-28 16:50:39", "BASIN": "WP", "STMNR": 17, "CAT_ID": null, "CAT_DESC": null, "MSGID": "WTPN51 PGTW 280300", "VALIDTIME": "2026-08-17 06:00:00" }, "geometry": { "type": "Point", "coordinates": [ 157.800003, 9.2 ] } },
{ "type": "Feature", "properties": { "ID": 71928, "LAT": 8.6, "LON": 156.7, "VMAX": 15.0, "MSLP": 1013.8515, "RMAX": 40.0, "FSPD": 5.70294, "FDIR": 243.1899, "RENV": 500.0, "PENV": 1012.0, "VALIDT": 0, "DTG": "2026-08-17 12:00", "LATNOW": 28.1, "LONNOW": 121.0, "WINDNOW": 55.0, "DIRNOW": 7.0, "SPDNOW": 3.0, "TECH": "TRAK", "ADVNR": 39, "ATCFID": "WP172026", "NAME": "SAUDEL", "FTECH": "JTWC", "FCST_DTG": "2026-08-28 00:00:00", "RUN_DTG": "2026-08-28 16:50:39", "BASIN": "WP", "STMNR": 17, "CAT_ID": null, "CAT_DESC": null, "MSGID": "WTPN51 PGTW 280300", "VALIDTIME": "2026-08-17 12:00:00" }, "geometry": { "type": "Point", "coordinates": [ 156.699997, 8.6 ] } },
{ "type": "Feature", "properties": { "ID": 71929, "LAT": 8.1, "LON": 155.7, "VMAX": 20.0, "MSLP": 1012.95825, "RMAX": 45.0, "FSPD": 2.28274, "FDIR": 243.20975, "RENV": 500.0, "PENV": 1012.0, "VALIDT": 0, "DTG": "2026-08-17 18:00", "LATNOW": 28.1, "LONNOW": 121.0, "WINDNOW": 55.0, "DIRNOW": 7.0, "SPDNOW": 3.0, "TECH": "TRAK", "ADVNR": 39, "ATCFID": "WP172026", "NAME": "SAUDEL", "FTECH": "JTWC", "FCST_DTG": "2026-08-28 00:00:00", "RUN_DTG": "2026-08-28 16:50:39", "BASIN": "WP", "STMNR": 17, "CAT_ID": null, "CAT_DESC": null, "MSGID": "WTPN51 PGTW 280300", "VALIDTIME": "2026-08-17 18:00:00" }, "geometry": { "type": "Point", "coordinates": [ 155.699997, 8.1 ] } },
{ "type": "Feature", "properties": { "ID": 71930, "LAT": 7.9, "LON": 155.3, "VMAX": 20.0, "MSLP": 1012.95825, "RMAX": 45.0, "FSPD": 1.01911, "FDIR": 269.99997, "RENV": 500.0, "PENV": 1012.0, "VALIDT": 0, "DTG": "2026-08-18 00:00", "LATNOW": 28.1, "LONNOW": 121.0, "WINDNOW": 55.0, "DIRNOW": 7.0, "SPDNOW": 3.0, "TECH": "TRAK", "ADVNR": 39, "ATCFID": "WP172026", "NAME": "SAUDEL", "FTECH": "JTWC", "FCST_DTG": "2026-08-28 00:00:00", "RUN_DTG": "2026-08-28 16:50:39", "BASIN": "WP", "STMNR": 17, "CAT_ID": null, "CAT_DESC": null, "MSGID": "WTPN51 PGTW 280300", "VALIDTIME": "2026-08-18 00:00:00" }, "geometry": { "type": "Point", "coordinates": [ 155.300003, 7.9 ] } },
{ "type": "Feature", "properties": { "ID": 71931, "LAT": 7.9, "LON": 155.1, "VMAX": 20.0, "MSLP": 1012.95825, "RMAX": 45.0, "FSPD": 1.01919, "FDIR": 269.99997, "RENV": 500.0, "PENV": 1012.0, "VALIDT": 0, "DTG": "2026-08-18 06:00", "LATNOW": 28.1, "LONNOW": 121.0, "WINDNOW": 55.0, "DIRNOW": 7.0, "SPDNOW": 3.0, "TECH": "TRAK", "ADVNR": 39, "ATCFID": "WP172026", "NAME": "SAUDEL", "FTECH": "JTWC", "FCST_DTG": "2026-08-28 00:00:00", "RUN_DTG": "2026-08-28 16:50:39", "BASIN": "WP", "STMNR": 17, "CAT_ID": null, "CAT_DESC": null, "MSGID": "WTPN51 PGTW 280300", "VALIDTIME": "2026-08-18 06:00:00" }, "geometry": { "type": "Point", "coordinates": [ 155.100006, 7.9 ] } },
{ "type": "Feature", "properties": { "ID": 71932, "LAT": 7.9, "LON": 154.9, "VMAX": 25.0, "MSLP": 1006.0, "RMAX": 50.0, "FSPD": 2.56298, "FDIR": 323.40656, "RENV": 150.0, "PENV": 1010.0, "VALIDT": 0, "DTG": "2026-08-18 12:00", "LATNOW": 28.1, "LONNOW": 121.0, "WINDNOW": 55.0, "DIRNOW": 7.0, "SPDNOW": 3.0, "TECH": "TRAK", "ADVNR": 39, "ATCFID": "WP172026", "NAME": "SAUDEL", "FTECH": "JTWC", "FCST_DTG": "2026-08-28 00:00:00", "RUN_DTG": "2026-08-28 16:50:39", "BASIN": "WP", "STMNR": 17, "CAT_ID": null, "CAT_DESC": null, "MSGID": "WTPN51 PGTW 280300", "VALIDTIME": "2026-08-18 12:00:00" }, "geometry": { "type": "Point", "coordinates": [ 154.899994, 7.9 ] } },
{ "type": "Feature", "properties": { "ID": 71933, "LAT": 8.3, "LON": 154.6, "VMAX": 25.0, "MSLP": 1006.0, "RMAX": 50.0, "FSPD": 2.55566, "FDIR": 232.85112, "RENV": 150.0, "PENV": 1010.0, "VALIDT": 0, "DTG": "2026-08-18 18:00", "LATNOW": 28.1, "LONNOW": 121.0, "WINDNOW": 55.0, "DIRNOW": 7.0, "SPDNOW": 3.0, "TECH": "TRAK", "ADVNR": 39, "ATCFID": "WP172026", "NAME": "SAUDEL", "FTECH": "JTWC", "FCST_DTG": "2026-08-28 00:00:00", "RUN_DTG": "2026-08-28 16:50:39", "BASIN": "WP", "STMNR": 17, "CAT_ID": null, "CAT_DESC": null, "MSGID": "WTPN51 PGTW 280300", "VALIDTIME": "2026-08-18 18:00:00" }, "geometry": { "type": "Point", "coordinates": [ 154.600006, 8.3 ] } },
{ "type": "Feature", "properties": { "ID": 71934, "LAT": 8.0, "LON": 154.2, "VMAX": 30.0, "MSLP": 1005.0, "RMAX": 50.0, "FSPD": 2.62211, "FDIR": 348.8051, "RENV": 150.0, "PENV": 1010.0, "VALIDT": 0, "DTG": "2026-08-19 00:00", "LATNOW": 28.1, "LONNOW": 121.0, "WINDNOW": 55.0, "DIRNOW": 7.0, "SPDNOW": 3.0, "TECH": "TRAK", "ADVNR": 39, "ATCFID": "WP172026", "NAME": "SAUDEL", "FTECH": "JTWC", "FCST_DTG": "2026-08-28 00:00:00", "RUN_DTG": "2026-08-28 16:50:39", "BASIN": "WP", "STMNR": 17, "CAT_ID": null, "CAT_DESC": null, "MSGID": "WTPN51 PGTW 280300", "VALIDTIME": "2026-08-19 00:00:00" }, "geometry": { "type": "Point", "coordinates": [ 154.199997, 8.0 ] } },
{ "type": "Feature", "properties": { "ID": 71935, "LAT": 8.5, "LON": 154.1, "VMAX": 35.0, "MSLP": 1003.0, "RMAX": 50.0, "FSPD": 5.05658, "FDIR": 336.29645, "RENV": 150.0, "PENV": 1008.0, "VALIDT": 0, "DTG": "2026-08-19 06:00", "LATNOW": 28.1, "LONNOW": 121.0, "WINDNOW": 55.0, "DIRNOW": 7.0, "SPDNOW": 3.0, "TECH": "TRAK", "ADVNR": 39, "ATCFID": "WP172026", "NAME": "SAUDEL", "FTECH": "JTWC", "FCST_DTG": "2026-08-28 00:00:00", "RUN_DTG": "2026-08-28 16:50:39", "BASIN": "WP", "STMNR": 17, "CAT_ID": null, "CAT_DESC": null, "MSGID": "WTPN51 PGTW 280300", "VALIDTIME": "2026-08-19 06:00:00" }, "geometry": { "type": "Point", "coordinates": [ 154.100006, 8.5 ] } },
{ "type": "Feature", "properties": { "ID": 71936, "LAT": 9.4, "LON": 153.7, "VMAX": 35.0, "MSLP": 999.0, "RMAX": 30.0, "FSPD": 7.26771, "FDIR": 321.13568, "RENV": 140.0, "PENV": 1006.0, "VALIDT": 0, "DTG": "2026-08-19 12:00", "LATNOW": 28.1, "LONNOW": 121.0, "WINDNOW": 55.0, "DIRNOW": 7.0, "SPDNOW": 3.0, "TECH": "TRAK", "ADVNR": 39, "ATCFID": "WP172026", "NAME": "SAUDEL", "FTECH": "JTWC", "FCST_DTG": "2026-08-28 00:00:00", "RUN_DTG": "2026-08-28 16:50:39", "BASIN": "WP", "STMNR": 17, "CAT_ID": null, "CAT_DESC": null, "MSGID": "WTPN51 PGTW 280300", "VALIDTIME": "2026-08-19 12:00:00" }, "geometry": { "type": "Point", "coordinates": [ 153.699997, 9.4 ] } },
{ "type": "Feature", "properties": { "ID": 71937, "LAT": 10.5, "LON": 152.8, "VMAX": 35.0, "MSLP": 1000.0, "RMAX": 30.0, "FSPD": 7.62703, "FDIR": 307.37656, "RENV": 140.0, "PENV": 1008.0, "VALIDT": 0, "DTG": "2026-08-19 18:00", "LATNOW": 28.1, "LONNOW": 121.0, "WINDNOW": 55.0, "DIRNOW": 7.0, "SPDNOW": 3.0, "TECH": "TRAK", "ADVNR": 39, "ATCFID": "WP172026", "NAME": "SAUDEL", "FTECH": "JTWC", "FCST_DTG": "2026-08-28 00:00:00", "RUN_DTG": "2026-08-28 16:50:39", "BASIN": "WP", "STMNR": 17, "CAT_ID": null, "CAT_DESC": null, "MSGID": "WTPN51 PGTW 280300", "VALIDTIME": "2026-08-19 18:00:00" }, "geometry": { "type": "Point", "coordinates": [ 152.800003, 10.5 ] } },
{ "type": "Feature", "properties": { "ID": 71938, "LAT": 11.4, "LON": 151.6, "VMAX": 35.0, "MSLP": 1000.0, "RMAX": 30.0, "FSPD": 4.36531, "FDIR": 306.10315, "RENV": 150.0, "PENV": 1006.0, "VALIDT": 0, "DTG": "2026-08-20 00:00", "LATNOW": 28.1, "LONNOW": 121.0, "WINDNOW": 55.0, "DIRNOW": 7.0, "SPDNOW": 3.0, "TECH": "TRAK", "ADVNR": 39, "ATCFID": "WP172026", "NAME": "SAUDEL", "FTECH": "JTWC", "FCST_DTG": "2026-08-28 00:00:00", "RUN_DTG": "2026-08-28 16:50:39", "BASIN": "WP", "STMNR": 17, "CAT_ID": null, "CAT_DESC": null, "MSGID": "WTPN51 PGTW 280300", "VALIDTIME": "2026-08-20 00:00:00" }, "geometry": { "type": "Point", "coordinates": [ 151.600006, 11.4 ] } },
{ "type": "Feature", "properties": { "ID": 71939, "LAT": 11.9, "LON": 150.9, "VMAX": 35.0, "MSLP": 999.0, "RMAX": 30.0, "FSPD": 5.81477, "FDIR": 322.77332, "RENV": 200.0, "PENV": 1008.0, "VALIDT": 0, "DTG": "2026-08-20 06:00", "LATNOW": 28.1, "LONNOW": 121.0, "WINDNOW": 55.0, "DIRNOW": 7.0, "SPDNOW": 3.0, "TECH": "TRAK", "ADVNR": 39, "ATCFID": "WP172026", "NAME": "SAUDEL", "FTECH": "JTWC", "FCST_DTG": "2026-08-28 00:00:00", "RUN_DTG": "2026-08-28 16:50:39", "BASIN": "WP", "STMNR": 17, "CAT_ID": null, "CAT_DESC": null, "MSGID": "WTPN51 PGTW 280300", "VALIDTIME": "2026-08-20 06:00:00" }, "geometry": { "type": "Point", "coordinates": [ 150.899994, 11.9 ] } },
{ "type": "Feature", "properties": { "ID": 71940, "LAT": 12.8, "LON": 150.2, "VMAX": 40.0, "MSLP": 997.0, "RMAX": 30.0, "FSPD": 5.51939, "FDIR": 327.02005, "RENV": 200.0, "PENV": 1006.0, "VALIDT": 0, "DTG": "2026-08-20 12:00", "LATNOW": 28.1, "LONNOW": 121.0, "WINDNOW": 55.0, "DIRNOW": 7.0, "SPDNOW": 3.0, "TECH": "TRAK", "ADVNR": 39, "ATCFID": "WP172026", "NAME": "SAUDEL", "FTECH": "JTWC", "FCST_DTG": "2026-08-28 00:00:00", "RUN_DTG": "2026-08-28 16:50:39", "BASIN": "WP", "STMNR": 17, "CAT_ID": null, "CAT_DESC": null, "MSGID": "WTPN51 PGTW 280300", "VALIDTIME": "2026-08-20 12:00:00" }, "geometry": { "type": "Point", "coordinates": [ 150.199997, 12.8 ] } },
{ "type": "Feature", "properties": { "ID": 71941, "LAT": 13.7, "LON": 149.6, "VMAX": 40.0, "MSLP": 996.0, "RMAX": 30.0, "FSPD": 5.95144, "FDIR": 329.81458, "RENV": 115.0, "PENV": 1006.0, "VALIDT": 0, "DTG": "2026-08-20 18:00", "LATNOW": 28.1, "LONNOW": 121.0, "WINDNOW": 55.0, "DIRNOW": 7.0, "SPDNOW": 3.0, "TECH": "TRAK", "ADVNR": 39, "ATCFID": "WP172026", "NAME": "SAUDEL", "FTECH": "JTWC", "FCST_DTG": "2026-08-28 00:00:00", "RUN_DTG": "2026-08-28 16:50:39", "BASIN": "WP", "STMNR": 17, "CAT_ID": null, "CAT_DESC": null, "MSGID": "WTPN51 PGTW 280300", "VALIDTIME": "2026-08-20 18:00:00" }, "geometry": { "type": "Point", "coordinates": [ 149.600006, 13.7 ] } },
{ "type": "Feature", "properties": { "ID": 71942, "LAT": 14.7, "LON": 149.0, "VMAX": 45.0, "MSLP": 995.0, "RMAX": 30.0, "FSPD": 2.69132, "FDIR": 292.47614, "RENV": 170.0, "PENV": 1005.0, "VALIDT": 0, "DTG": "2026-08-21 00:00", "LATNOW": 28.1, "LONNOW": 121.0, "WINDNOW": 55.0, "DIRNOW": 7.0, "SPDNOW": 3.0, "TECH": "TRAK", "ADVNR": 39, "ATCFID": "WP172026", "NAME": "SAUDEL", "FTECH": "JTWC", "FCST_DTG": "2026-08-28 00:00:00", "RUN_DTG": "2026-08-28 16:50:39", "BASIN": "WP", "STMNR": 17, "CAT_ID": null, "CAT_DESC": null, "MSGID": "WTPN51 PGTW 280300", "VALIDTIME": "2026-08-21 00:00:00" }, "geometry": { "type": "Point", "coordinates": [ 149.0, 14.7 ] } },
{ "type": "Feature", "properties": { "ID": 71943, "LAT": 14.9, "LON": 148.5, "VMAX": 60.0, "MSLP": 994.0, "RMAX": 30.0, "FSPD": 5.9964, "FDIR": 340.68494, "RENV": 160.0, "PENV": 1007.0, "VALIDT": 0, "DTG": "2026-08-21 06:00", "LATNOW": 28.1, "LONNOW": 121.0, "WINDNOW": 55.0, "DIRNOW": 7.0, "SPDNOW": 3.0, "TECH": "TRAK", "ADVNR": 39, "ATCFID": "WP172026", "NAME": "SAUDEL", "FTECH": "JTWC", "FCST_DTG": "2026-08-28 00:00:00", "RUN_DTG": "2026-08-28 16:50:39", "BASIN": "WP", "STMNR": 17, "CAT_ID": null, "CAT_DESC": null, "MSGID": "WTPN51 PGTW 280300", "VALIDTIME": "2026-08-21 06:00:00" }, "geometry": { "type": "Point", "coordinates": [ 148.5, 14.9 ] } },
{ "type": "Feature", "properties": { "ID": 71944, "LAT": 16.0, "LON": 148.1, "VMAX": 70.0, "MSLP": 987.0, "RMAX": 25.0, "FSPD": 6.89831, "FDIR": 325.1179, "RENV": 160.0, "PENV": 1005.0, "VALIDT": 0, "DTG": "2026-08-21 12:00", "LATNOW": 28.1, "LONNOW": 121.0, "WINDNOW": 55.0, "DIRNOW": 7.0, "SPDNOW": 3.0, "TECH": "TRAK", "ADVNR": 39, "ATCFID": "WP172026", "NAME": "SAUDEL", "FTECH": "JTWC", "FCST_DTG": "2026-08-28 00:00:00", "RUN_DTG": "2026-08-28 16:50:39", "BASIN": "WP", "STMNR": 17, "CAT_ID": null, "CAT_DESC": null, "MSGID": "WTPN51 PGTW 280300", "VALIDTIME": "2026-08-21 12:00:00" }, "geometry": { "type": "Point", "coordinates": [ 148.100006, 16.0 ] } },
{ "type": "Feature", "properties": { "ID": 71945, "LAT": 17.1, "LON": 147.3, "VMAX": 80.0, "MSLP": 983.0, "RMAX": 20.0, "FSPD": 5.68719, "FDIR": 316.35693, "RENV": 160.0, "PENV": 1007.0, "VALIDT": 0, "DTG": "2026-08-21 18:00", "LATNOW": 28.1, "LONNOW": 121.0, "WINDNOW": 55.0, "DIRNOW": 7.0, "SPDNOW": 3.0, "TECH": "TRAK", "ADVNR": 39, "ATCFID": "WP172026", "NAME": "SAUDEL", "FTECH": "JTWC", "FCST_DTG": "2026-08-28 00:00:00", "RUN_DTG": "2026-08-28 16:50:39", "BASIN": "WP", "STMNR": 17, "CAT_ID": null, "CAT_DESC": null, "MSGID": "WTPN51 PGTW 280300", "VALIDTIME": "2026-08-21 18:00:00" }, "geometry": { "type": "Point", "coordinates": [ 147.300003, 17.1 ] } },
{ "type": "Feature", "properties": { "ID": 71946, "LAT": 17.9, "LON": 146.5, "VMAX": 85.0, "MSLP": 975.0, "RMAX": 20.0, "FSPD": 4.9663, "FDIR": 316.478, "RENV": 190.0, "PENV": 1006.0, "VALIDT": 0, "DTG": "2026-08-22 00:00", "LATNOW": 28.1, "LONNOW": 121.0, "WINDNOW": 55.0, "DIRNOW": 7.0, "SPDNOW": 3.0, "TECH": "TRAK", "ADVNR": 39, "ATCFID": "WP172026", "NAME": "SAUDEL", "FTECH": "JTWC", "FCST_DTG": "2026-08-28 00:00:00", "RUN_DTG": "2026-08-28 16:50:39", "BASIN": "WP", "STMNR": 17, "CAT_ID": null, "CAT_DESC": null, "MSGID": "WTPN51 PGTW 280300", "VALIDTIME": "2026-08-22 00:00:00" }, "geometry": { "type": "Point", "coordinates": [ 146.5, 17.9 ] } },
{ "type": "Feature", "properties": { "ID": 71947, "LAT": 18.6, "LON": 145.8, "VMAX": 95.0, "MSLP": 973.0, "RMAX": 15.0, "FSPD": 7.07792, "FDIR": 316.62128, "RENV": 220.0, "PENV": 1008.0, "VALIDT": 0, "DTG": "2026-08-22 06:00", "LATNOW": 28.1, "LONNOW": 121.0, "WINDNOW": 55.0, "DIRNOW": 7.0, "SPDNOW": 3.0, "TECH": "TRAK", "ADVNR": 39, "ATCFID": "WP172026", "NAME": "SAUDEL", "FTECH": "JTWC", "FCST_DTG": "2026-08-28 00:00:00", "RUN_DTG": "2026-08-28 16:50:39", "BASIN": "WP", "STMNR": 17, "CAT_ID": null, "CAT_DESC": null, "MSGID": "WTPN51 PGTW 280300", "VALIDTIME": "2026-08-22 06:00:00" }, "geometry": { "type": "Point", "coordinates": [ 145.800003, 18.6 ] } },
{ "type": "Feature", "properties": { "ID": 71948, "LAT": 19.6, "LON": 144.8, "VMAX": 105.0, "MSLP": 963.0, "RMAX": 15.0, "FSPD": 7.11264, "FDIR": 305.35388, "RENV": 210.0, "PENV": 1006.0, "VALIDT": 0, "DTG": "2026-08-22 12:00", "LATNOW": 28.1, "LONNOW": 121.0, "WINDNOW": 55.0, "DIRNOW": 7.0, "SPDNOW": 3.0, "TECH": "TRAK", "ADVNR": 39, "ATCFID": "WP172026", "NAME": "SAUDEL", "FTECH": "JTWC", "FCST_DTG": "2026-08-28 00:00:00", "RUN_DTG": "2026-08-28 16:50:39", "BASIN": "WP", "STMNR": 17, "CAT_ID": null, "CAT_DESC": null, "MSGID": "WTPN51 PGTW 280300", "VALIDTIME": "2026-08-22 12:00:00" }, "geometry": { "type": "Point", "coordinates": [ 144.800003, 19.6 ] } },
{ "type": "Feature", "properties": { "ID": 71949, "LAT": 20.4, "LON": 143.6, "VMAX": 115.0, "MSLP": 956.0, "RMAX": 15.0, "FSPD": 6.97609, "FDIR": 296.2612, "RENV": 230.0, "PENV": 1008.0, "VALIDT": 0, "DTG": "2026-08-22 18:00", "LATNOW": 28.1, "LONNOW": 121.0, "WINDNOW": 55.0, "DIRNOW": 7.0, "SPDNOW": 3.0, "TECH": "TRAK", "ADVNR": 39, "ATCFID": "WP172026", "NAME": "SAUDEL", "FTECH": "JTWC", "FCST_DTG": "2026-08-28 00:00:00", "RUN_DTG": "2026-08-28 16:50:39", "BASIN": "WP", "STMNR": 17, "CAT_ID": null, "CAT_DESC": null, "MSGID": "WTPN51 PGTW 280300", "VALIDTIME": "2026-08-22 18:00:00" }, "geometry": { "type": "Point", "coordinates": [ 143.600006, 20.4 ] } },
{ "type": "Feature", "properties": { "ID": 71950, "LAT": 21.0, "LON": 142.3, "VMAX": 110.0, "MSLP": 956.0, "RMAX": 12.0, "FSPD": 8.14694, "FDIR": 304.6325, "RENV": 175.0, "PENV": 1004.0, "VALIDT": 0, "DTG": "2026-08-23 00:00", "LATNOW": 28.1, "LONNOW": 121.0, "WINDNOW": 55.0, "DIRNOW": 7.0, "SPDNOW": 3.0, "TECH": "TRAK", "ADVNR": 39, "ATCFID": "WP172026", "NAME": "SAUDEL", "FTECH": "JTWC", "FCST_DTG": "2026-08-28 00:00:00", "RUN_DTG": "2026-08-28 16:50:39", "BASIN": "WP", "STMNR": 17, "CAT_ID": null, "CAT_DESC": null, "MSGID": "WTPN51 PGTW 280300", "VALIDTIME": "2026-08-23 00:00:00" }, "geometry": { "type": "Point", "coordinates": [ 142.300003, 21.0 ] } },
{ "type": "Feature", "properties": { "ID": 71951, "LAT": 21.9, "LON": 140.9, "VMAX": 110.0, "MSLP": 950.0, "RMAX": 5.0, "FSPD": 7.99859, "FDIR": 296.7577, "RENV": 180.0, "PENV": 1006.0, "VALIDT": 0, "DTG": "2026-08-23 06:00", "LATNOW": 28.1, "LONNOW": 121.0, "WINDNOW": 55.0, "DIRNOW": 7.0, "SPDNOW": 3.0, "TECH": "TRAK", "ADVNR": 39, "ATCFID": "WP172026", "NAME": "SAUDEL", "FTECH": "JTWC", "FCST_DTG": "2026-08-28 00:00:00", "RUN_DTG": "2026-08-28 16:50:39", "BASIN": "WP", "STMNR": 17, "CAT_ID": null, "CAT_DESC": null, "MSGID": "WTPN51 PGTW 280300", "VALIDTIME": "2026-08-23 06:00:00" }, "geometry": { "type": "Point", "coordinates": [ 140.899994, 21.9 ] } },
{ "type": "Feature", "properties": { "ID": 71952, "LAT": 22.6, "LON": 139.4, "VMAX": 110.0, "MSLP": 949.0, "RMAX": 12.0, "FSPD": 7.74971, "FDIR": 293.4716, "RENV": 220.0, "PENV": 1006.0, "VALIDT": 0, "DTG": "2026-08-23 12:00", "LATNOW": 28.1, "LONNOW": 121.0, "WINDNOW": 55.0, "DIRNOW": 7.0, "SPDNOW": 3.0, "TECH": "TRAK", "ADVNR": 39, "ATCFID": "WP172026", "NAME": "SAUDEL", "FTECH": "JTWC", "FCST_DTG": "2026-08-28 00:00:00", "RUN_DTG": "2026-08-28 16:50:39", "BASIN": "WP", "STMNR": 17, "CAT_ID": null, "CAT_DESC": null, "MSGID": "WTPN51 PGTW 280300", "VALIDTIME": "2026-08-23 12:00:00" }, "geometry": { "type": "Point", "coordinates": [ 139.399994, 22.6 ] } },
{ "type": "Feature", "properties": { "ID": 71953, "LAT": 23.2, "LON": 137.9, "VMAX": 110.0, "MSLP": 949.0, "RMAX": 12.0, "FSPD": 8.36078, "FDIR": 295.51285, "RENV": 220.0, "PENV": 1006.0, "VALIDT": 0, "DTG": "2026-08-23 18:00", "LATNOW": 28.1, "LONNOW": 121.0, "WINDNOW": 55.0, "DIRNOW": 7.0, "SPDNOW": 3.0, "TECH": "TRAK", "ADVNR": 39, "ATCFID": "WP172026", "NAME": "SAUDEL", "FTECH": "JTWC", "FCST_DTG": "2026-08-28 00:00:00", "RUN_DTG": "2026-08-28 16:50:39", "BASIN": "WP", "STMNR": 17, "CAT_ID": null, "CAT_DESC": null, "MSGID": "WTPN51 PGTW 280300", "VALIDTIME": "2026-08-23 18:00:00" }, "geometry": { "type": "Point", "coordinates": [ 137.899994, 23.200001 ] } },
{ "type": "Feature", "properties": { "ID": 71954, "LAT": 23.9, "LON": 136.3, "VMAX": 110.0, "MSLP": 945.0, "RMAX": 12.0, "FSPD": 8.11754, "FDIR": 292.34894, "RENV": 250.0, "PENV": 1004.0, "VALIDT": 0, "DTG": "2026-08-24 00:00", "LATNOW": 28.1, "LONNOW": 121.0, "WINDNOW": 55.0, "DIRNOW": 7.0, "SPDNOW": 3.0, "TECH": "TRAK", "ADVNR": 39, "ATCFID": "WP172026", "NAME": "SAUDEL", "FTECH": "JTWC", "FCST_DTG": "2026-08-28 00:00:00", "RUN_DTG": "2026-08-28 16:50:39", "BASIN": "WP", "STMNR": 17, "CAT_ID": null, "CAT_DESC": null, "MSGID": "WTPN51 PGTW 280300", "VALIDTIME": "2026-08-24 00:00:00" }, "geometry": { "type": "Point", "coordinates": [ 136.300003, 23.9 ] } },
{ "type": "Feature", "properties": { "ID": 71955, "LAT": 24.5, "LON": 134.7, "VMAX": 105.0, "MSLP": 944.0, "RMAX": 5.0, "FSPD": 5.9741, "FDIR": 290.1482, "RENV": 250.0, "PENV": 1004.0, "VALIDT": 0, "DTG": "2026-08-24 06:00", "LATNOW": 28.1, "LONNOW": 121.0, "WINDNOW": 55.0, "DIRNOW": 7.0, "SPDNOW": 3.0, "TECH": "TRAK", "ADVNR": 39, "ATCFID": "WP172026", "NAME": "SAUDEL", "FTECH": "JTWC", "FCST_DTG": "2026-08-28 00:00:00", "RUN_DTG": "2026-08-28 16:50:39", "BASIN": "WP", "STMNR": 17, "CAT_ID": null, "CAT_DESC": null, "MSGID": "WTPN51 PGTW 280300", "VALIDTIME": "2026-08-24 06:00:00" }, "geometry": { "type": "Point", "coordinates": [ 134.699997, 24.5 ] } },
{ "type": "Feature", "properties": { "ID": 71956, "LAT": 24.9, "LON": 133.5, "VMAX": 100.0, "MSLP": 947.0, "RMAX": 12.0, "FSPD": 6.64405, "FDIR": 302.8203, "RENV": 250.0, "PENV": 1005.0, "VALIDT": 0, "DTG": "2026-08-24 12:00", "LATNOW": 28.1, "LONNOW": 121.0, "WINDNOW": 55.0, "DIRNOW": 7.0, "SPDNOW": 3.0, "TECH": "TRAK", "ADVNR": 39, "ATCFID": "WP172026", "NAME": "SAUDEL", "FTECH": "JTWC", "FCST_DTG": "2026-08-28 00:00:00", "RUN_DTG": "2026-08-28 16:50:39", "BASIN": "WP", "STMNR": 17, "CAT_ID": null, "CAT_DESC": null, "MSGID": "WTPN51 PGTW 280300", "VALIDTIME": "2026-08-24 12:00:00" }, "geometry": { "type": "Point", "coordinates": [ 133.5, 24.9 ] } },
{ "type": "Feature", "properties": { "ID": 71957, "LAT": 25.6, "LON": 132.3, "VMAX": 95.0, "MSLP": 954.0, "RMAX": 15.0, "FSPD": 5.92666, "FDIR": 290.31653, "RENV": 270.0, "PENV": 1007.0, "VALIDT": 0, "DTG": "2026-08-24 18:00", "LATNOW": 28.1, "LONNOW": 121.0, "WINDNOW": 55.0, "DIRNOW": 7.0, "SPDNOW": 3.0, "TECH": "TRAK", "ADVNR": 39, "ATCFID": "WP172026", "NAME": "SAUDEL", "FTECH": "JTWC", "FCST_DTG": "2026-08-28 00:00:00", "RUN_DTG": "2026-08-28 16:50:39", "BASIN": "WP", "STMNR": 17, "CAT_ID": null, "CAT_DESC": null, "MSGID": "WTPN51 PGTW 280300", "VALIDTIME": "2026-08-24 18:00:00" }, "geometry": { "type": "Point", "coordinates": [ 132.300003, 25.6 ] } },
{ "type": "Feature", "properties": { "ID": 71958, "LAT": 26.0, "LON": 131.1, "VMAX": 90.0, "MSLP": 957.0, "RMAX": 15.0, "FSPD": 6.17826, "FDIR": 311.7694, "RENV": 270.0, "PENV": 1007.0, "VALIDT": 0, "DTG": "2026-08-25 00:00", "LATNOW": 28.1, "LONNOW": 121.0, "WINDNOW": 55.0, "DIRNOW": 7.0, "SPDNOW": 3.0, "TECH": "TRAK", "ADVNR": 39, "ATCFID": "WP172026", "NAME": "SAUDEL", "FTECH": "JTWC", "FCST_DTG": "2026-08-28 00:00:00", "RUN_DTG": "2026-08-28 16:50:39", "BASIN": "WP", "STMNR": 17, "CAT_ID": null, "CAT_DESC": null, "MSGID": "WTPN51 PGTW 280300", "VALIDTIME": "2026-08-25 00:00:00" }, "geometry": { "type": "Point", "coordinates": [ 131.100006, 26.0 ] } },
{ "type": "Feature", "properties": { "ID": 71959, "LAT": 26.8, "LON": 130.1, "VMAX": 80.0, "MSLP": 961.0, "RMAX": 15.0, "FSPD": 5.44588, "FDIR": 292.20123, "RENV": 270.0, "PENV": 1007.0, "VALIDT": 0, "DTG": "2026-08-25 06:00", "LATNOW": 28.1, "LONNOW": 121.0, "WINDNOW": 55.0, "DIRNOW": 7.0, "SPDNOW": 3.0, "TECH": "TRAK", "ADVNR": 39, "ATCFID": "WP172026", "NAME": "SAUDEL", "FTECH": "JTWC", "FCST_DTG": "2026-08-28 00:00:00", "RUN_DTG": "2026-08-28 16:50:39", "BASIN": "WP", "STMNR": 17, "CAT_ID": null, "CAT_DESC": null, "MSGID": "WTPN51 PGTW 280300", "VALIDTIME": "2026-08-25 06:00:00" }, "geometry": { "type": "Point", "coordinates": [ 130.100006, 26.799999 ] } },
{ "type": "Feature", "properties": { "ID": 71960, "LAT": 27.2, "LON": 129.0, "VMAX": 85.0, "MSLP": 965.0, "RMAX": 15.0, "FSPD": 4.39247, "FDIR": 290.57037, "RENV": 210.0, "PENV": 1004.0, "VALIDT": 0, "DTG": "2026-08-25 12:00", "LATNOW": 28.1, "LONNOW": 121.0, "WINDNOW": 55.0, "DIRNOW": 7.0, "SPDNOW": 3.0, "TECH": "TRAK", "ADVNR": 39, "ATCFID": "WP172026", "NAME": "SAUDEL", "FTECH": "JTWC", "FCST_DTG": "2026-08-28 00:00:00", "RUN_DTG": "2026-08-28 16:50:39", "BASIN": "WP", "STMNR": 17, "CAT_ID": null, "CAT_DESC": null, "MSGID": "WTPN51 PGTW 280300", "VALIDTIME": "2026-08-25 12:00:00" }, "geometry": { "type": "Point", "coordinates": [ 129.0, 27.200001 ] } },
{ "type": "Feature", "properties": { "ID": 71961, "LAT": 27.5, "LON": 128.1, "VMAX": 80.0, "MSLP": 963.0, "RMAX": 15.0, "FSPD": 3.95879, "FDIR": 292.94507, "RENV": 220.0, "PENV": 1006.0, "VALIDT": 0, "DTG": "2026-08-25 18:00", "LATNOW": 28.1, "LONNOW": 121.0, "WINDNOW": 55.0, "DIRNOW": 7.0, "SPDNOW": 3.0, "TECH": "TRAK", "ADVNR": 39, "ATCFID": "WP172026", "NAME": "SAUDEL", "FTECH": "JTWC", "FCST_DTG": "2026-08-28 00:00:00", "RUN_DTG": "2026-08-28 16:50:39", "BASIN": "WP", "STMNR": 17, "CAT_ID": null, "CAT_DESC": null, "MSGID": "WTPN51 PGTW 280300", "VALIDTIME": "2026-08-25 18:00:00" }, "geometry": { "type": "Point", "coordinates": [ 128.100006, 27.5 ] } },
{ "type": "Feature", "properties": { "ID": 71962, "LAT": 27.8, "LON": 127.3, "VMAX": 75.0, "MSLP": 966.0, "RMAX": 15.0, "FSPD": 4.45071, "FDIR": 305.30545, "RENV": 220.0, "PENV": 1006.0, "VALIDT": 0, "DTG": "2026-08-26 00:00", "LATNOW": 28.1, "LONNOW": 121.0, "WINDNOW": 55.0, "DIRNOW": 7.0, "SPDNOW": 3.0, "TECH": "TRAK", "ADVNR": 39, "ATCFID": "WP172026", "NAME": "SAUDEL", "FTECH": "JTWC", "FCST_DTG": "2026-08-28 00:00:00", "RUN_DTG": "2026-08-28 16:50:39", "BASIN": "WP", "STMNR": 17, "CAT_ID": null, "CAT_DESC": null, "MSGID": "WTPN51 PGTW 280300", "VALIDTIME": "2026-08-26 00:00:00" }, "geometry": { "type": "Point", "coordinates": [ 127.300003, 27.799999 ] } },
{ "type": "Feature", "properties": { "ID": 71963, "LAT": 28.3, "LON": 126.5, "VMAX": 85.0, "MSLP": 970.0, "RMAX": 15.0, "FSPD": 3.12204, "FDIR": 299.62604, "RENV": 220.0, "PENV": 1006.0, "VALIDT": 0, "DTG": "2026-08-26 06:00", "LATNOW": 28.1, "LONNOW": 121.0, "WINDNOW": 55.0, "DIRNOW": 7.0, "SPDNOW": 3.0, "TECH": "TRAK", "ADVNR": 39, "ATCFID": "WP172026", "NAME": "SAUDEL", "FTECH": "JTWC", "FCST_DTG": "2026-08-28 00:00:00", "RUN_DTG": "2026-08-28 16:50:39", "BASIN": "WP", "STMNR": 17, "CAT_ID": null, "CAT_DESC": null, "MSGID": "WTPN51 PGTW 280300", "VALIDTIME": "2026-08-26 06:00:00" }, "geometry": { "type": "Point", "coordinates": [ 126.5, 28.299999 ] } },
{ "type": "Feature", "properties": { "ID": 71964, "LAT": 28.6, "LON": 125.9, "VMAX": 80.0, "MSLP": 960.0, "RMAX": 25.0, "FSPD": 2.71003, "FDIR": 269.99997, "RENV": 260.0, "PENV": 1004.0, "VALIDT": 0, "DTG": "2026-08-26 12:00", "LATNOW": 28.1, "LONNOW": 121.0, "WINDNOW": 55.0, "DIRNOW": 7.0, "SPDNOW": 3.0, "TECH": "TRAK", "ADVNR": 39, "ATCFID": "WP172026", "NAME": "SAUDEL", "FTECH": "JTWC", "FCST_DTG": "2026-08-28 00:00:00", "RUN_DTG": "2026-08-28 16:50:39", "BASIN": "WP", "STMNR": 17, "CAT_ID": null, "CAT_DESC": null, "MSGID": "WTPN51 PGTW 280300", "VALIDTIME": "2026-08-26 12:00:00" }, "geometry": { "type": "Point", "coordinates": [ 125.900002, 28.6 ] } },
{ "type": "Feature", "properties": { "ID": 71965, "LAT": 28.6, "LON": 125.3, "VMAX": 75.0, "MSLP": 963.0, "RMAX": 20.0, "FSPD": 1.87934, "FDIR": 254.11317, "RENV": 230.0, "PENV": 1004.0, "VALIDT": 0, "DTG": "2026-08-26 18:00", "LATNOW": 28.1, "LONNOW": 121.0, "WINDNOW": 55.0, "DIRNOW": 7.0, "SPDNOW": 3.0, "TECH": "TRAK", "ADVNR": 39, "ATCFID": "WP172026", "NAME": "SAUDEL", "FTECH": "JTWC", "FCST_DTG": "2026-08-28 00:00:00", "RUN_DTG": "2026-08-28 16:50:39", "BASIN": "WP", "STMNR": 17, "CAT_ID": null, "CAT_DESC": null, "MSGID": "WTPN51 PGTW 280300", "VALIDTIME": "2026-08-26 18:00:00" }, "geometry": { "type": "Point", "coordinates": [ 125.300003, 28.6 ] } },
{ "type": "Feature", "properties": { "ID": 71966, "LAT": 28.5, "LON": 124.9, "VMAX": 75.0, "MSLP": 965.0, "RMAX": 20.0, "FSPD": 3.20776, "FDIR": 260.77127, "RENV": 215.0, "PENV": 1002.0, "VALIDT": 0, "DTG": "2026-08-27 00:00", "LATNOW": 28.1, "LONNOW": 121.0, "WINDNOW": 55.0, "DIRNOW": 7.0, "SPDNOW": 3.0, "TECH": "TRAK", "ADVNR": 39, "ATCFID": "WP172026", "NAME": "SAUDEL", "FTECH": "JTWC", "FCST_DTG": "2026-08-28 00:00:00", "RUN_DTG": "2026-08-28 16:50:39", "BASIN": "WP", "STMNR": 17, "CAT_ID": null, "CAT_DESC": null, "MSGID": "WTPN51 PGTW 280300", "VALIDTIME": "2026-08-27 00:00:00" }, "geometry": { "type": "Point", "coordinates": [ 124.900002, 28.5 ] } },
{ "type": "Feature", "properties": { "ID": 71967, "LAT": 28.4, "LON": 124.2, "VMAX": 80.0, "MSLP": 966.0, "RMAX": 17.0, "FSPD": 3.33344, "FDIR": 252.02177, "RENV": 230.0, "PENV": 1004.0, "VALIDT": 0, "DTG": "2026-08-27 06:00", "LATNOW": 28.1, "LONNOW": 121.0, "WINDNOW": 55.0, "DIRNOW": 7.0, "SPDNOW": 3.0, "TECH": "TRAK", "ADVNR": 39, "ATCFID": "WP172026", "NAME": "SAUDEL", "FTECH": "JTWC", "FCST_DTG": "2026-08-28 00:00:00", "RUN_DTG": "2026-08-28 16:50:39", "BASIN": "WP", "STMNR": 17, "CAT_ID": null, "CAT_DESC": null, "MSGID": "WTPN51 PGTW 280300", "VALIDTIME": "2026-08-27 06:00:00" }, "geometry": { "type": "Point", "coordinates": [ 124.199997, 28.4 ] } },
{ "type": "Feature", "properties": { "ID": 71968, "LAT": 28.2, "LON": 123.5, "VMAX": 75.0, "MSLP": 962.0, "RMAX": 25.0, "FSPD": 4.11464, "FDIR": 262.81757, "RENV": 260.0, "PENV": 1003.0, "VALIDT": 0, "DTG": "2026-08-27 12:00", "LATNOW": 28.1, "LONNOW": 121.0, "WINDNOW": 55.0, "DIRNOW": 7.0, "SPDNOW": 3.0, "TECH": "TRAK", "ADVNR": 39, "ATCFID": "WP172026", "NAME": "SAUDEL", "FTECH": "JTWC", "FCST_DTG": "2026-08-28 00:00:00", "RUN_DTG": "2026-08-28 16:50:39", "BASIN": "WP", "STMNR": 17, "CAT_ID": null, "CAT_DESC": null, "MSGID": "WTPN51 PGTW 280300", "VALIDTIME": "2026-08-27 12:00:00" }, "geometry": { "type": "Point", "coordinates": [ 123.5, 28.200001 ] } },
{ "type": "Feature", "properties": { "ID": 71969, "LAT": 28.1, "LON": 122.6, "VMAX": 70.0, "MSLP": 965.0, "RMAX": 20.0, "FSPD": 7.26088, "FDIR": 269.99997, "RENV": 250.0, "PENV": 1002.0, "VALIDT": 0, "DTG": "2026-08-27 18:00", "LATNOW": 28.1, "LONNOW": 121.0, "WINDNOW": 55.0, "DIRNOW": 7.0, "SPDNOW": 3.0, "TECH": "TRAK", "ADVNR": 39, "ATCFID": "WP172026", "NAME": "SAUDEL", "FTECH": "JTWC", "FCST_DTG": "2026-08-28 00:00:00", "RUN_DTG": "2026-08-28 16:50:39", "BASIN": "WP", "STMNR": 17, "CAT_ID": null, "CAT_DESC": null, "MSGID": "WTPN51 PGTW 280300", "VALIDTIME": "2026-08-27 18:00:00" }, "geometry": { "type": "Point", "coordinates": [ 122.599998, 28.1 ] } },
{ "type": "Feature", "properties": { "ID": 71970, "LAT": 28.1, "LON": 121.0, "VMAX": 55.0, "MSLP": 999.55927, "RMAX": 37.26371, "FSPD": 6.60636, "FDIR": 265.53375, "RENV": 500.0, "PENV": 1012.0, "VALIDT": 0, "DTG": "2026-08-28 00:00", "LATNOW": 28.1, "LONNOW": 121.0, "WINDNOW": 55.0, "DIRNOW": 7.0, "SPDNOW": 3.0, "TECH": "TRAK", "ADVNR": 39, "ATCFID": "WP172026", "NAME": "SAUDEL", "FTECH": "JTWC", "FCST_DTG": "2026-08-28 00:00:00", "RUN_DTG": "2026-08-28 16:50:39", "BASIN": "WP", "STMNR": 17, "CAT_ID": null, "CAT_DESC": null, "MSGID": "WTPN51 PGTW 280300", "VALIDTIME": "2026-08-28 00:00:00" }, "geometry": { "type": "Point", "coordinates": [ 121.0, 28.1 ] } },
{ "type": "Feature", "properties": { "ID": 71971, "LAT": 27.9, "LON": 118.1, "VMAX": 30.0, "MSLP": 1010.40607, "RMAX": 44.21983, "FSPD": 5.78579, "FDIR": 259.7566, "RENV": 250.0, "PENV": 1012.0, "VALIDT": 12, "DTG": "2026-08-28 12:00", "LATNOW": 28.1, "LONNOW": 121.0, "WINDNOW": 55.0, "DIRNOW": 7.0, "SPDNOW": 3.0, "TECH": "FCST", "ADVNR": 39, "ATCFID": "WP172026", "NAME": "SAUDEL", "FTECH": "JTWC", "FCST_DTG": "2026-08-28 00:00:00", "RUN_DTG": "2026-08-28 16:50:39", "BASIN": "WP", "STMNR": 17, "CAT_ID": null, "CAT_DESC": null, "MSGID": "WTPN51 PGTW 280300", "VALIDTIME": "2026-08-28 12:00:00" }, "geometry": { "type": "Point", "coordinates": [ 118.099998, 27.9 ] } },
{ "type": "Feature", "properties": { "ID": 71972, "LAT": 27.5, "LON": 115.6, "VMAX": 20.0, "MSLP": 1012.95825, "RMAX": 45.0, "FSPD": 5.78579, "FDIR": 259.7566, "RENV": 250.0, "PENV": 1012.0, "VALIDT": 24, "DTG": "2026-08-29 00:00", "LATNOW": 28.1, "LONNOW": 121.0, "WINDNOW": 55.0, "DIRNOW": 7.0, "SPDNOW": 3.0, "TECH": "FCST", "ADVNR": 39, "ATCFID": "WP172026", "NAME": "SAUDEL", "FTECH": "JTWC", "FCST_DTG": "2026-08-28 00:00:00", "RUN_DTG": "2026-08-28 16:50:39", "BASIN": "WP", "STMNR": 17, "CAT_ID": null, "CAT_DESC": null, "MSGID": "WTPN51 PGTW 280300", "VALIDTIME": "2026-08-29 00:00:00" }, "geometry": { "type": "Point", "coordinates": [ 115.599998, 27.5 ] } },
{ "type": "Feature", "properties": { "ID": 71970, "LAT": 28.1, "LON": 121.0, "VMAX": 55.0, "MSLP": 999.55927, "RMAX": 37.26371, "FSPD": 6.60636, "FDIR": 265.53375, "RENV": 500.0, "PENV": 1012.0, "VALIDT": 0, "DTG": "2026-08-28 00:00", "LATNOW": 28.1, "LONNOW": 121.0, "WINDNOW": 55.0, "DIRNOW": 7.0, "SPDNOW": 3.0, "TECH": "TRAK", "ADVNR": 39, "ATCFID": "WP172026", "NAME": "SAUDEL", "FTECH": "JTWC", "FCST_DTG": "2026-08-28 00:00:00", "RUN_DTG": "2026-08-28 16:50:39", "BASIN": "WP", "STMNR": 17, "CAT_ID": null, "CAT_DESC": null, "MSGID": "WTPN51 PGTW 280300", "VALIDTIME": "2026-08-28 00:00:00" }, "geometry": { "type": "LineString", "coordinates": [ [ 155.6, 11.2 ], [ 156.1, 10.5 ], [ 156.8, 9.9 ], [ 157.8, 9.2 ], [ 156.7, 8.6 ], [ 155.7, 8.1 ], [ 155.3, 7.9 ], [ 155.1, 7.9 ], [ 154.9, 7.9 ], [ 154.6, 8.3 ], [ 154.2, 8.0 ], [ 154.1, 8.5 ], [ 153.7, 9.4 ], [ 152.8, 10.5 ], [ 151.6, 11.4 ], [ 150.9, 11.9 ], [ 150.2, 12.8 ], [ 149.6, 13.7 ], [ 149.0, 14.7 ], [ 148.5, 14.9 ], [ 148.1, 16.0 ], [ 147.3, 17.1 ], [ 146.5, 17.9 ], [ 145.8, 18.6 ], [ 144.8, 19.6 ], [ 143.6, 20.4 ], [ 142.3, 21.0 ], [ 140.9, 21.9 ], [ 139.4, 22.6 ], [ 137.9, 23.2 ], [ 136.3, 23.9 ], [ 134.7, 24.5 ], [ 133.5, 24.9 ], [ 132.3, 25.6 ], [ 131.1, 26.0 ], [ 130.1, 26.8 ], [ 129.0, 27.2 ], [ 128.1, 27.5 ], [ 127.3, 27.8 ], [ 126.5, 28.3 ], [ 125.9, 28.6 ], [ 125.3, 28.6 ], [ 124.9, 28.5 ], [ 124.2, 28.4 ], [ 123.5, 28.2 ], [ 122.6, 28.1 ], [ 121.0, 28.1 ] ] } },
{ "type": "Feature", "properties": { "ID": 71972, "LAT": 27.5, "LON": 115.6, "VMAX": 20.0, "MSLP": 1012.95825, "RMAX": 45.0, "FSPD": 5.78579, "FDIR": 259.7566, "RENV": 250.0, "PENV": 1012.0, "VALIDT": 24, "DTG": "2026-08-29 00:00", "LATNOW": 28.1, "LONNOW": 121.0, "WINDNOW": 55.0, "DIRNOW": 7.0, "SPDNOW": 3.0, "TECH": "FCST", "ADVNR": 39, "ATCFID": "WP172026", "NAME": "SAUDEL", "FTECH": "JTWC", "FCST_DTG": "2026-08-28 00:00:00", "RUN_DTG": "2026-08-28 16:50:39", "BASIN": "WP", "STMNR": 17, "CAT_ID": null, "CAT_DESC": null, "MSGID": "WTPN51 PGTW 280300", "VALIDTIME": "2026-08-29 00:00:00" }, "geometry": { "type": "LineString", "coordinates": [ [ 121.0, 28.1 ], [ 118.1, 27.9 ], [ 115.6, 27.5 ] ] } }
]
}
