{
"type": "FeatureCollection",
"crs": { "type": "name", "properties": { "name": "urn:ogc:def:crs:OGC:1.3:CRS84" } },
"features": [
{ "type": "Feature", "properties": { "ID": 253877, "LAT": 18.0, "LON": -106.4, "VMAX": 30.0, "MSLP": 1006.0, "RMAX": 90.0, "FSPD": 1.79316, "FDIR": 234.98518, "RENV": 180.0, "PENV": 1008.0, "VALIDT": 0, "DTG": "2024-09-11 18:00", "LATNOW": 25.5, "LONNOW": -109.5, "WINDNOW": 30.0, "DIRNOW": 2.0, "SPDNOW": 2.0, "TECH": "TRAK", "ADVNR": 13, "ATCFID": "EP092024", "NAME": "ILEANA", "FTECH": "OFCL", "FCST_DTG": "2024-09-15 12:00:00", "RUN_DTG": "2024-09-16 03:48:21", "BASIN": "EP", "STMNR": 9, "CAT_ID": null, "CAT_DESC": null, "MSGID": "WTPZ24 KNHC 151438", "VALIDTIME": "2024-09-11 18:00:00" }, "geometry": { "type": "Point", "coordinates": [ -106.400002, 18.0 ] } },
{ "type": "Feature", "properties": { "ID": 253878, "LAT": 17.8, "LON": -106.7, "VMAX": 30.0, "MSLP": 1006.0, "RMAX": 90.0, "FSPD": 3.11228, "FDIR": 289.3047, "RENV": 180.0, "PENV": 1008.0, "VALIDT": 0, "DTG": "2024-09-12 00:00", "LATNOW": 25.5, "LONNOW": -109.5, "WINDNOW": 30.0, "DIRNOW": 2.0, "SPDNOW": 2.0, "TECH": "TRAK", "ADVNR": 13, "ATCFID": "EP092024", "NAME": "ILEANA", "FTECH": "OFCL", "FCST_DTG": "2024-09-15 12:00:00", "RUN_DTG": "2024-09-16 03:48:21", "BASIN": "EP", "STMNR": 9, "CAT_ID": null, "CAT_DESC": null, "MSGID": "WTPZ24 KNHC 151438", "VALIDTIME": "2024-09-12 00:00:00" }, "geometry": { "type": "Point", "coordinates": [ -106.699997, 17.799999 ] } },
{ "type": "Feature", "properties": { "ID": 253879, "LAT": 18.0, "LON": -107.3, "VMAX": 30.0, "MSLP": 1004.0, "RMAX": 90.0, "FSPD": 4.1444, "FDIR": 353.23587, "RENV": 180.0, "PENV": 1008.0, "VALIDT": 0, "DTG": "2024-09-12 06:00", "LATNOW": 25.5, "LONNOW": -109.5, "WINDNOW": 30.0, "DIRNOW": 2.0, "SPDNOW": 2.0, "TECH": "TRAK", "ADVNR": 13, "ATCFID": "EP092024", "NAME": "ILEANA", "FTECH": "OFCL", "FCST_DTG": "2024-09-15 12:00:00", "RUN_DTG": "2024-09-16 03:48:21", "BASIN": "EP", "STMNR": 9, "CAT_ID": null, "CAT_DESC": null, "MSGID": "WTPZ24 KNHC 151438", "VALIDTIME": "2024-09-12 06:00:00" }, "geometry": { "type": "Point", "coordinates": [ -107.300003, 18.0 ] } },
{ "type": "Feature", "properties": { "ID": 253880, "LAT": 18.8, "LON": -107.4, "VMAX": 30.0, "MSLP": 1002.0, "RMAX": 90.0, "FSPD": 3.88504, "FDIR": 337.95947, "RENV": 180.0, "PENV": 1006.0, "VALIDT": 0, "DTG": "2024-09-12 12:00", "LATNOW": 25.5, "LONNOW": -109.5, "WINDNOW": 30.0, "DIRNOW": 2.0, "SPDNOW": 2.0, "TECH": "TRAK", "ADVNR": 13, "ATCFID": "EP092024", "NAME": "ILEANA", "FTECH": "OFCL", "FCST_DTG": "2024-09-15 12:00:00", "RUN_DTG": "2024-09-16 03:48:21", "BASIN": "EP", "STMNR": 9, "CAT_ID": null, "CAT_DESC": null, "MSGID": "WTPZ24 KNHC 151438", "VALIDTIME": "2024-09-12 12:00:00" }, "geometry": { "type": "Point", "coordinates": [ -107.400002, 18.799999 ] } },
{ "type": "Feature", "properties": { "ID": 253881, "LAT": 19.5, "LON": -107.7, "VMAX": 35.0, "MSLP": 1001.0, "RMAX": 80.0, "FSPD": 6.35853, "FDIR": 332.86932, "RENV": 170.0, "PENV": 1006.0, "VALIDT": 0, "DTG": "2024-09-12 18:00", "LATNOW": 25.5, "LONNOW": -109.5, "WINDNOW": 30.0, "DIRNOW": 2.0, "SPDNOW": 2.0, "TECH": "TRAK", "ADVNR": 13, "ATCFID": "EP092024", "NAME": "ILEANA", "FTECH": "OFCL", "FCST_DTG": "2024-09-15 12:00:00", "RUN_DTG": "2024-09-16 03:48:21", "BASIN": "EP", "STMNR": 9, "CAT_ID": null, "CAT_DESC": null, "MSGID": "WTPZ24 KNHC 151438", "VALIDTIME": "2024-09-12 18:00:00" }, "geometry": { "type": "Point", "coordinates": [ -107.699997, 19.5 ] } },
{ "type": "Feature", "properties": { "ID": 253882, "LAT": 20.6, "LON": -108.3, "VMAX": 40.0, "MSLP": 999.0, "RMAX": 60.0, "FSPD": 3.63634, "FDIR": 328.08563, "RENV": 180.0, "PENV": 1006.0, "VALIDT": 0, "DTG": "2024-09-13 00:00", "LATNOW": 25.5, "LONNOW": -109.5, "WINDNOW": 30.0, "DIRNOW": 2.0, "SPDNOW": 2.0, "TECH": "TRAK", "ADVNR": 13, "ATCFID": "EP092024", "NAME": "ILEANA", "FTECH": "OFCL", "FCST_DTG": "2024-09-15 12:00:00", "RUN_DTG": "2024-09-16 03:48:21", "BASIN": "EP", "STMNR": 9, "CAT_ID": null, "CAT_DESC": null, "MSGID": "WTPZ24 KNHC 151438", "VALIDTIME": "2024-09-13 00:00:00" }, "geometry": { "type": "Point", "coordinates": [ -108.300003, 20.6 ] } },
{ "type": "Feature", "properties": { "ID": 253883, "LAT": 21.2, "LON": -108.7, "VMAX": 40.0, "MSLP": 999.0, "RMAX": 40.0, "FSPD": 4.07813, "FDIR": 332.00992, "RENV": 180.0, "PENV": 1006.0, "VALIDT": 0, "DTG": "2024-09-13 06:00", "LATNOW": 25.5, "LONNOW": -109.5, "WINDNOW": 30.0, "DIRNOW": 2.0, "SPDNOW": 2.0, "TECH": "TRAK", "ADVNR": 13, "ATCFID": "EP092024", "NAME": "ILEANA", "FTECH": "OFCL", "FCST_DTG": "2024-09-15 12:00:00", "RUN_DTG": "2024-09-16 03:48:21", "BASIN": "EP", "STMNR": 9, "CAT_ID": null, "CAT_DESC": null, "MSGID": "WTPZ24 KNHC 151438", "VALIDTIME": "2024-09-13 06:00:00" }, "geometry": { "type": "Point", "coordinates": [ -108.699997, 21.200001 ] } },
{ "type": "Feature", "properties": { "ID": 253884, "LAT": 21.9, "LON": -109.1, "VMAX": 40.0, "MSLP": 999.0, "RMAX": 40.0, "FSPD": 2.11226, "FDIR": 346.95862, "RENV": 180.0, "PENV": 1006.0, "VALIDT": 0, "DTG": "2024-09-13 12:00", "LATNOW": 25.5, "LONNOW": -109.5, "WINDNOW": 30.0, "DIRNOW": 2.0, "SPDNOW": 2.0, "TECH": "TRAK", "ADVNR": 13, "ATCFID": "EP092024", "NAME": "ILEANA", "FTECH": "OFCL", "FCST_DTG": "2024-09-15 12:00:00", "RUN_DTG": "2024-09-16 03:48:21", "BASIN": "EP", "STMNR": 9, "CAT_ID": null, "CAT_DESC": null, "MSGID": "WTPZ24 KNHC 151438", "VALIDTIME": "2024-09-13 12:00:00" }, "geometry": { "type": "Point", "coordinates": [ -109.099998, 21.9 ] } },
{ "type": "Feature", "properties": { "ID": 253885, "LAT": 22.3, "LON": -109.2, "VMAX": 40.0, "MSLP": 1000.0, "RMAX": 40.0, "FSPD": 4.14284, "FDIR": 353.42145, "RENV": 180.0, "PENV": 1008.0, "VALIDT": 0, "DTG": "2024-09-13 18:00", "LATNOW": 25.5, "LONNOW": -109.5, "WINDNOW": 30.0, "DIRNOW": 2.0, "SPDNOW": 2.0, "TECH": "TRAK", "ADVNR": 13, "ATCFID": "EP092024", "NAME": "ILEANA", "FTECH": "OFCL", "FCST_DTG": "2024-09-15 12:00:00", "RUN_DTG": "2024-09-16 03:48:21", "BASIN": "EP", "STMNR": 9, "CAT_ID": null, "CAT_DESC": null, "MSGID": "WTPZ24 KNHC 151438", "VALIDTIME": "2024-09-13 18:00:00" }, "geometry": { "type": "Point", "coordinates": [ -109.199997, 22.299999 ] } },
{ "type": "Feature", "properties": { "ID": 253886, "LAT": 23.1, "LON": -109.3, "VMAX": 35.0, "MSLP": 1001.0, "RMAX": 40.0, "FSPD": 4.14251, "FDIR": 6.53979, "RENV": 130.0, "PENV": 1007.0, "VALIDT": 0, "DTG": "2024-09-14 00:00", "LATNOW": 25.5, "LONNOW": -109.5, "WINDNOW": 30.0, "DIRNOW": 2.0, "SPDNOW": 2.0, "TECH": "TRAK", "ADVNR": 13, "ATCFID": "EP092024", "NAME": "ILEANA", "FTECH": "OFCL", "FCST_DTG": "2024-09-15 12:00:00", "RUN_DTG": "2024-09-16 03:48:21", "BASIN": "EP", "STMNR": 9, "CAT_ID": null, "CAT_DESC": null, "MSGID": "WTPZ24 KNHC 151438", "VALIDTIME": "2024-09-14 00:00:00" }, "geometry": { "type": "Point", "coordinates": [ -109.300003, 23.1 ] } },
{ "type": "Feature", "properties": { "ID": 253887, "LAT": 23.9, "LON": -109.2, "VMAX": 35.0, "MSLP": 1003.0, "RMAX": 40.0, "FSPD": 4.14218, "FDIR": 6.4993, "RENV": 70.0, "PENV": 1008.0, "VALIDT": 0, "DTG": "2024-09-14 06:00", "LATNOW": 25.5, "LONNOW": -109.5, "WINDNOW": 30.0, "DIRNOW": 2.0, "SPDNOW": 2.0, "TECH": "TRAK", "ADVNR": 13, "ATCFID": "EP092024", "NAME": "ILEANA", "FTECH": "OFCL", "FCST_DTG": "2024-09-15 12:00:00", "RUN_DTG": "2024-09-16 03:48:21", "BASIN": "EP", "STMNR": 9, "CAT_ID": null, "CAT_DESC": null, "MSGID": "WTPZ24 KNHC 151438", "VALIDTIME": "2024-09-14 06:00:00" }, "geometry": { "type": "Point", "coordinates": [ -109.199997, 23.9 ] } },
{ "type": "Feature", "properties": { "ID": 253888, "LAT": 24.7, "LON": -109.1, "VMAX": 35.0, "MSLP": 1002.0, "RMAX": 40.0, "FSPD": 3.22443, "FDIR": 16.80951, "RENV": 70.0, "PENV": 1008.0, "VALIDT": 0, "DTG": "2024-09-14 12:00", "LATNOW": 25.5, "LONNOW": -109.5, "WINDNOW": 30.0, "DIRNOW": 2.0, "SPDNOW": 2.0, "TECH": "TRAK", "ADVNR": 13, "ATCFID": "EP092024", "NAME": "ILEANA", "FTECH": "OFCL", "FCST_DTG": "2024-09-15 12:00:00", "RUN_DTG": "2024-09-16 03:48:21", "BASIN": "EP", "STMNR": 9, "CAT_ID": null, "CAT_DESC": null, "MSGID": "WTPZ24 KNHC 151438", "VALIDTIME": "2024-09-14 12:00:00" }, "geometry": { "type": "Point", "coordinates": [ -109.099998, 24.700001 ] } },
{ "type": "Feature", "properties": { "ID": 253889, "LAT": 25.3, "LON": -108.9, "VMAX": 35.0, "MSLP": 1002.0, "RMAX": 40.0, "FSPD": 0.69339, "FDIR": 317.89612, "RENV": 70.0, "PENV": 1008.0, "VALIDT": 0, "DTG": "2024-09-14 18:00", "LATNOW": 25.5, "LONNOW": -109.5, "WINDNOW": 30.0, "DIRNOW": 2.0, "SPDNOW": 2.0, "TECH": "TRAK", "ADVNR": 13, "ATCFID": "EP092024", "NAME": "ILEANA", "FTECH": "OFCL", "FCST_DTG": "2024-09-15 12:00:00", "RUN_DTG": "2024-09-16 03:48:21", "BASIN": "EP", "STMNR": 9, "CAT_ID": null, "CAT_DESC": null, "MSGID": "WTPZ24 KNHC 151438", "VALIDTIME": "2024-09-14 18:00:00" }, "geometry": { "type": "Point", "coordinates": [ -108.900002, 25.299999 ] } },
{ "type": "Feature", "properties": { "ID": 253890, "LAT": 25.4, "LON": -109.0, "VMAX": 40.0, "MSLP": 1000.0, "RMAX": 20.0, "FSPD": 1.39416, "FDIR": 269.99997, "RENV": 70.0, "PENV": 1007.0, "VALIDT": 0, "DTG": "2024-09-15 00:00", "LATNOW": 25.5, "LONNOW": -109.5, "WINDNOW": 30.0, "DIRNOW": 2.0, "SPDNOW": 2.0, "TECH": "TRAK", "ADVNR": 13, "ATCFID": "EP092024", "NAME": "ILEANA", "FTECH": "OFCL", "FCST_DTG": "2024-09-15 12:00:00", "RUN_DTG": "2024-09-16 03:48:21", "BASIN": "EP", "STMNR": 9, "CAT_ID": null, "CAT_DESC": null, "MSGID": "WTPZ24 KNHC 151438", "VALIDTIME": "2024-09-15 00:00:00" }, "geometry": { "type": "Point", "coordinates": [ -109.0, 25.4 ] } },
{ "type": "Feature", "properties": { "ID": 253891, "LAT": 25.4, "LON": -109.3, "VMAX": 30.0, "MSLP": 1006.0, "RMAX": 40.0, "FSPD": 1.06196, "FDIR": 298.97522, "RENV": 50.0, "PENV": 1009.0, "VALIDT": 0, "DTG": "2024-09-15 06:00", "LATNOW": 25.5, "LONNOW": -109.5, "WINDNOW": 30.0, "DIRNOW": 2.0, "SPDNOW": 2.0, "TECH": "TRAK", "ADVNR": 13, "ATCFID": "EP092024", "NAME": "ILEANA", "FTECH": "OFCL", "FCST_DTG": "2024-09-15 12:00:00", "RUN_DTG": "2024-09-16 03:48:21", "BASIN": "EP", "STMNR": 9, "CAT_ID": null, "CAT_DESC": null, "MSGID": "WTPZ24 KNHC 151438", "VALIDTIME": "2024-09-15 06:00:00" }, "geometry": { "type": "Point", "coordinates": [ -109.300003, 25.4 ] } },
{ "type": "Feature", "properties": { "ID": 253892, "LAT": 25.5, "LON": -109.5, "VMAX": 30.0, "MSLP": 1006.0, "RMAX": 40.0, "FSPD": 2.25731, "FDIR": 335.729, "RENV": 50.0, "PENV": 1009.0, "VALIDT": 0, "DTG": "2024-09-15 12:00", "LATNOW": 25.5, "LONNOW": -109.5, "WINDNOW": 30.0, "DIRNOW": 2.0, "SPDNOW": 2.0, "TECH": "TRAK", "ADVNR": 13, "ATCFID": "EP092024", "NAME": "ILEANA", "FTECH": "OFCL", "FCST_DTG": "2024-09-15 12:00:00", "RUN_DTG": "2024-09-16 03:48:21", "BASIN": "EP", "STMNR": 9, "CAT_ID": null, "CAT_DESC": null, "MSGID": "WTPZ24 KNHC 151438", "VALIDTIME": "2024-09-15 12:00:00" }, "geometry": { "type": "Point", "coordinates": [ -109.5, 25.5 ] } },
{ "type": "Feature", "properties": { "ID": 253893, "LAT": 25.7, "LON": -109.6, "VMAX": 30.0, "MSLP": 1006.0, "RMAX": 40.0, "FSPD": 2.06434, "FDIR": 311.64746, "RENV": 250.0, "PENV": 1012.0, "VALIDT": 3, "DTG": "2024-09-15 15:00", "LATNOW": 25.5, "LONNOW": -109.5, "WINDNOW": 30.0, "DIRNOW": 2.0, "SPDNOW": 2.0, "TECH": "FCST", "ADVNR": 13, "ATCFID": "EP092024", "NAME": "ILEANA", "FTECH": "OFCL", "FCST_DTG": "2024-09-15 12:00:00", "RUN_DTG": "2024-09-16 03:48:21", "BASIN": "EP", "STMNR": 9, "CAT_ID": null, "CAT_DESC": null, "MSGID": "WTPZ24 KNHC 151438", "VALIDTIME": "2024-09-15 15:00:00" }, "geometry": { "type": "Point", "coordinates": [ -109.599998, 25.700001 ] } },
{ "type": "Feature", "properties": { "ID": 253894, "LAT": 26.1, "LON": -110.1, "VMAX": 25.0, "MSLP": 1011.80975, "RMAX": 44.20782, "FSPD": 3.71548, "FDIR": 326.1767, "RENV": 250.0, "PENV": 1012.0, "VALIDT": 12, "DTG": "2024-09-16 00:00", "LATNOW": 25.5, "LONNOW": -109.5, "WINDNOW": 30.0, "DIRNOW": 2.0, "SPDNOW": 2.0, "TECH": "FCST", "ADVNR": 13, "ATCFID": "EP092024", "NAME": "ILEANA", "FTECH": "OFCL", "FCST_DTG": "2024-09-15 12:00:00", "RUN_DTG": "2024-09-16 03:48:21", "BASIN": "EP", "STMNR": 9, "CAT_ID": null, "CAT_DESC": null, "MSGID": "WTPZ24 KNHC 151438", "VALIDTIME": "2024-09-16 00:00:00" }, "geometry": { "type": "Point", "coordinates": [ -110.099998, 26.1 ] } },
{ "type": "Feature", "properties": { "ID": 253895, "LAT": 27.3, "LON": -111.0, "VMAX": 20.0, "MSLP": 1012.95825, "RMAX": 44.20782, "FSPD": 3.71548, "FDIR": 326.1767, "RENV": 250.0, "PENV": 1012.0, "VALIDT": 24, "DTG": "2024-09-16 12:00", "LATNOW": 25.5, "LONNOW": -109.5, "WINDNOW": 30.0, "DIRNOW": 2.0, "SPDNOW": 2.0, "TECH": "FCST", "ADVNR": 13, "ATCFID": "EP092024", "NAME": "ILEANA", "FTECH": "OFCL", "FCST_DTG": "2024-09-15 12:00:00", "RUN_DTG": "2024-09-16 03:48:21", "BASIN": "EP", "STMNR": 9, "CAT_ID": null, "CAT_DESC": null, "MSGID": "WTPZ24 KNHC 151438", "VALIDTIME": "2024-09-16 12:00:00" }, "geometry": { "type": "Point", "coordinates": [ -111.0, 27.299999 ] } },
{ "type": "Feature", "properties": { "ID": 253892, "LAT": 25.5, "LON": -109.5, "VMAX": 30.0, "MSLP": 1006.0, "RMAX": 40.0, "FSPD": 2.25731, "FDIR": 335.729, "RENV": 50.0, "PENV": 1009.0, "VALIDT": 0, "DTG": "2024-09-15 12:00", "LATNOW": 25.5, "LONNOW": -109.5, "WINDNOW": 30.0, "DIRNOW": 2.0, "SPDNOW": 2.0, "TECH": "TRAK", "ADVNR": 13, "ATCFID": "EP092024", "NAME": "ILEANA", "FTECH": "OFCL", "FCST_DTG": "2024-09-15 12:00:00", "RUN_DTG": "2024-09-16 03:48:21", "BASIN": "EP", "STMNR": 9, "CAT_ID": null, "CAT_DESC": null, "MSGID": "WTPZ24 KNHC 151438", "VALIDTIME": "2024-09-15 12:00:00" }, "geometry": { "type": "LineString", "coordinates": [ [ -106.4, 18.0 ], [ -106.7, 17.8 ], [ -107.3, 18.0 ], [ -107.4, 18.8 ], [ -107.7, 19.5 ], [ -108.3, 20.6 ], [ -108.7, 21.2 ], [ -109.1, 21.9 ], [ -109.2, 22.3 ], [ -109.3, 23.1 ], [ -109.2, 23.9 ], [ -109.1, 24.7 ], [ -108.9, 25.3 ], [ -109.0, 25.4 ], [ -109.3, 25.4 ], [ -109.5, 25.5 ] ] } },
{ "type": "Feature", "properties": { "ID": 253895, "LAT": 27.3, "LON": -111.0, "VMAX": 20.0, "MSLP": 1012.95825, "RMAX": 44.20782, "FSPD": 3.71548, "FDIR": 326.1767, "RENV": 250.0, "PENV": 1012.0, "VALIDT": 24, "DTG": "2024-09-16 12:00", "LATNOW": 25.5, "LONNOW": -109.5, "WINDNOW": 30.0, "DIRNOW": 2.0, "SPDNOW": 2.0, "TECH": "FCST", "ADVNR": 13, "ATCFID": "EP092024", "NAME": "ILEANA", "FTECH": "OFCL", "FCST_DTG": "2024-09-15 12:00:00", "RUN_DTG": "2024-09-16 03:48:21", "BASIN": "EP", "STMNR": 9, "CAT_ID": null, "CAT_DESC": null, "MSGID": "WTPZ24 KNHC 151438", "VALIDTIME": "2024-09-16 12:00:00" }, "geometry": { "type": "LineString", "coordinates": [ [ -109.5, 25.5 ], [ -109.6, 25.7 ], [ -110.1, 26.1 ], [ -111.0, 27.3 ] ] } }
]
}
