{
"type": "FeatureCollection",
"crs": { "type": "name", "properties": { "name": "urn:ogc:def:crs:OGC:1.3:CRS84" } },
"features": [
{ "type": "Feature", "properties": { "ID": 233052, "LAT": 24.4, "LON": 147.0, "VMAX": 15.0, "MSLP": 1013.8515, "RMAX": 40.0, "FSPD": 3.78165, "FDIR": 82.1814, "RENV": 500.0, "PENV": 1012.0, "VALIDT": 0, "DTG": "2024-08-11 12:00", "LATNOW": 36.0, "LONNOW": 146.5, "WINDNOW": 20.0, "DIRNOW": 9.0, "SPDNOW": 1.0, "TECH": "TRAK", "ADVNR": 9, "ATCFID": "WP092024", "NAME": "WUKONG", "FTECH": "JTWC", "FCST_DTG": "2024-08-15 00:00:00", "RUN_DTG": "2024-08-15 16:05:28", "BASIN": "WP", "STMNR": 9, "CAT_ID": null, "CAT_DESC": null, "MSGID": "WTPN54 PGTW 150300", "VALIDTIME": "2024-08-11 12:00:00" }, "geometry": { "type": "Point", "coordinates": [ 147.0, 24.4 ] } },
{ "type": "Feature", "properties": { "ID": 233053, "LAT": 24.5, "LON": 147.8, "VMAX": 15.0, "MSLP": 1013.8515, "RMAX": 40.0, "FSPD": 2.98913, "FDIR": 69.8663, "RENV": 500.0, "PENV": 1012.0, "VALIDT": 0, "DTG": "2024-08-11 18:00", "LATNOW": 36.0, "LONNOW": 146.5, "WINDNOW": 20.0, "DIRNOW": 9.0, "SPDNOW": 1.0, "TECH": "TRAK", "ADVNR": 9, "ATCFID": "WP092024", "NAME": "WUKONG", "FTECH": "JTWC", "FCST_DTG": "2024-08-15 00:00:00", "RUN_DTG": "2024-08-15 16:05:28", "BASIN": "WP", "STMNR": 9, "CAT_ID": null, "CAT_DESC": null, "MSGID": "WTPN54 PGTW 150300", "VALIDTIME": "2024-08-11 18:00:00" }, "geometry": { "type": "Point", "coordinates": [ 147.800003, 24.5 ] } },
{ "type": "Feature", "properties": { "ID": 233054, "LAT": 24.7, "LON": 148.4, "VMAX": 15.0, "MSLP": 1013.8515, "RMAX": 40.0, "FSPD": 4.28931, "FDIR": 32.90689, "RENV": 500.0, "PENV": 1012.0, "VALIDT": 0, "DTG": "2024-08-12 00:00", "LATNOW": 36.0, "LONNOW": 146.5, "WINDNOW": 20.0, "DIRNOW": 9.0, "SPDNOW": 1.0, "TECH": "TRAK", "ADVNR": 9, "ATCFID": "WP092024", "NAME": "WUKONG", "FTECH": "JTWC", "FCST_DTG": "2024-08-15 00:00:00", "RUN_DTG": "2024-08-15 16:05:28", "BASIN": "WP", "STMNR": 9, "CAT_ID": null, "CAT_DESC": null, "MSGID": "WTPN54 PGTW 150300", "VALIDTIME": "2024-08-12 00:00:00" }, "geometry": { "type": "Point", "coordinates": [ 148.399994, 24.700001 ] } },
{ "type": "Feature", "properties": { "ID": 233055, "LAT": 25.4, "LON": 148.9, "VMAX": 15.0, "MSLP": 1013.8515, "RMAX": 40.0, "FSPD": 3.46308, "FDIR": 42.03323, "RENV": 500.0, "PENV": 1012.0, "VALIDT": 0, "DTG": "2024-08-12 06:00", "LATNOW": 36.0, "LONNOW": 146.5, "WINDNOW": 20.0, "DIRNOW": 9.0, "SPDNOW": 1.0, "TECH": "TRAK", "ADVNR": 9, "ATCFID": "WP092024", "NAME": "WUKONG", "FTECH": "JTWC", "FCST_DTG": "2024-08-15 00:00:00", "RUN_DTG": "2024-08-15 16:05:28", "BASIN": "WP", "STMNR": 9, "CAT_ID": null, "CAT_DESC": null, "MSGID": "WTPN54 PGTW 150300", "VALIDTIME": "2024-08-12 06:00:00" }, "geometry": { "type": "Point", "coordinates": [ 148.899994, 25.4 ] } },
{ "type": "Feature", "properties": { "ID": 233056, "LAT": 25.9, "LON": 149.4, "VMAX": 20.0, "MSLP": 1012.95825, "RMAX": 45.0, "FSPD": 3.16677, "FDIR": 35.68329, "RENV": 500.0, "PENV": 1012.0, "VALIDT": 0, "DTG": "2024-08-12 12:00", "LATNOW": 36.0, "LONNOW": 146.5, "WINDNOW": 20.0, "DIRNOW": 9.0, "SPDNOW": 1.0, "TECH": "TRAK", "ADVNR": 9, "ATCFID": "WP092024", "NAME": "WUKONG", "FTECH": "JTWC", "FCST_DTG": "2024-08-15 00:00:00", "RUN_DTG": "2024-08-15 16:05:28", "BASIN": "WP", "STMNR": 9, "CAT_ID": null, "CAT_DESC": null, "MSGID": "WTPN54 PGTW 150300", "VALIDTIME": "2024-08-12 12:00:00" }, "geometry": { "type": "Point", "coordinates": [ 149.399994, 25.9 ] } },
{ "type": "Feature", "properties": { "ID": 233057, "LAT": 26.4, "LON": 149.8, "VMAX": 20.0, "MSLP": 1012.95825, "RMAX": 45.0, "FSPD": 3.16208, "FDIR": 35.56476, "RENV": 500.0, "PENV": 1012.0, "VALIDT": 0, "DTG": "2024-08-12 18:00", "LATNOW": 36.0, "LONNOW": 146.5, "WINDNOW": 20.0, "DIRNOW": 9.0, "SPDNOW": 1.0, "TECH": "TRAK", "ADVNR": 9, "ATCFID": "WP092024", "NAME": "WUKONG", "FTECH": "JTWC", "FCST_DTG": "2024-08-15 00:00:00", "RUN_DTG": "2024-08-15 16:05:28", "BASIN": "WP", "STMNR": 9, "CAT_ID": null, "CAT_DESC": null, "MSGID": "WTPN54 PGTW 150300", "VALIDTIME": "2024-08-12 18:00:00" }, "geometry": { "type": "Point", "coordinates": [ 149.800003, 26.4 ] } },
{ "type": "Feature", "properties": { "ID": 233058, "LAT": 26.9, "LON": 150.2, "VMAX": 25.0, "MSLP": 1004.0, "RMAX": 50.0, "FSPD": 3.63004, "FDIR": 7.23837, "RENV": 120.0, "PENV": 1009.0, "VALIDT": 0, "DTG": "2024-08-13 00:00", "LATNOW": 36.0, "LONNOW": 146.5, "WINDNOW": 20.0, "DIRNOW": 9.0, "SPDNOW": 1.0, "TECH": "TRAK", "ADVNR": 9, "ATCFID": "WP092024", "NAME": "WUKONG", "FTECH": "JTWC", "FCST_DTG": "2024-08-15 00:00:00", "RUN_DTG": "2024-08-15 16:05:28", "BASIN": "WP", "STMNR": 9, "CAT_ID": null, "CAT_DESC": null, "MSGID": "WTPN54 PGTW 150300", "VALIDTIME": "2024-08-13 00:00:00" }, "geometry": { "type": "Point", "coordinates": [ 150.199997, 26.9 ] } },
{ "type": "Feature", "properties": { "ID": 233059, "LAT": 27.6, "LON": 150.3, "VMAX": 25.0, "MSLP": 1004.0, "RMAX": 50.0, "FSPD": 3.43347, "FDIR": 318.51773, "RENV": 120.0, "PENV": 1009.0, "VALIDT": 0, "DTG": "2024-08-13 06:00", "LATNOW": 36.0, "LONNOW": 146.5, "WINDNOW": 20.0, "DIRNOW": 9.0, "SPDNOW": 1.0, "TECH": "TRAK", "ADVNR": 9, "ATCFID": "WP092024", "NAME": "WUKONG", "FTECH": "JTWC", "FCST_DTG": "2024-08-15 00:00:00", "RUN_DTG": "2024-08-15 16:05:28", "BASIN": "WP", "STMNR": 9, "CAT_ID": null, "CAT_DESC": null, "MSGID": "WTPN54 PGTW 150300", "VALIDTIME": "2024-08-13 06:00:00" }, "geometry": { "type": "Point", "coordinates": [ 150.300003, 27.6 ] } },
{ "type": "Feature", "properties": { "ID": 233060, "LAT": 28.1, "LON": 149.8, "VMAX": 30.0, "MSLP": 1004.0, "RMAX": 50.0, "FSPD": 2.74677, "FDIR": 235.81445, "RENV": 95.0, "PENV": 1006.0, "VALIDT": 0, "DTG": "2024-08-13 12:00", "LATNOW": 36.0, "LONNOW": 146.5, "WINDNOW": 20.0, "DIRNOW": 9.0, "SPDNOW": 1.0, "TECH": "TRAK", "ADVNR": 9, "ATCFID": "WP092024", "NAME": "WUKONG", "FTECH": "JTWC", "FCST_DTG": "2024-08-15 00:00:00", "RUN_DTG": "2024-08-15 16:05:28", "BASIN": "WP", "STMNR": 9, "CAT_ID": null, "CAT_DESC": null, "MSGID": "WTPN54 PGTW 150300", "VALIDTIME": "2024-08-13 12:00:00" }, "geometry": { "type": "Point", "coordinates": [ 149.800003, 28.1 ] } },
{ "type": "Feature", "properties": { "ID": 233061, "LAT": 27.8, "LON": 149.3, "VMAX": 30.0, "MSLP": 1002.0, "RMAX": 75.0, "FSPD": 6.48589, "FDIR": 330.7495, "RENV": 155.0, "PENV": 1009.0, "VALIDT": 0, "DTG": "2024-08-13 18:00", "LATNOW": 36.0, "LONNOW": 146.5, "WINDNOW": 20.0, "DIRNOW": 9.0, "SPDNOW": 1.0, "TECH": "TRAK", "ADVNR": 9, "ATCFID": "WP092024", "NAME": "WUKONG", "FTECH": "JTWC", "FCST_DTG": "2024-08-15 00:00:00", "RUN_DTG": "2024-08-15 16:05:28", "BASIN": "WP", "STMNR": 9, "CAT_ID": null, "CAT_DESC": null, "MSGID": "WTPN54 PGTW 150300", "VALIDTIME": "2024-08-13 18:00:00" }, "geometry": { "type": "Point", "coordinates": [ 149.300003, 27.799999 ] } },
{ "type": "Feature", "properties": { "ID": 233062, "LAT": 28.9, "LON": 148.6, "VMAX": 30.0, "MSLP": 1002.0, "RMAX": 75.0, "FSPD": 9.14694, "FDIR": 342.96356, "RENV": 155.0, "PENV": 1009.0, "VALIDT": 0, "DTG": "2024-08-14 00:00", "LATNOW": 36.0, "LONNOW": 146.5, "WINDNOW": 20.0, "DIRNOW": 9.0, "SPDNOW": 1.0, "TECH": "TRAK", "ADVNR": 9, "ATCFID": "WP092024", "NAME": "WUKONG", "FTECH": "JTWC", "FCST_DTG": "2024-08-15 00:00:00", "RUN_DTG": "2024-08-15 16:05:28", "BASIN": "WP", "STMNR": 9, "CAT_ID": null, "CAT_DESC": null, "MSGID": "WTPN54 PGTW 150300", "VALIDTIME": "2024-08-14 00:00:00" }, "geometry": { "type": "Point", "coordinates": [ 148.600006, 28.9 ] } },
{ "type": "Feature", "properties": { "ID": 233063, "LAT": 30.6, "LON": 148.0, "VMAX": 30.0, "MSLP": 1002.0, "RMAX": 100.0, "FSPD": 7.18957, "FDIR": 338.46683, "RENV": 155.0, "PENV": 1009.0, "VALIDT": 0, "DTG": "2024-08-14 06:00", "LATNOW": 36.0, "LONNOW": 146.5, "WINDNOW": 20.0, "DIRNOW": 9.0, "SPDNOW": 1.0, "TECH": "TRAK", "ADVNR": 9, "ATCFID": "WP092024", "NAME": "WUKONG", "FTECH": "JTWC", "FCST_DTG": "2024-08-15 00:00:00", "RUN_DTG": "2024-08-15 16:05:28", "BASIN": "WP", "STMNR": 9, "CAT_ID": null, "CAT_DESC": null, "MSGID": "WTPN54 PGTW 150300", "VALIDTIME": "2024-08-14 06:00:00" }, "geometry": { "type": "Point", "coordinates": [ 148.0, 30.6 ] } },
{ "type": "Feature", "properties": { "ID": 233064, "LAT": 31.9, "LON": 147.4, "VMAX": 30.0, "MSLP": 1002.0, "RMAX": 75.0, "FSPD": 12.53329, "FDIR": 350.10016, "RENV": 100.0, "PENV": 1007.0, "VALIDT": 0, "DTG": "2024-08-14 12:00", "LATNOW": 36.0, "LONNOW": 146.5, "WINDNOW": 20.0, "DIRNOW": 9.0, "SPDNOW": 1.0, "TECH": "TRAK", "ADVNR": 9, "ATCFID": "WP092024", "NAME": "WUKONG", "FTECH": "JTWC", "FCST_DTG": "2024-08-15 00:00:00", "RUN_DTG": "2024-08-15 16:05:28", "BASIN": "WP", "STMNR": 9, "CAT_ID": null, "CAT_DESC": null, "MSGID": "WTPN54 PGTW 150300", "VALIDTIME": "2024-08-14 12:00:00" }, "geometry": { "type": "Point", "coordinates": [ 147.399994, 31.9 ] } },
{ "type": "Feature", "properties": { "ID": 233065, "LAT": 34.3, "LON": 146.9, "VMAX": 25.0, "MSLP": 1002.0, "RMAX": 65.0, "FSPD": 8.90593, "FDIR": 349.11023, "RENV": 75.0, "PENV": 1007.0, "VALIDT": 0, "DTG": "2024-08-14 18:00", "LATNOW": 36.0, "LONNOW": 146.5, "WINDNOW": 20.0, "DIRNOW": 9.0, "SPDNOW": 1.0, "TECH": "TRAK", "ADVNR": 9, "ATCFID": "WP092024", "NAME": "WUKONG", "FTECH": "JTWC", "FCST_DTG": "2024-08-15 00:00:00", "RUN_DTG": "2024-08-15 16:05:28", "BASIN": "WP", "STMNR": 9, "CAT_ID": null, "CAT_DESC": null, "MSGID": "WTPN54 PGTW 150300", "VALIDTIME": "2024-08-14 18:00:00" }, "geometry": { "type": "Point", "coordinates": [ 146.899994, 34.299999 ] } },
{ "type": "Feature", "properties": { "ID": 233066, "LAT": 36.0, "LON": 146.5, "VMAX": 20.0, "MSLP": 1002.0, "RMAX": 65.0, "FSPD": 8.92762, "FDIR": 30.19049, "RENV": 75.0, "PENV": 1007.0, "VALIDT": 0, "DTG": "2024-08-15 00:00", "LATNOW": 36.0, "LONNOW": 146.5, "WINDNOW": 20.0, "DIRNOW": 9.0, "SPDNOW": 1.0, "TECH": "TRAK", "ADVNR": 9, "ATCFID": "WP092024", "NAME": "WUKONG", "FTECH": "JTWC", "FCST_DTG": "2024-08-15 00:00:00", "RUN_DTG": "2024-08-15 16:05:28", "BASIN": "WP", "STMNR": 9, "CAT_ID": null, "CAT_DESC": null, "MSGID": "WTPN54 PGTW 150300", "VALIDTIME": "2024-08-15 00:00:00" }, "geometry": { "type": "Point", "coordinates": [ 146.5, 36.0 ] } },
{ "type": "Feature", "properties": { "ID": 233067, "LAT": 39.0, "LON": 148.7, "VMAX": 20.0, "MSLP": 1012.95825, "RMAX": 76.07967, "FSPD": 10.97961, "FDIR": 66.53033, "RENV": 250.0, "PENV": 1012.0, "VALIDT": 12, "DTG": "2024-08-15 12:00", "LATNOW": 36.0, "LONNOW": 146.5, "WINDNOW": 20.0, "DIRNOW": 9.0, "SPDNOW": 1.0, "TECH": "FCST", "ADVNR": 9, "ATCFID": "WP092024", "NAME": "WUKONG", "FTECH": "JTWC", "FCST_DTG": "2024-08-15 00:00:00", "RUN_DTG": "2024-08-15 16:05:28", "BASIN": "WP", "STMNR": 9, "CAT_ID": null, "CAT_DESC": null, "MSGID": "WTPN54 PGTW 150300", "VALIDTIME": "2024-08-15 12:00:00" }, "geometry": { "type": "Point", "coordinates": [ 148.699997, 39.0 ] } },
{ "type": "Feature", "properties": { "ID": 233068, "LAT": 40.7, "LON": 153.8, "VMAX": 20.0, "MSLP": 1012.95825, "RMAX": 76.07967, "FSPD": 10.97961, "FDIR": 66.53033, "RENV": 250.0, "PENV": 1012.0, "VALIDT": 24, "DTG": "2024-08-16 00:00", "LATNOW": 36.0, "LONNOW": 146.5, "WINDNOW": 20.0, "DIRNOW": 9.0, "SPDNOW": 1.0, "TECH": "FCST", "ADVNR": 9, "ATCFID": "WP092024", "NAME": "WUKONG", "FTECH": "JTWC", "FCST_DTG": "2024-08-15 00:00:00", "RUN_DTG": "2024-08-15 16:05:28", "BASIN": "WP", "STMNR": 9, "CAT_ID": null, "CAT_DESC": null, "MSGID": "WTPN54 PGTW 150300", "VALIDTIME": "2024-08-16 00:00:00" }, "geometry": { "type": "Point", "coordinates": [ 153.800003, 40.700001 ] } },
{ "type": "Feature", "properties": { "ID": 233066, "LAT": 36.0, "LON": 146.5, "VMAX": 20.0, "MSLP": 1002.0, "RMAX": 65.0, "FSPD": 8.92762, "FDIR": 30.19049, "RENV": 75.0, "PENV": 1007.0, "VALIDT": 0, "DTG": "2024-08-15 00:00", "LATNOW": 36.0, "LONNOW": 146.5, "WINDNOW": 20.0, "DIRNOW": 9.0, "SPDNOW": 1.0, "TECH": "TRAK", "ADVNR": 9, "ATCFID": "WP092024", "NAME": "WUKONG", "FTECH": "JTWC", "FCST_DTG": "2024-08-15 00:00:00", "RUN_DTG": "2024-08-15 16:05:28", "BASIN": "WP", "STMNR": 9, "CAT_ID": null, "CAT_DESC": null, "MSGID": "WTPN54 PGTW 150300", "VALIDTIME": "2024-08-15 00:00:00" }, "geometry": { "type": "LineString", "coordinates": [ [ 147.0, 24.4 ], [ 147.8, 24.5 ], [ 148.4, 24.7 ], [ 148.9, 25.4 ], [ 149.4, 25.9 ], [ 149.8, 26.4 ], [ 150.2, 26.9 ], [ 150.3, 27.6 ], [ 149.8, 28.1 ], [ 149.3, 27.8 ], [ 148.6, 28.9 ], [ 148.0, 30.6 ], [ 147.4, 31.9 ], [ 146.9, 34.3 ], [ 146.5, 36.0 ] ] } },
{ "type": "Feature", "properties": { "ID": 233068, "LAT": 40.7, "LON": 153.8, "VMAX": 20.0, "MSLP": 1012.95825, "RMAX": 76.07967, "FSPD": 10.97961, "FDIR": 66.53033, "RENV": 250.0, "PENV": 1012.0, "VALIDT": 24, "DTG": "2024-08-16 00:00", "LATNOW": 36.0, "LONNOW": 146.5, "WINDNOW": 20.0, "DIRNOW": 9.0, "SPDNOW": 1.0, "TECH": "FCST", "ADVNR": 9, "ATCFID": "WP092024", "NAME": "WUKONG", "FTECH": "JTWC", "FCST_DTG": "2024-08-15 00:00:00", "RUN_DTG": "2024-08-15 16:05:28", "BASIN": "WP", "STMNR": 9, "CAT_ID": null, "CAT_DESC": null, "MSGID": "WTPN54 PGTW 150300", "VALIDTIME": "2024-08-16 00:00:00" }, "geometry": { "type": "LineString", "coordinates": [ [ 146.5, 36.0 ], [ 148.7, 39.0 ], [ 153.8, 40.7 ] ] } }
]
}
