{
"type": "FeatureCollection",
"crs": { "type": "name", "properties": { "name": "urn:ogc:def:crs:OGC:1.3:CRS84" } },
"features": [
{ "type": "Feature", "properties": { "ID": 74241, "LAT": 16.7, "LON": 167.4, "VMAX": 20.0, "MSLP": 1012.95825, "RMAX": 45.0, "FSPD": 4.65602, "FDIR": 6.06079, "RENV": 500.0, "PENV": 1012.0, "VALIDT": 0, "DTG": "2026-08-25 18:00", "LATNOW": 31.7, "LONNOW": 166.8, "WINDNOW": 30.0, "DIRNOW": 5.0, "SPDNOW": 1.0, "TECH": "TRAK", "ADVNR": 16, "ATCFID": "WP212026", "NAME": "ETAU", "FTECH": "JTWC", "FCST_DTG": "2026-08-30 18:00:00", "RUN_DTG": "2026-08-31 09:57:20", "BASIN": "WP", "STMNR": 21, "CAT_ID": null, "CAT_DESC": null, "MSGID": "WTPN52 PGTW 302100", "VALIDTIME": "2026-08-25 18:00:00" }, "geometry": { "type": "Point", "coordinates": [ 167.399994, 16.700001 ] } },
{ "type": "Feature", "properties": { "ID": 74242, "LAT": 17.6, "LON": 167.5, "VMAX": 20.0, "MSLP": 1012.95825, "RMAX": 45.0, "FSPD": 4.11555, "FDIR": 360.0, "RENV": 500.0, "PENV": 1012.0, "VALIDT": 0, "DTG": "2026-08-26 00:00", "LATNOW": 31.7, "LONNOW": 166.8, "WINDNOW": 30.0, "DIRNOW": 5.0, "SPDNOW": 1.0, "TECH": "TRAK", "ADVNR": 16, "ATCFID": "WP212026", "NAME": "ETAU", "FTECH": "JTWC", "FCST_DTG": "2026-08-30 18:00:00", "RUN_DTG": "2026-08-31 09:57:20", "BASIN": "WP", "STMNR": 21, "CAT_ID": null, "CAT_DESC": null, "MSGID": "WTPN52 PGTW 302100", "VALIDTIME": "2026-08-26 00:00:00" }, "geometry": { "type": "Point", "coordinates": [ 167.5, 17.6 ] } },
{ "type": "Feature", "properties": { "ID": 74243, "LAT": 18.4, "LON": 167.5, "VMAX": 25.0, "MSLP": 1011.80975, "RMAX": 45.0, "FSPD": 5.16742, "FDIR": 354.5951, "RENV": 500.0, "PENV": 1012.0, "VALIDT": 0, "DTG": "2026-08-26 06:00", "LATNOW": 31.7, "LONNOW": 166.8, "WINDNOW": 30.0, "DIRNOW": 5.0, "SPDNOW": 1.0, "TECH": "TRAK", "ADVNR": 16, "ATCFID": "WP212026", "NAME": "ETAU", "FTECH": "JTWC", "FCST_DTG": "2026-08-30 18:00:00", "RUN_DTG": "2026-08-31 09:57:20", "BASIN": "WP", "STMNR": 21, "CAT_ID": null, "CAT_DESC": null, "MSGID": "WTPN52 PGTW 302100", "VALIDTIME": "2026-08-26 06:00:00" }, "geometry": { "type": "Point", "coordinates": [ 167.5, 18.4 ] } },
{ "type": "Feature", "properties": { "ID": 74244, "LAT": 19.4, "LON": 167.4, "VMAX": 25.0, "MSLP": 1011.80975, "RMAX": 45.0, "FSPD": 2.27465, "FDIR": 25.22314, "RENV": 500.0, "PENV": 1012.0, "VALIDT": 0, "DTG": "2026-08-26 12:00", "LATNOW": 31.7, "LONNOW": 166.8, "WINDNOW": 30.0, "DIRNOW": 5.0, "SPDNOW": 1.0, "TECH": "TRAK", "ADVNR": 16, "ATCFID": "WP212026", "NAME": "ETAU", "FTECH": "JTWC", "FCST_DTG": "2026-08-30 18:00:00", "RUN_DTG": "2026-08-31 09:57:20", "BASIN": "WP", "STMNR": 21, "CAT_ID": null, "CAT_DESC": null, "MSGID": "WTPN52 PGTW 302100", "VALIDTIME": "2026-08-26 12:00:00" }, "geometry": { "type": "Point", "coordinates": [ 167.399994, 19.4 ] } },
{ "type": "Feature", "properties": { "ID": 74245, "LAT": 19.8, "LON": 167.6, "VMAX": 25.0, "MSLP": 1011.80975, "RMAX": 45.0, "FSPD": 3.12424, "FDIR": 8.89471, "RENV": 500.0, "PENV": 1012.0, "VALIDT": 0, "DTG": "2026-08-26 18:00", "LATNOW": 31.7, "LONNOW": 166.8, "WINDNOW": 30.0, "DIRNOW": 5.0, "SPDNOW": 1.0, "TECH": "TRAK", "ADVNR": 16, "ATCFID": "WP212026", "NAME": "ETAU", "FTECH": "JTWC", "FCST_DTG": "2026-08-30 18:00:00", "RUN_DTG": "2026-08-31 09:57:20", "BASIN": "WP", "STMNR": 21, "CAT_ID": null, "CAT_DESC": null, "MSGID": "WTPN52 PGTW 302100", "VALIDTIME": "2026-08-26 18:00:00" }, "geometry": { "type": "Point", "coordinates": [ 167.600006, 19.799999 ] } },
{ "type": "Feature", "properties": { "ID": 74246, "LAT": 20.4, "LON": 167.7, "VMAX": 30.0, "MSLP": 1000.0, "RMAX": 30.0, "FSPD": 4.36112, "FDIR": 19.31876, "RENV": 105.0, "PENV": 1009.0, "VALIDT": 0, "DTG": "2026-08-27 00:00", "LATNOW": 31.7, "LONNOW": 166.8, "WINDNOW": 30.0, "DIRNOW": 5.0, "SPDNOW": 1.0, "TECH": "TRAK", "ADVNR": 16, "ATCFID": "WP212026", "NAME": "ETAU", "FTECH": "JTWC", "FCST_DTG": "2026-08-30 18:00:00", "RUN_DTG": "2026-08-31 09:57:20", "BASIN": "WP", "STMNR": 21, "CAT_ID": null, "CAT_DESC": null, "MSGID": "WTPN52 PGTW 302100", "VALIDTIME": "2026-08-27 00:00:00" }, "geometry": { "type": "Point", "coordinates": [ 167.699997, 20.4 ] } },
{ "type": "Feature", "properties": { "ID": 74247, "LAT": 21.2, "LON": 168.0, "VMAX": 40.0, "MSLP": 1000.0, "RMAX": 30.0, "FSPD": 4.11555, "FDIR": 360.0, "RENV": 105.0, "PENV": 1009.0, "VALIDT": 0, "DTG": "2026-08-27 06:00", "LATNOW": 31.7, "LONNOW": 166.8, "WINDNOW": 30.0, "DIRNOW": 5.0, "SPDNOW": 1.0, "TECH": "TRAK", "ADVNR": 16, "ATCFID": "WP212026", "NAME": "ETAU", "FTECH": "JTWC", "FCST_DTG": "2026-08-30 18:00:00", "RUN_DTG": "2026-08-31 09:57:20", "BASIN": "WP", "STMNR": 21, "CAT_ID": null, "CAT_DESC": null, "MSGID": "WTPN52 PGTW 302100", "VALIDTIME": "2026-08-27 06:00:00" }, "geometry": { "type": "Point", "coordinates": [ 168.0, 21.200001 ] } },
{ "type": "Feature", "properties": { "ID": 74248, "LAT": 22.0, "LON": 168.0, "VMAX": 40.0, "MSLP": 998.0, "RMAX": 30.0, "FSPD": 5.73811, "FDIR": 350.4681, "RENV": 110.0, "PENV": 1007.0, "VALIDT": 0, "DTG": "2026-08-27 12:00", "LATNOW": 31.7, "LONNOW": 166.8, "WINDNOW": 30.0, "DIRNOW": 5.0, "SPDNOW": 1.0, "TECH": "TRAK", "ADVNR": 16, "ATCFID": "WP212026", "NAME": "ETAU", "FTECH": "JTWC", "FCST_DTG": "2026-08-30 18:00:00", "RUN_DTG": "2026-08-31 09:57:20", "BASIN": "WP", "STMNR": 21, "CAT_ID": null, "CAT_DESC": null, "MSGID": "WTPN52 PGTW 302100", "VALIDTIME": "2026-08-27 12:00:00" }, "geometry": { "type": "Point", "coordinates": [ 168.0, 22.0 ] } },
{ "type": "Feature", "properties": { "ID": 74249, "LAT": 23.1, "LON": 167.8, "VMAX": 45.0, "MSLP": 998.0, "RMAX": 30.0, "FSPD": 5.47916, "FDIR": 339.8694, "RENV": 110.0, "PENV": 1008.0, "VALIDT": 0, "DTG": "2026-08-27 18:00", "LATNOW": 31.7, "LONNOW": 166.8, "WINDNOW": 30.0, "DIRNOW": 5.0, "SPDNOW": 1.0, "TECH": "TRAK", "ADVNR": 16, "ATCFID": "WP212026", "NAME": "ETAU", "FTECH": "JTWC", "FCST_DTG": "2026-08-30 18:00:00", "RUN_DTG": "2026-08-31 09:57:20", "BASIN": "WP", "STMNR": 21, "CAT_ID": null, "CAT_DESC": null, "MSGID": "WTPN52 PGTW 302100", "VALIDTIME": "2026-08-27 18:00:00" }, "geometry": { "type": "Point", "coordinates": [ 167.800003, 23.1 ] } },
{ "type": "Feature", "properties": { "ID": 74250, "LAT": 24.1, "LON": 167.4, "VMAX": 45.0, "MSLP": 995.0, "RMAX": 25.0, "FSPD": 3.81103, "FDIR": 312.44965, "RENV": 120.0, "PENV": 1007.0, "VALIDT": 0, "DTG": "2026-08-28 00:00", "LATNOW": 31.7, "LONNOW": 166.8, "WINDNOW": 30.0, "DIRNOW": 5.0, "SPDNOW": 1.0, "TECH": "TRAK", "ADVNR": 16, "ATCFID": "WP212026", "NAME": "ETAU", "FTECH": "JTWC", "FCST_DTG": "2026-08-30 18:00:00", "RUN_DTG": "2026-08-31 09:57:20", "BASIN": "WP", "STMNR": 21, "CAT_ID": null, "CAT_DESC": null, "MSGID": "WTPN52 PGTW 302100", "VALIDTIME": "2026-08-28 00:00:00" }, "geometry": { "type": "Point", "coordinates": [ 167.399994, 24.1 ] } },
{ "type": "Feature", "properties": { "ID": 74251, "LAT": 24.6, "LON": 166.8, "VMAX": 45.0, "MSLP": 994.0, "RMAX": 25.0, "FSPD": 3.38928, "FDIR": 335.60443, "RENV": 100.0, "PENV": 1007.0, "VALIDT": 0, "DTG": "2026-08-28 06:00", "LATNOW": 31.7, "LONNOW": 166.8, "WINDNOW": 30.0, "DIRNOW": 5.0, "SPDNOW": 1.0, "TECH": "TRAK", "ADVNR": 16, "ATCFID": "WP212026", "NAME": "ETAU", "FTECH": "JTWC", "FCST_DTG": "2026-08-30 18:00:00", "RUN_DTG": "2026-08-31 09:57:20", "BASIN": "WP", "STMNR": 21, "CAT_ID": null, "CAT_DESC": null, "MSGID": "WTPN52 PGTW 302100", "VALIDTIME": "2026-08-28 06:00:00" }, "geometry": { "type": "Point", "coordinates": [ 166.800003, 24.6 ] } },
{ "type": "Feature", "properties": { "ID": 74252, "LAT": 25.2, "LON": 166.5, "VMAX": 45.0, "MSLP": 992.0, "RMAX": 40.0, "FSPD": 5.64246, "FDIR": 335.74658, "RENV": 110.0, "PENV": 1005.0, "VALIDT": 0, "DTG": "2026-08-28 12:00", "LATNOW": 31.7, "LONNOW": 166.8, "WINDNOW": 30.0, "DIRNOW": 5.0, "SPDNOW": 1.0, "TECH": "TRAK", "ADVNR": 16, "ATCFID": "WP212026", "NAME": "ETAU", "FTECH": "JTWC", "FCST_DTG": "2026-08-30 18:00:00", "RUN_DTG": "2026-08-31 09:57:20", "BASIN": "WP", "STMNR": 21, "CAT_ID": null, "CAT_DESC": null, "MSGID": "WTPN52 PGTW 302100", "VALIDTIME": "2026-08-28 12:00:00" }, "geometry": { "type": "Point", "coordinates": [ 166.5, 25.200001 ] } },
{ "type": "Feature", "properties": { "ID": 74253, "LAT": 26.2, "LON": 166.0, "VMAX": 45.0, "MSLP": 990.0, "RMAX": 40.0, "FSPD": 1.3818, "FDIR": 318.12445, "RENV": 120.0, "PENV": 1006.0, "VALIDT": 0, "DTG": "2026-08-28 18:00", "LATNOW": 31.7, "LONNOW": 166.8, "WINDNOW": 30.0, "DIRNOW": 5.0, "SPDNOW": 1.0, "TECH": "TRAK", "ADVNR": 16, "ATCFID": "WP212026", "NAME": "ETAU", "FTECH": "JTWC", "FCST_DTG": "2026-08-30 18:00:00", "RUN_DTG": "2026-08-31 09:57:20", "BASIN": "WP", "STMNR": 21, "CAT_ID": null, "CAT_DESC": null, "MSGID": "WTPN52 PGTW 302100", "VALIDTIME": "2026-08-28 18:00:00" }, "geometry": { "type": "Point", "coordinates": [ 166.0, 26.200001 ] } },
{ "type": "Feature", "properties": { "ID": 74254, "LAT": 26.4, "LON": 165.8, "VMAX": 35.0, "MSLP": 990.0, "RMAX": 40.0, "FSPD": 9.27128, "FDIR": 357.17355, "RENV": 120.0, "PENV": 1006.0, "VALIDT": 0, "DTG": "2026-08-29 00:00", "LATNOW": 31.7, "LONNOW": 166.8, "WINDNOW": 30.0, "DIRNOW": 5.0, "SPDNOW": 1.0, "TECH": "TRAK", "ADVNR": 16, "ATCFID": "WP212026", "NAME": "ETAU", "FTECH": "JTWC", "FCST_DTG": "2026-08-30 18:00:00", "RUN_DTG": "2026-08-31 09:57:20", "BASIN": "WP", "STMNR": 21, "CAT_ID": null, "CAT_DESC": null, "MSGID": "WTPN52 PGTW 302100", "VALIDTIME": "2026-08-29 00:00:00" }, "geometry": { "type": "Point", "coordinates": [ 165.800003, 26.4 ] } },
{ "type": "Feature", "properties": { "ID": 74255, "LAT": 28.2, "LON": 165.7, "VMAX": 40.0, "MSLP": 990.0, "RMAX": 25.0, "FSPD": 9.35767, "FDIR": 351.71423, "RENV": 120.0, "PENV": 1006.0, "VALIDT": 0, "DTG": "2026-08-29 06:00", "LATNOW": 31.7, "LONNOW": 166.8, "WINDNOW": 30.0, "DIRNOW": 5.0, "SPDNOW": 1.0, "TECH": "TRAK", "ADVNR": 16, "ATCFID": "WP212026", "NAME": "ETAU", "FTECH": "JTWC", "FCST_DTG": "2026-08-30 18:00:00", "RUN_DTG": "2026-08-31 09:57:20", "BASIN": "WP", "STMNR": 21, "CAT_ID": null, "CAT_DESC": null, "MSGID": "WTPN52 PGTW 302100", "VALIDTIME": "2026-08-29 06:00:00" }, "geometry": { "type": "Point", "coordinates": [ 165.699997, 28.200001 ] } },
{ "type": "Feature", "properties": { "ID": 74256, "LAT": 30.0, "LON": 165.4, "VMAX": 40.0, "MSLP": 991.0, "RMAX": 40.0, "FSPD": 4.23027, "FDIR": 328.35046, "RENV": 120.0, "PENV": 1004.0, "VALIDT": 0, "DTG": "2026-08-29 12:00", "LATNOW": 31.7, "LONNOW": 166.8, "WINDNOW": 30.0, "DIRNOW": 5.0, "SPDNOW": 1.0, "TECH": "TRAK", "ADVNR": 16, "ATCFID": "WP212026", "NAME": "ETAU", "FTECH": "JTWC", "FCST_DTG": "2026-08-30 18:00:00", "RUN_DTG": "2026-08-31 09:57:20", "BASIN": "WP", "STMNR": 21, "CAT_ID": null, "CAT_DESC": null, "MSGID": "WTPN52 PGTW 302100", "VALIDTIME": "2026-08-29 12:00:00" }, "geometry": { "type": "Point", "coordinates": [ 165.399994, 30.0 ] } },
{ "type": "Feature", "properties": { "ID": 74257, "LAT": 30.7, "LON": 164.9, "VMAX": 35.0, "MSLP": 990.0, "RMAX": 40.0, "FSPD": 1.35633, "FDIR": 319.339, "RENV": 210.0, "PENV": 1003.0, "VALIDT": 0, "DTG": "2026-08-29 18:00", "LATNOW": 31.7, "LONNOW": 166.8, "WINDNOW": 30.0, "DIRNOW": 5.0, "SPDNOW": 1.0, "TECH": "TRAK", "ADVNR": 16, "ATCFID": "WP212026", "NAME": "ETAU", "FTECH": "JTWC", "FCST_DTG": "2026-08-30 18:00:00", "RUN_DTG": "2026-08-31 09:57:20", "BASIN": "WP", "STMNR": 21, "CAT_ID": null, "CAT_DESC": null, "MSGID": "WTPN52 PGTW 302100", "VALIDTIME": "2026-08-29 18:00:00" }, "geometry": { "type": "Point", "coordinates": [ 164.899994, 30.700001 ] } },
{ "type": "Feature", "properties": { "ID": 74258, "LAT": 30.9, "LON": 164.7, "VMAX": 25.0, "MSLP": 992.0, "RMAX": 40.0, "FSPD": 2.69944, "FDIR": 100.98627, "RENV": 210.0, "PENV": 1003.0, "VALIDT": 0, "DTG": "2026-08-30 00:00", "LATNOW": 31.7, "LONNOW": 166.8, "WINDNOW": 30.0, "DIRNOW": 5.0, "SPDNOW": 1.0, "TECH": "TRAK", "ADVNR": 16, "ATCFID": "WP212026", "NAME": "ETAU", "FTECH": "JTWC", "FCST_DTG": "2026-08-30 18:00:00", "RUN_DTG": "2026-08-31 09:57:20", "BASIN": "WP", "STMNR": 21, "CAT_ID": null, "CAT_DESC": null, "MSGID": "WTPN52 PGTW 302100", "VALIDTIME": "2026-08-30 00:00:00" }, "geometry": { "type": "Point", "coordinates": [ 164.699997, 30.9 ] } },
{ "type": "Feature", "properties": { "ID": 74259, "LAT": 30.8, "LON": 165.3, "VMAX": 30.0, "MSLP": 994.0, "RMAX": 15.0, "FSPD": 3.45251, "FDIR": 63.44742, "RENV": 110.0, "PENV": 1002.0, "VALIDT": 0, "DTG": "2026-08-30 06:00", "LATNOW": 31.7, "LONNOW": 166.8, "WINDNOW": 30.0, "DIRNOW": 5.0, "SPDNOW": 1.0, "TECH": "TRAK", "ADVNR": 16, "ATCFID": "WP212026", "NAME": "ETAU", "FTECH": "JTWC", "FCST_DTG": "2026-08-30 18:00:00", "RUN_DTG": "2026-08-31 09:57:20", "BASIN": "WP", "STMNR": 21, "CAT_ID": null, "CAT_DESC": null, "MSGID": "WTPN52 PGTW 302100", "VALIDTIME": "2026-08-30 06:00:00" }, "geometry": { "type": "Point", "coordinates": [ 165.300003, 30.799999 ] } },
{ "type": "Feature", "properties": { "ID": 74260, "LAT": 31.1, "LON": 166.0, "VMAX": 30.0, "MSLP": 991.0, "RMAX": 15.0, "FSPD": 4.67628, "FDIR": 48.69489, "RENV": 80.0, "PENV": 1000.0, "VALIDT": 0, "DTG": "2026-08-30 12:00", "LATNOW": 31.7, "LONNOW": 166.8, "WINDNOW": 30.0, "DIRNOW": 5.0, "SPDNOW": 1.0, "TECH": "TRAK", "ADVNR": 16, "ATCFID": "WP212026", "NAME": "ETAU", "FTECH": "JTWC", "FCST_DTG": "2026-08-30 18:00:00", "RUN_DTG": "2026-08-31 09:57:20", "BASIN": "WP", "STMNR": 21, "CAT_ID": null, "CAT_DESC": null, "MSGID": "WTPN52 PGTW 302100", "VALIDTIME": "2026-08-30 12:00:00" }, "geometry": { "type": "Point", "coordinates": [ 166.0, 31.1 ] } },
{ "type": "Feature", "properties": { "ID": 74261, "LAT": 31.7, "LON": 166.8, "VMAX": 30.0, "MSLP": 991.0, "RMAX": 10.0, "FSPD": 5.42807, "FDIR": 18.60352, "RENV": 60.0, "PENV": 1001.0, "VALIDT": 0, "DTG": "2026-08-30 18:00", "LATNOW": 31.7, "LONNOW": 166.8, "WINDNOW": 30.0, "DIRNOW": 5.0, "SPDNOW": 1.0, "TECH": "TRAK", "ADVNR": 16, "ATCFID": "WP212026", "NAME": "ETAU", "FTECH": "JTWC", "FCST_DTG": "2026-08-30 18:00:00", "RUN_DTG": "2026-08-31 09:57:20", "BASIN": "WP", "STMNR": 21, "CAT_ID": null, "CAT_DESC": null, "MSGID": "WTPN52 PGTW 302100", "VALIDTIME": "2026-08-30 18:00:00" }, "geometry": { "type": "Point", "coordinates": [ 166.800003, 31.700001 ] } },
{ "type": "Feature", "properties": { "ID": 74262, "LAT": 33.7, "LON": 167.6, "VMAX": 30.0, "MSLP": 1010.40607, "RMAX": 13.08371, "FSPD": 6.74067, "FDIR": 7.18262, "RENV": 250.0, "PENV": 1012.0, "VALIDT": 12, "DTG": "2026-08-31 06:00", "LATNOW": 31.7, "LONNOW": 166.8, "WINDNOW": 30.0, "DIRNOW": 5.0, "SPDNOW": 1.0, "TECH": "FCST", "ADVNR": 16, "ATCFID": "WP212026", "NAME": "ETAU", "FTECH": "JTWC", "FCST_DTG": "2026-08-30 18:00:00", "RUN_DTG": "2026-08-31 09:57:20", "BASIN": "WP", "STMNR": 21, "CAT_ID": null, "CAT_DESC": null, "MSGID": "WTPN52 PGTW 302100", "VALIDTIME": "2026-08-31 06:00:00" }, "geometry": { "type": "Point", "coordinates": [ 167.600006, 33.700001 ] } },
{ "type": "Feature", "properties": { "ID": 74263, "LAT": 36.3, "LON": 168.0, "VMAX": 30.0, "MSLP": 1010.40607, "RMAX": 13.08371, "FSPD": 6.74067, "FDIR": 7.18262, "RENV": 250.0, "PENV": 1012.0, "VALIDT": 24, "DTG": "2026-08-31 18:00", "LATNOW": 31.7, "LONNOW": 166.8, "WINDNOW": 30.0, "DIRNOW": 5.0, "SPDNOW": 1.0, "TECH": "FCST", "ADVNR": 16, "ATCFID": "WP212026", "NAME": "ETAU", "FTECH": "JTWC", "FCST_DTG": "2026-08-30 18:00:00", "RUN_DTG": "2026-08-31 09:57:20", "BASIN": "WP", "STMNR": 21, "CAT_ID": null, "CAT_DESC": null, "MSGID": "WTPN52 PGTW 302100", "VALIDTIME": "2026-08-31 18:00:00" }, "geometry": { "type": "Point", "coordinates": [ 168.0, 36.299999 ] } },
{ "type": "Feature", "properties": { "ID": 74261, "LAT": 31.7, "LON": 166.8, "VMAX": 30.0, "MSLP": 991.0, "RMAX": 10.0, "FSPD": 5.42807, "FDIR": 18.60352, "RENV": 60.0, "PENV": 1001.0, "VALIDT": 0, "DTG": "2026-08-30 18:00", "LATNOW": 31.7, "LONNOW": 166.8, "WINDNOW": 30.0, "DIRNOW": 5.0, "SPDNOW": 1.0, "TECH": "TRAK", "ADVNR": 16, "ATCFID": "WP212026", "NAME": "ETAU", "FTECH": "JTWC", "FCST_DTG": "2026-08-30 18:00:00", "RUN_DTG": "2026-08-31 09:57:20", "BASIN": "WP", "STMNR": 21, "CAT_ID": null, "CAT_DESC": null, "MSGID": "WTPN52 PGTW 302100", "VALIDTIME": "2026-08-30 18:00:00" }, "geometry": { "type": "LineString", "coordinates": [ [ 167.4, 16.7 ], [ 167.5, 17.6 ], [ 167.5, 18.4 ], [ 167.4, 19.4 ], [ 167.6, 19.8 ], [ 167.7, 20.4 ], [ 168.0, 21.2 ], [ 168.0, 22.0 ], [ 167.8, 23.1 ], [ 167.4, 24.1 ], [ 166.8, 24.6 ], [ 166.5, 25.2 ], [ 166.0, 26.2 ], [ 165.8, 26.4 ], [ 165.7, 28.2 ], [ 165.4, 30.0 ], [ 164.9, 30.7 ], [ 164.7, 30.9 ], [ 165.3, 30.8 ], [ 166.0, 31.1 ], [ 166.8, 31.7 ] ] } },
{ "type": "Feature", "properties": { "ID": 74263, "LAT": 36.3, "LON": 168.0, "VMAX": 30.0, "MSLP": 1010.40607, "RMAX": 13.08371, "FSPD": 6.74067, "FDIR": 7.18262, "RENV": 250.0, "PENV": 1012.0, "VALIDT": 24, "DTG": "2026-08-31 18:00", "LATNOW": 31.7, "LONNOW": 166.8, "WINDNOW": 30.0, "DIRNOW": 5.0, "SPDNOW": 1.0, "TECH": "FCST", "ADVNR": 16, "ATCFID": "WP212026", "NAME": "ETAU", "FTECH": "JTWC", "FCST_DTG": "2026-08-30 18:00:00", "RUN_DTG": "2026-08-31 09:57:20", "BASIN": "WP", "STMNR": 21, "CAT_ID": null, "CAT_DESC": null, "MSGID": "WTPN52 PGTW 302100", "VALIDTIME": "2026-08-31 18:00:00" }, "geometry": { "type": "LineString", "coordinates": [ [ 166.8, 31.7 ], [ 167.6, 33.7 ], [ 168.0, 36.3 ] ] } }
]
}
