{
"type": "FeatureCollection",
"crs": { "type": "name", "properties": { "name": "urn:ogc:def:crs:OGC:1.3:CRS84" } },
"features": [
{ "type": "Feature", "properties": { "ID": 82726, "LAT": 6.6, "LON": 77.7, "VMAX": 15.0, "MSLP": 1013.8515, "RMAX": 40.0, "FSPD": 1.6258, "FDIR": 161.67282, "RENV": 500.0, "PENV": 1012.0, "VALIDT": 0, "DTG": "2025-11-24 00:00", "LATNOW": 10.5, "LONNOW": 80.8, "WINDNOW": 30.0, "DIRNOW": 2.0, "SPDNOW": 2.0, "TECH": "TRAK", "ADVNR": 12, "ATCFID": "IO052025", "NAME": "DITWAH", "FTECH": "JTWC", "FCST_DTG": "2025-11-29 18:00:00", "RUN_DTG": "2025-11-30 08:13:33", "BASIN": "IO", "STMNR": 5, "CAT_ID": null, "CAT_DESC": null, "MSGID": "WTIO52 PGTW 292100", "VALIDTIME": "2025-11-24 00:00:00" }, "geometry": { "type": "Point", "coordinates": [ 77.699997, 6.6 ] } },
{ "type": "Feature", "properties": { "ID": 82727, "LAT": 6.3, "LON": 77.8, "VMAX": 20.0, "MSLP": 1012.95825, "RMAX": 45.0, "FSPD": 1.84733, "FDIR": 123.84576, "RENV": 500.0, "PENV": 1012.0, "VALIDT": 0, "DTG": "2025-11-24 06:00", "LATNOW": 10.5, "LONNOW": 80.8, "WINDNOW": 30.0, "DIRNOW": 2.0, "SPDNOW": 2.0, "TECH": "TRAK", "ADVNR": 12, "ATCFID": "IO052025", "NAME": "DITWAH", "FTECH": "JTWC", "FCST_DTG": "2025-11-29 18:00:00", "RUN_DTG": "2025-11-30 08:13:33", "BASIN": "IO", "STMNR": 5, "CAT_ID": null, "CAT_DESC": null, "MSGID": "WTIO52 PGTW 292100", "VALIDTIME": "2025-11-24 06:00:00" }, "geometry": { "type": "Point", "coordinates": [ 77.800003, 6.3 ] } },
{ "type": "Feature", "properties": { "ID": 82728, "LAT": 6.1, "LON": 78.1, "VMAX": 25.0, "MSLP": 1011.80975, "RMAX": 45.0, "FSPD": 2.56337, "FDIR": 127.0184, "RENV": 500.0, "PENV": 1012.0, "VALIDT": 0, "DTG": "2025-11-24 12:00", "LATNOW": 10.5, "LONNOW": 80.8, "WINDNOW": 30.0, "DIRNOW": 2.0, "SPDNOW": 2.0, "TECH": "TRAK", "ADVNR": 12, "ATCFID": "IO052025", "NAME": "DITWAH", "FTECH": "JTWC", "FCST_DTG": "2025-11-29 18:00:00", "RUN_DTG": "2025-11-30 08:13:33", "BASIN": "IO", "STMNR": 5, "CAT_ID": null, "CAT_DESC": null, "MSGID": "WTIO52 PGTW 292100", "VALIDTIME": "2025-11-24 12:00:00" }, "geometry": { "type": "Point", "coordinates": [ 78.099998, 6.1 ] } },
{ "type": "Feature", "properties": { "ID": 82729, "LAT": 5.8, "LON": 78.5, "VMAX": 25.0, "MSLP": 1011.80975, "RMAX": 45.0, "FSPD": 2.17732, "FDIR": 135.13919, "RENV": 500.0, "PENV": 1012.0, "VALIDT": 0, "DTG": "2025-11-24 18:00", "LATNOW": 10.5, "LONNOW": 80.8, "WINDNOW": 30.0, "DIRNOW": 2.0, "SPDNOW": 2.0, "TECH": "TRAK", "ADVNR": 12, "ATCFID": "IO052025", "NAME": "DITWAH", "FTECH": "JTWC", "FCST_DTG": "2025-11-29 18:00:00", "RUN_DTG": "2025-11-30 08:13:33", "BASIN": "IO", "STMNR": 5, "CAT_ID": null, "CAT_DESC": null, "MSGID": "WTIO52 PGTW 292100", "VALIDTIME": "2025-11-24 18:00:00" }, "geometry": { "type": "Point", "coordinates": [ 78.5, 5.8 ] } },
{ "type": "Feature", "properties": { "ID": 82730, "LAT": 5.5, "LON": 78.8, "VMAX": 25.0, "MSLP": 1011.80975, "RMAX": 45.0, "FSPD": 2.76876, "FDIR": 158.28177, "RENV": 500.0, "PENV": 1012.0, "VALIDT": 0, "DTG": "2025-11-25 00:00", "LATNOW": 10.5, "LONNOW": 80.8, "WINDNOW": 30.0, "DIRNOW": 2.0, "SPDNOW": 2.0, "TECH": "TRAK", "ADVNR": 12, "ATCFID": "IO052025", "NAME": "DITWAH", "FTECH": "JTWC", "FCST_DTG": "2025-11-29 18:00:00", "RUN_DTG": "2025-11-30 08:13:33", "BASIN": "IO", "STMNR": 5, "CAT_ID": null, "CAT_DESC": null, "MSGID": "WTIO52 PGTW 292100", "VALIDTIME": "2025-11-25 00:00:00" }, "geometry": { "type": "Point", "coordinates": [ 78.800003, 5.5 ] } },
{ "type": "Feature", "properties": { "ID": 82731, "LAT": 5.0, "LON": 79.0, "VMAX": 25.0, "MSLP": 1011.80975, "RMAX": 45.0, "FSPD": 4.61239, "FDIR": 90.0, "RENV": 500.0, "PENV": 1012.0, "VALIDT": 0, "DTG": "2025-11-25 06:00", "LATNOW": 10.5, "LONNOW": 80.8, "WINDNOW": 30.0, "DIRNOW": 2.0, "SPDNOW": 2.0, "TECH": "TRAK", "ADVNR": 12, "ATCFID": "IO052025", "NAME": "DITWAH", "FTECH": "JTWC", "FCST_DTG": "2025-11-29 18:00:00", "RUN_DTG": "2025-11-30 08:13:33", "BASIN": "IO", "STMNR": 5, "CAT_ID": null, "CAT_DESC": null, "MSGID": "WTIO52 PGTW 292100", "VALIDTIME": "2025-11-25 06:00:00" }, "geometry": { "type": "Point", "coordinates": [ 79.0, 5.0 ] } },
{ "type": "Feature", "properties": { "ID": 82732, "LAT": 5.0, "LON": 79.9, "VMAX": 25.0, "MSLP": 1011.80975, "RMAX": 45.0, "FSPD": 4.61239, "FDIR": 90.0, "RENV": 500.0, "PENV": 1012.0, "VALIDT": 0, "DTG": "2025-11-25 12:00", "LATNOW": 10.5, "LONNOW": 80.8, "WINDNOW": 30.0, "DIRNOW": 2.0, "SPDNOW": 2.0, "TECH": "TRAK", "ADVNR": 12, "ATCFID": "IO052025", "NAME": "DITWAH", "FTECH": "JTWC", "FCST_DTG": "2025-11-29 18:00:00", "RUN_DTG": "2025-11-30 08:13:33", "BASIN": "IO", "STMNR": 5, "CAT_ID": null, "CAT_DESC": null, "MSGID": "WTIO52 PGTW 292100", "VALIDTIME": "2025-11-25 12:00:00" }, "geometry": { "type": "Point", "coordinates": [ 79.900002, 5.0 ] } },
{ "type": "Feature", "properties": { "ID": 82733, "LAT": 5.0, "LON": 80.8, "VMAX": 25.0, "MSLP": 1011.80975, "RMAX": 45.0, "FSPD": 5.13036, "FDIR": 53.01205, "RENV": 500.0, "PENV": 1012.0, "VALIDT": 0, "DTG": "2025-11-25 18:00", "LATNOW": 10.5, "LONNOW": 80.8, "WINDNOW": 30.0, "DIRNOW": 2.0, "SPDNOW": 2.0, "TECH": "TRAK", "ADVNR": 12, "ATCFID": "IO052025", "NAME": "DITWAH", "FTECH": "JTWC", "FCST_DTG": "2025-11-29 18:00:00", "RUN_DTG": "2025-11-30 08:13:33", "BASIN": "IO", "STMNR": 5, "CAT_ID": null, "CAT_DESC": null, "MSGID": "WTIO52 PGTW 292100", "VALIDTIME": "2025-11-25 18:00:00" }, "geometry": { "type": "Point", "coordinates": [ 80.800003, 5.0 ] } },
{ "type": "Feature", "properties": { "ID": 82734, "LAT": 5.6, "LON": 81.6, "VMAX": 25.0, "MSLP": 1011.80975, "RMAX": 45.0, "FSPD": 2.29833, "FDIR": 26.44812, "RENV": 500.0, "PENV": 1012.0, "VALIDT": 0, "DTG": "2025-11-26 00:00", "LATNOW": 10.5, "LONNOW": 80.8, "WINDNOW": 30.0, "DIRNOW": 2.0, "SPDNOW": 2.0, "TECH": "TRAK", "ADVNR": 12, "ATCFID": "IO052025", "NAME": "DITWAH", "FTECH": "JTWC", "FCST_DTG": "2025-11-29 18:00:00", "RUN_DTG": "2025-11-30 08:13:33", "BASIN": "IO", "STMNR": 5, "CAT_ID": null, "CAT_DESC": null, "MSGID": "WTIO52 PGTW 292100", "VALIDTIME": "2025-11-26 00:00:00" }, "geometry": { "type": "Point", "coordinates": [ 81.599998, 5.6 ] } },
{ "type": "Feature", "properties": { "ID": 82735, "LAT": 6.0, "LON": 81.8, "VMAX": 25.0, "MSLP": 1011.80975, "RMAX": 45.0, "FSPD": 1.45097, "FDIR": 315.162, "RENV": 500.0, "PENV": 1012.0, "VALIDT": 0, "DTG": "2025-11-26 06:00", "LATNOW": 10.5, "LONNOW": 80.8, "WINDNOW": 30.0, "DIRNOW": 2.0, "SPDNOW": 2.0, "TECH": "TRAK", "ADVNR": 12, "ATCFID": "IO052025", "NAME": "DITWAH", "FTECH": "JTWC", "FCST_DTG": "2025-11-29 18:00:00", "RUN_DTG": "2025-11-30 08:13:33", "BASIN": "IO", "STMNR": 5, "CAT_ID": null, "CAT_DESC": null, "MSGID": "WTIO52 PGTW 292100", "VALIDTIME": "2025-11-26 06:00:00" }, "geometry": { "type": "Point", "coordinates": [ 81.800003, 6.0 ] } },
{ "type": "Feature", "properties": { "ID": 82736, "LAT": 6.2, "LON": 81.6, "VMAX": 25.0, "MSLP": 1011.80975, "RMAX": 45.0, "FSPD": 1.02286, "FDIR": 269.99997, "RENV": 500.0, "PENV": 1012.0, "VALIDT": 0, "DTG": "2025-11-26 12:00", "LATNOW": 10.5, "LONNOW": 80.8, "WINDNOW": 30.0, "DIRNOW": 2.0, "SPDNOW": 2.0, "TECH": "TRAK", "ADVNR": 12, "ATCFID": "IO052025", "NAME": "DITWAH", "FTECH": "JTWC", "FCST_DTG": "2025-11-29 18:00:00", "RUN_DTG": "2025-11-30 08:13:33", "BASIN": "IO", "STMNR": 5, "CAT_ID": null, "CAT_DESC": null, "MSGID": "WTIO52 PGTW 292100", "VALIDTIME": "2025-11-26 12:00:00" }, "geometry": { "type": "Point", "coordinates": [ 81.599998, 6.2 ] } },
{ "type": "Feature", "properties": { "ID": 82737, "LAT": 6.2, "LON": 81.4, "VMAX": 30.0, "MSLP": 1010.40607, "RMAX": 44.21983, "FSPD": 2.29797, "FDIR": 333.56976, "RENV": 500.0, "PENV": 1012.0, "VALIDT": 0, "DTG": "2025-11-26 18:00", "LATNOW": 10.5, "LONNOW": 80.8, "WINDNOW": 30.0, "DIRNOW": 2.0, "SPDNOW": 2.0, "TECH": "TRAK", "ADVNR": 12, "ATCFID": "IO052025", "NAME": "DITWAH", "FTECH": "JTWC", "FCST_DTG": "2025-11-29 18:00:00", "RUN_DTG": "2025-11-30 08:13:33", "BASIN": "IO", "STMNR": 5, "CAT_ID": null, "CAT_DESC": null, "MSGID": "WTIO52 PGTW 292100", "VALIDTIME": "2025-11-26 18:00:00" }, "geometry": { "type": "Point", "coordinates": [ 81.400002, 6.2 ] } },
{ "type": "Feature", "properties": { "ID": 82738, "LAT": 6.32, "LON": 81.34, "VMAX": 30.0, "MSLP": 1010.40607, "RMAX": 44.21983, "FSPD": 2.29775, "FDIR": 333.58075, "RENV": 500.0, "PENV": 1012.0, "VALIDT": 0, "DTG": "2025-11-26 19:00", "LATNOW": 10.5, "LONNOW": 80.8, "WINDNOW": 30.0, "DIRNOW": 2.0, "SPDNOW": 2.0, "TECH": "TRAK", "ADVNR": 12, "ATCFID": "IO052025", "NAME": "DITWAH", "FTECH": "JTWC", "FCST_DTG": "2025-11-29 18:00:00", "RUN_DTG": "2025-11-30 08:13:33", "BASIN": "IO", "STMNR": 5, "CAT_ID": null, "CAT_DESC": null, "MSGID": "WTIO52 PGTW 292100", "VALIDTIME": "2025-11-26 19:00:00" }, "geometry": { "type": "Point", "coordinates": [ 81.339996, 6.32 ] } },
{ "type": "Feature", "properties": { "ID": 82739, "LAT": 6.6, "LON": 81.2, "VMAX": 35.0, "MSLP": 1003.0, "RMAX": 50.0, "FSPD": 5.03695, "FDIR": 65.88708, "RENV": 190.0, "PENV": 1009.0, "VALIDT": 0, "DTG": "2025-11-27 00:00", "LATNOW": 10.5, "LONNOW": 80.8, "WINDNOW": 30.0, "DIRNOW": 2.0, "SPDNOW": 2.0, "TECH": "TRAK", "ADVNR": 12, "ATCFID": "IO052025", "NAME": "DITWAH", "FTECH": "JTWC", "FCST_DTG": "2025-11-29 18:00:00", "RUN_DTG": "2025-11-30 08:13:33", "BASIN": "IO", "STMNR": 5, "CAT_ID": null, "CAT_DESC": null, "MSGID": "WTIO52 PGTW 292100", "VALIDTIME": "2025-11-27 00:00:00" }, "geometry": { "type": "Point", "coordinates": [ 81.199997, 6.6 ] } },
{ "type": "Feature", "properties": { "ID": 82740, "LAT": 7.0, "LON": 82.1, "VMAX": 35.0, "MSLP": 1003.0, "RMAX": 50.0, "FSPD": 3.70049, "FDIR": 326.52472, "RENV": 190.0, "PENV": 1009.0, "VALIDT": 0, "DTG": "2025-11-27 06:00", "LATNOW": 10.5, "LONNOW": 80.8, "WINDNOW": 30.0, "DIRNOW": 2.0, "SPDNOW": 2.0, "TECH": "TRAK", "ADVNR": 12, "ATCFID": "IO052025", "NAME": "DITWAH", "FTECH": "JTWC", "FCST_DTG": "2025-11-29 18:00:00", "RUN_DTG": "2025-11-30 08:13:33", "BASIN": "IO", "STMNR": 5, "CAT_ID": null, "CAT_DESC": null, "MSGID": "WTIO52 PGTW 292100", "VALIDTIME": "2025-11-27 06:00:00" }, "geometry": { "type": "Point", "coordinates": [ 82.099998, 7.0 ] } },
{ "type": "Feature", "properties": { "ID": 82741, "LAT": 7.6, "LON": 81.7, "VMAX": 35.0, "MSLP": 1002.0, "RMAX": 50.0, "FSPD": 2.55719, "FDIR": 307.123, "RENV": 190.0, "PENV": 1010.0, "VALIDT": 0, "DTG": "2025-11-27 12:00", "LATNOW": 10.5, "LONNOW": 80.8, "WINDNOW": 30.0, "DIRNOW": 2.0, "SPDNOW": 2.0, "TECH": "TRAK", "ADVNR": 12, "ATCFID": "IO052025", "NAME": "DITWAH", "FTECH": "JTWC", "FCST_DTG": "2025-11-29 18:00:00", "RUN_DTG": "2025-11-30 08:13:33", "BASIN": "IO", "STMNR": 5, "CAT_ID": null, "CAT_DESC": null, "MSGID": "WTIO52 PGTW 292100", "VALIDTIME": "2025-11-27 12:00:00" }, "geometry": { "type": "Point", "coordinates": [ 81.699997, 7.6 ] } },
{ "type": "Feature", "properties": { "ID": 82742, "LAT": 7.9, "LON": 81.3, "VMAX": 35.0, "MSLP": 1002.0, "RMAX": 50.0, "FSPD": 1.44802, "FDIR": 315.27954, "RENV": 190.0, "PENV": 1010.0, "VALIDT": 0, "DTG": "2025-11-27 18:00", "LATNOW": 10.5, "LONNOW": 80.8, "WINDNOW": 30.0, "DIRNOW": 2.0, "SPDNOW": 2.0, "TECH": "TRAK", "ADVNR": 12, "ATCFID": "IO052025", "NAME": "DITWAH", "FTECH": "JTWC", "FCST_DTG": "2025-11-29 18:00:00", "RUN_DTG": "2025-11-30 08:13:33", "BASIN": "IO", "STMNR": 5, "CAT_ID": null, "CAT_DESC": null, "MSGID": "WTIO52 PGTW 292100", "VALIDTIME": "2025-11-27 18:00:00" }, "geometry": { "type": "Point", "coordinates": [ 81.300003, 7.9 ] } },
{ "type": "Feature", "properties": { "ID": 82743, "LAT": 8.1, "LON": 81.1, "VMAX": 35.0, "MSLP": 1004.0, "RMAX": 50.0, "FSPD": 1.14799, "FDIR": 333.67004, "RENV": 210.0, "PENV": 1011.0, "VALIDT": 0, "DTG": "2025-11-28 00:00", "LATNOW": 10.5, "LONNOW": 80.8, "WINDNOW": 30.0, "DIRNOW": 2.0, "SPDNOW": 2.0, "TECH": "TRAK", "ADVNR": 12, "ATCFID": "IO052025", "NAME": "DITWAH", "FTECH": "JTWC", "FCST_DTG": "2025-11-29 18:00:00", "RUN_DTG": "2025-11-30 08:13:33", "BASIN": "IO", "STMNR": 5, "CAT_ID": null, "CAT_DESC": null, "MSGID": "WTIO52 PGTW 292100", "VALIDTIME": "2025-11-28 00:00:00" }, "geometry": { "type": "Point", "coordinates": [ 81.099998, 8.1 ] } },
{ "type": "Feature", "properties": { "ID": 82744, "LAT": 8.3, "LON": 81.0, "VMAX": 35.0, "MSLP": 1002.0, "RMAX": 60.0, "FSPD": 1.62506, "FDIR": 341.7521, "RENV": 210.0, "PENV": 1011.0, "VALIDT": 0, "DTG": "2025-11-28 06:00", "LATNOW": 10.5, "LONNOW": 80.8, "WINDNOW": 30.0, "DIRNOW": 2.0, "SPDNOW": 2.0, "TECH": "TRAK", "ADVNR": 12, "ATCFID": "IO052025", "NAME": "DITWAH", "FTECH": "JTWC", "FCST_DTG": "2025-11-29 18:00:00", "RUN_DTG": "2025-11-30 08:13:33", "BASIN": "IO", "STMNR": 5, "CAT_ID": null, "CAT_DESC": null, "MSGID": "WTIO52 PGTW 292100", "VALIDTIME": "2025-11-28 06:00:00" }, "geometry": { "type": "Point", "coordinates": [ 81.0, 8.3 ] } },
{ "type": "Feature", "properties": { "ID": 82745, "LAT": 8.6, "LON": 80.9, "VMAX": 35.0, "MSLP": 1004.0, "RMAX": 60.0, "FSPD": 2.11964, "FDIR": 346.12274, "RENV": 210.0, "PENV": 1010.0, "VALIDT": 0, "DTG": "2025-11-28 12:00", "LATNOW": 10.5, "LONNOW": 80.8, "WINDNOW": 30.0, "DIRNOW": 2.0, "SPDNOW": 2.0, "TECH": "TRAK", "ADVNR": 12, "ATCFID": "IO052025", "NAME": "DITWAH", "FTECH": "JTWC", "FCST_DTG": "2025-11-29 18:00:00", "RUN_DTG": "2025-11-30 08:13:33", "BASIN": "IO", "STMNR": 5, "CAT_ID": null, "CAT_DESC": null, "MSGID": "WTIO52 PGTW 292100", "VALIDTIME": "2025-11-28 12:00:00" }, "geometry": { "type": "Point", "coordinates": [ 80.900002, 8.6 ] } },
{ "type": "Feature", "properties": { "ID": 82746, "LAT": 9.0, "LON": 80.8, "VMAX": 35.0, "MSLP": 1004.0, "RMAX": 60.0, "FSPD": 2.05778, "FDIR": 360.0, "RENV": 210.0, "PENV": 1010.0, "VALIDT": 0, "DTG": "2025-11-28 18:00", "LATNOW": 10.5, "LONNOW": 80.8, "WINDNOW": 30.0, "DIRNOW": 2.0, "SPDNOW": 2.0, "TECH": "TRAK", "ADVNR": 12, "ATCFID": "IO052025", "NAME": "DITWAH", "FTECH": "JTWC", "FCST_DTG": "2025-11-29 18:00:00", "RUN_DTG": "2025-11-30 08:13:33", "BASIN": "IO", "STMNR": 5, "CAT_ID": null, "CAT_DESC": null, "MSGID": "WTIO52 PGTW 292100", "VALIDTIME": "2025-11-28 18:00:00" }, "geometry": { "type": "Point", "coordinates": [ 80.800003, 9.0 ] } },
{ "type": "Feature", "properties": { "ID": 82747, "LAT": 9.4, "LON": 80.8, "VMAX": 35.0, "MSLP": 1004.0, "RMAX": 60.0, "FSPD": 2.57222, "FDIR": 360.0, "RENV": 210.0, "PENV": 1010.0, "VALIDT": 0, "DTG": "2025-11-29 00:00", "LATNOW": 10.5, "LONNOW": 80.8, "WINDNOW": 30.0, "DIRNOW": 2.0, "SPDNOW": 2.0, "TECH": "TRAK", "ADVNR": 12, "ATCFID": "IO052025", "NAME": "DITWAH", "FTECH": "JTWC", "FCST_DTG": "2025-11-29 18:00:00", "RUN_DTG": "2025-11-30 08:13:33", "BASIN": "IO", "STMNR": 5, "CAT_ID": null, "CAT_DESC": null, "MSGID": "WTIO52 PGTW 292100", "VALIDTIME": "2025-11-29 00:00:00" }, "geometry": { "type": "Point", "coordinates": [ 80.800003, 9.4 ] } },
{ "type": "Feature", "properties": { "ID": 82748, "LAT": 9.9, "LON": 80.8, "VMAX": 35.0, "MSLP": 1003.0, "RMAX": 60.0, "FSPD": 1.54333, "FDIR": 360.0, "RENV": 210.0, "PENV": 1008.0, "VALIDT": 0, "DTG": "2025-11-29 06:00", "LATNOW": 10.5, "LONNOW": 80.8, "WINDNOW": 30.0, "DIRNOW": 2.0, "SPDNOW": 2.0, "TECH": "TRAK", "ADVNR": 12, "ATCFID": "IO052025", "NAME": "DITWAH", "FTECH": "JTWC", "FCST_DTG": "2025-11-29 18:00:00", "RUN_DTG": "2025-11-30 08:13:33", "BASIN": "IO", "STMNR": 5, "CAT_ID": null, "CAT_DESC": null, "MSGID": "WTIO52 PGTW 292100", "VALIDTIME": "2025-11-29 06:00:00" }, "geometry": { "type": "Point", "coordinates": [ 80.800003, 9.9 ] } },
{ "type": "Feature", "properties": { "ID": 82749, "LAT": 10.2, "LON": 80.8, "VMAX": 35.0, "MSLP": 1003.0, "RMAX": 60.0, "FSPD": 1.54333, "FDIR": 360.0, "RENV": 230.0, "PENV": 1010.0, "VALIDT": 0, "DTG": "2025-11-29 12:00", "LATNOW": 10.5, "LONNOW": 80.8, "WINDNOW": 30.0, "DIRNOW": 2.0, "SPDNOW": 2.0, "TECH": "TRAK", "ADVNR": 12, "ATCFID": "IO052025", "NAME": "DITWAH", "FTECH": "JTWC", "FCST_DTG": "2025-11-29 18:00:00", "RUN_DTG": "2025-11-30 08:13:33", "BASIN": "IO", "STMNR": 5, "CAT_ID": null, "CAT_DESC": null, "MSGID": "WTIO52 PGTW 292100", "VALIDTIME": "2025-11-29 12:00:00" }, "geometry": { "type": "Point", "coordinates": [ 80.800003, 10.2 ] } },
{ "type": "Feature", "properties": { "ID": 82750, "LAT": 10.5, "LON": 80.8, "VMAX": 30.0, "MSLP": 1010.40607, "RMAX": 44.21983, "FSPD": 2.315, "FDIR": 360.0, "RENV": 500.0, "PENV": 1012.0, "VALIDT": 0, "DTG": "2025-11-29 18:00", "LATNOW": 10.5, "LONNOW": 80.8, "WINDNOW": 30.0, "DIRNOW": 2.0, "SPDNOW": 2.0, "TECH": "TRAK", "ADVNR": 12, "ATCFID": "IO052025", "NAME": "DITWAH", "FTECH": "JTWC", "FCST_DTG": "2025-11-29 18:00:00", "RUN_DTG": "2025-11-30 08:13:33", "BASIN": "IO", "STMNR": 5, "CAT_ID": null, "CAT_DESC": null, "MSGID": "WTIO52 PGTW 292100", "VALIDTIME": "2025-11-29 18:00:00" }, "geometry": { "type": "Point", "coordinates": [ 80.800003, 10.5 ] } },
{ "type": "Feature", "properties": { "ID": 82751, "LAT": 11.4, "LON": 80.8, "VMAX": 30.0, "MSLP": 1010.40607, "RMAX": 44.21983, "FSPD": 2.57222, "FDIR": 360.0, "RENV": 250.0, "PENV": 1012.0, "VALIDT": 12, "DTG": "2025-11-30 06:00", "LATNOW": 10.5, "LONNOW": 80.8, "WINDNOW": 30.0, "DIRNOW": 2.0, "SPDNOW": 2.0, "TECH": "FCST", "ADVNR": 12, "ATCFID": "IO052025", "NAME": "DITWAH", "FTECH": "JTWC", "FCST_DTG": "2025-11-29 18:00:00", "RUN_DTG": "2025-11-30 08:13:33", "BASIN": "IO", "STMNR": 5, "CAT_ID": null, "CAT_DESC": null, "MSGID": "WTIO52 PGTW 292100", "VALIDTIME": "2025-11-30 06:00:00" }, "geometry": { "type": "Point", "coordinates": [ 80.800003, 11.4 ] } },
{ "type": "Feature", "properties": { "ID": 82752, "LAT": 12.4, "LON": 80.8, "VMAX": 30.0, "MSLP": 1010.40607, "RMAX": 44.21983, "FSPD": 2.57222, "FDIR": 360.0, "RENV": 250.0, "PENV": 1012.0, "VALIDT": 24, "DTG": "2025-11-30 18:00", "LATNOW": 10.5, "LONNOW": 80.8, "WINDNOW": 30.0, "DIRNOW": 2.0, "SPDNOW": 2.0, "TECH": "FCST", "ADVNR": 12, "ATCFID": "IO052025", "NAME": "DITWAH", "FTECH": "JTWC", "FCST_DTG": "2025-11-29 18:00:00", "RUN_DTG": "2025-11-30 08:13:33", "BASIN": "IO", "STMNR": 5, "CAT_ID": null, "CAT_DESC": null, "MSGID": "WTIO52 PGTW 292100", "VALIDTIME": "2025-11-30 18:00:00" }, "geometry": { "type": "Point", "coordinates": [ 80.800003, 12.4 ] } },
{ "type": "Feature", "properties": { "ID": 82750, "LAT": 10.5, "LON": 80.8, "VMAX": 30.0, "MSLP": 1010.40607, "RMAX": 44.21983, "FSPD": 2.315, "FDIR": 360.0, "RENV": 500.0, "PENV": 1012.0, "VALIDT": 0, "DTG": "2025-11-29 18:00", "LATNOW": 10.5, "LONNOW": 80.8, "WINDNOW": 30.0, "DIRNOW": 2.0, "SPDNOW": 2.0, "TECH": "TRAK", "ADVNR": 12, "ATCFID": "IO052025", "NAME": "DITWAH", "FTECH": "JTWC", "FCST_DTG": "2025-11-29 18:00:00", "RUN_DTG": "2025-11-30 08:13:33", "BASIN": "IO", "STMNR": 5, "CAT_ID": null, "CAT_DESC": null, "MSGID": "WTIO52 PGTW 292100", "VALIDTIME": "2025-11-29 18:00:00" }, "geometry": { "type": "LineString", "coordinates": [ [ 77.7, 6.6 ], [ 77.8, 6.3 ], [ 78.1, 6.1 ], [ 78.5, 5.8 ], [ 78.8, 5.5 ], [ 79.0, 5.0 ], [ 79.9, 5.0 ], [ 80.8, 5.0 ], [ 81.6, 5.6 ], [ 81.8, 6.0 ], [ 81.6, 6.2 ], [ 81.4, 6.2 ], [ 81.34, 6.32 ], [ 81.2, 6.6 ], [ 82.1, 7.0 ], [ 81.7, 7.6 ], [ 81.3, 7.9 ], [ 81.1, 8.1 ], [ 81.0, 8.3 ], [ 80.9, 8.6 ], [ 80.8, 9.0 ], [ 80.8, 9.4 ], [ 80.8, 9.9 ], [ 80.8, 10.2 ], [ 80.8, 10.5 ] ] } },
{ "type": "Feature", "properties": { "ID": 82752, "LAT": 12.4, "LON": 80.8, "VMAX": 30.0, "MSLP": 1010.40607, "RMAX": 44.21983, "FSPD": 2.57222, "FDIR": 360.0, "RENV": 250.0, "PENV": 1012.0, "VALIDT": 24, "DTG": "2025-11-30 18:00", "LATNOW": 10.5, "LONNOW": 80.8, "WINDNOW": 30.0, "DIRNOW": 2.0, "SPDNOW": 2.0, "TECH": "FCST", "ADVNR": 12, "ATCFID": "IO052025", "NAME": "DITWAH", "FTECH": "JTWC", "FCST_DTG": "2025-11-29 18:00:00", "RUN_DTG": "2025-11-30 08:13:33", "BASIN": "IO", "STMNR": 5, "CAT_ID": null, "CAT_DESC": null, "MSGID": "WTIO52 PGTW 292100", "VALIDTIME": "2025-11-30 18:00:00" }, "geometry": { "type": "LineString", "coordinates": [ [ 80.8, 10.5 ], [ 80.8, 11.4 ], [ 80.8, 12.4 ] ] } }
]
}
