{
"type": "FeatureCollection",
"crs": { "type": "name", "properties": { "name": "urn:ogc:def:crs:OGC:1.3:CRS84" } },
"features": [
{ "type": "Feature", "properties": { "ID": 65349, "LAT": 10.8, "LON": 145.9, "VMAX": 20.0, "MSLP": 1012.95825, "RMAX": 45.0, "FSPD": 5.22163, "FDIR": 299.51218, "RENV": 500.0, "PENV": 1012.0, "VALIDT": 0, "DTG": "2025-10-14 00:00", "LATNOW": 16.0, "LONNOW": 108.6, "WINDNOW": 25.0, "DIRNOW": 3.0, "SPDNOW": 4.0, "TECH": "TRAK", "ADVNR": 21, "ATCFID": "WP302025", "NAME": "FENGSHEN", "FTECH": "JTWC", "FCST_DTG": "2025-10-23 00:00:00", "RUN_DTG": "2025-10-23 15:14:57", "BASIN": "WP", "STMNR": 30, "CAT_ID": null, "CAT_DESC": null, "MSGID": "WTPN31 PGTW 230300", "VALIDTIME": "2025-10-14 00:00:00" }, "geometry": { "type": "Point", "coordinates": [ 145.899994, 10.8 ] } },
{ "type": "Feature", "properties": { "ID": 65350, "LAT": 11.3, "LON": 145.0, "VMAX": 20.0, "MSLP": 1012.95825, "RMAX": 45.0, "FSPD": 4.7828, "FDIR": 302.53442, "RENV": 500.0, "PENV": 1012.0, "VALIDT": 0, "DTG": "2025-10-14 06:00", "LATNOW": 16.0, "LONNOW": 108.6, "WINDNOW": 25.0, "DIRNOW": 3.0, "SPDNOW": 4.0, "TECH": "TRAK", "ADVNR": 21, "ATCFID": "WP302025", "NAME": "FENGSHEN", "FTECH": "JTWC", "FCST_DTG": "2025-10-23 00:00:00", "RUN_DTG": "2025-10-23 15:14:57", "BASIN": "WP", "STMNR": 30, "CAT_ID": null, "CAT_DESC": null, "MSGID": "WTPN31 PGTW 230300", "VALIDTIME": "2025-10-14 06:00:00" }, "geometry": { "type": "Point", "coordinates": [ 145.0, 11.3 ] } },
{ "type": "Feature", "properties": { "ID": 65351, "LAT": 11.8, "LON": 144.2, "VMAX": 20.0, "MSLP": 1012.95825, "RMAX": 45.0, "FSPD": 5.90169, "FDIR": 301.5346, "RENV": 500.0, "PENV": 1012.0, "VALIDT": 0, "DTG": "2025-10-14 12:00", "LATNOW": 16.0, "LONNOW": 108.6, "WINDNOW": 25.0, "DIRNOW": 3.0, "SPDNOW": 4.0, "TECH": "TRAK", "ADVNR": 21, "ATCFID": "WP302025", "NAME": "FENGSHEN", "FTECH": "JTWC", "FCST_DTG": "2025-10-23 00:00:00", "RUN_DTG": "2025-10-23 15:14:57", "BASIN": "WP", "STMNR": 30, "CAT_ID": null, "CAT_DESC": null, "MSGID": "WTPN31 PGTW 230300", "VALIDTIME": "2025-10-14 12:00:00" }, "geometry": { "type": "Point", "coordinates": [ 144.199997, 11.8 ] } },
{ "type": "Feature", "properties": { "ID": 65352, "LAT": 12.4, "LON": 143.2, "VMAX": 20.0, "MSLP": 1012.95825, "RMAX": 45.0, "FSPD": 6.54969, "FDIR": 293.12408, "RENV": 500.0, "PENV": 1012.0, "VALIDT": 0, "DTG": "2025-10-14 18:00", "LATNOW": 16.0, "LONNOW": 108.6, "WINDNOW": 25.0, "DIRNOW": 3.0, "SPDNOW": 4.0, "TECH": "TRAK", "ADVNR": 21, "ATCFID": "WP302025", "NAME": "FENGSHEN", "FTECH": "JTWC", "FCST_DTG": "2025-10-23 00:00:00", "RUN_DTG": "2025-10-23 15:14:57", "BASIN": "WP", "STMNR": 30, "CAT_ID": null, "CAT_DESC": null, "MSGID": "WTPN31 PGTW 230300", "VALIDTIME": "2025-10-14 18:00:00" }, "geometry": { "type": "Point", "coordinates": [ 143.199997, 12.4 ] } },
{ "type": "Feature", "properties": { "ID": 65353, "LAT": 12.9, "LON": 142.0, "VMAX": 20.0, "MSLP": 1012.95825, "RMAX": 45.0, "FSPD": 6.54057, "FDIR": 265.48877, "RENV": 500.0, "PENV": 1012.0, "VALIDT": 0, "DTG": "2025-10-15 00:00", "LATNOW": 16.0, "LONNOW": 108.6, "WINDNOW": 25.0, "DIRNOW": 3.0, "SPDNOW": 4.0, "TECH": "TRAK", "ADVNR": 21, "ATCFID": "WP302025", "NAME": "FENGSHEN", "FTECH": "JTWC", "FCST_DTG": "2025-10-23 00:00:00", "RUN_DTG": "2025-10-23 15:14:57", "BASIN": "WP", "STMNR": 30, "CAT_ID": null, "CAT_DESC": null, "MSGID": "WTPN31 PGTW 230300", "VALIDTIME": "2025-10-15 00:00:00" }, "geometry": { "type": "Point", "coordinates": [ 142.0, 12.9 ] } },
{ "type": "Feature", "properties": { "ID": 65354, "LAT": 12.8, "LON": 140.7, "VMAX": 20.0, "MSLP": 1012.95825, "RMAX": 45.0, "FSPD": 7.10092, "FDIR": 261.66876, "RENV": 500.0, "PENV": 1012.0, "VALIDT": 0, "DTG": "2025-10-15 06:00", "LATNOW": 16.0, "LONNOW": 108.6, "WINDNOW": 25.0, "DIRNOW": 3.0, "SPDNOW": 4.0, "TECH": "TRAK", "ADVNR": 21, "ATCFID": "WP302025", "NAME": "FENGSHEN", "FTECH": "JTWC", "FCST_DTG": "2025-10-23 00:00:00", "RUN_DTG": "2025-10-23 15:14:57", "BASIN": "WP", "STMNR": 30, "CAT_ID": null, "CAT_DESC": null, "MSGID": "WTPN31 PGTW 230300", "VALIDTIME": "2025-10-15 06:00:00" }, "geometry": { "type": "Point", "coordinates": [ 140.699997, 12.8 ] } },
{ "type": "Feature", "properties": { "ID": 65355, "LAT": 12.6, "LON": 139.3, "VMAX": 20.0, "MSLP": 1012.95825, "RMAX": 45.0, "FSPD": 9.04987, "FDIR": 273.25873, "RENV": 500.0, "PENV": 1012.0, "VALIDT": 0, "DTG": "2025-10-15 12:00", "LATNOW": 16.0, "LONNOW": 108.6, "WINDNOW": 25.0, "DIRNOW": 3.0, "SPDNOW": 4.0, "TECH": "TRAK", "ADVNR": 21, "ATCFID": "WP302025", "NAME": "FENGSHEN", "FTECH": "JTWC", "FCST_DTG": "2025-10-23 00:00:00", "RUN_DTG": "2025-10-23 15:14:57", "BASIN": "WP", "STMNR": 30, "CAT_ID": null, "CAT_DESC": null, "MSGID": "WTPN31 PGTW 230300", "VALIDTIME": "2025-10-15 12:00:00" }, "geometry": { "type": "Point", "coordinates": [ 139.300003, 12.6 ] } },
{ "type": "Feature", "properties": { "ID": 65356, "LAT": 12.7, "LON": 137.5, "VMAX": 20.0, "MSLP": 1012.95825, "RMAX": 45.0, "FSPD": 10.0116, "FDIR": 287.95734, "RENV": 500.0, "PENV": 1012.0, "VALIDT": 0, "DTG": "2025-10-15 18:00", "LATNOW": 16.0, "LONNOW": 108.6, "WINDNOW": 25.0, "DIRNOW": 3.0, "SPDNOW": 4.0, "TECH": "TRAK", "ADVNR": 21, "ATCFID": "WP302025", "NAME": "FENGSHEN", "FTECH": "JTWC", "FCST_DTG": "2025-10-23 00:00:00", "RUN_DTG": "2025-10-23 15:14:57", "BASIN": "WP", "STMNR": 30, "CAT_ID": null, "CAT_DESC": null, "MSGID": "WTPN31 PGTW 230300", "VALIDTIME": "2025-10-15 18:00:00" }, "geometry": { "type": "Point", "coordinates": [ 137.5, 12.7 ] } },
{ "type": "Feature", "properties": { "ID": 65357, "LAT": 13.3, "LON": 135.6, "VMAX": 20.0, "MSLP": 1012.95825, "RMAX": 45.0, "FSPD": 10.15814, "FDIR": 290.76306, "RENV": 500.0, "PENV": 1012.0, "VALIDT": 0, "DTG": "2025-10-16 00:00", "LATNOW": 16.0, "LONNOW": 108.6, "WINDNOW": 25.0, "DIRNOW": 3.0, "SPDNOW": 4.0, "TECH": "TRAK", "ADVNR": 21, "ATCFID": "WP302025", "NAME": "FENGSHEN", "FTECH": "JTWC", "FCST_DTG": "2025-10-23 00:00:00", "RUN_DTG": "2025-10-23 15:14:57", "BASIN": "WP", "STMNR": 30, "CAT_ID": null, "CAT_DESC": null, "MSGID": "WTPN31 PGTW 230300", "VALIDTIME": "2025-10-16 00:00:00" }, "geometry": { "type": "Point", "coordinates": [ 135.600006, 13.3 ] } },
{ "type": "Feature", "properties": { "ID": 65358, "LAT": 14.0, "LON": 133.7, "VMAX": 20.0, "MSLP": 1012.95825, "RMAX": 45.0, "FSPD": 6.80217, "FDIR": 287.60883, "RENV": 500.0, "PENV": 1012.0, "VALIDT": 0, "DTG": "2025-10-16 06:00", "LATNOW": 16.0, "LONNOW": 108.6, "WINDNOW": 25.0, "DIRNOW": 3.0, "SPDNOW": 4.0, "TECH": "TRAK", "ADVNR": 21, "ATCFID": "WP302025", "NAME": "FENGSHEN", "FTECH": "JTWC", "FCST_DTG": "2025-10-23 00:00:00", "RUN_DTG": "2025-10-23 15:14:57", "BASIN": "WP", "STMNR": 30, "CAT_ID": null, "CAT_DESC": null, "MSGID": "WTPN31 PGTW 230300", "VALIDTIME": "2025-10-16 06:00:00" }, "geometry": { "type": "Point", "coordinates": [ 133.699997, 14.0 ] } },
{ "type": "Feature", "properties": { "ID": 65359, "LAT": 14.4, "LON": 132.4, "VMAX": 20.0, "MSLP": 1012.95825, "RMAX": 45.0, "FSPD": 4.74778, "FDIR": 237.1955, "RENV": 500.0, "PENV": 1012.0, "VALIDT": 0, "DTG": "2025-10-16 12:00", "LATNOW": 16.0, "LONNOW": 108.6, "WINDNOW": 25.0, "DIRNOW": 3.0, "SPDNOW": 4.0, "TECH": "TRAK", "ADVNR": 21, "ATCFID": "WP302025", "NAME": "FENGSHEN", "FTECH": "JTWC", "FCST_DTG": "2025-10-23 00:00:00", "RUN_DTG": "2025-10-23 15:14:57", "BASIN": "WP", "STMNR": 30, "CAT_ID": null, "CAT_DESC": null, "MSGID": "WTPN31 PGTW 230300", "VALIDTIME": "2025-10-16 12:00:00" }, "geometry": { "type": "Point", "coordinates": [ 132.399994, 14.4 ] } },
{ "type": "Feature", "properties": { "ID": 65360, "LAT": 13.9, "LON": 131.6, "VMAX": 20.0, "MSLP": 1012.95825, "RMAX": 45.0, "FSPD": 5.87618, "FDIR": 238.31259, "RENV": 500.0, "PENV": 1012.0, "VALIDT": 0, "DTG": "2025-10-16 18:00", "LATNOW": 16.0, "LONNOW": 108.6, "WINDNOW": 25.0, "DIRNOW": 3.0, "SPDNOW": 4.0, "TECH": "TRAK", "ADVNR": 21, "ATCFID": "WP302025", "NAME": "FENGSHEN", "FTECH": "JTWC", "FCST_DTG": "2025-10-23 00:00:00", "RUN_DTG": "2025-10-23 15:14:57", "BASIN": "WP", "STMNR": 30, "CAT_ID": null, "CAT_DESC": null, "MSGID": "WTPN31 PGTW 230300", "VALIDTIME": "2025-10-16 18:00:00" }, "geometry": { "type": "Point", "coordinates": [ 131.600006, 13.9 ] } },
{ "type": "Feature", "properties": { "ID": 65361, "LAT": 13.3, "LON": 130.6, "VMAX": 20.0, "MSLP": 1012.95825, "RMAX": 45.0, "FSPD": 6.20647, "FDIR": 255.6014, "RENV": 500.0, "PENV": 1012.0, "VALIDT": 0, "DTG": "2025-10-17 00:00", "LATNOW": 16.0, "LONNOW": 108.6, "WINDNOW": 25.0, "DIRNOW": 3.0, "SPDNOW": 4.0, "TECH": "TRAK", "ADVNR": 21, "ATCFID": "WP302025", "NAME": "FENGSHEN", "FTECH": "JTWC", "FCST_DTG": "2025-10-23 00:00:00", "RUN_DTG": "2025-10-23 15:14:57", "BASIN": "WP", "STMNR": 30, "CAT_ID": null, "CAT_DESC": null, "MSGID": "WTPN31 PGTW 230300", "VALIDTIME": "2025-10-17 00:00:00" }, "geometry": { "type": "Point", "coordinates": [ 130.600006, 13.3 ] } },
{ "type": "Feature", "properties": { "ID": 65362, "LAT": 13.0, "LON": 129.4, "VMAX": 20.0, "MSLP": 1012.95825, "RMAX": 45.0, "FSPD": 6.10484, "FDIR": 260.29724, "RENV": 500.0, "PENV": 1012.0, "VALIDT": 0, "DTG": "2025-10-17 06:00", "LATNOW": 16.0, "LONNOW": 108.6, "WINDNOW": 25.0, "DIRNOW": 3.0, "SPDNOW": 4.0, "TECH": "TRAK", "ADVNR": 21, "ATCFID": "WP302025", "NAME": "FENGSHEN", "FTECH": "JTWC", "FCST_DTG": "2025-10-23 00:00:00", "RUN_DTG": "2025-10-23 15:14:57", "BASIN": "WP", "STMNR": 30, "CAT_ID": null, "CAT_DESC": null, "MSGID": "WTPN31 PGTW 230300", "VALIDTIME": "2025-10-17 06:00:00" }, "geometry": { "type": "Point", "coordinates": [ 129.399994, 13.0 ] } },
{ "type": "Feature", "properties": { "ID": 65363, "LAT": 12.8, "LON": 128.2, "VMAX": 20.0, "MSLP": 1012.95825, "RMAX": 45.0, "FSPD": 6.04304, "FDIR": 265.11646, "RENV": 500.0, "PENV": 1012.0, "VALIDT": 0, "DTG": "2025-10-17 12:00", "LATNOW": 16.0, "LONNOW": 108.6, "WINDNOW": 25.0, "DIRNOW": 3.0, "SPDNOW": 4.0, "TECH": "TRAK", "ADVNR": 21, "ATCFID": "WP302025", "NAME": "FENGSHEN", "FTECH": "JTWC", "FCST_DTG": "2025-10-23 00:00:00", "RUN_DTG": "2025-10-23 15:14:57", "BASIN": "WP", "STMNR": 30, "CAT_ID": null, "CAT_DESC": null, "MSGID": "WTPN31 PGTW 230300", "VALIDTIME": "2025-10-17 12:00:00" }, "geometry": { "type": "Point", "coordinates": [ 128.199997, 12.8 ] } },
{ "type": "Feature", "properties": { "ID": 65364, "LAT": 12.7, "LON": 127.0, "VMAX": 25.0, "MSLP": 1011.80975, "RMAX": 45.0, "FSPD": 7.28628, "FDIR": 304.39093, "RENV": 500.0, "PENV": 1012.0, "VALIDT": 0, "DTG": "2025-10-17 18:00", "LATNOW": 16.0, "LONNOW": 108.6, "WINDNOW": 25.0, "DIRNOW": 3.0, "SPDNOW": 4.0, "TECH": "TRAK", "ADVNR": 21, "ATCFID": "WP302025", "NAME": "FENGSHEN", "FTECH": "JTWC", "FCST_DTG": "2025-10-23 00:00:00", "RUN_DTG": "2025-10-23 15:14:57", "BASIN": "WP", "STMNR": 30, "CAT_ID": null, "CAT_DESC": null, "MSGID": "WTPN31 PGTW 230300", "VALIDTIME": "2025-10-17 18:00:00" }, "geometry": { "type": "Point", "coordinates": [ 127.0, 12.7 ] } },
{ "type": "Feature", "properties": { "ID": 65365, "LAT": 13.5, "LON": 125.8, "VMAX": 30.0, "MSLP": 1002.0, "RMAX": 55.0, "FSPD": 6.07926, "FDIR": 244.96861, "RENV": 190.0, "PENV": 1004.0, "VALIDT": 0, "DTG": "2025-10-18 00:00", "LATNOW": 16.0, "LONNOW": 108.6, "WINDNOW": 25.0, "DIRNOW": 3.0, "SPDNOW": 4.0, "TECH": "TRAK", "ADVNR": 21, "ATCFID": "WP302025", "NAME": "FENGSHEN", "FTECH": "JTWC", "FCST_DTG": "2025-10-23 00:00:00", "RUN_DTG": "2025-10-23 15:14:57", "BASIN": "WP", "STMNR": 30, "CAT_ID": null, "CAT_DESC": null, "MSGID": "WTPN31 PGTW 230300", "VALIDTIME": "2025-10-18 00:00:00" }, "geometry": { "type": "Point", "coordinates": [ 125.800003, 13.5 ] } },
{ "type": "Feature", "properties": { "ID": 65366, "LAT": 13.0, "LON": 124.7, "VMAX": 30.0, "MSLP": 1002.0, "RMAX": 55.0, "FSPD": 4.12026, "FDIR": 330.92685, "RENV": 190.0, "PENV": 1004.0, "VALIDT": 0, "DTG": "2025-10-18 06:00", "LATNOW": 16.0, "LONNOW": 108.6, "WINDNOW": 25.0, "DIRNOW": 3.0, "SPDNOW": 4.0, "TECH": "TRAK", "ADVNR": 21, "ATCFID": "WP302025", "NAME": "FENGSHEN", "FTECH": "JTWC", "FCST_DTG": "2025-10-23 00:00:00", "RUN_DTG": "2025-10-23 15:14:57", "BASIN": "WP", "STMNR": 30, "CAT_ID": null, "CAT_DESC": null, "MSGID": "WTPN31 PGTW 230300", "VALIDTIME": "2025-10-18 06:00:00" }, "geometry": { "type": "Point", "coordinates": [ 124.699997, 13.0 ] } },
{ "type": "Feature", "properties": { "ID": 65367, "LAT": 13.7, "LON": 124.3, "VMAX": 35.0, "MSLP": 1000.0, "RMAX": 50.0, "FSPD": 8.55523, "FDIR": 276.90735, "RENV": 190.0, "PENV": 1004.0, "VALIDT": 0, "DTG": "2025-10-18 12:00", "LATNOW": 16.0, "LONNOW": 108.6, "WINDNOW": 25.0, "DIRNOW": 3.0, "SPDNOW": 4.0, "TECH": "TRAK", "ADVNR": 21, "ATCFID": "WP302025", "NAME": "FENGSHEN", "FTECH": "JTWC", "FCST_DTG": "2025-10-23 00:00:00", "RUN_DTG": "2025-10-23 15:14:57", "BASIN": "WP", "STMNR": 30, "CAT_ID": null, "CAT_DESC": null, "MSGID": "WTPN31 PGTW 230300", "VALIDTIME": "2025-10-18 12:00:00" }, "geometry": { "type": "Point", "coordinates": [ 124.300003, 13.7 ] } },
{ "type": "Feature", "properties": { "ID": 65368, "LAT": 13.9, "LON": 122.6, "VMAX": 35.0, "MSLP": 998.0, "RMAX": 35.0, "FSPD": 5.6163, "FDIR": 297.25772, "RENV": 185.0, "PENV": 1006.0, "VALIDT": 0, "DTG": "2025-10-18 18:00", "LATNOW": 16.0, "LONNOW": 108.6, "WINDNOW": 25.0, "DIRNOW": 3.0, "SPDNOW": 4.0, "TECH": "TRAK", "ADVNR": 21, "ATCFID": "WP302025", "NAME": "FENGSHEN", "FTECH": "JTWC", "FCST_DTG": "2025-10-23 00:00:00", "RUN_DTG": "2025-10-23 15:14:57", "BASIN": "WP", "STMNR": 30, "CAT_ID": null, "CAT_DESC": null, "MSGID": "WTPN31 PGTW 230300", "VALIDTIME": "2025-10-18 18:00:00" }, "geometry": { "type": "Point", "coordinates": [ 122.599998, 13.9 ] } },
{ "type": "Feature", "properties": { "ID": 65369, "LAT": 14.0, "LON": 122.4, "VMAX": 35.0, "MSLP": 998.0, "RMAX": 35.0, "FSPD": 5.61153, "FDIR": 297.28268, "RENV": 185.0, "PENV": 1006.0, "VALIDT": 0, "DTG": "2025-10-18 19:00", "LATNOW": 16.0, "LONNOW": 108.6, "WINDNOW": 25.0, "DIRNOW": 3.0, "SPDNOW": 4.0, "TECH": "TRAK", "ADVNR": 21, "ATCFID": "WP302025", "NAME": "FENGSHEN", "FTECH": "JTWC", "FCST_DTG": "2025-10-23 00:00:00", "RUN_DTG": "2025-10-23 15:14:57", "BASIN": "WP", "STMNR": 30, "CAT_ID": null, "CAT_DESC": null, "MSGID": "WTPN31 PGTW 230300", "VALIDTIME": "2025-10-18 19:00:00" }, "geometry": { "type": "Point", "coordinates": [ 122.400002, 14.0 ] } },
{ "type": "Feature", "properties": { "ID": 65370, "LAT": 14.4, "LON": 121.6, "VMAX": 35.0, "MSLP": 998.0, "RMAX": 35.0, "FSPD": 9.68008, "FDIR": 282.2735, "RENV": 185.0, "PENV": 1006.0, "VALIDT": 0, "DTG": "2025-10-19 00:00", "LATNOW": 16.0, "LONNOW": 108.6, "WINDNOW": 25.0, "DIRNOW": 3.0, "SPDNOW": 4.0, "TECH": "TRAK", "ADVNR": 21, "ATCFID": "WP302025", "NAME": "FENGSHEN", "FTECH": "JTWC", "FCST_DTG": "2025-10-23 00:00:00", "RUN_DTG": "2025-10-23 15:14:57", "BASIN": "WP", "STMNR": 30, "CAT_ID": null, "CAT_DESC": null, "MSGID": "WTPN31 PGTW 230300", "VALIDTIME": "2025-10-19 00:00:00" }, "geometry": { "type": "Point", "coordinates": [ 121.599998, 14.4 ] } },
{ "type": "Feature", "properties": { "ID": 65371, "LAT": 14.8, "LON": 119.7, "VMAX": 35.0, "MSLP": 1001.0, "RMAX": 35.0, "FSPD": 8.04001, "FDIR": 326.2854, "RENV": 185.0, "PENV": 1006.0, "VALIDT": 0, "DTG": "2025-10-19 06:00", "LATNOW": 16.0, "LONNOW": 108.6, "WINDNOW": 25.0, "DIRNOW": 3.0, "SPDNOW": 4.0, "TECH": "TRAK", "ADVNR": 21, "ATCFID": "WP302025", "NAME": "FENGSHEN", "FTECH": "JTWC", "FCST_DTG": "2025-10-23 00:00:00", "RUN_DTG": "2025-10-23 15:14:57", "BASIN": "WP", "STMNR": 30, "CAT_ID": null, "CAT_DESC": null, "MSGID": "WTPN31 PGTW 230300", "VALIDTIME": "2025-10-19 06:00:00" }, "geometry": { "type": "Point", "coordinates": [ 119.699997, 14.8 ] } },
{ "type": "Feature", "properties": { "ID": 65372, "LAT": 16.1, "LON": 118.8, "VMAX": 30.0, "MSLP": 1001.0, "RMAX": 35.0, "FSPD": 8.89625, "FDIR": 313.9416, "RENV": 210.0, "PENV": 1004.0, "VALIDT": 0, "DTG": "2025-10-19 12:00", "LATNOW": 16.0, "LONNOW": 108.6, "WINDNOW": 25.0, "DIRNOW": 3.0, "SPDNOW": 4.0, "TECH": "TRAK", "ADVNR": 21, "ATCFID": "WP302025", "NAME": "FENGSHEN", "FTECH": "JTWC", "FCST_DTG": "2025-10-23 00:00:00", "RUN_DTG": "2025-10-23 15:14:57", "BASIN": "WP", "STMNR": 30, "CAT_ID": null, "CAT_DESC": null, "MSGID": "WTPN31 PGTW 230300", "VALIDTIME": "2025-10-19 12:00:00" }, "geometry": { "type": "Point", "coordinates": [ 118.800003, 16.1 ] } },
{ "type": "Feature", "properties": { "ID": 65373, "LAT": 17.3, "LON": 117.5, "VMAX": 40.0, "MSLP": 1002.0, "RMAX": 35.0, "FSPD": 5.32436, "FDIR": 312.5588, "RENV": 205.0, "PENV": 1005.0, "VALIDT": 0, "DTG": "2025-10-19 18:00", "LATNOW": 16.0, "LONNOW": 108.6, "WINDNOW": 25.0, "DIRNOW": 3.0, "SPDNOW": 4.0, "TECH": "TRAK", "ADVNR": 21, "ATCFID": "WP302025", "NAME": "FENGSHEN", "FTECH": "JTWC", "FCST_DTG": "2025-10-23 00:00:00", "RUN_DTG": "2025-10-23 15:14:57", "BASIN": "WP", "STMNR": 30, "CAT_ID": null, "CAT_DESC": null, "MSGID": "WTPN31 PGTW 230300", "VALIDTIME": "2025-10-19 18:00:00" }, "geometry": { "type": "Point", "coordinates": [ 117.5, 17.299999 ] } },
{ "type": "Feature", "properties": { "ID": 65374, "LAT": 18.0, "LON": 116.7, "VMAX": 45.0, "MSLP": 998.0, "RMAX": 35.0, "FSPD": 7.30758, "FDIR": 290.60928, "RENV": 205.0, "PENV": 1005.0, "VALIDT": 0, "DTG": "2025-10-20 00:00", "LATNOW": 16.0, "LONNOW": 108.6, "WINDNOW": 25.0, "DIRNOW": 3.0, "SPDNOW": 4.0, "TECH": "TRAK", "ADVNR": 21, "ATCFID": "WP302025", "NAME": "FENGSHEN", "FTECH": "JTWC", "FCST_DTG": "2025-10-23 00:00:00", "RUN_DTG": "2025-10-23 15:14:57", "BASIN": "WP", "STMNR": 30, "CAT_ID": null, "CAT_DESC": null, "MSGID": "WTPN31 PGTW 230300", "VALIDTIME": "2025-10-20 00:00:00" }, "geometry": { "type": "Point", "coordinates": [ 116.699997, 18.0 ] } },
{ "type": "Feature", "properties": { "ID": 65375, "LAT": 18.5, "LON": 115.3, "VMAX": 45.0, "MSLP": 996.0, "RMAX": 35.0, "FSPD": 5.36649, "FDIR": 269.99997, "RENV": 205.0, "PENV": 1005.0, "VALIDT": 0, "DTG": "2025-10-20 06:00", "LATNOW": 16.0, "LONNOW": 108.6, "WINDNOW": 25.0, "DIRNOW": 3.0, "SPDNOW": 4.0, "TECH": "TRAK", "ADVNR": 21, "ATCFID": "WP302025", "NAME": "FENGSHEN", "FTECH": "JTWC", "FCST_DTG": "2025-10-23 00:00:00", "RUN_DTG": "2025-10-23 15:14:57", "BASIN": "WP", "STMNR": 30, "CAT_ID": null, "CAT_DESC": null, "MSGID": "WTPN31 PGTW 230300", "VALIDTIME": "2025-10-20 06:00:00" }, "geometry": { "type": "Point", "coordinates": [ 115.300003, 18.5 ] } },
{ "type": "Feature", "properties": { "ID": 65376, "LAT": 18.5, "LON": 114.2, "VMAX": 45.0, "MSLP": 996.0, "RMAX": 30.0, "FSPD": 7.06331, "FDIR": 244.08734, "RENV": 150.0, "PENV": 1003.0, "VALIDT": 0, "DTG": "2025-10-20 12:00", "LATNOW": 16.0, "LONNOW": 108.6, "WINDNOW": 25.0, "DIRNOW": 3.0, "SPDNOW": 4.0, "TECH": "TRAK", "ADVNR": 21, "ATCFID": "WP302025", "NAME": "FENGSHEN", "FTECH": "JTWC", "FCST_DTG": "2025-10-23 00:00:00", "RUN_DTG": "2025-10-23 15:14:57", "BASIN": "WP", "STMNR": 30, "CAT_ID": null, "CAT_DESC": null, "MSGID": "WTPN31 PGTW 230300", "VALIDTIME": "2025-10-20 12:00:00" }, "geometry": { "type": "Point", "coordinates": [ 114.199997, 18.5 ] } },
{ "type": "Feature", "properties": { "ID": 65377, "LAT": 17.9, "LON": 112.9, "VMAX": 45.0, "MSLP": 994.0, "RMAX": 30.0, "FSPD": 4.61628, "FDIR": 228.03712, "RENV": 150.0, "PENV": 1004.0, "VALIDT": 0, "DTG": "2025-10-20 18:00", "LATNOW": 16.0, "LONNOW": 108.6, "WINDNOW": 25.0, "DIRNOW": 3.0, "SPDNOW": 4.0, "TECH": "TRAK", "ADVNR": 21, "ATCFID": "WP302025", "NAME": "FENGSHEN", "FTECH": "JTWC", "FCST_DTG": "2025-10-23 00:00:00", "RUN_DTG": "2025-10-23 15:14:57", "BASIN": "WP", "STMNR": 30, "CAT_ID": null, "CAT_DESC": null, "MSGID": "WTPN31 PGTW 230300", "VALIDTIME": "2025-10-20 18:00:00" }, "geometry": { "type": "Point", "coordinates": [ 112.900002, 17.9 ] } },
{ "type": "Feature", "properties": { "ID": 65378, "LAT": 17.3, "LON": 112.2, "VMAX": 45.0, "MSLP": 994.0, "RMAX": 45.0, "FSPD": 3.12297, "FDIR": 250.76418, "RENV": 125.0, "PENV": 1005.0, "VALIDT": 0, "DTG": "2025-10-21 00:00", "LATNOW": 16.0, "LONNOW": 108.6, "WINDNOW": 25.0, "DIRNOW": 3.0, "SPDNOW": 4.0, "TECH": "TRAK", "ADVNR": 21, "ATCFID": "WP302025", "NAME": "FENGSHEN", "FTECH": "JTWC", "FCST_DTG": "2025-10-23 00:00:00", "RUN_DTG": "2025-10-23 15:14:57", "BASIN": "WP", "STMNR": 30, "CAT_ID": null, "CAT_DESC": null, "MSGID": "WTPN31 PGTW 230300", "VALIDTIME": "2025-10-21 00:00:00" }, "geometry": { "type": "Point", "coordinates": [ 112.199997, 17.299999 ] } },
{ "type": "Feature", "properties": { "ID": 65379, "LAT": 17.1, "LON": 111.6, "VMAX": 45.0, "MSLP": 993.0, "RMAX": 45.0, "FSPD": 1.11006, "FDIR": 242.3906, "RENV": 125.0, "PENV": 1005.0, "VALIDT": 0, "DTG": "2025-10-21 06:00", "LATNOW": 16.0, "LONNOW": 108.6, "WINDNOW": 25.0, "DIRNOW": 3.0, "SPDNOW": 4.0, "TECH": "TRAK", "ADVNR": 21, "ATCFID": "WP302025", "NAME": "FENGSHEN", "FTECH": "JTWC", "FCST_DTG": "2025-10-23 00:00:00", "RUN_DTG": "2025-10-23 15:14:57", "BASIN": "WP", "STMNR": 30, "CAT_ID": null, "CAT_DESC": null, "MSGID": "WTPN31 PGTW 230300", "VALIDTIME": "2025-10-21 06:00:00" }, "geometry": { "type": "Point", "coordinates": [ 111.599998, 17.1 ] } },
{ "type": "Feature", "properties": { "ID": 65380, "LAT": 17.0, "LON": 111.4, "VMAX": 45.0, "MSLP": 993.0, "RMAX": 45.0, "FSPD": 2.49963, "FDIR": 51.87183, "RENV": 125.0, "PENV": 1005.0, "VALIDT": 0, "DTG": "2025-10-21 12:00", "LATNOW": 16.0, "LONNOW": 108.6, "WINDNOW": 25.0, "DIRNOW": 3.0, "SPDNOW": 4.0, "TECH": "TRAK", "ADVNR": 21, "ATCFID": "WP302025", "NAME": "FENGSHEN", "FTECH": "JTWC", "FCST_DTG": "2025-10-23 00:00:00", "RUN_DTG": "2025-10-23 15:14:57", "BASIN": "WP", "STMNR": 30, "CAT_ID": null, "CAT_DESC": null, "MSGID": "WTPN31 PGTW 230300", "VALIDTIME": "2025-10-21 12:00:00" }, "geometry": { "type": "Point", "coordinates": [ 111.400002, 17.0 ] } },
{ "type": "Feature", "properties": { "ID": 65381, "LAT": 17.3, "LON": 111.8, "VMAX": 50.0, "MSLP": 993.0, "RMAX": 45.0, "FSPD": 0.51444, "FDIR": 179.99997, "RENV": 125.0, "PENV": 1005.0, "VALIDT": 0, "DTG": "2025-10-21 18:00", "LATNOW": 16.0, "LONNOW": 108.6, "WINDNOW": 25.0, "DIRNOW": 3.0, "SPDNOW": 4.0, "TECH": "TRAK", "ADVNR": 21, "ATCFID": "WP302025", "NAME": "FENGSHEN", "FTECH": "JTWC", "FCST_DTG": "2025-10-23 00:00:00", "RUN_DTG": "2025-10-23 15:14:57", "BASIN": "WP", "STMNR": 30, "CAT_ID": null, "CAT_DESC": null, "MSGID": "WTPN31 PGTW 230300", "VALIDTIME": "2025-10-21 18:00:00" }, "geometry": { "type": "Point", "coordinates": [ 111.800003, 17.299999 ] } },
{ "type": "Feature", "properties": { "ID": 65382, "LAT": 17.2, "LON": 111.8, "VMAX": 45.0, "MSLP": 988.0, "RMAX": 40.0, "FSPD": 7.52552, "FDIR": 281.83414, "RENV": 170.0, "PENV": 1006.0, "VALIDT": 0, "DTG": "2025-10-22 00:00", "LATNOW": 16.0, "LONNOW": 108.6, "WINDNOW": 25.0, "DIRNOW": 3.0, "SPDNOW": 4.0, "TECH": "TRAK", "ADVNR": 21, "ATCFID": "WP302025", "NAME": "FENGSHEN", "FTECH": "JTWC", "FCST_DTG": "2025-10-23 00:00:00", "RUN_DTG": "2025-10-23 15:14:57", "BASIN": "WP", "STMNR": 30, "CAT_ID": null, "CAT_DESC": null, "MSGID": "WTPN31 PGTW 230300", "VALIDTIME": "2025-10-22 00:00:00" }, "geometry": { "type": "Point", "coordinates": [ 111.800003, 17.200001 ] } },
{ "type": "Feature", "properties": { "ID": 65383, "LAT": 17.5, "LON": 110.3, "VMAX": 45.0, "MSLP": 991.0, "RMAX": 40.0, "FSPD": 3.76786, "FDIR": 245.82005, "RENV": 170.0, "PENV": 1008.0, "VALIDT": 0, "DTG": "2025-10-22 06:00", "LATNOW": 16.0, "LONNOW": 108.6, "WINDNOW": 25.0, "DIRNOW": 3.0, "SPDNOW": 4.0, "TECH": "TRAK", "ADVNR": 21, "ATCFID": "WP302025", "NAME": "FENGSHEN", "FTECH": "JTWC", "FCST_DTG": "2025-10-23 00:00:00", "RUN_DTG": "2025-10-23 15:14:57", "BASIN": "WP", "STMNR": 30, "CAT_ID": null, "CAT_DESC": null, "MSGID": "WTPN31 PGTW 230300", "VALIDTIME": "2025-10-22 06:00:00" }, "geometry": { "type": "Point", "coordinates": [ 110.300003, 17.5 ] } },
{ "type": "Feature", "properties": { "ID": 65384, "LAT": 17.2, "LON": 109.6, "VMAX": 45.0, "MSLP": 992.0, "RMAX": 40.0, "FSPD": 5.70997, "FDIR": 230.90031, "RENV": 145.0, "PENV": 1008.0, "VALIDT": 0, "DTG": "2025-10-22 12:00", "LATNOW": 16.0, "LONNOW": 108.6, "WINDNOW": 25.0, "DIRNOW": 3.0, "SPDNOW": 4.0, "TECH": "TRAK", "ADVNR": 21, "ATCFID": "WP302025", "NAME": "FENGSHEN", "FTECH": "JTWC", "FCST_DTG": "2025-10-23 00:00:00", "RUN_DTG": "2025-10-23 15:14:57", "BASIN": "WP", "STMNR": 30, "CAT_ID": null, "CAT_DESC": null, "MSGID": "WTPN31 PGTW 230300", "VALIDTIME": "2025-10-22 12:00:00" }, "geometry": { "type": "Point", "coordinates": [ 109.599998, 17.200001 ] } },
{ "type": "Feature", "properties": { "ID": 65385, "LAT": 16.5, "LON": 108.7, "VMAX": 35.0, "MSLP": 992.0, "RMAX": 40.0, "FSPD": 2.61921, "FDIR": 190.86887, "RENV": 145.0, "PENV": 1008.0, "VALIDT": 0, "DTG": "2025-10-22 18:00", "LATNOW": 16.0, "LONNOW": 108.6, "WINDNOW": 25.0, "DIRNOW": 3.0, "SPDNOW": 4.0, "TECH": "TRAK", "ADVNR": 21, "ATCFID": "WP302025", "NAME": "FENGSHEN", "FTECH": "JTWC", "FCST_DTG": "2025-10-23 00:00:00", "RUN_DTG": "2025-10-23 15:14:57", "BASIN": "WP", "STMNR": 30, "CAT_ID": null, "CAT_DESC": null, "MSGID": "WTPN31 PGTW 230300", "VALIDTIME": "2025-10-22 18:00:00" }, "geometry": { "type": "Point", "coordinates": [ 108.699997, 16.5 ] } },
{ "type": "Feature", "properties": { "ID": 65386, "LAT": 16.0, "LON": 108.6, "VMAX": 25.0, "MSLP": 1000.0, "RMAX": 40.0, "FSPD": 2.50959, "FDIR": 232.04993, "RENV": 100.0, "PENV": 1006.0, "VALIDT": 0, "DTG": "2025-10-23 00:00", "LATNOW": 16.0, "LONNOW": 108.6, "WINDNOW": 25.0, "DIRNOW": 3.0, "SPDNOW": 4.0, "TECH": "TRAK", "ADVNR": 21, "ATCFID": "WP302025", "NAME": "FENGSHEN", "FTECH": "JTWC", "FCST_DTG": "2025-10-23 00:00:00", "RUN_DTG": "2025-10-23 15:14:57", "BASIN": "WP", "STMNR": 30, "CAT_ID": null, "CAT_DESC": null, "MSGID": "WTPN31 PGTW 230300", "VALIDTIME": "2025-10-23 00:00:00" }, "geometry": { "type": "Point", "coordinates": [ 108.599998, 16.0 ] } },
{ "type": "Feature", "properties": { "ID": 65387, "LAT": 15.82, "LON": 108.36, "VMAX": 25.0, "MSLP": 1000.0, "RMAX": 40.0, "FSPD": 2.51191, "FDIR": 232.09114, "RENV": 100.0, "PENV": 1006.0, "VALIDT": 3, "DTG": "2025-10-23 03:00", "LATNOW": 16.0, "LONNOW": 108.6, "WINDNOW": 25.0, "DIRNOW": 3.0, "SPDNOW": 4.0, "TECH": "FCST", "ADVNR": 21, "ATCFID": "WP302025", "NAME": "FENGSHEN", "FTECH": "JTWC", "FCST_DTG": "2025-10-23 00:00:00", "RUN_DTG": "2025-10-23 15:14:57", "BASIN": "WP", "STMNR": 30, "CAT_ID": null, "CAT_DESC": null, "MSGID": "WTPN31 PGTW 230300", "VALIDTIME": "2025-10-23 03:00:00" }, "geometry": { "type": "Point", "coordinates": [ 108.360001, 15.82 ] } },
{ "type": "Feature", "properties": { "ID": 65388, "LAT": 15.4, "LON": 107.8, "VMAX": 20.0, "MSLP": 1012.95825, "RMAX": 48.03996, "FSPD": 2.54103, "FDIR": 215.92152, "RENV": 250.0, "PENV": 1012.0, "VALIDT": 12, "DTG": "2025-10-23 12:00", "LATNOW": 16.0, "LONNOW": 108.6, "WINDNOW": 25.0, "DIRNOW": 3.0, "SPDNOW": 4.0, "TECH": "FCST", "ADVNR": 21, "ATCFID": "WP302025", "NAME": "FENGSHEN", "FTECH": "JTWC", "FCST_DTG": "2025-10-23 00:00:00", "RUN_DTG": "2025-10-23 15:14:57", "BASIN": "WP", "STMNR": 30, "CAT_ID": null, "CAT_DESC": null, "MSGID": "WTPN31 PGTW 230300", "VALIDTIME": "2025-10-23 12:00:00" }, "geometry": { "type": "Point", "coordinates": [ 107.800003, 15.4 ] } },
{ "type": "Feature", "properties": { "ID": 65389, "LAT": 14.6, "LON": 107.2, "VMAX": 15.0, "MSLP": 1013.8515, "RMAX": 42.70218, "FSPD": 2.54103, "FDIR": 215.92152, "RENV": 250.0, "PENV": 1012.0, "VALIDT": 24, "DTG": "2025-10-24 00:00", "LATNOW": 16.0, "LONNOW": 108.6, "WINDNOW": 25.0, "DIRNOW": 3.0, "SPDNOW": 4.0, "TECH": "FCST", "ADVNR": 21, "ATCFID": "WP302025", "NAME": "FENGSHEN", "FTECH": "JTWC", "FCST_DTG": "2025-10-23 00:00:00", "RUN_DTG": "2025-10-23 15:14:57", "BASIN": "WP", "STMNR": 30, "CAT_ID": null, "CAT_DESC": null, "MSGID": "WTPN31 PGTW 230300", "VALIDTIME": "2025-10-24 00:00:00" }, "geometry": { "type": "Point", "coordinates": [ 107.199997, 14.6 ] } },
{ "type": "Feature", "properties": { "ID": 65386, "LAT": 16.0, "LON": 108.6, "VMAX": 25.0, "MSLP": 1000.0, "RMAX": 40.0, "FSPD": 2.50959, "FDIR": 232.04993, "RENV": 100.0, "PENV": 1006.0, "VALIDT": 0, "DTG": "2025-10-23 00:00", "LATNOW": 16.0, "LONNOW": 108.6, "WINDNOW": 25.0, "DIRNOW": 3.0, "SPDNOW": 4.0, "TECH": "TRAK", "ADVNR": 21, "ATCFID": "WP302025", "NAME": "FENGSHEN", "FTECH": "JTWC", "FCST_DTG": "2025-10-23 00:00:00", "RUN_DTG": "2025-10-23 15:14:57", "BASIN": "WP", "STMNR": 30, "CAT_ID": null, "CAT_DESC": null, "MSGID": "WTPN31 PGTW 230300", "VALIDTIME": "2025-10-23 00:00:00" }, "geometry": { "type": "LineString", "coordinates": [ [ 145.9, 10.8 ], [ 145.0, 11.3 ], [ 144.2, 11.8 ], [ 143.2, 12.4 ], [ 142.0, 12.9 ], [ 140.7, 12.8 ], [ 139.3, 12.6 ], [ 137.5, 12.7 ], [ 135.6, 13.3 ], [ 133.7, 14.0 ], [ 132.4, 14.4 ], [ 131.6, 13.9 ], [ 130.6, 13.3 ], [ 129.4, 13.0 ], [ 128.2, 12.8 ], [ 127.0, 12.7 ], [ 125.8, 13.5 ], [ 124.7, 13.0 ], [ 124.3, 13.7 ], [ 122.6, 13.9 ], [ 122.4, 14.0 ], [ 121.6, 14.4 ], [ 119.7, 14.8 ], [ 118.8, 16.1 ], [ 117.5, 17.3 ], [ 116.7, 18.0 ], [ 115.3, 18.5 ], [ 114.2, 18.5 ], [ 112.9, 17.9 ], [ 112.2, 17.3 ], [ 111.6, 17.1 ], [ 111.4, 17.0 ], [ 111.8, 17.3 ], [ 111.8, 17.2 ], [ 110.3, 17.5 ], [ 109.6, 17.2 ], [ 108.7, 16.5 ], [ 108.6, 16.0 ] ] } },
{ "type": "Feature", "properties": { "ID": 65389, "LAT": 14.6, "LON": 107.2, "VMAX": 15.0, "MSLP": 1013.8515, "RMAX": 42.70218, "FSPD": 2.54103, "FDIR": 215.92152, "RENV": 250.0, "PENV": 1012.0, "VALIDT": 24, "DTG": "2025-10-24 00:00", "LATNOW": 16.0, "LONNOW": 108.6, "WINDNOW": 25.0, "DIRNOW": 3.0, "SPDNOW": 4.0, "TECH": "FCST", "ADVNR": 21, "ATCFID": "WP302025", "NAME": "FENGSHEN", "FTECH": "JTWC", "FCST_DTG": "2025-10-23 00:00:00", "RUN_DTG": "2025-10-23 15:14:57", "BASIN": "WP", "STMNR": 30, "CAT_ID": null, "CAT_DESC": null, "MSGID": "WTPN31 PGTW 230300", "VALIDTIME": "2025-10-24 00:00:00" }, "geometry": { "type": "LineString", "coordinates": [ [ 108.6, 16.0 ], [ 108.36, 15.82 ], [ 107.8, 15.4 ], [ 107.2, 14.6 ] ] } }
]
}
