{
"type": "FeatureCollection",
"crs": { "type": "name", "properties": { "name": "urn:ogc:def:crs:OGC:1.3:CRS84" } },
"features": [
{ "type": "Feature", "properties": { "ID": 96158, "LAT": 33.0, "LON": -34.2, "VMAX": 25.0, "MSLP": 1017.0, "RMAX": 90.0, "FSPD": 2.31303, "FDIR": 48.14624, "RENV": 180.0, "PENV": 1019.0, "VALIDT": 0, "DTG": "2026-09-18 12:00", "LATNOW": 30.1, "LONNOW": -38.8, "WINDNOW": 30.0, "DIRNOW": 4.0, "SPDNOW": 3.0, "TECH": "TRAK", "ADVNR": 15, "ATCFID": "AL062026", "NAME": "FAY", "FTECH": "OFCL", "FCST_DTG": "2026-09-23 18:00:00", "RUN_DTG": "2026-09-23 22:21:55", "BASIN": "AL", "STMNR": 6, "CAT_ID": null, "CAT_DESC": null, "MSGID": "WTNT21 KNHC 232034", "VALIDTIME": "2026-09-18 12:00:00" }, "geometry": { "type": "Point", "coordinates": [ -34.200001, 33.0 ] } },
{ "type": "Feature", "properties": { "ID": 96159, "LAT": 33.3, "LON": -33.8, "VMAX": 25.0, "MSLP": 1016.0, "RMAX": 50.0, "FSPD": 0.67033, "FDIR": 320.12704, "RENV": 180.0, "PENV": 1019.0, "VALIDT": 0, "DTG": "2026-09-18 18:00", "LATNOW": 30.1, "LONNOW": -38.8, "WINDNOW": 30.0, "DIRNOW": 4.0, "SPDNOW": 3.0, "TECH": "TRAK", "ADVNR": 15, "ATCFID": "AL062026", "NAME": "FAY", "FTECH": "OFCL", "FCST_DTG": "2026-09-23 18:00:00", "RUN_DTG": "2026-09-23 22:21:55", "BASIN": "AL", "STMNR": 6, "CAT_ID": null, "CAT_DESC": null, "MSGID": "WTNT21 KNHC 232034", "VALIDTIME": "2026-09-18 18:00:00" }, "geometry": { "type": "Point", "coordinates": [ -33.799999, 33.299999 ] } },
{ "type": "Feature", "properties": { "ID": 96160, "LAT": 33.4, "LON": -33.9, "VMAX": 30.0, "MSLP": 1015.0, "RMAX": 50.0, "FSPD": 4.31431, "FDIR": 162.54141, "RENV": 180.0, "PENV": 1019.0, "VALIDT": 0, "DTG": "2026-09-19 00:00", "LATNOW": 30.1, "LONNOW": -38.8, "WINDNOW": 30.0, "DIRNOW": 4.0, "SPDNOW": 3.0, "TECH": "TRAK", "ADVNR": 15, "ATCFID": "AL062026", "NAME": "FAY", "FTECH": "OFCL", "FCST_DTG": "2026-09-23 18:00:00", "RUN_DTG": "2026-09-23 22:21:55", "BASIN": "AL", "STMNR": 6, "CAT_ID": null, "CAT_DESC": null, "MSGID": "WTNT21 KNHC 232034", "VALIDTIME": "2026-09-19 00:00:00" }, "geometry": { "type": "Point", "coordinates": [ -33.900002, 33.400002 ] } },
{ "type": "Feature", "properties": { "ID": 96161, "LAT": 32.6, "LON": -33.6, "VMAX": 30.0, "MSLP": 1015.0, "RMAX": 50.0, "FSPD": 0.51444, "FDIR": 179.99997, "RENV": 180.0, "PENV": 1019.0, "VALIDT": 0, "DTG": "2026-09-19 06:00", "LATNOW": 30.1, "LONNOW": -38.8, "WINDNOW": 30.0, "DIRNOW": 4.0, "SPDNOW": 3.0, "TECH": "TRAK", "ADVNR": 15, "ATCFID": "AL062026", "NAME": "FAY", "FTECH": "OFCL", "FCST_DTG": "2026-09-23 18:00:00", "RUN_DTG": "2026-09-23 22:21:55", "BASIN": "AL", "STMNR": 6, "CAT_ID": null, "CAT_DESC": null, "MSGID": "WTNT21 KNHC 232034", "VALIDTIME": "2026-09-19 06:00:00" }, "geometry": { "type": "Point", "coordinates": [ -33.599998, 32.599998 ] } },
{ "type": "Feature", "properties": { "ID": 96162, "LAT": 32.5, "LON": -33.6, "VMAX": 30.0, "MSLP": 1009.0, "RMAX": 50.0, "FSPD": 1.11644, "FDIR": 22.84171, "RENV": 190.0, "PENV": 1019.0, "VALIDT": 0, "DTG": "2026-09-19 12:00", "LATNOW": 30.1, "LONNOW": -38.8, "WINDNOW": 30.0, "DIRNOW": 4.0, "SPDNOW": 3.0, "TECH": "TRAK", "ADVNR": 15, "ATCFID": "AL062026", "NAME": "FAY", "FTECH": "OFCL", "FCST_DTG": "2026-09-23 18:00:00", "RUN_DTG": "2026-09-23 22:21:55", "BASIN": "AL", "STMNR": 6, "CAT_ID": null, "CAT_DESC": null, "MSGID": "WTNT21 KNHC 232034", "VALIDTIME": "2026-09-19 12:00:00" }, "geometry": { "type": "Point", "coordinates": [ -33.599998, 32.5 ] } },
{ "type": "Feature", "properties": { "ID": 96163, "LAT": 32.7, "LON": -33.5, "VMAX": 30.0, "MSLP": 1007.0, "RMAX": 50.0, "FSPD": 2.23175, "FDIR": 22.77335, "RENV": 200.0, "PENV": 1017.0, "VALIDT": 0, "DTG": "2026-09-19 18:00", "LATNOW": 30.1, "LONNOW": -38.8, "WINDNOW": 30.0, "DIRNOW": 4.0, "SPDNOW": 3.0, "TECH": "TRAK", "ADVNR": 15, "ATCFID": "AL062026", "NAME": "FAY", "FTECH": "OFCL", "FCST_DTG": "2026-09-23 18:00:00", "RUN_DTG": "2026-09-23 22:21:55", "BASIN": "AL", "STMNR": 6, "CAT_ID": null, "CAT_DESC": null, "MSGID": "WTNT21 KNHC 232034", "VALIDTIME": "2026-09-19 18:00:00" }, "geometry": { "type": "Point", "coordinates": [ -33.5, 32.700001 ] } },
{ "type": "Feature", "properties": { "ID": 96164, "LAT": 33.1, "LON": -33.3, "VMAX": 30.0, "MSLP": 1007.0, "RMAX": 50.0, "FSPD": 2.10223, "FDIR": 11.80203, "RENV": 200.0, "PENV": 1017.0, "VALIDT": 0, "DTG": "2026-09-20 00:00", "LATNOW": 30.1, "LONNOW": -38.8, "WINDNOW": 30.0, "DIRNOW": 4.0, "SPDNOW": 3.0, "TECH": "TRAK", "ADVNR": 15, "ATCFID": "AL062026", "NAME": "FAY", "FTECH": "OFCL", "FCST_DTG": "2026-09-23 18:00:00", "RUN_DTG": "2026-09-23 22:21:55", "BASIN": "AL", "STMNR": 6, "CAT_ID": null, "CAT_DESC": null, "MSGID": "WTNT21 KNHC 232034", "VALIDTIME": "2026-09-20 00:00:00" }, "geometry": { "type": "Point", "coordinates": [ -33.299999, 33.099998 ] } },
{ "type": "Feature", "properties": { "ID": 96165, "LAT": 33.5, "LON": -33.2, "VMAX": 35.0, "MSLP": 1006.0, "RMAX": 30.0, "FSPD": 2.60755, "FDIR": 9.44174, "RENV": 200.0, "PENV": 1016.0, "VALIDT": 0, "DTG": "2026-09-20 06:00", "LATNOW": 30.1, "LONNOW": -38.8, "WINDNOW": 30.0, "DIRNOW": 4.0, "SPDNOW": 3.0, "TECH": "TRAK", "ADVNR": 15, "ATCFID": "AL062026", "NAME": "FAY", "FTECH": "OFCL", "FCST_DTG": "2026-09-23 18:00:00", "RUN_DTG": "2026-09-23 22:21:55", "BASIN": "AL", "STMNR": 6, "CAT_ID": null, "CAT_DESC": null, "MSGID": "WTNT21 KNHC 232034", "VALIDTIME": "2026-09-20 06:00:00" }, "geometry": { "type": "Point", "coordinates": [ -33.200001, 33.5 ] } },
{ "type": "Feature", "properties": { "ID": 96166, "LAT": 34.0, "LON": -33.1, "VMAX": 45.0, "MSLP": 1004.0, "RMAX": 30.0, "FSPD": 2.42153, "FDIR": 31.81158, "RENV": 200.0, "PENV": 1016.0, "VALIDT": 0, "DTG": "2026-09-20 12:00", "LATNOW": 30.1, "LONNOW": -38.8, "WINDNOW": 30.0, "DIRNOW": 4.0, "SPDNOW": 3.0, "TECH": "TRAK", "ADVNR": 15, "ATCFID": "AL062026", "NAME": "FAY", "FTECH": "OFCL", "FCST_DTG": "2026-09-23 18:00:00", "RUN_DTG": "2026-09-23 22:21:55", "BASIN": "AL", "STMNR": 6, "CAT_ID": null, "CAT_DESC": null, "MSGID": "WTNT21 KNHC 232034", "VALIDTIME": "2026-09-20 12:00:00" }, "geometry": { "type": "Point", "coordinates": [ -33.099998, 34.0 ] } },
{ "type": "Feature", "properties": { "ID": 96167, "LAT": 34.4, "LON": -32.8, "VMAX": 55.0, "MSLP": 999.0, "RMAX": 20.0, "FSPD": 3.14778, "FDIR": 109.07843, "RENV": 180.0, "PENV": 1017.0, "VALIDT": 0, "DTG": "2026-09-20 18:00", "LATNOW": 30.1, "LONNOW": -38.8, "WINDNOW": 30.0, "DIRNOW": 4.0, "SPDNOW": 3.0, "TECH": "TRAK", "ADVNR": 15, "ATCFID": "AL062026", "NAME": "FAY", "FTECH": "OFCL", "FCST_DTG": "2026-09-23 18:00:00", "RUN_DTG": "2026-09-23 22:21:55", "BASIN": "AL", "STMNR": 6, "CAT_ID": null, "CAT_DESC": null, "MSGID": "WTNT21 KNHC 232034", "VALIDTIME": "2026-09-20 18:00:00" }, "geometry": { "type": "Point", "coordinates": [ -32.799999, 34.400002 ] } },
{ "type": "Feature", "properties": { "ID": 96168, "LAT": 34.2, "LON": -32.1, "VMAX": 60.0, "MSLP": 995.0, "RMAX": 15.0, "FSPD": 1.11359, "FDIR": 157.50931, "RENV": 180.0, "PENV": 1019.0, "VALIDT": 0, "DTG": "2026-09-21 00:00", "LATNOW": 30.1, "LONNOW": -38.8, "WINDNOW": 30.0, "DIRNOW": 4.0, "SPDNOW": 3.0, "TECH": "TRAK", "ADVNR": 15, "ATCFID": "AL062026", "NAME": "FAY", "FTECH": "OFCL", "FCST_DTG": "2026-09-23 18:00:00", "RUN_DTG": "2026-09-23 22:21:55", "BASIN": "AL", "STMNR": 6, "CAT_ID": null, "CAT_DESC": null, "MSGID": "WTNT21 KNHC 232034", "VALIDTIME": "2026-09-21 00:00:00" }, "geometry": { "type": "Point", "coordinates": [ -32.099998, 34.200001 ] } },
{ "type": "Feature", "properties": { "ID": 96169, "LAT": 34.0, "LON": -32.0, "VMAX": 55.0, "MSLP": 997.0, "RMAX": 15.0, "FSPD": 2.60755, "FDIR": 170.55838, "RENV": 150.0, "PENV": 1018.0, "VALIDT": 0, "DTG": "2026-09-21 06:00", "LATNOW": 30.1, "LONNOW": -38.8, "WINDNOW": 30.0, "DIRNOW": 4.0, "SPDNOW": 3.0, "TECH": "TRAK", "ADVNR": 15, "ATCFID": "AL062026", "NAME": "FAY", "FTECH": "OFCL", "FCST_DTG": "2026-09-23 18:00:00", "RUN_DTG": "2026-09-23 22:21:55", "BASIN": "AL", "STMNR": 6, "CAT_ID": null, "CAT_DESC": null, "MSGID": "WTNT21 KNHC 232034", "VALIDTIME": "2026-09-21 06:00:00" }, "geometry": { "type": "Point", "coordinates": [ -32.0, 34.0 ] } },
{ "type": "Feature", "properties": { "ID": 96170, "LAT": 33.5, "LON": -31.9, "VMAX": 45.0, "MSLP": 1000.0, "RMAX": 15.0, "FSPD": 1.34031, "FDIR": 219.85641, "RENV": 150.0, "PENV": 1020.0, "VALIDT": 0, "DTG": "2026-09-21 12:00", "LATNOW": 30.1, "LONNOW": -38.8, "WINDNOW": 30.0, "DIRNOW": 4.0, "SPDNOW": 3.0, "TECH": "TRAK", "ADVNR": 15, "ATCFID": "AL062026", "NAME": "FAY", "FTECH": "OFCL", "FCST_DTG": "2026-09-23 18:00:00", "RUN_DTG": "2026-09-23 22:21:55", "BASIN": "AL", "STMNR": 6, "CAT_ID": null, "CAT_DESC": null, "MSGID": "WTNT21 KNHC 232034", "VALIDTIME": "2026-09-21 12:00:00" }, "geometry": { "type": "Point", "coordinates": [ -31.9, 33.5 ] } },
{ "type": "Feature", "properties": { "ID": 96171, "LAT": 33.3, "LON": -32.1, "VMAX": 40.0, "MSLP": 1004.0, "RMAX": 20.0, "FSPD": 4.43588, "FDIR": 215.72629, "RENV": 120.0, "PENV": 1018.0, "VALIDT": 0, "DTG": "2026-09-21 18:00", "LATNOW": 30.1, "LONNOW": -38.8, "WINDNOW": 30.0, "DIRNOW": 4.0, "SPDNOW": 3.0, "TECH": "TRAK", "ADVNR": 15, "ATCFID": "AL062026", "NAME": "FAY", "FTECH": "OFCL", "FCST_DTG": "2026-09-23 18:00:00", "RUN_DTG": "2026-09-23 22:21:55", "BASIN": "AL", "STMNR": 6, "CAT_ID": null, "CAT_DESC": null, "MSGID": "WTNT21 KNHC 232034", "VALIDTIME": "2026-09-21 18:00:00" }, "geometry": { "type": "Point", "coordinates": [ -32.099998, 33.299999 ] } },
{ "type": "Feature", "properties": { "ID": 96172, "LAT": 32.6, "LON": -32.7, "VMAX": 35.0, "MSLP": 1008.0, "RMAX": 20.0, "FSPD": 3.98388, "FDIR": 229.78503, "RENV": 130.0, "PENV": 1020.0, "VALIDT": 0, "DTG": "2026-09-22 00:00", "LATNOW": 30.1, "LONNOW": -38.8, "WINDNOW": 30.0, "DIRNOW": 4.0, "SPDNOW": 3.0, "TECH": "TRAK", "ADVNR": 15, "ATCFID": "AL062026", "NAME": "FAY", "FTECH": "OFCL", "FCST_DTG": "2026-09-23 18:00:00", "RUN_DTG": "2026-09-23 22:21:55", "BASIN": "AL", "STMNR": 6, "CAT_ID": null, "CAT_DESC": null, "MSGID": "WTNT21 KNHC 232034", "VALIDTIME": "2026-09-22 00:00:00" }, "geometry": { "type": "Point", "coordinates": [ -32.700001, 32.599998 ] } },
{ "type": "Feature", "properties": { "ID": 96173, "LAT": 32.1, "LON": -33.4, "VMAX": 35.0, "MSLP": 1009.0, "RMAX": 40.0, "FSPD": 4.72705, "FDIR": 220.37614, "RENV": 130.0, "PENV": 1020.0, "VALIDT": 0, "DTG": "2026-09-22 06:00", "LATNOW": 30.1, "LONNOW": -38.8, "WINDNOW": 30.0, "DIRNOW": 4.0, "SPDNOW": 3.0, "TECH": "TRAK", "ADVNR": 15, "ATCFID": "AL062026", "NAME": "FAY", "FTECH": "OFCL", "FCST_DTG": "2026-09-23 18:00:00", "RUN_DTG": "2026-09-23 22:21:55", "BASIN": "AL", "STMNR": 6, "CAT_ID": null, "CAT_DESC": null, "MSGID": "WTNT21 KNHC 232034", "VALIDTIME": "2026-09-22 06:00:00" }, "geometry": { "type": "Point", "coordinates": [ -33.400002, 32.099998 ] } },
{ "type": "Feature", "properties": { "ID": 96174, "LAT": 31.4, "LON": -34.1, "VMAX": 30.0, "MSLP": 1010.0, "RMAX": 40.0, "FSPD": 3.70439, "FDIR": 236.255, "RENV": 130.0, "PENV": 1020.0, "VALIDT": 0, "DTG": "2026-09-22 12:00", "LATNOW": 30.1, "LONNOW": -38.8, "WINDNOW": 30.0, "DIRNOW": 4.0, "SPDNOW": 3.0, "TECH": "TRAK", "ADVNR": 15, "ATCFID": "AL062026", "NAME": "FAY", "FTECH": "OFCL", "FCST_DTG": "2026-09-23 18:00:00", "RUN_DTG": "2026-09-23 22:21:55", "BASIN": "AL", "STMNR": 6, "CAT_ID": null, "CAT_DESC": null, "MSGID": "WTNT21 KNHC 232034", "VALIDTIME": "2026-09-22 12:00:00" }, "geometry": { "type": "Point", "coordinates": [ -34.099998, 31.4 ] } },
{ "type": "Feature", "properties": { "ID": 96175, "LAT": 31.0, "LON": -34.8, "VMAX": 30.0, "MSLP": 1010.0, "RMAX": 40.0, "FSPD": 4.87451, "FDIR": 245.02957, "RENV": 130.0, "PENV": 1020.0, "VALIDT": 0, "DTG": "2026-09-22 18:00", "LATNOW": 30.1, "LONNOW": -38.8, "WINDNOW": 30.0, "DIRNOW": 4.0, "SPDNOW": 3.0, "TECH": "TRAK", "ADVNR": 15, "ATCFID": "AL062026", "NAME": "FAY", "FTECH": "OFCL", "FCST_DTG": "2026-09-23 18:00:00", "RUN_DTG": "2026-09-23 22:21:55", "BASIN": "AL", "STMNR": 6, "CAT_ID": null, "CAT_DESC": null, "MSGID": "WTNT21 KNHC 232034", "VALIDTIME": "2026-09-22 18:00:00" }, "geometry": { "type": "Point", "coordinates": [ -34.799999, 31.0 ] } },
{ "type": "Feature", "properties": { "ID": 96176, "LAT": 30.6, "LON": -35.8, "VMAX": 27.0, "MSLP": 1013.0, "RMAX": 24.08774, "FSPD": 4.42804, "FDIR": 269.99997, "RENV": 361.31604, "PENV": 1012.0, "VALIDT": 0, "DTG": "2026-09-23 00:00", "LATNOW": 30.1, "LONNOW": -38.8, "WINDNOW": 30.0, "DIRNOW": 4.0, "SPDNOW": 3.0, "TECH": "TRAK", "ADVNR": 15, "ATCFID": "AL062026", "NAME": "FAY", "FTECH": "OFCL", "FCST_DTG": "2026-09-23 18:00:00", "RUN_DTG": "2026-09-23 22:21:55", "BASIN": "AL", "STMNR": 6, "CAT_ID": null, "CAT_DESC": null, "MSGID": "WTNT21 KNHC 232034", "VALIDTIME": "2026-09-23 00:00:00" }, "geometry": { "type": "Point", "coordinates": [ -35.799999, 30.6 ] } },
{ "type": "Feature", "properties": { "ID": 96177, "LAT": 30.6, "LON": -37.8, "VMAX": 30.0, "MSLP": 1011.0, "RMAX": 40.0, "FSPD": 5.13077, "FDIR": 239.91177, "RENV": 130.0, "PENV": 1019.0, "VALIDT": 0, "DTG": "2026-09-23 12:00", "LATNOW": 30.1, "LONNOW": -38.8, "WINDNOW": 30.0, "DIRNOW": 4.0, "SPDNOW": 3.0, "TECH": "TRAK", "ADVNR": 15, "ATCFID": "AL062026", "NAME": "FAY", "FTECH": "OFCL", "FCST_DTG": "2026-09-23 18:00:00", "RUN_DTG": "2026-09-23 22:21:55", "BASIN": "AL", "STMNR": 6, "CAT_ID": null, "CAT_DESC": null, "MSGID": "WTNT21 KNHC 232034", "VALIDTIME": "2026-09-23 12:00:00" }, "geometry": { "type": "Point", "coordinates": [ -37.799999, 30.6 ] } },
{ "type": "Feature", "properties": { "ID": 96178, "LAT": 30.1, "LON": -38.8, "VMAX": 30.0, "MSLP": 1011.0, "RMAX": 40.0, "FSPD": 3.56059, "FDIR": 269.99997, "RENV": 140.0, "PENV": 1016.0, "VALIDT": 0, "DTG": "2026-09-23 18:00", "LATNOW": 30.1, "LONNOW": -38.8, "WINDNOW": 30.0, "DIRNOW": 4.0, "SPDNOW": 3.0, "TECH": "TRAK", "ADVNR": 15, "ATCFID": "AL062026", "NAME": "FAY", "FTECH": "OFCL", "FCST_DTG": "2026-09-23 18:00:00", "RUN_DTG": "2026-09-23 22:21:55", "BASIN": "AL", "STMNR": 6, "CAT_ID": null, "CAT_DESC": null, "MSGID": "WTNT21 KNHC 232034", "VALIDTIME": "2026-09-23 18:00:00" }, "geometry": { "type": "Point", "coordinates": [ -38.799999, 30.1 ] } },
{ "type": "Feature", "properties": { "ID": 96179, "LAT": 30.1, "LON": -39.2, "VMAX": 30.0, "MSLP": 1011.0, "RMAX": 40.0, "FSPD": 3.92164, "FDIR": 259.92664, "RENV": 250.0, "PENV": 1012.0, "VALIDT": 3, "DTG": "2026-09-23 21:00", "LATNOW": 30.1, "LONNOW": -38.8, "WINDNOW": 30.0, "DIRNOW": 4.0, "SPDNOW": 3.0, "TECH": "FCST", "ADVNR": 15, "ATCFID": "AL062026", "NAME": "FAY", "FTECH": "OFCL", "FCST_DTG": "2026-09-23 18:00:00", "RUN_DTG": "2026-09-23 22:21:55", "BASIN": "AL", "STMNR": 6, "CAT_ID": null, "CAT_DESC": null, "MSGID": "WTNT21 KNHC 232034", "VALIDTIME": "2026-09-23 21:00:00" }, "geometry": { "type": "Point", "coordinates": [ -39.200001, 30.1 ] } },
{ "type": "Feature", "properties": { "ID": 96180, "LAT": 29.9, "LON": -40.5, "VMAX": 35.0, "MSLP": 1008.74713, "RMAX": 39.65691, "FSPD": 2.8988, "FDIR": 269.99997, "RENV": 180.0, "PENV": 1012.0, "VALIDT": 12, "DTG": "2026-09-24 06:00", "LATNOW": 30.1, "LONNOW": -38.8, "WINDNOW": 30.0, "DIRNOW": 4.0, "SPDNOW": 3.0, "TECH": "FCST", "ADVNR": 15, "ATCFID": "AL062026", "NAME": "FAY", "FTECH": "OFCL", "FCST_DTG": "2026-09-23 18:00:00", "RUN_DTG": "2026-09-23 22:21:55", "BASIN": "AL", "STMNR": 6, "CAT_ID": null, "CAT_DESC": null, "MSGID": "WTNT21 KNHC 232034", "VALIDTIME": "2026-09-24 06:00:00" }, "geometry": { "type": "Point", "coordinates": [ -40.5, 29.9 ] } },
{ "type": "Feature", "properties": { "ID": 96181, "LAT": 29.9, "LON": -41.8, "VMAX": 35.0, "MSLP": 1008.74713, "RMAX": 39.65691, "FSPD": 2.22985, "FDIR": 269.99997, "RENV": 180.0, "PENV": 1012.0, "VALIDT": 24, "DTG": "2026-09-24 18:00", "LATNOW": 30.1, "LONNOW": -38.8, "WINDNOW": 30.0, "DIRNOW": 4.0, "SPDNOW": 3.0, "TECH": "FCST", "ADVNR": 15, "ATCFID": "AL062026", "NAME": "FAY", "FTECH": "OFCL", "FCST_DTG": "2026-09-23 18:00:00", "RUN_DTG": "2026-09-23 22:21:55", "BASIN": "AL", "STMNR": 6, "CAT_ID": null, "CAT_DESC": null, "MSGID": "WTNT21 KNHC 232034", "VALIDTIME": "2026-09-24 18:00:00" }, "geometry": { "type": "Point", "coordinates": [ -41.799999, 29.9 ] } },
{ "type": "Feature", "properties": { "ID": 96182, "LAT": 29.9, "LON": -42.8, "VMAX": 30.0, "MSLP": 1010.40607, "RMAX": 39.67982, "FSPD": 2.0737, "FDIR": 255.63612, "RENV": 250.0, "PENV": 1012.0, "VALIDT": 36, "DTG": "2026-09-25 06:00", "LATNOW": 30.1, "LONNOW": -38.8, "WINDNOW": 30.0, "DIRNOW": 4.0, "SPDNOW": 3.0, "TECH": "FCST", "ADVNR": 15, "ATCFID": "AL062026", "NAME": "FAY", "FTECH": "OFCL", "FCST_DTG": "2026-09-23 18:00:00", "RUN_DTG": "2026-09-23 22:21:55", "BASIN": "AL", "STMNR": 6, "CAT_ID": null, "CAT_DESC": null, "MSGID": "WTNT21 KNHC 232034", "VALIDTIME": "2026-09-25 06:00:00" }, "geometry": { "type": "Point", "coordinates": [ -42.799999, 29.9 ] } },
{ "type": "Feature", "properties": { "ID": 96183, "LAT": 29.7, "LON": -43.7, "VMAX": 25.0, "MSLP": 1011.80975, "RMAX": 39.3783, "FSPD": 2.29494, "FDIR": 257.04614, "RENV": 250.0, "PENV": 1012.0, "VALIDT": 48, "DTG": "2026-09-25 18:00", "LATNOW": 30.1, "LONNOW": -38.8, "WINDNOW": 30.0, "DIRNOW": 4.0, "SPDNOW": 3.0, "TECH": "FCST", "ADVNR": 15, "ATCFID": "AL062026", "NAME": "FAY", "FTECH": "OFCL", "FCST_DTG": "2026-09-23 18:00:00", "RUN_DTG": "2026-09-23 22:21:55", "BASIN": "AL", "STMNR": 6, "CAT_ID": null, "CAT_DESC": null, "MSGID": "WTNT21 KNHC 232034", "VALIDTIME": "2026-09-25 18:00:00" }, "geometry": { "type": "Point", "coordinates": [ -43.700001, 29.700001 ] } },
{ "type": "Feature", "properties": { "ID": 96184, "LAT": 29.5, "LON": -44.7, "VMAX": 25.0, "MSLP": 1011.80975, "RMAX": 39.06852, "FSPD": 1.34325, "FDIR": 269.99997, "RENV": 250.0, "PENV": 1012.0, "VALIDT": 60, "DTG": "2026-09-26 06:00", "LATNOW": 30.1, "LONNOW": -38.8, "WINDNOW": 30.0, "DIRNOW": 4.0, "SPDNOW": 3.0, "TECH": "FCST", "ADVNR": 15, "ATCFID": "AL062026", "NAME": "FAY", "FTECH": "OFCL", "FCST_DTG": "2026-09-23 18:00:00", "RUN_DTG": "2026-09-23 22:21:55", "BASIN": "AL", "STMNR": 6, "CAT_ID": null, "CAT_DESC": null, "MSGID": "WTNT21 KNHC 232034", "VALIDTIME": "2026-09-26 06:00:00" }, "geometry": { "type": "Point", "coordinates": [ -44.700001, 29.5 ] } },
{ "type": "Feature", "properties": { "ID": 96185, "LAT": 29.5, "LON": -45.3, "VMAX": 20.0, "MSLP": 1012.95825, "RMAX": 39.07133, "FSPD": 1.34325, "FDIR": 269.99997, "RENV": 250.0, "PENV": 1012.0, "VALIDT": 72, "DTG": "2026-09-26 18:00", "LATNOW": 30.1, "LONNOW": -38.8, "WINDNOW": 30.0, "DIRNOW": 4.0, "SPDNOW": 3.0, "TECH": "FCST", "ADVNR": 15, "ATCFID": "AL062026", "NAME": "FAY", "FTECH": "OFCL", "FCST_DTG": "2026-09-23 18:00:00", "RUN_DTG": "2026-09-23 22:21:55", "BASIN": "AL", "STMNR": 6, "CAT_ID": null, "CAT_DESC": null, "MSGID": "WTNT21 KNHC 232034", "VALIDTIME": "2026-09-26 18:00:00" }, "geometry": { "type": "Point", "coordinates": [ -45.299999, 29.5 ] } },
{ "type": "Feature", "properties": { "ID": 96178, "LAT": 30.1, "LON": -38.8, "VMAX": 30.0, "MSLP": 1011.0, "RMAX": 40.0, "FSPD": 3.56059, "FDIR": 269.99997, "RENV": 140.0, "PENV": 1016.0, "VALIDT": 0, "DTG": "2026-09-23 18:00", "LATNOW": 30.1, "LONNOW": -38.8, "WINDNOW": 30.0, "DIRNOW": 4.0, "SPDNOW": 3.0, "TECH": "TRAK", "ADVNR": 15, "ATCFID": "AL062026", "NAME": "FAY", "FTECH": "OFCL", "FCST_DTG": "2026-09-23 18:00:00", "RUN_DTG": "2026-09-23 22:21:55", "BASIN": "AL", "STMNR": 6, "CAT_ID": null, "CAT_DESC": null, "MSGID": "WTNT21 KNHC 232034", "VALIDTIME": "2026-09-23 18:00:00" }, "geometry": { "type": "LineString", "coordinates": [ [ -34.2, 33.0 ], [ -33.8, 33.3 ], [ -33.9, 33.4 ], [ -33.6, 32.6 ], [ -33.6, 32.5 ], [ -33.5, 32.7 ], [ -33.3, 33.1 ], [ -33.2, 33.5 ], [ -33.1, 34.0 ], [ -32.8, 34.4 ], [ -32.1, 34.2 ], [ -32.0, 34.0 ], [ -31.9, 33.5 ], [ -32.1, 33.3 ], [ -32.7, 32.6 ], [ -33.4, 32.1 ], [ -34.1, 31.4 ], [ -34.8, 31.0 ], [ -35.8, 30.6 ], [ -37.8, 30.6 ], [ -38.8, 30.1 ] ] } },
{ "type": "Feature", "properties": { "ID": 96185, "LAT": 29.5, "LON": -45.3, "VMAX": 20.0, "MSLP": 1012.95825, "RMAX": 39.07133, "FSPD": 1.34325, "FDIR": 269.99997, "RENV": 250.0, "PENV": 1012.0, "VALIDT": 72, "DTG": "2026-09-26 18:00", "LATNOW": 30.1, "LONNOW": -38.8, "WINDNOW": 30.0, "DIRNOW": 4.0, "SPDNOW": 3.0, "TECH": "FCST", "ADVNR": 15, "ATCFID": "AL062026", "NAME": "FAY", "FTECH": "OFCL", "FCST_DTG": "2026-09-23 18:00:00", "RUN_DTG": "2026-09-23 22:21:55", "BASIN": "AL", "STMNR": 6, "CAT_ID": null, "CAT_DESC": null, "MSGID": "WTNT21 KNHC 232034", "VALIDTIME": "2026-09-26 18:00:00" }, "geometry": { "type": "LineString", "coordinates": [ [ -38.8, 30.1 ], [ -39.2, 30.1 ], [ -40.5, 29.9 ], [ -41.8, 29.9 ], [ -42.8, 29.9 ], [ -43.7, 29.7 ], [ -44.7, 29.5 ], [ -45.3, 29.5 ] ] } }
]
}
